{"type":"FeatureCollection","features":[{"type":"Feature","geometry":{"type":"MultiPolygon","coordinates":[[[[-63.64821,-12.33439],[-63.59269,-12.3343],[-63.59425,-12.33099],[-63.5941,-12.32748],[-63.5956,-12.32329],[-63.59532,-12.3191],[-63.5971,-12.31815],[-63.59764,-12.31424],[-63.59613,-12.31329],[-63.59476,-12.31505],[-63.59339,-12.31344],[-63.59544,-12.311],[-63.59489,-12.30979],[-63.59392,-12.30574],[-63.58828,-12.30089],[-63.58636,-12.29779],[-63.58402,-12.29469],[-63.58251,-12.29212],[-63.57811,-12.28943],[-63.57756,-12.28646],[-63.5774,-12.27795],[-63.57616,-12.27566],[-63.57615,-12.27283],[-63.57367,-12.26621],[-63.57229,-12.26176],[-63.57024,-12.26096],[-63.56845,-12.25853],[-63.56913,-12.25583],[-63.57077,-12.25312],[-63.56844,-12.2534],[-63.56692,-12.25097],[-63.56254,-12.25071],[-63.55993,-12.24828],[-63.56047,-12.24545],[-63.56019,-12.24234],[-63.55731,-12.24343],[-63.55909,-12.24194],[-63.5595,-12.23924],[-63.56155,-12.23694],[-63.56154,-12.23424],[-63.55907,-12.23384],[-63.55948,-12.23181],[-63.55811,-12.23114],[-63.55701,-12.23262],[-63.55646,-12.23222],[-63.55646,-12.23087],[-63.55537,-12.23101],[-63.55358,-12.2298],[-63.55344,-12.22899],[-63.55235,-12.22953],[-63.55084,-12.22913],[-63.55097,-12.22723],[-63.54905,-12.22616],[-63.54767,-12.224],[-63.55097,-12.2248],[-63.55014,-12.22332],[-63.55068,-12.22116],[-63.54931,-12.22089],[-63.54808,-12.22251],[-63.54794,-12.21941],[-63.54807,-12.21846],[-63.54643,-12.21712],[-63.54766,-12.21644],[-63.5482,-12.21428],[-63.54519,-12.21496],[-63.54532,-12.21347],[-63.54299,-12.21253],[-63.54326,-12.20969],[-63.53969,-12.20592],[-63.53681,-12.20485],[-63.53598,-12.20269],[-63.53625,-12.20134],[-63.53803,-12.1989],[-63.53866,-12.19304],[-63.53797,-12.192],[-63.53831,-12.189],[-63.53785,-12.18739],[-63.5382,-12.18635],[-63.53721,-12.18491],[-63.53704,-12.18237],[-63.53721,-12.1804],[-63.53698,-12.17867],[-63.53606,-12.17706],[-63.53603,-12.17534],[-63.53548,-12.17342],[-63.53554,-12.17209],[-63.53496,-12.17111],[-63.53537,-12.17001],[-63.53398,-12.16811],[-63.53271,-12.16597],[-63.52994,-12.16563],[-63.52602,-12.1643],[-63.51973,-12.16303],[-63.5154,-12.16066],[-63.51101,-12.15847],[-63.50893,-12.15563],[-63.49825,-12.15315],[-63.49571,-12.15316],[-63.49437,-12.15408],[-63.49237,-12.15369],[-63.49237,-12.1525],[-63.4913,-12.15211],[-63.49076,-12.15066],[-63.48969,-12.15014],[-63.48729,-12.15041],[-63.48448,-12.14923],[-63.48408,-12.14686],[-63.48381,-12.14646],[-63.4786,-12.14661],[-63.47794,-12.14542],[-63.4758,-12.14503],[-63.47513,-12.14516],[-63.47459,-12.14345],[-63.47312,-12.14254],[-63.47299,-12.14201],[-63.47098,-12.14188],[-63.47032,-12.14109],[-63.47018,-12.13991],[-63.46911,-12.1407],[-63.46871,-12.13991],[-63.46871,-12.13833],[-63.46831,-12.13728],[-63.46844,-12.13557],[-63.46657,-12.13557],[-63.46629,-12.13202],[-63.46736,-12.13005],[-63.46642,-12.12992],[-63.46589,-12.12794],[-63.46415,-12.1265],[-63.46441,-12.12439],[-63.46348,-12.12413],[-63.46348,-12.12282],[-63.46187,-12.12256],[-63.46054,-12.1219],[-63.46013,-12.12058],[-63.45773,-12.11954],[-63.45732,-12.11638],[-63.45959,-12.1148],[-63.45812,-12.11335],[-63.45932,-12.11256],[-63.46052,-12.10993],[-63.46038,-12.10677],[-63.46091,-12.10453],[-63.4593,-12.10282],[-63.46077,-12.10006],[-63.46023,-12.09887],[-63.46249,-12.0915],[-63.46329,-12.08992],[-63.46288,-12.08913],[-63.46395,-12.08795],[-63.46341,-12.08716],[-63.46395,-12.0865],[-63.46368,-12.08466],[-63.46274,-12.08308],[-63.46474,-12.08176],[-63.46567,-12.07926],[-63.46527,-12.07716],[-63.46673,-12.07439],[-63.46312,-12.07084],[-63.46298,-12.07005],[-63.46338,-12.06703],[-63.46417,-12.06479],[-63.4631,-12.06216],[-63.4603,-12.06085],[-63.45936,-12.05993],[-63.45976,-12.05795],[-63.46096,-12.05611],[-63.45949,-12.05374],[-63.45882,-12.05388],[-63.45841,-12.0523],[-63.45601,-12.05099],[-63.45641,-12.04901],[-63.4556,-12.04836],[-63.45334,-12.04981],[-63.4524,-12.04876],[-63.45066,-12.04494],[-63.45146,-12.0427],[-63.45039,-12.04192],[-63.45119,-12.03955],[-63.44905,-12.03652],[-63.44718,-12.03666],[-63.44624,-12.03455],[-63.44477,-12.03377],[-63.4437,-12.03101],[-63.44396,-12.02706],[-63.44435,-12.02429],[-63.44328,-12.02338],[-63.44328,-12.02259],[-63.44528,-12.01864],[-63.4458,-12.011],[-63.44472,-12.00653],[-63.44472,-12.00272],[-63.44507,-12.0005],[-63.44578,-11.99863],[-63.44685,-11.99771],[-63.45165,-11.99718],[-63.45392,-11.99744],[-63.45819,-11.99546],[-63.46205,-11.9944],[-63.46632,-11.99426],[-63.46859,-11.9932],[-63.47232,-11.99083],[-63.47592,-11.98898],[-63.47765,-11.98674],[-63.48072,-11.98423],[-63.48511,-11.97883],[-63.48458,-11.97765],[-63.48524,-11.97488],[-63.48537,-11.97107],[-63.48576,-11.96712],[-63.48908,-11.96146],[-63.49268,-11.95711],[-63.49601,-11.95355],[-63.49601,-11.95289],[-63.498,-11.94986],[-63.50507,-11.94643],[-63.50853,-11.94353],[-63.5136,-11.9401],[-63.51519,-11.93865],[-63.52493,-11.93718],[-63.52774,-11.93836],[-63.53,-11.93862],[-63.53281,-11.9398],[-63.53454,-11.93795],[-63.53921,-11.9361],[-63.54188,-11.9382],[-63.54629,-11.94267],[-63.54963,-11.94516],[-63.55603,-11.94383],[-63.5583,-11.9412],[-63.56176,-11.9383],[-63.56496,-11.93645],[-63.57189,-11.9342],[-63.57442,-11.93366],[-63.57736,-11.93405],[-63.58042,-11.93155],[-63.58162,-11.92891],[-63.58455,-11.92733],[-63.58441,-11.92483],[-63.586,-11.91772],[-63.58532,-11.91417],[-63.58518,-11.90983],[-63.58384,-11.90601],[-63.58209,-11.89865],[-63.58155,-11.8951],[-63.57833,-11.88931],[-63.57766,-11.8851],[-63.57605,-11.88024],[-63.57497,-11.87419],[-63.57496,-11.86945],[-63.5776,-11.85958],[-63.57799,-11.85089],[-63.57931,-11.84708],[-63.5797,-11.84128],[-63.58109,-11.83904],[-63.78807,-11.83874],[-63.78801,-11.83338],[-63.7966,-11.83265],[-63.8121,-11.83295],[-63.81847,-11.83331],[-63.82047,-11.83686],[-63.82082,-11.83938],[-63.81912,-11.84267],[-63.81845,-11.84536],[-63.81897,-11.84855],[-63.81812,-11.85057],[-63.81796,-11.85293],[-63.81916,-11.85637],[-63.82037,-11.86091],[-63.82259,-11.86359],[-63.82363,-11.86712],[-63.8238,-11.86922],[-63.82517,-11.87107],[-63.83131,-11.87223],[-63.83422,-11.87424],[-63.83763,-11.87423],[-63.84069,-11.87363],[-63.84529,-11.87227],[-63.84819,-11.87192],[-63.85007,-11.87377],[-63.85315,-11.87763],[-63.85811,-11.88274],[-63.86119,-11.88559],[-63.86222,-11.88895],[-63.86326,-11.89391],[-63.86191,-11.89845],[-63.86141,-11.90232],[-63.85955,-11.90653],[-63.8582,-11.91049],[-63.8577,-11.91671],[-63.8584,-11.92074],[-63.86062,-11.92376],[-63.86268,-11.92771],[-63.86372,-11.93123],[-63.86679,-11.93341],[-63.86834,-11.93677],[-63.87125,-11.93953],[-63.8733,-11.94289],[-63.88217,-11.94404],[-63.88595,-11.95151],[-63.88801,-11.95621],[-63.89229,-11.96074],[-63.90015,-11.96652],[-63.90578,-11.96767],[-63.90885,-11.968],[-63.92045,-11.96855],[-63.92319,-11.97056],[-63.93599,-11.97565],[-63.93907,-11.97766],[-63.94658,-11.98108],[-63.95,-11.98325],[-63.95342,-11.98643],[-63.95651,-11.99105],[-63.95652,-11.99491],[-63.95722,-11.99878],[-63.95927,-12.00101],[-63.95968,-12.00104],[-63.96221,-12.00613],[-63.96442,-12.01138],[-63.97008,-12.01507],[-63.98266,-12.02199],[-63.99114,-12.02629],[-63.99715,-12.03849],[-63.9978,-12.04405],[-64.00037,-12.06059],[-63.99539,-12.07283],[-63.99479,-12.0784],[-63.99386,-12.08288],[-63.99482,-12.08845],[-63.99358,-12.09031],[-63.99671,-12.08968],[-64.00112,-12.09384],[-64.00365,-12.0994],[-64.00618,-12.10557],[-64.00966,-12.11036],[-64.0103,-12.11468],[-64.01283,-12.11932],[-64.01535,-12.12147],[-64.01693,-12.12533],[-64.01945,-12.12749],[-64.02322,-12.12871],[-64.02512,-12.13211],[-64.02575,-12.13412],[-64.0245,-12.13412],[-64.02545,-12.13752],[-64.02986,-12.14183],[-64.03334,-12.1477],[-64.03461,-12.15218],[-64.03744,-12.15495],[-64.04153,-12.15617],[-64.04311,-12.15833],[-64.04405,-12.15848],[-64.04498,-12.15569],[-64.0475,-12.15847],[-64.05126,-12.15753],[-64.05252,-12.15659],[-64.0566,-12.15704],[-64.0585,-12.16044],[-64.05757,-12.16539],[-64.05853,-12.16786],[-64.05885,-12.17173],[-64.05981,-12.17512],[-64.06295,-12.17542],[-64.06704,-12.17757],[-64.06987,-12.18003],[-64.07553,-12.18264],[-64.07898,-12.18139],[-64.08244,-12.18261],[-64.08527,-12.18322],[-64.08558,-12.1857],[-64.05154,-12.21868],[-64.03095,-12.22476],[-63.99531,-12.21981],[-63.98496,-12.20738],[-63.96906,-12.21529],[-63.9372,-12.21771],[-63.92217,-12.20714],[-63.90522,-12.1855],[-63.88178,-12.18234],[-63.85742,-12.18288],[-63.85135,-12.18413],[-63.85103,-12.18543],[-63.84757,-12.19277],[-63.81779,-12.1954],[-63.79889,-12.19856],[-63.78911,-12.19774],[-63.78911,-12.19126],[-63.78613,-12.19236],[-63.77825,-12.20267],[-63.77531,-12.20621],[-63.77384,-12.20944],[-63.77207,-12.21703],[-63.77145,-12.22088],[-63.7703,-12.2242],[-63.7682,-12.22899],[-63.76589,-12.23201],[-63.75989,-12.23619],[-63.75367,-12.2388],[-63.75009,-12.23985],[-63.74798,-12.24266],[-63.74725,-12.24401],[-63.74631,-12.2488],[-63.74674,-12.25077],[-63.7478,-12.25337],[-63.74993,-12.26147],[-63.74826,-12.26636],[-63.74627,-12.27114],[-63.74648,-12.27249],[-63.74586,-12.2753],[-63.74502,-12.2778],[-63.74545,-12.2806],[-63.74337,-12.29204],[-63.73907,-12.30109],[-63.73233,-12.30516],[-63.7298,-12.30746],[-63.72844,-12.30995],[-63.72907,-12.3112],[-63.72813,-12.31349],[-63.72835,-12.3166],[-63.72804,-12.31858],[-63.72594,-12.32326],[-63.72362,-12.3242],[-63.72247,-12.32701],[-63.71878,-12.32962],[-63.71425,-12.33431],[-63.64821,-12.33439]]],[[[-62.51354,-12.28561],[-62.51465,-12.28589],[-62.51596,-12.28404],[-62.51701,-12.28358],[-62.5181,-12.28366],[-62.51912,-12.28287],[-62.52159,-12.28383],[-62.52401,-12.2839],[-62.52659,-12.28513],[-62.53082,-12.28386],[-62.53279,-12.28452],[-62.53565,-12.28493],[-62.53921,-12.28278],[-62.54162,-12.27991],[-62.54462,-12.27931],[-62.54721,-12.27744],[-62.54949,-12.27787],[-62.55113,-12.27655],[-62.55312,-12.27545],[-62.55618,-12.27502],[-62.55826,-12.27255],[-62.56007,-12.26929],[-62.56313,-12.26859],[-62.56554,-12.26958],[-62.56768,-12.27215],[-62.57059,-12.2703],[-62.57635,-12.2676],[-62.57768,-12.26579],[-62.57784,-12.26386],[-62.58027,-12.2623],[-62.5806,-12.26103],[-62.58251,-12.25957],[-62.58232,-12.2569],[-62.58273,-12.25286],[-62.58468,-12.25231],[-62.58788,-12.25237],[-62.59096,-12.25183],[-62.5929,-12.24907],[-62.59535,-12.2503],[-62.59729,-12.25085],[-62.59865,-12.24946],[-62.59977,-12.25045],[-62.60102,-12.25227],[-62.60288,-12.25132],[-62.60396,-12.25221],[-62.60418,-12.25432],[-62.60557,-12.25482],[-62.60844,-12.25622],[-62.60823,-12.25479],[-62.60935,-12.25386],[-62.6109,-12.2538],[-62.61193,-12.2543],[-62.61145,-12.25544],[-62.61274,-12.2558],[-62.61626,-12.25581],[-62.61971,-12.25284],[-62.62057,-12.25487],[-62.62229,-12.25432],[-62.62432,-12.25231],[-62.62688,-12.25211],[-62.6266,-12.2498],[-62.62876,-12.24844],[-62.62904,-12.24744],[-62.63001,-12.2473],[-62.63205,-12.24622],[-62.63351,-12.24329],[-62.63693,-12.24183],[-62.63907,-12.24108],[-62.64046,-12.2401],[-62.64146,-12.23977],[-62.64197,-12.23776],[-62.64252,-12.23718],[-62.64389,-12.23576],[-62.64389,-12.23479],[-62.64786,-12.22981],[-62.66878,-12.19994],[-62.69992,-12.15512],[-62.71019,-12.14063],[-62.73132,-12.10982],[-62.73164,-12.11198],[-62.73153,-12.11317],[-62.73186,-12.11953],[-62.73339,-12.12498],[-62.73636,-12.12823],[-62.73997,-12.12975],[-62.74305,-12.13083],[-62.7458,-12.13073],[-62.74712,-12.13116],[-62.74866,-12.13279],[-62.75195,-12.13582],[-62.75491,-12.13907],[-62.75744,-12.14254],[-62.75842,-12.14644],[-62.75842,-12.1498],[-62.75886,-12.1524],[-62.75984,-12.15545],[-62.76149,-12.15762],[-62.76379,-12.15989],[-62.76357,-12.16119],[-62.76412,-12.16459],[-62.7658,-12.16791],[-62.76552,-12.17039],[-62.7663,-12.17488],[-62.76812,-12.17502],[-62.7734,-12.17997],[-62.77848,-12.18297],[-62.78315,-12.18239],[-62.78874,-12.18331],[-62.79332,-12.18364],[-62.79885,-12.18597],[-62.80205,-12.18934],[-62.80709,-12.1943],[-62.81052,-12.1989],[-62.81394,-12.20216],[-62.82027,-12.20171],[-62.82899,-12.20297],[-62.83394,-12.20113],[-62.8379,-12.19904],[-62.84126,-12.19814],[-62.84676,-12.1976],[-62.85204,-12.19516],[-62.85563,-12.1946],[-62.86237,-12.19484],[-62.87102,-12.19547],[-62.88094,-12.19557],[-62.88601,-12.19523],[-62.89359,-12.19937],[-62.90474,-12.19807],[-62.91154,-12.19786],[-62.91524,-12.19709],[-62.92024,-12.19814],[-62.92585,-12.20028],[-62.93112,-12.20207],[-62.93627,-12.20467],[-62.93896,-12.2038],[-62.94251,-12.20333],[-62.94752,-12.20586],[-62.9489,-12.20545],[-62.95388,-12.20645],[-62.9596,-12.20588],[-62.96521,-12.2048],[-62.96982,-12.20308],[-62.97401,-12.20386],[-62.97943,-12.20286],[-62.9883,-12.20215],[-62.99435,-12.20111],[-62.99805,-12.20106],[-63.00638,-12.19976],[-63.00757,-12.19975],[-63.01026,-12.19928],[-63.01382,-12.1984],[-63.01681,-12.19723],[-63.01982,-12.19664],[-63.02375,-12.197],[-63.02691,-12.19622],[-63.02829,-12.19543],[-63.03152,-12.19512],[-63.03627,-12.19715],[-63.03761,-12.19726],[-63.03979,-12.19677],[-63.04255,-12.19654],[-63.04588,-12.19707],[-63.04855,-12.19809],[-63.05182,-12.19837],[-63.05513,-12.19811],[-63.05707,-12.19933],[-63.05968,-12.199],[-63.06063,-12.1987],[-63.06876,-12.19794],[-63.07385,-12.19809],[-63.07948,-12.19873],[-63.08303,-12.19926],[-63.08542,-12.19983],[-63.08727,-12.20004],[-63.08971,-12.20084],[-63.09657,-12.20245],[-63.09788,-12.20326],[-63.10363,-12.20423],[-63.10595,-12.20483],[-63.11125,-12.20535],[-63.11432,-12.20497],[-63.11659,-12.20231],[-63.11868,-12.20146],[-63.12005,-12.20114],[-63.12463,-12.20099],[-63.12888,-12.20205],[-63.13235,-12.20254],[-63.13329,-12.20293],[-63.13451,-12.20443],[-63.13715,-12.20875],[-63.13757,-12.2117],[-63.13696,-12.21245],[-63.13507,-12.21188],[-63.13521,-12.21297],[-63.1358,-12.21415],[-63.13816,-12.21734],[-63.13974,-12.22024],[-63.14132,-12.22234],[-63.14379,-12.22471],[-63.14496,-12.2242],[-63.14585,-12.22248],[-63.14555,-12.22116],[-63.14343,-12.21911],[-63.14355,-12.21789],[-63.14437,-12.2173],[-63.14549,-12.21748],[-63.14629,-12.21807],[-63.14746,-12.21798],[-63.14927,-12.21694],[-63.15138,-12.21726],[-63.1534,-12.21672],[-63.15471,-12.21817],[-63.15471,-12.22022],[-63.15391,-12.22276],[-63.15391,-12.22381],[-63.15499,-12.22558],[-63.15721,-12.2283],[-63.15771,-12.22926],[-63.15846,-12.23222],[-63.15841,-12.23544],[-63.15896,-12.23663],[-63.16008,-12.23676],[-63.16182,-12.23422],[-63.16413,-12.23387],[-63.16718,-12.23524],[-63.16979,-12.23731],[-63.17007,-12.23845],[-63.16974,-12.23947],[-63.16996,-12.24052],[-63.17113,-12.24134],[-63.17207,-12.24145],[-63.17358,-12.24025],[-63.17527,-12.23736],[-63.17599,-12.23559],[-63.17665,-12.23486],[-63.17771,-12.23462],[-63.17888,-12.235],[-63.18112,-12.23388],[-63.1821,-12.23374],[-63.18505,-12.23701],[-63.18607,-12.23758],[-63.18713,-12.23756],[-63.18993,-12.23675],[-63.19194,-12.23643],[-63.19363,-12.23541],[-63.19418,-12.23352],[-63.19416,-12.23133],[-63.19446,-12.2303],[-63.19549,-12.23026],[-63.1966,-12.23089],[-63.19849,-12.23525],[-63.19904,-12.23609],[-63.19997,-12.2357],[-63.20179,-12.22985],[-63.20255,-12.22926],[-63.20368,-12.22954],[-63.20563,-12.23085],[-63.20694,-12.23144],[-63.20877,-12.2329],[-63.20946,-12.23504],[-63.20946,-12.23604],[-63.20891,-12.23867],[-63.20916,-12.23978],[-63.20983,-12.24082],[-63.21404,-12.24117],[-63.21752,-12.24429],[-63.21802,-12.24529],[-63.21888,-12.24601],[-63.22024,-12.24638],[-63.2243,-12.24638],[-63.2266,-12.2462],[-63.22963,-12.24729],[-63.23131,-12.24853],[-63.23293,-12.25011],[-63.23563,-12.25207],[-63.23593,-12.25312],[-63.23594,-12.25507],[-63.23566,-12.25779],[-63.23488,-12.25874],[-63.23332,-12.25983],[-63.23313,-12.26079],[-63.23346,-12.26174],[-63.23511,-12.26306],[-63.23427,-12.26483],[-63.23374,-12.26679],[-63.23296,-12.26747],[-63.23118,-12.26729],[-63.23063,-12.26814],[-63.23057,-12.26937],[-63.23088,-12.27265],[-63.23016,-12.27319],[-63.22983,-12.27541],[-63.23019,-12.27651],[-63.23332,-12.28055],[-63.23429,-12.28105],[-63.23535,-12.28046],[-63.23577,-12.2796],[-63.23663,-12.27919],[-63.2388,-12.28183],[-63.23868,-12.28371],[-63.23996,-12.28524],[-63.23913,-12.28578],[-63.23788,-12.2859],[-63.23718,-12.28682],[-63.23747,-12.28785],[-63.23825,-12.28871],[-63.23991,-12.28961],[-63.24042,-12.29047],[-63.24098,-12.29238],[-63.2404,-12.29312],[-63.24132,-12.29488],[-63.24055,-12.29693],[-63.24182,-12.29902],[-63.24282,-12.29966],[-63.24494,-12.29951],[-63.24708,-12.29875],[-63.24902,-12.29853],[-63.24971,-12.29776],[-63.25063,-12.29603],[-63.25166,-12.29253],[-63.25207,-12.29044],[-63.25332,-12.29058],[-63.25465,-12.2924],[-63.25608,-12.29367],[-63.25827,-12.29335],[-63.25968,-12.29367],[-63.26055,-12.29309],[-63.26043,-12.29195],[-63.25982,-12.2909],[-63.25979,-12.28976],[-63.26085,-12.28873],[-63.26171,-12.28917],[-63.26269,-12.29026],[-63.26513,-12.29204],[-63.26737,-12.29298],[-63.26771,-12.29205],[-63.26799,-12.28972],[-63.26785,-12.28873],[-63.26679,-12.28718],[-63.2668,-12.28628],[-63.26754,-12.28553],[-63.27007,-12.28439],[-63.27279,-12.28253],[-63.27604,-12.28113],[-63.27805,-12.28194],[-63.27921,-12.28383],[-63.27951,-12.28637],[-63.28001,-12.28878],[-63.28119,-12.29056],[-63.28246,-12.29015],[-63.28369,-12.28887],[-63.28553,-12.28742],[-63.28755,-12.28738],[-63.2893,-12.28579],[-63.29045,-12.28808],[-63.29116,-12.28897],[-63.29157,-12.29088],[-63.29138,-12.29283],[-63.28971,-12.29381],[-63.28938,-12.29514],[-63.2898,-12.2971],[-63.29182,-12.30001],[-63.29274,-12.30096],[-63.29457,-12.30405],[-63.29568,-12.30632],[-63.29699,-12.30838],[-63.29807,-12.30941],[-63.29947,-12.30918],[-63.30113,-12.30774],[-63.30371,-12.30369],[-63.30404,-12.30168],[-63.30363,-12.29801],[-63.30451,-12.29756],[-63.30585,-12.29933],[-63.30674,-12.29997],[-63.30807,-12.30018],[-63.30793,-12.2992],[-63.30807,-12.29693],[-63.30968,-12.29596],[-63.30904,-12.29397],[-63.31116,-12.2933],[-63.31177,-12.29239],[-63.31283,-12.29202],[-63.31672,-12.29153],[-63.31758,-12.29105],[-63.31847,-12.28921],[-63.32021,-12.29049],[-63.32119,-12.29048],[-63.3223,-12.28994],[-63.32338,-12.29185],[-63.32321,-12.2928],[-63.32108,-12.29334],[-63.32113,-12.2944],[-63.32366,-12.29585],[-63.32498,-12.29707],[-63.32688,-12.29916],[-63.32849,-12.30035],[-63.33001,-12.30001],[-63.33216,-12.29844],[-63.33379,-12.29663],[-63.33438,-12.29483],[-63.33665,-12.29395],[-63.33856,-12.29398],[-63.33881,-12.29431],[-63.33844,-12.29657],[-63.33836,-12.29848],[-63.33874,-12.30015],[-63.3387,-12.3019],[-63.33952,-12.30281],[-63.34212,-12.30272],[-63.34948,-12.3019],[-63.35031,-12.30064],[-63.34998,-12.29894],[-63.34882,-12.29789],[-63.34948,-12.29602],[-63.34857,-12.29424],[-63.34989,-12.29335],[-63.3503,-12.29444],[-63.35063,-12.2976],[-63.35212,-12.29671],[-63.35524,-12.298],[-63.35912,-12.29751],[-63.3615,-12.29552],[-63.36158,-12.29268],[-63.36355,-12.28935],[-63.36578,-12.28883],[-63.3666,-12.29093],[-63.37072,-12.29174],[-63.3708,-12.29068],[-63.37006,-12.2904],[-63.36973,-12.28862],[-63.36923,-12.28748],[-63.37014,-12.28586],[-63.37384,-12.28699],[-63.37442,-12.28845],[-63.3745,-12.28946],[-63.37804,-12.28694],[-63.3796,-12.28548],[-63.38068,-12.2854],[-63.38265,-12.28726],[-63.38505,-12.29087],[-63.38628,-12.29184],[-63.38777,-12.2924],[-63.38957,-12.28924],[-63.39139,-12.28976],[-63.39513,-12.29487],[-63.39783,-12.29997],[-63.39923,-12.30131],[-63.4026,-12.30195],[-63.40285,-12.30325],[-63.39956,-12.30414],[-63.39923,-12.3052],[-63.40105,-12.30759],[-63.40031,-12.30889],[-63.39759,-12.30873],[-63.39627,-12.30905],[-63.39478,-12.30884],[-63.39257,-12.30902],[-63.39208,-12.31007],[-63.39208,-12.31169],[-63.39381,-12.31307],[-63.39571,-12.31534],[-63.39818,-12.31469],[-63.39933,-12.31505],[-63.39744,-12.31708],[-63.3967,-12.31821],[-63.3995,-12.31886],[-63.39943,-12.32095],[-63.39862,-12.3235],[-63.4,-12.32531],[-63.40231,-12.32555],[-63.40289,-12.32717],[-63.40141,-12.32985],[-63.3996,-12.33204],[-63.39871,-12.33273],[-63.40002,-12.33362],[-63.40264,-12.33423],[-63.40282,-12.33509],[-63.40259,-12.33787],[-63.40321,-12.33961],[-63.40424,-12.33942],[-63.40483,-12.33843],[-63.40522,-12.33609],[-63.40598,-12.33548],[-63.40794,-12.33581],[-63.41055,-12.33595],[-63.41378,-12.33769],[-63.41487,-12.33868],[-63.41526,-12.34043],[-63.41436,-12.34102],[-63.41374,-12.34026],[-63.4131,-12.34125],[-63.41402,-12.34166],[-63.41624,-12.34555],[-63.41747,-12.34553],[-63.41897,-12.34631],[-63.41963,-12.34629],[-63.4205,-12.34369],[-63.42125,-12.34288],[-63.42218,-12.34272],[-63.42279,-12.3433],[-63.42329,-12.34463],[-63.42434,-12.3457],[-63.42616,-12.34593],[-63.42829,-12.34848],[-63.42985,-12.34856],[-63.42951,-12.3466],[-63.43013,-12.34502],[-63.43112,-12.34467],[-63.43318,-12.34535],[-63.43343,-12.34655],[-63.43279,-12.34727],[-63.43163,-12.34739],[-63.43064,-12.34888],[-63.4307,-12.35095],[-63.43111,-12.35172],[-63.43199,-12.35216],[-63.43435,-12.3523],[-63.43551,-12.35282],[-63.4357,-12.35355],[-63.43451,-12.35428],[-63.43449,-12.35551],[-63.43573,-12.35549],[-63.43624,-12.35409],[-63.43716,-12.35365],[-63.43828,-12.3537],[-63.43856,-12.35503],[-63.43778,-12.35626],[-63.43842,-12.35678],[-63.44019,-12.35722],[-63.44079,-12.35668],[-63.44011,-12.35491],[-63.44104,-12.35345],[-63.44212,-12.35285],[-63.44346,-12.35322],[-63.4438,-12.354],[-63.44535,-12.35568],[-63.44668,-12.35601],[-63.44792,-12.35544],[-63.44891,-12.35714],[-63.44967,-12.3576],[-63.4526,-12.35823],[-63.45612,-12.36016],[-63.45662,-12.35904],[-63.45556,-12.35838],[-63.45632,-12.35726],[-63.45738,-12.35734],[-63.45902,-12.3586],[-63.45996,-12.36103],[-63.46189,-12.36274],[-63.46393,-12.36222],[-63.46506,-12.36228],[-63.46557,-12.36331],[-63.4654,-12.36457],[-63.46422,-12.3662],[-63.46548,-12.36714],[-63.46632,-12.36668],[-63.4671,-12.36551],[-63.46776,-12.36601],[-63.46699,-12.3677],[-63.46671,-12.3699],[-63.46736,-12.37177],[-63.46556,-12.37192],[-63.46549,-12.37283],[-63.4671,-12.37302],[-63.46733,-12.37492],[-63.46822,-12.37574],[-63.46911,-12.37741],[-63.46842,-12.37829],[-63.46858,-12.37964],[-63.46988,-12.38122],[-63.4705,-12.38287],[-63.4705,-12.38391],[-63.46964,-12.38428],[-63.46807,-12.38357],[-63.4662,-12.38469],[-63.46582,-12.38702],[-63.46474,-12.38762],[-63.4633,-12.38706],[-63.46316,-12.38636],[-63.4642,-12.38474],[-63.46382,-12.38384],[-63.46239,-12.38437],[-63.46195,-12.39139],[-63.46207,-12.39212],[-63.46141,-12.3944],[-63.46139,-12.39732],[-63.4597,-12.40063],[-63.46191,-12.40189],[-63.46159,-12.40262],[-63.46066,-12.40222],[-63.45889,-12.40282],[-63.4589,-12.40377],[-63.46088,-12.4044],[-63.46183,-12.40523],[-63.46278,-12.4068],[-63.46368,-12.40773],[-63.46363,-12.40826],[-63.46087,-12.40917],[-63.46037,-12.40869],[-63.46141,-12.40778],[-63.46144,-12.40721],[-63.46002,-12.40718],[-63.45947,-12.40897],[-63.45843,-12.41069],[-63.45927,-12.41134],[-63.45889,-12.41265],[-63.4592,-12.41316],[-63.46139,-12.41256],[-63.46244,-12.4111],[-63.46625,-12.41197],[-63.46675,-12.41402],[-63.46783,-12.41527],[-63.46752,-12.41615],[-63.46609,-12.41553],[-63.46537,-12.41558],[-63.46395,-12.41671],[-63.46339,-12.41754],[-63.4634,-12.41854],[-63.46441,-12.41994],[-63.46459,-12.42161],[-63.4653,-12.42286],[-63.46464,-12.42384],[-63.46356,-12.42351],[-63.46272,-12.4239],[-63.46189,-12.42501],[-63.46199,-12.42553],[-63.46364,-12.42585],[-63.46528,-12.42733],[-63.46644,-12.42733],[-63.46856,-12.42901],[-63.47011,-12.42944],[-63.46998,-12.43161],[-63.47377,-12.43482],[-63.47215,-12.436],[-63.47272,-12.43693],[-63.47216,-12.44047],[-63.47328,-12.44075],[-63.47468,-12.44002],[-63.47632,-12.44043],[-63.47628,-12.44123],[-63.47532,-12.44199],[-63.47523,-12.44407],[-63.4741,-12.44398],[-63.47364,-12.44297],[-63.47279,-12.44321],[-63.47393,-12.44486],[-63.47525,-12.44823],[-63.47563,-12.45076],[-63.47506,-12.45185],[-63.47312,-12.45199],[-63.4741,-12.45377],[-63.47389,-12.45428],[-63.47259,-12.45507],[-63.47257,-12.45682],[-63.4733,-12.4569],[-63.47435,-12.45625],[-63.47471,-12.45739],[-63.47437,-12.45828],[-63.47416,-12.46026],[-63.47261,-12.46029],[-63.47239,-12.46131],[-63.47358,-12.46219],[-63.47317,-12.4634],[-63.4739,-12.46512],[-63.4734,-12.46573],[-63.47148,-12.4653],[-63.4721,-12.46645],[-63.47233,-12.46791],[-63.4729,-12.4691],[-63.47319,-12.47092],[-63.47484,-12.47062],[-63.47584,-12.47079],[-63.47717,-12.47248],[-63.47771,-12.47139],[-63.4783,-12.47126],[-63.47925,-12.47229],[-63.47806,-12.47415],[-63.47793,-12.47526],[-63.4798,-12.47691],[-63.4791,-12.47762],[-63.47825,-12.47935],[-63.47844,-12.48025],[-63.47946,-12.48126],[-63.47848,-12.48183],[-63.47828,-12.48274],[-63.48063,-12.4837],[-63.48182,-12.4858],[-63.48389,-12.48563],[-63.48492,-12.48486],[-63.48565,-12.48514],[-63.48617,-12.48612],[-63.48548,-12.48693],[-63.48318,-12.48739],[-63.4826,-12.48839],[-63.48334,-12.48906],[-63.48476,-12.48952],[-63.48512,-12.49018],[-63.48394,-12.49097],[-63.4844,-12.49223],[-63.48546,-12.49318],[-63.48548,-12.49379],[-63.48372,-12.49425],[-63.48592,-12.49609],[-63.48693,-12.49461],[-63.48815,-12.49353],[-63.48927,-12.49432],[-63.49104,-12.49444],[-63.49181,-12.49539],[-63.491,-12.49629],[-63.48907,-12.49681],[-63.48915,-12.49745],[-63.4906,-12.49816],[-63.49191,-12.49754],[-63.4924,-12.49788],[-63.49185,-12.50032],[-63.49076,-12.50026],[-63.48998,-12.5014],[-63.49022,-12.50191],[-63.49166,-12.50234],[-63.49273,-12.50387],[-63.49355,-12.50403],[-63.4956,-12.50356],[-63.49932,-12.50305],[-63.50019,-12.5027],[-63.50053,-12.50122],[-63.502,-12.50108],[-63.50366,-12.5033],[-63.50442,-12.50323],[-63.50508,-12.50212],[-63.50611,-12.50208],[-63.50712,-12.5031],[-63.50879,-12.5038],[-63.5096,-12.50509],[-63.51021,-12.50527],[-63.5099,-12.50292],[-63.51079,-12.5013],[-63.51163,-12.50072],[-63.51257,-12.50099],[-63.51295,-12.50201],[-63.51475,-12.50131],[-63.51626,-12.50194],[-63.51711,-12.50131],[-63.51793,-12.50183],[-63.51855,-12.50296],[-63.52143,-12.50182],[-63.52166,-12.50078],[-63.5212,-12.49934],[-63.52187,-12.49868],[-63.52353,-12.49804],[-63.52411,-12.49829],[-63.52493,-12.50044],[-63.52566,-12.49943],[-63.52892,-12.49981],[-63.5296,-12.50019],[-63.52964,-12.50109],[-63.52839,-12.5015],[-63.5296,-12.50291],[-63.53045,-12.50442],[-63.53122,-12.50463],[-63.53167,-12.50341],[-63.53262,-12.50341],[-63.5328,-12.50464],[-63.53377,-12.50507],[-63.53449,-12.5043],[-63.53516,-12.50441],[-63.537,-12.50558],[-63.5356,-12.50573],[-63.53558,-12.50663],[-63.53471,-12.50692],[-63.53468,-12.50781],[-63.53623,-12.50896],[-63.53687,-12.50861],[-63.53913,-12.50825],[-63.54038,-12.50916],[-63.54168,-12.50738],[-63.54082,-12.50548],[-63.53997,-12.50611],[-63.53936,-12.50533],[-63.5401,-12.50461],[-63.54147,-12.50455],[-63.54282,-12.50551],[-63.54375,-12.50537],[-63.54327,-12.50415],[-63.544,-12.50367],[-63.5449,-12.50399],[-63.54675,-12.50309],[-63.54862,-12.5037],[-63.54943,-12.50354],[-63.55057,-12.50514],[-63.54983,-12.50629],[-63.55293,-12.50701],[-63.55049,-12.50844],[-63.54749,-12.51255],[-63.54694,-12.51364],[-63.54439,-12.51685],[-63.54316,-12.51942],[-63.54188,-12.52141],[-63.54049,-12.52426],[-63.53993,-12.52505],[-63.53852,-12.52801],[-63.53683,-12.53049],[-63.53335,-12.53778],[-63.53188,-12.53968],[-63.53149,-12.54054],[-63.52729,-12.54565],[-63.52474,-12.54746],[-63.52194,-12.54906],[-63.52008,-12.5508],[-63.51644,-12.55384],[-63.51444,-12.55494],[-63.51238,-12.55719],[-63.51185,-12.55813],[-63.50866,-12.56254],[-63.50554,-12.56532],[-63.50174,-12.56732],[-63.49974,-12.56733],[-63.49759,-12.56765],[-63.49426,-12.56755],[-63.49044,-12.56677],[-63.48946,-12.56627],[-63.48383,-12.56476],[-63.48219,-12.56383],[-63.47855,-12.56262],[-63.47598,-12.56243],[-63.474,-12.56157],[-63.47071,-12.56172],[-63.46535,-12.56242],[-63.46227,-12.56241],[-63.45963,-12.56188],[-63.45638,-12.56158],[-63.45173,-12.56186],[-63.44356,-12.56393],[-63.4413,-12.56372],[-63.43929,-12.56417],[-63.43715,-12.56437],[-63.43654,-12.56605],[-63.43671,-12.56804],[-63.43715,-12.56958],[-63.43817,-12.57201],[-63.43905,-12.57471],[-63.4395,-12.57718],[-63.43936,-12.5816],[-63.43892,-12.58376],[-63.43777,-12.58628],[-63.43464,-12.58893],[-63.43309,-12.58986],[-63.42938,-12.5914],[-63.42738,-12.59361],[-63.42704,-12.596],[-63.42735,-12.59701],[-63.42872,-12.59768],[-63.43362,-12.59741],[-63.4368,-12.5975],[-63.43919,-12.59816],[-63.44117,-12.5998],[-63.44259,-12.60121],[-63.44334,-12.60328],[-63.44281,-12.60501],[-63.44166,-12.60646],[-63.44033,-12.60761],[-63.43911,-12.60775],[-63.43813,-12.60838],[-63.43556,-12.60836],[-63.43238,-12.60775],[-63.43049,-12.60682],[-63.42854,-12.60673],[-63.42514,-12.60629],[-63.41989,-12.60642],[-63.41816,-12.60682],[-63.41613,-12.6077],[-63.41211,-12.61026],[-63.40968,-12.61313],[-63.4084,-12.61517],[-63.40702,-12.61774],[-63.40616,-12.61979],[-63.40466,-12.62659],[-63.40323,-12.62948],[-63.40182,-12.6312],[-63.39904,-12.63385],[-63.39595,-12.63623],[-63.39418,-12.63791],[-63.39356,-12.63977],[-63.39361,-12.6433],[-63.39171,-12.64569],[-63.39012,-12.64803],[-63.38892,-12.64922],[-63.38694,-12.65046],[-63.38389,-12.65315],[-63.38075,-12.65452],[-63.37748,-12.65682],[-63.37536,-12.65801],[-63.37333,-12.65889],[-63.37086,-12.65969],[-63.36783,-12.65974],[-63.36555,-12.65946],[-63.36376,-12.65825],[-63.35628,-12.65553],[-63.35279,-12.65518],[-63.34855,-12.65615],[-63.34617,-12.65792],[-63.34561,-12.65879],[-63.34314,-12.66032],[-63.3403,-12.66322],[-63.33734,-12.66499],[-63.33441,-12.66696],[-63.33318,-12.66808],[-63.33084,-12.66931],[-63.32738,-12.67035],[-63.32636,-12.67105],[-63.32355,-12.6717],[-63.32261,-12.67143],[-63.31841,-12.673],[-63.31678,-12.67378],[-63.31452,-12.67448],[-63.31282,-12.67548],[-63.31045,-12.67653],[-63.30824,-12.67815],[-63.2994,-12.68176],[-63.2942,-12.68292],[-63.28939,-12.68378],[-63.28419,-12.68484],[-63.27498,-12.68547],[-63.26849,-12.68487],[-63.26495,-12.68477],[-63.26067,-12.6852],[-63.25647,-12.68633],[-63.251,-12.68822],[-63.24825,-12.68951],[-63.2457,-12.69021],[-63.24249,-12.69077],[-63.24077,-12.69034],[-63.23798,-12.69003],[-63.23511,-12.68826],[-63.2329,-12.68614],[-63.23242,-12.68314],[-63.23401,-12.68049],[-63.23811,-12.67859],[-63.24076,-12.67621],[-63.2409,-12.674],[-63.24037,-12.67144],[-63.24076,-12.67015],[-63.24284,-12.66878],[-63.2462,-12.66781],[-63.24792,-12.66627],[-63.24796,-12.66397],[-63.24712,-12.66172],[-63.24478,-12.66035],[-63.24196,-12.66013],[-63.23917,-12.66181],[-63.23591,-12.66432],[-63.23299,-12.66459],[-63.22999,-12.66446],[-63.22641,-12.66234],[-63.22376,-12.65973],[-63.22023,-12.65664],[-63.21678,-12.65509],[-63.21312,-12.655],[-63.21077,-12.65629],[-63.20927,-12.65836],[-63.2079,-12.6596],[-63.20614,-12.66013],[-63.20424,-12.66035],[-63.20198,-12.65977],[-63.20026,-12.65801],[-63.19863,-12.65757],[-63.19686,-12.655],[-63.19417,-12.65249],[-63.19138,-12.64882],[-63.19063,-12.64697],[-63.19028,-12.64379],[-63.1909,-12.64114],[-63.19275,-12.63862],[-63.19562,-12.63606],[-63.19682,-12.63451],[-63.19819,-12.63129],[-63.19797,-12.62775],[-63.19691,-12.62484],[-63.19434,-12.62316],[-63.19094,-12.6232],[-63.18706,-12.62453],[-63.18357,-12.62713],[-63.18087,-12.63054],[-63.17862,-12.63615],[-63.17593,-12.63999],[-63.17244,-12.64202],[-63.16895,-12.64281],[-63.16594,-12.64233],[-63.16378,-12.63994],[-63.16329,-12.63774],[-63.16325,-12.63535],[-63.16471,-12.63217],[-63.16678,-12.62921],[-63.16815,-12.62581],[-63.16833,-12.62263],[-63.16749,-12.61879],[-63.16608,-12.61605],[-63.16316,-12.61397],[-63.16016,-12.61322],[-63.1576,-12.61455],[-63.15464,-12.61826],[-63.15371,-12.62206],[-63.15393,-12.62705],[-63.15424,-12.63058],[-63.15384,-12.63319],[-63.15009,-12.63659],[-63.14678,-12.63774],[-63.14382,-12.638],[-63.14072,-12.63787],[-63.1375,-12.63725],[-63.13472,-12.63751],[-63.13107,-12.63849],[-63.12785,-12.63895],[-63.12644,-12.63935],[-63.12407,-12.63924],[-63.12175,-12.6382],[-63.12021,-12.63617],[-63.11933,-12.63358],[-63.11941,-12.63118],[-63.11979,-12.62956],[-63.11986,-12.628],[-63.11921,-12.62645],[-63.1182,-12.62537],[-63.11696,-12.62471],[-63.11484,-12.62462],[-63.11325,-12.62568],[-63.11009,-12.62948],[-63.10861,-12.63087],[-63.10714,-12.63144],[-63.10239,-12.63188],[-63.09837,-12.63193],[-63.09525,-12.6325],[-63.09274,-12.63374],[-63.09055,-12.63601],[-63.08991,-12.63886],[-63.0898,-12.64268],[-63.09011,-12.64575],[-63.09022,-12.64829],[-63.08931,-12.65057],[-63.08461,-12.65465],[-63.0843,-12.65598],[-63.08525,-12.65633],[-63.08671,-12.65609],[-63.08956,-12.65523],[-63.09075,-12.65545],[-63.09179,-12.65624],[-63.09254,-12.65958],[-63.09188,-12.66333],[-63.09149,-12.66626],[-63.09302,-12.67013],[-63.09477,-12.67269],[-63.09571,-12.67321],[-63.09892,-12.67636],[-63.09932,-12.67791],[-63.09936,-12.67963],[-63.09852,-12.68166],[-63.09755,-12.68281],[-63.09466,-12.68409],[-63.09178,-12.68385],[-63.08858,-12.68386],[-63.08772,-12.68423],[-63.08321,-12.68522],[-63.07998,-12.68552],[-63.07866,-12.68579],[-63.07571,-12.68547],[-63.0739,-12.68459],[-63.0713,-12.68299],[-63.06875,-12.68259],[-63.06677,-12.6827],[-63.06472,-12.68361],[-63.06264,-12.68483],[-63.06138,-12.68654],[-63.06085,-12.68858],[-63.06089,-12.69075],[-63.06118,-12.69239],[-63.0621,-12.69399],[-63.06478,-12.69613],[-63.06847,-12.69726],[-63.06969,-12.69805],[-63.07335,-12.69927],[-63.07662,-12.70011],[-63.07758,-12.70071],[-63.07902,-12.7024],[-63.08054,-12.70384],[-63.08199,-12.70675],[-63.08285,-12.71198],[-63.08288,-12.71546],[-63.08244,-12.72055],[-63.08126,-12.72408],[-63.08022,-12.72627],[-63.07899,-12.72813],[-63.07825,-12.72875],[-63.07607,-12.72981],[-63.07479,-12.73007],[-63.07289,-12.73086],[-63.07015,-12.73119],[-63.06814,-12.73086],[-63.06251,-12.72808],[-63.06027,-12.72789],[-63.05833,-12.7287],[-63.05758,-12.7294],[-63.05625,-12.72993],[-63.05458,-12.73113],[-63.05374,-12.73254],[-63.05179,-12.73442],[-63.05038,-12.73674],[-63.0488,-12.73896],[-63.04722,-12.74069],[-63.04577,-12.7439],[-63.04502,-12.7448],[-63.04377,-12.7472],[-63.04191,-12.7501],[-63.04063,-12.75517],[-63.04013,-12.75761],[-63.04014,-12.75878],[-63.04066,-12.76212],[-63.04052,-12.7647],[-63.04019,-12.7657],[-63.03655,-12.76908],[-63.03613,-12.76991],[-63.03585,-12.77178],[-63.03583,-12.77442],[-63.03511,-12.77782],[-63.03383,-12.78072],[-63.03215,-12.78194],[-63.02902,-12.78297],[-63.02638,-12.78485],[-63.02557,-12.78567],[-63.02136,-12.78825],[-63.02016,-12.78992],[-63.0198,-12.79101],[-63.01991,-12.79333],[-63.02149,-12.79895],[-63.02163,-12.79991],[-63.0216,-12.80427],[-63.02132,-12.80544],[-63.02051,-12.8064],[-63.01875,-12.80709],[-63.01577,-12.80697],[-63.01263,-12.80791],[-63.01033,-12.80831],[-63.00897,-12.8097],[-63.00852,-12.8108],[-63.00879,-12.8152],[-63.00924,-12.81629],[-63.01049,-12.81777],[-63.01185,-12.82019],[-63.01263,-12.82217],[-63.01305,-12.82426],[-63.01355,-12.82898],[-63.01338,-12.83093],[-63.01221,-12.83411],[-63.00923,-12.83778],[-63.0071,-12.8396],[-63.00102,-12.84187],[-62.99164,-12.84129],[-62.98343,-12.84413],[-62.98324,-12.84956],[-62.98204,-12.85375],[-62.97904,-12.85849],[-62.97626,-12.85988],[-62.97091,-12.85891],[-62.96871,-12.85506],[-62.96552,-12.85028],[-62.96321,-12.84738],[-62.95943,-12.8471],[-62.95672,-12.84741],[-62.9516,-12.84999],[-62.95113,-12.8513],[-62.95057,-12.85504],[-62.94749,-12.85862],[-62.94299,-12.85461],[-62.94183,-12.847],[-62.93785,-12.84299],[-62.93193,-12.84198],[-62.9266,-12.84153],[-62.92135,-12.84086],[-62.91641,-12.84322],[-62.9151,-12.84535],[-62.91124,-12.84947],[-62.90908,-12.85271],[-62.90597,-12.8547],[-62.90032,-12.85513],[-62.89661,-12.85587],[-62.89371,-12.85744],[-62.89216,-12.85884],[-62.88952,-12.86046],[-62.88469,-12.86163],[-62.88118,-12.86317],[-62.87797,-12.86686],[-62.87763,-12.87265],[-62.87202,-12.87837],[-62.86582,-12.87925],[-62.86396,-12.87837],[-62.86152,-12.87625],[-62.86105,-12.87227],[-62.85872,-12.87046],[-62.8511,-12.86995],[-62.84602,-12.86723],[-62.84263,-12.86354],[-62.83666,-12.8652],[-62.83122,-12.866],[-62.82557,-12.86608],[-62.82158,-12.86679],[-62.81769,-12.8681],[-62.81363,-12.86667],[-62.8101,-12.866],[-62.80863,-12.86663],[-62.80274,-12.86592],[-62.79771,-12.86468],[-62.80113,-12.86099],[-62.795,-12.85955],[-62.78844,-12.86135],[-62.78805,-12.86938],[-62.78882,-12.87346],[-62.78852,-12.87747],[-62.78654,-12.87527],[-62.78179,-12.87602],[-62.77977,-12.87741],[-62.77777,-12.8758],[-62.77657,-12.87732],[-62.7739,-12.88207],[-62.76738,-12.88387],[-62.76652,-12.87816],[-62.76247,-12.87854],[-62.75799,-12.87752],[-62.76219,-12.87606],[-62.75952,-12.87336],[-62.75204,-12.87315],[-62.75249,-12.88019],[-62.75416,-12.88588],[-62.74921,-12.88675],[-62.75013,-12.88309],[-62.74557,-12.88129],[-62.74099,-12.88208],[-62.74474,-12.88254],[-62.73888,-12.88654],[-62.73436,-12.89169],[-62.73796,-12.89488],[-62.73621,-12.89971],[-62.7373,-12.90536],[-62.74132,-12.9117],[-62.7379,-12.91589],[-62.73427,-12.9138],[-62.73238,-12.91891],[-62.72888,-12.92589],[-62.73043,-12.92731],[-62.72452,-12.92789],[-62.7231,-12.92475],[-62.71657,-12.92214],[-62.71201,-12.92352],[-62.70832,-12.9221],[-62.70344,-12.92088],[-62.7011,-12.91575],[-62.7001,-12.91227],[-62.69766,-12.90688],[-62.69408,-12.90228],[-62.68658,-12.90504],[-62.6833,-12.90569],[-62.67785,-12.90428],[-62.67358,-12.90586],[-62.66526,-12.90618],[-62.65927,-12.90483],[-62.65263,-12.90209],[-62.64923,-12.8994],[-62.64816,-12.89361],[-62.64841,-12.88829],[-62.64588,-12.88512],[-62.64491,-12.88233],[-62.63885,-12.88005],[-62.63474,-12.87682],[-62.62855,-12.87377],[-62.62282,-12.8719],[-62.61771,-12.86682],[-62.61677,-12.86398],[-62.61552,-12.86019],[-62.61321,-12.85592],[-62.60747,-12.85101],[-62.60379,-12.84686],[-62.59879,-12.84265],[-62.59493,-12.83813],[-62.59393,-12.83186],[-62.59099,-12.82685],[-62.58204,-12.81699],[-62.57848,-12.81279],[-62.57807,-12.80988],[-62.5654,-12.80925],[-62.56027,-12.81046],[-62.55776,-12.80812],[-62.55385,-12.80251],[-62.54882,-12.80106],[-62.54763,-12.79672],[-62.54038,-12.80224],[-62.53418,-12.80645],[-62.52848,-12.80866],[-62.52194,-12.80959],[-62.52029,-12.80602],[-62.5193,-12.80214],[-62.51963,-12.79143],[-62.51874,-12.78873],[-62.5174,-12.78675],[-62.51777,-12.78288],[-62.5152,-12.7787],[-62.51001,-12.77354],[-62.50651,-12.76796],[-62.50466,-12.76421],[-62.50055,-12.75686],[-62.50035,-12.75554],[-62.49952,-12.75448],[-62.4979,-12.75363],[-62.49479,-12.75294],[-62.48994,-12.75043],[-62.48582,-12.74955],[-62.4809,-12.74964],[-62.47894,-12.74935],[-62.47624,-12.7477],[-62.4741,-12.7477],[-62.4731,-12.74707],[-62.47213,-12.74725],[-62.4691,-12.74995],[-62.46813,-12.75015],[-62.46616,-12.74944],[-62.46421,-12.74825],[-62.46279,-12.74667],[-62.46227,-12.74539],[-62.46159,-12.74238],[-62.45999,-12.74134],[-62.45837,-12.73998],[-62.4576,-12.7373],[-62.45707,-12.73648],[-62.45471,-12.73383],[-62.45374,-12.73159],[-62.4533,-12.72926],[-62.45226,-12.72748],[-62.44793,-12.72467],[-62.44446,-12.72288],[-62.44354,-12.72214],[-62.44215,-12.72039],[-62.43972,-12.71859],[-62.43709,-12.71715],[-62.43501,-12.71565],[-62.43399,-12.71514],[-62.43222,-12.71371],[-62.42849,-12.71144],[-62.42682,-12.71019],[-62.42427,-12.70727],[-62.4219,-12.70348],[-62.42007,-12.69925],[-62.41971,-12.69781],[-62.41952,-12.69457],[-62.41913,-12.69228],[-62.4179,-12.68944],[-62.41674,-12.68582],[-62.41527,-12.68427],[-62.41251,-12.68287],[-62.41052,-12.68114],[-62.40965,-12.68015],[-62.40887,-12.678],[-62.4086,-12.67341],[-62.40782,-12.6713],[-62.40585,-12.66865],[-62.40338,-12.66481],[-62.40179,-12.66134],[-62.40104,-12.66057],[-62.3999,-12.66023],[-62.39777,-12.66057],[-62.39682,-12.66128],[-62.39399,-12.66051],[-62.39193,-12.66056],[-62.39098,-12.66033],[-62.39018,-12.65957],[-62.38943,-12.6577],[-62.38896,-12.65566],[-62.38703,-12.65328],[-62.38682,-12.65226],[-62.38673,-12.64846],[-62.38598,-12.64638],[-62.38435,-12.64456],[-62.3818,-12.64309],[-62.3781,-12.63931],[-62.37673,-12.63643],[-62.37462,-12.63341],[-62.37283,-12.62957],[-62.36846,-12.62252],[-62.36777,-12.62112],[-62.36713,-12.61589],[-62.36621,-12.61236],[-62.36332,-12.60549],[-62.36268,-12.60198],[-62.36174,-12.60005],[-62.36018,-12.59844],[-62.35677,-12.59615],[-62.35466,-12.59439],[-62.35201,-12.59295],[-62.35107,-12.59223],[-62.35026,-12.59098],[-62.34879,-12.58735],[-62.34699,-12.58365],[-62.34615,-12.58258],[-62.34381,-12.5808],[-62.3414,-12.57926],[-62.33729,-12.57724],[-62.33554,-12.57681],[-62.33302,-12.57653],[-62.33098,-12.5759],[-62.32663,-12.57363],[-62.32393,-12.57137],[-62.32195,-12.56917],[-62.31763,-12.56305],[-62.31274,-12.55753],[-62.31051,-12.55575],[-62.30605,-12.553],[-62.3036,-12.55182],[-62.3014,-12.55052],[-62.29873,-12.54812],[-62.29627,-12.54503],[-62.29423,-12.54325],[-62.29274,-12.54141],[-62.29209,-12.54027],[-62.29083,-12.53711],[-62.28949,-12.53521],[-62.28862,-12.53451],[-62.28677,-12.53384],[-62.28568,-12.5339],[-62.28374,-12.53278],[-62.2802,-12.52982],[-62.27659,-12.52524],[-62.27463,-12.5219],[-62.26937,-12.51415],[-62.26835,-12.5117],[-62.26782,-12.50977],[-62.26768,-12.50763],[-62.26832,-12.50161],[-62.26921,-12.50042],[-62.2701,-12.50011],[-62.26974,-12.49677],[-62.26974,-12.49268],[-62.2706,-12.48854],[-62.26873,-12.48415],[-62.2684,-12.48101],[-62.27204,-12.48052],[-62.27421,-12.47605],[-62.27509,-12.47322],[-62.27193,-12.46893],[-62.27126,-12.46535],[-62.26993,-12.46344],[-62.26743,-12.45654],[-62.26357,-12.4533],[-62.25882,-12.45091],[-62.25929,-12.44702],[-62.26082,-12.44233],[-62.26212,-12.43611],[-62.2589,-12.43325],[-62.26234,-12.43174],[-62.26424,-12.42733],[-62.26121,-12.42464],[-62.25616,-12.42409],[-62.25209,-12.42254],[-62.25326,-12.42021],[-62.25229,-12.41638],[-62.25518,-12.4144],[-62.25276,-12.41304],[-62.25204,-12.40977],[-62.25574,-12.41035],[-62.25279,-12.40705],[-62.2526,-12.40428],[-62.25093,-12.40203],[-62.25187,-12.39979],[-62.2549,-12.39812],[-62.25529,-12.39421],[-62.25521,-12.39019],[-62.25832,-12.38787],[-62.26156,-12.3806],[-62.2839,-12.33439],[-62.29143,-12.31883],[-62.29571,-12.31796],[-62.30048,-12.31637],[-62.3032,-12.31894],[-62.30673,-12.32099],[-62.31257,-12.32209],[-62.31691,-12.32114],[-62.32021,-12.32229],[-62.32348,-12.32303],[-62.32723,-12.32456],[-62.33004,-12.3269],[-62.33359,-12.32784],[-62.33868,-12.33009],[-62.34329,-12.32944],[-62.34768,-12.33054],[-62.34962,-12.33084],[-62.35532,-12.33214],[-62.35927,-12.33588],[-62.36362,-12.33871],[-62.36882,-12.33969],[-62.37346,-12.33795],[-62.37743,-12.3407],[-62.38063,-12.34256],[-62.3846,-12.34213],[-62.39024,-12.34311],[-62.39468,-12.34348],[-62.39682,-12.34101],[-62.40118,-12.33868],[-62.40393,-12.33606],[-62.40685,-12.33246],[-62.41262,-12.33143],[-62.41601,-12.32871],[-62.4176,-12.32417],[-62.41937,-12.32341],[-62.42246,-12.32254],[-62.42501,-12.32145],[-62.42835,-12.32083],[-62.43116,-12.31917],[-62.43418,-12.31802],[-62.4386,-12.31668],[-62.44191,-12.31404],[-62.44413,-12.3104],[-62.44665,-12.30926],[-62.45649,-12.30558],[-62.46049,-12.30434],[-62.46282,-12.30165],[-62.46821,-12.29926],[-62.47032,-12.29939],[-62.47523,-12.30071],[-62.47715,-12.30287],[-62.47966,-12.30294],[-62.48146,-12.30178],[-62.48551,-12.30205],[-62.48593,-12.29868],[-62.48943,-12.29606],[-62.49498,-12.29514],[-62.49832,-12.29703],[-62.49987,-12.29472],[-62.50054,-12.29412],[-62.50237,-12.29324],[-62.50566,-12.29329],[-62.5076,-12.29087],[-62.50916,-12.28774],[-62.51085,-12.28657],[-62.51354,-12.28561]]]]},"properties":{"codigo":"110149205","name":"São Francisco do Guaporé","population":13818,"households":6320,"areaKm2":9382.9183,"density":1.5}},{"type":"Feature","geometry":{"type":"Polygon","coordinates":[[[-63.68476,-12.45306],[-63.68322,-12.45386],[-63.68131,-12.45646],[-63.68052,-12.45724],[-63.67936,-12.45918],[-63.67727,-12.46126],[-63.6754,-12.46228],[-63.67306,-12.46319],[-63.67042,-12.46351],[-63.667,-12.46335],[-63.65938,-12.46199],[-63.65679,-12.46182],[-63.6548,-12.46229],[-63.65188,-12.46421],[-63.64788,-12.46583],[-63.64258,-12.46721],[-63.64027,-12.46809],[-63.63795,-12.46869],[-63.63427,-12.47058],[-63.63027,-12.47159],[-63.62413,-12.47233],[-63.62211,-12.47288],[-63.62116,-12.47351],[-63.62013,-12.47573],[-63.61963,-12.47773],[-63.61875,-12.47956],[-63.61732,-12.48102],[-63.61544,-12.48388],[-63.61398,-12.48527],[-63.61113,-12.48628],[-63.60566,-12.487],[-63.59456,-12.48936],[-63.58986,-12.49139],[-63.58861,-12.49168],[-63.58546,-12.49355],[-63.58491,-12.4943],[-63.58096,-12.49736],[-63.58036,-12.49814],[-63.57783,-12.50011],[-63.57616,-12.50121],[-63.57397,-12.50208],[-63.57182,-12.50262],[-63.56925,-12.50299],[-63.56494,-12.50309],[-63.5614,-12.50386],[-63.55925,-12.50451],[-63.55515,-12.50623],[-63.55293,-12.50701],[-63.54983,-12.50629],[-63.55057,-12.50514],[-63.54943,-12.50354],[-63.54862,-12.5037],[-63.54675,-12.50309],[-63.5449,-12.50399],[-63.544,-12.50367],[-63.54327,-12.50415],[-63.54375,-12.50537],[-63.54282,-12.50551],[-63.54147,-12.50455],[-63.5401,-12.50461],[-63.53936,-12.50533],[-63.53997,-12.50611],[-63.54082,-12.50548],[-63.54168,-12.50738],[-63.54038,-12.50916],[-63.53913,-12.50825],[-63.53687,-12.50861],[-63.53623,-12.50896],[-63.53468,-12.50781],[-63.53471,-12.50692],[-63.53558,-12.50663],[-63.5356,-12.50573],[-63.537,-12.50558],[-63.53516,-12.50441],[-63.53449,-12.5043],[-63.53377,-12.50507],[-63.5328,-12.50464],[-63.53262,-12.50341],[-63.53167,-12.50341],[-63.53122,-12.50463],[-63.53045,-12.50442],[-63.5296,-12.50291],[-63.52839,-12.5015],[-63.52964,-12.50109],[-63.5296,-12.50019],[-63.52892,-12.49981],[-63.52566,-12.49943],[-63.52493,-12.50044],[-63.52411,-12.49829],[-63.52353,-12.49804],[-63.52187,-12.49868],[-63.5212,-12.49934],[-63.52166,-12.50078],[-63.52143,-12.50182],[-63.51855,-12.50296],[-63.51793,-12.50183],[-63.51711,-12.50131],[-63.51626,-12.50194],[-63.51475,-12.50131],[-63.51295,-12.50201],[-63.51257,-12.50099],[-63.51163,-12.50072],[-63.51079,-12.5013],[-63.5099,-12.50292],[-63.51021,-12.50527],[-63.5096,-12.50509],[-63.50879,-12.5038],[-63.50712,-12.5031],[-63.50611,-12.50208],[-63.50508,-12.50212],[-63.50442,-12.50323],[-63.50366,-12.5033],[-63.502,-12.50108],[-63.50053,-12.50122],[-63.50019,-12.5027],[-63.49932,-12.50305],[-63.4956,-12.50356],[-63.49355,-12.50403],[-63.49273,-12.50387],[-63.49166,-12.50234],[-63.49022,-12.50191],[-63.48998,-12.5014],[-63.49076,-12.50026],[-63.49185,-12.50032],[-63.4924,-12.49788],[-63.49191,-12.49754],[-63.4906,-12.49816],[-63.48915,-12.49745],[-63.48907,-12.49681],[-63.491,-12.49629],[-63.49181,-12.49539],[-63.49104,-12.49444],[-63.48927,-12.49432],[-63.48815,-12.49353],[-63.48693,-12.49461],[-63.48592,-12.49609],[-63.48372,-12.49425],[-63.48548,-12.49379],[-63.48546,-12.49318],[-63.4844,-12.49223],[-63.48394,-12.49097],[-63.48512,-12.49018],[-63.48476,-12.48952],[-63.48334,-12.48906],[-63.4826,-12.48839],[-63.48318,-12.48739],[-63.48548,-12.48693],[-63.48617,-12.48612],[-63.48565,-12.48514],[-63.48492,-12.48486],[-63.48389,-12.48563],[-63.48182,-12.4858],[-63.48063,-12.4837],[-63.47828,-12.48274],[-63.47848,-12.48183],[-63.47946,-12.48126],[-63.47844,-12.48025],[-63.47825,-12.47935],[-63.4791,-12.47762],[-63.4798,-12.47691],[-63.47793,-12.47526],[-63.47806,-12.47415],[-63.47925,-12.47229],[-63.4783,-12.47126],[-63.47771,-12.47139],[-63.47717,-12.47248],[-63.47584,-12.47079],[-63.47484,-12.47062],[-63.47319,-12.47092],[-63.4729,-12.4691],[-63.47233,-12.46791],[-63.4721,-12.46645],[-63.47148,-12.4653],[-63.4734,-12.46573],[-63.4739,-12.46512],[-63.47317,-12.4634],[-63.47358,-12.46219],[-63.47239,-12.46131],[-63.47261,-12.46029],[-63.47416,-12.46026],[-63.47437,-12.45828],[-63.47471,-12.45739],[-63.47435,-12.45625],[-63.4733,-12.4569],[-63.47257,-12.45682],[-63.47259,-12.45507],[-63.47389,-12.45428],[-63.4741,-12.45377],[-63.47312,-12.45199],[-63.47506,-12.45185],[-63.47563,-12.45076],[-63.47525,-12.44823],[-63.47393,-12.44486],[-63.47279,-12.44321],[-63.47364,-12.44297],[-63.4741,-12.44398],[-63.47523,-12.44407],[-63.47532,-12.44199],[-63.47628,-12.44123],[-63.47632,-12.44043],[-63.47468,-12.44002],[-63.47328,-12.44075],[-63.47216,-12.44047],[-63.47272,-12.43693],[-63.47215,-12.436],[-63.47377,-12.43482],[-63.46998,-12.43161],[-63.47011,-12.42944],[-63.46856,-12.42901],[-63.46644,-12.42733],[-63.46528,-12.42733],[-63.46364,-12.42585],[-63.46199,-12.42553],[-63.46189,-12.42501],[-63.46272,-12.4239],[-63.46356,-12.42351],[-63.46464,-12.42384],[-63.4653,-12.42286],[-63.46459,-12.42161],[-63.46441,-12.41994],[-63.4634,-12.41854],[-63.46339,-12.41754],[-63.46395,-12.41671],[-63.46537,-12.41558],[-63.46609,-12.41553],[-63.46752,-12.41615],[-63.46783,-12.41527],[-63.46675,-12.41402],[-63.46625,-12.41197],[-63.46244,-12.4111],[-63.46139,-12.41256],[-63.4592,-12.41316],[-63.45889,-12.41265],[-63.45927,-12.41134],[-63.45843,-12.41069],[-63.45947,-12.40897],[-63.46002,-12.40718],[-63.46144,-12.40721],[-63.46141,-12.40778],[-63.46037,-12.40869],[-63.46087,-12.40917],[-63.46363,-12.40826],[-63.46368,-12.40773],[-63.46278,-12.4068],[-63.46183,-12.40523],[-63.46088,-12.4044],[-63.4589,-12.40377],[-63.45889,-12.40282],[-63.46066,-12.40222],[-63.46159,-12.40262],[-63.46191,-12.40189],[-63.4597,-12.40063],[-63.46139,-12.39732],[-63.46141,-12.3944],[-63.46207,-12.39212],[-63.46195,-12.39139],[-63.46239,-12.38437],[-63.46382,-12.38384],[-63.4642,-12.38474],[-63.46316,-12.38636],[-63.4633,-12.38706],[-63.46474,-12.38762],[-63.46582,-12.38702],[-63.4662,-12.38469],[-63.46807,-12.38357],[-63.46964,-12.38428],[-63.4705,-12.38391],[-63.4705,-12.38287],[-63.46988,-12.38122],[-63.46858,-12.37964],[-63.46842,-12.37829],[-63.46911,-12.37741],[-63.46822,-12.37574],[-63.46733,-12.37492],[-63.4671,-12.37302],[-63.46549,-12.37283],[-63.46556,-12.37192],[-63.46736,-12.37177],[-63.46671,-12.3699],[-63.46699,-12.3677],[-63.46776,-12.36601],[-63.4671,-12.36551],[-63.46632,-12.36668],[-63.46548,-12.36714],[-63.46422,-12.3662],[-63.4654,-12.36457],[-63.46557,-12.36331],[-63.46506,-12.36228],[-63.46393,-12.36222],[-63.46189,-12.36274],[-63.45996,-12.36103],[-63.45902,-12.3586],[-63.45738,-12.35734],[-63.45632,-12.35726],[-63.45556,-12.35838],[-63.45662,-12.35904],[-63.45612,-12.36016],[-63.4526,-12.35823],[-63.44967,-12.3576],[-63.44891,-12.35714],[-63.44792,-12.35544],[-63.44668,-12.35601],[-63.44535,-12.35568],[-63.4438,-12.354],[-63.44346,-12.35322],[-63.44212,-12.35285],[-63.44104,-12.35345],[-63.44011,-12.35491],[-63.44079,-12.35668],[-63.44019,-12.35722],[-63.43842,-12.35678],[-63.43778,-12.35626],[-63.43856,-12.35503],[-63.43828,-12.3537],[-63.43716,-12.35365],[-63.43624,-12.35409],[-63.43573,-12.35549],[-63.43449,-12.35551],[-63.43451,-12.35428],[-63.4357,-12.35355],[-63.43551,-12.35282],[-63.43435,-12.3523],[-63.43199,-12.35216],[-63.43111,-12.35172],[-63.4307,-12.35095],[-63.43064,-12.34888],[-63.43163,-12.34739],[-63.43279,-12.34727],[-63.43343,-12.34655],[-63.43318,-12.34535],[-63.43112,-12.34467],[-63.43013,-12.34502],[-63.42951,-12.3466],[-63.42985,-12.34856],[-63.42829,-12.34848],[-63.42616,-12.34593],[-63.42434,-12.3457],[-63.42329,-12.34463],[-63.42279,-12.3433],[-63.42218,-12.34272],[-63.42125,-12.34288],[-63.4205,-12.34369],[-63.41963,-12.34629],[-63.41897,-12.34631],[-63.41747,-12.34553],[-63.41624,-12.34555],[-63.41402,-12.34166],[-63.4131,-12.34125],[-63.41374,-12.34026],[-63.41436,-12.34102],[-63.41526,-12.34043],[-63.41487,-12.33868],[-63.41378,-12.33769],[-63.41055,-12.33595],[-63.40794,-12.33581],[-63.40598,-12.33548],[-63.40522,-12.33609],[-63.40483,-12.33843],[-63.40424,-12.33942],[-63.40321,-12.33961],[-63.40259,-12.33787],[-63.40282,-12.33509],[-63.40264,-12.33423],[-63.40002,-12.33362],[-63.39871,-12.33273],[-63.3996,-12.33204],[-63.40141,-12.32985],[-63.40289,-12.32717],[-63.40231,-12.32555],[-63.4,-12.32531],[-63.39862,-12.3235],[-63.39943,-12.32095],[-63.3995,-12.31886],[-63.3967,-12.31821],[-63.39744,-12.31708],[-63.39933,-12.31505],[-63.39818,-12.31469],[-63.39571,-12.31534],[-63.39381,-12.31307],[-63.39208,-12.31169],[-63.39208,-12.31007],[-63.39257,-12.30902],[-63.39478,-12.30884],[-63.39627,-12.30905],[-63.39759,-12.30873],[-63.40031,-12.30889],[-63.40105,-12.30759],[-63.39923,-12.3052],[-63.39956,-12.30414],[-63.40285,-12.30325],[-63.4026,-12.30195],[-63.39923,-12.30131],[-63.39783,-12.29997],[-63.39513,-12.29487],[-63.39139,-12.28976],[-63.38957,-12.28924],[-63.38777,-12.2924],[-63.38628,-12.29184],[-63.38505,-12.29087],[-63.38265,-12.28726],[-63.38068,-12.2854],[-63.3796,-12.28548],[-63.37804,-12.28694],[-63.3745,-12.28946],[-63.37442,-12.28845],[-63.37384,-12.28699],[-63.37014,-12.28586],[-63.36923,-12.28748],[-63.36973,-12.28862],[-63.37006,-12.2904],[-63.3708,-12.29068],[-63.37072,-12.29174],[-63.3666,-12.29093],[-63.36578,-12.28883],[-63.36355,-12.28935],[-63.36158,-12.29268],[-63.3615,-12.29552],[-63.35912,-12.29751],[-63.35524,-12.298],[-63.35212,-12.29671],[-63.35063,-12.2976],[-63.3503,-12.29444],[-63.34989,-12.29335],[-63.34857,-12.29424],[-63.34948,-12.29602],[-63.34882,-12.29789],[-63.34998,-12.29894],[-63.35031,-12.30064],[-63.34948,-12.3019],[-63.34212,-12.30272],[-63.33952,-12.30281],[-63.3387,-12.3019],[-63.33874,-12.30015],[-63.33836,-12.29848],[-63.33844,-12.29657],[-63.33881,-12.29431],[-63.33856,-12.29398],[-63.33665,-12.29395],[-63.33438,-12.29483],[-63.33316,-12.29167],[-63.33258,-12.29058],[-63.33081,-12.28828],[-63.32957,-12.28735],[-63.32846,-12.28598],[-63.32936,-12.28406],[-63.33022,-12.28365],[-63.33228,-12.28189],[-63.33368,-12.2787],[-63.33499,-12.27718],[-63.33571,-12.27402],[-63.33638,-12.27307],[-63.33743,-12.27069],[-63.33779,-12.26939],[-63.33749,-12.2683],[-63.33525,-12.26618],[-63.33482,-12.26534],[-63.33279,-12.26271],[-63.33228,-12.2608],[-63.33177,-12.25999],[-63.33111,-12.25794],[-63.33009,-12.25576],[-63.32908,-12.2524],[-63.32899,-12.24783],[-63.32818,-12.24372],[-63.32796,-12.23872],[-63.32813,-12.23564],[-63.32804,-12.23121],[-63.32829,-12.22998],[-63.32833,-12.22407],[-63.3286,-12.22208],[-63.3293,-12.2199],[-63.32932,-12.21877],[-63.32883,-12.21772],[-63.32796,-12.21699],[-63.32446,-12.21585],[-63.32355,-12.21486],[-63.3231,-12.2137],[-63.32091,-12.20981],[-63.3206,-12.2074],[-63.32013,-12.20595],[-63.31879,-12.20386],[-63.31848,-12.20281],[-63.31863,-12.20177],[-63.31955,-12.20114],[-63.32105,-12.19928],[-63.32163,-12.19768],[-63.32163,-12.19677],[-63.32229,-12.19573],[-63.32302,-12.19362],[-63.3233,-12.19157],[-63.32269,-12.18912],[-63.3236,-12.18717],[-63.32374,-12.18626],[-63.32304,-12.1854],[-63.32043,-12.18453],[-63.31918,-12.18437],[-63.31594,-12.185],[-63.31507,-12.18471],[-63.31452,-12.1838],[-63.31374,-12.18112],[-63.31302,-12.18044],[-63.31182,-12.1803],[-63.31105,-12.17971],[-63.31068,-12.1788],[-63.31038,-12.17676],[-63.31036,-12.1746],[-63.31068,-12.17255],[-63.31035,-12.17018],[-63.30925,-12.1671],[-63.30802,-12.16544],[-63.30688,-12.16526],[-63.30574,-12.16395],[-63.30501,-12.16026],[-63.30458,-12.15882],[-63.30594,-12.15685],[-63.30716,-12.15543],[-63.30894,-12.15231],[-63.30852,-12.15031],[-63.30797,-12.14932],[-63.30615,-12.14771],[-63.30563,-12.14683],[-63.30357,-12.1462],[-63.30188,-12.14376],[-63.30074,-12.14335],[-63.29922,-12.14149],[-63.29635,-12.14114],[-63.29576,-12.14052],[-63.29521,-12.13903],[-63.29568,-12.13738],[-63.29666,-12.13615],[-63.29541,-12.13458],[-63.29444,-12.13276],[-63.29311,-12.12845],[-63.29277,-12.1266],[-63.29293,-12.12348],[-63.29358,-12.12089],[-63.29452,-12.11851],[-63.29416,-12.11667],[-63.29258,-12.11532],[-63.2916,-12.11275],[-63.29179,-12.11161],[-63.29305,-12.11043],[-63.29332,-12.10677],[-63.29313,-12.10559],[-63.29053,-12.10244],[-63.28998,-12.10147],[-63.28941,-12.09943],[-63.28781,-12.09749],[-63.2886,-12.0954],[-63.2884,-12.09404],[-63.28721,-12.09194],[-63.28719,-12.09053],[-63.28671,-12.08944],[-63.28568,-12.0882],[-63.28552,-12.08725],[-63.2859,-12.08451],[-63.2851,-12.08123],[-63.28702,-12.07865],[-63.28776,-12.0772],[-63.28825,-12.07466],[-63.28824,-12.07339],[-63.28737,-12.07124],[-63.28746,-12.06858],[-63.28671,-12.06565],[-63.28494,-12.06461],[-63.28263,-12.06482],[-63.28124,-12.06312],[-63.2778,-12.06011],[-63.27607,-12.05973],[-63.27564,-12.0593],[-63.27419,-12.05615],[-63.27332,-12.0558],[-63.27202,-12.05622],[-63.27132,-12.0558],[-63.27024,-12.05417],[-63.26968,-12.0538],[-63.26817,-12.05368],[-63.2663,-12.05226],[-63.26474,-12.04987],[-63.26436,-12.04878],[-63.26432,-12.04702],[-63.26462,-12.04466],[-63.26396,-12.0438],[-63.26272,-12.04296],[-63.26338,-12.04034],[-63.2631,-12.03954],[-63.26199,-12.03857],[-63.2629,-12.03475],[-63.26248,-12.03443],[-63.26025,-12.03447],[-63.25927,-12.03411],[-63.25646,-12.02882],[-63.25632,-12.02628],[-63.25555,-12.02555],[-63.25513,-12.02407],[-63.25524,-12.02207],[-63.25813,-12.01849],[-63.25793,-12.01744],[-63.25552,-12.01763],[-63.25519,-12.01592],[-63.25588,-12.01441],[-63.25913,-12.01183],[-63.26046,-12.01047],[-63.26173,-12.00857],[-63.26269,-12.00766],[-63.26396,-12.00595],[-63.26601,-12.00064],[-63.26649,-11.99759],[-63.26713,-11.99479],[-63.26777,-11.99307],[-63.26868,-11.99198],[-63.26918,-11.9921],[-63.27082,-11.99148],[-63.27099,-11.99053],[-63.27057,-11.98858],[-63.26888,-11.98711],[-63.26807,-11.98604],[-63.26899,-11.9843],[-63.27005,-11.98365],[-63.27124,-11.98172],[-63.27121,-11.9812],[-63.2696,-11.98105],[-63.26919,-11.98001],[-63.26971,-11.97957],[-63.27107,-11.97962],[-63.2716,-11.97858],[-63.26935,-11.97826],[-63.26899,-11.97566],[-63.27087,-11.97089],[-63.2703,-11.96864],[-63.27158,-11.96839],[-63.27195,-11.9675],[-63.27305,-11.96656],[-63.27356,-11.96542],[-63.27424,-11.9648],[-63.2743,-11.96339],[-63.27529,-11.96264],[-63.27658,-11.96212],[-63.27717,-11.96135],[-63.27674,-11.95892],[-63.27705,-11.95762],[-63.27846,-11.95618],[-63.27993,-11.95558],[-63.28514,-11.95397],[-63.28635,-11.95348],[-63.28722,-11.9527],[-63.2888,-11.95062],[-63.29048,-11.9491],[-63.29252,-11.94681],[-63.29438,-11.94592],[-63.29644,-11.94528],[-63.29891,-11.94403],[-63.30098,-11.94418],[-63.30264,-11.94368],[-63.30375,-11.94373],[-63.30526,-11.94422],[-63.30703,-11.9458],[-63.30831,-11.94595],[-63.30972,-11.94662],[-63.31105,-11.94653],[-63.31279,-11.94443],[-63.31334,-11.94414],[-63.31627,-11.94441],[-63.3177,-11.94297],[-63.3193,-11.94263],[-63.31973,-11.94217],[-63.31973,-11.94071],[-63.32156,-11.93967],[-63.3223,-11.94001],[-63.32367,-11.93966],[-63.32764,-11.93674],[-63.33049,-11.93677],[-63.33143,-11.93654],[-63.33243,-11.93558],[-63.33482,-11.93378],[-63.33671,-11.93175],[-63.33787,-11.93081],[-63.34062,-11.93085],[-63.34179,-11.92927],[-63.34311,-11.92575],[-63.34484,-11.92446],[-63.34612,-11.92217],[-63.34918,-11.91875],[-63.34954,-11.91817],[-63.34985,-11.91595],[-63.35219,-11.91347],[-63.3543,-11.91249],[-63.35755,-11.91248],[-63.35829,-11.91166],[-63.3594,-11.91109],[-63.36046,-11.90755],[-63.36296,-11.90523],[-63.36343,-11.90456],[-63.36369,-11.90295],[-63.36522,-11.90136],[-63.3651,-11.90032],[-63.36436,-11.89849],[-63.36465,-11.89747],[-63.36624,-11.89629],[-63.36749,-11.89599],[-63.36776,-11.89423],[-63.37078,-11.89178],[-63.37318,-11.88916],[-63.3777,-11.88626],[-63.37804,-11.8857],[-63.3781,-11.88381],[-63.37862,-11.883],[-63.37898,-11.88135],[-63.37907,-11.87901],[-63.3808,-11.8776],[-63.3811,-11.87703],[-63.38122,-11.87494],[-63.38223,-11.87392],[-63.38379,-11.87167],[-63.38353,-11.87],[-63.38472,-11.86842],[-63.38395,-11.86586],[-63.38553,-11.8641],[-63.38531,-11.86284],[-63.3844,-11.86187],[-63.38334,-11.86213],[-63.38167,-11.85927],[-63.38154,-11.85802],[-63.38097,-11.85662],[-63.37977,-11.85544],[-63.37927,-11.85434],[-63.37813,-11.85347],[-63.37702,-11.85119],[-63.37547,-11.85091],[-63.37468,-11.84981],[-63.37304,-11.84657],[-63.3694,-11.84131],[-63.36664,-11.83944],[-63.58109,-11.83904],[-63.5797,-11.84128],[-63.57931,-11.84708],[-63.57799,-11.85089],[-63.5776,-11.85958],[-63.57496,-11.86945],[-63.57497,-11.87419],[-63.57605,-11.88024],[-63.57766,-11.8851],[-63.57833,-11.88931],[-63.58155,-11.8951],[-63.58209,-11.89865],[-63.58384,-11.90601],[-63.58518,-11.90983],[-63.58532,-11.91417],[-63.586,-11.91772],[-63.58441,-11.92483],[-63.58455,-11.92733],[-63.58162,-11.92891],[-63.58042,-11.93155],[-63.57736,-11.93405],[-63.57442,-11.93366],[-63.57189,-11.9342],[-63.56496,-11.93645],[-63.56176,-11.9383],[-63.5583,-11.9412],[-63.55603,-11.94383],[-63.54963,-11.94516],[-63.54629,-11.94267],[-63.54188,-11.9382],[-63.53921,-11.9361],[-63.53454,-11.93795],[-63.53281,-11.9398],[-63.53,-11.93862],[-63.52774,-11.93836],[-63.52493,-11.93718],[-63.51519,-11.93865],[-63.5136,-11.9401],[-63.50853,-11.94353],[-63.50507,-11.94643],[-63.498,-11.94986],[-63.49601,-11.95289],[-63.49601,-11.95355],[-63.49268,-11.95711],[-63.48908,-11.96146],[-63.48576,-11.96712],[-63.48537,-11.97107],[-63.48524,-11.97488],[-63.48458,-11.97765],[-63.48511,-11.97883],[-63.48072,-11.98423],[-63.47765,-11.98674],[-63.47592,-11.98898],[-63.47232,-11.99083],[-63.46859,-11.9932],[-63.46632,-11.99426],[-63.46205,-11.9944],[-63.45819,-11.99546],[-63.45392,-11.99744],[-63.45165,-11.99718],[-63.44685,-11.99771],[-63.44578,-11.99863],[-63.44507,-12.0005],[-63.44472,-12.00272],[-63.44472,-12.00653],[-63.4458,-12.011],[-63.44528,-12.01864],[-63.44328,-12.02259],[-63.44328,-12.02338],[-63.44435,-12.02429],[-63.44396,-12.02706],[-63.4437,-12.03101],[-63.44477,-12.03377],[-63.44624,-12.03455],[-63.44718,-12.03666],[-63.44905,-12.03652],[-63.45119,-12.03955],[-63.45039,-12.04192],[-63.45146,-12.0427],[-63.45066,-12.04494],[-63.4524,-12.04876],[-63.45334,-12.04981],[-63.4556,-12.04836],[-63.45641,-12.04901],[-63.45601,-12.05099],[-63.45841,-12.0523],[-63.45882,-12.05388],[-63.45949,-12.05374],[-63.46096,-12.05611],[-63.45976,-12.05795],[-63.45936,-12.05993],[-63.4603,-12.06085],[-63.4631,-12.06216],[-63.46417,-12.06479],[-63.46338,-12.06703],[-63.46298,-12.07005],[-63.46312,-12.07084],[-63.46673,-12.07439],[-63.46527,-12.07716],[-63.46567,-12.07926],[-63.46474,-12.08176],[-63.46274,-12.08308],[-63.46368,-12.08466],[-63.46395,-12.0865],[-63.46341,-12.08716],[-63.46395,-12.08795],[-63.46288,-12.08913],[-63.46329,-12.08992],[-63.46249,-12.0915],[-63.46023,-12.09887],[-63.46077,-12.10006],[-63.4593,-12.10282],[-63.46091,-12.10453],[-63.46038,-12.10677],[-63.46052,-12.10993],[-63.45932,-12.11256],[-63.45812,-12.11335],[-63.45959,-12.1148],[-63.45732,-12.11638],[-63.45773,-12.11954],[-63.46013,-12.12058],[-63.46054,-12.1219],[-63.46187,-12.12256],[-63.46348,-12.12282],[-63.46348,-12.12413],[-63.46441,-12.12439],[-63.46415,-12.1265],[-63.46589,-12.12794],[-63.46642,-12.12992],[-63.46736,-12.13005],[-63.46629,-12.13202],[-63.46657,-12.13557],[-63.46844,-12.13557],[-63.46831,-12.13728],[-63.46871,-12.13833],[-63.46871,-12.13991],[-63.46911,-12.1407],[-63.47018,-12.13991],[-63.47032,-12.14109],[-63.47098,-12.14188],[-63.47299,-12.14201],[-63.47312,-12.14254],[-63.47459,-12.14345],[-63.47513,-12.14516],[-63.4758,-12.14503],[-63.47794,-12.14542],[-63.4786,-12.14661],[-63.48381,-12.14646],[-63.48408,-12.14686],[-63.48448,-12.14923],[-63.48729,-12.15041],[-63.48969,-12.15014],[-63.49076,-12.15066],[-63.4913,-12.15211],[-63.49237,-12.1525],[-63.49237,-12.15369],[-63.49437,-12.15408],[-63.49571,-12.15316],[-63.49825,-12.15315],[-63.50893,-12.15563],[-63.51101,-12.15847],[-63.5154,-12.16066],[-63.51973,-12.16303],[-63.52602,-12.1643],[-63.52994,-12.16563],[-63.53271,-12.16597],[-63.53398,-12.16811],[-63.53537,-12.17001],[-63.53496,-12.17111],[-63.53554,-12.17209],[-63.53548,-12.17342],[-63.53603,-12.17534],[-63.53606,-12.17706],[-63.53698,-12.17867],[-63.53721,-12.1804],[-63.53704,-12.18237],[-63.53721,-12.18491],[-63.5382,-12.18635],[-63.53785,-12.18739],[-63.53831,-12.189],[-63.53797,-12.192],[-63.53866,-12.19304],[-63.53803,-12.1989],[-63.53625,-12.20134],[-63.53598,-12.20269],[-63.53681,-12.20485],[-63.53969,-12.20592],[-63.54326,-12.20969],[-63.54299,-12.21253],[-63.54532,-12.21347],[-63.54519,-12.21496],[-63.5482,-12.21428],[-63.54766,-12.21644],[-63.54643,-12.21712],[-63.54807,-12.21846],[-63.54794,-12.21941],[-63.54808,-12.22251],[-63.54931,-12.22089],[-63.55068,-12.22116],[-63.55014,-12.22332],[-63.55097,-12.2248],[-63.54767,-12.224],[-63.54905,-12.22616],[-63.55097,-12.22723],[-63.55084,-12.22913],[-63.55235,-12.22953],[-63.55344,-12.22899],[-63.55358,-12.2298],[-63.55537,-12.23101],[-63.55646,-12.23087],[-63.55646,-12.23222],[-63.55701,-12.23262],[-63.55811,-12.23114],[-63.55948,-12.23181],[-63.55907,-12.23384],[-63.56154,-12.23424],[-63.56155,-12.23694],[-63.5595,-12.23924],[-63.55909,-12.24194],[-63.55731,-12.24343],[-63.56019,-12.24234],[-63.56047,-12.24545],[-63.55993,-12.24828],[-63.56254,-12.25071],[-63.56692,-12.25097],[-63.56844,-12.2534],[-63.57077,-12.25312],[-63.56913,-12.25583],[-63.56845,-12.25853],[-63.57024,-12.26096],[-63.57229,-12.26176],[-63.57367,-12.26621],[-63.57615,-12.27283],[-63.57616,-12.27566],[-63.5774,-12.27795],[-63.57756,-12.28646],[-63.57811,-12.28943],[-63.58251,-12.29212],[-63.58402,-12.29469],[-63.58636,-12.29779],[-63.58828,-12.30089],[-63.59392,-12.30574],[-63.59489,-12.30979],[-63.59544,-12.311],[-63.59339,-12.31344],[-63.59476,-12.31505],[-63.59613,-12.31329],[-63.59764,-12.31424],[-63.5971,-12.31815],[-63.59532,-12.3191],[-63.5956,-12.32329],[-63.5941,-12.32748],[-63.59425,-12.33099],[-63.59269,-12.3343],[-63.64821,-12.33439],[-63.64816,-12.33933],[-63.64835,-12.34074],[-63.64924,-12.34282],[-63.64977,-12.34545],[-63.65051,-12.3474],[-63.65136,-12.35066],[-63.65138,-12.35176],[-63.65086,-12.35649],[-63.6495,-12.35897],[-63.64696,-12.36061],[-63.64577,-12.36182],[-63.64495,-12.36368],[-63.64468,-12.36544],[-63.64494,-12.3697],[-63.64425,-12.37127],[-63.64188,-12.37289],[-63.63683,-12.37585],[-63.63467,-12.37683],[-63.63382,-12.37811],[-63.63346,-12.38109],[-63.63269,-12.38291],[-63.63138,-12.387],[-63.63093,-12.38769],[-63.63022,-12.39026],[-63.62838,-12.39446],[-63.626,-12.39723],[-63.62458,-12.39864],[-63.62407,-12.40039],[-63.62396,-12.40366],[-63.62491,-12.40743],[-63.62542,-12.40883],[-63.62628,-12.41411],[-63.62691,-12.41606],[-63.62731,-12.41918],[-63.62786,-12.42096],[-63.62774,-12.42329],[-63.62831,-12.42537],[-63.63024,-12.42696],[-63.63179,-12.42767],[-63.63679,-12.42917],[-63.64151,-12.43138],[-63.64278,-12.4324],[-63.64396,-12.43408],[-63.64462,-12.43734],[-63.64636,-12.44008],[-63.64818,-12.44218],[-63.65058,-12.44452],[-63.65286,-12.44574],[-63.65503,-12.44634],[-63.6573,-12.44762],[-63.6607,-12.44859],[-63.66347,-12.44854],[-63.66608,-12.44877],[-63.66895,-12.44972],[-63.67133,-12.44981],[-63.67552,-12.4496],[-63.67695,-12.44964],[-63.67886,-12.45036],[-63.68123,-12.45097],[-63.68476,-12.45306]]]},"properties":{"codigo":"110149210","name":"Porto Murtinho","population":2468,"households":1242,"areaKm2":1565.6742,"density":1.6}}]}