{"type":"FeatureCollection","features":[{"type":"Feature","geometry":{"type":"Polygon","coordinates":[[[-69.56337,-10.93764],[-69.56377,-10.93746],[-69.5678,-10.9363],[-69.56805,-10.93742],[-69.56875,-10.93992],[-69.56974,-10.94251],[-69.56826,-10.94447],[-69.56732,-10.94395],[-69.56682,-10.94399],[-69.56663,-10.94319],[-69.56522,-10.9427],[-69.56448,-10.94154],[-69.56415,-10.93976],[-69.56337,-10.93764]]]},"properties":{"codigo":"1200054001","name":"Centro","population":1026,"households":436,"areaKm2":0.3717,"density":2760.6}},{"type":"Feature","geometry":{"type":"Polygon","coordinates":[[[-69.56682,-10.94399],[-69.56558,-10.94454],[-69.56463,-10.94537],[-69.561,-10.94349],[-69.56104,-10.94222],[-69.56105,-10.94119],[-69.56061,-10.93846],[-69.56143,-10.93827],[-69.56337,-10.93764],[-69.56415,-10.93976],[-69.56448,-10.94154],[-69.56522,-10.9427],[-69.56663,-10.94319],[-69.56682,-10.94399]]]},"properties":{"codigo":"1200054002","name":"Cascata","population":681,"households":253,"areaKm2":0.3086,"density":2206.9}},{"type":"Feature","geometry":{"type":"Polygon","coordinates":[[[-69.56104,-10.94222],[-69.5603,-10.94217],[-69.55953,-10.94188],[-69.55889,-10.94129],[-69.5569,-10.941],[-69.55744,-10.93834],[-69.55821,-10.93849],[-69.55973,-10.9386],[-69.56061,-10.93846],[-69.56105,-10.94119],[-69.56104,-10.94222]]]},"properties":{"codigo":"1200054003","name":"Plácido de Castro","population":684,"households":250,"areaKm2":0.1382,"density":4949.5}},{"type":"Feature","geometry":{"type":"Polygon","coordinates":[[[-69.55663,-10.93192],[-69.55439,-10.93156],[-69.5541,-10.93159],[-69.55052,-10.93286],[-69.54958,-10.93501],[-69.54962,-10.93628],[-69.54823,-10.93656],[-69.54647,-10.93591],[-69.54508,-10.93532],[-69.54671,-10.93417],[-69.54743,-10.9335],[-69.54938,-10.93232],[-69.54967,-10.93167],[-69.55022,-10.93101],[-69.55128,-10.92931],[-69.55248,-10.92847],[-69.55311,-10.92841],[-69.55527,-10.92943],[-69.55756,-10.9292],[-69.55817,-10.93058],[-69.55863,-10.93106],[-69.5593,-10.93122],[-69.5577,-10.93174],[-69.55663,-10.93192]]]},"properties":{"codigo":"1200054005","name":"Cidade Nova","population":831,"households":328,"areaKm2":0.4296,"density":1934.1}},{"type":"Feature","geometry":{"type":"Polygon","coordinates":[[[-69.5569,-10.941],[-69.55358,-10.94045],[-69.55381,-10.93891],[-69.55043,-10.93799],[-69.55055,-10.93704],[-69.54934,-10.93692],[-69.54823,-10.93656],[-69.54962,-10.93628],[-69.54958,-10.93501],[-69.55052,-10.93286],[-69.5541,-10.93159],[-69.55439,-10.93156],[-69.55663,-10.93192],[-69.55612,-10.93255],[-69.55576,-10.93333],[-69.55579,-10.93404],[-69.55643,-10.9352],[-69.55699,-10.93594],[-69.55774,-10.93657],[-69.55825,-10.93764],[-69.55821,-10.93849],[-69.55744,-10.93834],[-69.5569,-10.941]]]},"properties":{"codigo":"1200054004","name":"Bela Vista","population":1089,"households":397,"areaKm2":0.63,"density":1728.4}}]}