{"type":"FeatureCollection","features":[{"type":"Feature","geometry":{"type":"Polygon","coordinates":[[[-67.12466,-9.96985],[-67.1652,-9.98458],[-67.16831,-9.98631],[-67.1819,-9.99421],[-67.18446,-9.99555],[-67.2051,-10.00543],[-67.21643,-10.01089],[-67.22671,-10.01589],[-67.2442,-10.02434],[-67.25048,-10.02733],[-67.25174,-10.02816],[-67.26666,-10.04065],[-67.26791,-10.04156],[-67.27655,-10.04591],[-67.27824,-10.0472],[-67.28487,-10.05345],[-67.2866,-10.05474],[-67.29194,-10.05823],[-67.29074,-10.05987],[-67.29402,-10.06211],[-67.29108,-10.06613],[-67.29179,-10.06656],[-67.28855,-10.07119],[-67.2858,-10.07619],[-67.28486,-10.07762],[-67.28627,-10.07862],[-67.2873,-10.07711],[-67.2921,-10.08042],[-67.29357,-10.08161],[-67.29659,-10.0834],[-67.29869,-10.08501],[-67.30025,-10.08527],[-67.30032,-10.06249],[-67.31988,-10.06028],[-67.33196,-10.06078],[-67.34543,-10.06144],[-67.3469,-10.06185],[-67.36476,-10.06931],[-67.3738,-10.07315],[-67.39861,-10.08354],[-67.4109,-10.08871],[-67.42317,-10.09382],[-67.4285,-10.0961],[-67.42833,-10.09683],[-67.42917,-10.09938],[-67.42917,-10.10074],[-67.42838,-10.10417],[-67.42773,-10.1076],[-67.42783,-10.10886],[-67.43029,-10.11724],[-67.43034,-10.11835],[-67.42968,-10.12427],[-67.42974,-10.12575],[-67.43026,-10.1274],[-67.43726,-10.14236],[-67.43777,-10.14387],[-67.44137,-10.1601],[-67.44182,-10.16161],[-67.44269,-10.16293],[-67.44675,-10.16819],[-67.44805,-10.16933],[-67.45343,-10.17241],[-67.45593,-10.17406],[-67.46032,-10.17807],[-67.46107,-10.17988],[-67.46181,-10.18523],[-67.46398,-10.19182],[-67.46509,-10.19387],[-67.46863,-10.19937],[-67.46961,-10.20275],[-67.47059,-10.20477],[-67.47234,-10.20714],[-67.47913,-10.21241],[-67.48075,-10.21391],[-67.48133,-10.21533],[-67.48225,-10.22104],[-67.48328,-10.22291],[-67.4838,-10.2233],[-67.48968,-10.22602],[-67.49131,-10.22762],[-67.49256,-10.22956],[-67.49335,-10.23034],[-67.49672,-10.2326],[-67.49798,-10.23452],[-67.49887,-10.23753],[-67.50147,-10.24185],[-67.50215,-10.24404],[-67.5021,-10.24574],[-67.50069,-10.2535],[-67.50087,-10.25544],[-67.50327,-10.26252],[-67.50377,-10.26366],[-67.50456,-10.26447],[-67.51088,-10.26904],[-67.51187,-10.26963],[-67.51309,-10.2699],[-67.51952,-10.27004],[-67.52165,-10.27076],[-67.53455,-10.27636],[-67.53543,-10.27699],[-67.53824,-10.28007],[-67.55661,-10.28788],[-67.56409,-10.28946],[-67.57442,-10.29425],[-67.58054,-10.29871],[-67.58111,-10.29905],[-67.58686,-10.30167],[-67.598,-10.30667],[-67.59861,-10.30734],[-67.59702,-10.30991],[-67.61175,-10.30313],[-67.61101,-10.30676],[-67.61012,-10.30809],[-67.61048,-10.30954],[-67.61235,-10.31131],[-67.61223,-10.31246],[-67.61169,-10.31356],[-67.6117,-10.31463],[-67.6138,-10.31591],[-67.61777,-10.31598],[-67.619,-10.31691],[-67.61877,-10.31927],[-67.6192,-10.32006],[-67.62042,-10.32011],[-67.62134,-10.31946],[-67.62326,-10.31935],[-67.62392,-10.31976],[-67.62435,-10.32112],[-67.62426,-10.32359],[-67.624,-10.32427],[-67.62099,-10.32726],[-67.62075,-10.32833],[-67.62139,-10.33064],[-67.62232,-10.3319],[-67.62324,-10.33235],[-67.62566,-10.33252],[-67.62685,-10.33308],[-67.62752,-10.3346],[-67.62691,-10.33745],[-67.62654,-10.3399],[-67.62589,-10.34178],[-67.62584,-10.34292],[-67.62692,-10.34443],[-67.62981,-10.34604],[-67.63141,-10.34725],[-67.63283,-10.34803],[-67.63651,-10.34976],[-67.63757,-10.35082],[-67.63791,-10.35188],[-67.63789,-10.35318],[-67.63728,-10.35703],[-67.63725,-10.35976],[-67.63707,-10.36137],[-67.63691,-10.36693],[-67.63786,-10.36865],[-67.63772,-10.36931],[-67.63913,-10.3718],[-67.64121,-10.3734],[-67.64178,-10.37428],[-67.64238,-10.37652],[-67.64251,-10.37804],[-67.64312,-10.38137],[-67.64326,-10.38301],[-67.64579,-10.38572],[-67.64606,-10.38672],[-67.64616,-10.38959],[-67.64671,-10.39054],[-67.64785,-10.39125],[-67.6487,-10.39259],[-67.65034,-10.39294],[-67.65309,-10.39471],[-67.65412,-10.395],[-67.65848,-10.39875],[-67.65914,-10.39875],[-67.66031,-10.39633],[-67.66261,-10.39421],[-67.66361,-10.39414],[-67.66479,-10.39463],[-67.66559,-10.39339],[-67.66732,-10.39173],[-67.6687,-10.39107],[-67.67026,-10.39079],[-67.67254,-10.39087],[-67.67499,-10.39062],[-67.67653,-10.39115],[-67.67849,-10.39016],[-67.67926,-10.39031],[-67.68013,-10.39127],[-67.68213,-10.39258],[-67.68281,-10.39375],[-67.68341,-10.39612],[-67.6843,-10.39706],[-67.68444,-10.39817],[-67.68564,-10.40309],[-67.68645,-10.40481],[-67.68655,-10.4061],[-67.68632,-10.40807],[-67.68687,-10.41086],[-67.68787,-10.41196],[-67.68937,-10.41287],[-67.69055,-10.41271],[-67.69173,-10.41405],[-67.69239,-10.41554],[-67.69436,-10.41708],[-67.69544,-10.41745],[-67.69692,-10.41889],[-67.69772,-10.42003],[-67.69868,-10.42259],[-67.69965,-10.42378],[-67.70115,-10.4266],[-67.7037,-10.4292],[-67.70564,-10.43152],[-67.70642,-10.43279],[-67.70844,-10.43465],[-67.709,-10.43764],[-67.71111,-10.44128],[-67.71147,-10.44164],[-67.70022,-10.45582],[-67.69514,-10.46123],[-67.68084,-10.47623],[-67.67992,-10.47567],[-67.67799,-10.47668],[-67.67576,-10.4787],[-67.67224,-10.48022],[-67.67018,-10.48094],[-67.66859,-10.48086],[-67.66666,-10.48035],[-67.66224,-10.48022],[-67.66129,-10.48052],[-67.65902,-10.48022],[-67.6552,-10.48187],[-67.65413,-10.48166],[-67.65108,-10.48242],[-67.65035,-10.48276],[-67.64902,-10.48191],[-67.6443,-10.48153],[-67.64366,-10.48107],[-67.64327,-10.47968],[-67.6413,-10.4793],[-67.63984,-10.47841],[-67.63795,-10.47904],[-67.63679,-10.4801],[-67.63516,-10.48048],[-67.63357,-10.48149],[-67.63138,-10.48233],[-67.63061,-10.48174],[-67.62997,-10.4801],[-67.62653,-10.47984],[-67.62271,-10.48048],[-67.62173,-10.48027],[-67.62022,-10.48069],[-67.61765,-10.48385],[-67.61683,-10.48676],[-67.61495,-10.48774],[-67.61211,-10.49098],[-67.61117,-10.49787],[-67.60962,-10.50441],[-67.60872,-10.50597],[-67.60705,-10.50627],[-67.6016,-10.5084],[-67.59755,-10.50971],[-67.59414,-10.51041],[-67.59024,-10.51077],[-67.58656,-10.50771],[-67.58473,-10.50568],[-67.58341,-10.50509],[-67.58117,-10.50463],[-67.57869,-10.50232],[-67.57798,-10.5023],[-67.57603,-10.50347],[-67.57348,-10.50544],[-67.57156,-10.50547],[-67.56989,-10.50584],[-67.56761,-10.50802],[-67.56735,-10.50951],[-67.56244,-10.50359],[-67.5556,-10.49986],[-67.54994,-10.49803],[-67.54564,-10.49517],[-67.53873,-10.49373],[-67.53172,-10.49113],[-67.53043,-10.49093],[-67.52498,-10.49222],[-67.5234,-10.49207],[-67.52248,-10.49163],[-67.51754,-10.48708],[-67.51578,-10.48454],[-67.496,-10.47414],[-67.49267,-10.47215],[-67.48841,-10.47019],[-67.47819,-10.46778],[-67.47764,-10.46715],[-67.47364,-10.46163],[-67.47254,-10.46081],[-67.46588,-10.45534],[-67.45917,-10.45521],[-67.45513,-10.45427],[-67.45167,-10.45514],[-67.448,-10.45397],[-67.44685,-10.45296],[-67.44586,-10.4526],[-67.4448,-10.45322],[-67.44311,-10.45259],[-67.44066,-10.44994],[-67.43932,-10.44899],[-67.43805,-10.4489],[-67.43648,-10.44791],[-67.43502,-10.44617],[-67.43498,-10.44469],[-67.43374,-10.44349],[-67.43437,-10.44291],[-67.43418,-10.44176],[-67.43494,-10.44113],[-67.43467,-10.43984],[-67.43394,-10.43947],[-67.43428,-10.43858],[-67.43349,-10.43818],[-67.43248,-10.43509],[-67.43313,-10.43393],[-67.43224,-10.43329],[-67.43113,-10.43199],[-67.43189,-10.43101],[-67.43043,-10.42986],[-67.42955,-10.42868],[-67.42841,-10.42849],[-67.42741,-10.42712],[-67.42461,-10.42746],[-67.42388,-10.42859],[-67.4219,-10.42913],[-67.42092,-10.42878],[-67.41932,-10.42897],[-67.41786,-10.42804],[-67.41685,-10.42845],[-67.41685,-10.4273],[-67.41521,-10.42695],[-67.41452,-10.42595],[-67.41322,-10.42573],[-67.41382,-10.42478],[-67.41264,-10.42369],[-67.41351,-10.42312],[-67.41292,-10.42238],[-67.41266,-10.41998],[-67.4113,-10.41986],[-67.41125,-10.41867],[-67.41305,-10.41683],[-67.41215,-10.41561],[-67.41226,-10.41463],[-67.41345,-10.41436],[-67.41301,-10.41351],[-67.41342,-10.4114],[-67.41405,-10.41075],[-67.41362,-10.40913],[-67.41377,-10.40794],[-67.41521,-10.4069],[-67.41545,-10.40457],[-67.41401,-10.40284],[-67.41419,-10.40108],[-67.41513,-10.40066],[-67.41544,-10.39964],[-67.41697,-10.39916],[-67.41723,-10.39817],[-67.41791,-10.39818],[-67.41804,-10.39713],[-67.41965,-10.39676],[-67.41995,-10.39782],[-67.42163,-10.39734],[-67.42291,-10.39606],[-67.42365,-10.39426],[-67.42322,-10.39333],[-67.42379,-10.3914],[-67.4232,-10.39045],[-67.42206,-10.38996],[-67.42072,-10.38898],[-67.42102,-10.38805],[-67.42056,-10.38676],[-67.41953,-10.38581],[-67.418,-10.38574],[-67.41696,-10.3852],[-67.41665,-10.3839],[-67.41389,-10.38269],[-67.41287,-10.38194],[-67.41329,-10.38052],[-67.41244,-10.3793],[-67.41229,-10.37827],[-67.41089,-10.37862],[-67.40929,-10.37763],[-67.40781,-10.37538],[-67.40828,-10.37454],[-67.40655,-10.37247],[-67.40377,-10.37335],[-67.40296,-10.37285],[-67.40209,-10.37308],[-67.40116,-10.37162],[-67.39915,-10.37277],[-67.39809,-10.37302],[-67.39824,-10.37502],[-67.39683,-10.3761],[-67.39654,-10.37716],[-67.39583,-10.37806],[-67.39506,-10.37799],[-67.39453,-10.37697],[-67.39508,-10.37579],[-67.39438,-10.37467],[-67.39358,-10.37462],[-67.39269,-10.37638],[-67.3912,-10.37759],[-67.39073,-10.37845],[-67.3896,-10.37859],[-67.3893,-10.37709],[-67.38733,-10.37745],[-67.387,-10.37821],[-67.38542,-10.37861],[-67.38524,-10.37942],[-67.38414,-10.3792],[-67.38327,-10.37966],[-67.38387,-10.38091],[-67.38468,-10.38084],[-67.38461,-10.38258],[-67.3829,-10.38419],[-67.38168,-10.38262],[-67.38114,-10.38115],[-67.38057,-10.38113],[-67.37972,-10.38237],[-67.37873,-10.38321],[-67.3777,-10.38221],[-67.37618,-10.38147],[-67.37362,-10.38109],[-67.37227,-10.38155],[-67.37157,-10.38133],[-67.37181,-10.37975],[-67.36931,-10.37803],[-67.36967,-10.37735],[-67.36858,-10.37602],[-67.36721,-10.37703],[-67.36522,-10.37773],[-67.36381,-10.37759],[-67.36319,-10.37955],[-67.363,-10.38099],[-67.36315,-10.38312],[-67.36258,-10.38496],[-67.36049,-10.3853],[-67.35932,-10.38584],[-67.35958,-10.38646],[-67.35925,-10.38765],[-67.35843,-10.38807],[-67.35921,-10.38893],[-67.35883,-10.38968],[-67.35777,-10.39021],[-67.3559,-10.39068],[-67.35583,-10.39122],[-67.35685,-10.39227],[-67.35621,-10.39337],[-67.35539,-10.39273],[-67.35334,-10.39199],[-67.35383,-10.39301],[-67.3532,-10.39335],[-67.35146,-10.39273],[-67.35174,-10.39143],[-67.35121,-10.39061],[-67.35272,-10.38939],[-67.35321,-10.38816],[-67.35339,-10.38648],[-67.35426,-10.38638],[-67.35338,-10.38447],[-67.35346,-10.38378],[-67.35477,-10.38397],[-67.35423,-10.38178],[-67.35298,-10.38112],[-67.35115,-10.37865],[-67.34969,-10.37897],[-67.34869,-10.3787],[-67.34741,-10.37936],[-67.34716,-10.378],[-67.34587,-10.3782],[-67.3452,-10.37764],[-67.3453,-10.3764],[-67.34412,-10.37589],[-67.34316,-10.37622],[-67.34047,-10.37812],[-67.34055,-10.37645],[-67.33907,-10.37633],[-67.33811,-10.37669],[-67.3376,-10.37902],[-67.33693,-10.37818],[-67.33454,-10.37888],[-67.33351,-10.37979],[-67.33271,-10.3797],[-67.33248,-10.38168],[-67.33268,-10.38277],[-67.33043,-10.38234],[-67.3292,-10.38346],[-67.32758,-10.3824],[-67.32695,-10.38096],[-67.32549,-10.37994],[-67.32468,-10.37997],[-67.32449,-10.38145],[-67.32305,-10.38284],[-67.32319,-10.38149],[-67.32209,-10.38122],[-67.32176,-10.38019],[-67.32106,-10.38031],[-67.32075,-10.38135],[-67.31984,-10.38162],[-67.31954,-10.38048],[-67.31826,-10.38032],[-67.31814,-10.37903],[-67.31755,-10.37729],[-67.31712,-10.37679],[-67.31461,-10.37733],[-67.31435,-10.37605],[-67.31357,-10.37645],[-67.31272,-10.37801],[-67.31154,-10.37805],[-67.31082,-10.37739],[-67.31077,-10.37544],[-67.31202,-10.37487],[-67.31186,-10.37412],[-67.31053,-10.37285],[-67.31048,-10.37122],[-67.31199,-10.37194],[-67.31243,-10.3702],[-67.31323,-10.36965],[-67.3149,-10.37004],[-67.31504,-10.36914],[-67.31663,-10.36952],[-67.31745,-10.3688],[-67.31658,-10.36772],[-67.31808,-10.36605],[-67.31805,-10.36503],[-67.31667,-10.36476],[-67.31632,-10.36215],[-67.31719,-10.36109],[-67.31845,-10.36171],[-67.31853,-10.36069],[-67.31939,-10.35993],[-67.31894,-10.35912],[-67.31764,-10.35842],[-67.31678,-10.35833],[-67.31607,-10.3574],[-67.31673,-10.35689],[-67.31623,-10.35604],[-67.31703,-10.3544],[-67.31634,-10.35274],[-67.31653,-10.35212],[-67.31525,-10.3506],[-67.31562,-10.34951],[-67.31673,-10.34844],[-67.31554,-10.34721],[-67.31616,-10.34649],[-67.31735,-10.34614],[-67.31793,-10.34557],[-67.31842,-10.34399],[-67.3199,-10.34402],[-67.32005,-10.34293],[-67.31915,-10.34263],[-67.31924,-10.34164],[-67.32076,-10.34131],[-67.32222,-10.34147],[-67.3222,-10.34031],[-67.32419,-10.33996],[-67.32673,-10.33869],[-67.32699,-10.3372],[-67.32748,-10.33679],[-67.32796,-10.33538],[-67.32762,-10.33339],[-67.32684,-10.33307],[-67.32681,-10.33163],[-67.32618,-10.33062],[-67.32512,-10.33058],[-67.32483,-10.32872],[-67.32401,-10.32664],[-67.3241,-10.32587],[-67.32254,-10.32501],[-67.32136,-10.32623],[-67.32027,-10.32556],[-67.32077,-10.32473],[-67.32061,-10.32332],[-67.32101,-10.3227],[-67.32212,-10.3233],[-67.3219,-10.32165],[-67.3211,-10.32122],[-67.31926,-10.32175],[-67.31851,-10.32167],[-67.31683,-10.32035],[-67.31596,-10.31874],[-67.31351,-10.31874],[-67.31252,-10.31951],[-67.31155,-10.31915],[-67.31124,-10.3205],[-67.31148,-10.32139],[-67.31052,-10.32197],[-67.3104,-10.32015],[-67.30925,-10.31997],[-67.30859,-10.32144],[-67.3059,-10.32262],[-67.30496,-10.32201],[-67.30355,-10.32205],[-67.30316,-10.32398],[-67.30274,-10.32413],[-67.30105,-10.32317],[-67.30102,-10.32167],[-67.30001,-10.3212],[-67.29899,-10.32188],[-67.29875,-10.32101],[-67.29741,-10.32138],[-67.29618,-10.32102],[-67.29567,-10.32176],[-67.29664,-10.32327],[-67.29588,-10.32466],[-67.29413,-10.32496],[-67.2932,-10.32474],[-67.29228,-10.3235],[-67.29138,-10.324],[-67.29079,-10.32301],[-67.29057,-10.32159],[-67.28909,-10.3211],[-67.28954,-10.32023],[-67.28873,-10.31992],[-67.28797,-10.32031],[-67.28498,-10.31943],[-67.28415,-10.32005],[-67.28353,-10.31949],[-67.28284,-10.32103],[-67.28202,-10.32074],[-67.28094,-10.32115],[-67.28048,-10.32065],[-67.27913,-10.32155],[-67.27799,-10.32142],[-67.27632,-10.32201],[-67.27617,-10.32319],[-67.27648,-10.32434],[-67.27588,-10.32486],[-67.27463,-10.32438],[-67.27365,-10.32477],[-67.27397,-10.32587],[-67.27294,-10.32599],[-67.2714,-10.32528],[-67.27035,-10.32595],[-67.26968,-10.32777],[-67.26797,-10.32805],[-67.26822,-10.3302],[-67.26535,-10.33072],[-67.26578,-10.33147],[-67.26624,-10.3338],[-67.26427,-10.33241],[-67.2629,-10.33252],[-67.26233,-10.33137],[-67.26224,-10.33004],[-67.26014,-10.33015],[-67.25744,-10.32932],[-67.25541,-10.32836],[-67.2536,-10.32877],[-67.25149,-10.32686],[-67.25024,-10.3261],[-67.24942,-10.32672],[-67.24872,-10.32585],[-67.24799,-10.32387],[-67.2468,-10.32353],[-67.24333,-10.32376],[-67.24299,-10.323],[-67.2435,-10.32097],[-67.24314,-10.31988],[-67.24173,-10.31854],[-67.24064,-10.31827],[-67.2396,-10.3185],[-67.23882,-10.32019],[-67.23808,-10.31849],[-67.23762,-10.31834],[-67.23691,-10.31641],[-67.23555,-10.31604],[-67.23471,-10.31635],[-67.23198,-10.31611],[-67.23074,-10.31559],[-67.22873,-10.3166],[-67.22754,-10.31629],[-67.2264,-10.31656],[-67.22513,-10.31525],[-67.22393,-10.31556],[-67.22268,-10.31672],[-67.2213,-10.31764],[-67.22125,-10.3197],[-67.22022,-10.3202],[-67.22029,-10.32158],[-67.21996,-10.32289],[-67.21911,-10.3238],[-67.21848,-10.32371],[-67.2179,-10.32122],[-67.21603,-10.32056],[-67.21526,-10.32144],[-67.21504,-10.32348],[-67.21428,-10.32422],[-67.21279,-10.32496],[-67.21226,-10.32485],[-67.21277,-10.32333],[-67.21207,-10.32223],[-67.21083,-10.32193],[-67.20976,-10.32207],[-67.20951,-10.3237],[-67.20879,-10.32421],[-67.20892,-10.32223],[-67.20739,-10.32198],[-67.2065,-10.32299],[-67.205,-10.32295],[-67.20434,-10.32247],[-67.20356,-10.32271],[-67.20305,-10.3221],[-67.20209,-10.32227],[-67.2014,-10.32176],[-67.20107,-10.32301],[-67.20002,-10.32254],[-67.19933,-10.32364],[-67.19827,-10.32298],[-67.19716,-10.32485],[-67.19624,-10.32365],[-67.19465,-10.32497],[-67.19564,-10.32606],[-67.19555,-10.32782],[-67.19452,-10.32766],[-67.19339,-10.32887],[-67.19136,-10.32982],[-67.19145,-10.33271],[-67.19002,-10.33309],[-67.1913,-10.33538],[-67.19014,-10.33611],[-67.18844,-10.336],[-67.18845,-10.33771],[-67.18794,-10.33844],[-67.18874,-10.33913],[-67.18753,-10.33999],[-67.1861,-10.33827],[-67.18534,-10.3378],[-67.18376,-10.33797],[-67.18102,-10.33925],[-67.17992,-10.33948],[-67.17779,-10.3394],[-67.17388,-10.33806],[-67.17169,-10.33795],[-67.17034,-10.33757],[-67.16794,-10.33603],[-67.16622,-10.33516],[-67.16509,-10.33366],[-67.16396,-10.33277],[-67.16378,-10.33183],[-67.16451,-10.33089],[-67.16442,-10.33003],[-67.1635,-10.32978],[-67.16218,-10.3289],[-67.16109,-10.32867],[-67.15912,-10.32882],[-67.15808,-10.32814],[-67.15671,-10.32886],[-67.15457,-10.3286],[-67.15357,-10.32749],[-67.14937,-10.32602],[-67.14766,-10.32352],[-67.14672,-10.32401],[-67.14688,-10.3255],[-67.14498,-10.32678],[-67.14385,-10.32661],[-67.14344,-10.32477],[-67.14266,-10.32277],[-67.14101,-10.32147],[-67.13942,-10.31922],[-67.13965,-10.31786],[-67.14021,-10.31715],[-67.14028,-10.31588],[-67.13931,-10.31522],[-67.13812,-10.31556],[-67.13682,-10.3179],[-67.13637,-10.31908],[-67.13509,-10.31884],[-67.13478,-10.31813],[-67.13441,-10.31569],[-67.13362,-10.31541],[-67.1328,-10.31656],[-67.13185,-10.31708],[-67.12982,-10.31684],[-67.12808,-10.31593],[-67.12783,-10.3149],[-67.12861,-10.31354],[-67.12937,-10.31289],[-67.13108,-10.31246],[-67.13224,-10.31156],[-67.13387,-10.30946],[-67.13484,-10.30916],[-67.13647,-10.30936],[-67.13797,-10.30999],[-67.13895,-10.30996],[-67.14033,-10.30911],[-67.14074,-10.30828],[-67.14054,-10.30673],[-67.13884,-10.3048],[-67.13701,-10.3012],[-67.13735,-10.29848],[-67.13704,-10.29768],[-67.13524,-10.29627],[-67.13362,-10.29527],[-67.12971,-10.29341],[-67.12744,-10.29212],[-67.12579,-10.2904],[-67.12371,-10.29106],[-67.12117,-10.29258],[-67.11945,-10.29291],[-67.11706,-10.29273],[-67.11426,-10.29178],[-67.11158,-10.29108],[-67.11037,-10.28968],[-67.10978,-10.28836],[-67.10744,-10.28886],[-67.10639,-10.28882],[-67.10562,-10.28788],[-67.10541,-10.28583],[-67.10432,-10.28532],[-67.09965,-10.28656],[-67.0988,-10.28608],[-67.09958,-10.28487],[-67.09965,-10.28346],[-67.09894,-10.28221],[-67.09748,-10.28237],[-67.0961,-10.28342],[-67.09358,-10.28341],[-67.09206,-10.28465],[-67.09055,-10.28495],[-67.08958,-10.28465],[-67.08778,-10.28537],[-67.08762,-10.28612],[-67.08845,-10.28767],[-67.08981,-10.28915],[-67.08883,-10.2904],[-67.08739,-10.29016],[-67.08484,-10.29029],[-67.08367,-10.28939],[-67.08303,-10.28777],[-67.08196,-10.2877],[-67.08061,-10.28888],[-67.07904,-10.28934],[-67.07712,-10.2863],[-67.07636,-10.28427],[-67.07553,-10.28391],[-67.07243,-10.28546],[-67.07091,-10.28512],[-67.0691,-10.28399],[-67.06418,-10.2821],[-67.06102,-10.2807],[-67.05979,-10.27992],[-67.05861,-10.27858],[-67.05721,-10.27814],[-67.05547,-10.27934],[-67.05412,-10.27918],[-67.05331,-10.27821],[-67.05311,-10.27652],[-67.05205,-10.27583],[-67.05005,-10.27644],[-67.04876,-10.27615],[-67.04777,-10.2753],[-67.04821,-10.27402],[-67.05032,-10.27384],[-67.05242,-10.2729],[-67.05311,-10.27151],[-67.05224,-10.27],[-67.05176,-10.26827],[-67.05097,-10.26698],[-67.04755,-10.26523],[-67.04611,-10.26479],[-67.04498,-10.26502],[-67.04393,-10.26606],[-67.04281,-10.26574],[-67.04256,-10.26271],[-67.04215,-10.26202],[-67.04016,-10.26166],[-67.0383,-10.26209],[-67.03605,-10.26438],[-67.03469,-10.26417],[-67.03389,-10.26176],[-67.03282,-10.25962],[-67.03194,-10.25856],[-67.03092,-10.2567],[-67.02999,-10.25645],[-67.0279,-10.25717],[-67.02517,-10.25838],[-67.02394,-10.25775],[-67.02378,-10.25643],[-67.02403,-10.25514],[-67.02346,-10.25419],[-67.02257,-10.25433],[-67.02141,-10.25507],[-67.01957,-10.25513],[-67.01774,-10.25491],[-67.01817,-10.2566],[-67.01769,-10.25815],[-67.01693,-10.25865],[-67.01578,-10.25873],[-67.01492,-10.25764],[-67.01377,-10.25562],[-67.01269,-10.25437],[-67.01071,-10.25316],[-67.0099,-10.25195],[-67.00977,-10.25024],[-67.00995,-10.24837],[-67.009,-10.24653],[-67.00753,-10.24608],[-67.00509,-10.24432],[-67.00455,-10.24335],[-67.00601,-10.23722],[-67.00621,-10.23486],[-67.00664,-10.23303],[-67.00641,-10.23059],[-67.00592,-10.22988],[-67.00495,-10.22972],[-67.00397,-10.23024],[-67.00228,-10.22974],[-67.00239,-10.20225],[-67.038,-10.20234],[-67.07071,-10.20243],[-67.07596,-10.20242],[-67.07582,-10.1919],[-67.07599,-10.16298],[-67.07594,-10.13964],[-67.07616,-10.12305],[-67.07612,-10.08798],[-67.09525,-10.10059],[-67.10028,-10.10383],[-67.10789,-10.06191],[-67.11193,-10.04214],[-67.11538,-10.02027],[-67.12098,-9.99044],[-67.12251,-9.98595],[-67.12466,-9.96985]]]},"properties":{"codigo":"120038505","name":"Plácido de Castro","population":14333,"households":6262,"areaKm2":1949.7232,"density":7.4}},{"type":"Feature","geometry":{"type":"Polygon","coordinates":[[[-67.29194,-10.05823],[-67.29726,-10.06173],[-67.2991,-10.0624],[-67.30032,-10.06249],[-67.30025,-10.08527],[-67.29869,-10.08501],[-67.29659,-10.0834],[-67.29357,-10.08161],[-67.2921,-10.08042],[-67.2873,-10.07711],[-67.28627,-10.07862],[-67.28486,-10.07762],[-67.2858,-10.07619],[-67.28855,-10.07119],[-67.29179,-10.06656],[-67.29108,-10.06613],[-67.29402,-10.06211],[-67.29074,-10.05987],[-67.29194,-10.05823]]]},"properties":{"codigo":"120038510","name":"Campinas","population":2227,"households":983,"areaKm2":2.8082,"density":793}}]}