{"type":"FeatureCollection","features":[{"type":"Feature","geometry":{"type":"Polygon","coordinates":[[[-70.01426,-7.42831],[-70.01385,-7.42776],[-70.01362,-7.42677],[-70.01353,-7.42561],[-70.01639,-7.42365],[-70.01718,-7.42295],[-70.01891,-7.42232],[-70.02099,-7.42548],[-70.02151,-7.42509],[-70.02557,-7.42984],[-70.02674,-7.43081],[-70.02544,-7.43115],[-70.02507,-7.43172],[-70.02517,-7.43221],[-70.02442,-7.43255],[-70.02368,-7.43261],[-70.02272,-7.43248],[-70.02152,-7.43196],[-70.01866,-7.4313],[-70.01792,-7.43099],[-70.01786,-7.43137],[-70.01634,-7.43092],[-70.01651,-7.43021],[-70.01531,-7.42941],[-70.01426,-7.42831]]]},"properties":{"codigo":"1301506007","name":"Várzea","population":1842,"households":482,"areaKm2":0.8892,"density":2071.6}},{"type":"Feature","geometry":{"type":"Polygon","coordinates":[[[-70.02572,-7.43339],[-70.02638,-7.43571],[-70.0268,-7.43674],[-70.02534,-7.43782],[-70.02419,-7.43824],[-70.02461,-7.4393],[-70.02403,-7.44083],[-70.02472,-7.44225],[-70.02509,-7.44309],[-70.02473,-7.4434],[-70.02395,-7.44459],[-70.0234,-7.44572],[-70.02162,-7.45016],[-70.0213,-7.45199],[-70.02124,-7.45316],[-70.0205,-7.45452],[-70.01836,-7.45601],[-70.01696,-7.45651],[-70.01717,-7.45558],[-70.01684,-7.45474],[-70.01593,-7.45372],[-70.01582,-7.45269],[-70.01528,-7.45113],[-70.01518,-7.44939],[-70.01434,-7.44859],[-70.01212,-7.44677],[-70.01018,-7.44357],[-70.0121,-7.44225],[-70.01525,-7.44027],[-70.01607,-7.4416],[-70.01672,-7.4423],[-70.01722,-7.44353],[-70.01794,-7.44417],[-70.01996,-7.44182],[-70.02012,-7.44137],[-70.01987,-7.44014],[-70.02014,-7.43949],[-70.02085,-7.43866],[-70.02173,-7.43698],[-70.02075,-7.43589],[-70.02197,-7.43492],[-70.0251,-7.43369],[-70.02572,-7.43339]]]},"properties":{"codigo":"1301506004","name":"São Francisco","population":1373,"households":412,"areaKm2":1.846,"density":743.8}},{"type":"Feature","geometry":{"type":"Polygon","coordinates":[[[-70.02472,-7.44225],[-70.02668,-7.43937],[-70.02722,-7.43971],[-70.02797,-7.4396],[-70.02919,-7.43877],[-70.02943,-7.4396],[-70.03005,-7.4394],[-70.03395,-7.43982],[-70.03864,-7.43933],[-70.0405,-7.43827],[-70.04361,-7.43675],[-70.04692,-7.43417],[-70.04903,-7.43298],[-70.05089,-7.43557],[-70.04629,-7.43733],[-70.04242,-7.43869],[-70.0379,-7.44109],[-70.03408,-7.44532],[-70.03362,-7.44512],[-70.03265,-7.44499],[-70.03181,-7.44507],[-70.03011,-7.44414],[-70.02901,-7.44344],[-70.02897,-7.44242],[-70.0292,-7.44147],[-70.0283,-7.44133],[-70.02686,-7.44183],[-70.02509,-7.44309],[-70.02472,-7.44225]]]},"properties":{"codigo":"1301506002","name":"Rodoviário","population":874,"households":258,"areaKm2":0.8927,"density":979}},{"type":"Feature","geometry":{"type":"Polygon","coordinates":[[[-70.02674,-7.43081],[-70.02925,-7.43316],[-70.02991,-7.43349],[-70.03082,-7.4337],[-70.03127,-7.43396],[-70.03228,-7.43408],[-70.04404,-7.43285],[-70.04883,-7.43121],[-70.05839,-7.42301],[-70.06227,-7.42313],[-70.06385,-7.42479],[-70.06455,-7.42854],[-70.06125,-7.43095],[-70.05655,-7.4331],[-70.05089,-7.43557],[-70.04903,-7.43298],[-70.04692,-7.43417],[-70.04361,-7.43675],[-70.0405,-7.43827],[-70.03864,-7.43933],[-70.03395,-7.43982],[-70.03005,-7.4394],[-70.02943,-7.4396],[-70.02919,-7.43877],[-70.02797,-7.4396],[-70.02722,-7.43971],[-70.02668,-7.43937],[-70.02472,-7.44225],[-70.02403,-7.44083],[-70.02461,-7.4393],[-70.02419,-7.43824],[-70.02534,-7.43782],[-70.0268,-7.43674],[-70.02638,-7.43571],[-70.02572,-7.43339],[-70.02641,-7.43322],[-70.02575,-7.43197],[-70.02507,-7.43172],[-70.02544,-7.43115],[-70.02674,-7.43081]]]},"properties":{"codigo":"1301506001","name":"Centro","population":682,"households":220,"areaKm2":2.829,"density":241.1}},{"type":"Feature","geometry":{"type":"Polygon","coordinates":[[[-70.01634,-7.43092],[-70.01562,-7.43087],[-70.01599,-7.4325],[-70.01643,-7.43243],[-70.01746,-7.43342],[-70.01692,-7.43389],[-70.01928,-7.4373],[-70.02075,-7.43589],[-70.02173,-7.43698],[-70.02085,-7.43866],[-70.02014,-7.43949],[-70.01987,-7.44014],[-70.02012,-7.44137],[-70.01996,-7.44182],[-70.01794,-7.44417],[-70.01722,-7.44353],[-70.01672,-7.4423],[-70.01607,-7.4416],[-70.01525,-7.44027],[-70.0121,-7.44225],[-70.01018,-7.44357],[-70.00947,-7.43954],[-70.00867,-7.43736],[-70.00688,-7.4374],[-70.00733,-7.43167],[-70.00844,-7.43202],[-70.00962,-7.43213],[-70.01022,-7.43197],[-70.01168,-7.43125],[-70.01065,-7.42883],[-70.01312,-7.42833],[-70.01426,-7.42831],[-70.01531,-7.42941],[-70.01651,-7.43021],[-70.01634,-7.43092]]]},"properties":{"codigo":"1301506006","name":"Concórdia","population":3266,"households":891,"areaKm2":1.5698,"density":2080.5}},{"type":"Feature","geometry":{"type":"Polygon","coordinates":[[[-70.02509,-7.44309],[-70.02686,-7.44183],[-70.0283,-7.44133],[-70.0292,-7.44147],[-70.02897,-7.44242],[-70.02901,-7.44344],[-70.03011,-7.44414],[-70.03181,-7.44507],[-70.03265,-7.44499],[-70.03362,-7.44512],[-70.03408,-7.44532],[-70.03314,-7.44769],[-70.03289,-7.44853],[-70.03305,-7.44981],[-70.03357,-7.45232],[-70.03448,-7.45595],[-70.03675,-7.4581],[-70.03638,-7.45831],[-70.03488,-7.45807],[-70.03333,-7.45738],[-70.03166,-7.45645],[-70.03001,-7.45598],[-70.02904,-7.45546],[-70.02524,-7.45534],[-70.02169,-7.45367],[-70.02124,-7.45316],[-70.0213,-7.45199],[-70.02162,-7.45016],[-70.0234,-7.44572],[-70.02395,-7.44459],[-70.02473,-7.4434],[-70.02509,-7.44309]]]},"properties":{"codigo":"1301506003","name":"Santa Rita","population":3646,"households":1048,"areaKm2":1.7145,"density":2126.5}},{"type":"Feature","geometry":{"type":"Polygon","coordinates":[[[-70.02507,-7.43172],[-70.02575,-7.43197],[-70.02641,-7.43322],[-70.02572,-7.43339],[-70.0251,-7.43369],[-70.02197,-7.43492],[-70.02075,-7.43589],[-70.01928,-7.4373],[-70.01692,-7.43389],[-70.01746,-7.43342],[-70.01643,-7.43243],[-70.01599,-7.4325],[-70.01562,-7.43087],[-70.01634,-7.43092],[-70.01786,-7.43137],[-70.01792,-7.43099],[-70.01866,-7.4313],[-70.02152,-7.43196],[-70.02272,-7.43248],[-70.02368,-7.43261],[-70.02442,-7.43255],[-70.02517,-7.43221],[-70.02507,-7.43172]]]},"properties":{"codigo":"1301506005","name":"Nova Esperança","population":1114,"households":356,"areaKm2":0.3744,"density":2975.2}}]}