{"type":"FeatureCollection","features":[{"type":"Feature","geometry":{"type":"Polygon","coordinates":[[[-69.82231,-6.63028],[-69.85277,-6.65132],[-69.86059,-6.65652],[-69.86116,-6.65716],[-69.86225,-6.65757],[-69.86289,-6.65759],[-69.86283,-6.65897],[-69.86301,-6.65956],[-69.86377,-6.65972],[-69.86528,-6.65968],[-69.86616,-6.65993],[-69.8679,-6.66024],[-69.86752,-6.66235],[-69.86707,-6.66439],[-69.86695,-6.66535],[-69.86692,-6.66513],[-69.86597,-6.66481],[-69.86532,-6.66494],[-69.86435,-6.66473],[-69.86444,-6.66431],[-69.86335,-6.66386],[-69.86327,-6.66351],[-69.86266,-6.6628],[-69.86258,-6.66195],[-69.86218,-6.66099],[-69.86153,-6.66067],[-69.8618,-6.65964],[-69.86168,-6.65921],[-69.84923,-6.65737],[-69.84742,-6.65578],[-69.84644,-6.65555],[-69.84578,-6.65563],[-69.84526,-6.65539],[-69.84136,-6.65123],[-69.84016,-6.65037],[-69.83929,-6.65059],[-69.83834,-6.65045],[-69.83734,-6.64979],[-69.83718,-6.64914],[-69.83678,-6.64881],[-69.83666,-6.64833],[-69.83592,-6.64813],[-69.83525,-6.64738],[-69.83421,-6.64651],[-69.83372,-6.64579],[-69.833,-6.64567],[-69.83289,-6.64526],[-69.83199,-6.64528],[-69.8321,-6.64398],[-69.83135,-6.64399],[-69.8313,-6.64347],[-69.83175,-6.64191],[-69.83167,-6.64069],[-69.83147,-6.64009],[-69.8308,-6.63941],[-69.82958,-6.63903],[-69.82912,-6.63909],[-69.82868,-6.63959],[-69.82708,-6.6395],[-69.8266,-6.6398],[-69.82575,-6.6399],[-69.82523,-6.64035],[-69.8249,-6.64026],[-69.8241,-6.64057],[-69.82372,-6.64096],[-69.82229,-6.64163],[-69.8219,-6.64217],[-69.8213,-6.64218],[-69.82077,-6.64289],[-69.8202,-6.64293],[-69.82026,-6.64343],[-69.81993,-6.64391],[-69.81822,-6.64409],[-69.8182,-6.6449],[-69.81745,-6.64476],[-69.81603,-6.64503],[-69.81495,-6.64539],[-69.81429,-6.64493],[-69.81383,-6.64483],[-69.81347,-6.64431],[-69.8126,-6.64404],[-69.81251,-6.64345],[-69.81198,-6.64309],[-69.81186,-6.64213],[-69.8122,-6.6418],[-69.81237,-6.64116],[-69.8122,-6.64083],[-69.81205,-6.63915],[-69.81191,-6.63871],[-69.8112,-6.63838],[-69.8108,-6.63732],[-69.80967,-6.63714],[-69.80887,-6.63674],[-69.80796,-6.63676],[-69.80731,-6.63632],[-69.80795,-6.63479],[-69.8078,-6.63432],[-69.8085,-6.63398],[-69.80786,-6.63357],[-69.80862,-6.63304],[-69.8094,-6.63376],[-69.81098,-6.63287],[-69.81134,-6.63354],[-69.81211,-6.63347],[-69.81224,-6.6338],[-69.81382,-6.63353],[-69.81378,-6.63423],[-69.81427,-6.63437],[-69.81462,-6.63502],[-69.81589,-6.63503],[-69.81728,-6.63395],[-69.81734,-6.63372],[-69.81815,-6.63319],[-69.81915,-6.63285],[-69.81974,-6.6323],[-69.82008,-6.63147],[-69.82134,-6.63097],[-69.82188,-6.63031],[-69.82231,-6.63028]]]},"properties":{"codigo":"1301407004","name":"Nossa Senhora Aparecida","population":1961,"households":576,"areaKm2":5.2369,"density":374.5}},{"type":"Feature","geometry":{"type":"Polygon","coordinates":[[[-69.86335,-6.66386],[-69.86302,-6.6657],[-69.86255,-6.66568],[-69.86238,-6.66661],[-69.86275,-6.66665],[-69.86248,-6.66768],[-69.86244,-6.66837],[-69.86207,-6.6692],[-69.86156,-6.66975],[-69.86025,-6.67014],[-69.85979,-6.67089],[-69.85902,-6.67103],[-69.85871,-6.67168],[-69.85807,-6.6713],[-69.85739,-6.67223],[-69.85529,-6.67474],[-69.85393,-6.67663],[-69.85238,-6.67664],[-69.85176,-6.67608],[-69.85068,-6.67587],[-69.8503,-6.67534],[-69.84965,-6.67548],[-69.84908,-6.67503],[-69.84832,-6.67487],[-69.84721,-6.67494],[-69.84625,-6.67488],[-69.84601,-6.67462],[-69.84509,-6.67462],[-69.84464,-6.67417],[-69.84423,-6.67268],[-69.84414,-6.67132],[-69.84314,-6.66949],[-69.84291,-6.66891],[-69.84169,-6.66831],[-69.84148,-6.66777],[-69.84039,-6.66721],[-69.83941,-6.66618],[-69.8379,-6.66609],[-69.83629,-6.6655],[-69.83486,-6.66537],[-69.83262,-6.66544],[-69.83183,-6.66561],[-69.83034,-6.66611],[-69.82896,-6.66675],[-69.82822,-6.66732],[-69.82717,-6.66662],[-69.82648,-6.66599],[-69.82578,-6.66586],[-69.8247,-6.66539],[-69.82326,-6.66581],[-69.82291,-6.66566],[-69.82159,-6.66571],[-69.81992,-6.66627],[-69.81828,-6.66722],[-69.81677,-6.66849],[-69.81645,-6.66918],[-69.8159,-6.66975],[-69.8157,-6.66943],[-69.81497,-6.66961],[-69.81332,-6.67106],[-69.81238,-6.6718],[-69.81222,-6.67236],[-69.81137,-6.67241],[-69.81084,-6.67177],[-69.80987,-6.6717],[-69.80937,-6.67197],[-69.80907,-6.67166],[-69.80827,-6.67158],[-69.80727,-6.67197],[-69.80722,-6.67137],[-69.80656,-6.67122],[-69.80629,-6.6708],[-69.80664,-6.67037],[-69.80665,-6.66936],[-69.80627,-6.66845],[-69.80653,-6.6677],[-69.80649,-6.66664],[-69.80594,-6.66578],[-69.80524,-6.66539],[-69.80548,-6.66463],[-69.8056,-6.66364],[-69.80542,-6.66202],[-69.80487,-6.66051],[-69.80627,-6.65989],[-69.80819,-6.65827],[-69.81032,-6.65686],[-69.81116,-6.65599],[-69.81133,-6.65486],[-69.81224,-6.65263],[-69.81239,-6.64922],[-69.81233,-6.64807],[-69.81193,-6.64691],[-69.81078,-6.64468],[-69.80541,-6.63961],[-69.80532,-6.63846],[-69.80477,-6.63808],[-69.80476,-6.63746],[-69.8055,-6.63736],[-69.80605,-6.63696],[-69.80654,-6.63765],[-69.80723,-6.63746],[-69.80731,-6.63707],[-69.80681,-6.63679],[-69.80682,-6.63619],[-69.80731,-6.63632],[-69.80796,-6.63676],[-69.80887,-6.63674],[-69.80967,-6.63714],[-69.8108,-6.63732],[-69.8112,-6.63838],[-69.81191,-6.63871],[-69.81205,-6.63915],[-69.8122,-6.64083],[-69.81237,-6.64116],[-69.8122,-6.6418],[-69.81186,-6.64213],[-69.81198,-6.64309],[-69.81251,-6.64345],[-69.8126,-6.64404],[-69.81347,-6.64431],[-69.81383,-6.64483],[-69.81429,-6.64493],[-69.81495,-6.64539],[-69.81603,-6.64503],[-69.81745,-6.64476],[-69.8182,-6.6449],[-69.81822,-6.64409],[-69.81993,-6.64391],[-69.82026,-6.64343],[-69.8202,-6.64293],[-69.82077,-6.64289],[-69.8213,-6.64218],[-69.8219,-6.64217],[-69.82229,-6.64163],[-69.82372,-6.64096],[-69.8241,-6.64057],[-69.8249,-6.64026],[-69.82523,-6.64035],[-69.82575,-6.6399],[-69.8266,-6.6398],[-69.82708,-6.6395],[-69.82868,-6.63959],[-69.82912,-6.63909],[-69.82958,-6.63903],[-69.8308,-6.63941],[-69.83147,-6.64009],[-69.83167,-6.64069],[-69.83175,-6.64191],[-69.8313,-6.64347],[-69.83135,-6.64399],[-69.8321,-6.64398],[-69.83199,-6.64528],[-69.83289,-6.64526],[-69.833,-6.64567],[-69.83372,-6.64579],[-69.83421,-6.64651],[-69.83525,-6.64738],[-69.83592,-6.64813],[-69.83666,-6.64833],[-69.83678,-6.64881],[-69.83718,-6.64914],[-69.83734,-6.64979],[-69.83834,-6.65045],[-69.83929,-6.65059],[-69.84016,-6.65037],[-69.84136,-6.65123],[-69.84526,-6.65539],[-69.84578,-6.65563],[-69.84644,-6.65555],[-69.84742,-6.65578],[-69.84923,-6.65737],[-69.86168,-6.65921],[-69.8618,-6.65964],[-69.86153,-6.66067],[-69.86218,-6.66099],[-69.86258,-6.66195],[-69.86266,-6.6628],[-69.86327,-6.66351],[-69.86335,-6.66386]]]},"properties":{"codigo":"1301407003","name":"Santo Antônio","population":6375,"households":1673,"areaKm2":13.8277,"density":461}},{"type":"Feature","geometry":{"type":"Polygon","coordinates":[[[-69.86695,-6.66535],[-69.86796,-6.66535],[-69.86866,-6.66381],[-69.86903,-6.66432],[-69.86903,-6.66546],[-69.86994,-6.66564],[-69.87051,-6.66612],[-69.87007,-6.66644],[-69.86971,-6.66711],[-69.86969,-6.66818],[-69.86848,-6.66827],[-69.86767,-6.66857],[-69.86692,-6.6691],[-69.86644,-6.66979],[-69.86583,-6.6703],[-69.86506,-6.66877],[-69.86411,-6.66858],[-69.86378,-6.66833],[-69.86244,-6.66837],[-69.86248,-6.66768],[-69.86275,-6.66665],[-69.86238,-6.66661],[-69.86255,-6.66568],[-69.86302,-6.6657],[-69.86335,-6.66386],[-69.86444,-6.66431],[-69.86435,-6.66473],[-69.86532,-6.66494],[-69.86597,-6.66481],[-69.86692,-6.66513],[-69.86695,-6.66535]]]},"properties":{"codigo":"1301407001","name":"Centro","population":1251,"households":399,"areaKm2":0.3475,"density":3599.9}},{"type":"Feature","geometry":{"type":"Polygon","coordinates":[[[-69.8679,-6.66024],[-69.86833,-6.65766],[-69.86973,-6.65091],[-69.87027,-6.64961],[-69.87153,-6.64741],[-69.87312,-6.6451],[-69.8735,-6.64425],[-69.87369,-6.64331],[-69.87315,-6.64351],[-69.87141,-6.64364],[-69.86981,-6.64407],[-69.86883,-6.644],[-69.86671,-6.645],[-69.86655,-6.64444],[-69.86613,-6.64432],[-69.86521,-6.64302],[-69.86486,-6.64192],[-69.86353,-6.64182],[-69.86306,-6.64212],[-69.86254,-6.64207],[-69.86124,-6.64218],[-69.86045,-6.6426],[-69.85965,-6.64276],[-69.85887,-6.64263],[-69.85827,-6.64283],[-69.85664,-6.64373],[-69.85578,-6.64443],[-69.85361,-6.64303],[-69.85333,-6.64269],[-69.85202,-6.64193],[-69.85121,-6.64058],[-69.85159,-6.63889],[-69.85088,-6.63751],[-69.85065,-6.63583],[-69.85121,-6.63546],[-69.8519,-6.63581],[-69.85232,-6.63537],[-69.85275,-6.63559],[-69.85309,-6.63484],[-69.85311,-6.63408],[-69.85356,-6.63304],[-69.85406,-6.63266],[-69.85505,-6.63128],[-69.85555,-6.6312],[-69.85651,-6.63025],[-69.85682,-6.62975],[-69.85767,-6.62898],[-69.85836,-6.62888],[-69.8596,-6.62757],[-69.86032,-6.6281],[-69.86155,-6.62731],[-69.86214,-6.62718],[-69.86285,-6.62676],[-69.86396,-6.62671],[-69.86423,-6.62693],[-69.86543,-6.62717],[-69.86599,-6.62743],[-69.86657,-6.62735],[-69.86658,-6.62821],[-69.86731,-6.62845],[-69.86792,-6.62761],[-69.86927,-6.62715],[-69.87034,-6.62767],[-69.87097,-6.62765],[-69.87179,-6.62793],[-69.87265,-6.62763],[-69.87348,-6.62806],[-69.87531,-6.62742],[-69.87617,-6.62755],[-69.8767,-6.62724],[-69.87737,-6.62727],[-69.87829,-6.62653],[-69.88027,-6.62616],[-69.8811,-6.62592],[-69.88164,-6.62673],[-69.88216,-6.62645],[-69.88246,-6.6273],[-69.88328,-6.62712],[-69.88487,-6.62783],[-69.88522,-6.6278],[-69.88519,-6.62853],[-69.88545,-6.62875],[-69.88528,-6.6294],[-69.88561,-6.63034],[-69.88537,-6.63076],[-69.88579,-6.63181],[-69.88654,-6.63156],[-69.88663,-6.63219],[-69.88723,-6.63233],[-69.88741,-6.63306],[-69.88817,-6.63281],[-69.88939,-6.6343],[-69.89108,-6.63529],[-69.89275,-6.63664],[-69.8937,-6.63786],[-69.89444,-6.63917],[-69.89489,-6.64033],[-69.89578,-6.64167],[-69.89625,-6.64295],[-69.8962,-6.64375],[-69.89627,-6.64568],[-69.89639,-6.64656],[-69.8975,-6.64953],[-69.89704,-6.65382],[-69.89679,-6.65421],[-69.89552,-6.6547],[-69.89487,-6.65416],[-69.89331,-6.65548],[-69.89296,-6.6552],[-69.89219,-6.65531],[-69.89149,-6.65559],[-69.89125,-6.65493],[-69.8906,-6.65405],[-69.88997,-6.654],[-69.88927,-6.65446],[-69.88835,-6.65479],[-69.88713,-6.65574],[-69.88688,-6.65659],[-69.88602,-6.65776],[-69.88493,-6.65814],[-69.8849,-6.65886],[-69.88437,-6.65889],[-69.8842,-6.65963],[-69.88456,-6.66078],[-69.88488,-6.66098],[-69.88478,-6.66238],[-69.8845,-6.66268],[-69.88456,-6.66354],[-69.88487,-6.66383],[-69.88444,-6.66453],[-69.88373,-6.66491],[-69.8834,-6.66555],[-69.88274,-6.66568],[-69.88169,-6.66553],[-69.88077,-6.66554],[-69.8793,-6.66458],[-69.87852,-6.66451],[-69.87812,-6.6647],[-69.8769,-6.66452],[-69.87584,-6.6648],[-69.87438,-6.66489],[-69.8737,-6.66479],[-69.87369,-6.66661],[-69.87338,-6.66716],[-69.87292,-6.6674],[-69.87216,-6.66729],[-69.87147,-6.66642],[-69.87051,-6.66612],[-69.86994,-6.66564],[-69.86903,-6.66546],[-69.86903,-6.66432],[-69.86866,-6.66381],[-69.86796,-6.66535],[-69.86695,-6.66535],[-69.86707,-6.66439],[-69.86752,-6.66235],[-69.8679,-6.66024]]]},"properties":{"codigo":"1301407005","name":"Nossa Senhora de Fátima","population":8927,"households":2557,"areaKm2":13.1202,"density":680.4}},{"type":"Feature","geometry":{"type":"Polygon","coordinates":[[[-69.82231,-6.63028],[-69.82384,-6.62936],[-69.82609,-6.62903],[-69.82693,-6.62861],[-69.8286,-6.62857],[-69.82944,-6.62803],[-69.83002,-6.62741],[-69.83065,-6.62716],[-69.83173,-6.62713],[-69.8328,-6.62692],[-69.83335,-6.62714],[-69.834,-6.62796],[-69.83455,-6.62842],[-69.83499,-6.62851],[-69.83528,-6.62905],[-69.83589,-6.62918],[-69.83667,-6.62966],[-69.83719,-6.63032],[-69.83763,-6.63113],[-69.83869,-6.63061],[-69.839,-6.6302],[-69.8398,-6.62976],[-69.84056,-6.62953],[-69.84135,-6.6298],[-69.84221,-6.63035],[-69.84264,-6.63112],[-69.84311,-6.63157],[-69.84427,-6.6323],[-69.84485,-6.63231],[-69.84537,-6.63193],[-69.84565,-6.63233],[-69.84669,-6.63247],[-69.84731,-6.63378],[-69.84766,-6.6342],[-69.85045,-6.63591],[-69.85065,-6.63583],[-69.85088,-6.63751],[-69.85159,-6.63889],[-69.85121,-6.64058],[-69.85202,-6.64193],[-69.85333,-6.64269],[-69.85361,-6.64303],[-69.85578,-6.64443],[-69.85664,-6.64373],[-69.85827,-6.64283],[-69.85887,-6.64263],[-69.85965,-6.64276],[-69.86045,-6.6426],[-69.86124,-6.64218],[-69.86254,-6.64207],[-69.86306,-6.64212],[-69.86353,-6.64182],[-69.86486,-6.64192],[-69.86521,-6.64302],[-69.86613,-6.64432],[-69.86655,-6.64444],[-69.86671,-6.645],[-69.86883,-6.644],[-69.86981,-6.64407],[-69.87141,-6.64364],[-69.87315,-6.64351],[-69.87369,-6.64331],[-69.8735,-6.64425],[-69.87312,-6.6451],[-69.87153,-6.64741],[-69.87027,-6.64961],[-69.86973,-6.65091],[-69.86833,-6.65766],[-69.8679,-6.66024],[-69.86616,-6.65993],[-69.86528,-6.65968],[-69.86377,-6.65972],[-69.86301,-6.65956],[-69.86283,-6.65897],[-69.86289,-6.65759],[-69.86225,-6.65757],[-69.86116,-6.65716],[-69.86059,-6.65652],[-69.85277,-6.65132],[-69.82231,-6.63028]]]},"properties":{"codigo":"1301407006","name":"São José","population":3837,"households":1066,"areaKm2":6.5673,"density":584.3}},{"type":"Feature","geometry":{"type":"Polygon","coordinates":[[[-69.86244,-6.66837],[-69.86378,-6.66833],[-69.86411,-6.66858],[-69.86506,-6.66877],[-69.86583,-6.6703],[-69.86471,-6.67104],[-69.86326,-6.67282],[-69.86285,-6.67351],[-69.86176,-6.67479],[-69.86139,-6.67549],[-69.86016,-6.67667],[-69.85957,-6.67789],[-69.85878,-6.67861],[-69.85791,-6.67743],[-69.85677,-6.67726],[-69.85636,-6.67735],[-69.85467,-6.67677],[-69.85393,-6.67663],[-69.85529,-6.67474],[-69.85739,-6.67223],[-69.85807,-6.6713],[-69.85871,-6.67168],[-69.85902,-6.67103],[-69.85979,-6.67089],[-69.86025,-6.67014],[-69.86156,-6.66975],[-69.86207,-6.6692],[-69.86244,-6.66837]]]},"properties":{"codigo":"1301407002","name":"Nossa Senhora do Perpétuo Socorro","population":3548,"households":939,"areaKm2":0.6283,"density":5646.7}}]}