{"type":"FeatureCollection","features":[{"type":"Feature","geometry":{"type":"Polygon","coordinates":[[[-64.78762,-7.2598],[-64.78693,-7.26042],[-64.78798,-7.2616],[-64.79029,-7.26398],[-64.79111,-7.26492],[-64.79216,-7.26618],[-64.79296,-7.26713],[-64.79539,-7.26967],[-64.79502,-7.27016],[-64.79608,-7.27122],[-64.79856,-7.27401],[-64.79911,-7.27351],[-64.79955,-7.27399],[-64.79972,-7.2754],[-64.80004,-7.27648],[-64.80042,-7.27629],[-64.80102,-7.27529],[-64.80184,-7.2744],[-64.80199,-7.27699],[-64.80568,-7.27768],[-64.80525,-7.27878],[-64.80451,-7.279],[-64.79822,-7.27644],[-64.79312,-7.27398],[-64.79173,-7.27256],[-64.78921,-7.26985],[-64.78714,-7.27023],[-64.7844,-7.26755],[-64.77961,-7.26282],[-64.78293,-7.26136],[-64.7832,-7.26119],[-64.78515,-7.25982],[-64.78684,-7.25887],[-64.78762,-7.2598]]]},"properties":{"codigo":"1302405007","name":"Pantanal","population":3694,"households":1107,"areaKm2":1.5108,"density":2445.1}},{"type":"Feature","geometry":{"type":"Polygon","coordinates":[[[-64.79337,-7.25783],[-64.79254,-7.25792],[-64.79183,-7.25863],[-64.79088,-7.25864],[-64.79008,-7.25768],[-64.79088,-7.2571],[-64.7883,-7.2541],[-64.78937,-7.25325],[-64.78975,-7.2528],[-64.79212,-7.25054],[-64.79409,-7.25306],[-64.79712,-7.25641],[-64.7955,-7.2574],[-64.79511,-7.25778],[-64.79441,-7.25796],[-64.79337,-7.25783]]]},"properties":{"codigo":"1302405005","name":"Nossa Senhora de Fátima","population":2122,"households":619,"areaKm2":0.4471,"density":4746.2}},{"type":"Feature","geometry":{"type":"Polygon","coordinates":[[[-64.80451,-7.279],[-64.80335,-7.28034],[-64.80213,-7.2809],[-64.80057,-7.27784],[-64.79835,-7.28027],[-64.7969,-7.28237],[-64.79513,-7.28511],[-64.79348,-7.28599],[-64.79173,-7.28649],[-64.79049,-7.28611],[-64.78953,-7.28563],[-64.78898,-7.28497],[-64.7886,-7.28399],[-64.788,-7.28318],[-64.78709,-7.28294],[-64.786,-7.28285],[-64.78455,-7.28534],[-64.78382,-7.28608],[-64.78187,-7.28755],[-64.78081,-7.28793],[-64.78035,-7.29079],[-64.77057,-7.28782],[-64.7676,-7.28756],[-64.76841,-7.27319],[-64.77117,-7.26542],[-64.76926,-7.26177],[-64.77145,-7.2582],[-64.77535,-7.25926],[-64.77717,-7.25986],[-64.77873,-7.26052],[-64.77988,-7.26069],[-64.78162,-7.26057],[-64.7826,-7.26084],[-64.7832,-7.26119],[-64.78293,-7.26136],[-64.77961,-7.26282],[-64.7844,-7.26755],[-64.78714,-7.27023],[-64.78921,-7.26985],[-64.79173,-7.27256],[-64.79312,-7.27398],[-64.79822,-7.27644],[-64.80451,-7.279]]]},"properties":{"codigo":"1302405008","name":"Bairro Novo","population":265,"households":87,"areaKm2":7.4373,"density":35.6}},{"type":"Feature","geometry":{"type":"Polygon","coordinates":[[[-64.79539,-7.26967],[-64.79741,-7.26683],[-64.79881,-7.2647],[-64.79995,-7.26438],[-64.80055,-7.26366],[-64.80157,-7.26382],[-64.80233,-7.26349],[-64.8029,-7.2637],[-64.80334,-7.26454],[-64.80403,-7.26455],[-64.8044,-7.26413],[-64.80505,-7.26415],[-64.80519,-7.26347],[-64.80551,-7.26291],[-64.8056,-7.26209],[-64.80585,-7.26141],[-64.80681,-7.2611],[-64.80719,-7.26233],[-64.80746,-7.26255],[-64.80771,-7.26346],[-64.80759,-7.26481],[-64.80763,-7.26574],[-64.80746,-7.26682],[-64.80856,-7.26886],[-64.80878,-7.27006],[-64.80971,-7.27191],[-64.80975,-7.27262],[-64.80911,-7.27397],[-64.80811,-7.27512],[-64.80728,-7.27507],[-64.80637,-7.27575],[-64.8064,-7.2767],[-64.80568,-7.27768],[-64.80199,-7.27699],[-64.80184,-7.2744],[-64.80102,-7.27529],[-64.80042,-7.27629],[-64.80004,-7.27648],[-64.79972,-7.2754],[-64.79955,-7.27399],[-64.79911,-7.27351],[-64.79856,-7.27401],[-64.79608,-7.27122],[-64.79502,-7.27016],[-64.79539,-7.26967]]]},"properties":{"codigo":"1302405001","name":"Bairro da Fonte","population":6950,"households":1893,"areaKm2":1.7096,"density":4065.3}},{"type":"Feature","geometry":{"type":"Polygon","coordinates":[[[-64.79111,-7.26492],[-64.7918,-7.26438],[-64.7916,-7.26389],[-64.79411,-7.26138],[-64.79497,-7.26039],[-64.79548,-7.2599],[-64.796,-7.26063],[-64.79578,-7.2609],[-64.79651,-7.26155],[-64.79555,-7.26271],[-64.79573,-7.2629],[-64.79479,-7.2638],[-64.79524,-7.26427],[-64.79322,-7.2659],[-64.79288,-7.26553],[-64.79216,-7.26618],[-64.79111,-7.26492]]]},"properties":{"codigo":"1302405003","name":"São José","population":1716,"households":506,"areaKm2":0.1772,"density":9685.8}},{"type":"Feature","geometry":{"type":"Polygon","coordinates":[[[-64.7832,-7.26119],[-64.7826,-7.26084],[-64.78162,-7.26057],[-64.77988,-7.26069],[-64.77873,-7.26052],[-64.77717,-7.25986],[-64.77535,-7.25926],[-64.77145,-7.2582],[-64.76708,-7.2569],[-64.76859,-7.24865],[-64.7716,-7.23416],[-64.77971,-7.19525],[-64.7817,-7.1961],[-64.78327,-7.19691],[-64.78463,-7.19884],[-64.78524,-7.2031],[-64.78512,-7.20528],[-64.78338,-7.21105],[-64.78212,-7.22179],[-64.78215,-7.22794],[-64.78488,-7.23841],[-64.78655,-7.24192],[-64.78775,-7.245],[-64.79034,-7.24841],[-64.79116,-7.24931],[-64.79212,-7.25054],[-64.78975,-7.2528],[-64.78937,-7.25325],[-64.7883,-7.2541],[-64.79088,-7.2571],[-64.79008,-7.25768],[-64.78762,-7.2598],[-64.78684,-7.25887],[-64.78515,-7.25982],[-64.7832,-7.26119]]]},"properties":{"codigo":"1302405006","name":"Vila Falcão","population":6748,"households":1902,"areaKm2":9.4595,"density":713.4}},{"type":"Feature","geometry":{"type":"Polygon","coordinates":[[[-64.78762,-7.2598],[-64.79008,-7.25768],[-64.79088,-7.25864],[-64.79183,-7.25863],[-64.79254,-7.25792],[-64.79337,-7.25783],[-64.79395,-7.25849],[-64.79481,-7.25904],[-64.7947,-7.25957],[-64.79497,-7.26039],[-64.79411,-7.26138],[-64.7916,-7.26389],[-64.7918,-7.26438],[-64.79111,-7.26492],[-64.79029,-7.26398],[-64.78798,-7.2616],[-64.78693,-7.26042],[-64.78762,-7.2598]]]},"properties":{"codigo":"1302405004","name":"Barra Limpa","population":2513,"households":718,"areaKm2":0.389,"density":6460.9}},{"type":"Feature","geometry":{"type":"Polygon","coordinates":[[[-64.79216,-7.26618],[-64.79288,-7.26553],[-64.79322,-7.2659],[-64.79524,-7.26427],[-64.79479,-7.2638],[-64.79573,-7.2629],[-64.79555,-7.26271],[-64.79651,-7.26155],[-64.79578,-7.2609],[-64.796,-7.26063],[-64.79548,-7.2599],[-64.79497,-7.26039],[-64.7947,-7.25957],[-64.79481,-7.25904],[-64.79395,-7.25849],[-64.79337,-7.25783],[-64.79441,-7.25796],[-64.79511,-7.25778],[-64.7955,-7.2574],[-64.79712,-7.25641],[-64.79763,-7.25698],[-64.79911,-7.25719],[-64.80105,-7.25697],[-64.8024,-7.25663],[-64.80363,-7.25815],[-64.80462,-7.25983],[-64.80517,-7.25987],[-64.80571,-7.26018],[-64.80681,-7.2611],[-64.80585,-7.26141],[-64.8056,-7.26209],[-64.80551,-7.26291],[-64.80519,-7.26347],[-64.80505,-7.26415],[-64.8044,-7.26413],[-64.80403,-7.26455],[-64.80334,-7.26454],[-64.8029,-7.2637],[-64.80233,-7.26349],[-64.80157,-7.26382],[-64.80055,-7.26366],[-64.79995,-7.26438],[-64.79881,-7.2647],[-64.79741,-7.26683],[-64.79539,-7.26967],[-64.79296,-7.26713],[-64.79216,-7.26618]]]},"properties":{"codigo":"1302405002","name":"Centro","population":3757,"households":1280,"areaKm2":1.0722,"density":3504.1}}]}