{"type":"FeatureCollection","features":[{"type":"Feature","geometry":{"type":"MultiPolygon","coordinates":[[[[-49.68935,-2.67281],[-49.68918,-2.67432],[-49.68863,-2.67608],[-49.68793,-2.67749],[-49.68637,-2.67955],[-49.68454,-2.68244],[-49.68364,-2.68328],[-49.68134,-2.68429],[-49.68083,-2.67889],[-49.68166,-2.67537],[-49.68233,-2.66873],[-49.68284,-2.66643],[-49.68369,-2.66592],[-49.68583,-2.66852],[-49.68806,-2.67224],[-49.68935,-2.67281]]],[[[-49.64235,-2.64392],[-49.64475,-2.6436],[-49.64664,-2.64422],[-49.64639,-2.64564],[-49.64546,-2.6469],[-49.64389,-2.64834],[-49.64264,-2.64902],[-49.64066,-2.64932],[-49.63751,-2.64888],[-49.63366,-2.64987],[-49.6321,-2.6498],[-49.63085,-2.64861],[-49.63155,-2.64747],[-49.6347,-2.6465],[-49.63848,-2.64496],[-49.64235,-2.64392]]],[[[-49.38651,-2.66397],[-49.36525,-2.66414],[-49.36419,-2.66814],[-49.3651,-2.67105],[-49.36564,-2.67486],[-49.36286,-2.6765],[-49.35969,-2.67597],[-49.35869,-2.67288],[-49.35849,-2.66908],[-49.35866,-2.66553],[-49.36019,-2.66271],[-49.36047,-2.65972],[-49.35766,-2.657],[-49.35377,-2.65891],[-49.35097,-2.65993],[-49.34752,-2.65695],[-49.34869,-2.65267],[-49.35002,-2.64885],[-49.34769,-2.64523],[-49.34722,-2.64214],[-49.34316,-2.6428],[-49.33855,-2.64527],[-49.3383,-2.64854],[-49.3403,-2.65225],[-49.34222,-2.65651],[-49.34322,-2.66014],[-49.34105,-2.66314],[-49.33654,-2.66279],[-49.33319,-2.66235],[-49.33049,-2.66463],[-49.32413,-2.67309],[-49.32113,-2.67301],[-49.31851,-2.67157],[-49.31127,-2.66842],[-49.31064,-2.66524],[-49.31449,-2.65397],[-49.31538,-2.64943],[-49.3148,-2.64299],[-49.31244,-2.64036],[-49.31135,-2.63728],[-49.31008,-2.63447],[-49.30738,-2.63584],[-49.30486,-2.63812],[-49.30196,-2.63495],[-49.30177,-2.63132],[-49.3023,-2.62778],[-49.30327,-2.62314],[-49.3003,-2.62269],[-49.29624,-2.62408],[-49.29227,-2.62463],[-49.29064,-2.6221],[-49.29008,-2.61911],[-49.29105,-2.61547],[-49.29122,-2.61202],[-49.28767,-2.61031],[-49.28355,-2.61032],[-49.28083,-2.60888],[-49.281,-2.6056],[-49.28171,-2.60234],[-49.27972,-2.59935],[-49.2796,-2.59635],[-49.27996,-2.59335],[-49.27997,-2.58963],[-49.27669,-2.58782],[-49.27263,-2.5873],[-49.27027,-2.58494],[-49.27055,-2.58104],[-49.26844,-2.57751],[-49.26555,-2.5757],[-49.26186,-2.57308],[-49.26066,-2.56927],[-49.26074,-2.56601],[-49.26244,-2.56354],[-49.26513,-2.56008],[-49.26268,-2.5581],[-49.25972,-2.55684],[-49.26069,-2.55275],[-49.26278,-2.54992],[-49.26646,-2.54897],[-49.26716,-2.54619],[-49.26625,-2.54293],[-49.25858,-2.54213],[-49.25541,-2.53978],[-49.25586,-2.5366],[-49.25902,-2.53605],[-49.26199,-2.53431],[-49.26449,-2.53158],[-49.26549,-2.52803],[-49.26366,-2.52523],[-49.2613,-2.52251],[-49.25844,-2.5238],[-49.25536,-2.52644],[-49.25211,-2.52726],[-49.24897,-2.52746],[-49.24535,-2.52502],[-49.24324,-2.52239],[-49.24152,-2.51986],[-49.23157,-2.51408],[-49.22524,-2.50947],[-49.22296,-2.50531],[-49.22222,-2.50039],[-49.22194,-2.49663],[-49.22114,-2.49354],[-49.21916,-2.49063],[-49.21699,-2.48863],[-49.21458,-2.48681],[-49.21041,-2.48617],[-49.20716,-2.48635],[-49.20375,-2.48553],[-49.2025,-2.48281],[-49.2041,-2.47955],[-49.20494,-2.47574],[-49.20439,-2.47283],[-49.20205,-2.46657],[-49.20216,-2.46303],[-49.20685,-2.45705],[-49.20893,-2.4537],[-49.21343,-2.44708],[-49.21454,-2.44345],[-49.21516,-2.43964],[-49.21663,-2.43646],[-49.22133,-2.42903],[-49.2233,-2.4265],[-49.22566,-2.42432],[-49.22819,-2.42242],[-49.23035,-2.41998],[-49.23107,-2.41644],[-49.23189,-2.41335],[-49.29753,-2.45062],[-49.30444,-2.45454],[-49.30616,-2.45691],[-49.30849,-2.45918],[-49.31121,-2.46036],[-49.31391,-2.46208],[-49.3168,-2.463],[-49.31977,-2.46164],[-49.31977,-2.45819],[-49.32286,-2.45765],[-49.32403,-2.46038],[-49.32391,-2.46355],[-49.32627,-2.46582],[-49.32924,-2.46719],[-49.3323,-2.4671],[-49.33411,-2.47037],[-49.33744,-2.47164],[-49.34052,-2.4702],[-49.34033,-2.46729],[-49.34189,-2.46403],[-49.34385,-2.46067],[-49.34694,-2.46005],[-49.35055,-2.46059],[-49.35172,-2.46368],[-49.35433,-2.46668],[-49.35577,-2.47076],[-49.35638,-2.47384],[-49.35802,-2.47657],[-49.36169,-2.47903],[-49.36357,-2.48275],[-49.36586,-2.48529],[-49.36675,-2.48855],[-49.36944,-2.49119],[-49.37125,-2.49446],[-49.3717,-2.496],[-49.37277,-2.50038],[-49.37191,-2.50569],[-49.37166,-2.5095],[-49.37177,-2.51359],[-49.37286,-2.51704],[-49.37629,-2.5192],[-49.38174,-2.52399],[-49.38552,-2.52589],[-49.3886,-2.52651],[-49.39069,-2.52959],[-49.39252,-2.53685],[-49.39552,-2.53883],[-49.39869,-2.53955],[-49.40183,-2.53818],[-49.40444,-2.5359],[-49.40725,-2.53371],[-49.41074,-2.5326],[-49.41455,-2.53359],[-49.41833,-2.53385],[-49.42141,-2.5332],[-49.42449,-2.53157],[-49.42772,-2.53181],[-49.43244,-2.53697],[-49.43641,-2.53814],[-49.44011,-2.5404],[-49.44346,-2.54156],[-49.44716,-2.54328],[-49.44989,-2.54635],[-49.45072,-2.55016],[-49.45199,-2.55298],[-49.4586,-2.55785],[-49.46033,-2.56084],[-49.46258,-2.56357],[-49.46253,-2.56777],[-49.47874,-2.53459],[-49.47932,-2.53437],[-49.48067,-2.5358],[-49.48555,-2.54102],[-49.48644,-2.54506],[-49.48762,-2.54741],[-49.48985,-2.55047],[-49.4934,-2.55382],[-49.49555,-2.55514],[-49.49996,-2.55812],[-49.5018,-2.55951],[-49.50418,-2.56157],[-49.50567,-2.56333],[-49.50695,-2.56449],[-49.50966,-2.56844],[-49.51028,-2.56996],[-49.51111,-2.57333],[-49.5111,-2.57787],[-49.51226,-2.58294],[-49.5118,-2.58545],[-49.5118,-2.58856],[-49.51156,-2.5899],[-49.51202,-2.5929],[-49.51311,-2.5918],[-49.51423,-2.59239],[-49.51542,-2.59385],[-49.51754,-2.59596],[-49.52065,-2.59849],[-49.52349,-2.60045],[-49.52705,-2.60237],[-49.53141,-2.6044],[-49.53749,-2.60641],[-49.53894,-2.60674],[-49.5406,-2.60743],[-49.54587,-2.61027],[-49.5527,-2.61373],[-49.55571,-2.61511],[-49.55784,-2.6159],[-49.56067,-2.61649],[-49.56674,-2.61731],[-49.56929,-2.61728],[-49.57362,-2.61784],[-49.58064,-2.61959],[-49.58202,-2.62018],[-49.58412,-2.62148],[-49.58646,-2.62362],[-49.58763,-2.62497],[-49.58906,-2.62718],[-49.58956,-2.62846],[-49.59144,-2.63186],[-49.59495,-2.63679],[-49.59694,-2.63996],[-49.59728,-2.64099],[-49.59691,-2.64242],[-49.59756,-2.6428],[-49.60048,-2.64256],[-49.60214,-2.64307],[-49.60442,-2.64421],[-49.60733,-2.64614],[-49.61285,-2.64952],[-49.61685,-2.65139],[-49.61993,-2.6519],[-49.62694,-2.65182],[-49.63233,-2.65132],[-49.63467,-2.65133],[-49.63985,-2.65106],[-49.64417,-2.65042],[-49.64657,-2.64995],[-49.64931,-2.64966],[-49.65306,-2.64907],[-49.65616,-2.64899],[-49.65506,-2.6481],[-49.65317,-2.648],[-49.65239,-2.64735],[-49.65322,-2.64633],[-49.65649,-2.64549],[-49.6596,-2.64512],[-49.66401,-2.64533],[-49.66538,-2.6457],[-49.66675,-2.64653],[-49.66706,-2.64751],[-49.66799,-2.64767],[-49.66948,-2.64854],[-49.66993,-2.64925],[-49.6715,-2.64944],[-49.67393,-2.65021],[-49.67493,-2.6509],[-49.67654,-2.65382],[-49.67698,-2.65704],[-49.67685,-2.65922],[-49.67556,-2.66173],[-49.67358,-2.6635],[-49.63989,-2.66354],[-49.60996,-2.66324],[-49.60993,-2.66318],[-49.56136,-2.66283],[-49.50714,-2.66301],[-49.48643,-2.66318],[-49.43872,-2.66356],[-49.38651,-2.66397]]],[[[-49.64945,-2.63328],[-49.65037,-2.63467],[-49.6503,-2.63597],[-49.64872,-2.63638],[-49.64431,-2.63864],[-49.64176,-2.6394],[-49.63476,-2.6417],[-49.63384,-2.64189],[-49.63241,-2.6427],[-49.62843,-2.64379],[-49.62612,-2.64413],[-49.62346,-2.64491],[-49.62187,-2.64567],[-49.61875,-2.64753],[-49.6169,-2.64744],[-49.61562,-2.64557],[-49.61443,-2.64523],[-49.61199,-2.64371],[-49.61056,-2.64168],[-49.60976,-2.64122],[-49.60756,-2.63886],[-49.60661,-2.63755],[-49.60634,-2.63598],[-49.60677,-2.63521],[-49.60818,-2.63466],[-49.61055,-2.63495],[-49.60949,-2.63404],[-49.60563,-2.63173],[-49.60298,-2.62933],[-49.60132,-2.62742],[-49.59789,-2.62242],[-49.59731,-2.6211],[-49.59771,-2.61994],[-49.59985,-2.619],[-49.60464,-2.61825],[-49.6072,-2.6182],[-49.61045,-2.61846],[-49.61173,-2.61833],[-49.61489,-2.61879],[-49.61686,-2.61928],[-49.61998,-2.62038],[-49.62286,-2.62168],[-49.62606,-2.6229],[-49.63111,-2.62455],[-49.63332,-2.62568],[-49.63532,-2.62633],[-49.63832,-2.62765],[-49.64141,-2.62941],[-49.64411,-2.63077],[-49.64599,-2.63124],[-49.64945,-2.63328]]],[[[-49.5329,-2.59907],[-49.53315,-2.60081],[-49.53225,-2.60143],[-49.53094,-2.60142],[-49.52874,-2.6009],[-49.52605,-2.59969],[-49.52402,-2.59836],[-49.51954,-2.59434],[-49.51791,-2.59247],[-49.51607,-2.58962],[-49.515,-2.58683],[-49.51502,-2.586],[-49.51582,-2.58511],[-49.51764,-2.58582],[-49.52218,-2.58927],[-49.52614,-2.59191],[-49.52849,-2.59378],[-49.53066,-2.59588],[-49.53221,-2.59783],[-49.5329,-2.59907]]]]},"properties":{"codigo":"150460405","name":"Mocajuba","population":23859,"households":7458,"areaKm2":589.4303,"density":40.5}},{"type":"Feature","geometry":{"type":"Polygon","coordinates":[[[-49.67505,-2.6635],[-49.67358,-2.6635],[-49.67556,-2.66173],[-49.67685,-2.65922],[-49.67698,-2.65704],[-49.67654,-2.65382],[-49.67493,-2.6509],[-49.67393,-2.65021],[-49.6715,-2.64944],[-49.66993,-2.64925],[-49.66948,-2.64854],[-49.66799,-2.64767],[-49.66706,-2.64751],[-49.66675,-2.64653],[-49.66538,-2.6457],[-49.66401,-2.64533],[-49.6596,-2.64512],[-49.65649,-2.64549],[-49.65322,-2.64633],[-49.65239,-2.64735],[-49.65317,-2.648],[-49.65506,-2.6481],[-49.65616,-2.64899],[-49.65306,-2.64907],[-49.64931,-2.64966],[-49.64657,-2.64995],[-49.64417,-2.65042],[-49.63985,-2.65106],[-49.63467,-2.65133],[-49.63233,-2.65132],[-49.62694,-2.65182],[-49.61993,-2.6519],[-49.61685,-2.65139],[-49.61285,-2.64952],[-49.60733,-2.64614],[-49.60442,-2.64421],[-49.60214,-2.64307],[-49.60048,-2.64256],[-49.59756,-2.6428],[-49.59691,-2.64242],[-49.59728,-2.64099],[-49.59694,-2.63996],[-49.59495,-2.63679],[-49.59144,-2.63186],[-49.58956,-2.62846],[-49.58906,-2.62718],[-49.58763,-2.62497],[-49.58646,-2.62362],[-49.58412,-2.62148],[-49.58202,-2.62018],[-49.58064,-2.61959],[-49.57362,-2.61784],[-49.56929,-2.61728],[-49.56674,-2.61731],[-49.56067,-2.61649],[-49.55784,-2.6159],[-49.55571,-2.61511],[-49.5527,-2.61373],[-49.54587,-2.61027],[-49.5406,-2.60743],[-49.53894,-2.60674],[-49.53749,-2.60641],[-49.53141,-2.6044],[-49.52705,-2.60237],[-49.52349,-2.60045],[-49.52065,-2.59849],[-49.51754,-2.59596],[-49.51542,-2.59385],[-49.51423,-2.59239],[-49.51311,-2.5918],[-49.51202,-2.5929],[-49.51156,-2.5899],[-49.5118,-2.58856],[-49.5118,-2.58545],[-49.51226,-2.58294],[-49.5111,-2.57787],[-49.51111,-2.57333],[-49.51028,-2.56996],[-49.50966,-2.56844],[-49.50695,-2.56449],[-49.50567,-2.56333],[-49.50418,-2.56157],[-49.5018,-2.55951],[-49.49996,-2.55812],[-49.49555,-2.55514],[-49.4934,-2.55382],[-49.48985,-2.55047],[-49.48762,-2.54741],[-49.48644,-2.54506],[-49.48555,-2.54102],[-49.48067,-2.5358],[-49.50789,-2.55288],[-49.51435,-2.55316],[-49.51471,-2.55299],[-49.51755,-2.55158],[-49.52072,-2.5478],[-49.52005,-2.54165],[-49.51844,-2.53686],[-49.52044,-2.53273],[-49.52511,-2.52659],[-49.52741,-2.52402],[-49.53097,-2.52247],[-49.53224,-2.52012],[-49.53236,-2.51954],[-49.53297,-2.51664],[-49.53438,-2.51396],[-49.53597,-2.51357],[-49.53854,-2.51434],[-49.5404,-2.51523],[-49.54253,-2.51278],[-49.54303,-2.51173],[-49.544,-2.51105],[-49.54541,-2.51093],[-49.54995,-2.50851],[-49.55284,-2.50683],[-49.55344,-2.50577],[-49.55364,-2.50353],[-49.55348,-2.49947],[-49.55266,-2.49509],[-49.55139,-2.49173],[-49.55359,-2.48364],[-49.55438,-2.47549],[-49.55544,-2.47054],[-49.55669,-2.46694],[-49.55915,-2.4642],[-49.55975,-2.46378],[-49.56294,-2.46732],[-49.56358,-2.46694],[-49.5643,-2.46795],[-49.56502,-2.46694],[-49.56581,-2.46883],[-49.56639,-2.46926],[-49.56628,-2.47051],[-49.56778,-2.47199],[-49.56711,-2.47362],[-49.56639,-2.47405],[-49.56703,-2.4758],[-49.56674,-2.47696],[-49.56746,-2.47812],[-49.5689,-2.47899],[-49.56977,-2.48015],[-49.57135,-2.48088],[-49.57344,-2.48263],[-49.5746,-2.48321],[-49.57604,-2.4851],[-49.58,-2.49149],[-49.58115,-2.49613],[-49.58359,-2.50078],[-49.58472,-2.50575],[-49.58455,-2.51266],[-49.58777,-2.51581],[-49.59166,-2.51742],[-49.59497,-2.51956],[-49.59813,-2.52366],[-49.60106,-2.52628],[-49.60533,-2.52629],[-49.61003,-2.52739],[-49.61269,-2.53036],[-49.61463,-2.53415],[-49.61474,-2.53941],[-49.62091,-2.54905],[-49.62419,-2.5498],[-49.62866,-2.5493],[-49.63444,-2.54974],[-49.63691,-2.55332],[-49.63855,-2.55657],[-49.64225,-2.55842],[-49.64599,-2.55996],[-49.64905,-2.5632],[-49.65611,-2.56867],[-49.6581,-2.57097],[-49.65988,-2.574],[-49.66102,-2.57671],[-49.66281,-2.5791],[-49.66689,-2.58199],[-49.67288,-2.58489],[-49.67613,-2.58966],[-49.67622,-2.59579],[-49.67678,-2.60107],[-49.67847,-2.60505],[-49.68066,-2.60875],[-49.68314,-2.61032],[-49.69072,-2.62127],[-49.70283,-2.63829],[-49.70497,-2.63405],[-49.70352,-2.63052],[-49.7026,-2.62735],[-49.70203,-2.62441],[-49.70122,-2.62157],[-49.70133,-2.61758],[-49.70195,-2.61459],[-49.70181,-2.61042],[-49.70105,-2.60712],[-49.70002,-2.60357],[-49.699,-2.60071],[-49.69747,-2.59719],[-49.69551,-2.59001],[-49.69433,-2.58677],[-49.69348,-2.58283],[-49.69278,-2.57659],[-49.69292,-2.57247],[-49.6938,-2.56796],[-49.69528,-2.56217],[-49.69555,-2.55289],[-49.69647,-2.54996],[-49.70045,-2.5447],[-49.70994,-2.54553],[-49.71697,-2.54639],[-49.7205,-2.54643],[-49.72733,-2.54482],[-49.72983,-2.54234],[-49.73519,-2.54219],[-49.7418,-2.53848],[-49.74486,-2.5354],[-49.74694,-2.54302],[-49.74611,-2.55696],[-49.74447,-2.56269],[-49.74475,-2.56887],[-49.74461,-2.57335],[-49.744,-2.58155],[-49.74431,-2.58861],[-49.74303,-2.5917],[-49.74211,-2.59674],[-49.74472,-2.60339],[-49.74728,-2.60668],[-49.75014,-2.61107],[-49.75041,-2.6144],[-49.75166,-2.62065],[-49.75183,-2.6254],[-49.75303,-2.63504],[-49.752,-2.63799],[-49.75097,-2.64322],[-49.75041,-2.6474],[-49.74775,-2.65244],[-49.74563,-2.65323],[-49.74323,-2.65435],[-49.74228,-2.65625],[-49.7414,-2.65932],[-49.73855,-2.66354],[-49.73835,-2.66619],[-49.73348,-2.66617],[-49.69105,-2.66596],[-49.68369,-2.66592],[-49.68284,-2.66643],[-49.68233,-2.66873],[-49.68166,-2.67537],[-49.68083,-2.67889],[-49.68134,-2.68429],[-49.67975,-2.68497],[-49.67761,-2.68623],[-49.67685,-2.68638],[-49.67605,-2.68214],[-49.6765,-2.67862],[-49.67772,-2.67436],[-49.67892,-2.66621],[-49.67706,-2.66398],[-49.67732,-2.66322],[-49.67675,-2.66243],[-49.67505,-2.6635]],[[-49.64235,-2.64392],[-49.63848,-2.64496],[-49.6347,-2.6465],[-49.63155,-2.64747],[-49.63085,-2.64861],[-49.6321,-2.6498],[-49.63366,-2.64987],[-49.63751,-2.64888],[-49.64066,-2.64932],[-49.64264,-2.64902],[-49.64389,-2.64834],[-49.64546,-2.6469],[-49.64639,-2.64564],[-49.64664,-2.64422],[-49.64475,-2.6436],[-49.64235,-2.64392]],[[-49.64945,-2.63328],[-49.64599,-2.63124],[-49.64411,-2.63077],[-49.64141,-2.62941],[-49.63832,-2.62765],[-49.63532,-2.62633],[-49.63332,-2.62568],[-49.63111,-2.62455],[-49.62606,-2.6229],[-49.62286,-2.62168],[-49.61998,-2.62038],[-49.61686,-2.61928],[-49.61489,-2.61879],[-49.61173,-2.61833],[-49.61045,-2.61846],[-49.6072,-2.6182],[-49.60464,-2.61825],[-49.59985,-2.619],[-49.59771,-2.61994],[-49.59731,-2.6211],[-49.59789,-2.62242],[-49.60132,-2.62742],[-49.60298,-2.62933],[-49.60563,-2.63173],[-49.60949,-2.63404],[-49.61055,-2.63495],[-49.60818,-2.63466],[-49.60677,-2.63521],[-49.60634,-2.63598],[-49.60661,-2.63755],[-49.60756,-2.63886],[-49.60976,-2.64122],[-49.61056,-2.64168],[-49.61199,-2.64371],[-49.61443,-2.64523],[-49.61562,-2.64557],[-49.6169,-2.64744],[-49.61875,-2.64753],[-49.62187,-2.64567],[-49.62346,-2.64491],[-49.62612,-2.64413],[-49.62843,-2.64379],[-49.63241,-2.6427],[-49.63384,-2.64189],[-49.63476,-2.6417],[-49.64176,-2.6394],[-49.64431,-2.63864],[-49.64872,-2.63638],[-49.6503,-2.63597],[-49.65037,-2.63467],[-49.64945,-2.63328]],[[-49.5329,-2.59907],[-49.53221,-2.59783],[-49.53066,-2.59588],[-49.52849,-2.59378],[-49.52614,-2.59191],[-49.52218,-2.58927],[-49.51764,-2.58582],[-49.51582,-2.58511],[-49.51502,-2.586],[-49.515,-2.58683],[-49.51607,-2.58962],[-49.51791,-2.59247],[-49.51954,-2.59434],[-49.52402,-2.59836],[-49.52605,-2.59969],[-49.52874,-2.6009],[-49.53094,-2.60142],[-49.53225,-2.60143],[-49.53315,-2.60081],[-49.5329,-2.59907]]]},"properties":{"codigo":"150460415","name":"São Pedro de Viseu","population":3339,"households":953,"areaKm2":281.7376,"density":11.9}}]}