{"type":"FeatureCollection","features":[{"type":"Feature","geometry":{"type":"Polygon","coordinates":[[[-42.12663,-3.2697],[-42.12796,-3.27051],[-42.13021,-3.27017],[-42.1308,-3.27035],[-42.13226,-3.27203],[-42.13332,-3.27274],[-42.13402,-3.27225],[-42.13363,-3.27033],[-42.13477,-3.26962],[-42.1358,-3.26949],[-42.13748,-3.26994],[-42.13872,-3.2708],[-42.13936,-3.27293],[-42.14135,-3.27103],[-42.14246,-3.27106],[-42.1431,-3.27311],[-42.14436,-3.27398],[-42.14541,-3.27348],[-42.1461,-3.27377],[-42.14629,-3.27468],[-42.14711,-3.27541],[-42.14759,-3.2725],[-42.14954,-3.27187],[-42.15006,-3.27097],[-42.15191,-3.26965],[-42.15432,-3.26953],[-42.15453,-3.26903],[-42.15388,-3.26746],[-42.155,-3.26522],[-42.15683,-3.26503],[-42.15862,-3.26374],[-42.15867,-3.26291],[-42.15975,-3.26245],[-42.16113,-3.26263],[-42.16157,-3.26186],[-42.16124,-3.26062],[-42.16225,-3.25988],[-42.16481,-3.25907],[-42.16566,-3.25807],[-42.16964,-3.25827],[-42.17433,-3.25376],[-42.17633,-3.24708],[-42.18107,-3.24127],[-42.18446,-3.23594],[-42.18751,-3.23507],[-42.19271,-3.23548],[-42.20363,-3.23511],[-42.21367,-3.23546],[-42.22504,-3.24099],[-42.2361,-3.24804],[-42.2458,-3.2558],[-42.25551,-3.26245],[-42.26498,-3.26837],[-42.27652,-3.27335],[-42.27493,-3.34625],[-42.27355,-3.40904],[-42.27275,-3.44471],[-42.26472,-3.44124],[-42.25891,-3.43827],[-42.24708,-3.43256],[-42.23241,-3.42842],[-42.2281,-3.42763],[-42.22465,-3.42734],[-42.21962,-3.42758],[-42.21564,-3.42848],[-42.21411,-3.42905],[-42.20766,-3.43203],[-42.20674,-3.43232],[-42.20407,-3.43212],[-42.20173,-3.43134],[-42.19958,-3.42783],[-42.19953,-3.423],[-42.19797,-3.41583],[-42.19616,-3.40617],[-42.19474,-3.39939],[-42.19419,-3.39831],[-42.19103,-3.39534],[-42.19018,-3.39473],[-42.18683,-3.3939],[-42.18531,-3.39373],[-42.17627,-3.39471],[-42.17218,-3.39591],[-42.16727,-3.39644],[-42.16449,-3.39585],[-42.16088,-3.39462],[-42.15614,-3.39222],[-42.15067,-3.38661],[-42.14779,-3.38042],[-42.14617,-3.37325],[-42.14578,-3.36359],[-42.14622,-3.35627],[-42.14568,-3.35442],[-42.1445,-3.35273],[-42.14134,-3.34902],[-42.1406,-3.34832],[-42.13753,-3.34726],[-42.13568,-3.34687],[-42.13122,-3.34734],[-42.13005,-3.34727],[-42.1258,-3.34642],[-42.12324,-3.344],[-42.12199,-3.34144],[-42.12132,-3.33894],[-42.12101,-3.33647],[-42.12228,-3.33009],[-42.12541,-3.32476],[-42.12723,-3.32145],[-42.12759,-3.31983],[-42.1268,-3.31527],[-42.12543,-3.31309],[-42.12424,-3.31184],[-42.12231,-3.31071],[-42.12031,-3.31054],[-42.11927,-3.31104],[-42.11475,-3.31383],[-42.10766,-3.31694],[-42.1036,-3.3182],[-42.1026,-3.31837],[-42.10152,-3.31796],[-42.09938,-3.31531],[-42.09886,-3.3123],[-42.09628,-3.30149],[-42.09599,-3.2998],[-42.09653,-3.29544],[-42.09743,-3.29346],[-42.10024,-3.2922],[-42.10108,-3.29204],[-42.1062,-3.29173],[-42.11251,-3.29076],[-42.11901,-3.29017],[-42.12321,-3.28959],[-42.12509,-3.28864],[-42.12713,-3.28632],[-42.12966,-3.28237],[-42.13029,-3.27812],[-42.12912,-3.27334],[-42.12663,-3.2697]]]},"properties":{"codigo":"210630005","name":"Magalhães de Almeida","population":10764,"households":3915,"areaKm2":289.9457,"density":37.1}},{"type":"Feature","geometry":{"type":"Polygon","coordinates":[[[-42.24554,-3.19917],[-42.27666,-3.26679],[-42.27652,-3.27335],[-42.26498,-3.26837],[-42.25551,-3.26245],[-42.2458,-3.2558],[-42.2361,-3.24804],[-42.22504,-3.24099],[-42.21367,-3.23546],[-42.20363,-3.23511],[-42.19271,-3.23548],[-42.18751,-3.23507],[-42.18446,-3.23594],[-42.18107,-3.24127],[-42.17633,-3.24708],[-42.17433,-3.25376],[-42.16964,-3.25827],[-42.16566,-3.25807],[-42.16481,-3.25907],[-42.16225,-3.25988],[-42.16124,-3.26062],[-42.16157,-3.26186],[-42.16113,-3.26263],[-42.15975,-3.26245],[-42.15867,-3.26291],[-42.15862,-3.26374],[-42.15683,-3.26503],[-42.155,-3.26522],[-42.15388,-3.26746],[-42.15453,-3.26903],[-42.15432,-3.26953],[-42.15191,-3.26965],[-42.15006,-3.27097],[-42.14954,-3.27187],[-42.14759,-3.2725],[-42.14711,-3.27541],[-42.14629,-3.27468],[-42.1461,-3.27377],[-42.14541,-3.27348],[-42.14436,-3.27398],[-42.1431,-3.27311],[-42.14246,-3.27106],[-42.14135,-3.27103],[-42.13936,-3.27293],[-42.13872,-3.2708],[-42.13748,-3.26994],[-42.1358,-3.26949],[-42.13477,-3.26962],[-42.13363,-3.27033],[-42.13402,-3.27225],[-42.13332,-3.27274],[-42.13226,-3.27203],[-42.1308,-3.27035],[-42.13021,-3.27017],[-42.12796,-3.27051],[-42.12663,-3.2697],[-42.12365,-3.2668],[-42.11842,-3.26437],[-42.11012,-3.26169],[-42.0976,-3.26149],[-42.087,-3.26271],[-42.07674,-3.26329],[-42.07191,-3.26437],[-42.07083,-3.26452],[-42.06897,-3.26436],[-42.06719,-3.26384],[-42.06442,-3.26271],[-42.06223,-3.26116],[-42.06113,-3.25765],[-42.05529,-3.2529],[-42.04835,-3.24953],[-42.04099,-3.24712],[-42.03907,-3.24683],[-42.03335,-3.24714],[-42.02602,-3.24866],[-42.01903,-3.24929],[-42.01721,-3.24908],[-42.01278,-3.24807],[-42.00716,-3.24553],[-42.00193,-3.24222],[-41.99792,-3.23861],[-41.99504,-3.23461],[-41.99211,-3.23012],[-41.98976,-3.2269],[-41.98556,-3.22251],[-41.99128,-3.22235],[-42.09227,-3.21315],[-42.14803,-3.20807],[-42.19748,-3.20356],[-42.24554,-3.19917]]]},"properties":{"codigo":"210630010","name":"Custódio Lima","population":3043,"households":1153,"areaKm2":144.4871,"density":21.1}}]}