{"type":"FeatureCollection","features":[{"type":"Feature","geometry":{"type":"Polygon","coordinates":[[[-44.89831,-2.38481],[-44.89963,-2.38399],[-44.90126,-2.38168],[-44.9016,-2.38054],[-44.90248,-2.37958],[-44.90399,-2.37892],[-44.90621,-2.37725],[-44.90737,-2.37443],[-44.90905,-2.37257],[-44.91016,-2.37166],[-44.91274,-2.36874],[-44.91458,-2.3717],[-44.91536,-2.37265],[-44.91743,-2.3698],[-44.92049,-2.36495],[-44.92201,-2.36292],[-44.92399,-2.35982],[-44.93488,-2.32957],[-44.93489,-2.27091],[-44.93489,-2.23344],[-44.93545,-2.23424],[-44.93861,-2.23748],[-44.94131,-2.23918],[-44.94452,-2.23992],[-44.9485,-2.24106],[-44.95029,-2.24133],[-44.95344,-2.24252],[-44.9572,-2.24255],[-44.96026,-2.24392],[-44.96134,-2.24486],[-44.96377,-2.24868],[-44.96416,-2.24993],[-44.96586,-2.25105],[-44.96694,-2.17104],[-44.96712,-2.17088],[-45.00834,-2.1965],[-45.02689,-2.20804],[-45.05129,-2.23347],[-45.10085,-2.28512],[-45.12318,-2.3084],[-45.16051,-2.34733],[-45.20159,-2.36602],[-45.24285,-2.3848],[-45.26908,-2.39674],[-45.30041,-2.41101],[-45.30016,-2.4125],[-45.3006,-2.41345],[-45.30066,-2.41529],[-45.30152,-2.41685],[-45.30152,-2.41809],[-45.30001,-2.41953],[-45.29858,-2.42019],[-45.29741,-2.42253],[-45.2973,-2.42834],[-45.29344,-2.43063],[-45.29064,-2.43321],[-45.28988,-2.43369],[-45.28652,-2.43451],[-45.27883,-2.43942],[-45.2758,-2.44059],[-45.27472,-2.44118],[-45.27288,-2.44417],[-45.27259,-2.44439],[-45.26841,-2.45288],[-45.26667,-2.45514],[-45.26439,-2.4585],[-45.26343,-2.46058],[-45.2613,-2.46199],[-45.25888,-2.46464],[-45.25844,-2.46639],[-45.25864,-2.46903],[-45.25922,-2.47159],[-45.25796,-2.47338],[-45.25796,-2.47499],[-45.25607,-2.47636],[-45.25443,-2.47815],[-45.25094,-2.48326],[-45.24847,-2.48661],[-45.24576,-2.48784],[-45.24276,-2.48794],[-45.25023,-2.53606],[-45.25664,-2.5773],[-45.26385,-2.62378],[-45.27104,-2.67016],[-45.2752,-2.69703],[-45.27446,-2.6995],[-45.27435,-2.70072],[-45.27276,-2.70215],[-45.26973,-2.70315],[-45.26862,-2.69888],[-45.26513,-2.69474],[-45.24829,-2.68885],[-45.2451,-2.6983],[-45.24825,-2.70032],[-45.2507,-2.70333],[-45.24898,-2.70529],[-45.24601,-2.70703],[-45.24496,-2.70894],[-45.24436,-2.70952],[-45.241,-2.70866],[-45.23962,-2.70852],[-45.23858,-2.70944],[-45.2376,-2.71211],[-45.23631,-2.71463],[-45.22938,-2.71835],[-45.22845,-2.71952],[-45.22722,-2.72202],[-45.22598,-2.72299],[-45.22337,-2.7236],[-45.22012,-2.72347],[-45.2172,-2.72314],[-45.21423,-2.72429],[-45.21221,-2.7245],[-45.20943,-2.7237],[-45.20631,-2.72309],[-45.20499,-2.72322],[-45.20404,-2.72408],[-45.20342,-2.72587],[-45.20146,-2.72718],[-45.19936,-2.72801],[-45.19882,-2.72989],[-45.19868,-2.73173],[-45.19762,-2.73344],[-45.19554,-2.73393],[-45.19122,-2.73245],[-45.18881,-2.73086],[-45.18785,-2.72769],[-45.18617,-2.72672],[-45.18224,-2.72677],[-45.17843,-2.73281],[-45.16855,-2.73388],[-45.15845,-2.73664],[-45.15228,-2.74527],[-45.14638,-2.75396],[-45.1461,-2.75376],[-45.14204,-2.75259],[-45.13661,-2.75063],[-45.13545,-2.74985],[-45.13409,-2.74771],[-45.13186,-2.74615],[-45.12915,-2.74517],[-45.12876,-2.74224],[-45.12876,-2.73951],[-45.12915,-2.73619],[-45.12885,-2.73424],[-45.12808,-2.73092],[-45.12847,-2.72545],[-45.12856,-2.71764],[-45.12759,-2.71549],[-45.1243,-2.71315],[-45.12265,-2.7112],[-45.12091,-2.71003],[-45.11994,-2.7071],[-45.12013,-2.70437],[-45.11974,-2.70163],[-45.11616,-2.6987],[-45.11325,-2.69773],[-45.1117,-2.6948],[-45.10889,-2.69187],[-45.10889,-2.68582],[-45.10831,-2.6825],[-45.10695,-2.68211],[-45.10608,-2.67996],[-45.10608,-2.67489],[-45.10782,-2.67196],[-45.10735,-2.66923],[-45.1085,-2.66766],[-45.11276,-2.66337],[-45.11237,-2.66102],[-45.10937,-2.65868],[-45.10549,-2.65712],[-45.10162,-2.65712],[-45.09939,-2.65829],[-45.09571,-2.65849],[-45.09067,-2.65614],[-45.08844,-2.65322],[-45.08689,-2.65146],[-45.08689,-2.64951],[-45.08805,-2.64716],[-45.09047,-2.64404],[-45.09261,-2.64306],[-45.09416,-2.64287],[-45.09377,-2.64092],[-45.09299,-2.63877],[-45.09319,-2.6374],[-45.09406,-2.63603],[-45.09445,-2.63408],[-45.09387,-2.63115],[-45.09291,-2.62884],[-45.09251,-2.62979],[-45.09115,-2.63076],[-45.08892,-2.62959],[-45.08776,-2.62627],[-45.0866,-2.62432],[-45.08553,-2.62022],[-45.08592,-2.61983],[-45.08824,-2.62022],[-45.08863,-2.61924],[-45.08786,-2.61788],[-45.08747,-2.61651],[-45.0865,-2.61514],[-45.08369,-2.61554],[-45.08195,-2.61495],[-45.07904,-2.61436],[-45.07729,-2.61202],[-45.07623,-2.61007],[-45.07642,-2.60499],[-45.07565,-2.60246],[-45.07584,-2.60011],[-45.07642,-2.59737],[-45.07555,-2.59386],[-45.07458,-2.59074],[-45.07429,-2.5843],[-45.07293,-2.58117],[-45.07351,-2.5759],[-45.07361,-2.572],[-45.07419,-2.56751],[-45.07342,-2.56614],[-45.07284,-2.56126],[-45.07099,-2.55872],[-45.06964,-2.55775],[-45.06789,-2.55736],[-45.06208,-2.55774],[-45.05821,-2.55829],[-45.0566,-2.55936],[-45.0551,-2.56134],[-45.05452,-2.56382],[-45.05449,-2.56617],[-45.05418,-2.56902],[-45.0526,-2.5696],[-45.05163,-2.56777],[-45.05013,-2.56749],[-45.04793,-2.568],[-45.04816,-2.56605],[-45.04933,-2.56416],[-45.04995,-2.56265],[-45.0505,-2.56241],[-45.0499,-2.55951],[-45.04792,-2.55757],[-45.05056,-2.55698],[-45.05152,-2.55639],[-45.05134,-2.55493],[-45.05074,-2.55352],[-45.04834,-2.55234],[-45.04822,-2.55152],[-45.04996,-2.55052],[-45.04984,-2.54748],[-45.04864,-2.54501],[-45.04738,-2.54366],[-45.04461,-2.54261],[-45.04309,-2.54291],[-45.04155,-2.54213],[-45.03963,-2.54117],[-45.0376,-2.54086],[-45.03577,-2.54086],[-45.03371,-2.54143],[-45.03116,-2.54476],[-45.0296,-2.54534],[-45.02877,-2.54356],[-45.02952,-2.54195],[-45.03116,-2.5409],[-45.03186,-2.53923],[-45.03085,-2.5374],[-45.02822,-2.53556],[-45.0278,-2.53366],[-45.03118,-2.53263],[-45.03168,-2.53073],[-45.03279,-2.52988],[-45.0349,-2.53027],[-45.03679,-2.53015],[-45.03866,-2.52917],[-45.04013,-2.52796],[-45.04186,-2.52875],[-45.04105,-2.52493],[-45.0408,-2.52297],[-45.04102,-2.52102],[-45.04152,-2.51884],[-45.04146,-2.51673],[-45.04074,-2.51486],[-45.0423,-2.51406],[-45.04421,-2.51454],[-45.04563,-2.51378],[-45.04602,-2.51197],[-45.04499,-2.51045],[-45.0406,-2.51118],[-45.03973,-2.50951],[-45.04024,-2.50736],[-45.0436,-2.50358],[-45.04477,-2.50076],[-45.04582,-2.49723],[-45.04688,-2.49552],[-45.0483,-2.49411],[-45.04946,-2.49365],[-45.05035,-2.49166],[-45.04963,-2.4907],[-45.04926,-2.48941],[-45.05096,-2.48864],[-45.05102,-2.48659],[-45.04943,-2.48612],[-45.04793,-2.48724],[-45.04618,-2.48772],[-45.0458,-2.48645],[-45.04421,-2.48276],[-45.04396,-2.48141],[-45.04394,-2.4795],[-45.04216,-2.47572],[-45.04116,-2.47417],[-45.04088,-2.47304],[-45.04005,-2.47128],[-45.03857,-2.46993],[-45.03747,-2.46956],[-45.03721,-2.47159],[-45.03771,-2.47387],[-45.03744,-2.47568],[-45.03565,-2.47507],[-45.03444,-2.47492],[-45.03402,-2.47664],[-45.03525,-2.47896],[-45.03538,-2.48045],[-45.03608,-2.48202],[-45.03766,-2.48243],[-45.03749,-2.48451],[-45.03799,-2.48724],[-45.03922,-2.48888],[-45.04019,-2.49061],[-45.03724,-2.4913],[-45.03566,-2.49124],[-45.03535,-2.48997],[-45.03346,-2.48737],[-45.0323,-2.48712],[-45.03166,-2.48821],[-45.03075,-2.48902],[-45.02935,-2.48805],[-45.02663,-2.48463],[-45.02513,-2.4838],[-45.02554,-2.48588],[-45.02621,-2.48807],[-45.0261,-2.48925],[-45.02541,-2.491],[-45.02441,-2.49266],[-45.02458,-2.4943],[-45.02254,-2.49446],[-45.02149,-2.49305],[-45.0218,-2.49092],[-45.02274,-2.48789],[-45.02213,-2.48603],[-45.02052,-2.48565],[-45.01916,-2.48573],[-45.0183,-2.48656],[-45.01688,-2.48581],[-45.01788,-2.48415],[-45.01918,-2.48274],[-45.01857,-2.48056],[-45.01719,-2.47955],[-45.01816,-2.47757],[-45.01764,-2.47627],[-45.01875,-2.47199],[-45.0179,-2.47028],[-45.01621,-2.46919],[-45.01404,-2.46907],[-45.01265,-2.46943],[-45.01168,-2.47016],[-45.01108,-2.47126],[-45.01003,-2.46891],[-45.00937,-2.46679],[-45.00818,-2.46569],[-45.00705,-2.46511],[-45.00461,-2.46444],[-45.00289,-2.46492],[-45.0018,-2.46611],[-45.00219,-2.46931],[-45.00189,-2.47111],[-45.00117,-2.47393],[-45.00044,-2.47515],[-44.99863,-2.47649],[-44.99634,-2.47783],[-44.9941,-2.4782],[-44.99337,-2.47746],[-44.99301,-2.476],[-44.99313,-2.47345],[-44.99397,-2.47235],[-44.99419,-2.47111],[-44.99378,-2.46947],[-44.99266,-2.46916],[-44.99143,-2.46967],[-44.98993,-2.47174],[-44.98836,-2.47223],[-44.98776,-2.47174],[-44.98739,-2.47053],[-44.98752,-2.46919],[-44.98828,-2.46777],[-44.99051,-2.467],[-44.99113,-2.46649],[-44.99154,-2.46453],[-44.99041,-2.46212],[-44.98752,-2.46066],[-44.98546,-2.46079],[-44.98365,-2.46127],[-44.98359,-2.46249],[-44.98298,-2.46505],[-44.98165,-2.46614],[-44.98057,-2.46541],[-44.97972,-2.46224],[-44.97761,-2.46018],[-44.97676,-2.45981],[-44.96915,-2.45993],[-44.96843,-2.45896],[-44.9674,-2.45665],[-44.96631,-2.45531],[-44.96474,-2.45494],[-44.96281,-2.45579],[-44.96051,-2.45738],[-44.95924,-2.45946],[-44.95958,-2.43752],[-44.95924,-2.43658],[-44.95896,-2.43444],[-44.95802,-2.4323],[-44.95719,-2.43103],[-44.95668,-2.42916],[-44.95538,-2.4271],[-44.95277,-2.4266],[-44.94961,-2.4255],[-44.94818,-2.4244],[-44.94757,-2.4229],[-44.94616,-2.42071],[-44.94438,-2.41906],[-44.94321,-2.41836],[-44.94168,-2.41635],[-44.93949,-2.41538],[-44.93778,-2.41434],[-44.93458,-2.41567],[-44.93313,-2.41531],[-44.93193,-2.41426],[-44.93069,-2.41197],[-44.92727,-2.41246],[-44.92577,-2.41029],[-44.92549,-2.4082],[-44.92588,-2.40612],[-44.92724,-2.40545],[-44.92799,-2.40342],[-44.92696,-2.40187],[-44.92441,-2.39937],[-44.92307,-2.3984],[-44.92155,-2.39639],[-44.91888,-2.39328],[-44.91655,-2.39121],[-44.91554,-2.39061],[-44.91335,-2.38991],[-44.9121,-2.38989],[-44.90958,-2.39057],[-44.9078,-2.39017],[-44.90666,-2.38853],[-44.90504,-2.38738],[-44.90277,-2.38748],[-44.90054,-2.38701],[-44.89879,-2.38601],[-44.89831,-2.38481]]]},"properties":{"codigo":"210860305","name":"Pinheiro","population":81210,"households":30736,"areaKm2":1330.74,"density":61}},{"type":"Feature","geometry":{"type":"Polygon","coordinates":[[[-45.14638,-2.75396],[-45.15228,-2.74527],[-45.15845,-2.73664],[-45.16855,-2.73388],[-45.17843,-2.73281],[-45.18224,-2.72677],[-45.18617,-2.72672],[-45.18785,-2.72769],[-45.18881,-2.73086],[-45.19122,-2.73245],[-45.19554,-2.73393],[-45.19762,-2.73344],[-45.19868,-2.73173],[-45.19882,-2.72989],[-45.19936,-2.72801],[-45.20146,-2.72718],[-45.20342,-2.72587],[-45.20404,-2.72408],[-45.20499,-2.72322],[-45.20631,-2.72309],[-45.20943,-2.7237],[-45.21221,-2.7245],[-45.21423,-2.72429],[-45.2172,-2.72314],[-45.22012,-2.72347],[-45.22337,-2.7236],[-45.22598,-2.72299],[-45.22722,-2.72202],[-45.22845,-2.71952],[-45.22938,-2.71835],[-45.23631,-2.71463],[-45.2376,-2.71211],[-45.23858,-2.70944],[-45.23962,-2.70852],[-45.241,-2.70866],[-45.24436,-2.70952],[-45.24496,-2.70894],[-45.24601,-2.70703],[-45.24898,-2.70529],[-45.2507,-2.70333],[-45.24825,-2.70032],[-45.2451,-2.6983],[-45.24829,-2.68885],[-45.26513,-2.69474],[-45.26862,-2.69888],[-45.26973,-2.70315],[-45.27276,-2.70215],[-45.27435,-2.70072],[-45.27446,-2.6995],[-45.2752,-2.69703],[-45.27585,-2.70126],[-45.2769,-2.70244],[-45.35773,-2.7456],[-45.35296,-2.7462],[-45.35144,-2.74864],[-45.35083,-2.75032],[-45.34932,-2.75078],[-45.34742,-2.75231],[-45.345,-2.75338],[-45.34106,-2.75429],[-45.3403,-2.75552],[-45.33915,-2.75997],[-45.33561,-2.76277],[-45.33532,-2.76598],[-45.33469,-2.76838],[-45.33242,-2.77151],[-45.33116,-2.77587],[-45.32978,-2.77703],[-45.3263,-2.77781],[-45.32216,-2.77765],[-45.32055,-2.77821],[-45.31905,-2.77914],[-45.31702,-2.78165],[-45.31571,-2.78218],[-45.31252,-2.78502],[-45.31097,-2.78573],[-45.30861,-2.78608],[-45.30444,-2.78585],[-45.3034,-2.78679],[-45.30221,-2.79121],[-45.30108,-2.79348],[-45.29963,-2.79554],[-45.29777,-2.79734],[-45.29408,-2.79984],[-45.29235,-2.8002],[-45.29126,-2.79976],[-45.28688,-2.80057],[-45.2847,-2.80301],[-45.28221,-2.8055],[-45.2808,-2.80716],[-45.27533,-2.80915],[-45.26927,-2.80761],[-45.26613,-2.80648],[-45.26096,-2.80734],[-45.25888,-2.80708],[-45.25613,-2.80503],[-45.25322,-2.804],[-45.25069,-2.80411],[-45.24533,-2.80637],[-45.24388,-2.80731],[-45.24138,-2.80858],[-45.23921,-2.80992],[-45.23696,-2.81052],[-45.23166,-2.81092],[-45.23007,-2.81169],[-45.22899,-2.81261],[-45.22281,-2.81361],[-45.2199,-2.81342],[-45.21508,-2.81184],[-45.20953,-2.81318],[-45.19969,-2.81604],[-45.19852,-2.81726],[-45.19677,-2.81692],[-45.19519,-2.81871],[-45.19391,-2.81921],[-45.1926,-2.81833],[-45.19407,-2.81662],[-45.19427,-2.81539],[-45.19305,-2.8141],[-45.19116,-2.81417],[-45.18993,-2.81462],[-45.18813,-2.81378],[-45.18963,-2.81248],[-45.1915,-2.81159],[-45.19244,-2.81078],[-45.19335,-2.80834],[-45.19277,-2.80624],[-45.19118,-2.80623],[-45.18971,-2.80805],[-45.18788,-2.80733],[-45.1863,-2.80781],[-45.18486,-2.80927],[-45.18374,-2.81077],[-45.1821,-2.81126],[-45.18054,-2.81002],[-45.17755,-2.81249],[-45.1763,-2.81088],[-45.17779,-2.80962],[-45.17965,-2.80855],[-45.18013,-2.80733],[-45.1798,-2.80602],[-45.17788,-2.80521],[-45.17929,-2.8041],[-45.18118,-2.80417],[-45.18258,-2.80388],[-45.18411,-2.80269],[-45.18441,-2.80143],[-45.18435,-2.79947],[-45.18388,-2.79842],[-45.18138,-2.7926],[-45.17847,-2.78812],[-45.17421,-2.78441],[-45.17382,-2.78187],[-45.17218,-2.7805],[-45.17024,-2.77796],[-45.16752,-2.77582],[-45.16675,-2.77504],[-45.16655,-2.77152],[-45.16568,-2.76937],[-45.1651,-2.76742],[-45.1622,-2.76547],[-45.15686,-2.76293],[-45.15376,-2.76118],[-45.15047,-2.75903],[-45.14872,-2.75571],[-45.14638,-2.75396]]]},"properties":{"codigo":"210860310","name":"Roque","population":3411,"households":1267,"areaKm2":182.2289,"density":18.7}}]}