{"type":"FeatureCollection","features":[{"type":"Feature","geometry":{"type":"Polygon","coordinates":[[[-41.53484,-8.48292],[-41.53581,-8.48378],[-41.53601,-8.4836],[-41.53668,-8.48449],[-41.53742,-8.48393],[-41.53761,-8.48419],[-41.53827,-8.48387],[-41.53949,-8.48355],[-41.54187,-8.48257],[-41.54304,-8.48414],[-41.5415,-8.48523],[-41.54041,-8.48572],[-41.53962,-8.48562],[-41.53869,-8.48633],[-41.53966,-8.48764],[-41.53897,-8.48816],[-41.53684,-8.48975],[-41.53641,-8.48909],[-41.53283,-8.48444],[-41.53484,-8.48292]]]},"properties":{"codigo":"2205565003","name":"Abílio Marques","population":495,"households":284,"areaKm2":0.4004,"density":1236.1}},{"type":"Feature","geometry":{"type":"Polygon","coordinates":[[[-41.53897,-8.48816],[-41.5403,-8.49001],[-41.5382,-8.4915],[-41.53782,-8.49101],[-41.5369,-8.49178],[-41.5355,-8.49279],[-41.53416,-8.49385],[-41.53294,-8.49174],[-41.53242,-8.49208],[-41.53201,-8.4916],[-41.53125,-8.49004],[-41.53192,-8.49003],[-41.5301,-8.48728],[-41.52931,-8.48578],[-41.53087,-8.48466],[-41.53144,-8.48545],[-41.53283,-8.48444],[-41.53641,-8.48909],[-41.53684,-8.48975],[-41.53897,-8.48816]]]},"properties":{"codigo":"2205565002","name":"Betel","population":243,"households":136,"areaKm2":0.5372,"density":452.4}},{"type":"Feature","geometry":{"type":"Polygon","coordinates":[[[-41.53283,-8.48444],[-41.53144,-8.48545],[-41.53087,-8.48466],[-41.52931,-8.48578],[-41.52798,-8.48677],[-41.52743,-8.48589],[-41.52875,-8.48503],[-41.53004,-8.48406],[-41.52972,-8.48173],[-41.5291,-8.48088],[-41.5278,-8.48077],[-41.52731,-8.47974],[-41.52735,-8.47897],[-41.52795,-8.4777],[-41.52712,-8.47715],[-41.52569,-8.47773],[-41.52442,-8.47771],[-41.5237,-8.47751],[-41.52281,-8.4768],[-41.52637,-8.47553],[-41.52693,-8.4752],[-41.52772,-8.4744],[-41.52822,-8.47352],[-41.52837,-8.47266],[-41.52827,-8.47117],[-41.52941,-8.47106],[-41.52945,-8.47158],[-41.53011,-8.47153],[-41.53024,-8.47381],[-41.53037,-8.47481],[-41.52972,-8.47555],[-41.53061,-8.47653],[-41.53095,-8.47734],[-41.53049,-8.47774],[-41.53082,-8.47835],[-41.53251,-8.48083],[-41.53345,-8.48156],[-41.53385,-8.48224],[-41.53484,-8.48292],[-41.53283,-8.48444]]]},"properties":{"codigo":"2205565001","name":"Centro","population":776,"households":500,"areaKm2":0.6537,"density":1187.1}}]}