{"type":"FeatureCollection","features":[{"type":"Feature","geometry":{"type":"Polygon","coordinates":[[[-40.1453,-6.81874],[-40.147,-6.83059],[-40.08729,-6.84666],[-40.08321,-6.85082],[-40.08089,-6.85297],[-40.07995,-6.85404],[-40.07716,-6.8567],[-40.06989,-6.85436],[-40.06556,-6.8508],[-40.06117,-6.84865],[-40.05848,-6.84754],[-40.05172,-6.84411],[-40.05113,-6.84334],[-40.05195,-6.84192],[-40.05376,-6.83984],[-40.05503,-6.83862],[-40.05606,-6.83694],[-40.0562,-6.83604],[-40.05539,-6.83244],[-40.05531,-6.82949],[-40.05479,-6.82771],[-40.0535,-6.82505],[-40.05,-6.82213],[-40.0448,-6.81832],[-40.04342,-6.81699],[-40.04173,-6.81632],[-40.03407,-6.81528],[-40.03178,-6.81449],[-40.02939,-6.81422],[-40.02551,-6.81415],[-40.02014,-6.81219],[-40.01736,-6.80986],[-40.01494,-6.80763],[-40.00975,-6.80566],[-40.008,-6.80448],[-40.00709,-6.80416],[-40.0047,-6.80401],[-40.00206,-6.80313],[-40.00017,-6.80416],[-39.99859,-6.80644],[-39.99767,-6.80704],[-39.99629,-6.80895],[-39.99339,-6.81042],[-39.99209,-6.8134],[-39.99087,-6.81434],[-39.98912,-6.81513],[-39.98692,-6.81508],[-39.98484,-6.81377],[-39.98289,-6.81231],[-39.97975,-6.81075],[-39.97881,-6.80982],[-39.97626,-6.8056],[-39.97478,-6.80518],[-39.97225,-6.80486],[-39.96886,-6.8048],[-39.96711,-6.80321],[-39.96446,-6.80172],[-39.95987,-6.79886],[-39.95738,-6.79649],[-39.9537,-6.79319],[-39.95184,-6.79102],[-39.94989,-6.78948],[-39.94808,-6.78841],[-39.94598,-6.78692],[-39.94281,-6.78524],[-39.93998,-6.78393],[-39.94055,-6.78277],[-39.94258,-6.78157],[-39.94473,-6.78129],[-39.94967,-6.78226],[-39.95176,-6.78198],[-39.95677,-6.78232],[-39.9591,-6.78168],[-39.96163,-6.78165],[-39.96507,-6.78082],[-39.97003,-6.77822],[-39.96969,-6.77653],[-39.96985,-6.77533],[-39.96857,-6.77312],[-39.96857,-6.77199],[-39.96946,-6.77066],[-39.96921,-6.76909],[-39.97067,-6.76858],[-39.97158,-6.7678],[-39.97127,-6.765],[-39.97188,-6.76439],[-39.97475,-6.76298],[-39.97576,-6.76107],[-39.9765,-6.76075],[-39.97754,-6.75852],[-39.97784,-6.75714],[-39.97731,-6.75662],[-39.97581,-6.75605],[-39.97475,-6.75471],[-39.97333,-6.75488],[-39.9722,-6.75399],[-39.97108,-6.75369],[-39.97088,-6.75304],[-39.97258,-6.75133],[-39.97294,-6.74979],[-39.97253,-6.7487],[-39.97168,-6.74846],[-39.96872,-6.7483],[-39.96485,-6.74601],[-39.9616,-6.74464],[-39.96026,-6.7444],[-39.95945,-6.74246],[-39.95847,-6.74165],[-39.959,-6.74015],[-39.95997,-6.73962],[-39.96092,-6.7381],[-39.96311,-6.73687],[-39.9631,-6.73614],[-39.96241,-6.73469],[-39.96286,-6.7327],[-39.96249,-6.73201],[-39.96078,-6.73165],[-39.96046,-6.73112],[-39.96173,-6.72895],[-39.96169,-6.727],[-39.96124,-6.72579],[-39.96035,-6.7249],[-39.9599,-6.72344],[-39.9603,-6.72113],[-39.95831,-6.72003],[-39.95812,-6.71912],[-39.95922,-6.71884],[-39.95978,-6.71794],[-39.96148,-6.71709],[-39.9616,-6.71449],[-39.96354,-6.71128],[-39.9625,-6.70905],[-39.96291,-6.70848],[-39.96266,-6.70682],[-39.9646,-6.70369],[-39.96334,-6.7026],[-39.96289,-6.70175],[-39.96231,-6.69953],[-39.96253,-6.69838],[-39.96376,-6.69679],[-39.96295,-6.69539],[-39.96302,-6.69418],[-39.96411,-6.69465],[-39.96528,-6.69414],[-39.96603,-6.69445],[-39.96697,-6.69569],[-39.96843,-6.69576],[-39.96994,-6.69435],[-39.97043,-6.69327],[-39.96991,-6.6923],[-39.97007,-6.69064],[-39.97097,-6.68974],[-39.9712,-6.68717],[-39.97272,-6.68653],[-39.97417,-6.68702],[-39.97546,-6.68652],[-39.97663,-6.68534],[-39.97752,-6.68605],[-39.97851,-6.68784],[-39.98048,-6.68894],[-39.98106,-6.68841],[-39.98116,-6.68738],[-39.98233,-6.68694],[-39.98172,-6.68512],[-39.97826,-6.68379],[-39.97552,-6.68038],[-39.9756,-6.67966],[-39.97692,-6.67986],[-39.9766,-6.67859],[-39.97504,-6.67591],[-39.97491,-6.6749],[-39.97417,-6.67279],[-39.97448,-6.67233],[-39.97634,-6.67243],[-39.97651,-6.6719],[-39.97556,-6.66999],[-39.97575,-6.66878],[-39.97756,-6.67095],[-39.97995,-6.67171],[-39.98428,-6.67134],[-39.98574,-6.67226],[-39.98601,-6.67489],[-39.98609,-6.67844],[-39.98661,-6.68023],[-39.9883,-6.6813],[-39.99078,-6.68174],[-39.99302,-6.68349],[-39.99553,-6.6837],[-39.9975,-6.68346],[-39.9996,-6.68403],[-40.00097,-6.68405],[-40.0037,-6.68458],[-40.00434,-6.68516],[-40.00509,-6.68679],[-40.00471,-6.6873],[-40.00363,-6.68998],[-40.00312,-6.69341],[-40.00136,-6.69565],[-40.00105,-6.69738],[-39.9999,-6.6978],[-39.9983,-6.69695],[-39.99727,-6.69789],[-39.99703,-6.6994],[-39.9966,-6.70006],[-39.99534,-6.70041],[-39.99494,-6.70109],[-39.99524,-6.70231],[-39.99589,-6.7032],[-39.99722,-6.70329],[-39.99883,-6.70288],[-39.99941,-6.70312],[-40.00216,-6.70621],[-40.00355,-6.70817],[-40.00394,-6.70936],[-40.00486,-6.71031],[-40.00643,-6.7107],[-40.00985,-6.71001],[-40.01116,-6.71113],[-40.01151,-6.71288],[-40.01404,-6.71547],[-40.01355,-6.71633],[-40.01331,-6.71862],[-40.01433,-6.71909],[-40.018,-6.72157],[-40.01915,-6.72192],[-40.01984,-6.72343],[-40.02075,-6.72443],[-40.02061,-6.72562],[-40.02135,-6.72628],[-40.02215,-6.72782],[-40.02561,-6.73233],[-40.02838,-6.73322],[-40.03206,-6.73311],[-40.03279,-6.73385],[-40.03261,-6.73486],[-40.0327,-6.73678],[-40.03246,-6.73731],[-40.03317,-6.7386],[-40.03319,-6.73954],[-40.03476,-6.74053],[-40.0359,-6.74066],[-40.03748,-6.74169],[-40.03907,-6.74397],[-40.04147,-6.74484],[-40.04314,-6.74645],[-40.04317,-6.74721],[-40.0424,-6.7492],[-40.04486,-6.75311],[-40.04652,-6.75345],[-40.04678,-6.755],[-40.0472,-6.75546],[-40.04845,-6.7555],[-40.04969,-6.75672],[-40.05141,-6.75733],[-40.05391,-6.76092],[-40.0545,-6.76118],[-40.05545,-6.7629],[-40.05653,-6.7626],[-40.05788,-6.76379],[-40.0584,-6.76524],[-40.05919,-6.76587],[-40.06361,-6.76781],[-40.06508,-6.7697],[-40.06623,-6.77027],[-40.06935,-6.77114],[-40.0699,-6.77236],[-40.06969,-6.77476],[-40.06913,-6.77768],[-40.07007,-6.77808],[-40.07158,-6.77792],[-40.07199,-6.77987],[-40.07119,-6.78123],[-40.07016,-6.78202],[-40.06942,-6.78373],[-40.06647,-6.78635],[-40.06614,-6.78751],[-40.06661,-6.78959],[-40.06843,-6.79152],[-40.06941,-6.79225],[-40.07069,-6.79271],[-40.07271,-6.79249],[-40.07359,-6.79263],[-40.07488,-6.79387],[-40.07626,-6.79463],[-40.0774,-6.79602],[-40.07808,-6.79624],[-40.07924,-6.79564],[-40.08043,-6.79444],[-40.08092,-6.79323],[-40.08065,-6.7921],[-40.0812,-6.79143],[-40.08245,-6.79177],[-40.08599,-6.79393],[-40.08769,-6.79542],[-40.09014,-6.79726],[-40.09143,-6.79848],[-40.09191,-6.79943],[-40.09542,-6.8028],[-40.09589,-6.80351],[-40.09691,-6.80381],[-40.09963,-6.80314],[-40.10086,-6.80354],[-40.10416,-6.80727],[-40.10691,-6.80584],[-40.10683,-6.80477],[-40.10793,-6.80433],[-40.10877,-6.80537],[-40.10914,-6.80651],[-40.10912,-6.80789],[-40.10964,-6.80899],[-40.11099,-6.81013],[-40.11204,-6.8106],[-40.11248,-6.81244],[-40.11365,-6.81562],[-40.114,-6.81753],[-40.11451,-6.81792],[-40.11589,-6.81784],[-40.1166,-6.8183],[-40.11685,-6.81932],[-40.11831,-6.82008],[-40.12021,-6.8198],[-40.1205,-6.81905],[-40.12181,-6.819],[-40.12249,-6.81851],[-40.12514,-6.8175],[-40.12636,-6.81736],[-40.12692,-6.81773],[-40.12956,-6.81819],[-40.13093,-6.81881],[-40.1329,-6.81856],[-40.1353,-6.81913],[-40.13691,-6.81987],[-40.13763,-6.82111],[-40.13839,-6.82175],[-40.13978,-6.82223],[-40.14094,-6.82165],[-40.14101,-6.81946],[-40.1403,-6.81895],[-40.1402,-6.81782],[-40.1423,-6.81745],[-40.14448,-6.81812],[-40.1453,-6.81874]]]},"properties":{"codigo":"230080405","name":"Antonina do Norte","population":6597,"households":3205,"areaKm2":157.963,"density":41.8}},{"type":"Feature","geometry":{"type":"Polygon","coordinates":[[[-39.93998,-6.78393],[-39.93542,-6.78213],[-39.93031,-6.7793],[-39.92767,-6.77721],[-39.92595,-6.77561],[-39.92009,-6.77162],[-39.91321,-6.76654],[-39.90945,-6.76347],[-39.90634,-6.76149],[-39.90375,-6.75882],[-39.90206,-6.75751],[-39.89853,-6.75569],[-39.89653,-6.75416],[-39.89102,-6.74907],[-39.88886,-6.74675],[-39.88675,-6.7442],[-39.88478,-6.74259],[-39.8834,-6.74107],[-39.88064,-6.73888],[-39.8785,-6.73495],[-39.87445,-6.73256],[-39.87294,-6.73135],[-39.87048,-6.7297],[-39.86767,-6.727],[-39.86543,-6.72504],[-39.86377,-6.72337],[-39.86128,-6.72142],[-39.85908,-6.71997],[-39.85483,-6.71666],[-39.85228,-6.71519],[-39.85064,-6.71543],[-39.84822,-6.71529],[-39.84556,-6.7138],[-39.84167,-6.7099],[-39.83894,-6.70919],[-39.83727,-6.70823],[-39.83525,-6.70578],[-39.83378,-6.70311],[-39.83351,-6.70107],[-39.83296,-6.69993],[-39.83456,-6.69659],[-39.83635,-6.69562],[-39.83624,-6.695],[-39.83355,-6.69169],[-39.8336,-6.69037],[-39.83481,-6.68883],[-39.83612,-6.68863],[-39.83554,-6.68536],[-39.83686,-6.68231],[-39.83767,-6.68162],[-39.83745,-6.67972],[-39.83799,-6.67919],[-39.84021,-6.67943],[-39.84086,-6.67866],[-39.84673,-6.67921],[-39.84768,-6.67984],[-39.84833,-6.67942],[-39.84818,-6.6771],[-39.84869,-6.67512],[-39.84927,-6.6747],[-39.85101,-6.67484],[-39.8526,-6.67427],[-39.85318,-6.67455],[-39.85471,-6.6768],[-39.85624,-6.67807],[-39.85827,-6.67877],[-39.86038,-6.67884],[-39.86125,-6.6794],[-39.86372,-6.6801],[-39.86459,-6.67953],[-39.86473,-6.67686],[-39.86596,-6.67629],[-39.86727,-6.67784],[-39.86988,-6.67917],[-39.87337,-6.67962],[-39.8754,-6.67959],[-39.87634,-6.68057],[-39.87707,-6.67958],[-39.87641,-6.67712],[-39.87721,-6.67606],[-39.87706,-6.67543],[-39.87394,-6.67338],[-39.87174,-6.67059],[-39.87197,-6.66992],[-39.87508,-6.67067],[-39.8778,-6.67211],[-39.87867,-6.67325],[-39.8796,-6.67356],[-39.88278,-6.67538],[-39.88378,-6.67591],[-39.88528,-6.67762],[-39.88605,-6.67755],[-39.88966,-6.67978],[-39.89415,-6.68192],[-39.89473,-6.68261],[-39.8966,-6.68309],[-39.89696,-6.68374],[-39.89828,-6.68443],[-39.8991,-6.68411],[-39.90179,-6.68465],[-39.90169,-6.68569],[-39.90233,-6.687],[-39.9024,-6.68821],[-39.90428,-6.6874],[-39.90503,-6.6884],[-39.90782,-6.68831],[-39.90908,-6.68876],[-39.91123,-6.68829],[-39.91265,-6.68955],[-39.91334,-6.6887],[-39.91465,-6.68967],[-39.91579,-6.69009],[-39.91556,-6.69192],[-39.91575,-6.69267],[-39.91673,-6.69283],[-39.91906,-6.69481],[-39.92369,-6.69788],[-39.92428,-6.69691],[-39.92515,-6.69627],[-39.92605,-6.69665],[-39.92628,-6.69736],[-39.9286,-6.69884],[-39.92873,-6.69826],[-39.93022,-6.69779],[-39.93097,-6.6981],[-39.93234,-6.69993],[-39.93289,-6.70155],[-39.93473,-6.70202],[-39.93508,-6.70359],[-39.9342,-6.70377],[-39.93476,-6.70504],[-39.93464,-6.70664],[-39.93594,-6.70761],[-39.93773,-6.70767],[-39.93827,-6.70842],[-39.93868,-6.71036],[-39.93974,-6.71204],[-39.94099,-6.71272],[-39.94167,-6.71263],[-39.94261,-6.71147],[-39.94193,-6.7101],[-39.94312,-6.70932],[-39.94343,-6.70799],[-39.94499,-6.70837],[-39.94619,-6.70693],[-39.94719,-6.70771],[-39.9479,-6.70757],[-39.94992,-6.70598],[-39.94966,-6.70525],[-39.95062,-6.70456],[-39.95169,-6.70518],[-39.95247,-6.70409],[-39.95413,-6.70403],[-39.95527,-6.70297],[-39.95679,-6.70198],[-39.95829,-6.70213],[-39.95948,-6.7012],[-39.9617,-6.70183],[-39.96289,-6.70175],[-39.96334,-6.7026],[-39.9646,-6.70369],[-39.96266,-6.70682],[-39.96291,-6.70848],[-39.9625,-6.70905],[-39.96354,-6.71128],[-39.9616,-6.71449],[-39.96148,-6.71709],[-39.95978,-6.71794],[-39.95922,-6.71884],[-39.95812,-6.71912],[-39.95831,-6.72003],[-39.9603,-6.72113],[-39.9599,-6.72344],[-39.96035,-6.7249],[-39.96124,-6.72579],[-39.96169,-6.727],[-39.96173,-6.72895],[-39.96046,-6.73112],[-39.96078,-6.73165],[-39.96249,-6.73201],[-39.96286,-6.7327],[-39.96241,-6.73469],[-39.9631,-6.73614],[-39.96311,-6.73687],[-39.96092,-6.7381],[-39.95997,-6.73962],[-39.959,-6.74015],[-39.95847,-6.74165],[-39.95945,-6.74246],[-39.96026,-6.7444],[-39.9616,-6.74464],[-39.96485,-6.74601],[-39.96872,-6.7483],[-39.97168,-6.74846],[-39.97253,-6.7487],[-39.97294,-6.74979],[-39.97258,-6.75133],[-39.97088,-6.75304],[-39.97108,-6.75369],[-39.9722,-6.75399],[-39.97333,-6.75488],[-39.97475,-6.75471],[-39.97581,-6.75605],[-39.97731,-6.75662],[-39.97784,-6.75714],[-39.97754,-6.75852],[-39.9765,-6.76075],[-39.97576,-6.76107],[-39.97475,-6.76298],[-39.97188,-6.76439],[-39.97127,-6.765],[-39.97158,-6.7678],[-39.97067,-6.76858],[-39.96921,-6.76909],[-39.96946,-6.77066],[-39.96857,-6.77199],[-39.96857,-6.77312],[-39.96985,-6.77533],[-39.96969,-6.77653],[-39.97003,-6.77822],[-39.96507,-6.78082],[-39.96163,-6.78165],[-39.9591,-6.78168],[-39.95677,-6.78232],[-39.95176,-6.78198],[-39.94967,-6.78226],[-39.94473,-6.78129],[-39.94258,-6.78157],[-39.94055,-6.78277],[-39.93998,-6.78393]]]},"properties":{"codigo":"230080410","name":"Taboleiro","population":648,"households":314,"areaKm2":101.7429,"density":6.4}}]}