{"type":"FeatureCollection","features":[{"type":"Feature","geometry":{"type":"Polygon","coordinates":[[[-39.30232,-7.31462],[-39.30293,-7.31172],[-39.30443,-7.31204],[-39.30461,-7.31111],[-39.30545,-7.31168],[-39.30615,-7.31099],[-39.30687,-7.31166],[-39.30747,-7.31174],[-39.30612,-7.31313],[-39.30827,-7.31357],[-39.30785,-7.31556],[-39.30711,-7.31861],[-39.3065,-7.3206],[-39.30568,-7.31841],[-39.30456,-7.31824],[-39.30397,-7.31775],[-39.30356,-7.31712],[-39.3038,-7.31666],[-39.30341,-7.31553],[-39.30282,-7.31488],[-39.30232,-7.31462]]]},"properties":{"codigo":"2301901002","name":"Rosário","population":2224,"households":899,"areaKm2":0.3789,"density":5868.9}},{"type":"Feature","geometry":{"type":"Polygon","coordinates":[[[-39.34179,-7.26501],[-39.34344,-7.26535],[-39.34239,-7.27537],[-39.34497,-7.27653],[-39.34456,-7.27738],[-39.34405,-7.27806],[-39.34395,-7.27855],[-39.34339,-7.27921],[-39.34272,-7.28037],[-39.34267,-7.28076],[-39.34058,-7.28267],[-39.33688,-7.28469],[-39.33594,-7.28542],[-39.33583,-7.28713],[-39.33515,-7.29341],[-39.33443,-7.29265],[-39.3344,-7.29202],[-39.33402,-7.29107],[-39.33307,-7.29095],[-39.33332,-7.28868],[-39.32917,-7.28778],[-39.32944,-7.28608],[-39.33041,-7.27698],[-39.33176,-7.2648],[-39.33194,-7.26309],[-39.33317,-7.26332],[-39.33562,-7.26383],[-39.34179,-7.26501]]]},"properties":{"codigo":"2301901017","name":"Novo Araçás","population":1799,"households":827,"areaKm2":3.3736,"density":533.3}},{"type":"Feature","geometry":{"type":"Polygon","coordinates":[[[-39.29894,-7.31029],[-39.29805,-7.31153],[-39.29438,-7.31587],[-39.29376,-7.31542],[-39.29146,-7.3101],[-39.28973,-7.3056],[-39.28822,-7.30123],[-39.28695,-7.29775],[-39.28721,-7.29737],[-39.28665,-7.29711],[-39.2867,-7.29474],[-39.28585,-7.28849],[-39.28593,-7.28796],[-39.28643,-7.2888],[-39.28768,-7.2891],[-39.28881,-7.28893],[-39.28918,-7.28926],[-39.2893,-7.28999],[-39.28917,-7.29043],[-39.28953,-7.29098],[-39.29043,-7.29088],[-39.29112,-7.29038],[-39.29204,-7.29139],[-39.29194,-7.29218],[-39.29298,-7.29263],[-39.29373,-7.29316],[-39.29386,-7.2936],[-39.29443,-7.2943],[-39.29492,-7.29413],[-39.29526,-7.29521],[-39.29497,-7.29555],[-39.29482,-7.29656],[-39.29532,-7.29745],[-39.2959,-7.29763],[-39.29615,-7.29799],[-39.29587,-7.29864],[-39.2962,-7.29896],[-39.29729,-7.299],[-39.29772,-7.29938],[-39.29867,-7.29964],[-39.29888,-7.29928],[-39.29937,-7.29952],[-39.30023,-7.30048],[-39.30123,-7.30093],[-39.3017,-7.30052],[-39.30237,-7.30079],[-39.3027,-7.30116],[-39.30243,-7.30172],[-39.30294,-7.30212],[-39.30369,-7.30181],[-39.30404,-7.30193],[-39.3044,-7.30281],[-39.30422,-7.30353],[-39.3038,-7.30367],[-39.30252,-7.30412],[-39.30138,-7.30537],[-39.301,-7.30598],[-39.30097,-7.30641],[-39.30027,-7.30768],[-39.29896,-7.30984],[-39.29894,-7.31029]]]},"properties":{"codigo":"2301901007","name":"Alto da Alegria","population":4675,"households":1748,"areaKm2":2.734,"density":1710}},{"type":"Feature","geometry":{"type":"Polygon","coordinates":[[[-39.3065,-7.3206],[-39.30705,-7.32063],[-39.30715,-7.32133],[-39.30853,-7.32198],[-39.30924,-7.32281],[-39.3104,-7.32316],[-39.31088,-7.32367],[-39.31074,-7.32403],[-39.311,-7.3245],[-39.30892,-7.33393],[-39.30685,-7.33211],[-39.30494,-7.33079],[-39.30406,-7.33003],[-39.30346,-7.32859],[-39.30312,-7.32806],[-39.30213,-7.32702],[-39.30181,-7.32645],[-39.30129,-7.32433],[-39.30109,-7.3234],[-39.30052,-7.32296],[-39.29965,-7.32257],[-39.2994,-7.32305],[-39.29836,-7.32252],[-39.30023,-7.31909],[-39.30089,-7.31777],[-39.30168,-7.31648],[-39.30192,-7.31643],[-39.30232,-7.31462],[-39.30282,-7.31488],[-39.30341,-7.31553],[-39.3038,-7.31666],[-39.30356,-7.31712],[-39.30397,-7.31775],[-39.30456,-7.31824],[-39.30568,-7.31841],[-39.3065,-7.3206]]]},"properties":{"codigo":"2301901004","name":"Santo Antônio","population":2539,"households":990,"areaKm2":1.3643,"density":1861}},{"type":"Feature","geometry":{"type":"Polygon","coordinates":[[[-39.29438,-7.31587],[-39.29518,-7.31638],[-39.29286,-7.31958],[-39.2929,-7.31971],[-39.29086,-7.32264],[-39.29073,-7.32266],[-39.28716,-7.32935],[-39.28605,-7.3254],[-39.28149,-7.30774],[-39.28125,-7.30144],[-39.28074,-7.29819],[-39.27849,-7.29827],[-39.2755,-7.29843],[-39.27561,-7.29646],[-39.27541,-7.29562],[-39.26987,-7.29576],[-39.26879,-7.29592],[-39.26707,-7.29641],[-39.2662,-7.2969],[-39.26582,-7.29638],[-39.2637,-7.2912],[-39.26309,-7.28979],[-39.26383,-7.28965],[-39.26395,-7.28876],[-39.26342,-7.28819],[-39.26367,-7.28758],[-39.26403,-7.28779],[-39.2643,-7.28857],[-39.26518,-7.28838],[-39.26518,-7.28771],[-39.26544,-7.2873],[-39.26598,-7.2872],[-39.26783,-7.28771],[-39.26843,-7.28768],[-39.2691,-7.28789],[-39.27055,-7.28736],[-39.27124,-7.28855],[-39.27101,-7.28981],[-39.27156,-7.29026],[-39.27254,-7.28994],[-39.27331,-7.28923],[-39.27393,-7.28896],[-39.27451,-7.28914],[-39.27466,-7.28972],[-39.2751,-7.28997],[-39.27549,-7.28974],[-39.27625,-7.28886],[-39.27659,-7.28782],[-39.2763,-7.28671],[-39.27663,-7.28649],[-39.27742,-7.28667],[-39.27763,-7.28783],[-39.27856,-7.28835],[-39.27879,-7.28884],[-39.27944,-7.2893],[-39.27926,-7.29001],[-39.27942,-7.29039],[-39.28051,-7.29054],[-39.28094,-7.29078],[-39.2815,-7.29032],[-39.28208,-7.28957],[-39.28205,-7.28878],[-39.28317,-7.28903],[-39.28344,-7.28926],[-39.28434,-7.28902],[-39.2854,-7.28718],[-39.28593,-7.28796],[-39.28585,-7.28849],[-39.2867,-7.29474],[-39.28665,-7.29711],[-39.28721,-7.29737],[-39.28695,-7.29775],[-39.28822,-7.30123],[-39.28973,-7.3056],[-39.29146,-7.3101],[-39.29376,-7.31542],[-39.29438,-7.31587]]]},"properties":{"codigo":"2301901010","name":"Buriti","population":2893,"households":1059,"areaKm2":5.0697,"density":570.6}},{"type":"Feature","geometry":{"type":"Polygon","coordinates":[[[-39.32917,-7.28778],[-39.31988,-7.30462],[-39.31871,-7.30412],[-39.31702,-7.30446],[-39.31614,-7.30388],[-39.31544,-7.30289],[-39.31398,-7.30118],[-39.31271,-7.30056],[-39.31026,-7.305],[-39.30893,-7.30609],[-39.30758,-7.30885],[-39.30722,-7.30966],[-39.30688,-7.3093],[-39.3074,-7.3088],[-39.30831,-7.30675],[-39.30889,-7.30589],[-39.30998,-7.30504],[-39.31058,-7.30411],[-39.31114,-7.30302],[-39.31182,-7.30141],[-39.31239,-7.30027],[-39.31129,-7.29942],[-39.31024,-7.29779],[-39.30933,-7.29664],[-39.30905,-7.29558],[-39.30877,-7.29507],[-39.30766,-7.29431],[-39.30655,-7.29341],[-39.3076,-7.28946],[-39.30792,-7.28849],[-39.30893,-7.28408],[-39.30967,-7.28086],[-39.31162,-7.28184],[-39.31221,-7.28043],[-39.31519,-7.2818],[-39.32072,-7.28466],[-39.32156,-7.28303],[-39.32642,-7.28554],[-39.32731,-7.28606],[-39.32917,-7.28778]]]},"properties":{"codigo":"2301901008","name":"Bulandeira","population":3518,"households":1444,"areaKm2":4.0719,"density":864}},{"type":"Feature","geometry":{"type":"Polygon","coordinates":[[[-39.30967,-7.28086],[-39.31385,-7.26253],[-39.31077,-7.26114],[-39.31105,-7.26074],[-39.3168,-7.26076],[-39.31819,-7.26078],[-39.32006,-7.26066],[-39.31922,-7.26262],[-39.3205,-7.2626],[-39.32204,-7.26281],[-39.32217,-7.26293],[-39.32441,-7.26305],[-39.32441,-7.26728],[-39.32216,-7.26626],[-39.32214,-7.27839],[-39.32215,-7.2803],[-39.32203,-7.28179],[-39.32156,-7.28303],[-39.32072,-7.28466],[-39.31519,-7.2818],[-39.31221,-7.28043],[-39.31162,-7.28184],[-39.30967,-7.28086]]]},"properties":{"codigo":"2301901015","name":"Mata dos Dudas","population":3020,"households":1202,"areaKm2":2.8154,"density":1072.7}},{"type":"Feature","geometry":{"type":"Polygon","coordinates":[[[-39.30747,-7.31174],[-39.30773,-7.31136],[-39.3078,-7.31045],[-39.30719,-7.3102],[-39.30722,-7.30966],[-39.30758,-7.30885],[-39.3083,-7.30878],[-39.30898,-7.30942],[-39.31039,-7.31001],[-39.31107,-7.31039],[-39.31197,-7.31161],[-39.31293,-7.31194],[-39.31233,-7.31429],[-39.30936,-7.31387],[-39.30827,-7.31357],[-39.30612,-7.31313],[-39.30747,-7.31174]]]},"properties":{"codigo":"2301901003","name":"Tupinambá","population":191,"households":68,"areaKm2":0.2567,"density":743.9}},{"type":"Feature","geometry":{"type":"Polygon","coordinates":[[[-39.30827,-7.31357],[-39.30936,-7.31387],[-39.31233,-7.31429],[-39.311,-7.3245],[-39.31074,-7.32403],[-39.31088,-7.32367],[-39.3104,-7.32316],[-39.30924,-7.32281],[-39.30853,-7.32198],[-39.30715,-7.32133],[-39.30705,-7.32063],[-39.3065,-7.3206],[-39.30711,-7.31861],[-39.30785,-7.31556],[-39.30827,-7.31357]]]},"properties":{"codigo":"2301901014","name":"Alto do Rosário","population":921,"households":325,"areaKm2":0.4677,"density":1969.2}},{"type":"Feature","geometry":{"type":"Polygon","coordinates":[[[-39.29894,-7.31029],[-39.29908,-7.31133],[-39.29937,-7.31199],[-39.30002,-7.3129],[-39.30018,-7.31356],[-39.30058,-7.31407],[-39.30232,-7.31462],[-39.30192,-7.31643],[-39.30168,-7.31648],[-39.30089,-7.31777],[-39.29761,-7.31705],[-39.29518,-7.31638],[-39.29438,-7.31587],[-39.29805,-7.31153],[-39.29894,-7.31029]]]},"properties":{"codigo":"2301901005","name":"Nossa Senhora de Fátima","population":1433,"households":547,"areaKm2":0.3511,"density":4080.9}},{"type":"Feature","geometry":{"type":"Polygon","coordinates":[[[-39.32917,-7.28778],[-39.32731,-7.28606],[-39.32642,-7.28554],[-39.32156,-7.28303],[-39.32203,-7.28179],[-39.32215,-7.2803],[-39.32214,-7.27839],[-39.32216,-7.26626],[-39.32441,-7.26728],[-39.32441,-7.26305],[-39.32648,-7.26309],[-39.32652,-7.26202],[-39.33194,-7.26309],[-39.33176,-7.2648],[-39.33041,-7.27698],[-39.32944,-7.28608],[-39.32917,-7.28778]]]},"properties":{"codigo":"2301901009","name":"Mata dos Limas","population":3726,"households":1342,"areaKm2":2.2705,"density":1641}},{"type":"Feature","geometry":{"type":"Polygon","coordinates":[[[-39.30213,-7.32702],[-39.30159,-7.32775],[-39.30106,-7.32775],[-39.30035,-7.32748],[-39.29915,-7.32657],[-39.30003,-7.325],[-39.30129,-7.32433],[-39.30181,-7.32645],[-39.30213,-7.32702]]]},"properties":{"codigo":"2301901018","name":"Conjunto Nassau","population":807,"households":374,"areaKm2":0.0728,"density":11087.5}},{"type":"Feature","geometry":{"type":"Polygon","coordinates":[[[-39.30893,-7.28408],[-39.29676,-7.27909],[-39.29836,-7.27361],[-39.29966,-7.26938],[-39.30081,-7.26549],[-39.30185,-7.26181],[-39.305,-7.26183],[-39.30706,-7.2614],[-39.31055,-7.26156],[-39.31077,-7.26114],[-39.31385,-7.26253],[-39.30967,-7.28086],[-39.30893,-7.28408]]]},"properties":{"codigo":"2301901016","name":"Cidade Kariris","population":1148,"households":371,"areaKm2":3.1094,"density":369.2}},{"type":"Feature","geometry":{"type":"Polygon","coordinates":[[[-39.29086,-7.32264],[-39.29255,-7.32471],[-39.29306,-7.32544],[-39.29504,-7.32629],[-39.29572,-7.32648],[-39.29695,-7.32857],[-39.2972,-7.32924],[-39.2976,-7.32964],[-39.29837,-7.33001],[-39.29837,-7.33081],[-39.29872,-7.3316],[-39.298,-7.33241],[-39.29402,-7.33127],[-39.28811,-7.33001],[-39.28656,-7.32963],[-39.28716,-7.32935],[-39.29073,-7.32266],[-39.29086,-7.32264]]]},"properties":{"codigo":"2301901012","name":"Santo André","population":2607,"households":993,"areaKm2":0.6676,"density":3905.3}},{"type":"Feature","geometry":{"type":"Polygon","coordinates":[[[-39.29836,-7.32252],[-39.29821,-7.32245],[-39.29614,-7.32638],[-39.29572,-7.32648],[-39.29504,-7.32629],[-39.29306,-7.32544],[-39.29255,-7.32471],[-39.29086,-7.32264],[-39.2929,-7.31971],[-39.29286,-7.31958],[-39.29518,-7.31638],[-39.29761,-7.31705],[-39.30089,-7.31777],[-39.30023,-7.31909],[-39.29836,-7.32252]]]},"properties":{"codigo":"2301901013","name":"Cirolândia","population":5758,"households":2083,"areaKm2":0.6889,"density":8358.4}},{"type":"Feature","geometry":{"type":"Polygon","coordinates":[[[-39.30892,-7.33393],[-39.30877,-7.33503],[-39.29892,-7.33268],[-39.298,-7.33241],[-39.29872,-7.3316],[-39.29837,-7.33081],[-39.29837,-7.33001],[-39.2976,-7.32964],[-39.2972,-7.32924],[-39.29695,-7.32857],[-39.29572,-7.32648],[-39.29614,-7.32638],[-39.29821,-7.32245],[-39.29836,-7.32252],[-39.2994,-7.32305],[-39.29965,-7.32257],[-39.30052,-7.32296],[-39.30109,-7.3234],[-39.30129,-7.32433],[-39.30003,-7.325],[-39.29915,-7.32657],[-39.30035,-7.32748],[-39.30106,-7.32775],[-39.30159,-7.32775],[-39.30213,-7.32702],[-39.30312,-7.32806],[-39.30346,-7.32859],[-39.30406,-7.33003],[-39.30494,-7.33079],[-39.30685,-7.33211],[-39.30892,-7.33393]]]},"properties":{"codigo":"2301901006","name":"Bela Vista","population":2868,"households":1111,"areaKm2":0.7652,"density":3748}},{"type":"Feature","geometry":{"type":"Polygon","coordinates":[[[-39.28716,-7.32935],[-39.28532,-7.32571],[-39.27864,-7.31152],[-39.2759,-7.31499],[-39.2752,-7.31592],[-39.27339,-7.31485],[-39.27024,-7.31277],[-39.26983,-7.31176],[-39.26935,-7.30975],[-39.26824,-7.30558],[-39.2657,-7.29867],[-39.2655,-7.29822],[-39.26581,-7.29745],[-39.2662,-7.2969],[-39.26707,-7.29641],[-39.26879,-7.29592],[-39.26987,-7.29576],[-39.27541,-7.29562],[-39.27561,-7.29646],[-39.2755,-7.29843],[-39.27849,-7.29827],[-39.28074,-7.29819],[-39.28125,-7.30144],[-39.28149,-7.30774],[-39.28605,-7.3254],[-39.28716,-7.32935]]]},"properties":{"codigo":"2301901011","name":"Malvinas","population":5755,"households":2107,"areaKm2":3.1664,"density":1817.5}},{"type":"Feature","geometry":{"type":"Polygon","coordinates":[[[-39.30232,-7.31462],[-39.30058,-7.31407],[-39.30018,-7.31356],[-39.30002,-7.3129],[-39.29937,-7.31199],[-39.29908,-7.31133],[-39.29894,-7.31029],[-39.29896,-7.30984],[-39.30027,-7.30768],[-39.30097,-7.30641],[-39.301,-7.30598],[-39.30138,-7.30537],[-39.30252,-7.30412],[-39.3038,-7.30367],[-39.3039,-7.30409],[-39.3053,-7.30362],[-39.30559,-7.30437],[-39.30537,-7.30548],[-39.30495,-7.30562],[-39.30532,-7.30698],[-39.30568,-7.30782],[-39.30619,-7.30843],[-39.3074,-7.3088],[-39.30688,-7.3093],[-39.30722,-7.30966],[-39.30719,-7.3102],[-39.3078,-7.31045],[-39.30773,-7.31136],[-39.30747,-7.31174],[-39.30687,-7.31166],[-39.30615,-7.31099],[-39.30545,-7.31168],[-39.30461,-7.31111],[-39.30443,-7.31204],[-39.30293,-7.31172],[-39.30232,-7.31462]]]},"properties":{"codigo":"2301901001","name":"Centro","population":2954,"households":1385,"areaKm2":0.6471,"density":4564.7}}]}