{"type":"FeatureCollection","features":[{"type":"Feature","geometry":{"type":"Polygon","coordinates":[[[-38.94973,-6.93716],[-38.94931,-6.93778],[-38.95377,-6.94426],[-38.95413,-6.94859],[-38.95323,-6.94853],[-38.95244,-6.94821],[-38.94974,-6.94622],[-38.94889,-6.94581],[-38.94793,-6.94561],[-38.94651,-6.94547],[-38.9459,-6.94583],[-38.94575,-6.94619],[-38.94428,-6.94561],[-38.94367,-6.94016],[-38.94644,-6.93306],[-38.94908,-6.93662],[-38.94973,-6.93716]]]},"properties":{"codigo":"2301703008","name":"José Freire do Amaral","population":275,"households":127,"areaKm2":1.0269,"density":267.8}},{"type":"Feature","geometry":{"type":"Polygon","coordinates":[[[-38.966,-6.94498],[-38.96565,-6.94823],[-38.96561,-6.94991],[-38.96573,-6.95192],[-38.96514,-6.95198],[-38.96495,-6.95356],[-38.96503,-6.95622],[-38.96317,-6.95584],[-38.96295,-6.95427],[-38.96267,-6.95135],[-38.96193,-6.94885],[-38.96395,-6.94859],[-38.96333,-6.94684],[-38.96474,-6.94629],[-38.96522,-6.94558],[-38.96505,-6.94474],[-38.966,-6.94498]]]},"properties":{"codigo":"2301703009","name":"São Benedito","population":1323,"households":568,"areaKm2":0.3079,"density":4297.2}},{"type":"Feature","geometry":{"type":"Polygon","coordinates":[[[-38.96505,-6.94474],[-38.96428,-6.94381],[-38.96396,-6.94353],[-38.96302,-6.94132],[-38.96543,-6.9409],[-38.96529,-6.94034],[-38.96573,-6.94025],[-38.96545,-6.93904],[-38.96636,-6.93938],[-38.96895,-6.94015],[-38.96959,-6.94035],[-38.97005,-6.94072],[-38.97037,-6.94142],[-38.9703,-6.94308],[-38.97028,-6.94354],[-38.9691,-6.94374],[-38.96638,-6.94446],[-38.966,-6.94498],[-38.96505,-6.94474]]]},"properties":{"codigo":"2301703001","name":"Centro","population":1734,"households":824,"areaKm2":0.3195,"density":5427.9}},{"type":"Feature","geometry":{"type":"Polygon","coordinates":[[[-38.96302,-6.94132],[-38.96244,-6.93896],[-38.96198,-6.93794],[-38.96171,-6.93655],[-38.96234,-6.93595],[-38.96266,-6.93526],[-38.96258,-6.93315],[-38.96918,-6.93313],[-38.96914,-6.9349],[-38.96901,-6.93684],[-38.96895,-6.94015],[-38.96636,-6.93938],[-38.96545,-6.93904],[-38.96573,-6.94025],[-38.96529,-6.94034],[-38.96543,-6.9409],[-38.96302,-6.94132]]]},"properties":{"codigo":"2301703006","name":"José Leite Figueiredo (Zezé da Cruz)","population":424,"households":182,"areaKm2":0.5842,"density":725.8}},{"type":"Feature","geometry":{"type":"Polygon","coordinates":[[[-38.94644,-6.93306],[-38.94578,-6.93213],[-38.96258,-6.93315],[-38.96266,-6.93526],[-38.96234,-6.93595],[-38.96171,-6.93655],[-38.96198,-6.93794],[-38.96244,-6.93896],[-38.96302,-6.94132],[-38.96396,-6.94353],[-38.96428,-6.94381],[-38.96227,-6.94422],[-38.96077,-6.94432],[-38.96075,-6.94472],[-38.95996,-6.9458],[-38.95695,-6.94604],[-38.95681,-6.94384],[-38.95626,-6.94378],[-38.95678,-6.94298],[-38.95455,-6.94116],[-38.95072,-6.93794],[-38.94973,-6.93716],[-38.94908,-6.93662],[-38.94644,-6.93306]]]},"properties":{"codigo":"2301703007","name":"Vila Paulo Gonçalves","population":751,"households":307,"areaKm2":1.6622,"density":451.8}},{"type":"Feature","geometry":{"type":"Polygon","coordinates":[[[-38.966,-6.94498],[-38.96638,-6.94446],[-38.9691,-6.94374],[-38.97028,-6.94354],[-38.97038,-6.94503],[-38.97057,-6.94564],[-38.97081,-6.94753],[-38.971,-6.94789],[-38.97087,-6.94882],[-38.97041,-6.94972],[-38.97054,-6.95059],[-38.97105,-6.95298],[-38.97133,-6.95404],[-38.97249,-6.95659],[-38.97258,-6.95719],[-38.96991,-6.9598],[-38.96809,-6.95952],[-38.96778,-6.9582],[-38.96893,-6.95312],[-38.96742,-6.95288],[-38.96615,-6.95199],[-38.96573,-6.95192],[-38.96561,-6.94991],[-38.96565,-6.94823],[-38.966,-6.94498]]]},"properties":{"codigo":"2301703002","name":"José Fernandes Campos","population":1549,"households":635,"areaKm2":0.8019,"density":1931.6}},{"type":"Feature","geometry":{"type":"Polygon","coordinates":[[[-38.9703,-6.94308],[-38.97292,-6.94305],[-38.97632,-6.94294],[-38.98068,-6.94236],[-38.98299,-6.94222],[-38.98379,-6.94172],[-38.98114,-6.94914],[-38.97258,-6.95719],[-38.97249,-6.95659],[-38.97133,-6.95404],[-38.97105,-6.95298],[-38.97054,-6.95059],[-38.97041,-6.94972],[-38.97087,-6.94882],[-38.971,-6.94789],[-38.97081,-6.94753],[-38.97057,-6.94564],[-38.97038,-6.94503],[-38.97028,-6.94354],[-38.9703,-6.94308]]]},"properties":{"codigo":"2301703004","name":"Recreio","population":1559,"households":633,"areaKm2":1.4646,"density":1064.5}},{"type":"Feature","geometry":{"type":"Polygon","coordinates":[[[-38.96573,-6.95192],[-38.96615,-6.95199],[-38.96742,-6.95288],[-38.96893,-6.95312],[-38.96778,-6.9582],[-38.96809,-6.95952],[-38.96807,-6.96029],[-38.96512,-6.95822],[-38.96494,-6.95979],[-38.96296,-6.95935],[-38.96244,-6.95898],[-38.96254,-6.95837],[-38.96077,-6.95794],[-38.96156,-6.95712],[-38.96244,-6.95589],[-38.96317,-6.95584],[-38.96503,-6.95622],[-38.96495,-6.95356],[-38.96514,-6.95198],[-38.96573,-6.95192]]]},"properties":{"codigo":"2301703003","name":"Mororó","population":474,"households":186,"areaKm2":0.4092,"density":1158.4}},{"type":"Feature","geometry":{"type":"Polygon","coordinates":[[[-38.96895,-6.94015],[-38.96901,-6.93684],[-38.96914,-6.9349],[-38.96918,-6.93313],[-38.97702,-6.93348],[-38.97822,-6.93384],[-38.98087,-6.93494],[-38.98258,-6.93595],[-38.98379,-6.94172],[-38.98299,-6.94222],[-38.98068,-6.94236],[-38.97632,-6.94294],[-38.97292,-6.94305],[-38.9703,-6.94308],[-38.97037,-6.94142],[-38.97005,-6.94072],[-38.96959,-6.94035],[-38.96895,-6.94015]]]},"properties":{"codigo":"2301703005","name":"Araçá","population":3047,"households":1308,"areaKm2":1.496,"density":2036.8}}]}