{"type":"FeatureCollection","features":[{"type":"Feature","geometry":{"type":"Polygon","coordinates":[[[-41.2609,-3.05384],[-41.26075,-3.05549],[-41.25846,-3.05863],[-41.25949,-3.06082],[-41.25925,-3.06229],[-41.25944,-3.06415],[-41.26029,-3.06568],[-41.2605,-3.06736],[-41.25875,-3.06925],[-41.25673,-3.07019],[-41.25595,-3.07138],[-41.25679,-3.07234],[-41.25663,-3.07309],[-41.25778,-3.07599],[-41.25745,-3.07653],[-41.25527,-3.07811],[-41.25497,-3.07987],[-41.25572,-3.08217],[-41.25577,-3.08758],[-41.25647,-3.08819],[-41.2583,-3.08824],[-41.25939,-3.08975],[-41.26126,-3.09091],[-41.26221,-3.09075],[-41.26382,-3.09109],[-41.26457,-3.09172],[-41.26592,-3.09188],[-41.26782,-3.09317],[-41.26814,-3.0948],[-41.26793,-3.09628],[-41.26811,-3.09719],[-41.27186,-3.10014],[-41.27301,-3.09953],[-41.27519,-3.10023],[-41.27613,-3.10131],[-41.28,-3.10176],[-41.28179,-3.10144],[-41.28276,-3.1016],[-41.28367,-3.10122],[-41.28506,-3.10151],[-41.2857,-3.1024],[-41.28505,-3.10391],[-41.28385,-3.1048],[-41.28362,-3.10636],[-41.28356,-3.10924],[-41.28452,-3.10949],[-41.28561,-3.11026],[-41.28571,-3.11141],[-41.28488,-3.11262],[-41.28514,-3.11369],[-41.28637,-3.11455],[-41.28738,-3.11426],[-41.28894,-3.11588],[-41.289,-3.11701],[-41.28954,-3.11761],[-41.2911,-3.11696],[-41.2923,-3.11676],[-41.29323,-3.11718],[-41.29295,-3.11898],[-41.29321,-3.11968],[-41.29425,-3.12048],[-41.29356,-3.12171],[-41.29373,-3.1224],[-41.29748,-3.12347],[-41.29827,-3.12486],[-41.2978,-3.12595],[-41.29915,-3.12796],[-41.23895,-3.12354],[-41.18101,-3.10328],[-41.16947,-3.0993],[-41.17032,-3.09736],[-41.1688,-3.09099],[-41.1689,-3.08989],[-41.17176,-3.0859],[-41.17175,-3.08456],[-41.17098,-3.08246],[-41.16864,-3.07957],[-41.15938,-3.07406],[-41.15782,-3.07224],[-41.15762,-3.07096],[-41.16097,-3.06571],[-41.16349,-3.06006],[-41.16693,-3.05528],[-41.16841,-3.05374],[-41.17102,-3.05164],[-41.17277,-3.05072],[-41.18019,-3.04755],[-41.18059,-3.0417],[-41.18328,-3.04376],[-41.18476,-3.04441],[-41.18922,-3.0442],[-41.18922,-3.04316],[-41.18801,-3.03885],[-41.18611,-3.03016],[-41.186,-3.02167],[-41.18822,-3.02197],[-41.18868,-3.02081],[-41.19235,-3.00443],[-41.19345,-2.99839],[-41.2268,-2.98225],[-41.24788,-2.97205],[-41.2697,-2.97176],[-41.27154,-2.97067],[-41.27078,-2.97125],[-41.27056,-2.97252],[-41.27049,-2.98063],[-41.26948,-2.98238],[-41.26782,-2.98688],[-41.2652,-2.99163],[-41.26252,-2.99591],[-41.25795,-3.00277],[-41.25776,-3.00614],[-41.25678,-3.01541],[-41.25484,-3.02129],[-41.2537,-3.02332],[-41.25256,-3.02436],[-41.25105,-3.02435],[-41.24954,-3.02481],[-41.24813,-3.02589],[-41.24791,-3.02693],[-41.24835,-3.02934],[-41.24917,-3.03085],[-41.25021,-3.03061],[-41.25114,-3.02955],[-41.25241,-3.02967],[-41.25377,-3.03018],[-41.25501,-3.0315],[-41.25494,-3.03355],[-41.25273,-3.03495],[-41.25255,-3.03565],[-41.25298,-3.03665],[-41.25443,-3.0383],[-41.25452,-3.03962],[-41.25493,-3.04079],[-41.25622,-3.04223],[-41.25631,-3.04392],[-41.25675,-3.04515],[-41.2581,-3.04637],[-41.25941,-3.04649],[-41.26037,-3.04738],[-41.26052,-3.04898],[-41.26135,-3.05006],[-41.26119,-3.05136],[-41.2616,-3.0523],[-41.2609,-3.05384]]]},"properties":{"codigo":"230390705","name":"Chaval","population":10370,"households":4127,"areaKm2":141.0653,"density":73.5}},{"type":"Feature","geometry":{"type":"Polygon","coordinates":[[[-41.32249,-3.17979],[-41.32214,-3.17864],[-41.23743,-3.17951],[-41.20656,-3.16047],[-41.16628,-3.13563],[-41.15112,-3.12512],[-41.15444,-3.12274],[-41.15772,-3.12294],[-41.15871,-3.12242],[-41.16208,-3.11349],[-41.16713,-3.108],[-41.1684,-3.10602],[-41.16792,-3.10276],[-41.16842,-3.10071],[-41.16947,-3.0993],[-41.18101,-3.10328],[-41.23895,-3.12354],[-41.29915,-3.12796],[-41.29998,-3.12878],[-41.30254,-3.12997],[-41.30477,-3.13069],[-41.30572,-3.13253],[-41.30731,-3.13369],[-41.30955,-3.13477],[-41.31113,-3.13576],[-41.31219,-3.13754],[-41.31288,-3.13937],[-41.31451,-3.14145],[-41.31618,-3.1423],[-41.31705,-3.14329],[-41.31784,-3.14358],[-41.31882,-3.14482],[-41.31878,-3.14665],[-41.31907,-3.14767],[-41.31888,-3.14956],[-41.3217,-3.1525],[-41.32289,-3.1547],[-41.32278,-3.15541],[-41.32338,-3.15686],[-41.32423,-3.15784],[-41.3263,-3.15926],[-41.32718,-3.15921],[-41.32754,-3.15997],[-41.32728,-3.16092],[-41.32581,-3.16338],[-41.32614,-3.16499],[-41.32616,-3.16751],[-41.32557,-3.17013],[-41.32472,-3.17163],[-41.32531,-3.17267],[-41.32582,-3.17433],[-41.32634,-3.17491],[-41.32614,-3.17581],[-41.32484,-3.17635],[-41.3227,-3.17782],[-41.32235,-3.1783],[-41.32249,-3.17979]]]},"properties":{"codigo":"230390710","name":"Passagem","population":2092,"households":918,"areaKm2":96.1823,"density":21.8}}]}