{"type":"FeatureCollection","features":[{"type":"Feature","geometry":{"type":"Polygon","coordinates":[[[-40.26757,-3.80534],[-40.26485,-3.80935],[-40.26455,-3.80976],[-40.264,-3.80994],[-40.2609,-3.81023],[-40.26077,-3.80867],[-40.26041,-3.80858],[-40.25742,-3.80782],[-40.25736,-3.80612],[-40.25878,-3.8044],[-40.25972,-3.80441],[-40.26032,-3.80427],[-40.26059,-3.80529],[-40.26134,-3.80621],[-40.26233,-3.80611],[-40.26313,-3.80588],[-40.26389,-3.80549],[-40.26466,-3.80486],[-40.26531,-3.8041],[-40.26645,-3.80489],[-40.26659,-3.8047],[-40.26757,-3.80534]]]},"properties":{"codigo":"2304350009","name":"João Jerônimo da Costa","population":1884,"households":720,"areaKm2":0.4443,"density":4240.4}},{"type":"Feature","geometry":{"type":"Polygon","coordinates":[[[-40.26757,-3.80534],[-40.26965,-3.80224],[-40.27088,-3.80048],[-40.27407,-3.79574],[-40.27537,-3.79396],[-40.27633,-3.8105],[-40.26653,-3.81371],[-40.26648,-3.81265],[-40.26633,-3.81213],[-40.26558,-3.8112],[-40.26485,-3.80935],[-40.26757,-3.80534]]]},"properties":{"codigo":"2304350007","name":"José Raimundo de Loiola","population":1517,"households":558,"areaKm2":1.4542,"density":1043.2}},{"type":"Feature","geometry":{"type":"Polygon","coordinates":[[[-40.26238,-3.80201],[-40.26171,-3.80202],[-40.26107,-3.80141],[-40.25963,-3.8029],[-40.25896,-3.80125],[-40.25876,-3.80042],[-40.25923,-3.80032],[-40.26112,-3.79805],[-40.26129,-3.7981],[-40.26402,-3.79874],[-40.2626,-3.80131],[-40.26238,-3.80201]]]},"properties":{"codigo":"2304350003","name":"Francisco Martins Viana","population":2419,"households":945,"areaKm2":0.1646,"density":14698.2}},{"type":"Feature","geometry":{"type":"Polygon","coordinates":[[[-40.26455,-3.80976],[-40.26098,-3.81513],[-40.25866,-3.81851],[-40.26041,-3.80858],[-40.26077,-3.80867],[-40.2609,-3.81023],[-40.264,-3.80994],[-40.26455,-3.80976]]]},"properties":{"codigo":"2304350010","name":"Odorico Paulo Braga","population":3,"households":1,"areaKm2":0.2295,"density":13.1}},{"type":"Feature","geometry":{"type":"Polygon","coordinates":[[[-40.26032,-3.80427],[-40.25963,-3.8029],[-40.26107,-3.80141],[-40.26171,-3.80202],[-40.26238,-3.80201],[-40.26332,-3.80273],[-40.26531,-3.8041],[-40.26466,-3.80486],[-40.26389,-3.80549],[-40.26313,-3.80588],[-40.26233,-3.80611],[-40.26134,-3.80621],[-40.26059,-3.80529],[-40.26032,-3.80427]]]},"properties":{"codigo":"2304350005","name":"Alto Alegre","population":2609,"households":980,"areaKm2":0.1928,"density":13534.3}},{"type":"Feature","geometry":{"type":"Polygon","coordinates":[[[-40.26965,-3.80224],[-40.2667,-3.80034],[-40.26693,-3.79997],[-40.26574,-3.79949],[-40.26568,-3.79907],[-40.26715,-3.79878],[-40.26826,-3.79822],[-40.27179,-3.79566],[-40.27325,-3.79472],[-40.27537,-3.79396],[-40.27407,-3.79574],[-40.27088,-3.80048],[-40.26965,-3.80224]]]},"properties":{"codigo":"2304350013","name":"Gerardo José Dias De Loiola","population":1293,"households":447,"areaKm2":0.3099,"density":4171.6}},{"type":"Feature","geometry":{"type":"Polygon","coordinates":[[[-40.26531,-3.8041],[-40.26332,-3.80273],[-40.26238,-3.80201],[-40.2626,-3.80131],[-40.26402,-3.79874],[-40.26568,-3.79907],[-40.26574,-3.79949],[-40.26693,-3.79997],[-40.2667,-3.80034],[-40.26965,-3.80224],[-40.26757,-3.80534],[-40.26659,-3.8047],[-40.26645,-3.80489],[-40.26531,-3.8041]]]},"properties":{"codigo":"2304350004","name":"Edmundo Rodrigues","population":6008,"households":2145,"areaKm2":0.3153,"density":19054}},{"type":"Feature","geometry":{"type":"Polygon","coordinates":[[[-40.25736,-3.80612],[-40.25672,-3.80532],[-40.25588,-3.80503],[-40.25538,-3.80436],[-40.25423,-3.80355],[-40.25476,-3.80315],[-40.25553,-3.8039],[-40.25624,-3.80397],[-40.25578,-3.8028],[-40.25467,-3.80187],[-40.25407,-3.80207],[-40.25371,-3.80141],[-40.25312,-3.80131],[-40.25307,-3.8009],[-40.25386,-3.80036],[-40.25384,-3.79974],[-40.25492,-3.80018],[-40.25471,-3.79927],[-40.25478,-3.79867],[-40.25443,-3.79858],[-40.25461,-3.79791],[-40.25574,-3.79809],[-40.25522,-3.79699],[-40.25649,-3.79654],[-40.2574,-3.79715],[-40.25776,-3.79747],[-40.25729,-3.79839],[-40.25764,-3.79917],[-40.25844,-3.79988],[-40.25876,-3.80042],[-40.25896,-3.80125],[-40.25963,-3.8029],[-40.26032,-3.80427],[-40.25972,-3.80441],[-40.25878,-3.8044],[-40.25736,-3.80612]]]},"properties":{"codigo":"2304350001","name":"Antonio Ferreira Gomes Martins","population":67,"households":29,"areaKm2":0.4078,"density":164.3}},{"type":"Feature","geometry":{"type":"Polygon","coordinates":[[[-40.25876,-3.80042],[-40.25844,-3.79988],[-40.25764,-3.79917],[-40.25729,-3.79839],[-40.25776,-3.79747],[-40.2574,-3.79715],[-40.25813,-3.79693],[-40.25923,-3.79528],[-40.2615,-3.79699],[-40.26129,-3.7981],[-40.26112,-3.79805],[-40.25923,-3.80032],[-40.25876,-3.80042]]]},"properties":{"codigo":"2304350002","name":"Centro","population":882,"households":386,"areaKm2":0.1507,"density":5853.9}},{"type":"Feature","geometry":{"type":"Polygon","coordinates":[[[-40.26129,-3.7981],[-40.2615,-3.79699],[-40.25923,-3.79528],[-40.2596,-3.79469],[-40.26005,-3.79498],[-40.26167,-3.79384],[-40.2657,-3.79447],[-40.26627,-3.79473],[-40.26611,-3.79718],[-40.26715,-3.79878],[-40.26568,-3.79907],[-40.26402,-3.79874],[-40.26129,-3.7981]]]},"properties":{"codigo":"2304350008","name":"Padre Edson","population":3,"households":2,"areaKm2":0.3125,"density":9.6}}]}