{"type":"FeatureCollection","features":[{"type":"Feature","geometry":{"type":"Polygon","coordinates":[[[-40.89646,-4.39815],[-40.89692,-4.39945],[-40.8975,-4.40033],[-40.89882,-4.40165],[-40.8999,-4.40345],[-40.90043,-4.4062],[-40.90085,-4.40703],[-40.90407,-4.40998],[-40.90609,-4.41168],[-40.90699,-4.41315],[-40.9071,-4.41353],[-40.90591,-4.41334],[-40.90576,-4.41439],[-40.90538,-4.41431],[-40.9054,-4.41591],[-40.90515,-4.41846],[-40.90439,-4.42241],[-40.9097,-4.42614],[-40.90993,-4.4266],[-40.91036,-4.42814],[-40.9106,-4.42868],[-40.91024,-4.43014],[-40.91054,-4.43073],[-40.91134,-4.43141],[-40.91251,-4.4341],[-40.91278,-4.43456],[-40.91488,-4.43388],[-40.91554,-4.43516],[-40.91565,-4.43955],[-40.91367,-4.43913],[-40.88446,-4.42596],[-40.88523,-4.42499],[-40.89419,-4.40354],[-40.89646,-4.39815]]]},"properties":{"codigo":"2304236002","name":"Caroba","population":2208,"households":1014,"areaKm2":6.4845,"density":340.5}},{"type":"Feature","geometry":{"type":"Polygon","coordinates":[[[-40.89646,-4.39815],[-40.89696,-4.39716],[-40.90308,-4.40654],[-40.90372,-4.40742],[-40.9053,-4.40884],[-40.90606,-4.40889],[-40.90683,-4.40869],[-40.90789,-4.40883],[-40.90849,-4.40934],[-40.91009,-4.40835],[-40.9109,-4.40751],[-40.91141,-4.40545],[-40.91202,-4.40472],[-40.91286,-4.40414],[-40.91285,-4.40313],[-40.92322,-4.40196],[-40.92474,-4.4028],[-40.9282,-4.40537],[-40.92711,-4.40887],[-40.9178,-4.43919],[-40.91565,-4.43955],[-40.91554,-4.43516],[-40.91488,-4.43388],[-40.91278,-4.43456],[-40.91251,-4.4341],[-40.91134,-4.43141],[-40.91054,-4.43073],[-40.91024,-4.43014],[-40.9106,-4.42868],[-40.91036,-4.42814],[-40.90993,-4.4266],[-40.9097,-4.42614],[-40.90439,-4.42241],[-40.90515,-4.41846],[-40.9054,-4.41591],[-40.90538,-4.41431],[-40.90576,-4.41439],[-40.90591,-4.41334],[-40.9071,-4.41353],[-40.90699,-4.41315],[-40.90609,-4.41168],[-40.90407,-4.40998],[-40.90085,-4.40703],[-40.90043,-4.4062],[-40.8999,-4.40345],[-40.89882,-4.40165],[-40.8975,-4.40033],[-40.89692,-4.39945],[-40.89646,-4.39815]]]},"properties":{"codigo":"2304236001","name":"Centro","population":3275,"households":1622,"areaKm2":6.5848,"density":497.4}}]}