{"type":"FeatureCollection","features":[{"type":"Feature","geometry":{"type":"Polygon","coordinates":[[[-39.433,-7.22934],[-39.43415,-7.22952],[-39.43448,-7.23009],[-39.43501,-7.22966],[-39.43544,-7.22977],[-39.43634,-7.23033],[-39.43742,-7.23013],[-39.43829,-7.22974],[-39.43864,-7.2302],[-39.43895,-7.23122],[-39.43972,-7.23218],[-39.44034,-7.23268],[-39.44047,-7.23355],[-39.44114,-7.23387],[-39.4416,-7.23369],[-39.44227,-7.23382],[-39.44304,-7.23418],[-39.44329,-7.23464],[-39.44412,-7.23466],[-39.44433,-7.23517],[-39.44397,-7.23547],[-39.4439,-7.23622],[-39.44427,-7.23671],[-39.4437,-7.23705],[-39.44454,-7.23876],[-39.4446,-7.23959],[-39.44617,-7.23966],[-39.44731,-7.24123],[-39.44726,-7.24209],[-39.44767,-7.24227],[-39.44795,-7.24344],[-39.44919,-7.24425],[-39.44936,-7.2448],[-39.44996,-7.24465],[-39.45044,-7.24555],[-39.45034,-7.24632],[-39.45068,-7.24688],[-39.45136,-7.24676],[-39.45205,-7.24713],[-39.45246,-7.24801],[-39.45356,-7.24861],[-39.45343,-7.24969],[-39.45428,-7.25048],[-39.45407,-7.25131],[-39.45433,-7.25167],[-39.45514,-7.25194],[-39.45498,-7.25297],[-39.4559,-7.25346],[-39.45633,-7.25402],[-39.4565,-7.25467],[-39.45743,-7.2561],[-39.45755,-7.25721],[-39.45774,-7.25752],[-39.45845,-7.25783],[-39.45846,-7.25846],[-39.45813,-7.258],[-39.45723,-7.25766],[-39.45666,-7.25721],[-39.45616,-7.25706],[-39.45549,-7.25732],[-39.45264,-7.25714],[-39.4522,-7.25679],[-39.44965,-7.25555],[-39.44862,-7.2528],[-39.44821,-7.25119],[-39.44685,-7.24957],[-39.44603,-7.24902],[-39.44473,-7.24861],[-39.44249,-7.24858],[-39.44288,-7.24442],[-39.443,-7.24305],[-39.44167,-7.2429],[-39.43879,-7.24094],[-39.43768,-7.23919],[-39.4321,-7.23714],[-39.42908,-7.23575],[-39.4295,-7.23415],[-39.43167,-7.23401],[-39.43365,-7.23478],[-39.433,-7.22934]]]},"properties":{"codigo":"2304202021","name":"França Alencar","population":1628,"households":621,"areaKm2":2.6675,"density":610.3}},{"type":"Feature","geometry":{"type":"Polygon","coordinates":[[[-39.3935,-7.21892],[-39.39283,-7.21943],[-39.39253,-7.21936],[-39.39228,-7.22038],[-39.39111,-7.22102],[-39.3904,-7.22096],[-39.39007,-7.22115],[-39.38984,-7.22195],[-39.38894,-7.22163],[-39.38831,-7.22121],[-39.38829,-7.22089],[-39.38775,-7.22029],[-39.38715,-7.2202],[-39.38555,-7.21981],[-39.38475,-7.22021],[-39.38448,-7.22085],[-39.3846,-7.22162],[-39.38421,-7.2221],[-39.38359,-7.22206],[-39.38357,-7.22157],[-39.38273,-7.22137],[-39.38194,-7.22076],[-39.38206,-7.21988],[-39.38284,-7.21965],[-39.38353,-7.21781],[-39.38379,-7.21665],[-39.3848,-7.21573],[-39.3853,-7.2149],[-39.38566,-7.21339],[-39.38602,-7.21298],[-39.38696,-7.2124],[-39.38754,-7.21228],[-39.38802,-7.21258],[-39.38859,-7.21215],[-39.38932,-7.21035],[-39.38894,-7.20895],[-39.3878,-7.20846],[-39.38705,-7.20776],[-39.38668,-7.2062],[-39.38703,-7.20526],[-39.38843,-7.20377],[-39.389,-7.20307],[-39.38834,-7.20226],[-39.38843,-7.20188],[-39.38787,-7.2013],[-39.388,-7.20083],[-39.38894,-7.19979],[-39.38967,-7.1996],[-39.3908,-7.19896],[-39.39181,-7.19871],[-39.39236,-7.19838],[-39.39288,-7.19841],[-39.39386,-7.19905],[-39.39427,-7.19913],[-39.39461,-7.19856],[-39.39515,-7.19845],[-39.39529,-7.19742],[-39.3966,-7.19662],[-39.39655,-7.19566],[-39.39758,-7.19517],[-39.39857,-7.19547],[-39.39904,-7.19505],[-39.39938,-7.19527],[-39.40012,-7.19508],[-39.40064,-7.19564],[-39.40192,-7.1956],[-39.40192,-7.19676],[-39.40137,-7.19852],[-39.40139,-7.19967],[-39.40153,-7.20022],[-39.40102,-7.20093],[-39.40108,-7.20203],[-39.4007,-7.20343],[-39.40031,-7.20893],[-39.40037,-7.21141],[-39.39986,-7.21119],[-39.39911,-7.21127],[-39.39737,-7.21099],[-39.39727,-7.21217],[-39.39667,-7.21261],[-39.39604,-7.21281],[-39.39589,-7.21355],[-39.39515,-7.2143],[-39.39466,-7.21626],[-39.39431,-7.21654],[-39.39374,-7.21774],[-39.3935,-7.21892]]]},"properties":{"codigo":"2304202024","name":"São Bento","population":2783,"households":1108,"areaKm2":3.314,"density":839.8}},{"type":"Feature","geometry":{"type":"Polygon","coordinates":[[[-39.4354,-7.22495],[-39.43576,-7.22518],[-39.43614,-7.22635],[-39.43541,-7.22613],[-39.43348,-7.22642],[-39.43284,-7.22529],[-39.43166,-7.22434],[-39.43055,-7.22561],[-39.43029,-7.22609],[-39.42969,-7.22563],[-39.42896,-7.22598],[-39.42871,-7.22672],[-39.42818,-7.22725],[-39.42684,-7.2277],[-39.42521,-7.22799],[-39.42472,-7.22761],[-39.42484,-7.22695],[-39.42442,-7.22619],[-39.42398,-7.22615],[-39.42269,-7.2255],[-39.42241,-7.22497],[-39.42247,-7.22435],[-39.42215,-7.22371],[-39.42125,-7.22374],[-39.42061,-7.22329],[-39.42014,-7.22322],[-39.41935,-7.22243],[-39.42018,-7.22177],[-39.42108,-7.22167],[-39.42192,-7.22063],[-39.42204,-7.22008],[-39.42267,-7.21955],[-39.42334,-7.21936],[-39.4244,-7.21783],[-39.42506,-7.21762],[-39.42532,-7.21796],[-39.42607,-7.21828],[-39.42675,-7.21786],[-39.42832,-7.21879],[-39.42871,-7.21849],[-39.4297,-7.21851],[-39.43003,-7.21779],[-39.43139,-7.21755],[-39.43137,-7.21665],[-39.43204,-7.21657],[-39.43306,-7.21614],[-39.43424,-7.21477],[-39.43427,-7.2143],[-39.43467,-7.21365],[-39.43554,-7.21346],[-39.43637,-7.21295],[-39.43707,-7.21157],[-39.43744,-7.21129],[-39.4379,-7.21028],[-39.43822,-7.21003],[-39.43849,-7.20935],[-39.43821,-7.20869],[-39.43814,-7.20711],[-39.43874,-7.20768],[-39.43904,-7.20865],[-39.43899,-7.20973],[-39.43942,-7.21065],[-39.44244,-7.20897],[-39.44359,-7.20871],[-39.44467,-7.20883],[-39.44585,-7.20926],[-39.44661,-7.2097],[-39.43942,-7.22282],[-39.43758,-7.22319],[-39.43754,-7.22359],[-39.43696,-7.22429],[-39.43651,-7.22455],[-39.43567,-7.22451],[-39.4354,-7.22495]]]},"properties":{"codigo":"2304202023","name":"Gizélia Pinheiro (Batateiras)","population":4730,"households":1710,"areaKm2":2.7285,"density":1733.6}},{"type":"Feature","geometry":{"type":"Polygon","coordinates":[[[-39.41114,-7.22949],[-39.41069,-7.22929],[-39.41027,-7.22858],[-39.40857,-7.22861],[-39.40757,-7.2282],[-39.40715,-7.22909],[-39.40588,-7.22847],[-39.40446,-7.22739],[-39.40449,-7.22621],[-39.40385,-7.22574],[-39.40379,-7.22492],[-39.40444,-7.22315],[-39.40843,-7.22409],[-39.41071,-7.22387],[-39.41202,-7.22415],[-39.41508,-7.2256],[-39.4156,-7.22562],[-39.41473,-7.2265],[-39.41372,-7.22799],[-39.41114,-7.22949]]]},"properties":{"codigo":"2304202004","name":"Vila Alta","population":5073,"households":2334,"areaKm2":0.5749,"density":8824.5}},{"type":"Feature","geometry":{"type":"Polygon","coordinates":[[[-39.43259,-7.24037],[-39.43086,-7.2437],[-39.43078,-7.24367],[-39.42935,-7.2464],[-39.4278,-7.24544],[-39.42775,-7.24441],[-39.42647,-7.24393],[-39.42631,-7.24344],[-39.42644,-7.24283],[-39.42627,-7.2418],[-39.42603,-7.24145],[-39.42531,-7.24148],[-39.42437,-7.24041],[-39.42441,-7.23897],[-39.42528,-7.2387],[-39.42561,-7.23816],[-39.42627,-7.23839],[-39.42744,-7.2383],[-39.42818,-7.23843],[-39.42906,-7.23901],[-39.42963,-7.23844],[-39.43035,-7.23842],[-39.4306,-7.23871],[-39.43073,-7.23953],[-39.43152,-7.23976],[-39.43223,-7.23939],[-39.43261,-7.23967],[-39.43259,-7.24037]]]},"properties":{"codigo":"2304202020","name":"Zacarias Gonçalves","population":1910,"households":776,"areaKm2":0.476,"density":4012.5}},{"type":"Feature","geometry":{"type":"Polygon","coordinates":[[[-39.4505,-7.27223],[-39.45128,-7.27796],[-39.4397,-7.28125],[-39.43802,-7.27938],[-39.43744,-7.27887],[-39.43699,-7.27816],[-39.43618,-7.27599],[-39.43474,-7.27239],[-39.43207,-7.26931],[-39.43177,-7.26772],[-39.43115,-7.26702],[-39.42998,-7.26522],[-39.42956,-7.26378],[-39.42954,-7.26318],[-39.43292,-7.26261],[-39.4416,-7.26053],[-39.44195,-7.26128],[-39.44207,-7.26203],[-39.44303,-7.26295],[-39.4439,-7.26304],[-39.44462,-7.26373],[-39.44519,-7.26466],[-39.44569,-7.265],[-39.44736,-7.26687],[-39.44774,-7.26847],[-39.44839,-7.26901],[-39.44885,-7.27028],[-39.44916,-7.27079],[-39.4505,-7.27223]]]},"properties":{"codigo":"2304202030","name":"Granjeiro","population":903,"households":350,"areaKm2":3.3082,"density":273}},{"type":"Feature","geometry":{"type":"Polygon","coordinates":[[[-39.3756,-7.23497],[-39.37544,-7.2356],[-39.37827,-7.23624],[-39.37842,-7.23564],[-39.38051,-7.23611],[-39.38041,-7.23661],[-39.38172,-7.23694],[-39.38187,-7.23634],[-39.3824,-7.23652],[-39.39206,-7.23765],[-39.39197,-7.23814],[-39.39117,-7.23825],[-39.39171,-7.23929],[-39.39147,-7.24037],[-39.3918,-7.2414],[-39.39221,-7.24174],[-39.39242,-7.24241],[-39.39307,-7.2425],[-39.39329,-7.24354],[-39.39383,-7.24369],[-39.39382,-7.24482],[-39.39403,-7.24519],[-39.39338,-7.24593],[-39.3924,-7.24625],[-39.3906,-7.24739],[-39.38937,-7.24805],[-39.38852,-7.24831],[-39.3872,-7.24944],[-39.38704,-7.24984],[-39.38636,-7.25016],[-39.38366,-7.25198],[-39.38355,-7.2522],[-39.38153,-7.25363],[-39.38035,-7.25425],[-39.37775,-7.25634],[-39.37605,-7.25746],[-39.37481,-7.25839],[-39.37376,-7.25735],[-39.37253,-7.25546],[-39.37227,-7.25461],[-39.37156,-7.25334],[-39.37096,-7.25271],[-39.37027,-7.25222],[-39.36971,-7.25126],[-39.36934,-7.25094],[-39.36922,-7.2502],[-39.36863,-7.24851],[-39.36864,-7.24741],[-39.36846,-7.24468],[-39.36816,-7.24321],[-39.36862,-7.24134],[-39.37011,-7.23551],[-39.37052,-7.23379],[-39.3756,-7.23497]]]},"properties":{"codigo":"2304202027","name":"Barro Branco","population":5148,"households":1859,"areaKm2":4.7727,"density":1078.6}},{"type":"Feature","geometry":{"type":"Polygon","coordinates":[[[-39.42954,-7.26318],[-39.42978,-7.26105],[-39.42936,-7.25911],[-39.42893,-7.25815],[-39.42774,-7.25617],[-39.42643,-7.2548],[-39.42555,-7.25346],[-39.42422,-7.25195],[-39.42232,-7.25005],[-39.42177,-7.2494],[-39.42161,-7.24893],[-39.42412,-7.24867],[-39.42611,-7.24814],[-39.42804,-7.24794],[-39.42794,-7.24761],[-39.4301,-7.24742],[-39.42955,-7.24789],[-39.42881,-7.24812],[-39.42922,-7.24869],[-39.43055,-7.24943],[-39.43171,-7.24964],[-39.43229,-7.25036],[-39.43193,-7.25094],[-39.43233,-7.2518],[-39.43185,-7.25227],[-39.43129,-7.2525],[-39.43116,-7.25303],[-39.43158,-7.2532],[-39.43245,-7.25299],[-39.43282,-7.2533],[-39.43291,-7.25422],[-39.43282,-7.25492],[-39.43303,-7.25518],[-39.43413,-7.25567],[-39.43427,-7.25693],[-39.43516,-7.25702],[-39.43556,-7.25779],[-39.4364,-7.25806],[-39.4375,-7.25951],[-39.43807,-7.25962],[-39.43867,-7.25927],[-39.43917,-7.25927],[-39.4416,-7.26053],[-39.43292,-7.26261],[-39.42954,-7.26318]]]},"properties":{"codigo":"2304202018","name":"Novo Horizonte","population":1758,"households":706,"areaKm2":1.3718,"density":1281.6}},{"type":"Feature","geometry":{"type":"Polygon","coordinates":[[[-39.4295,-7.23415],[-39.42794,-7.23397],[-39.42674,-7.2336],[-39.42442,-7.23244],[-39.42277,-7.23158],[-39.42229,-7.23096],[-39.41919,-7.22611],[-39.41849,-7.22486],[-39.42247,-7.22435],[-39.42241,-7.22497],[-39.42269,-7.2255],[-39.42398,-7.22615],[-39.42442,-7.22619],[-39.42484,-7.22695],[-39.42472,-7.22761],[-39.42521,-7.22799],[-39.42684,-7.2277],[-39.42818,-7.22725],[-39.43001,-7.22722],[-39.43078,-7.2279],[-39.43155,-7.22837],[-39.43261,-7.22831],[-39.433,-7.22934],[-39.43365,-7.23478],[-39.43167,-7.23401],[-39.4295,-7.23415]]]},"properties":{"codigo":"2304202011","name":"Cacimbas","population":2999,"households":1221,"areaKm2":0.9703,"density":3090.7}},{"type":"Feature","geometry":{"type":"Polygon","coordinates":[[[-39.433,-7.22934],[-39.43261,-7.22831],[-39.43155,-7.22837],[-39.43078,-7.2279],[-39.43001,-7.22722],[-39.42818,-7.22725],[-39.42871,-7.22672],[-39.42896,-7.22598],[-39.42969,-7.22563],[-39.43029,-7.22609],[-39.43055,-7.22561],[-39.43166,-7.22434],[-39.43284,-7.22529],[-39.43348,-7.22642],[-39.43541,-7.22613],[-39.43614,-7.22635],[-39.43576,-7.22518],[-39.4354,-7.22495],[-39.4374,-7.22514],[-39.43849,-7.2246],[-39.43874,-7.22567],[-39.43879,-7.22848],[-39.43963,-7.22882],[-39.44046,-7.22969],[-39.44303,-7.23037],[-39.44534,-7.23075],[-39.44655,-7.23265],[-39.44713,-7.233],[-39.44779,-7.23365],[-39.44821,-7.23448],[-39.44913,-7.23514],[-39.44981,-7.23515],[-39.45062,-7.23546],[-39.45293,-7.23663],[-39.45379,-7.23745],[-39.45405,-7.23853],[-39.45359,-7.23915],[-39.45411,-7.23983],[-39.45521,-7.24063],[-39.45651,-7.23978],[-39.45881,-7.24039],[-39.4605,-7.24126],[-39.46086,-7.24164],[-39.46189,-7.24229],[-39.46258,-7.24239],[-39.46371,-7.24224],[-39.46553,-7.24353],[-39.46557,-7.24443],[-39.46535,-7.24517],[-39.46581,-7.24692],[-39.46583,-7.24779],[-39.4651,-7.24851],[-39.4643,-7.24891],[-39.46338,-7.24979],[-39.46362,-7.25156],[-39.46409,-7.25237],[-39.46457,-7.25251],[-39.46515,-7.25338],[-39.46535,-7.25407],[-39.46511,-7.25481],[-39.4639,-7.25586],[-39.46406,-7.25716],[-39.46508,-7.25847],[-39.46463,-7.25874],[-39.46359,-7.25903],[-39.46294,-7.25966],[-39.46197,-7.25982],[-39.46035,-7.25994],[-39.4592,-7.25935],[-39.45846,-7.25846],[-39.45845,-7.25783],[-39.45774,-7.25752],[-39.45755,-7.25721],[-39.45743,-7.2561],[-39.4565,-7.25467],[-39.45633,-7.25402],[-39.4559,-7.25346],[-39.45498,-7.25297],[-39.45514,-7.25194],[-39.45433,-7.25167],[-39.45407,-7.25131],[-39.45428,-7.25048],[-39.45343,-7.24969],[-39.45356,-7.24861],[-39.45246,-7.24801],[-39.45205,-7.24713],[-39.45136,-7.24676],[-39.45068,-7.24688],[-39.45034,-7.24632],[-39.45044,-7.24555],[-39.44996,-7.24465],[-39.44936,-7.2448],[-39.44919,-7.24425],[-39.44795,-7.24344],[-39.44767,-7.24227],[-39.44726,-7.24209],[-39.44731,-7.24123],[-39.44617,-7.23966],[-39.4446,-7.23959],[-39.44454,-7.23876],[-39.4437,-7.23705],[-39.44427,-7.23671],[-39.4439,-7.23622],[-39.44397,-7.23547],[-39.44433,-7.23517],[-39.44412,-7.23466],[-39.44329,-7.23464],[-39.44304,-7.23418],[-39.44227,-7.23382],[-39.4416,-7.23369],[-39.44114,-7.23387],[-39.44047,-7.23355],[-39.44034,-7.23268],[-39.43972,-7.23218],[-39.43895,-7.23122],[-39.43864,-7.2302],[-39.43829,-7.22974],[-39.43742,-7.23013],[-39.43634,-7.23033],[-39.43544,-7.22977],[-39.43501,-7.22966],[-39.43448,-7.23009],[-39.43415,-7.22952],[-39.433,-7.22934]]]},"properties":{"codigo":"2304202022","name":"São Gonçalo","population":443,"households":182,"areaKm2":3.9759,"density":111.4}},{"type":"Feature","geometry":{"type":"Polygon","coordinates":[[[-39.41475,-7.2472],[-39.41372,-7.24748],[-39.40945,-7.24895],[-39.40892,-7.24843],[-39.40808,-7.24815],[-39.40843,-7.2472],[-39.40838,-7.24685],[-39.40744,-7.24698],[-39.40728,-7.24672],[-39.40729,-7.24569],[-39.40594,-7.24544],[-39.40591,-7.2452],[-39.40661,-7.2435],[-39.40606,-7.24293],[-39.40549,-7.24173],[-39.40363,-7.24045],[-39.40473,-7.23966],[-39.40748,-7.23806],[-39.40865,-7.23733],[-39.4104,-7.23636],[-39.41029,-7.23761],[-39.41102,-7.23927],[-39.41169,-7.24079],[-39.41183,-7.24195],[-39.41239,-7.24318],[-39.41322,-7.24375],[-39.41444,-7.2434],[-39.41519,-7.24296],[-39.41501,-7.24407],[-39.41517,-7.24496],[-39.415,-7.24514],[-39.41501,-7.24612],[-39.41475,-7.2472]]]},"properties":{"codigo":"2304202007","name":"Alto da Penha","population":3503,"households":1450,"areaKm2":0.8818,"density":3972.3}},{"type":"Feature","geometry":{"type":"Polygon","coordinates":[[[-39.3935,-7.21892],[-39.39573,-7.22076],[-39.3965,-7.22171],[-39.39673,-7.22246],[-39.39789,-7.22245],[-39.39856,-7.22452],[-39.40016,-7.2273],[-39.40388,-7.22892],[-39.40659,-7.23024],[-39.4062,-7.23111],[-39.40507,-7.23065],[-39.40484,-7.2312],[-39.40656,-7.23178],[-39.40696,-7.232],[-39.40251,-7.23465],[-39.40189,-7.2337],[-39.39977,-7.23011],[-39.39901,-7.22922],[-39.39834,-7.22899],[-39.39618,-7.22798],[-39.39179,-7.22578],[-39.38961,-7.22664],[-39.38931,-7.22642],[-39.38691,-7.2253],[-39.38662,-7.22451],[-39.38712,-7.22445],[-39.38772,-7.22311],[-39.38754,-7.22171],[-39.38645,-7.2214],[-39.38711,-7.22094],[-39.38715,-7.2202],[-39.38775,-7.22029],[-39.38829,-7.22089],[-39.38831,-7.22121],[-39.38894,-7.22163],[-39.38984,-7.22195],[-39.39007,-7.22115],[-39.3904,-7.22096],[-39.39111,-7.22102],[-39.39228,-7.22038],[-39.39253,-7.21936],[-39.39283,-7.21943],[-39.3935,-7.21892]]]},"properties":{"codigo":"2304202013","name":"São Miguel","population":5369,"households":2471,"areaKm2":1.2394,"density":4331.9}},{"type":"Feature","geometry":{"type":"Polygon","coordinates":[[[-39.40945,-7.24895],[-39.41011,-7.24907],[-39.41012,-7.25007],[-39.41026,-7.25131],[-39.41075,-7.25185],[-39.41066,-7.25322],[-39.4102,-7.25344],[-39.41043,-7.25421],[-39.41107,-7.25425],[-39.41233,-7.25347],[-39.41325,-7.25379],[-39.41367,-7.25326],[-39.41418,-7.2531],[-39.4147,-7.25348],[-39.41559,-7.25346],[-39.41632,-7.2537],[-39.41739,-7.25376],[-39.41771,-7.25438],[-39.41783,-7.25525],[-39.41864,-7.2551],[-39.41948,-7.25554],[-39.41964,-7.25511],[-39.42072,-7.25547],[-39.42108,-7.25606],[-39.42177,-7.256],[-39.42203,-7.25646],[-39.4231,-7.25635],[-39.42318,-7.25699],[-39.42368,-7.25731],[-39.42337,-7.25766],[-39.42356,-7.25871],[-39.42332,-7.25944],[-39.42345,-7.25989],[-39.42413,-7.26015],[-39.42439,-7.26069],[-39.4245,-7.26278],[-39.42518,-7.26339],[-39.42575,-7.26455],[-39.42586,-7.26524],[-39.42685,-7.26606],[-39.42655,-7.26693],[-39.42674,-7.26775],[-39.42787,-7.26963],[-39.42868,-7.26985],[-39.4293,-7.27032],[-39.42972,-7.27159],[-39.43049,-7.27249],[-39.43066,-7.27324],[-39.43193,-7.27488],[-39.43181,-7.27578],[-39.43215,-7.27643],[-39.43218,-7.27713],[-39.43188,-7.27959],[-39.43249,-7.28061],[-39.43264,-7.28331],[-39.43318,-7.28422],[-39.43343,-7.28544],[-39.41624,-7.28575],[-39.41553,-7.28533],[-39.41576,-7.28377],[-39.41509,-7.28303],[-39.4152,-7.28213],[-39.41585,-7.28119],[-39.41542,-7.28065],[-39.41455,-7.28018],[-39.41391,-7.28004],[-39.41339,-7.27959],[-39.4135,-7.27921],[-39.41412,-7.27853],[-39.41418,-7.27794],[-39.41341,-7.2771],[-39.41245,-7.27666],[-39.41095,-7.27658],[-39.4106,-7.27558],[-39.41011,-7.275],[-39.40959,-7.27399],[-39.40797,-7.27288],[-39.40737,-7.27202],[-39.40691,-7.27085],[-39.4058,-7.26984],[-39.40578,-7.26931],[-39.4052,-7.26861],[-39.40514,-7.26762],[-39.40396,-7.26693],[-39.40324,-7.26621],[-39.40312,-7.26486],[-39.40273,-7.2647],[-39.40248,-7.26421],[-39.40195,-7.26406],[-39.40149,-7.26325],[-39.40166,-7.26231],[-39.40166,-7.26109],[-39.40071,-7.25906],[-39.40018,-7.25845],[-39.39955,-7.25715],[-39.39999,-7.25496],[-39.39992,-7.25431],[-39.39943,-7.2535],[-39.39911,-7.25218],[-39.39882,-7.25181],[-39.39934,-7.24968],[-39.39834,-7.24878],[-39.39789,-7.24819],[-39.3972,-7.24667],[-39.39657,-7.24646],[-39.39636,-7.24588],[-39.39598,-7.24567],[-39.39496,-7.24569],[-39.39403,-7.24519],[-39.39752,-7.2427],[-39.40042,-7.24073],[-39.40141,-7.24035],[-39.40243,-7.23967],[-39.40275,-7.24035],[-39.40332,-7.24025],[-39.40363,-7.24045],[-39.40549,-7.24173],[-39.40606,-7.24293],[-39.40661,-7.2435],[-39.40591,-7.2452],[-39.40594,-7.24544],[-39.40729,-7.24569],[-39.40728,-7.24672],[-39.40744,-7.24698],[-39.40838,-7.24685],[-39.40843,-7.2472],[-39.40808,-7.24815],[-39.40892,-7.24843],[-39.40945,-7.24895]]]},"properties":{"codigo":"2304202016","name":"Lobo (Vila Lobo)","population":3529,"households":1488,"areaKm2":9.8083,"density":359.8}},{"type":"Feature","geometry":{"type":"Polygon","coordinates":[[[-39.39206,-7.23765],[-39.39136,-7.23736],[-39.39117,-7.23696],[-39.39172,-7.23619],[-39.39158,-7.23482],[-39.39139,-7.23413],[-39.3916,-7.23343],[-39.39213,-7.23343],[-39.39215,-7.23156],[-39.39232,-7.2309],[-39.39293,-7.23039],[-39.39275,-7.22993],[-39.39428,-7.22908],[-39.39474,-7.22907],[-39.39556,-7.23029],[-39.39576,-7.23085],[-39.39658,-7.23199],[-39.39664,-7.23287],[-39.39861,-7.23527],[-39.39878,-7.23602],[-39.3991,-7.23649],[-39.40016,-7.23697],[-39.40022,-7.23777],[-39.40108,-7.23831],[-39.40215,-7.23863],[-39.40263,-7.23846],[-39.40289,-7.2388],[-39.40332,-7.24025],[-39.40275,-7.24035],[-39.40243,-7.23967],[-39.40141,-7.24035],[-39.40042,-7.24073],[-39.39752,-7.2427],[-39.39403,-7.24519],[-39.39382,-7.24482],[-39.39383,-7.24369],[-39.39329,-7.24354],[-39.39307,-7.2425],[-39.39242,-7.24241],[-39.39221,-7.24174],[-39.3918,-7.2414],[-39.39147,-7.24037],[-39.39171,-7.23929],[-39.39117,-7.23825],[-39.39197,-7.23814],[-39.39206,-7.23765]]]},"properties":{"codigo":"2304202015","name":"Mirandão","population":2462,"households":948,"areaKm2":1.1688,"density":2106.4}},{"type":"Feature","geometry":{"type":"Polygon","coordinates":[[[-39.41114,-7.22949],[-39.41309,-7.23031],[-39.41426,-7.23181],[-39.41494,-7.23316],[-39.41664,-7.23448],[-39.41681,-7.23494],[-39.41491,-7.23679],[-39.4136,-7.23791],[-39.41241,-7.23861],[-39.41102,-7.23927],[-39.41029,-7.23761],[-39.4104,-7.23636],[-39.41052,-7.23628],[-39.40816,-7.23252],[-39.40788,-7.23267],[-39.40696,-7.232],[-39.40656,-7.23178],[-39.40484,-7.2312],[-39.40507,-7.23065],[-39.4062,-7.23111],[-39.40659,-7.23024],[-39.40715,-7.22909],[-39.40757,-7.2282],[-39.40857,-7.22861],[-39.41027,-7.22858],[-39.41069,-7.22929],[-39.41114,-7.22949]]]},"properties":{"codigo":"2304202001","name":"Centro","population":3233,"households":2117,"areaKm2":0.7111,"density":4546.4}},{"type":"Feature","geometry":{"type":"Polygon","coordinates":[[[-39.41519,-7.24296],[-39.41733,-7.24076],[-39.41794,-7.24149],[-39.41876,-7.24081],[-39.42131,-7.24061],[-39.42135,-7.24128],[-39.42195,-7.24129],[-39.42165,-7.24239],[-39.4213,-7.24241],[-39.42172,-7.24336],[-39.42085,-7.24373],[-39.42129,-7.2447],[-39.42059,-7.24491],[-39.42069,-7.24548],[-39.41991,-7.24548],[-39.41722,-7.24635],[-39.41475,-7.2472],[-39.41501,-7.24612],[-39.415,-7.24514],[-39.41517,-7.24496],[-39.41501,-7.24407],[-39.41519,-7.24296]]]},"properties":{"codigo":"2304202008","name":"Ossian Araripe (Caixa D'Água)","population":3585,"households":1510,"areaKm2":0.3715,"density":9649.1}},{"type":"Feature","geometry":{"type":"Polygon","coordinates":[[[-39.40037,-7.21141],[-39.40132,-7.21251],[-39.4015,-7.21317],[-39.40265,-7.21436],[-39.40505,-7.21632],[-39.40499,-7.21717],[-39.40527,-7.21745],[-39.40555,-7.21837],[-39.40615,-7.21935],[-39.40602,-7.22003],[-39.40556,-7.22039],[-39.40526,-7.22126],[-39.40467,-7.22231],[-39.40444,-7.22315],[-39.40379,-7.22492],[-39.40385,-7.22574],[-39.40449,-7.22621],[-39.40446,-7.22739],[-39.40588,-7.22847],[-39.40715,-7.22909],[-39.40659,-7.23024],[-39.40388,-7.22892],[-39.40016,-7.2273],[-39.39856,-7.22452],[-39.39789,-7.22245],[-39.39673,-7.22246],[-39.3965,-7.22171],[-39.39573,-7.22076],[-39.3935,-7.21892],[-39.39374,-7.21774],[-39.39431,-7.21654],[-39.39466,-7.21626],[-39.39515,-7.2143],[-39.39589,-7.21355],[-39.39604,-7.21281],[-39.39667,-7.21261],[-39.39727,-7.21217],[-39.39737,-7.21099],[-39.39911,-7.21127],[-39.39986,-7.21119],[-39.40037,-7.21141]]]},"properties":{"codigo":"2304202005","name":"Palmeiral","population":998,"households":425,"areaKm2":1.6101,"density":619.8}},{"type":"Feature","geometry":{"type":"Polygon","coordinates":[[[-39.44288,-7.24442],[-39.44156,-7.24435],[-39.44008,-7.24478],[-39.43904,-7.24464],[-39.43829,-7.24429],[-39.43741,-7.24416],[-39.43699,-7.24369],[-39.43635,-7.2434],[-39.43532,-7.24337],[-39.43498,-7.24287],[-39.43403,-7.24255],[-39.43385,-7.24185],[-39.43354,-7.24144],[-39.4331,-7.24142],[-39.43269,-7.24105],[-39.43259,-7.24037],[-39.43261,-7.23967],[-39.43223,-7.23939],[-39.43152,-7.23976],[-39.43073,-7.23953],[-39.4306,-7.23871],[-39.43035,-7.23842],[-39.42963,-7.23844],[-39.42906,-7.23901],[-39.42818,-7.23843],[-39.42744,-7.2383],[-39.42627,-7.23839],[-39.42561,-7.23816],[-39.42528,-7.2387],[-39.42441,-7.23897],[-39.42366,-7.23845],[-39.42324,-7.2386],[-39.4226,-7.23833],[-39.4222,-7.23881],[-39.42159,-7.23878],[-39.42022,-7.23798],[-39.41949,-7.23806],[-39.41951,-7.23743],[-39.42035,-7.23661],[-39.41999,-7.23627],[-39.42442,-7.23244],[-39.42674,-7.2336],[-39.42794,-7.23397],[-39.4295,-7.23415],[-39.42908,-7.23575],[-39.4321,-7.23714],[-39.43768,-7.23919],[-39.43879,-7.24094],[-39.44167,-7.2429],[-39.443,-7.24305],[-39.44288,-7.24442]]]},"properties":{"codigo":"2304202010","name":"Novo Crato","population":6831,"households":2652,"areaKm2":1.0867,"density":6285.9}},{"type":"Feature","geometry":{"type":"Polygon","coordinates":[[[-39.43802,-7.27938],[-39.43343,-7.28544],[-39.43318,-7.28422],[-39.43264,-7.28331],[-39.43249,-7.28061],[-39.43188,-7.27959],[-39.43218,-7.27713],[-39.43215,-7.27643],[-39.43181,-7.27578],[-39.43193,-7.27488],[-39.43066,-7.27324],[-39.43049,-7.27249],[-39.42972,-7.27159],[-39.4293,-7.27032],[-39.42868,-7.26985],[-39.42787,-7.26963],[-39.42674,-7.26775],[-39.42655,-7.26693],[-39.42685,-7.26606],[-39.42586,-7.26524],[-39.42575,-7.26455],[-39.42518,-7.26339],[-39.4245,-7.26278],[-39.42439,-7.26069],[-39.42413,-7.26015],[-39.42936,-7.25911],[-39.42978,-7.26105],[-39.42954,-7.26318],[-39.42956,-7.26378],[-39.42998,-7.26522],[-39.43115,-7.26702],[-39.43177,-7.26772],[-39.43207,-7.26931],[-39.43474,-7.27239],[-39.43618,-7.27599],[-39.43699,-7.27816],[-39.43744,-7.27887],[-39.43802,-7.27938]]]},"properties":{"codigo":"2304202028","name":"Coqueiro","population":496,"households":181,"areaKm2":1.3139,"density":377.5}},{"type":"Feature","geometry":{"type":"Polygon","coordinates":[[[-39.42437,-7.24041],[-39.42131,-7.24061],[-39.41876,-7.24081],[-39.41794,-7.24149],[-39.41733,-7.24076],[-39.41519,-7.24296],[-39.41444,-7.2434],[-39.41322,-7.24375],[-39.41239,-7.24318],[-39.41183,-7.24195],[-39.41169,-7.24079],[-39.41102,-7.23927],[-39.41241,-7.23861],[-39.4136,-7.23791],[-39.41491,-7.23679],[-39.41681,-7.23494],[-39.41711,-7.23581],[-39.41762,-7.23664],[-39.41812,-7.23604],[-39.41951,-7.23743],[-39.41949,-7.23806],[-39.42022,-7.23798],[-39.42159,-7.23878],[-39.4222,-7.23881],[-39.4226,-7.23833],[-39.42324,-7.2386],[-39.42366,-7.23845],[-39.42441,-7.23897],[-39.42437,-7.24041]]]},"properties":{"codigo":"2304202002","name":"Pimenta","population":1449,"households":732,"areaKm2":0.6397,"density":2265.2}},{"type":"Feature","geometry":{"type":"Polygon","coordinates":[[[-39.44965,-7.25555],[-39.44871,-7.25634],[-39.44839,-7.25689],[-39.4505,-7.27223],[-39.44916,-7.27079],[-39.44885,-7.27028],[-39.44839,-7.26901],[-39.44774,-7.26847],[-39.44736,-7.26687],[-39.44569,-7.265],[-39.44519,-7.26466],[-39.44462,-7.26373],[-39.4439,-7.26304],[-39.44303,-7.26295],[-39.44207,-7.26203],[-39.44195,-7.26128],[-39.4416,-7.26053],[-39.43917,-7.25927],[-39.43867,-7.25927],[-39.43807,-7.25962],[-39.4375,-7.25951],[-39.4364,-7.25806],[-39.43556,-7.25779],[-39.43516,-7.25702],[-39.43427,-7.25693],[-39.43413,-7.25567],[-39.43303,-7.25518],[-39.43506,-7.25382],[-39.43698,-7.25038],[-39.43848,-7.24758],[-39.43957,-7.24793],[-39.44054,-7.24838],[-39.44249,-7.24858],[-39.44473,-7.24861],[-39.44603,-7.24902],[-39.44685,-7.24957],[-39.44821,-7.25119],[-39.44862,-7.2528],[-39.44965,-7.25555]]]},"properties":{"codigo":"2304202029","name":"Lameiro","population":488,"households":159,"areaKm2":2.2877,"density":213.3}},{"type":"Feature","geometry":{"type":"Polygon","coordinates":[[[-39.42936,-7.25911],[-39.42413,-7.26015],[-39.42345,-7.25989],[-39.42332,-7.25944],[-39.42356,-7.25871],[-39.42337,-7.25766],[-39.42368,-7.25731],[-39.42318,-7.25699],[-39.4231,-7.25635],[-39.42203,-7.25646],[-39.42177,-7.256],[-39.42108,-7.25606],[-39.42072,-7.25547],[-39.41964,-7.25511],[-39.41948,-7.25554],[-39.41864,-7.2551],[-39.41783,-7.25525],[-39.41771,-7.25438],[-39.41739,-7.25376],[-39.41632,-7.2537],[-39.41559,-7.25346],[-39.4147,-7.25348],[-39.41418,-7.2531],[-39.41367,-7.25326],[-39.41325,-7.25379],[-39.41233,-7.25347],[-39.41107,-7.25425],[-39.41043,-7.25421],[-39.4102,-7.25344],[-39.41066,-7.25322],[-39.41075,-7.25185],[-39.41026,-7.25131],[-39.41012,-7.25007],[-39.41011,-7.24907],[-39.40945,-7.24895],[-39.41372,-7.24748],[-39.41475,-7.2472],[-39.41722,-7.24635],[-39.41991,-7.24548],[-39.42069,-7.24548],[-39.42082,-7.24641],[-39.42133,-7.24769],[-39.42161,-7.24893],[-39.42177,-7.2494],[-39.42232,-7.25005],[-39.42422,-7.25195],[-39.42555,-7.25346],[-39.42643,-7.2548],[-39.42774,-7.25617],[-39.42893,-7.25815],[-39.42936,-7.25911]]]},"properties":{"codigo":"2304202017","name":"Parque Granjeiro","population":2292,"households":869,"areaKm2":1.502,"density":1526}},{"type":"Feature","geometry":{"type":"Polygon","coordinates":[[[-39.40192,-7.1956],[-39.40268,-7.19547],[-39.403,-7.19515],[-39.40341,-7.19537],[-39.40426,-7.19455],[-39.4046,-7.19369],[-39.40438,-7.19301],[-39.4047,-7.19252],[-39.40443,-7.19221],[-39.40481,-7.19131],[-39.40551,-7.19041],[-39.40756,-7.18932],[-39.40826,-7.18905],[-39.40891,-7.18808],[-39.40928,-7.18794],[-39.41057,-7.18696],[-39.41075,-7.18639],[-39.41041,-7.18617],[-39.40959,-7.18613],[-39.40942,-7.18578],[-39.40944,-7.1849],[-39.40987,-7.18412],[-39.41049,-7.18377],[-39.41087,-7.18247],[-39.41196,-7.18301],[-39.41377,-7.18264],[-39.41445,-7.18213],[-39.41489,-7.18221],[-39.41605,-7.18171],[-39.41623,-7.18138],[-39.41693,-7.18095],[-39.41706,-7.1806],[-39.41804,-7.18066],[-39.41856,-7.18054],[-39.41994,-7.18091],[-39.42063,-7.1808],[-39.42086,-7.18134],[-39.42076,-7.18198],[-39.42103,-7.18286],[-39.42183,-7.18284],[-39.42218,-7.18317],[-39.42259,-7.18424],[-39.4231,-7.18455],[-39.42416,-7.18475],[-39.42461,-7.18465],[-39.42507,-7.18517],[-39.42587,-7.18531],[-39.42621,-7.18571],[-39.42712,-7.18608],[-39.42742,-7.18679],[-39.42804,-7.18685],[-39.42908,-7.18777],[-39.42952,-7.18791],[-39.42973,-7.1885],[-39.43761,-7.18819],[-39.43833,-7.19018],[-39.44661,-7.2097],[-39.44585,-7.20926],[-39.44467,-7.20883],[-39.44359,-7.20871],[-39.44244,-7.20897],[-39.43942,-7.21065],[-39.43899,-7.20973],[-39.43904,-7.20865],[-39.43874,-7.20768],[-39.43814,-7.20711],[-39.43821,-7.20869],[-39.43849,-7.20935],[-39.43822,-7.21003],[-39.4379,-7.21028],[-39.43744,-7.21129],[-39.43707,-7.21157],[-39.43637,-7.21295],[-39.43554,-7.21346],[-39.43467,-7.21365],[-39.43427,-7.2143],[-39.43424,-7.21477],[-39.43306,-7.21614],[-39.43204,-7.21657],[-39.43137,-7.21665],[-39.43139,-7.21755],[-39.43003,-7.21779],[-39.4297,-7.21851],[-39.42871,-7.21849],[-39.42832,-7.21879],[-39.42675,-7.21786],[-39.42607,-7.21828],[-39.42532,-7.21796],[-39.42506,-7.21762],[-39.4244,-7.21783],[-39.42334,-7.21936],[-39.42267,-7.21955],[-39.42204,-7.22008],[-39.42192,-7.22063],[-39.42108,-7.22167],[-39.42018,-7.22177],[-39.41935,-7.22243],[-39.42014,-7.22322],[-39.42061,-7.22329],[-39.42125,-7.22374],[-39.42215,-7.22371],[-39.42247,-7.22435],[-39.41849,-7.22486],[-39.41775,-7.22499],[-39.4156,-7.22562],[-39.41508,-7.2256],[-39.41202,-7.22415],[-39.41071,-7.22387],[-39.40843,-7.22409],[-39.40444,-7.22315],[-39.40467,-7.22231],[-39.40526,-7.22126],[-39.40556,-7.22039],[-39.40602,-7.22003],[-39.40615,-7.21935],[-39.40555,-7.21837],[-39.40527,-7.21745],[-39.40499,-7.21717],[-39.40505,-7.21632],[-39.40265,-7.21436],[-39.4015,-7.21317],[-39.40132,-7.21251],[-39.40037,-7.21141],[-39.40031,-7.20893],[-39.4007,-7.20343],[-39.40108,-7.20203],[-39.40102,-7.20093],[-39.40153,-7.20022],[-39.40139,-7.19967],[-39.40137,-7.19852],[-39.40192,-7.19676],[-39.40192,-7.1956]]]},"properties":{"codigo":"2304202012","name":"Parque Recreio","population":7725,"households":3242,"areaKm2":16.0907,"density":480.1}},{"type":"Feature","geometry":{"type":"Polygon","coordinates":[[[-39.40251,-7.23465],[-39.40285,-7.23523],[-39.40239,-7.23552],[-39.39965,-7.23621],[-39.3991,-7.23649],[-39.39878,-7.23602],[-39.39861,-7.23527],[-39.39664,-7.23287],[-39.39658,-7.23199],[-39.39576,-7.23085],[-39.39556,-7.23029],[-39.39474,-7.22907],[-39.39428,-7.22908],[-39.39275,-7.22993],[-39.39223,-7.22951],[-39.39138,-7.22915],[-39.39144,-7.22745],[-39.39091,-7.2274],[-39.39045,-7.22819],[-39.39012,-7.22713],[-39.38961,-7.22664],[-39.39179,-7.22578],[-39.39618,-7.22798],[-39.39834,-7.22899],[-39.39901,-7.22922],[-39.39977,-7.23011],[-39.40189,-7.2337],[-39.40251,-7.23465]]]},"properties":{"codigo":"2304202014","name":"Santa Luzia","population":1432,"households":700,"areaKm2":0.5563,"density":2574.3}},{"type":"Feature","geometry":{"type":"Polygon","coordinates":[[[-39.4156,-7.22562],[-39.41775,-7.22499],[-39.41849,-7.22486],[-39.41919,-7.22611],[-39.42229,-7.23096],[-39.42277,-7.23158],[-39.42442,-7.23244],[-39.41999,-7.23627],[-39.42035,-7.23661],[-39.41951,-7.23743],[-39.41812,-7.23604],[-39.41762,-7.23664],[-39.41711,-7.23581],[-39.41681,-7.23494],[-39.41664,-7.23448],[-39.41494,-7.23316],[-39.41426,-7.23181],[-39.41309,-7.23031],[-39.41114,-7.22949],[-39.41372,-7.22799],[-39.41473,-7.2265],[-39.4156,-7.22562]]]},"properties":{"codigo":"2304202003","name":"Seminário","population":10454,"households":4409,"areaKm2":0.9457,"density":11053.9}},{"type":"Feature","geometry":{"type":"Polygon","coordinates":[[[-39.42935,-7.2464],[-39.43037,-7.24652],[-39.43059,-7.24695],[-39.4301,-7.24742],[-39.42794,-7.24761],[-39.42804,-7.24794],[-39.42611,-7.24814],[-39.42412,-7.24867],[-39.42161,-7.24893],[-39.42133,-7.24769],[-39.42082,-7.24641],[-39.42069,-7.24548],[-39.42059,-7.24491],[-39.42129,-7.2447],[-39.42085,-7.24373],[-39.42172,-7.24336],[-39.4213,-7.24241],[-39.42165,-7.24239],[-39.42195,-7.24129],[-39.42135,-7.24128],[-39.42131,-7.24061],[-39.42437,-7.24041],[-39.42531,-7.24148],[-39.42603,-7.24145],[-39.42627,-7.2418],[-39.42644,-7.24283],[-39.42631,-7.24344],[-39.42647,-7.24393],[-39.42775,-7.24441],[-39.4278,-7.24544],[-39.42935,-7.2464]]]},"properties":{"codigo":"2304202009","name":"Sossego","population":1652,"households":649,"areaKm2":0.5994,"density":2756}},{"type":"Feature","geometry":{"type":"Polygon","coordinates":[[[-39.44249,-7.24858],[-39.44054,-7.24838],[-39.43957,-7.24793],[-39.43848,-7.24758],[-39.43698,-7.25038],[-39.43506,-7.25382],[-39.43303,-7.25518],[-39.43282,-7.25492],[-39.43291,-7.25422],[-39.43282,-7.2533],[-39.43245,-7.25299],[-39.43158,-7.2532],[-39.43116,-7.25303],[-39.43129,-7.2525],[-39.43185,-7.25227],[-39.43233,-7.2518],[-39.43193,-7.25094],[-39.43229,-7.25036],[-39.43171,-7.24964],[-39.43055,-7.24943],[-39.42922,-7.24869],[-39.42881,-7.24812],[-39.42955,-7.24789],[-39.4301,-7.24742],[-39.43059,-7.24695],[-39.43037,-7.24652],[-39.42935,-7.2464],[-39.43078,-7.24367],[-39.43086,-7.2437],[-39.43259,-7.24037],[-39.43269,-7.24105],[-39.4331,-7.24142],[-39.43354,-7.24144],[-39.43385,-7.24185],[-39.43403,-7.24255],[-39.43498,-7.24287],[-39.43532,-7.24337],[-39.43635,-7.2434],[-39.43699,-7.24369],[-39.43741,-7.24416],[-39.43829,-7.24429],[-39.43904,-7.24464],[-39.44008,-7.24478],[-39.44156,-7.24435],[-39.44288,-7.24442],[-39.44249,-7.24858]]]},"properties":{"codigo":"2304202019","name":"José Araújo (Novo Lameiro)","population":1291,"households":488,"areaKm2":1.1099,"density":1163.2}},{"type":"Feature","geometry":{"type":"Polygon","coordinates":[[[-39.38715,-7.2202],[-39.38711,-7.22094],[-39.38645,-7.2214],[-39.38754,-7.22171],[-39.38772,-7.22311],[-39.38712,-7.22445],[-39.38662,-7.22451],[-39.38691,-7.2253],[-39.38931,-7.22642],[-39.38961,-7.22664],[-39.39012,-7.22713],[-39.39045,-7.22819],[-39.39091,-7.2274],[-39.39144,-7.22745],[-39.39138,-7.22915],[-39.39223,-7.22951],[-39.39275,-7.22993],[-39.39293,-7.23039],[-39.39232,-7.2309],[-39.39215,-7.23156],[-39.39213,-7.23343],[-39.3916,-7.23343],[-39.39139,-7.23413],[-39.39158,-7.23482],[-39.39172,-7.23619],[-39.39117,-7.23696],[-39.39136,-7.23736],[-39.39206,-7.23765],[-39.3824,-7.23652],[-39.38187,-7.23634],[-39.38172,-7.23694],[-39.38041,-7.23661],[-39.38051,-7.23611],[-39.37842,-7.23564],[-39.37827,-7.23624],[-39.37544,-7.2356],[-39.3756,-7.23497],[-39.37684,-7.22934],[-39.3719,-7.22898],[-39.37382,-7.22066],[-39.37316,-7.22048],[-39.37345,-7.21934],[-39.3748,-7.21955],[-39.37512,-7.21841],[-39.37636,-7.21585],[-39.37678,-7.21562],[-39.37802,-7.21438],[-39.37988,-7.21301],[-39.38082,-7.21317],[-39.38108,-7.2135],[-39.37983,-7.21599],[-39.37979,-7.21676],[-39.38053,-7.21724],[-39.38101,-7.21801],[-39.38201,-7.21791],[-39.38235,-7.21909],[-39.38284,-7.21965],[-39.38206,-7.21988],[-39.38194,-7.22076],[-39.38273,-7.22137],[-39.38357,-7.22157],[-39.38359,-7.22206],[-39.38421,-7.2221],[-39.3846,-7.22162],[-39.38448,-7.22085],[-39.38475,-7.22021],[-39.38555,-7.21981],[-39.38715,-7.2202]]]},"properties":{"codigo":"2304202025","name":"Muriti","population":5269,"households":2022,"areaKm2":3.5357,"density":1490.2}},{"type":"Feature","geometry":{"type":"Polygon","coordinates":[[[-39.40363,-7.24045],[-39.40332,-7.24025],[-39.40289,-7.2388],[-39.40263,-7.23846],[-39.40215,-7.23863],[-39.40108,-7.23831],[-39.40022,-7.23777],[-39.40016,-7.23697],[-39.3991,-7.23649],[-39.39965,-7.23621],[-39.40239,-7.23552],[-39.40285,-7.23523],[-39.40251,-7.23465],[-39.40696,-7.232],[-39.40788,-7.23267],[-39.40816,-7.23252],[-39.41052,-7.23628],[-39.4104,-7.23636],[-39.40865,-7.23733],[-39.40748,-7.23806],[-39.40473,-7.23966],[-39.40363,-7.24045]]]},"properties":{"codigo":"2304202006","name":"Pinto Madeira (Barro Vermelho)","population":4169,"households":1929,"areaKm2":0.5631,"density":7403.4}},{"type":"Feature","geometry":{"type":"Polygon","coordinates":[[[-39.37052,-7.23379],[-39.37114,-7.23232],[-39.37101,-7.23191],[-39.36883,-7.23156],[-39.36869,-7.23214],[-39.36691,-7.23219],[-39.36682,-7.23277],[-39.36486,-7.23237],[-39.36309,-7.23229],[-39.36178,-7.23242],[-39.35656,-7.23256],[-39.35757,-7.22756],[-39.35704,-7.22736],[-39.35783,-7.22571],[-39.35825,-7.22484],[-39.36398,-7.2129],[-39.36486,-7.21328],[-39.36546,-7.21398],[-39.3665,-7.21388],[-39.36746,-7.21303],[-39.36828,-7.21295],[-39.36875,-7.21259],[-39.36865,-7.21211],[-39.3698,-7.2121],[-39.37038,-7.21165],[-39.37072,-7.21073],[-39.37204,-7.21082],[-39.37304,-7.2104],[-39.37487,-7.21093],[-39.37545,-7.21152],[-39.37658,-7.21133],[-39.37753,-7.21189],[-39.37814,-7.21171],[-39.37948,-7.21285],[-39.37988,-7.21301],[-39.37802,-7.21438],[-39.37678,-7.21562],[-39.37636,-7.21585],[-39.37512,-7.21841],[-39.3748,-7.21955],[-39.37345,-7.21934],[-39.37316,-7.22048],[-39.37382,-7.22066],[-39.3719,-7.22898],[-39.37684,-7.22934],[-39.3756,-7.23497],[-39.37052,-7.23379]]]},"properties":{"codigo":"2304202026","name":"São José","population":3231,"households":1319,"areaKm2":3.8836,"density":832}}]}