{"type":"FeatureCollection","features":[{"type":"Feature","geometry":{"type":"Polygon","coordinates":[[[-38.80059,-4.58292],[-38.80309,-4.58106],[-38.80339,-4.58049],[-38.80593,-4.57918],[-38.80706,-4.57926],[-38.80921,-4.58073],[-38.81194,-4.58129],[-38.81342,-4.58113],[-38.81489,-4.58173],[-38.8163,-4.58088],[-38.81724,-4.58064],[-38.81846,-4.57924],[-38.81859,-4.57819],[-38.81955,-4.57701],[-38.82041,-4.57676],[-38.82183,-4.57582],[-38.82343,-4.57632],[-38.82474,-4.57632],[-38.82633,-4.57682],[-38.82909,-4.57701],[-38.83042,-4.57839],[-38.83142,-4.57904],[-38.83327,-4.58099],[-38.83469,-4.58144],[-38.8362,-4.58157],[-38.83801,-4.58248],[-38.84001,-4.58273],[-38.84019,-4.58197],[-38.83923,-4.57871],[-38.83879,-4.57528],[-38.83776,-4.57036],[-38.83777,-4.56912],[-38.84029,-4.5631],[-38.84071,-4.56146],[-38.84053,-4.56015],[-38.83977,-4.559],[-38.83787,-4.55759],[-38.83697,-4.55568],[-38.83743,-4.5526],[-38.83804,-4.55033],[-38.84215,-4.54944],[-38.84461,-4.54946],[-38.84672,-4.54989],[-38.84974,-4.55117],[-38.85326,-4.55121],[-38.85464,-4.55213],[-38.85583,-4.55256],[-38.85741,-4.55143],[-38.85959,-4.5507],[-38.86166,-4.55038],[-38.86275,-4.55051],[-38.86405,-4.5512],[-38.86575,-4.55079],[-38.8669,-4.54958],[-38.8689,-4.54696],[-38.86926,-4.53724],[-38.87101,-4.52889],[-38.87184,-4.52812],[-38.87326,-4.52629],[-38.87537,-4.52615],[-38.87662,-4.52574],[-38.87797,-4.52478],[-38.8796,-4.524],[-38.88126,-4.52428],[-38.88303,-4.52615],[-38.88563,-4.52785],[-38.89124,-4.52842],[-38.89378,-4.52858],[-38.90074,-4.52814],[-38.90817,-4.52593],[-38.91122,-4.52427],[-38.9139,-4.52214],[-38.91572,-4.5199],[-38.91698,-4.51753],[-38.91712,-4.51302],[-38.91803,-4.51219],[-38.91935,-4.51327],[-38.92014,-4.51343],[-38.9216,-4.51207],[-38.92281,-4.51178],[-38.92373,-4.51266],[-38.92409,-4.51376],[-38.9257,-4.51486],[-38.92684,-4.51472],[-38.92888,-4.5149],[-38.92988,-4.5159],[-38.9305,-4.51753],[-38.93136,-4.51892],[-38.93296,-4.51897],[-38.93396,-4.51792],[-38.9337,-4.51483],[-38.93377,-4.51354],[-38.93511,-4.5121],[-38.93651,-4.50767],[-38.93782,-4.50282],[-38.93701,-4.50138],[-38.9361,-4.4989],[-38.93595,-4.49776],[-38.93639,-4.49677],[-38.93886,-4.49451],[-38.93987,-4.49432],[-38.94151,-4.49277],[-38.94222,-4.49729],[-38.94538,-4.50068],[-38.9494,-4.5036],[-38.97002,-4.516],[-38.98982,-4.52789],[-38.9913,-4.5288],[-39.02099,-4.56085],[-39.02106,-4.56078],[-39.05329,-4.58083],[-39.05323,-4.58738],[-39.05343,-4.59908],[-39.04763,-4.59706],[-39.04509,-4.59496],[-39.04274,-4.59189],[-39.03903,-4.59117],[-39.03005,-4.59349],[-39.01745,-4.59131],[-39.00895,-4.59444],[-39.00544,-4.59863],[-39.00121,-4.60444],[-38.99685,-4.60596],[-38.99255,-4.60538],[-38.98845,-4.60119],[-38.98279,-4.59655],[-38.97914,-4.58788],[-38.97334,-4.58532],[-38.96312,-4.58454],[-38.95439,-4.58582],[-38.94319,-4.5866],[-38.93905,-4.5867],[-38.93735,-4.58805],[-38.93761,-4.59002],[-38.93709,-4.59185],[-38.93435,-4.59355],[-38.92947,-4.59321],[-38.92685,-4.59358],[-38.92456,-4.59965],[-38.92208,-4.60266],[-38.91699,-4.60555],[-38.91098,-4.60804],[-38.90768,-4.6096],[-38.90721,-4.61093],[-38.906,-4.61101],[-38.90475,-4.61187],[-38.90328,-4.61224],[-38.8994,-4.61195],[-38.89677,-4.61152],[-38.89385,-4.61051],[-38.88972,-4.6109],[-38.88671,-4.61299],[-38.88636,-4.61303],[-38.88602,-4.61288],[-38.88744,-4.59729],[-38.88872,-4.58401],[-38.78216,-4.63053],[-38.78012,-4.62991],[-38.77781,-4.62895],[-38.77653,-4.62761],[-38.77594,-4.62772],[-38.77482,-4.62981],[-38.77245,-4.63215],[-38.77143,-4.63216],[-38.76969,-4.63141],[-38.76895,-4.63075],[-38.76769,-4.62815],[-38.76702,-4.62538],[-38.76571,-4.62324],[-38.80059,-4.58292]]]},"properties":{"codigo":"230650405","name":"Itapiúna","population":9254,"households":4000,"areaKm2":189.3908,"density":48.9}},{"type":"Feature","geometry":{"type":"Polygon","coordinates":[[[-38.97807,-4.66787],[-38.97811,-4.66912],[-38.97706,-4.66984],[-38.97462,-4.66987],[-38.97191,-4.66928],[-38.96911,-4.66778],[-38.9673,-4.66646],[-38.96549,-4.66552],[-38.96421,-4.66521],[-38.96323,-4.66533],[-38.95315,-4.66411],[-38.95167,-4.66953],[-38.9505,-4.6716],[-38.95043,-4.67307],[-38.95068,-4.67516],[-38.95182,-4.67809],[-38.95202,-4.67922],[-38.94925,-4.68257],[-38.94924,-4.68402],[-38.94964,-4.68518],[-38.95167,-4.68663],[-38.96098,-4.69588],[-38.9636,-4.69945],[-38.96519,-4.70408],[-38.96509,-4.70495],[-38.96363,-4.70597],[-38.96094,-4.71048],[-38.95966,-4.71202],[-38.95755,-4.71326],[-38.95658,-4.71463],[-38.95541,-4.71515],[-38.95346,-4.71489],[-38.95293,-4.71509],[-38.95122,-4.71697],[-38.94974,-4.72178],[-38.94722,-4.72407],[-38.94663,-4.72495],[-38.94608,-4.72785],[-38.9463,-4.73077],[-38.94602,-4.73237],[-38.94416,-4.73489],[-38.9439,-4.73573],[-38.94437,-4.73796],[-38.94407,-4.74039],[-38.94376,-4.74079],[-38.94211,-4.74089],[-38.93956,-4.73983],[-38.9376,-4.73952],[-38.93422,-4.74025],[-38.9308,-4.74046],[-38.92628,-4.7397],[-38.92518,-4.73429],[-38.92295,-4.73255],[-38.92122,-4.73053],[-38.91848,-4.72882],[-38.91653,-4.72602],[-38.91173,-4.72282],[-38.91061,-4.72019],[-38.91039,-4.71865],[-38.91083,-4.71696],[-38.91028,-4.7136],[-38.9105,-4.71192],[-38.91123,-4.7104],[-38.91078,-4.70939],[-38.90894,-4.70645],[-38.90531,-4.70191],[-38.90576,-4.70006],[-38.90458,-4.69944],[-38.90497,-4.69883],[-38.90659,-4.69776],[-38.90754,-4.69686],[-38.90793,-4.69513],[-38.90877,-4.69426],[-38.90905,-4.69314],[-38.90793,-4.69218],[-38.9076,-4.6914],[-38.90832,-4.69084],[-38.90821,-4.68983],[-38.90749,-4.68826],[-38.9076,-4.68753],[-38.90715,-4.68484],[-38.90526,-4.68389],[-38.90621,-4.68167],[-38.90615,-4.68021],[-38.90654,-4.67904],[-38.90772,-4.67741],[-38.90787,-4.67607],[-38.90911,-4.67483],[-38.91123,-4.67388],[-38.91296,-4.67065],[-38.913,-4.6696],[-38.91124,-4.66678],[-38.91082,-4.66517],[-38.90913,-4.66326],[-38.90725,-4.66178],[-38.9061,-4.66124],[-38.9055,-4.66026],[-38.90411,-4.65631],[-38.90298,-4.65475],[-38.90205,-4.65193],[-38.9005,-4.65155],[-38.89976,-4.65049],[-38.89959,-4.64908],[-38.89901,-4.6477],[-38.89861,-4.64565],[-38.89925,-4.64161],[-38.89909,-4.63934],[-38.89861,-4.63717],[-38.89753,-4.63378],[-38.89845,-4.63217],[-38.8987,-4.6307],[-38.89715,-4.62887],[-38.89585,-4.62672],[-38.89405,-4.62525],[-38.89178,-4.62508],[-38.88969,-4.62407],[-38.88746,-4.6212],[-38.88583,-4.62038],[-38.88491,-4.61891],[-38.88478,-4.61722],[-38.88546,-4.61663],[-38.88558,-4.61521],[-38.88626,-4.61474],[-38.88594,-4.61345],[-38.88636,-4.61303],[-38.88671,-4.61299],[-38.88972,-4.6109],[-38.89385,-4.61051],[-38.89677,-4.61152],[-38.8994,-4.61195],[-38.90328,-4.61224],[-38.90475,-4.61187],[-38.906,-4.61101],[-38.90721,-4.61093],[-38.90768,-4.6096],[-38.91098,-4.60804],[-38.91699,-4.60555],[-38.92208,-4.60266],[-38.92456,-4.59965],[-38.92685,-4.59358],[-38.92947,-4.59321],[-38.93435,-4.59355],[-38.93709,-4.59185],[-38.93761,-4.59002],[-38.93735,-4.58805],[-38.93905,-4.5867],[-38.94319,-4.5866],[-38.95439,-4.58582],[-38.96312,-4.58454],[-38.97334,-4.58532],[-38.97914,-4.58788],[-38.98279,-4.59655],[-38.98845,-4.60119],[-38.99255,-4.60538],[-38.99685,-4.60596],[-39.00121,-4.60444],[-39.00544,-4.59863],[-39.00895,-4.59444],[-39.01745,-4.59131],[-39.03005,-4.59349],[-39.03903,-4.59117],[-39.04274,-4.59189],[-39.04509,-4.59496],[-39.04763,-4.59706],[-39.05343,-4.59908],[-39.05323,-4.58738],[-39.05329,-4.58083],[-39.12927,-4.6282],[-39.12882,-4.62833],[-39.12604,-4.62753],[-39.12412,-4.62724],[-39.12106,-4.62564],[-39.12009,-4.62536],[-39.1192,-4.62561],[-39.11836,-4.6277],[-39.11876,-4.62912],[-39.11919,-4.63186],[-39.11912,-4.63386],[-39.11869,-4.63477],[-39.11709,-4.63698],[-39.1152,-4.63884],[-39.1139,-4.63948],[-39.11313,-4.64031],[-39.1133,-4.64199],[-39.11272,-4.64321],[-39.11212,-4.6433],[-39.10695,-4.64088],[-39.105,-4.6404],[-39.10368,-4.63965],[-39.10306,-4.63793],[-39.10181,-4.63653],[-39.10023,-4.63613],[-39.09968,-4.63668],[-39.09927,-4.63842],[-39.09805,-4.64026],[-39.09707,-4.64303],[-39.09624,-4.64372],[-39.09499,-4.64378],[-39.09398,-4.64199],[-39.09174,-4.6404],[-39.0892,-4.63896],[-39.08813,-4.63919],[-39.08474,-4.63943],[-39.08087,-4.63858],[-39.07907,-4.63848],[-39.07787,-4.63903],[-39.07648,-4.64102],[-39.0743,-4.64502],[-39.07407,-4.64691],[-39.07308,-4.64918],[-39.0694,-4.65067],[-39.06846,-4.65215],[-39.0675,-4.65309],[-39.0656,-4.6539],[-39.06396,-4.65394],[-39.06169,-4.65219],[-39.05987,-4.65116],[-39.05527,-4.64885],[-39.05297,-4.64558],[-39.05213,-4.64368],[-39.0505,-4.64158],[-39.04801,-4.6399],[-39.04558,-4.6402],[-39.04337,-4.63999],[-39.04081,-4.63929],[-39.03803,-4.63987],[-39.03717,-4.6405],[-39.035,-4.64141],[-39.03321,-4.64334],[-39.03219,-4.64386],[-39.02877,-4.64409],[-39.02708,-4.64402],[-39.02621,-4.64372],[-39.02655,-4.64174],[-39.02596,-4.64029],[-39.02516,-4.63986],[-39.022,-4.64126],[-39.02085,-4.64237],[-39.01951,-4.64268],[-39.01791,-4.64215],[-39.01526,-4.64215],[-39.01289,-4.64261],[-39.01134,-4.64413],[-39.00993,-4.64748],[-39.00869,-4.64938],[-39.00766,-4.65038],[-39.00499,-4.65113],[-39.00252,-4.65055],[-39.00029,-4.64956],[-38.99816,-4.64695],[-38.99709,-4.64642],[-38.99579,-4.64622],[-38.99407,-4.64659],[-38.99265,-4.64842],[-38.9924,-4.65173],[-38.99155,-4.65333],[-38.98946,-4.65314],[-38.98741,-4.6533],[-38.98589,-4.65314],[-38.98463,-4.65342],[-38.98333,-4.65473],[-38.98123,-4.6559],[-38.97875,-4.65761],[-38.9774,-4.65897],[-38.97677,-4.66035],[-38.97704,-4.66109],[-38.97687,-4.66553],[-38.97807,-4.66787]]]},"properties":{"codigo":"230650410","name":"Caio Prado","population":3852,"households":1689,"areaKm2":188.7712,"density":20.4}},{"type":"Feature","geometry":{"type":"Polygon","coordinates":[[[-38.78216,-4.63053],[-38.88872,-4.58401],[-38.88744,-4.59729],[-38.88602,-4.61288],[-38.88636,-4.61303],[-38.88594,-4.61345],[-38.88626,-4.61474],[-38.88558,-4.61521],[-38.88546,-4.61663],[-38.88478,-4.61722],[-38.88491,-4.61891],[-38.88583,-4.62038],[-38.88746,-4.6212],[-38.88969,-4.62407],[-38.89178,-4.62508],[-38.89405,-4.62525],[-38.89585,-4.62672],[-38.89715,-4.62887],[-38.8987,-4.6307],[-38.89845,-4.63217],[-38.89753,-4.63378],[-38.89861,-4.63717],[-38.89909,-4.63934],[-38.89925,-4.64161],[-38.89861,-4.64565],[-38.89901,-4.6477],[-38.89959,-4.64908],[-38.89976,-4.65049],[-38.9005,-4.65155],[-38.90205,-4.65193],[-38.90298,-4.65475],[-38.90411,-4.65631],[-38.9055,-4.66026],[-38.9061,-4.66124],[-38.90725,-4.66178],[-38.90913,-4.66326],[-38.91082,-4.66517],[-38.91124,-4.66678],[-38.913,-4.6696],[-38.91296,-4.67065],[-38.91123,-4.67388],[-38.90911,-4.67483],[-38.90787,-4.67607],[-38.90772,-4.67741],[-38.90654,-4.67904],[-38.90615,-4.68021],[-38.90621,-4.68167],[-38.90526,-4.68389],[-38.90715,-4.68484],[-38.9076,-4.68753],[-38.90749,-4.68826],[-38.90821,-4.68983],[-38.90832,-4.69084],[-38.9076,-4.6914],[-38.90793,-4.69218],[-38.90905,-4.69314],[-38.90877,-4.69426],[-38.90793,-4.69513],[-38.90754,-4.69686],[-38.90659,-4.69776],[-38.90497,-4.69883],[-38.90458,-4.69944],[-38.90576,-4.70006],[-38.90531,-4.70191],[-38.90894,-4.70645],[-38.91078,-4.70939],[-38.91123,-4.7104],[-38.9105,-4.71192],[-38.91028,-4.7136],[-38.91083,-4.71696],[-38.91039,-4.71865],[-38.91061,-4.72019],[-38.91173,-4.72282],[-38.91653,-4.72602],[-38.91848,-4.72882],[-38.92122,-4.73053],[-38.92295,-4.73255],[-38.92518,-4.73429],[-38.92628,-4.7397],[-38.92518,-4.73972],[-38.92333,-4.7391],[-38.92249,-4.73774],[-38.92217,-4.73666],[-38.92177,-4.73533],[-38.92068,-4.73401],[-38.91932,-4.73347],[-38.91755,-4.73124],[-38.91569,-4.73024],[-38.91402,-4.72986],[-38.91193,-4.72903],[-38.91105,-4.72819],[-38.90919,-4.72551],[-38.9069,-4.72305],[-38.90576,-4.7214],[-38.90489,-4.72139],[-38.90348,-4.72035],[-38.90138,-4.71989],[-38.90136,-4.71862],[-38.90173,-4.718],[-38.90512,-4.71414],[-38.90506,-4.71304],[-38.90302,-4.71255],[-38.90137,-4.71253],[-38.89975,-4.71278],[-38.89415,-4.71413],[-38.89213,-4.7149],[-38.89126,-4.71481],[-38.88978,-4.71228],[-38.88715,-4.70995],[-38.88576,-4.7093],[-38.88405,-4.70925],[-38.88296,-4.70821],[-38.8818,-4.70476],[-38.88095,-4.69371],[-38.87613,-4.69099],[-38.87535,-4.68993],[-38.87535,-4.68887],[-38.87694,-4.68805],[-38.87765,-4.68732],[-38.87778,-4.68616],[-38.87641,-4.68249],[-38.8744,-4.67949],[-38.87153,-4.67929],[-38.86966,-4.67791],[-38.86662,-4.67472],[-38.86374,-4.67205],[-38.86251,-4.67114],[-38.85822,-4.66701],[-38.8571,-4.66683],[-38.85307,-4.66745],[-38.84766,-4.67089],[-38.84611,-4.67139],[-38.84319,-4.67165],[-38.83962,-4.67161],[-38.83892,-4.67127],[-38.83863,-4.6704],[-38.83784,-4.66974],[-38.83654,-4.6696],[-38.83464,-4.67045],[-38.83291,-4.66945],[-38.83194,-4.66841],[-38.83099,-4.66825],[-38.82835,-4.6692],[-38.82576,-4.67084],[-38.82352,-4.67147],[-38.8209,-4.67139],[-38.81615,-4.67238],[-38.81491,-4.67238],[-38.81367,-4.67147],[-38.81386,-4.67011],[-38.81266,-4.66648],[-38.81265,-4.66528],[-38.81207,-4.66435],[-38.8108,-4.66319],[-38.8071,-4.66144],[-38.80575,-4.66015],[-38.80459,-4.65871],[-38.80396,-4.65695],[-38.80322,-4.65411],[-38.80327,-4.65152],[-38.80227,-4.64936],[-38.8014,-4.64893],[-38.79846,-4.6491],[-38.79581,-4.64893],[-38.79217,-4.64786],[-38.79,-4.6462],[-38.7895,-4.64528],[-38.78873,-4.64166],[-38.78824,-4.64026],[-38.78668,-4.63956],[-38.7857,-4.63998],[-38.78422,-4.64117],[-38.78275,-4.64063],[-38.78259,-4.6396],[-38.7828,-4.63811],[-38.78374,-4.63512],[-38.7834,-4.63288],[-38.78287,-4.63122],[-38.78216,-4.63053]]]},"properties":{"codigo":"230650415","name":"Itans","population":1788,"households":705,"areaKm2":99.3155,"density":18}},{"type":"Feature","geometry":{"type":"Polygon","coordinates":[[[-39.02836,-4.46033],[-39.08504,-4.47165],[-39.08481,-4.4745],[-39.08401,-4.47577],[-39.0837,-4.47716],[-39.0839,-4.48024],[-39.08288,-4.48127],[-39.0828,-4.48211],[-39.08088,-4.48334],[-39.07919,-4.48562],[-39.08014,-4.48694],[-39.08196,-4.4883],[-39.08232,-4.48903],[-39.08338,-4.48932],[-39.08461,-4.49056],[-39.08514,-4.49179],[-39.08644,-4.49204],[-39.08868,-4.49397],[-39.08769,-4.49448],[-39.08748,-4.49717],[-39.08804,-4.49809],[-39.08741,-4.49962],[-39.08652,-4.49964],[-39.08629,-4.50067],[-39.08359,-4.50244],[-39.08244,-4.5041],[-39.08243,-4.50499],[-39.08323,-4.50748],[-39.08229,-4.50841],[-39.08206,-4.51004],[-39.08288,-4.51068],[-39.08284,-4.51183],[-39.08434,-4.51319],[-39.08403,-4.51494],[-39.08495,-4.51635],[-39.08428,-4.5182],[-39.08577,-4.51891],[-39.08675,-4.52045],[-39.08524,-4.52218],[-39.08594,-4.52253],[-39.08544,-4.5235],[-39.08554,-4.52449],[-39.08437,-4.52516],[-39.08399,-4.52609],[-39.08391,-4.52769],[-39.08315,-4.52883],[-39.08322,-4.53042],[-39.08158,-4.53154],[-39.08213,-4.53276],[-39.08316,-4.53393],[-39.08412,-4.536],[-39.08547,-4.53585],[-39.08571,-4.53774],[-39.08478,-4.53811],[-39.08301,-4.53774],[-39.08225,-4.53859],[-39.08206,-4.53948],[-39.08025,-4.53901],[-39.07919,-4.5382],[-39.0782,-4.53868],[-39.07708,-4.53827],[-39.07627,-4.53856],[-39.07635,-4.53958],[-39.0777,-4.54135],[-39.07746,-4.54275],[-39.0766,-4.5438],[-39.0755,-4.54381],[-39.07639,-4.54547],[-39.07727,-4.54784],[-39.07504,-4.54886],[-39.07398,-4.54762],[-39.07335,-4.54765],[-39.07138,-4.54588],[-39.07045,-4.54606],[-39.07029,-4.54764],[-39.07086,-4.54827],[-39.07062,-4.54908],[-39.07079,-4.55116],[-39.06954,-4.55202],[-39.06823,-4.55205],[-39.06858,-4.55302],[-39.06866,-4.55492],[-39.067,-4.55685],[-39.066,-4.5595],[-39.06559,-4.5611],[-39.1298,-4.62815],[-39.12927,-4.6282],[-39.05329,-4.58083],[-39.02106,-4.56078],[-39.02099,-4.56085],[-38.9913,-4.5288],[-38.98982,-4.52789],[-38.97002,-4.516],[-38.9494,-4.5036],[-38.94538,-4.50068],[-38.94222,-4.49729],[-38.94151,-4.49277],[-38.94271,-4.49111],[-38.94361,-4.49035],[-38.94467,-4.49008],[-38.94697,-4.4887],[-38.94798,-4.48769],[-38.94988,-4.48767],[-38.95125,-4.48846],[-38.952,-4.48933],[-38.95438,-4.49083],[-38.95592,-4.49112],[-38.95964,-4.49023],[-38.96294,-4.49069],[-38.96605,-4.49182],[-38.96829,-4.49158],[-38.96958,-4.49113],[-38.97131,-4.49205],[-38.97382,-4.494],[-38.97523,-4.4954],[-38.97692,-4.49524],[-38.97823,-4.49594],[-38.98011,-4.49654],[-38.98408,-4.49608],[-38.98509,-4.49567],[-38.98696,-4.49363],[-38.98986,-4.49329],[-38.99095,-4.49288],[-38.99186,-4.49062],[-38.9933,-4.49007],[-38.99476,-4.48842],[-38.99537,-4.48691],[-38.9962,-4.48645],[-38.99664,-4.48527],[-38.99797,-4.48375],[-38.99856,-4.48246],[-38.99881,-4.48082],[-39.00406,-4.48157],[-39.00608,-4.48387],[-39.00731,-4.48605],[-39.00702,-4.48726],[-39.00735,-4.48874],[-39.00793,-4.48933],[-39.00699,-4.49124],[-39.00756,-4.49154],[-39.00849,-4.49326],[-39.00881,-4.49497],[-39.01052,-4.49578],[-39.00969,-4.49697],[-39.01064,-4.4974],[-39.0116,-4.49838],[-39.01319,-4.49906],[-39.01335,-4.49982],[-39.01282,-4.50121],[-39.01318,-4.50194],[-39.01414,-4.50231],[-39.01511,-4.50208],[-39.01529,-4.50331],[-39.01592,-4.50408],[-39.01606,-4.50509],[-39.01672,-4.5058],[-39.01589,-4.50682],[-39.0154,-4.50859],[-39.01375,-4.50808],[-39.01356,-4.50918],[-39.0138,-4.51033],[-39.01363,-4.51144],[-39.01309,-4.51237],[-39.01367,-4.51274],[-39.01353,-4.51415],[-39.01453,-4.515],[-39.01534,-4.51422],[-39.01604,-4.5143],[-39.01704,-4.51366],[-39.01809,-4.51419],[-39.01918,-4.51289],[-39.02019,-4.51236],[-39.02038,-4.51018],[-39.02173,-4.50955],[-39.02243,-4.50859],[-39.02177,-4.50763],[-39.02065,-4.50737],[-39.02058,-4.50669],[-39.02175,-4.50563],[-39.02372,-4.50502],[-39.0237,-4.50432],[-39.02439,-4.50297],[-39.025,-4.50317],[-39.02641,-4.50148],[-39.02579,-4.49959],[-39.02676,-4.49901],[-39.02809,-4.49912],[-39.02887,-4.49848],[-39.02853,-4.49642],[-39.02784,-4.4962],[-39.02799,-4.49371],[-39.02695,-4.49314],[-39.02717,-4.49233],[-39.0268,-4.49114],[-39.02812,-4.49077],[-39.02745,-4.4894],[-39.02835,-4.48916],[-39.02859,-4.48816],[-39.02934,-4.48715],[-39.02905,-4.48559],[-39.03,-4.4839],[-39.03142,-4.48288],[-39.03181,-4.48188],[-39.03336,-4.48099],[-39.033,-4.47993],[-39.03295,-4.4782],[-39.03542,-4.47678],[-39.03546,-4.47608],[-39.03346,-4.47441],[-39.03401,-4.47299],[-39.03534,-4.4713],[-39.03468,-4.46997],[-39.0345,-4.4675],[-39.03368,-4.46611],[-39.03141,-4.46544],[-39.02925,-4.46335],[-39.02836,-4.46033]]]},"properties":{"codigo":"230650420","name":"Palmatória","population":2947,"households":1156,"areaKm2":115.7534,"density":25.5}}]}