{"type":"FeatureCollection","features":[{"type":"Feature","geometry":{"type":"Polygon","coordinates":[[[-39.00398,-7.68334],[-39.01266,-7.66527],[-39.01278,-7.66527],[-39.01606,-7.66718],[-39.0223,-7.67125],[-39.0246,-7.68324],[-39.02295,-7.68546],[-39.0216,-7.68518],[-39.0193,-7.6842],[-39.01827,-7.6833],[-39.01776,-7.68344],[-39.01604,-7.68463],[-39.0151,-7.68461],[-39.01408,-7.68516],[-39.01209,-7.68561],[-39.01108,-7.68593],[-39.00944,-7.68601],[-39.00795,-7.68545],[-39.00716,-7.68511],[-39.00592,-7.68414],[-39.00533,-7.68336],[-39.00456,-7.68309],[-39.00398,-7.68334]]]},"properties":{"codigo":"2307205004","name":"Portal de Santana","population":93,"households":43,"areaKm2":3.2756,"density":28.4}},{"type":"Feature","geometry":{"type":"Polygon","coordinates":[[[-39.00795,-7.68545],[-39.0072,-7.68735],[-39.00726,-7.68846],[-39.00715,-7.68887],[-39.00758,-7.68954],[-39.00754,-7.69017],[-39.00666,-7.69027],[-39.00587,-7.6906],[-39.00545,-7.68951],[-39.00322,-7.69019],[-39.0023,-7.69038],[-39.00216,-7.68946],[-39.00158,-7.6869],[-39.00164,-7.68535],[-39.00324,-7.68612],[-39.00388,-7.6857],[-39.00364,-7.68538],[-39.00381,-7.68485],[-39.00429,-7.68446],[-39.00388,-7.68398],[-39.00398,-7.68334],[-39.00456,-7.68309],[-39.00533,-7.68336],[-39.00592,-7.68414],[-39.00716,-7.68511],[-39.00795,-7.68545]]]},"properties":{"codigo":"2307205001","name":"Centro","population":1501,"households":648,"areaKm2":0.3717,"density":4038.7}},{"type":"Feature","geometry":{"type":"Polygon","coordinates":[[[-39.0246,-7.68324],[-39.02783,-7.69797],[-39.02768,-7.70149],[-39.02737,-7.70801],[-39.00164,-7.70976],[-39.00072,-7.70881],[-39.00001,-7.7085],[-38.99967,-7.70808],[-38.99973,-7.70665],[-38.99886,-7.70536],[-38.99762,-7.70491],[-38.99723,-7.70456],[-38.9999,-7.70162],[-39.00219,-7.69917],[-39.00479,-7.69631],[-39.0072,-7.69286],[-39.00715,-7.69108],[-39.00676,-7.69105],[-39.00666,-7.69027],[-39.00754,-7.69017],[-39.00758,-7.68954],[-39.00715,-7.68887],[-39.00726,-7.68846],[-39.0072,-7.68735],[-39.00795,-7.68545],[-39.00944,-7.68601],[-39.01108,-7.68593],[-39.01209,-7.68561],[-39.01408,-7.68516],[-39.0151,-7.68461],[-39.01604,-7.68463],[-39.01776,-7.68344],[-39.01827,-7.6833],[-39.0193,-7.6842],[-39.0216,-7.68518],[-39.02295,-7.68546],[-39.0246,-7.68324]]]},"properties":{"codigo":"2307205003","name":"Bela Vista","population":1313,"households":574,"areaKm2":6.8557,"density":191.5}},{"type":"Feature","geometry":{"type":"Polygon","coordinates":[[[-39.00666,-7.69027],[-39.00676,-7.69105],[-39.00715,-7.69108],[-39.0072,-7.69286],[-39.00479,-7.69631],[-39.00219,-7.69917],[-38.9999,-7.70162],[-38.99723,-7.70456],[-38.99665,-7.70423],[-38.99571,-7.70466],[-38.99522,-7.70455],[-38.99521,-7.70313],[-38.99457,-7.7032],[-38.99487,-7.70258],[-38.99444,-7.70214],[-38.99541,-7.70124],[-38.99585,-7.7003],[-38.99556,-7.69982],[-38.99588,-7.69859],[-38.9956,-7.69829],[-38.99491,-7.6986],[-38.99454,-7.69778],[-38.99462,-7.69676],[-38.99422,-7.6966],[-38.99359,-7.69696],[-38.99341,-7.69594],[-38.99357,-7.6955],[-38.99335,-7.69449],[-38.99397,-7.69358],[-38.9954,-7.69329],[-38.99582,-7.69282],[-38.99613,-7.69192],[-38.99625,-7.6908],[-38.99672,-7.68851],[-38.99665,-7.68759],[-38.99607,-7.6869],[-38.99657,-7.68587],[-38.99794,-7.68484],[-38.99855,-7.68407],[-38.99932,-7.68368],[-39.0006,-7.68341],[-39.00107,-7.68365],[-39.00166,-7.6844],[-39.00164,-7.68535],[-39.00158,-7.6869],[-39.00216,-7.68946],[-39.0023,-7.69038],[-39.00322,-7.69019],[-39.00545,-7.68951],[-39.00587,-7.6906],[-39.00666,-7.69027]]]},"properties":{"codigo":"2307205002","name":"Matulão","population":812,"households":370,"areaKm2":1.8508,"density":438.7}}]}