{"type":"FeatureCollection","features":[{"type":"Feature","geometry":{"type":"Polygon","coordinates":[[[-38.65431,-3.85867],[-38.65198,-3.85625],[-38.64986,-3.85411],[-38.64845,-3.85262],[-38.64681,-3.85429],[-38.64434,-3.85179],[-38.64054,-3.85507],[-38.63884,-3.85712],[-38.6328,-3.86506],[-38.63225,-3.86571],[-38.63095,-3.86668],[-38.63045,-3.86638],[-38.63051,-3.8657],[-38.63006,-3.86462],[-38.62951,-3.86426],[-38.62919,-3.86358],[-38.62823,-3.86373],[-38.62791,-3.86319],[-38.62709,-3.8612],[-38.6271,-3.86067],[-38.62746,-3.85993],[-38.62699,-3.85905],[-38.62697,-3.85823],[-38.62716,-3.85784],[-38.62733,-3.85665],[-38.62723,-3.85575],[-38.62681,-3.85512],[-38.62735,-3.85415],[-38.62702,-3.85372],[-38.6266,-3.85275],[-38.62605,-3.85223],[-38.62591,-3.85131],[-38.62511,-3.84989],[-38.62498,-3.84921],[-38.62421,-3.84905],[-38.62407,-3.84966],[-38.62288,-3.84995],[-38.62252,-3.84968],[-38.62178,-3.8482],[-38.62218,-3.84762],[-38.62211,-3.84715],[-38.62127,-3.84708],[-38.62815,-3.84504],[-38.6314,-3.84433],[-38.63877,-3.84261],[-38.64,-3.8442],[-38.64047,-3.84393],[-38.64168,-3.84364],[-38.64478,-3.84305],[-38.64636,-3.84264],[-38.64669,-3.84384],[-38.6472,-3.84509],[-38.64744,-3.84619],[-38.64842,-3.84699],[-38.64918,-3.84741],[-38.65136,-3.84705],[-38.65172,-3.84906],[-38.6537,-3.84868],[-38.65396,-3.8501],[-38.65444,-3.8501],[-38.65571,-3.8515],[-38.65582,-3.85195],[-38.65558,-3.85261],[-38.65508,-3.85309],[-38.65523,-3.85401],[-38.65518,-3.85481],[-38.65431,-3.85867]]]},"properties":{"codigo":"2307650023","name":"Cágado","population":12415,"households":5615,"areaKm2":4.7856,"density":2594.2}},{"type":"Feature","geometry":{"type":"Polygon","coordinates":[[[-38.62064,-3.84307],[-38.61916,-3.84375],[-38.61628,-3.84528],[-38.60777,-3.84995],[-38.60482,-3.84566],[-38.60424,-3.84491],[-38.60767,-3.8429],[-38.60957,-3.84192],[-38.60964,-3.84175],[-38.6125,-3.83996],[-38.61737,-3.83721],[-38.61888,-3.83598],[-38.61907,-3.83667],[-38.61961,-3.83758],[-38.6198,-3.83817],[-38.61937,-3.83838],[-38.61892,-3.83957],[-38.61908,-3.84009],[-38.61871,-3.84098],[-38.61867,-3.84152],[-38.61906,-3.842],[-38.62064,-3.84307]]]},"properties":{"codigo":"2307650033","name":"Novo Oriente","population":8260,"households":3237,"areaKm2":1.2015,"density":6874.5}},{"type":"Feature","geometry":{"type":"Polygon","coordinates":[[[-38.62127,-3.84708],[-38.62072,-3.84724],[-38.61688,-3.84929],[-38.61191,-3.85183],[-38.61093,-3.85248],[-38.61056,-3.85302],[-38.61037,-3.85369],[-38.60878,-3.85141],[-38.60902,-3.85125],[-38.61503,-3.84819],[-38.61989,-3.84565],[-38.62081,-3.84509],[-38.62118,-3.84535],[-38.62123,-3.84584],[-38.62078,-3.84641],[-38.62127,-3.84708]]]},"properties":{"codigo":"2307650035","name":"Acaracuzinho II","population":3745,"households":1483,"areaKm2":0.3044,"density":12303.2}},{"type":"Feature","geometry":{"type":"Polygon","coordinates":[[[-38.62115,-3.87888],[-38.616,-3.87693],[-38.61609,-3.8767],[-38.61806,-3.87138],[-38.61996,-3.87084],[-38.62033,-3.87102],[-38.62098,-3.87222],[-38.6221,-3.87279],[-38.6222,-3.87381],[-38.6219,-3.87454],[-38.62224,-3.87475],[-38.62241,-3.87751],[-38.62226,-3.87792],[-38.6215,-3.87801],[-38.62115,-3.87888]]]},"properties":{"codigo":"2307650009","name":"Jereissati Setor A","population":6920,"households":2647,"areaKm2":0.4216,"density":16412.9}},{"type":"Feature","geometry":{"type":"Polygon","coordinates":[[[-38.63095,-3.86668],[-38.63191,-3.86778],[-38.63267,-3.8678],[-38.63281,-3.86756],[-38.6348,-3.86821],[-38.63538,-3.86871],[-38.63178,-3.87238],[-38.63,-3.87429],[-38.62932,-3.87607],[-38.6247,-3.87434],[-38.62443,-3.87353],[-38.62577,-3.8702],[-38.62673,-3.86758],[-38.62823,-3.86373],[-38.62919,-3.86358],[-38.62951,-3.86426],[-38.63006,-3.86462],[-38.63051,-3.8657],[-38.63045,-3.86638],[-38.63095,-3.86668]]]},"properties":{"codigo":"2307650002","name":"Parque Piratininga","population":4287,"households":1589,"areaKm2":0.8125,"density":5276}},{"type":"Feature","geometry":{"type":"Polygon","coordinates":[[[-38.62349,-3.88358],[-38.62532,-3.88335],[-38.62537,-3.88396],[-38.62598,-3.88395],[-38.62602,-3.88523],[-38.62604,-3.88536],[-38.62414,-3.88556],[-38.62426,-3.88645],[-38.62263,-3.88585],[-38.62051,-3.88604],[-38.61968,-3.88556],[-38.62347,-3.88385],[-38.62349,-3.88358]]]},"properties":{"codigo":"2307650012","name":"Independência","population":821,"households":296,"areaKm2":0.1221,"density":6722.3}},{"type":"Feature","geometry":{"type":"Polygon","coordinates":[[[-38.62846,-3.83165],[-38.62726,-3.83275],[-38.62125,-3.83457],[-38.61853,-3.83566],[-38.6186,-3.83456],[-38.61793,-3.83445],[-38.61769,-3.83384],[-38.61789,-3.83328],[-38.61776,-3.83285],[-38.61712,-3.8323],[-38.61691,-3.83177],[-38.62213,-3.829],[-38.6238,-3.82787],[-38.6246,-3.8276],[-38.62475,-3.82785],[-38.62846,-3.83165]]]},"properties":{"codigo":"2307650026","name":"Alto Alegre","population":699,"households":291,"areaKm2":0.5823,"density":1200.5}},{"type":"Feature","geometry":{"type":"Polygon","coordinates":[[[-38.62674,-3.90425],[-38.62637,-3.90453],[-38.62574,-3.90454],[-38.62539,-3.90495],[-38.62535,-3.90661],[-38.62488,-3.90699],[-38.62462,-3.90778],[-38.62341,-3.90932],[-38.62213,-3.90955],[-38.61929,-3.91027],[-38.61895,-3.90902],[-38.6204,-3.90868],[-38.6199,-3.90678],[-38.62134,-3.90642],[-38.62099,-3.90487],[-38.62146,-3.90358],[-38.62388,-3.90399],[-38.62674,-3.90425]]]},"properties":{"codigo":"2307650016","name":"Carneiro de Mendonça","population":1514,"households":532,"areaKm2":0.3151,"density":4804.6}},{"type":"Feature","geometry":{"type":"Polygon","coordinates":[[[-38.61464,-3.82328],[-38.61513,-3.82366],[-38.616,-3.82378],[-38.61617,-3.82451],[-38.61665,-3.82461],[-38.61719,-3.82528],[-38.61807,-3.82567],[-38.61879,-3.82575],[-38.6209,-3.82562],[-38.62144,-3.82574],[-38.62231,-3.82551],[-38.62401,-3.8271],[-38.6246,-3.82742],[-38.6246,-3.8276],[-38.6238,-3.82787],[-38.62213,-3.829],[-38.61691,-3.83177],[-38.61714,-3.83085],[-38.61669,-3.82999],[-38.61674,-3.82918],[-38.61616,-3.82884],[-38.61522,-3.82753],[-38.61469,-3.82706],[-38.61457,-3.82658],[-38.61511,-3.82601],[-38.61471,-3.82518],[-38.6147,-3.82393],[-38.61464,-3.82328]]]},"properties":{"codigo":"2307650030","name":"Parque Santa Maria","population":561,"households":212,"areaKm2":0.4722,"density":1187.9}},{"type":"Feature","geometry":{"type":"Polygon","coordinates":[[[-38.59263,-3.83519],[-38.59452,-3.83395],[-38.59664,-3.83338],[-38.59769,-3.83524],[-38.59563,-3.83633],[-38.59534,-3.83588],[-38.59211,-3.83787],[-38.58972,-3.83939],[-38.58897,-3.83955],[-38.5876,-3.83891],[-38.5896,-3.83753],[-38.59002,-3.83697],[-38.59263,-3.83519]]]},"properties":{"codigo":"2307650036","name":"Esplanada do Mondubim","population":1033,"households":402,"areaKm2":0.2217,"density":4659.8}},{"type":"Feature","geometry":{"type":"Polygon","coordinates":[[[-38.6379,-3.8014],[-38.63827,-3.80251],[-38.6394,-3.80292],[-38.63939,-3.80405],[-38.63952,-3.80454],[-38.63997,-3.80467],[-38.63959,-3.80525],[-38.63458,-3.81408],[-38.63206,-3.81845],[-38.63112,-3.8177],[-38.63078,-3.81784],[-38.62982,-3.81655],[-38.62998,-3.81644],[-38.62922,-3.81519],[-38.62794,-3.81289],[-38.62684,-3.81124],[-38.62807,-3.81037],[-38.63053,-3.80974],[-38.62977,-3.80654],[-38.63323,-3.80567],[-38.63634,-3.80503],[-38.63773,-3.80469],[-38.6379,-3.8014]]]},"properties":{"codigo":"2307650028","name":"Jatobá","population":5202,"households":2170,"areaKm2":1.0855,"density":4792.1}},{"type":"Feature","geometry":{"type":"Polygon","coordinates":[[[-38.62231,-3.82551],[-38.62113,-3.8243],[-38.62217,-3.82361],[-38.62558,-3.82096],[-38.62505,-3.82024],[-38.62596,-3.81954],[-38.62522,-3.81823],[-38.62922,-3.81519],[-38.62998,-3.81644],[-38.62982,-3.81655],[-38.63078,-3.81784],[-38.63112,-3.8177],[-38.63206,-3.81845],[-38.63033,-3.82085],[-38.62726,-3.82486],[-38.6262,-3.82594],[-38.62485,-3.82704],[-38.6246,-3.82742],[-38.62401,-3.8271],[-38.62231,-3.82551]]]},"properties":{"codigo":"2307650027","name":"Jari","population":2533,"households":1139,"areaKm2":0.6624,"density":3823.9}},{"type":"Feature","geometry":{"type":"Polygon","coordinates":[[[-38.6147,-3.82393],[-38.61471,-3.82518],[-38.61511,-3.82601],[-38.61457,-3.82658],[-38.61469,-3.82706],[-38.61522,-3.82753],[-38.61616,-3.82884],[-38.61674,-3.82918],[-38.61669,-3.82999],[-38.61714,-3.83085],[-38.61691,-3.83177],[-38.611,-3.83476],[-38.60279,-3.83824],[-38.60042,-3.83931],[-38.59769,-3.83524],[-38.59664,-3.83338],[-38.60245,-3.83033],[-38.6034,-3.82989],[-38.60734,-3.82777],[-38.61222,-3.82523],[-38.6136,-3.82444],[-38.6147,-3.82393]]]},"properties":{"codigo":"2307650031","name":"Alto Alegre I","population":6616,"households":2763,"areaKm2":1.7954,"density":3684.9}},{"type":"Feature","geometry":{"type":"Polygon","coordinates":[[[-38.61007,-3.87705],[-38.6141,-3.87859],[-38.61313,-3.88116],[-38.6124,-3.88299],[-38.61151,-3.88345],[-38.61098,-3.88412],[-38.60857,-3.88293],[-38.6071,-3.88243],[-38.60638,-3.88247],[-38.60566,-3.88274],[-38.60569,-3.88226],[-38.60631,-3.88209],[-38.61007,-3.87705]]]},"properties":{"codigo":"2307650007","name":"Jereissati Setor C","population":5892,"households":2377,"areaKm2":0.3815,"density":15444.6}},{"type":"Feature","geometry":{"type":"Polygon","coordinates":[[[-38.63881,-3.89085],[-38.63844,-3.89174],[-38.6385,-3.89221],[-38.64053,-3.89334],[-38.64387,-3.89796],[-38.64403,-3.89872],[-38.64376,-3.90083],[-38.643,-3.90234],[-38.64305,-3.90315],[-38.64363,-3.90395],[-38.64432,-3.906],[-38.64447,-3.90681],[-38.64478,-3.9075],[-38.64881,-3.91067],[-38.64821,-3.91086],[-38.64467,-3.91132],[-38.64077,-3.91296],[-38.63991,-3.91315],[-38.63733,-3.91215],[-38.6364,-3.91211],[-38.63408,-3.91309],[-38.63358,-3.91352],[-38.63272,-3.91475],[-38.63179,-3.91538],[-38.62923,-3.91608],[-38.62951,-3.91468],[-38.62954,-3.91394],[-38.62978,-3.91357],[-38.62945,-3.91225],[-38.62956,-3.91176],[-38.62916,-3.91108],[-38.62962,-3.91082],[-38.62981,-3.9099],[-38.63034,-3.90958],[-38.6303,-3.90856],[-38.62967,-3.90789],[-38.6297,-3.90691],[-38.63033,-3.90583],[-38.63033,-3.90528],[-38.63085,-3.90447],[-38.63169,-3.90417],[-38.63208,-3.90371],[-38.63223,-3.90222],[-38.63193,-3.90194],[-38.63142,-3.90061],[-38.63106,-3.90028],[-38.63112,-3.8986],[-38.63053,-3.89764],[-38.63077,-3.89658],[-38.63146,-3.89573],[-38.6311,-3.8953],[-38.63076,-3.89438],[-38.63006,-3.89393],[-38.62794,-3.89285],[-38.62749,-3.89281],[-38.6269,-3.89199],[-38.62628,-3.89181],[-38.62597,-3.89145],[-38.62599,-3.89092],[-38.62538,-3.89096],[-38.62558,-3.89044],[-38.62617,-3.89056],[-38.62921,-3.89002],[-38.63106,-3.88956],[-38.63659,-3.88836],[-38.63717,-3.88888],[-38.63679,-3.88973],[-38.63881,-3.89085]]]},"properties":{"codigo":"2307650018","name":"Furna da Onça","population":1006,"households":529,"areaKm2":3.8581,"density":260.7}},{"type":"Feature","geometry":{"type":"Polygon","coordinates":[[[-38.62127,-3.84708],[-38.62078,-3.84641],[-38.62123,-3.84584],[-38.62118,-3.84535],[-38.62081,-3.84509],[-38.62048,-3.84346],[-38.62064,-3.84307],[-38.61906,-3.842],[-38.61867,-3.84152],[-38.61871,-3.84098],[-38.61908,-3.84009],[-38.61892,-3.83957],[-38.61937,-3.83838],[-38.6198,-3.83817],[-38.61961,-3.83758],[-38.61907,-3.83667],[-38.61888,-3.83598],[-38.61853,-3.83566],[-38.62125,-3.83457],[-38.62726,-3.83275],[-38.62846,-3.83165],[-38.6301,-3.83307],[-38.63079,-3.83404],[-38.63146,-3.83474],[-38.63191,-3.83563],[-38.63267,-3.83785],[-38.63322,-3.8388],[-38.63414,-3.83981],[-38.63614,-3.84088],[-38.63762,-3.8416],[-38.63877,-3.84261],[-38.6314,-3.84433],[-38.62815,-3.84504],[-38.62127,-3.84708]]]},"properties":{"codigo":"2307650025","name":"Tijuca","population":3151,"households":1396,"areaKm2":2.0927,"density":1505.7}},{"type":"Feature","geometry":{"type":"Polygon","coordinates":[[[-38.61609,-3.8767],[-38.61587,-3.8766],[-38.61533,-3.87806],[-38.6141,-3.87859],[-38.61007,-3.87705],[-38.61302,-3.87302],[-38.61312,-3.87281],[-38.61659,-3.87175],[-38.61806,-3.87138],[-38.61609,-3.8767]]]},"properties":{"codigo":"2307650008","name":"Jereissati Setor B","population":5028,"households":1987,"areaKm2":0.3655,"density":13756}},{"type":"Feature","geometry":{"type":"Polygon","coordinates":[[[-38.62115,-3.87888],[-38.62234,-3.8794],[-38.6224,-3.8806],[-38.62273,-3.88138],[-38.62195,-3.88176],[-38.62244,-3.88291],[-38.62329,-3.88251],[-38.62349,-3.88358],[-38.62347,-3.88385],[-38.61968,-3.88556],[-38.61586,-3.8841],[-38.61554,-3.88322],[-38.61507,-3.88255],[-38.61368,-3.88207],[-38.61313,-3.88116],[-38.6141,-3.87859],[-38.61533,-3.87806],[-38.61587,-3.8766],[-38.61609,-3.8767],[-38.616,-3.87693],[-38.62115,-3.87888]]]},"properties":{"codigo":"2307650010","name":"Jereissati Setor D","population":11403,"households":4411,"areaKm2":0.6845,"density":16659.1}},{"type":"Feature","geometry":{"type":"Polygon","coordinates":[[[-38.60566,-3.88274],[-38.60487,-3.88227],[-38.60486,-3.88196],[-38.60432,-3.88153],[-38.60383,-3.88143],[-38.60354,-3.88187],[-38.60195,-3.88168],[-38.60128,-3.88195],[-38.60079,-3.88189],[-38.60013,-3.88151],[-38.59971,-3.88177],[-38.59785,-3.88205],[-38.59753,-3.88266],[-38.59713,-3.88287],[-38.59567,-3.87788],[-38.59506,-3.87605],[-38.59592,-3.876],[-38.59707,-3.87563],[-38.59773,-3.8775],[-38.60222,-3.87615],[-38.60821,-3.8743],[-38.61312,-3.87281],[-38.61302,-3.87302],[-38.61007,-3.87705],[-38.60631,-3.88209],[-38.60569,-3.88226],[-38.60566,-3.88274]]]},"properties":{"codigo":"2307650006","name":"Conjunto Timbó","population":14499,"households":5928,"areaKm2":1.0404,"density":13935.7}},{"type":"Feature","geometry":{"type":"Polygon","coordinates":[[[-38.62791,-3.86319],[-38.62526,-3.86604],[-38.62344,-3.86816],[-38.62243,-3.86917],[-38.62208,-3.86994],[-38.61746,-3.86356],[-38.61283,-3.85708],[-38.61037,-3.85369],[-38.61056,-3.85302],[-38.61093,-3.85248],[-38.61191,-3.85183],[-38.61688,-3.84929],[-38.62072,-3.84724],[-38.62127,-3.84708],[-38.62211,-3.84715],[-38.62218,-3.84762],[-38.62178,-3.8482],[-38.62252,-3.84968],[-38.62288,-3.84995],[-38.62407,-3.84966],[-38.62421,-3.84905],[-38.62498,-3.84921],[-38.62511,-3.84989],[-38.62591,-3.85131],[-38.62605,-3.85223],[-38.6266,-3.85275],[-38.62702,-3.85372],[-38.62735,-3.85415],[-38.62681,-3.85512],[-38.62723,-3.85575],[-38.62733,-3.85665],[-38.62716,-3.85784],[-38.62697,-3.85823],[-38.62699,-3.85905],[-38.62746,-3.85993],[-38.6271,-3.86067],[-38.62709,-3.8612],[-38.62791,-3.86319]]]},"properties":{"codigo":"2307650004","name":"Novo Maracanaú","population":9815,"households":3798,"areaKm2":2.7784,"density":3532.6}},{"type":"Feature","geometry":{"type":"Polygon","coordinates":[[[-38.65545,-3.85992],[-38.65764,-3.86213],[-38.66082,-3.86544],[-38.65714,-3.86828],[-38.65567,-3.86952],[-38.65529,-3.86994],[-38.65375,-3.87122],[-38.65178,-3.87311],[-38.64992,-3.87395],[-38.64659,-3.87573],[-38.64636,-3.87555],[-38.64567,-3.87535],[-38.64836,-3.87024],[-38.65018,-3.86733],[-38.65057,-3.86717],[-38.65182,-3.86478],[-38.65241,-3.86352],[-38.65408,-3.86148],[-38.65545,-3.85992]]]},"properties":{"codigo":"2307650021","name":"Pau Serrado","population":2050,"households":821,"areaKm2":1.0877,"density":1884.7}},{"type":"Feature","geometry":{"type":"Polygon","coordinates":[[[-38.65431,-3.85867],[-38.65545,-3.85992],[-38.65408,-3.86148],[-38.65241,-3.86352],[-38.65182,-3.86478],[-38.65057,-3.86717],[-38.65018,-3.86733],[-38.64836,-3.87024],[-38.64567,-3.87535],[-38.64514,-3.87521],[-38.64417,-3.87523],[-38.64425,-3.87443],[-38.644,-3.87418],[-38.64409,-3.87348],[-38.64331,-3.87282],[-38.64222,-3.87241],[-38.64198,-3.87202],[-38.64078,-3.87197],[-38.64025,-3.87165],[-38.64009,-3.87124],[-38.63945,-3.87054],[-38.63855,-3.87012],[-38.63736,-3.87022],[-38.63706,-3.86971],[-38.63538,-3.86871],[-38.6348,-3.86821],[-38.63281,-3.86756],[-38.63267,-3.8678],[-38.63191,-3.86778],[-38.63095,-3.86668],[-38.63225,-3.86571],[-38.6328,-3.86506],[-38.63884,-3.85712],[-38.64054,-3.85507],[-38.64434,-3.85179],[-38.64681,-3.85429],[-38.64845,-3.85262],[-38.64986,-3.85411],[-38.65198,-3.85625],[-38.65431,-3.85867]]]},"properties":{"codigo":"2307650020","name":"Parque Luzardo Viana","population":10955,"households":4253,"areaKm2":3.5794,"density":3060.6}},{"type":"Feature","geometry":{"type":"Polygon","coordinates":[[[-38.62602,-3.88523],[-38.62739,-3.885],[-38.62953,-3.88414],[-38.63011,-3.88371],[-38.63368,-3.88566],[-38.63356,-3.88586],[-38.63494,-3.88663],[-38.63443,-3.88695],[-38.63556,-3.88752],[-38.63659,-3.88836],[-38.63106,-3.88956],[-38.62921,-3.89002],[-38.62617,-3.89056],[-38.62558,-3.89044],[-38.62573,-3.88983],[-38.62546,-3.88934],[-38.62659,-3.88787],[-38.62693,-3.88689],[-38.62599,-3.88689],[-38.62604,-3.88536],[-38.62602,-3.88523]]]},"properties":{"codigo":"2307650014","name":"Alto da Mangueira","population":5357,"households":2111,"areaKm2":0.5357,"density":10000}},{"type":"Feature","geometry":{"type":"Polygon","coordinates":[[[-38.62674,-3.90425],[-38.63085,-3.90447],[-38.63033,-3.90528],[-38.63033,-3.90583],[-38.6297,-3.90691],[-38.62967,-3.90789],[-38.6303,-3.90856],[-38.63034,-3.90958],[-38.62981,-3.9099],[-38.62962,-3.91082],[-38.62916,-3.91108],[-38.62956,-3.91176],[-38.62945,-3.91225],[-38.62978,-3.91357],[-38.62954,-3.91394],[-38.62951,-3.91468],[-38.62923,-3.91608],[-38.62411,-3.91753],[-38.62172,-3.92146],[-38.62133,-3.92224],[-38.62128,-3.92291],[-38.62207,-3.92698],[-38.62237,-3.92872],[-38.62227,-3.93082],[-38.6212,-3.93385],[-38.62006,-3.93889],[-38.61922,-3.94078],[-38.61805,-3.93964],[-38.61755,-3.93849],[-38.61687,-3.93597],[-38.61651,-3.93091],[-38.61614,-3.92873],[-38.61418,-3.92369],[-38.61669,-3.92162],[-38.61622,-3.91893],[-38.61538,-3.91452],[-38.61929,-3.91027],[-38.62213,-3.90955],[-38.62341,-3.90932],[-38.62462,-3.90778],[-38.62488,-3.90699],[-38.62535,-3.90661],[-38.62539,-3.90495],[-38.62574,-3.90454],[-38.62637,-3.90453],[-38.62674,-3.90425]]]},"properties":{"codigo":"2307650017","name":"Olho D'Água do Pitaguari","population":1763,"households":630,"areaKm2":3.0144,"density":584.9}},{"type":"Feature","geometry":{"type":"Polygon","coordinates":[[[-38.62823,-3.86373],[-38.62673,-3.86758],[-38.62577,-3.8702],[-38.62443,-3.87353],[-38.6247,-3.87434],[-38.6221,-3.87279],[-38.62098,-3.87222],[-38.62033,-3.87102],[-38.61996,-3.87084],[-38.61806,-3.87138],[-38.61659,-3.87175],[-38.61671,-3.87155],[-38.61993,-3.87068],[-38.62208,-3.86994],[-38.62243,-3.86917],[-38.62344,-3.86816],[-38.62526,-3.86604],[-38.62791,-3.86319],[-38.62823,-3.86373]]]},"properties":{"codigo":"2307650003","name":"Coqueiral","population":4444,"households":1761,"areaKm2":0.3737,"density":11890.6}},{"type":"Feature","geometry":{"type":"Polygon","coordinates":[[[-38.62146,-3.90358],[-38.6228,-3.8997],[-38.62313,-3.89682],[-38.62376,-3.89461],[-38.62533,-3.89417],[-38.62515,-3.89294],[-38.6253,-3.89258],[-38.62505,-3.89171],[-38.62538,-3.89096],[-38.62599,-3.89092],[-38.62597,-3.89145],[-38.62628,-3.89181],[-38.6269,-3.89199],[-38.62749,-3.89281],[-38.62794,-3.89285],[-38.63006,-3.89393],[-38.63076,-3.89438],[-38.6311,-3.8953],[-38.63146,-3.89573],[-38.63077,-3.89658],[-38.63053,-3.89764],[-38.63112,-3.8986],[-38.63106,-3.90028],[-38.63142,-3.90061],[-38.63193,-3.90194],[-38.63223,-3.90222],[-38.63208,-3.90371],[-38.63169,-3.90417],[-38.63085,-3.90447],[-38.62674,-3.90425],[-38.62388,-3.90399],[-38.62146,-3.90358]]]},"properties":{"codigo":"2307650015","name":"Picada","population":215,"households":105,"areaKm2":1.15,"density":187}},{"type":"Feature","geometry":{"type":"Polygon","coordinates":[[[-38.60424,-3.84491],[-38.60389,-3.84434],[-38.60042,-3.83931],[-38.60279,-3.83824],[-38.611,-3.83476],[-38.61691,-3.83177],[-38.61712,-3.8323],[-38.61776,-3.83285],[-38.61789,-3.83328],[-38.61769,-3.83384],[-38.61793,-3.83445],[-38.6186,-3.83456],[-38.61853,-3.83566],[-38.61888,-3.83598],[-38.61737,-3.83721],[-38.6125,-3.83996],[-38.60964,-3.84175],[-38.60957,-3.84192],[-38.60767,-3.8429],[-38.60424,-3.84491]]]},"properties":{"codigo":"2307650032","name":"Alto Alegre II","population":2233,"households":970,"areaKm2":1.2294,"density":1816.3}},{"type":"Feature","geometry":{"type":"Polygon","coordinates":[[[-38.6221,-3.87279],[-38.6247,-3.87434],[-38.62932,-3.87607],[-38.63011,-3.87659],[-38.63064,-3.8783],[-38.63069,-3.87988],[-38.62985,-3.87989],[-38.62936,-3.88043],[-38.62813,-3.88139],[-38.62731,-3.8819],[-38.6279,-3.88244],[-38.63011,-3.88371],[-38.62953,-3.88414],[-38.62739,-3.885],[-38.62602,-3.88523],[-38.62598,-3.88395],[-38.62537,-3.88396],[-38.62532,-3.88335],[-38.62349,-3.88358],[-38.62329,-3.88251],[-38.62244,-3.88291],[-38.62195,-3.88176],[-38.62273,-3.88138],[-38.6224,-3.8806],[-38.62234,-3.8794],[-38.62115,-3.87888],[-38.6215,-3.87801],[-38.62226,-3.87792],[-38.62241,-3.87751],[-38.62224,-3.87475],[-38.6219,-3.87454],[-38.6222,-3.87381],[-38.6221,-3.87279]]]},"properties":{"codigo":"2307650001","name":"Centro","population":4596,"households":2054,"areaKm2":0.8493,"density":5411.5}},{"type":"Feature","geometry":{"type":"Polygon","coordinates":[[[-38.62604,-3.88536],[-38.62599,-3.88689],[-38.62693,-3.88689],[-38.62659,-3.88787],[-38.62546,-3.88934],[-38.62573,-3.88983],[-38.62558,-3.89044],[-38.62538,-3.89096],[-38.62464,-3.89091],[-38.62384,-3.89007],[-38.62275,-3.89043],[-38.62182,-3.89037],[-38.62096,-3.89015],[-38.6216,-3.8886],[-38.62137,-3.88793],[-38.62051,-3.88604],[-38.62263,-3.88585],[-38.62426,-3.88645],[-38.62414,-3.88556],[-38.62604,-3.88536]]]},"properties":{"codigo":"2307650013","name":"Boa Vista","population":2553,"households":942,"areaKm2":0.2806,"density":9098.1}},{"type":"Feature","geometry":{"type":"Polygon","coordinates":[[[-38.62064,-3.84307],[-38.62048,-3.84346],[-38.62081,-3.84509],[-38.61989,-3.84565],[-38.61503,-3.84819],[-38.60902,-3.85125],[-38.60878,-3.85141],[-38.60777,-3.84995],[-38.61628,-3.84528],[-38.61916,-3.84375],[-38.62064,-3.84307]]]},"properties":{"codigo":"2307650034","name":"Acaracuzinho I","population":4135,"households":1588,"areaKm2":0.3269,"density":12648}},{"type":"Feature","geometry":{"type":"Polygon","coordinates":[[[-38.5876,-3.83891],[-38.58897,-3.83955],[-38.58972,-3.83939],[-38.59211,-3.83787],[-38.59534,-3.83588],[-38.59563,-3.83633],[-38.59769,-3.83524],[-38.60042,-3.83931],[-38.60389,-3.84434],[-38.60424,-3.84491],[-38.60482,-3.84566],[-38.60777,-3.84995],[-38.60878,-3.85141],[-38.61037,-3.85369],[-38.61283,-3.85708],[-38.61746,-3.86356],[-38.62208,-3.86994],[-38.61993,-3.87068],[-38.61671,-3.87155],[-38.61659,-3.87175],[-38.61312,-3.87281],[-38.60821,-3.8743],[-38.60222,-3.87615],[-38.59773,-3.8775],[-38.59707,-3.87563],[-38.59592,-3.876],[-38.59506,-3.87605],[-38.59486,-3.87524],[-38.59274,-3.8679],[-38.5908,-3.86159],[-38.58655,-3.84814],[-38.58622,-3.84698],[-38.58527,-3.84418],[-38.58492,-3.84397],[-38.58494,-3.84323],[-38.5842,-3.84072],[-38.58392,-3.84007],[-38.58335,-3.83939],[-38.58346,-3.83898],[-38.5838,-3.8389],[-38.58423,-3.83939],[-38.58707,-3.83867],[-38.5876,-3.83891]]]},"properties":{"codigo":"2307650005","name":"Distrito Industrial do Ceará","population":6499,"households":2596,"areaKm2":10.1965,"density":637.4}},{"type":"Feature","geometry":{"type":"Polygon","coordinates":[[[-38.62051,-3.88604],[-38.62137,-3.88793],[-38.6216,-3.8886],[-38.62096,-3.89015],[-38.61949,-3.88929],[-38.61888,-3.8886],[-38.61649,-3.88766],[-38.61565,-3.88719],[-38.61509,-3.88627],[-38.61467,-3.88596],[-38.61353,-3.88552],[-38.61281,-3.8844],[-38.61201,-3.88441],[-38.61098,-3.88412],[-38.61151,-3.88345],[-38.6124,-3.88299],[-38.61313,-3.88116],[-38.61368,-3.88207],[-38.61507,-3.88255],[-38.61554,-3.88322],[-38.61586,-3.8841],[-38.61968,-3.88556],[-38.62051,-3.88604]]]},"properties":{"codigo":"2307650011","name":"Jereissati Setor E","population":4030,"households":1540,"areaKm2":0.3909,"density":10309.9}},{"type":"Feature","geometry":{"type":"MultiPolygon","coordinates":[[[[-38.63659,-3.88836],[-38.63556,-3.88752],[-38.63443,-3.88695],[-38.63494,-3.88663],[-38.63356,-3.88586],[-38.63368,-3.88566],[-38.63974,-3.88909],[-38.63881,-3.89085],[-38.63679,-3.88973],[-38.63717,-3.88888],[-38.63659,-3.88836]]],[[[-38.63538,-3.86871],[-38.63706,-3.86971],[-38.63736,-3.87022],[-38.63855,-3.87012],[-38.63945,-3.87054],[-38.64009,-3.87124],[-38.64025,-3.87165],[-38.64078,-3.87197],[-38.64198,-3.87202],[-38.64222,-3.87241],[-38.64331,-3.87282],[-38.64409,-3.87348],[-38.644,-3.87418],[-38.64425,-3.87443],[-38.64417,-3.87523],[-38.64514,-3.87521],[-38.64567,-3.87535],[-38.64636,-3.87555],[-38.63887,-3.88128],[-38.63414,-3.88273],[-38.63389,-3.88269],[-38.63011,-3.88371],[-38.6279,-3.88244],[-38.62731,-3.8819],[-38.62813,-3.88139],[-38.62936,-3.88043],[-38.62985,-3.87989],[-38.63069,-3.87988],[-38.63064,-3.8783],[-38.63011,-3.87659],[-38.62932,-3.87607],[-38.63,-3.87429],[-38.63178,-3.87238],[-38.63538,-3.86871]]]]},"properties":{"codigo":"2307650019","name":"Antônio Justa","population":2654,"households":989,"areaKm2":1.9264,"density":1377.7}},{"type":"Feature","geometry":{"type":"Polygon","coordinates":[[[-38.63877,-3.84261],[-38.63762,-3.8416],[-38.63614,-3.84088],[-38.63414,-3.83981],[-38.63322,-3.8388],[-38.63267,-3.83785],[-38.63191,-3.83563],[-38.63146,-3.83474],[-38.63079,-3.83404],[-38.6301,-3.83307],[-38.62846,-3.83165],[-38.62475,-3.82785],[-38.6246,-3.8276],[-38.6246,-3.82742],[-38.62485,-3.82704],[-38.6262,-3.82594],[-38.62726,-3.82486],[-38.63033,-3.82085],[-38.63206,-3.81845],[-38.63458,-3.81408],[-38.63959,-3.80525],[-38.63997,-3.80467],[-38.64083,-3.80501],[-38.64075,-3.80561],[-38.64031,-3.80625],[-38.64123,-3.80699],[-38.64143,-3.80687],[-38.64269,-3.80709],[-38.64274,-3.80753],[-38.64333,-3.80764],[-38.64375,-3.80699],[-38.64437,-3.80697],[-38.64552,-3.80803],[-38.646,-3.80887],[-38.64603,-3.80983],[-38.64681,-3.81046],[-38.64676,-3.81118],[-38.64589,-3.81167],[-38.64412,-3.81185],[-38.64376,-3.81206],[-38.64348,-3.81293],[-38.64341,-3.81462],[-38.64311,-3.8154],[-38.64242,-3.81665],[-38.64237,-3.81789],[-38.64153,-3.81988],[-38.64096,-3.82177],[-38.6411,-3.82331],[-38.64145,-3.82371],[-38.64237,-3.82398],[-38.64283,-3.82432],[-38.64444,-3.82606],[-38.64444,-3.82676],[-38.6429,-3.82808],[-38.64326,-3.82982],[-38.64388,-3.83042],[-38.64409,-3.83211],[-38.64391,-3.83411],[-38.64308,-3.83505],[-38.64271,-3.8357],[-38.64247,-3.83677],[-38.64327,-3.83761],[-38.6439,-3.83853],[-38.64458,-3.83908],[-38.64544,-3.8404],[-38.64575,-3.84137],[-38.64636,-3.84264],[-38.64478,-3.84305],[-38.64168,-3.84364],[-38.64047,-3.84393],[-38.64,-3.8442],[-38.63877,-3.84261]]]},"properties":{"codigo":"2307650024","name":"Jaçanaú","population":5689,"households":2584,"areaKm2":5.2577,"density":1082}},{"type":"Feature","geometry":{"type":"Polygon","coordinates":[[[-38.64636,-3.84264],[-38.64575,-3.84137],[-38.64544,-3.8404],[-38.64458,-3.83908],[-38.6439,-3.83853],[-38.64327,-3.83761],[-38.64247,-3.83677],[-38.64271,-3.8357],[-38.64308,-3.83505],[-38.64391,-3.83411],[-38.64372,-3.83532],[-38.64556,-3.83602],[-38.64704,-3.83752],[-38.6488,-3.83819],[-38.64959,-3.83834],[-38.65102,-3.83878],[-38.6527,-3.83981],[-38.65383,-3.84031],[-38.65457,-3.84002],[-38.6548,-3.84019],[-38.65574,-3.84001],[-38.6573,-3.84057],[-38.65848,-3.8416],[-38.65893,-3.84136],[-38.65939,-3.8417],[-38.65996,-3.8415],[-38.6614,-3.84146],[-38.6628,-3.84221],[-38.66422,-3.84262],[-38.66618,-3.84376],[-38.66784,-3.84369],[-38.66868,-3.84335],[-38.67081,-3.84323],[-38.67251,-3.84241],[-38.67324,-3.85123],[-38.67348,-3.85484],[-38.66489,-3.86233],[-38.66434,-3.86177],[-38.6638,-3.86178],[-38.66103,-3.86066],[-38.66044,-3.86075],[-38.65938,-3.86033],[-38.65855,-3.86029],[-38.65745,-3.8596],[-38.65578,-3.85967],[-38.65545,-3.85992],[-38.65431,-3.85867],[-38.65518,-3.85481],[-38.65523,-3.85401],[-38.65508,-3.85309],[-38.65558,-3.85261],[-38.65582,-3.85195],[-38.65571,-3.8515],[-38.65444,-3.8501],[-38.65396,-3.8501],[-38.6537,-3.84868],[-38.65172,-3.84906],[-38.65136,-3.84705],[-38.64918,-3.84741],[-38.64842,-3.84699],[-38.64744,-3.84619],[-38.6472,-3.84509],[-38.64669,-3.84384],[-38.64636,-3.84264]]]},"properties":{"codigo":"2307650022","name":"Mucunã","population":4360,"households":1803,"areaKm2":4.9778,"density":875.9}},{"type":"Feature","geometry":{"type":"Polygon","coordinates":[[[-38.61778,-3.82099],[-38.61813,-3.82122],[-38.6225,-3.81697],[-38.62186,-3.81585],[-38.62591,-3.81279],[-38.62554,-3.81223],[-38.62684,-3.81124],[-38.62794,-3.81289],[-38.62922,-3.81519],[-38.62522,-3.81823],[-38.62596,-3.81954],[-38.62505,-3.82024],[-38.62558,-3.82096],[-38.62217,-3.82361],[-38.62113,-3.8243],[-38.62231,-3.82551],[-38.62144,-3.82574],[-38.6209,-3.82562],[-38.61879,-3.82575],[-38.61807,-3.82567],[-38.61719,-3.82528],[-38.61665,-3.82461],[-38.61617,-3.82451],[-38.616,-3.82378],[-38.61513,-3.82366],[-38.61464,-3.82328],[-38.61415,-3.82286],[-38.61778,-3.82099]]]},"properties":{"codigo":"2307650029","name":"Siqueira","population":6575,"households":2606,"areaKm2":0.934,"density":7039.4}},{"type":"Feature","geometry":{"type":"Polygon","coordinates":[[[-38.58383,-3.86956],[-38.58539,-3.86842],[-38.58558,-3.86914],[-38.58684,-3.87079],[-38.58625,-3.87143],[-38.58759,-3.87268],[-38.58905,-3.87363],[-38.5874,-3.87627],[-38.58618,-3.87805],[-38.58545,-3.8793],[-38.5844,-3.87892],[-38.58372,-3.87836],[-38.58277,-3.87814],[-38.58211,-3.87776],[-38.58138,-3.87653],[-38.5806,-3.87579],[-38.58026,-3.87519],[-38.57951,-3.8753],[-38.57934,-3.87475],[-38.57827,-3.87464],[-38.57764,-3.87411],[-38.57891,-3.87322],[-38.58058,-3.87195],[-38.58383,-3.86956]]]},"properties":{"codigo":"2307650044","name":"Parque Tropical","population":4495,"households":1696,"areaKm2":0.7372,"density":6097.1}},{"type":"Feature","geometry":{"type":"Polygon","coordinates":[[[-38.59274,-3.8679],[-38.58905,-3.87363],[-38.58759,-3.87268],[-38.58625,-3.87143],[-38.58684,-3.87079],[-38.58558,-3.86914],[-38.58539,-3.86842],[-38.58383,-3.86956],[-38.58326,-3.86876],[-38.58416,-3.86811],[-38.58336,-3.86672],[-38.58433,-3.86611],[-38.5835,-3.86462],[-38.58315,-3.86375],[-38.58386,-3.86221],[-38.58478,-3.86049],[-38.58348,-3.86089],[-38.58261,-3.86114],[-38.58203,-3.85909],[-38.58061,-3.85453],[-38.58005,-3.85267],[-38.57859,-3.85303],[-38.57871,-3.85234],[-38.57727,-3.84769],[-38.57672,-3.84569],[-38.57582,-3.8429],[-38.57787,-3.84239],[-38.5842,-3.84072],[-38.58494,-3.84323],[-38.58492,-3.84397],[-38.58527,-3.84418],[-38.58622,-3.84698],[-38.58655,-3.84814],[-38.5908,-3.86159],[-38.59274,-3.8679]]]},"properties":{"codigo":"2307650038","name":"Pajuçara","population":21623,"households":9553,"areaKm2":3.0264,"density":7144.7}},{"type":"Feature","geometry":{"type":"Polygon","coordinates":[[[-38.57764,-3.87411],[-38.57723,-3.87365],[-38.57715,-3.87303],[-38.5765,-3.87281],[-38.57616,-3.87216],[-38.57563,-3.87188],[-38.575,-3.8712],[-38.57518,-3.87084],[-38.57439,-3.87008],[-38.5744,-3.86985],[-38.57371,-3.86876],[-38.57397,-3.86788],[-38.57384,-3.86724],[-38.57316,-3.86618],[-38.57212,-3.8654],[-38.57134,-3.86509],[-38.573,-3.86462],[-38.57324,-3.86529],[-38.57718,-3.86506],[-38.57908,-3.86502],[-38.58289,-3.86392],[-38.58315,-3.86375],[-38.5835,-3.86462],[-38.58433,-3.86611],[-38.58336,-3.86672],[-38.58416,-3.86811],[-38.58326,-3.86876],[-38.58383,-3.86956],[-38.58058,-3.87195],[-38.57891,-3.87322],[-38.57764,-3.87411]]]},"properties":{"codigo":"2307650043","name":"Parque Progresso","population":4395,"households":1680,"areaKm2":0.8842,"density":4970.8}},{"type":"Feature","geometry":{"type":"Polygon","coordinates":[[[-38.58348,-3.86089],[-38.58366,-3.86156],[-38.57989,-3.86262],[-38.57642,-3.86366],[-38.573,-3.86462],[-38.57134,-3.86509],[-38.57061,-3.86505],[-38.56892,-3.86521],[-38.56801,-3.86562],[-38.56746,-3.86315],[-38.5692,-3.86276],[-38.57207,-3.86188],[-38.57484,-3.86112],[-38.57752,-3.8603],[-38.58203,-3.85909],[-38.58261,-3.86114],[-38.58348,-3.86089]]]},"properties":{"codigo":"2307650041","name":"Alto da Bonança","population":3727,"households":1386,"areaKm2":0.529,"density":7045.2}},{"type":"Feature","geometry":{"type":"Polygon","coordinates":[[[-38.59713,-3.88287],[-38.59607,-3.88237],[-38.59507,-3.88201],[-38.59435,-3.88207],[-38.59406,-3.8818],[-38.59355,-3.88202],[-38.59224,-3.88141],[-38.59022,-3.8819],[-38.58903,-3.88128],[-38.58877,-3.88146],[-38.58774,-3.88098],[-38.58737,-3.88127],[-38.58694,-3.88064],[-38.58647,-3.88053],[-38.58596,-3.87973],[-38.58545,-3.8793],[-38.58618,-3.87805],[-38.5874,-3.87627],[-38.58905,-3.87363],[-38.59274,-3.8679],[-38.59486,-3.87524],[-38.59506,-3.87605],[-38.59567,-3.87788],[-38.59713,-3.88287]]]},"properties":{"codigo":"2307650045","name":"Jardim Bandeirante","population":7287,"households":2908,"areaKm2":1.0454,"density":6970.6}},{"type":"Feature","geometry":{"type":"Polygon","coordinates":[[[-38.58203,-3.85909],[-38.57752,-3.8603],[-38.57484,-3.86112],[-38.57207,-3.86188],[-38.5692,-3.86276],[-38.56746,-3.86315],[-38.56645,-3.8586],[-38.5685,-3.85804],[-38.57199,-3.8572],[-38.57489,-3.85635],[-38.58061,-3.85453],[-38.58203,-3.85909]]]},"properties":{"codigo":"2307650040","name":"Jardim Paraíso","population":5343,"households":2295,"areaKm2":0.8478,"density":6302.5}},{"type":"Feature","geometry":{"type":"Polygon","coordinates":[[[-38.58061,-3.85453],[-38.57489,-3.85635],[-38.57199,-3.8572],[-38.5685,-3.85804],[-38.56645,-3.8586],[-38.56485,-3.85085],[-38.56767,-3.84955],[-38.57672,-3.84569],[-38.57727,-3.84769],[-38.57871,-3.85234],[-38.57859,-3.85303],[-38.58005,-3.85267],[-38.58061,-3.85453]]]},"properties":{"codigo":"2307650039","name":"Boa Esperança","population":1299,"households":506,"areaKm2":1.4612,"density":889}},{"type":"Feature","geometry":{"type":"Polygon","coordinates":[[[-38.58315,-3.86375],[-38.58289,-3.86392],[-38.57908,-3.86502],[-38.57718,-3.86506],[-38.57324,-3.86529],[-38.573,-3.86462],[-38.57642,-3.86366],[-38.57989,-3.86262],[-38.58366,-3.86156],[-38.58348,-3.86089],[-38.58478,-3.86049],[-38.58386,-3.86221],[-38.58315,-3.86375]]]},"properties":{"codigo":"2307650042","name":"Arronches","population":2444,"households":961,"areaKm2":0.2335,"density":10467.3}},{"type":"Feature","geometry":{"type":"Polygon","coordinates":[[[-38.54687,-3.85811],[-38.54612,-3.85584],[-38.54711,-3.85538],[-38.55222,-3.85322],[-38.5525,-3.85299],[-38.55759,-3.85085],[-38.56127,-3.84955],[-38.56375,-3.84848],[-38.56428,-3.8511],[-38.5583,-3.85364],[-38.55156,-3.85661],[-38.54915,-3.85762],[-38.54687,-3.85811]]]},"properties":{"codigo":"2307650046","name":"Novo Mondubim","population":null,"households":null,"areaKm2":0.6449,"density":null}}]}