{"type":"FeatureCollection","features":[{"type":"Feature","geometry":{"type":"Polygon","coordinates":[[[-39.96658,-3.71555],[-39.96764,-3.7109],[-39.96743,-3.70935],[-39.94507,-3.6745],[-39.94314,-3.67384],[-39.94175,-3.67294],[-39.93962,-3.66852],[-39.93878,-3.66532],[-39.93783,-3.66437],[-39.9351,-3.66359],[-39.93393,-3.66286],[-39.93337,-3.66213],[-39.93141,-3.6614],[-39.93047,-3.66067],[-39.92868,-3.66028],[-39.92756,-3.65922],[-39.92611,-3.65664],[-39.92505,-3.65642],[-39.92449,-3.65524],[-39.92426,-3.65367],[-39.92309,-3.65272],[-39.92304,-3.65143],[-39.92242,-3.65098],[-39.92231,-3.64919],[-39.92125,-3.64846],[-39.92169,-3.64683],[-39.9208,-3.64465],[-39.92102,-3.64335],[-39.92174,-3.64195],[-39.92174,-3.64055],[-39.92274,-3.63982],[-39.92575,-3.63673],[-39.92609,-3.63567],[-39.92564,-3.63398],[-39.92608,-3.63241],[-39.92625,-3.63067],[-39.92496,-3.62787],[-39.92524,-3.62585],[-39.92496,-3.62473],[-39.92368,-3.62339],[-39.9234,-3.62165],[-39.92256,-3.62013],[-39.92032,-3.61834],[-39.91881,-3.61363],[-39.91859,-3.6106],[-39.91909,-3.60954],[-39.92059,-3.60836],[-39.92093,-3.60623],[-39.91942,-3.60449],[-39.91819,-3.60275],[-39.91808,-3.6009],[-39.91857,-3.59513],[-39.91941,-3.59417],[-39.92075,-3.59389],[-39.92175,-3.59142],[-39.92253,-3.59069],[-39.92186,-3.58918],[-39.92269,-3.5871],[-39.92263,-3.58548],[-39.92113,-3.58307],[-39.92045,-3.58009],[-39.91978,-3.57858],[-39.92006,-3.57718],[-39.92062,-3.57639],[-39.92084,-3.57521],[-39.92218,-3.57437],[-39.92195,-3.57342],[-39.92084,-3.57224],[-39.92056,-3.57017],[-39.92106,-3.56938],[-39.92065,-3.56734],[-39.91824,-3.56551],[-39.91556,-3.56236],[-39.91367,-3.5603],[-39.91241,-3.55943],[-39.90941,-3.55887],[-39.90215,-3.55721],[-39.89485,-3.5557],[-39.89017,-3.55223],[-39.88813,-3.5516],[-39.88506,-3.55228],[-39.8835,-3.55327],[-39.88155,-3.55312],[-39.87883,-3.5519],[-39.87508,-3.55185],[-39.87035,-3.55293],[-39.86178,-3.55128],[-39.85993,-3.54952],[-39.85477,-3.54981],[-39.85212,-3.549],[-39.85255,-3.548],[-39.85251,-3.54684],[-39.85195,-3.54543],[-39.85255,-3.54461],[-39.85255,-3.54229],[-39.85367,-3.54206],[-39.85555,-3.54107],[-39.85686,-3.54172],[-39.85784,-3.54172],[-39.85931,-3.54065],[-39.86062,-3.53917],[-39.86181,-3.53934],[-39.86393,-3.53884],[-39.86532,-3.53703],[-39.86638,-3.53399],[-39.86761,-3.53135],[-39.86867,-3.52987],[-39.87222,-3.52971],[-39.87443,-3.53019],[-39.87533,-3.52978],[-39.87639,-3.52789],[-39.87753,-3.52238],[-39.87381,-3.51556],[-39.872,-3.51367],[-39.87143,-3.51096],[-39.86971,-3.508],[-39.86946,-3.5061],[-39.86672,-3.50323],[-39.86631,-3.502],[-39.86877,-3.5013],[-39.87122,-3.50029],[-39.87363,-3.50021],[-39.87776,-3.49886],[-39.88034,-3.49849],[-39.88398,-3.49932],[-39.88513,-3.49984],[-39.88624,-3.49981],[-39.88917,-3.50047],[-39.89059,-3.50058],[-39.89165,-3.50168],[-39.89226,-3.50317],[-39.89446,-3.50349],[-39.89581,-3.50457],[-39.89689,-3.50618],[-39.89911,-3.50668],[-39.89992,-3.50785],[-39.90191,-3.50786],[-39.90317,-3.50738],[-39.90405,-3.50659],[-39.90754,-3.50999],[-39.90872,-3.51057],[-39.91359,-3.51136],[-39.91455,-3.51169],[-39.91723,-3.51319],[-39.92089,-3.51474],[-39.92595,-3.51652],[-39.92906,-3.51849],[-39.92943,-3.51889],[-39.93085,-3.52188],[-39.9315,-3.52501],[-39.93258,-3.52673],[-39.93392,-3.52795],[-39.93635,-3.52888],[-39.97116,-3.51201],[-39.97031,-3.51153],[-39.96826,-3.50952],[-39.96788,-3.5087],[-39.96547,-3.50548],[-39.96428,-3.50308],[-39.96323,-3.50264],[-39.96623,-3.50094],[-39.97348,-3.50095],[-39.97542,-3.50106],[-39.97655,-3.50041],[-39.98049,-3.50057],[-39.98174,-3.50115],[-39.98327,-3.5012],[-39.98471,-3.5006],[-39.98521,-3.501],[-39.98754,-3.50435],[-39.98864,-3.50531],[-39.99021,-3.50934],[-39.99072,-3.51025],[-39.99252,-3.51014],[-39.99458,-3.51066],[-39.99998,-3.51087],[-40.00058,-3.51114],[-40.00162,-3.51032],[-40.00284,-3.51065],[-40.00532,-3.51018],[-40.01187,-3.50844],[-40.01265,-3.50855],[-40.01338,-3.51043],[-40.01554,-3.51301],[-40.01496,-3.51476],[-40.01554,-3.51614],[-40.02513,-3.51642],[-40.0257,-3.51838],[-40.02721,-3.51806],[-40.02964,-3.51835],[-40.03048,-3.51878],[-40.03283,-3.51939],[-40.0348,-3.51928],[-40.03734,-3.51796],[-40.03915,-3.51671],[-40.04049,-3.51604],[-40.04035,-3.51743],[-40.04193,-3.51763],[-40.04272,-3.51852],[-40.0447,-3.51931],[-40.04456,-3.5203],[-40.04504,-3.52101],[-40.04553,-3.52315],[-40.04519,-3.52381],[-40.04615,-3.52464],[-40.04614,-3.52619],[-40.04561,-3.52618],[-40.04525,-3.5278],[-40.04534,-3.529],[-40.04465,-3.5299],[-40.04507,-3.53067],[-40.04637,-3.53155],[-40.04846,-3.53162],[-40.04933,-3.53417],[-40.04906,-3.5351],[-40.04752,-3.53525],[-40.04751,-3.53725],[-40.04665,-3.53794],[-40.04619,-3.53887],[-40.04718,-3.54188],[-40.04721,-3.54401],[-40.04703,-3.54685],[-40.04646,-3.54764],[-40.04659,-3.54891],[-40.04561,-3.54918],[-40.04629,-3.55129],[-40.04663,-3.55422],[-40.04624,-3.55551],[-40.0454,-3.55655],[-40.04505,-3.55919],[-40.04352,-3.56056],[-40.04285,-3.56242],[-40.04309,-3.56326],[-40.04265,-3.56478],[-40.04312,-3.56632],[-40.04288,-3.5667],[-40.04333,-3.56835],[-40.04544,-3.57046],[-40.04667,-3.5723],[-40.04698,-3.57452],[-40.04797,-3.57593],[-40.04962,-3.57738],[-40.05091,-3.57811],[-40.05089,-3.58018],[-40.05144,-3.58183],[-40.05226,-3.58334],[-40.05378,-3.58399],[-40.05525,-3.58495],[-40.05674,-3.58471],[-40.05724,-3.58545],[-40.05827,-3.5857],[-40.06045,-3.58539],[-40.06215,-3.58632],[-40.06229,-3.588],[-40.06343,-3.58973],[-40.06482,-3.59001],[-40.06595,-3.59079],[-40.06641,-3.59264],[-40.0687,-3.59234],[-40.06998,-3.59309],[-40.06998,-3.5939],[-40.0668,-3.5937],[-40.06525,-3.59315],[-40.06173,-3.5905],[-40.06049,-3.58972],[-40.05875,-3.58922],[-40.05488,-3.58981],[-40.05307,-3.58965],[-40.05168,-3.58852],[-40.04846,-3.58454],[-40.04434,-3.58107],[-40.04338,-3.58059],[-40.04181,-3.58055],[-40.04018,-3.58108],[-40.03779,-3.5807],[-40.03618,-3.58099],[-40.03399,-3.5825],[-40.03206,-3.58271],[-40.02865,-3.58203],[-40.02581,-3.58172],[-40.02173,-3.58251],[-40.02076,-3.58237],[-40.01814,-3.58078],[-40.01283,-3.57945],[-40.01042,-3.57821],[-40.0095,-3.5781],[-40.00429,-3.57903],[-39.99911,-3.58006],[-39.9975,-3.58015],[-39.98956,-3.57731],[-39.98723,-3.57686],[-39.98408,-3.57648],[-39.98315,-3.57564],[-39.98103,-3.5729],[-39.97962,-3.57206],[-39.97441,-3.57162],[-39.97504,-3.57351],[-39.97605,-3.57398],[-39.9781,-3.5764],[-39.97845,-3.57762],[-39.97777,-3.57932],[-39.97684,-3.58073],[-39.97627,-3.5827],[-39.97673,-3.58626],[-39.9773,-3.58755],[-39.97849,-3.58887],[-39.97947,-3.59102],[-39.97974,-3.59581],[-39.97998,-3.59636],[-39.98179,-3.59808],[-39.9835,-3.5993],[-39.98424,-3.60066],[-39.98432,-3.60203],[-39.98508,-3.60427],[-39.98611,-3.60655],[-39.98602,-3.60937],[-39.98618,-3.61119],[-39.98661,-3.61246],[-39.98893,-3.61406],[-39.9905,-3.61564],[-39.99231,-3.61717],[-39.99329,-3.6191],[-39.99317,-3.62099],[-39.99332,-3.62324],[-39.99315,-3.62389],[-39.99335,-3.62633],[-39.99419,-3.62764],[-39.99642,-3.62889],[-39.9985,-3.63135],[-39.99948,-3.63319],[-40.00095,-3.63384],[-40.00215,-3.63532],[-40.00256,-3.63786],[-40.00396,-3.64006],[-40.00447,-3.64188],[-40.00649,-3.64345],[-40.00806,-3.6441],[-40.0088,-3.64469],[-40.00964,-3.64603],[-40.0094,-3.64785],[-40.00779,-3.65003],[-40.00722,-3.65305],[-40.00681,-3.65441],[-40.00705,-3.6558],[-40.00838,-3.65717],[-40.01012,-3.66103],[-40.01325,-3.66533],[-40.01323,-3.66672],[-40.01418,-3.66866],[-40.01484,-3.66936],[-40.01509,-3.67076],[-40.0145,-3.67263],[-40.01461,-3.6741],[-40.01591,-3.6759],[-40.01631,-3.67703],[-40.01533,-3.67934],[-40.01582,-3.68105],[-40.01601,-3.68294],[-40.01473,-3.6855],[-40.01573,-3.68775],[-40.01871,-3.69052],[-40.01969,-3.69231],[-40.02026,-3.69418],[-40.01986,-3.69572],[-40.01853,-3.69821],[-40.01891,-3.70086],[-40.01658,-3.70501],[-40.01635,-3.70799],[-40.01492,-3.71209],[-39.99982,-3.71284],[-39.99233,-3.71422],[-39.99132,-3.7143],[-39.96658,-3.71555]]]},"properties":{"codigo":"230837705","name":"Miraíma","population":5681,"households":2042,"areaKm2":246.7377,"density":23}},{"type":"Feature","geometry":{"type":"Polygon","coordinates":[[[-39.71312,-3.65499],[-39.71273,-3.65308],[-39.71332,-3.65066],[-39.71573,-3.64727],[-39.71661,-3.64628],[-39.71806,-3.64576],[-39.71991,-3.64442],[-39.72111,-3.64259],[-39.72309,-3.64146],[-39.7244,-3.63919],[-39.72543,-3.6383],[-39.72702,-3.63614],[-39.72789,-3.63592],[-39.72873,-3.635],[-39.73036,-3.63381],[-39.73177,-3.63227],[-39.73339,-3.63102],[-39.73367,-3.6302],[-39.73549,-3.62778],[-39.73673,-3.62553],[-39.73769,-3.62471],[-39.73828,-3.62326],[-39.74014,-3.6215],[-39.74137,-3.61929],[-39.74213,-3.61904],[-39.74327,-3.61732],[-39.7457,-3.61464],[-39.74624,-3.61282],[-39.74735,-3.61124],[-39.74936,-3.60999],[-39.75117,-3.60852],[-39.75178,-3.60766],[-39.75348,-3.6061],[-39.75472,-3.6036],[-39.75615,-3.60249],[-39.75734,-3.60227],[-39.75998,-3.60074],[-39.76038,-3.59972],[-39.76195,-3.59937],[-39.76336,-3.59865],[-39.76434,-3.59774],[-39.76704,-3.59662],[-39.7691,-3.5953],[-39.77054,-3.59327],[-39.7723,-3.59148],[-39.77303,-3.59011],[-39.76364,-3.59044],[-39.75527,-3.58587],[-39.75609,-3.58432],[-39.75645,-3.58211],[-39.75714,-3.58014],[-39.75896,-3.57761],[-39.7584,-3.57569],[-39.75671,-3.57513],[-39.75557,-3.5734],[-39.75586,-3.57133],[-39.75493,-3.5705],[-39.75265,-3.5694],[-39.75228,-3.56814],[-39.75333,-3.5666],[-39.7536,-3.5656],[-39.75281,-3.56395],[-39.75258,-3.56219],[-39.75276,-3.56091],[-39.7538,-3.5607],[-39.75537,-3.55815],[-39.75726,-3.55682],[-39.75882,-3.55537],[-39.75902,-3.5531],[-39.75961,-3.55269],[-39.76082,-3.55266],[-39.76133,-3.55225],[-39.76151,-3.55039],[-39.76096,-3.54916],[-39.76089,-3.54697],[-39.76174,-3.54487],[-39.76123,-3.54351],[-39.76169,-3.54228],[-39.76161,-3.54091],[-39.76225,-3.53902],[-39.7635,-3.53808],[-39.76371,-3.53631],[-39.76437,-3.53495],[-39.76517,-3.53435],[-39.76608,-3.53207],[-39.76687,-3.53171],[-39.76816,-3.53045],[-39.76844,-3.52814],[-39.76746,-3.52625],[-39.76787,-3.52497],[-39.79114,-3.53179],[-39.81913,-3.53987],[-39.83224,-3.5426],[-39.83434,-3.54345],[-39.84245,-3.54367],[-39.84344,-3.54405],[-39.84501,-3.54658],[-39.84654,-3.54819],[-39.85212,-3.549],[-39.8511,-3.55028],[-39.84906,-3.55061],[-39.84587,-3.55202],[-39.84563,-3.55645],[-39.84624,-3.55785],[-39.84624,-3.55859],[-39.84412,-3.55991],[-39.84248,-3.56222],[-39.84199,-3.56657],[-39.84057,-3.56839],[-39.83648,-3.56831],[-39.83255,-3.56658],[-39.8301,-3.56659],[-39.82895,-3.56741],[-39.82916,-3.57136],[-39.83064,-3.57818],[-39.83301,-3.58361],[-39.83334,-3.58574],[-39.83441,-3.58722],[-39.8356,-3.5901],[-39.83478,-3.59438],[-39.83061,-3.59685],[-39.82931,-3.598],[-39.83078,-3.59973],[-39.8316,-3.60162],[-39.8319,-3.60389],[-39.83123,-3.60331],[-39.8173,-3.60428],[-39.81255,-3.60466],[-39.8098,-3.60564],[-39.80984,-3.60822],[-39.80946,-3.60939],[-39.80781,-3.6113],[-39.80731,-3.61223],[-39.80604,-3.61301],[-39.80478,-3.61321],[-39.80381,-3.61383],[-39.80337,-3.61461],[-39.80342,-3.61634],[-39.80281,-3.61767],[-39.79987,-3.61993],[-39.79844,-3.62074],[-39.79574,-3.62279],[-39.79371,-3.62339],[-39.79126,-3.62383],[-39.78824,-3.62499],[-39.78686,-3.6259],[-39.7857,-3.62748],[-39.78526,-3.63012],[-39.78455,-3.63152],[-39.7837,-3.63214],[-39.78176,-3.63294],[-39.77984,-3.63269],[-39.77919,-3.63305],[-39.77807,-3.63465],[-39.77859,-3.63697],[-39.77971,-3.63896],[-39.78031,-3.64065],[-39.78136,-3.642],[-39.71312,-3.65499]]]},"properties":{"codigo":"230837710","name":"Brotas","population":4411,"households":1704,"areaKm2":96.9063,"density":45.5}},{"type":"Feature","geometry":{"type":"Polygon","coordinates":[[[-39.91182,-3.71816],[-39.91196,-3.71739],[-39.91082,-3.71583],[-39.91042,-3.71475],[-39.91029,-3.71326],[-39.90962,-3.71077],[-39.9083,-3.70813],[-39.90734,-3.70705],[-39.90721,-3.70607],[-39.90754,-3.7043],[-39.90653,-3.70284],[-39.90651,-3.70117],[-39.90552,-3.69863],[-39.90653,-3.6984],[-39.90714,-3.69735],[-39.90687,-3.69504],[-39.9075,-3.69305],[-39.90741,-3.69058],[-39.90639,-3.68956],[-39.90612,-3.68838],[-39.90502,-3.68796],[-39.90482,-3.68667],[-39.90356,-3.68439],[-39.90369,-3.68264],[-39.90262,-3.68156],[-39.89988,-3.68019],[-39.89917,-3.67928],[-39.89932,-3.67698],[-39.89915,-3.67636],[-39.90009,-3.67528],[-39.89989,-3.67303],[-39.89911,-3.67292],[-39.89888,-3.67079],[-39.89977,-3.66984],[-39.89946,-3.66925],[-39.89777,-3.66814],[-39.89779,-3.6674],[-39.89873,-3.66557],[-39.89836,-3.66421],[-39.89943,-3.66317],[-39.89943,-3.66248],[-39.89861,-3.66131],[-39.89702,-3.66],[-39.89629,-3.65884],[-39.89533,-3.65864],[-39.89463,-3.65795],[-39.89091,-3.65517],[-39.8319,-3.60389],[-39.8316,-3.60162],[-39.83078,-3.59973],[-39.82931,-3.598],[-39.83061,-3.59685],[-39.83478,-3.59438],[-39.8356,-3.5901],[-39.83441,-3.58722],[-39.83334,-3.58574],[-39.83301,-3.58361],[-39.83064,-3.57818],[-39.82916,-3.57136],[-39.82895,-3.56741],[-39.8301,-3.56659],[-39.83255,-3.56658],[-39.83648,-3.56831],[-39.84057,-3.56839],[-39.84199,-3.56657],[-39.84248,-3.56222],[-39.84412,-3.55991],[-39.84624,-3.55859],[-39.84624,-3.55785],[-39.84563,-3.55645],[-39.84587,-3.55202],[-39.84906,-3.55061],[-39.8511,-3.55028],[-39.85212,-3.549],[-39.85477,-3.54981],[-39.85993,-3.54952],[-39.86178,-3.55128],[-39.87035,-3.55293],[-39.87508,-3.55185],[-39.87883,-3.5519],[-39.88155,-3.55312],[-39.8835,-3.55327],[-39.88506,-3.55228],[-39.88813,-3.5516],[-39.89017,-3.55223],[-39.89485,-3.5557],[-39.90215,-3.55721],[-39.90941,-3.55887],[-39.91241,-3.55943],[-39.91367,-3.5603],[-39.91556,-3.56236],[-39.91824,-3.56551],[-39.92065,-3.56734],[-39.92106,-3.56938],[-39.92056,-3.57017],[-39.92084,-3.57224],[-39.92195,-3.57342],[-39.92218,-3.57437],[-39.92084,-3.57521],[-39.92062,-3.57639],[-39.92006,-3.57718],[-39.91978,-3.57858],[-39.92045,-3.58009],[-39.92113,-3.58307],[-39.92263,-3.58548],[-39.92269,-3.5871],[-39.92186,-3.58918],[-39.92253,-3.59069],[-39.92175,-3.59142],[-39.92075,-3.59389],[-39.91941,-3.59417],[-39.91857,-3.59513],[-39.91808,-3.6009],[-39.91819,-3.60275],[-39.91942,-3.60449],[-39.92093,-3.60623],[-39.92059,-3.60836],[-39.91909,-3.60954],[-39.91859,-3.6106],[-39.91881,-3.61363],[-39.92032,-3.61834],[-39.92256,-3.62013],[-39.9234,-3.62165],[-39.92368,-3.62339],[-39.92496,-3.62473],[-39.92524,-3.62585],[-39.92496,-3.62787],[-39.92625,-3.63067],[-39.92608,-3.63241],[-39.92564,-3.63398],[-39.92609,-3.63567],[-39.92575,-3.63673],[-39.92274,-3.63982],[-39.92174,-3.64055],[-39.92174,-3.64195],[-39.92102,-3.64335],[-39.9208,-3.64465],[-39.92169,-3.64683],[-39.92125,-3.64846],[-39.92231,-3.64919],[-39.92242,-3.65098],[-39.92304,-3.65143],[-39.92309,-3.65272],[-39.92426,-3.65367],[-39.92449,-3.65524],[-39.92505,-3.65642],[-39.92611,-3.65664],[-39.92756,-3.65922],[-39.92868,-3.66028],[-39.93047,-3.66067],[-39.93141,-3.6614],[-39.93337,-3.66213],[-39.93393,-3.66286],[-39.9351,-3.66359],[-39.93783,-3.66437],[-39.93878,-3.66532],[-39.93962,-3.66852],[-39.94175,-3.67294],[-39.94314,-3.67384],[-39.94507,-3.6745],[-39.96743,-3.70935],[-39.96764,-3.7109],[-39.96658,-3.71555],[-39.93597,-3.71708],[-39.91301,-3.72083],[-39.91263,-3.71996],[-39.91179,-3.71972],[-39.9113,-3.71848],[-39.91182,-3.71816]]]},"properties":{"codigo":"230837720","name":"Poço da Onça","population":1230,"households":416,"areaKm2":127.0154,"density":9.7}},{"type":"Feature","geometry":{"type":"Polygon","coordinates":[[[-39.86776,-3.45004],[-39.86781,-3.45081],[-39.86512,-3.45364],[-39.86316,-3.45471],[-39.86292,-3.45619],[-39.8621,-3.45759],[-39.86042,-3.45932],[-39.86043,-3.46088],[-39.8601,-3.46335],[-39.85896,-3.46458],[-39.8583,-3.46722],[-39.85929,-3.46878],[-39.85892,-3.47125],[-39.85925,-3.47215],[-39.86064,-3.47338],[-39.86244,-3.47379],[-39.86285,-3.47453],[-39.86244,-3.47856],[-39.86285,-3.48021],[-39.86429,-3.48119],[-39.86527,-3.4858],[-39.86552,-3.48966],[-39.86454,-3.49279],[-39.86483,-3.4941],[-39.86704,-3.49755],[-39.86712,-3.49887],[-39.86631,-3.502],[-39.86672,-3.50323],[-39.86946,-3.5061],[-39.86971,-3.508],[-39.87143,-3.51096],[-39.872,-3.51367],[-39.87381,-3.51556],[-39.87753,-3.52238],[-39.87639,-3.52789],[-39.87533,-3.52978],[-39.87443,-3.53019],[-39.87222,-3.52971],[-39.86867,-3.52987],[-39.86761,-3.53135],[-39.86638,-3.53399],[-39.86532,-3.53703],[-39.86393,-3.53884],[-39.86181,-3.53934],[-39.86062,-3.53917],[-39.85931,-3.54065],[-39.85784,-3.54172],[-39.85686,-3.54172],[-39.85555,-3.54107],[-39.85367,-3.54206],[-39.85255,-3.54229],[-39.85255,-3.54461],[-39.85195,-3.54543],[-39.85251,-3.54684],[-39.85255,-3.548],[-39.85212,-3.549],[-39.84654,-3.54819],[-39.84501,-3.54658],[-39.84344,-3.54405],[-39.84245,-3.54367],[-39.83434,-3.54345],[-39.83224,-3.5426],[-39.81913,-3.53987],[-39.79114,-3.53179],[-39.76787,-3.52497],[-39.76849,-3.52395],[-39.76969,-3.521],[-39.77001,-3.51982],[-39.77118,-3.51848],[-39.77221,-3.51672],[-39.77191,-3.51525],[-39.77292,-3.51339],[-39.7741,-3.51277],[-39.77485,-3.51194],[-39.77512,-3.50941],[-39.7775,-3.50591],[-39.77762,-3.50278],[-39.77826,-3.50226],[-39.7795,-3.5021],[-39.7801,-3.49906],[-39.77923,-3.49626],[-39.78112,-3.49563],[-39.78064,-3.49396],[-39.78318,-3.49342],[-39.78415,-3.49227],[-39.78576,-3.4913],[-39.78664,-3.4891],[-39.78621,-3.4878],[-39.78664,-3.48625],[-39.78666,-3.4836],[-39.7862,-3.48294],[-39.7844,-3.48169],[-39.78435,-3.48094],[-39.78575,-3.47942],[-39.78506,-3.47646],[-39.78514,-3.47572],[-39.78613,-3.47439],[-39.78644,-3.47333],[-39.78616,-3.47156],[-39.78718,-3.46945],[-39.78722,-3.46801],[-39.78682,-3.46731],[-39.78385,-3.4653],[-39.78359,-3.46439],[-39.80932,-3.46012],[-39.83124,-3.45685],[-39.83861,-3.45543],[-39.84855,-3.45368],[-39.85024,-3.45357],[-39.85232,-3.45375],[-39.85376,-3.4535],[-39.85636,-3.45225],[-39.85898,-3.45162],[-39.86247,-3.45132],[-39.86776,-3.45004]]]},"properties":{"codigo":"230837725","name":"Riachão","population":1012,"households":332,"areaKm2":86.3314,"density":11.7}},{"type":"Feature","geometry":{"type":"Polygon","coordinates":[[[-39.93353,-3.43607],[-39.93437,-3.43603],[-39.93798,-3.43429],[-39.9394,-3.43436],[-39.94559,-3.4336],[-39.94707,-3.43324],[-39.95024,-3.43311],[-39.94866,-3.43623],[-39.94803,-3.43981],[-39.94784,-3.44161],[-39.94817,-3.44308],[-39.94995,-3.44801],[-39.95103,-3.44973],[-39.95243,-3.45133],[-39.95505,-3.45357],[-39.95683,-3.45491],[-39.95773,-3.45613],[-39.96181,-3.46022],[-39.9626,-3.46243],[-39.95885,-3.46521],[-39.95747,-3.46679],[-39.95652,-3.4687],[-39.95642,-3.47137],[-39.95758,-3.47345],[-39.95915,-3.47485],[-39.96195,-3.47703],[-39.96273,-3.47858],[-39.96215,-3.48203],[-39.96201,-3.48601],[-39.96245,-3.48751],[-39.96205,-3.48953],[-39.96198,-3.49217],[-39.96144,-3.49711],[-39.96158,-3.49982],[-39.96323,-3.50264],[-39.96428,-3.50308],[-39.96547,-3.50548],[-39.96788,-3.5087],[-39.96826,-3.50952],[-39.97031,-3.51153],[-39.97116,-3.51201],[-39.93635,-3.52888],[-39.93392,-3.52795],[-39.93258,-3.52673],[-39.9315,-3.52501],[-39.93085,-3.52188],[-39.92943,-3.51889],[-39.92906,-3.51849],[-39.92595,-3.51652],[-39.92089,-3.51474],[-39.91723,-3.51319],[-39.91455,-3.51169],[-39.91359,-3.51136],[-39.90872,-3.51057],[-39.90754,-3.50999],[-39.90405,-3.50659],[-39.90317,-3.50738],[-39.90191,-3.50786],[-39.89992,-3.50785],[-39.89911,-3.50668],[-39.89689,-3.50618],[-39.89581,-3.50457],[-39.89446,-3.50349],[-39.89226,-3.50317],[-39.89165,-3.50168],[-39.89059,-3.50058],[-39.88917,-3.50047],[-39.88624,-3.49981],[-39.88513,-3.49984],[-39.88398,-3.49932],[-39.88034,-3.49849],[-39.87776,-3.49886],[-39.87363,-3.50021],[-39.87122,-3.50029],[-39.86877,-3.5013],[-39.86631,-3.502],[-39.86712,-3.49887],[-39.86704,-3.49755],[-39.86483,-3.4941],[-39.86454,-3.49279],[-39.86552,-3.48966],[-39.86527,-3.4858],[-39.86429,-3.48119],[-39.86285,-3.48021],[-39.86244,-3.47856],[-39.86285,-3.47453],[-39.86244,-3.47379],[-39.86064,-3.47338],[-39.85925,-3.47215],[-39.85892,-3.47125],[-39.85929,-3.46878],[-39.8583,-3.46722],[-39.85896,-3.46458],[-39.8601,-3.46335],[-39.86043,-3.46088],[-39.86042,-3.45932],[-39.8621,-3.45759],[-39.86292,-3.45619],[-39.86316,-3.45471],[-39.86512,-3.45364],[-39.86781,-3.45081],[-39.86776,-3.45004],[-39.89842,-3.44265],[-39.89993,-3.4431],[-39.90434,-3.44237],[-39.9083,-3.44104],[-39.91003,-3.44119],[-39.91309,-3.44023],[-39.91963,-3.43784],[-39.92525,-3.43804],[-39.92806,-3.43756],[-39.93353,-3.43607]]]},"properties":{"codigo":"230837730","name":"Juremal","population":1040,"households":424,"areaKm2":83.3876,"density":12.5}},{"type":"Feature","geometry":{"type":"Polygon","coordinates":[[[-40.02758,-3.43728],[-40.02739,-3.43848],[-40.02761,-3.43994],[-40.02698,-3.44291],[-40.02724,-3.4437],[-40.02594,-3.44596],[-40.02514,-3.44644],[-40.02675,-3.44772],[-40.02662,-3.44925],[-40.02695,-3.4499],[-40.02627,-3.4507],[-40.02732,-3.45189],[-40.02843,-3.45241],[-40.02957,-3.4539],[-40.03112,-3.45444],[-40.03131,-3.4557],[-40.03191,-3.45636],[-40.03271,-3.456],[-40.03376,-3.45774],[-40.03491,-3.45788],[-40.03649,-3.45961],[-40.03739,-3.46022],[-40.03719,-3.46252],[-40.0362,-3.463],[-40.03697,-3.46383],[-40.03913,-3.4649],[-40.03916,-3.46578],[-40.03789,-3.46632],[-40.03832,-3.46731],[-40.03788,-3.47],[-40.03855,-3.47069],[-40.04037,-3.47129],[-40.04073,-3.47207],[-40.04047,-3.473],[-40.04264,-3.47594],[-40.04112,-3.47563],[-40.04109,-3.47798],[-40.04024,-3.47843],[-40.03978,-3.47788],[-40.03854,-3.4799],[-40.03862,-3.48179],[-40.03892,-3.48316],[-40.03807,-3.48387],[-40.039,-3.48512],[-40.03804,-3.48627],[-40.0375,-3.48745],[-40.0383,-3.4886],[-40.03726,-3.49267],[-40.03657,-3.49387],[-40.0363,-3.49514],[-40.03722,-3.49551],[-40.03998,-3.49893],[-40.04014,-3.50148],[-40.04116,-3.50233],[-40.04043,-3.50294],[-40.04087,-3.50404],[-40.04047,-3.50563],[-40.0405,-3.50789],[-40.03951,-3.50778],[-40.03919,-3.50846],[-40.04011,-3.51195],[-40.04056,-3.51225],[-40.04021,-3.51402],[-40.04049,-3.51604],[-40.03915,-3.51671],[-40.03734,-3.51796],[-40.0348,-3.51928],[-40.03283,-3.51939],[-40.03048,-3.51878],[-40.02964,-3.51835],[-40.02721,-3.51806],[-40.0257,-3.51838],[-40.02513,-3.51642],[-40.01554,-3.51614],[-40.01496,-3.51476],[-40.01554,-3.51301],[-40.01338,-3.51043],[-40.01265,-3.50855],[-40.01187,-3.50844],[-40.00532,-3.51018],[-40.00284,-3.51065],[-40.00162,-3.51032],[-40.00058,-3.51114],[-39.99998,-3.51087],[-39.99458,-3.51066],[-39.99252,-3.51014],[-39.99072,-3.51025],[-39.99021,-3.50934],[-39.98864,-3.50531],[-39.98754,-3.50435],[-39.98521,-3.501],[-39.98471,-3.5006],[-39.98327,-3.5012],[-39.98174,-3.50115],[-39.98049,-3.50057],[-39.97655,-3.50041],[-39.97542,-3.50106],[-39.97348,-3.50095],[-39.96623,-3.50094],[-39.96323,-3.50264],[-39.96158,-3.49982],[-39.96144,-3.49711],[-39.96198,-3.49217],[-39.96205,-3.48953],[-39.96245,-3.48751],[-39.96201,-3.48601],[-39.96215,-3.48203],[-39.96273,-3.47858],[-39.96195,-3.47703],[-39.95915,-3.47485],[-39.95758,-3.47345],[-39.95642,-3.47137],[-39.95652,-3.4687],[-39.95747,-3.46679],[-39.95885,-3.46521],[-39.9626,-3.46243],[-39.96181,-3.46022],[-39.95773,-3.45613],[-39.95683,-3.45491],[-39.95505,-3.45357],[-39.95243,-3.45133],[-39.95103,-3.44973],[-39.94995,-3.44801],[-39.94817,-3.44308],[-39.94784,-3.44161],[-39.94803,-3.43981],[-39.94866,-3.43623],[-39.95024,-3.43311],[-39.95189,-3.43329],[-39.95758,-3.43494],[-39.96088,-3.43641],[-39.96359,-3.43784],[-39.96526,-3.43835],[-39.96652,-3.43833],[-39.96882,-3.43912],[-39.97244,-3.43943],[-39.97429,-3.43943],[-39.97979,-3.44056],[-39.98322,-3.44082],[-39.98536,-3.44082],[-39.98915,-3.43999],[-39.99121,-3.43922],[-39.99265,-3.4384],[-39.99523,-3.4382],[-39.99614,-3.43732],[-40.02758,-3.43728]]]},"properties":{"codigo":"230837735","name":"Bom Jesus","population":822,"households":314,"areaKm2":68.3,"density":12}}]}