{"type":"FeatureCollection","features":[{"type":"Feature","geometry":{"type":"Polygon","coordinates":[[[-40.46279,-3.53478],[-40.46075,-3.54168],[-40.45782,-3.54383],[-40.4582,-3.54237],[-40.45757,-3.5414],[-40.45762,-3.54038],[-40.45746,-3.53881],[-40.46042,-3.53686],[-40.46145,-3.53586],[-40.46231,-3.53527],[-40.46279,-3.53478]]]},"properties":{"codigo":"2308203003","name":"Dom Expedito","population":1430,"households":546,"areaKm2":0.2544,"density":5621.5}},{"type":"Feature","geometry":{"type":"Polygon","coordinates":[[[-40.45782,-3.54383],[-40.45184,-3.54821],[-40.45092,-3.54398],[-40.45433,-3.54128],[-40.45736,-3.54289],[-40.4582,-3.54237],[-40.45782,-3.54383]]]},"properties":{"codigo":"2308203002","name":"Divino Salvador","population":1356,"households":494,"areaKm2":0.3113,"density":4355.4}},{"type":"Feature","geometry":{"type":"Polygon","coordinates":[[[-40.45746,-3.53881],[-40.45676,-3.53776],[-40.4581,-3.53403],[-40.46279,-3.53478],[-40.46231,-3.53527],[-40.46145,-3.53586],[-40.46042,-3.53686],[-40.45746,-3.53881]]]},"properties":{"codigo":"2308203004","name":"Coronel Bezerril","population":1100,"households":417,"areaKm2":0.1744,"density":6305.9}},{"type":"Feature","geometry":{"type":"Polygon","coordinates":[[[-40.4582,-3.54237],[-40.45736,-3.54289],[-40.45433,-3.54128],[-40.45092,-3.54398],[-40.45056,-3.54232],[-40.44466,-3.54077],[-40.44248,-3.53878],[-40.4581,-3.53403],[-40.45676,-3.53776],[-40.45746,-3.53881],[-40.45762,-3.54038],[-40.45757,-3.5414],[-40.4582,-3.54237]]]},"properties":{"codigo":"2308203001","name":"Centro","population":1305,"households":600,"areaKm2":0.9586,"density":1361.4}}]}