{"type":"FeatureCollection","features":[{"type":"Feature","geometry":{"type":"Polygon","coordinates":[[[-38.38189,-4.14515],[-38.41634,-4.1427],[-38.46225,-4.13945],[-38.48023,-4.13817],[-38.48489,-4.14018],[-38.49644,-4.14515],[-38.49821,-4.14466],[-38.5002,-4.14249],[-38.50144,-4.14167],[-38.50226,-4.14239],[-38.50412,-4.14235],[-38.50566,-4.1407],[-38.50756,-4.14016],[-38.50868,-4.1403],[-38.50912,-4.13981],[-38.51082,-4.13928],[-38.5134,-4.13905],[-38.51516,-4.13829],[-38.51974,-4.13575],[-38.52108,-4.1368],[-38.52223,-4.13809],[-38.52198,-4.13985],[-38.5223,-4.14142],[-38.5221,-4.14354],[-38.52219,-4.14515],[-38.52145,-4.14658],[-38.52137,-4.14814],[-38.52289,-4.14995],[-38.5236,-4.15043],[-38.52345,-4.15138],[-38.5218,-4.15408],[-38.52199,-4.15588],[-38.52168,-4.15685],[-38.5218,-4.1581],[-38.52158,-4.16043],[-38.5236,-4.16263],[-38.52531,-4.16424],[-38.52515,-4.16475],[-38.52589,-4.16592],[-38.52626,-4.16754],[-38.52773,-4.16995],[-38.52908,-4.17088],[-38.53054,-4.17118],[-38.53215,-4.17225],[-38.53474,-4.17307],[-38.53643,-4.17442],[-38.54021,-4.17609],[-38.54398,-4.17817],[-38.54477,-4.17907],[-38.54508,-4.1802],[-38.54622,-4.1821],[-38.54662,-4.18403],[-38.54666,-4.18547],[-38.54741,-4.18732],[-38.54923,-4.18837],[-38.5563,-4.19008],[-38.56119,-4.18937],[-38.56291,-4.18981],[-38.56449,-4.19113],[-38.56128,-4.19057],[-38.55923,-4.19153],[-38.55734,-4.19378],[-38.55367,-4.19386],[-38.55095,-4.19308],[-38.54646,-4.19351],[-38.5459,-4.1933],[-38.54373,-4.19148],[-38.54001,-4.18907],[-38.53753,-4.18978],[-38.53395,-4.19062],[-38.53381,-4.19272],[-38.53079,-4.19212],[-38.53105,-4.19036],[-38.52765,-4.1901],[-38.52301,-4.19118],[-38.51995,-4.18998],[-38.5188,-4.18969],[-38.51851,-4.19118],[-38.52032,-4.1926],[-38.52234,-4.19391],[-38.52287,-4.19593],[-38.52341,-4.19622],[-38.52149,-4.20007],[-38.51969,-4.2026],[-38.51941,-4.20475],[-38.51966,-4.20993],[-38.5196,-4.21291],[-38.5184,-4.21343],[-38.51722,-4.21308],[-38.5141,-4.2139],[-38.51144,-4.21399],[-38.51019,-4.21539],[-38.50853,-4.21607],[-38.50619,-4.21616],[-38.50261,-4.21693],[-38.49674,-4.21957],[-38.49365,-4.22123],[-38.48584,-4.22494],[-38.47769,-4.22757],[-38.48102,-4.23802],[-38.4789,-4.23895],[-38.46553,-4.2454],[-38.46322,-4.24525],[-38.46111,-4.2445],[-38.4573,-4.24374],[-38.45448,-4.24334],[-38.45122,-4.24051],[-38.44736,-4.24027],[-38.4464,-4.23857],[-38.44515,-4.23154],[-38.44431,-4.22984],[-38.44255,-4.22945],[-38.44063,-4.22994],[-38.43914,-4.23105],[-38.43744,-4.23167],[-38.43451,-4.2316],[-38.43226,-4.23107],[-38.42793,-4.23051],[-38.42232,-4.22907],[-38.41917,-4.22906],[-38.41773,-4.22991],[-38.39285,-4.22315],[-38.38749,-4.18502],[-38.38189,-4.14515]]]},"properties":{"codigo":"230960705","name":"Pacajus","population":66726,"households":28096,"areaKm2":150.5388,"density":443.2}},{"type":"Feature","geometry":{"type":"Polygon","coordinates":[[[-38.58179,-4.22195],[-38.58065,-4.22142],[-38.57964,-4.21948],[-38.57867,-4.21685],[-38.57643,-4.2142],[-38.57572,-4.21289],[-38.57534,-4.2114],[-38.57555,-4.20926],[-38.57531,-4.20793],[-38.57373,-4.20519],[-38.57174,-4.20358],[-38.57169,-4.20162],[-38.57007,-4.20007],[-38.56854,-4.19781],[-38.56699,-4.19618],[-38.56536,-4.19368],[-38.56449,-4.19113],[-38.56291,-4.18981],[-38.56119,-4.18937],[-38.5563,-4.19008],[-38.54923,-4.18837],[-38.54741,-4.18732],[-38.54666,-4.18547],[-38.54662,-4.18403],[-38.54622,-4.1821],[-38.54508,-4.1802],[-38.54477,-4.17907],[-38.54398,-4.17817],[-38.54021,-4.17609],[-38.53643,-4.17442],[-38.53474,-4.17307],[-38.53215,-4.17225],[-38.53054,-4.17118],[-38.52908,-4.17088],[-38.52773,-4.16995],[-38.52626,-4.16754],[-38.52589,-4.16592],[-38.52515,-4.16475],[-38.52531,-4.16424],[-38.5236,-4.16263],[-38.52158,-4.16043],[-38.5218,-4.1581],[-38.52168,-4.15685],[-38.52199,-4.15588],[-38.5218,-4.15408],[-38.52345,-4.15138],[-38.5236,-4.15043],[-38.52289,-4.14995],[-38.52137,-4.14814],[-38.52145,-4.14658],[-38.52219,-4.14515],[-38.5221,-4.14354],[-38.5223,-4.14142],[-38.52198,-4.13985],[-38.52223,-4.13809],[-38.52108,-4.1368],[-38.51974,-4.13575],[-38.52186,-4.13559],[-38.52367,-4.13434],[-38.52476,-4.13323],[-38.52619,-4.13221],[-38.528,-4.13183],[-38.53321,-4.13143],[-38.53527,-4.13067],[-38.53782,-4.13031],[-38.54032,-4.13057],[-38.54204,-4.13038],[-38.54254,-4.12854],[-38.57039,-4.12825],[-38.57073,-4.13128],[-38.57106,-4.13236],[-38.57382,-4.13341],[-38.57927,-4.13496],[-38.58053,-4.13509],[-38.58376,-4.13451],[-38.58535,-4.13548],[-38.58597,-4.13685],[-38.5885,-4.13803],[-38.58999,-4.13907],[-38.59077,-4.14019],[-38.59282,-4.14235],[-38.59485,-4.14357],[-38.59642,-4.14382],[-38.5973,-4.1447],[-38.59838,-4.14515],[-38.59952,-4.14455],[-38.60218,-4.14491],[-38.60353,-4.14484],[-38.6041,-4.14537],[-38.60405,-4.1463],[-38.60476,-4.14681],[-38.60619,-4.14654],[-38.60805,-4.14786],[-38.60912,-4.14937],[-38.60904,-4.15008],[-38.61001,-4.15111],[-38.61189,-4.15085],[-38.61288,-4.15182],[-38.614,-4.15239],[-38.61408,-4.15378],[-38.61484,-4.15486],[-38.61466,-4.156],[-38.61568,-4.15775],[-38.61547,-4.15914],[-38.6167,-4.15968],[-38.6175,-4.15956],[-38.61859,-4.16139],[-38.61876,-4.16345],[-38.61844,-4.16428],[-38.61827,-4.16651],[-38.61906,-4.16728],[-38.61893,-4.16829],[-38.6194,-4.16902],[-38.61929,-4.17022],[-38.6188,-4.17071],[-38.61768,-4.17298],[-38.61661,-4.17596],[-38.61648,-4.17743],[-38.61444,-4.18292],[-38.58179,-4.22195]]]},"properties":{"codigo":"230960720","name":"Itaipaba","population":1926,"households":1055,"areaKm2":66.2133,"density":29.1}},{"type":"Feature","geometry":{"type":"Polygon","coordinates":[[[-38.57047,-4.23548],[-38.56809,-4.23285],[-38.56675,-4.2323],[-38.56472,-4.23229],[-38.56222,-4.23337],[-38.55664,-4.23512],[-38.55279,-4.2353],[-38.54919,-4.23478],[-38.54743,-4.23424],[-38.54426,-4.23231],[-38.54075,-4.23134],[-38.53772,-4.2313],[-38.53471,-4.23205],[-38.53338,-4.23269],[-38.53146,-4.23259],[-38.5298,-4.23162],[-38.52789,-4.22992],[-38.52695,-4.22856],[-38.52583,-4.22616],[-38.52469,-4.22589],[-38.52181,-4.22639],[-38.51812,-4.22804],[-38.51356,-4.2296],[-38.50446,-4.2314],[-38.49927,-4.23186],[-38.49738,-4.23113],[-38.49514,-4.23131],[-38.48102,-4.23802],[-38.47769,-4.22757],[-38.48584,-4.22494],[-38.49365,-4.22123],[-38.49674,-4.21957],[-38.50261,-4.21693],[-38.50619,-4.21616],[-38.50853,-4.21607],[-38.51019,-4.21539],[-38.51144,-4.21399],[-38.5141,-4.2139],[-38.51722,-4.21308],[-38.5184,-4.21343],[-38.5196,-4.21291],[-38.51966,-4.20993],[-38.51941,-4.20475],[-38.51969,-4.2026],[-38.52149,-4.20007],[-38.52341,-4.19622],[-38.52287,-4.19593],[-38.52234,-4.19391],[-38.52032,-4.1926],[-38.51851,-4.19118],[-38.5188,-4.18969],[-38.51995,-4.18998],[-38.52301,-4.19118],[-38.52765,-4.1901],[-38.53105,-4.19036],[-38.53079,-4.19212],[-38.53381,-4.19272],[-38.53395,-4.19062],[-38.53753,-4.18978],[-38.54001,-4.18907],[-38.54373,-4.19148],[-38.5459,-4.1933],[-38.54646,-4.19351],[-38.55095,-4.19308],[-38.55367,-4.19386],[-38.55734,-4.19378],[-38.55923,-4.19153],[-38.56128,-4.19057],[-38.56449,-4.19113],[-38.56536,-4.19368],[-38.56699,-4.19618],[-38.56854,-4.19781],[-38.57007,-4.20007],[-38.57169,-4.20162],[-38.57174,-4.20358],[-38.57373,-4.20519],[-38.57531,-4.20793],[-38.57555,-4.20926],[-38.57534,-4.2114],[-38.57572,-4.21289],[-38.57643,-4.2142],[-38.57867,-4.21685],[-38.57964,-4.21948],[-38.58065,-4.22142],[-38.58179,-4.22195],[-38.57047,-4.23548]]]},"properties":{"codigo":"230960730","name":"Pascoal","population":2331,"households":1092,"areaKm2":33.5518,"density":69.5}}]}