{"type":"FeatureCollection","features":[{"type":"Feature","geometry":{"type":"Polygon","coordinates":[[[-39.10692,-3.43791],[-39.12054,-3.42634],[-39.15975,-3.39289],[-39.16123,-3.41916],[-39.16347,-3.41882],[-39.16718,-3.41874],[-39.17048,-3.41942],[-39.1741,-3.41956],[-39.18056,-3.41821],[-39.19306,-3.4167],[-39.19833,-3.41616],[-39.1998,-3.41706],[-39.20225,-3.41814],[-39.20456,-3.41887],[-39.20983,-3.41912],[-39.21111,-3.41845],[-39.21261,-3.41819],[-39.21556,-3.41879],[-39.21641,-3.42117],[-39.21579,-3.42475],[-39.21484,-3.42608],[-39.21538,-3.42732],[-39.21856,-3.42637],[-39.22033,-3.42858],[-39.22197,-3.43116],[-39.22368,-3.43141],[-39.22485,-3.43307],[-39.22466,-3.43511],[-39.22653,-3.4349],[-39.23248,-3.43506],[-39.23574,-3.43496],[-39.2429,-3.43624],[-39.25581,-3.43906],[-39.25323,-3.44795],[-39.25754,-3.45638],[-39.25762,-3.46196],[-39.25786,-3.46591],[-39.25803,-3.47152],[-39.26377,-3.48254],[-39.26222,-3.49012],[-39.26246,-3.49051],[-39.25977,-3.49115],[-39.25782,-3.49231],[-39.25747,-3.49287],[-39.25218,-3.49365],[-39.24978,-3.49457],[-39.24846,-3.49461],[-39.24512,-3.49572],[-39.24026,-3.49571],[-39.23713,-3.49613],[-39.23006,-3.49749],[-39.22137,-3.50015],[-39.22255,-3.50194],[-39.22211,-3.50403],[-39.22098,-3.50703],[-39.2127,-3.50838],[-39.21282,-3.50903],[-39.21046,-3.50963],[-39.21151,-3.51283],[-39.16654,-3.52298],[-39.1657,-3.52088],[-39.16487,-3.51955],[-39.16454,-3.51664],[-39.16582,-3.51525],[-39.16613,-3.51201],[-39.16591,-3.5107],[-39.16496,-3.5079],[-39.1646,-3.50738],[-39.16324,-3.50685],[-39.16052,-3.50505],[-39.15988,-3.50428],[-39.15849,-3.5012],[-39.15696,-3.49955],[-39.15652,-3.4979],[-39.15516,-3.49511],[-39.15275,-3.49283],[-39.1518,-3.49118],[-39.15122,-3.49089],[-39.14796,-3.48715],[-39.1446,-3.48513],[-39.14215,-3.48424],[-39.14174,-3.48368],[-39.1417,-3.48189],[-39.14111,-3.48027],[-39.13977,-3.47979],[-39.13874,-3.4803],[-39.13631,-3.48327],[-39.13422,-3.48473],[-39.12952,-3.48751],[-39.12751,-3.48812],[-39.12379,-3.48815],[-39.12067,-3.48759],[-39.11963,-3.48689],[-39.11876,-3.48544],[-39.11871,-3.48117],[-39.11934,-3.4802],[-39.11953,-3.47905],[-39.1188,-3.47758],[-39.11701,-3.47576],[-39.11475,-3.47408],[-39.11477,-3.47293],[-39.11674,-3.47068],[-39.11728,-3.46714],[-39.117,-3.46428],[-39.11725,-3.46166],[-39.11781,-3.46035],[-39.11914,-3.4587],[-39.11993,-3.45659],[-39.12116,-3.45496],[-39.12123,-3.45391],[-39.11984,-3.45179],[-39.1184,-3.45094],[-39.11787,-3.45008],[-39.11782,-3.44734],[-39.11798,-3.44671],[-39.11931,-3.4452],[-39.12082,-3.44276],[-39.12193,-3.44197],[-39.12347,-3.44014],[-39.1238,-3.43799],[-39.1231,-3.43629],[-39.12288,-3.4348],[-39.1222,-3.43414],[-39.12061,-3.43368],[-39.11952,-3.43392],[-39.11849,-3.43532],[-39.11727,-3.43569],[-39.11428,-3.43764],[-39.11321,-3.4376],[-39.11059,-3.43899],[-39.10923,-3.43902],[-39.10692,-3.43791]]]},"properties":{"codigo":"231025805","name":"Paraipaba","population":23883,"households":10364,"areaKm2":140.0437,"density":170.5}},{"type":"Feature","geometry":{"type":"Polygon","coordinates":[[[-39.15975,-3.39289],[-39.16633,-3.39148],[-39.17189,-3.3901],[-39.17513,-3.38983],[-39.17792,-3.38893],[-39.17879,-3.38885],[-39.18309,-3.38987],[-39.18471,-3.38987],[-39.18818,-3.38814],[-39.18984,-3.38779],[-39.19161,-3.38779],[-39.19335,-3.38739],[-39.19222,-3.38665],[-39.19249,-3.38485],[-39.1916,-3.38367],[-39.19138,-3.38199],[-39.19002,-3.37777],[-39.18907,-3.3762],[-39.19029,-3.37275],[-39.19048,-3.3713],[-39.19146,-3.36961],[-39.18975,-3.36456],[-39.19163,-3.3629],[-39.19283,-3.36121],[-39.1944,-3.36075],[-39.19684,-3.35841],[-39.19868,-3.35705],[-39.20043,-3.35609],[-39.20153,-3.35436],[-39.20252,-3.35543],[-39.20385,-3.35622],[-39.20579,-3.35631],[-39.20741,-3.35532],[-39.2085,-3.35497],[-39.20928,-3.35371],[-39.20924,-3.35266],[-39.21058,-3.35145],[-39.21353,-3.34995],[-39.21448,-3.34999],[-39.21808,-3.35108],[-39.2197,-3.35194],[-39.22229,-3.35198],[-39.22319,-3.35242],[-39.22414,-3.35409],[-39.22561,-3.35501],[-39.22776,-3.35539],[-39.23194,-3.35784],[-39.23335,-3.3582],[-39.23603,-3.35855],[-39.23796,-3.35958],[-39.24019,-3.3596],[-39.24328,-3.35865],[-39.24574,-3.35858],[-39.24717,-3.35937],[-39.24892,-3.35966],[-39.25085,-3.35951],[-39.25481,-3.35964],[-39.2554,-3.36026],[-39.25366,-3.36407],[-39.2505,-3.36901],[-39.25054,-3.37105],[-39.25208,-3.37365],[-39.25513,-3.37627],[-39.25979,-3.37673],[-39.26209,-3.37805],[-39.26339,-3.38008],[-39.26358,-3.38217],[-39.26341,-3.38444],[-39.26302,-3.38562],[-39.26213,-3.38665],[-39.25988,-3.38874],[-39.25356,-3.39658],[-39.25229,-3.40191],[-39.25061,-3.40482],[-39.25034,-3.41191],[-39.2537,-3.41849],[-39.25397,-3.42017],[-39.25358,-3.42748],[-39.25529,-3.43458],[-39.25581,-3.43906],[-39.2429,-3.43624],[-39.23574,-3.43496],[-39.23248,-3.43506],[-39.22653,-3.4349],[-39.22466,-3.43511],[-39.22485,-3.43307],[-39.22368,-3.43141],[-39.22197,-3.43116],[-39.22033,-3.42858],[-39.21856,-3.42637],[-39.21538,-3.42732],[-39.21484,-3.42608],[-39.21579,-3.42475],[-39.21641,-3.42117],[-39.21556,-3.41879],[-39.21261,-3.41819],[-39.21111,-3.41845],[-39.20983,-3.41912],[-39.20456,-3.41887],[-39.20225,-3.41814],[-39.1998,-3.41706],[-39.19833,-3.41616],[-39.19306,-3.4167],[-39.18056,-3.41821],[-39.1741,-3.41956],[-39.17048,-3.41942],[-39.16718,-3.41874],[-39.16347,-3.41882],[-39.16123,-3.41916],[-39.15975,-3.39289]]]},"properties":{"codigo":"231025810","name":"Boa Vista","population":2759,"households":1142,"areaKm2":66.8306,"density":41.3}},{"type":"Feature","geometry":{"type":"Polygon","coordinates":[[[-39.06455,-3.40674],[-39.06615,-3.40574],[-39.06702,-3.40485],[-39.06877,-3.40436],[-39.0714,-3.40304],[-39.0742,-3.40139],[-39.07956,-3.39664],[-39.0835,-3.39355],[-39.08592,-3.39105],[-39.08828,-3.38835],[-39.09118,-3.38456],[-39.10334,-3.36623],[-39.1079,-3.35729],[-39.11044,-3.3511],[-39.11274,-3.34711],[-39.11502,-3.34569],[-39.11715,-3.34484],[-39.11824,-3.34537],[-39.11844,-3.34594],[-39.12619,-3.37159],[-39.12629,-3.39648],[-39.13204,-3.39627],[-39.13599,-3.3954],[-39.1386,-3.39466],[-39.14006,-3.39383],[-39.14381,-3.39395],[-39.14617,-3.3943],[-39.14775,-3.39403],[-39.1506,-3.39305],[-39.15218,-3.39273],[-39.1562,-3.39297],[-39.15805,-3.3932],[-39.15975,-3.39289],[-39.12054,-3.42634],[-39.10692,-3.43791],[-39.10535,-3.43667],[-39.10466,-3.43506],[-39.10486,-3.43375],[-39.10793,-3.42857],[-39.1096,-3.42657],[-39.11002,-3.42495],[-39.10782,-3.42097],[-39.10713,-3.42012],[-39.106,-3.41971],[-39.10321,-3.41965],[-39.10216,-3.41915],[-39.10084,-3.41912],[-39.09983,-3.41866],[-39.09903,-3.41747],[-39.09741,-3.41696],[-39.09573,-3.41708],[-39.09441,-3.41671],[-39.09194,-3.41366],[-39.09007,-3.4132],[-39.08865,-3.412],[-39.08815,-3.41118],[-39.08649,-3.40912],[-39.08545,-3.4082],[-39.08372,-3.4074],[-39.08126,-3.40746],[-39.07887,-3.4082],[-39.07646,-3.40812],[-39.07239,-3.40977],[-39.07131,-3.4104],[-39.06869,-3.41139],[-39.06556,-3.41193],[-39.06455,-3.41178],[-39.06278,-3.41065],[-39.06295,-3.40937],[-39.06434,-3.40752],[-39.06455,-3.40674]]]},"properties":{"codigo":"231025815","name":"Camboas","population":2530,"households":1256,"areaKm2":36.1626,"density":70}},{"type":"Feature","geometry":{"type":"Polygon","coordinates":[[[-39.15975,-3.39289],[-39.15805,-3.3932],[-39.1562,-3.39297],[-39.15218,-3.39273],[-39.1506,-3.39305],[-39.14775,-3.39403],[-39.14617,-3.3943],[-39.14381,-3.39395],[-39.14006,-3.39383],[-39.1386,-3.39466],[-39.13599,-3.3954],[-39.13204,-3.39627],[-39.12629,-3.39648],[-39.12619,-3.37159],[-39.11844,-3.34594],[-39.11824,-3.34537],[-39.11926,-3.34542],[-39.12116,-3.34439],[-39.1244,-3.34427],[-39.12578,-3.34382],[-39.12759,-3.34361],[-39.13078,-3.34487],[-39.13219,-3.34513],[-39.13461,-3.34477],[-39.1358,-3.34504],[-39.13653,-3.34579],[-39.1379,-3.34593],[-39.13938,-3.34571],[-39.14254,-3.34427],[-39.14498,-3.34278],[-39.15093,-3.33781],[-39.1564,-3.33532],[-39.15924,-3.33246],[-39.16273,-3.32844],[-39.16353,-3.32732],[-39.16484,-3.32619],[-39.16442,-3.3275],[-39.1653,-3.32815],[-39.16587,-3.32714],[-39.1669,-3.32806],[-39.1686,-3.3284],[-39.16894,-3.3288],[-39.17244,-3.32848],[-39.17496,-3.32857],[-39.1758,-3.33033],[-39.17729,-3.33223],[-39.17946,-3.33418],[-39.17915,-3.33481],[-39.18098,-3.33786],[-39.18108,-3.33991],[-39.18234,-3.34113],[-39.18765,-3.34161],[-39.19186,-3.3414],[-39.19318,-3.34205],[-39.19493,-3.3455],[-39.19484,-3.34703],[-39.19438,-3.34879],[-39.19488,-3.35009],[-39.19579,-3.35067],[-39.19832,-3.35166],[-39.20059,-3.35291],[-39.20153,-3.35436],[-39.20043,-3.35609],[-39.19868,-3.35705],[-39.19684,-3.35841],[-39.1944,-3.36075],[-39.19283,-3.36121],[-39.19163,-3.3629],[-39.18975,-3.36456],[-39.19146,-3.36961],[-39.19048,-3.3713],[-39.19029,-3.37275],[-39.18907,-3.3762],[-39.19002,-3.37777],[-39.19138,-3.38199],[-39.1916,-3.38367],[-39.19249,-3.38485],[-39.19222,-3.38665],[-39.19335,-3.38739],[-39.19161,-3.38779],[-39.18984,-3.38779],[-39.18818,-3.38814],[-39.18471,-3.38987],[-39.18309,-3.38987],[-39.17879,-3.38885],[-39.17792,-3.38893],[-39.17513,-3.38983],[-39.17189,-3.3901],[-39.16633,-3.39148],[-39.15975,-3.39289]]]},"properties":{"codigo":"231025820","name":"Lagoinha","population":3044,"households":1576,"areaKm2":46.194,"density":65.9}}]}