{"type":"FeatureCollection","features":[{"type":"Feature","geometry":{"type":"Polygon","coordinates":[[[-38.41175,-5.8985],[-38.41333,-5.90028],[-38.41457,-5.90112],[-38.41566,-5.90148],[-38.41761,-5.90166],[-38.41901,-5.9012],[-38.41948,-5.90032],[-38.41945,-5.89881],[-38.417,-5.88659],[-38.41766,-5.88152],[-38.41934,-5.87971],[-38.42251,-5.87953],[-38.42789,-5.88249],[-38.43379,-5.88552],[-38.43678,-5.88534],[-38.4393,-5.88281],[-38.44155,-5.87838],[-38.44274,-5.8772],[-38.44649,-5.87893],[-38.44948,-5.87911],[-38.45522,-5.87304],[-38.45691,-5.87118],[-38.45934,-5.87086],[-38.46142,-5.87132],[-38.46607,-5.87323],[-38.46775,-5.87414],[-38.47153,-5.87564],[-38.47414,-5.87737],[-38.4755,-5.87956],[-38.47749,-5.88441],[-38.47755,-5.88581],[-38.47496,-5.88791],[-38.47576,-5.88883],[-38.47744,-5.88901],[-38.47932,-5.88862],[-38.4817,-5.88693],[-38.48271,-5.88546],[-38.48341,-5.88376],[-38.48229,-5.88122],[-38.47998,-5.87472],[-38.47978,-5.87198],[-38.47863,-5.86883],[-38.47801,-5.86435],[-38.47574,-5.85788],[-38.4739,-5.84914],[-38.47224,-5.84538],[-38.46756,-5.82682],[-38.46491,-5.82139],[-38.46441,-5.81848],[-38.46427,-5.81601],[-38.46361,-5.81155],[-38.46296,-5.80997],[-38.46318,-5.80842],[-38.46461,-5.80644],[-38.46599,-5.80551],[-38.46737,-5.80422],[-38.46772,-5.804],[-38.46772,-5.80218],[-38.46261,-5.79525],[-38.46229,-5.79238],[-38.46314,-5.78877],[-38.46352,-5.78634],[-38.46289,-5.78359],[-38.46286,-5.7807],[-38.46723,-5.77932],[-38.46833,-5.77873],[-38.46991,-5.7785],[-38.47343,-5.7785],[-38.47456,-5.77897],[-38.47722,-5.7819],[-38.47866,-5.78399],[-38.48057,-5.78596],[-38.48292,-5.78733],[-38.48298,-5.78931],[-38.4835,-5.7904],[-38.48469,-5.7914],[-38.48523,-5.79255],[-38.48552,-5.79508],[-38.48485,-5.79704],[-38.48399,-5.7977],[-38.48246,-5.79665],[-38.48077,-5.79453],[-38.47954,-5.79494],[-38.47747,-5.7947],[-38.47604,-5.79493],[-38.47636,-5.79583],[-38.47792,-5.796],[-38.47892,-5.79654],[-38.47996,-5.79769],[-38.48051,-5.79975],[-38.48113,-5.80113],[-38.48244,-5.80286],[-38.48492,-5.80461],[-38.48632,-5.80483],[-38.48848,-5.8043],[-38.48869,-5.80547],[-38.48748,-5.80652],[-38.48791,-5.80846],[-38.48705,-5.80953],[-38.48534,-5.80945],[-38.48501,-5.81026],[-38.48413,-5.81047],[-38.48492,-5.8129],[-38.4844,-5.81405],[-38.48308,-5.81341],[-38.48099,-5.81168],[-38.47963,-5.81181],[-38.47985,-5.81375],[-38.47963,-5.81463],[-38.47813,-5.81602],[-38.47793,-5.81767],[-38.4771,-5.81823],[-38.47813,-5.81888],[-38.47823,-5.82031],[-38.47752,-5.82126],[-38.48025,-5.82331],[-38.48283,-5.82697],[-38.48519,-5.82999],[-38.48584,-5.83253],[-38.48539,-5.83424],[-38.48421,-5.83586],[-38.48294,-5.83559],[-38.48225,-5.83585],[-38.48171,-5.83914],[-38.48249,-5.84109],[-38.48245,-5.84422],[-38.48193,-5.84576],[-38.48242,-5.84653],[-38.48281,-5.84882],[-38.4826,-5.84966],[-38.48384,-5.85129],[-38.48384,-5.85261],[-38.48482,-5.8536],[-38.48571,-5.8556],[-38.48557,-5.85708],[-38.4864,-5.85816],[-38.48732,-5.86457],[-38.48786,-5.86632],[-38.48876,-5.86789],[-38.48932,-5.8699],[-38.49087,-5.87374],[-38.49236,-5.87326],[-38.49288,-5.87163],[-38.4933,-5.86929],[-38.49343,-5.86732],[-38.49386,-5.86607],[-38.49552,-5.8659],[-38.49593,-5.86444],[-38.49683,-5.86369],[-38.49762,-5.86481],[-38.50115,-5.8686],[-38.50264,-5.87091],[-38.504,-5.87217],[-38.50474,-5.87252],[-38.50605,-5.87222],[-38.50742,-5.8733],[-38.5077,-5.87407],[-38.50937,-5.87569],[-38.51015,-5.87773],[-38.51071,-5.87817],[-38.51199,-5.87788],[-38.51266,-5.87915],[-38.51268,-5.88028],[-38.51185,-5.88231],[-38.5113,-5.88433],[-38.51111,-5.88595],[-38.51151,-5.88938],[-38.51238,-5.89006],[-38.51203,-5.89067],[-38.5104,-5.89086],[-38.50989,-5.89207],[-38.50862,-5.89416],[-38.50723,-5.89408],[-38.50535,-5.89449],[-38.50425,-5.89404],[-38.50458,-5.89712],[-38.50522,-5.89938],[-38.50548,-5.90163],[-38.50595,-5.9054],[-38.50551,-5.90916],[-38.5054,-5.91141],[-38.5056,-5.91418],[-38.50374,-5.91668],[-38.50104,-5.91461],[-38.49981,-5.91182],[-38.4987,-5.912],[-38.49773,-5.91323],[-38.49824,-5.91618],[-38.49887,-5.91847],[-38.49906,-5.92275],[-38.49997,-5.92454],[-38.50077,-5.92527],[-38.50063,-5.92604],[-38.49953,-5.92687],[-38.50067,-5.9284],[-38.50052,-5.92923],[-38.4994,-5.92969],[-38.49865,-5.92908],[-38.49805,-5.92689],[-38.49592,-5.92324],[-38.49356,-5.91667],[-38.49287,-5.9155],[-38.49089,-5.91453],[-38.48905,-5.91494],[-38.48683,-5.91446],[-38.48498,-5.915],[-38.4829,-5.91447],[-38.482,-5.91481],[-38.48296,-5.91569],[-38.48525,-5.91637],[-38.48767,-5.91589],[-38.49023,-5.91633],[-38.49079,-5.9169],[-38.49215,-5.92073],[-38.49222,-5.92198],[-38.49139,-5.92281],[-38.49178,-5.92391],[-38.49123,-5.92545],[-38.49229,-5.93085],[-38.49233,-5.93213],[-38.49194,-5.93329],[-38.4929,-5.93543],[-38.49332,-5.93698],[-38.49321,-5.93826],[-38.49378,-5.93957],[-38.49526,-5.9413],[-38.49672,-5.94365],[-38.49748,-5.94724],[-38.49846,-5.94955],[-38.49879,-5.95083],[-38.49844,-5.95238],[-38.49898,-5.9542],[-38.50173,-5.9566],[-38.50284,-5.95638],[-38.50429,-5.95653],[-38.5057,-5.95748],[-38.50567,-5.95903],[-38.50339,-5.96119],[-38.50314,-5.9626],[-38.50409,-5.96514],[-38.5052,-5.96632],[-38.50909,-5.96879],[-38.51092,-5.9697],[-38.51104,-5.97155],[-38.51063,-5.97274],[-38.51083,-5.97343],[-38.51182,-5.97435],[-38.5113,-5.97535],[-38.51123,-5.97644],[-38.5116,-5.97733],[-38.51281,-5.97882],[-38.51487,-5.97943],[-38.51611,-5.98087],[-38.51624,-5.982],[-38.51682,-5.98328],[-38.51682,-5.98527],[-38.51634,-5.98652],[-38.51634,-5.98755],[-38.51498,-5.98778],[-38.51306,-5.98848],[-38.51114,-5.98716],[-38.50975,-5.98556],[-38.50729,-5.98576],[-38.50585,-5.98277],[-38.50338,-5.97927],[-38.50235,-5.97684],[-38.50114,-5.97496],[-38.5005,-5.97449],[-38.49879,-5.97138],[-38.49616,-5.96716],[-38.49445,-5.96502],[-38.49173,-5.96124],[-38.49038,-5.95904],[-38.49025,-5.95789],[-38.49086,-5.9568],[-38.48986,-5.95397],[-38.48779,-5.95072],[-38.48587,-5.94707],[-38.48461,-5.94593],[-38.48398,-5.94624],[-38.48504,-5.94887],[-38.48639,-5.95124],[-38.48796,-5.95356],[-38.48857,-5.95537],[-38.48812,-5.95639],[-38.48673,-5.9557],[-38.48435,-5.95269],[-38.48151,-5.94945],[-38.47916,-5.94769],[-38.4752,-5.94359],[-38.47421,-5.94182],[-38.47423,-5.94104],[-38.47607,-5.93924],[-38.47609,-5.93853],[-38.4741,-5.9384],[-38.47257,-5.93774],[-38.46976,-5.9362],[-38.46513,-5.93342],[-38.46225,-5.93096],[-38.46177,-5.92994],[-38.46177,-5.92872],[-38.46133,-5.92804],[-38.4586,-5.92585],[-38.45829,-5.92507],[-38.4587,-5.92402],[-38.45796,-5.92301],[-38.45705,-5.92099],[-38.45581,-5.9205],[-38.45585,-5.92165],[-38.45665,-5.92428],[-38.45729,-5.92839],[-38.45673,-5.92944],[-38.45564,-5.92858],[-38.45464,-5.92634],[-38.4526,-5.92406],[-38.45094,-5.92164],[-38.44955,-5.92032],[-38.44773,-5.9203],[-38.44726,-5.92117],[-38.45026,-5.92521],[-38.45114,-5.92611],[-38.45217,-5.92657],[-38.45387,-5.92931],[-38.45536,-5.93092],[-38.4575,-5.93243],[-38.45805,-5.93361],[-38.45791,-5.93594],[-38.45731,-5.93685],[-38.45447,-5.93675],[-38.45343,-5.93642],[-38.45127,-5.93486],[-38.45092,-5.93571],[-38.45172,-5.93665],[-38.45203,-5.93764],[-38.45465,-5.93961],[-38.45599,-5.94011],[-38.45707,-5.94017],[-38.4595,-5.93935],[-38.46175,-5.93975],[-38.46267,-5.94021],[-38.46353,-5.93944],[-38.4643,-5.93963],[-38.46506,-5.94327],[-38.46459,-5.94455],[-38.46459,-5.94566],[-38.46585,-5.94664],[-38.46896,-5.94717],[-38.47028,-5.94686],[-38.47224,-5.94819],[-38.47426,-5.95067],[-38.47738,-5.95299],[-38.47931,-5.95526],[-38.48078,-5.95753],[-38.48224,-5.95944],[-38.48432,-5.96177],[-38.48649,-5.9648],[-38.48931,-5.96968],[-38.49004,-5.97119],[-38.49247,-5.97719],[-38.49434,-5.98059],[-38.49467,-5.98248],[-38.49385,-5.98341],[-38.49402,-5.98463],[-38.49552,-5.98562],[-38.49731,-5.98881],[-38.49925,-5.99071],[-38.49996,-5.99184],[-38.50223,-5.99454],[-38.50248,-5.99633],[-38.50344,-5.99713],[-38.50293,-5.99782],[-38.50404,-5.99871],[-38.5046,-6.00011],[-38.50531,-6.00011],[-38.50597,-6.00141],[-38.50751,-6.00297],[-38.50908,-6.00614],[-38.50802,-6.00691],[-38.50785,-6.00766],[-38.50916,-6.00849],[-38.50945,-6.01075],[-38.51152,-6.0137],[-38.51215,-6.01435],[-38.51407,-6.01775],[-38.51568,-6.01972],[-38.51617,-6.02172],[-38.51729,-6.02278],[-38.51813,-6.0245],[-38.51938,-6.02554],[-38.51987,-6.02715],[-38.522,-6.02855],[-38.52346,-6.02987],[-38.52437,-6.03125],[-38.52503,-6.03282],[-38.52685,-6.03328],[-38.52782,-6.03409],[-38.52988,-6.03749],[-38.53206,-6.0386],[-38.53331,-6.0407],[-38.53416,-6.04029],[-38.53393,-6.03827],[-38.53404,-6.037],[-38.53275,-6.03568],[-38.53227,-6.03442],[-38.53079,-6.03198],[-38.52769,-6.02883],[-38.52695,-6.02776],[-38.52718,-6.02708],[-38.52946,-6.02904],[-38.53022,-6.02909],[-38.53118,-6.02996],[-38.53203,-6.02973],[-38.53119,-6.02748],[-38.52985,-6.0269],[-38.52647,-6.02318],[-38.52703,-6.0225],[-38.5288,-6.02325],[-38.52942,-6.02171],[-38.53035,-6.02077],[-38.52989,-6.01923],[-38.53038,-6.018],[-38.52969,-6.01711],[-38.52923,-6.01566],[-38.5272,-6.01338],[-38.52632,-6.01378],[-38.52679,-6.01594],[-38.52661,-6.01699],[-38.52538,-6.01678],[-38.52408,-6.01357],[-38.52395,-6.01197],[-38.52467,-6.01142],[-38.52605,-6.01266],[-38.52748,-6.00941],[-38.52706,-6.0074],[-38.52724,-6.00578],[-38.52667,-6.00517],[-38.52655,-6.00327],[-38.52601,-6.00171],[-38.52702,-6.00072],[-38.52818,-6.00105],[-38.52887,-6.00193],[-38.53015,-6.00441],[-38.53059,-6.00602],[-38.5306,-6.00756],[-38.53175,-6.01026],[-38.53243,-6.01309],[-38.53289,-6.01637],[-38.53385,-6.01959],[-38.5351,-6.02288],[-38.53508,-6.02423],[-38.53384,-6.02421],[-38.53321,-6.02567],[-38.53345,-6.02721],[-38.53491,-6.02976],[-38.53541,-6.03116],[-38.53647,-6.03585],[-38.53701,-6.03781],[-38.53743,-6.03847],[-38.53904,-6.03929],[-38.53991,-6.04067],[-38.54033,-6.04219],[-38.54006,-6.04508],[-38.53952,-6.04537],[-38.53843,-6.0448],[-38.5378,-6.04557],[-38.53611,-6.046],[-38.53633,-6.0468],[-38.53858,-6.04845],[-38.53956,-6.04826],[-38.54089,-6.04937],[-38.54077,-6.05114],[-38.54114,-6.05205],[-38.54253,-6.05244],[-38.5413,-6.05425],[-38.53989,-6.05411],[-38.5397,-6.05492],[-38.54067,-6.05635],[-38.54042,-6.05713],[-38.54096,-6.05976],[-38.5423,-6.06163],[-38.54257,-6.06284],[-38.54241,-6.06404],[-38.54337,-6.06598],[-38.54366,-6.06903],[-38.54518,-6.07127],[-38.54426,-6.07331],[-38.54442,-6.07422],[-38.54612,-6.07424],[-38.54714,-6.07521],[-38.54747,-6.07722],[-38.5486,-6.07776],[-38.55039,-6.07811],[-38.5515,-6.07863],[-38.55271,-6.07869],[-38.55343,-6.0782],[-38.55455,-6.07874],[-38.55697,-6.08173],[-38.55919,-6.08642],[-38.55901,-6.08752],[-38.55823,-6.08804],[-38.55686,-6.08811],[-38.55616,-6.08984],[-38.55723,-6.09083],[-38.55869,-6.08965],[-38.55931,-6.0896],[-38.56101,-6.09081],[-38.56196,-6.0934],[-38.56125,-6.09439],[-38.55963,-6.09383],[-38.5591,-6.09421],[-38.55989,-6.09668],[-38.55997,-6.09822],[-38.56054,-6.10146],[-38.56,-6.10162],[-38.55922,-6.09954],[-38.55835,-6.09854],[-38.55741,-6.09876],[-38.55794,-6.10105],[-38.55691,-6.10261],[-38.55722,-6.10411],[-38.55852,-6.10534],[-38.55847,-6.10684],[-38.55802,-6.10756],[-38.55895,-6.10916],[-38.55933,-6.11043],[-38.55945,-6.11205],[-38.55924,-6.11419],[-38.55928,-6.11585],[-38.55977,-6.11745],[-38.56167,-6.1209],[-38.56238,-6.12307],[-38.56343,-6.12518],[-38.56423,-6.12632],[-38.56561,-6.12961],[-38.56693,-6.13115],[-38.56764,-6.1307],[-38.5668,-6.12798],[-38.56547,-6.1254],[-38.56518,-6.12396],[-38.5664,-6.12286],[-38.56606,-6.12046],[-38.56548,-6.1185],[-38.56514,-6.11549],[-38.56632,-6.11503],[-38.56721,-6.1158],[-38.56846,-6.11751],[-38.57044,-6.12132],[-38.5727,-6.12486],[-38.57477,-6.1273],[-38.57604,-6.12976],[-38.57881,-6.13462],[-38.5798,-6.13659],[-38.58092,-6.13769],[-38.58247,-6.13822],[-38.58407,-6.1395],[-38.58482,-6.14072],[-38.58471,-6.14285],[-38.584,-6.14358],[-38.58297,-6.14379],[-38.5818,-6.14291],[-38.57994,-6.14066],[-38.57758,-6.13912],[-38.57553,-6.13843],[-38.57477,-6.13884],[-38.57495,-6.14009],[-38.57545,-6.14063],[-38.57832,-6.14185],[-38.57946,-6.14334],[-38.57878,-6.14422],[-38.57989,-6.146],[-38.55237,-6.14785],[-38.49201,-6.15084],[-38.4908,-6.15084],[-38.47293,-6.15198],[-38.47207,-6.14973],[-38.47207,-6.14875],[-38.47276,-6.14754],[-38.47533,-6.14659],[-38.47596,-6.14599],[-38.47642,-6.14441],[-38.47463,-6.14332],[-38.47393,-6.14158],[-38.47439,-6.14109],[-38.47342,-6.13836],[-38.47342,-6.136],[-38.47265,-6.13478],[-38.47147,-6.13433],[-38.4705,-6.13286],[-38.46998,-6.1297],[-38.46845,-6.12723],[-38.46598,-6.12144],[-38.46209,-6.11232],[-38.45906,-6.10894],[-38.45767,-6.10802],[-38.45343,-6.10673],[-38.4515,-6.10673],[-38.45116,-6.10365],[-38.4502,-6.10269],[-38.44531,-6.10234],[-38.44206,-6.0993],[-38.44077,-6.09687],[-38.44327,-6.09528],[-38.44357,-6.09377],[-38.44345,-6.09076],[-38.44396,-6.09011],[-38.44578,-6.08954],[-38.44732,-6.08528],[-38.44565,-6.08548],[-38.44351,-6.0847],[-38.43987,-6.08169],[-38.43735,-6.07845],[-38.43466,-6.07886],[-38.43306,-6.07813],[-38.4307,-6.0747],[-38.42812,-6.07354],[-38.42825,-6.07105],[-38.42744,-6.06938],[-38.42597,-6.06856],[-38.42422,-6.06667],[-38.42148,-6.06574],[-38.41984,-6.06358],[-38.41753,-6.06291],[-38.41613,-6.06197],[-38.41319,-6.05832],[-38.41211,-6.05926],[-38.41061,-6.05905],[-38.40986,-6.05811],[-38.40485,-6.05727],[-38.42206,-6.01211],[-38.42106,-6.00988],[-38.41999,-6.00951],[-38.41861,-6.01022],[-38.41737,-6.00962],[-38.41601,-6.00935],[-38.41506,-6.00879],[-38.41499,-6.00678],[-38.41435,-6.00594],[-38.41235,-6.00575],[-38.41117,-6.00532],[-38.40973,-6.00362],[-38.4072,-6.00252],[-38.40566,-6.00126],[-38.40443,-6.0028],[-38.40311,-6.00213],[-38.40248,-6.00049],[-38.40292,-5.99906],[-38.39939,-5.99573],[-38.3987,-5.99495],[-38.39762,-5.99456],[-38.40064,-5.97404],[-38.40532,-5.94224],[-38.41175,-5.8985]]]},"properties":{"codigo":"231080305","name":"Pereiro","population":11604,"households":5601,"areaKm2":358.5705,"density":32.4}},{"type":"Feature","geometry":{"type":"Polygon","coordinates":[[[-38.51971,-6.22304],[-38.52929,-6.21374],[-38.52913,-6.21072],[-38.52784,-6.20811],[-38.52828,-6.20426],[-38.52796,-6.20187],[-38.52588,-6.1994],[-38.52592,-6.19685],[-38.5272,-6.19338],[-38.52192,-6.19226],[-38.51854,-6.19086],[-38.51233,-6.19212],[-38.5089,-6.19157],[-38.50309,-6.19215],[-38.50133,-6.19095],[-38.50184,-6.18804],[-38.50196,-6.18382],[-38.50076,-6.17968],[-38.49743,-6.1764],[-38.49356,-6.17506],[-38.49227,-6.17339],[-38.49071,-6.16959],[-38.48707,-6.16516],[-38.47812,-6.15938],[-38.47549,-6.15704],[-38.47364,-6.1538],[-38.47293,-6.15198],[-38.4908,-6.15084],[-38.49201,-6.15084],[-38.55237,-6.14785],[-38.57989,-6.146],[-38.58092,-6.1488],[-38.58208,-6.15125],[-38.58455,-6.15473],[-38.58492,-6.15586],[-38.58518,-6.15863],[-38.58675,-6.16072],[-38.58847,-6.1643],[-38.5882,-6.16579],[-38.58979,-6.16621],[-38.59203,-6.16851],[-38.59389,-6.16961],[-38.5949,-6.17057],[-38.59654,-6.17088],[-38.59831,-6.17061],[-38.5988,-6.17098],[-38.59926,-6.17296],[-38.59867,-6.17373],[-38.59938,-6.17472],[-38.59959,-6.17573],[-38.60054,-6.17533],[-38.59998,-6.17723],[-38.6004,-6.17801],[-38.60022,-6.18015],[-38.59947,-6.18125],[-38.59965,-6.18338],[-38.60015,-6.18374],[-38.60096,-6.1858],[-38.60034,-6.18668],[-38.59886,-6.18726],[-38.59711,-6.18938],[-38.59615,-6.18965],[-38.59489,-6.18948],[-38.59395,-6.18996],[-38.59284,-6.19502],[-38.59183,-6.1972],[-38.59082,-6.19813],[-38.59018,-6.19802],[-38.58735,-6.20159],[-38.58621,-6.20157],[-38.58458,-6.20248],[-38.58314,-6.2041],[-38.58162,-6.20545],[-38.57936,-6.20664],[-38.57558,-6.20699],[-38.57489,-6.20733],[-38.5733,-6.20696],[-38.57109,-6.20751],[-38.57092,-6.20861],[-38.57179,-6.20973],[-38.57198,-6.21071],[-38.57162,-6.21161],[-38.57054,-6.21228],[-38.57125,-6.2136],[-38.56991,-6.21648],[-38.57058,-6.21695],[-38.56938,-6.21902],[-38.56861,-6.21968],[-38.56786,-6.22188],[-38.56664,-6.22281],[-38.56498,-6.22285],[-38.56438,-6.22382],[-38.56432,-6.22576],[-38.56267,-6.22796],[-38.56242,-6.22883],[-38.56029,-6.2306],[-38.5595,-6.23008],[-38.55756,-6.23119],[-38.55599,-6.23051],[-38.55389,-6.23193],[-38.55387,-6.23319],[-38.55307,-6.23392],[-38.55119,-6.23431],[-38.54712,-6.23223],[-38.54538,-6.23186],[-38.54439,-6.23072],[-38.54271,-6.2298],[-38.54078,-6.22967],[-38.53958,-6.22993],[-38.53776,-6.22968],[-38.5352,-6.22901],[-38.52934,-6.22621],[-38.52724,-6.22548],[-38.52643,-6.22488],[-38.52365,-6.22399],[-38.52258,-6.22435],[-38.51971,-6.22304]]]},"properties":{"codigo":"231080310","name":"Crioulos","population":3670,"households":1761,"areaKm2":77.2979,"density":47.5}}]}