{"type":"FeatureCollection","features":[{"type":"Feature","geometry":{"type":"Polygon","coordinates":[[[-39.24473,-4.08355],[-39.24546,-4.08368],[-39.24965,-4.08801],[-39.25256,-4.09196],[-39.25236,-4.09502],[-39.24686,-4.10188],[-39.24724,-4.10291],[-39.24702,-4.10525],[-39.24633,-4.10494],[-39.24381,-4.10426],[-39.24319,-4.10364],[-39.24243,-4.10241],[-39.24144,-4.10209],[-39.24003,-4.10048],[-39.2399,-4.0998],[-39.24041,-4.09967],[-39.24041,-4.09523],[-39.23979,-4.09523],[-39.23979,-4.09471],[-39.23917,-4.09471],[-39.23916,-4.09421],[-39.24091,-4.0907],[-39.24201,-4.08596],[-39.24272,-4.0857],[-39.24395,-4.08447],[-39.24473,-4.08355]]]},"properties":{"codigo":"2310407005","name":"Bela Vista","population":2281,"households":1008,"areaKm2":2.1519,"density":1060}},{"type":"Feature","geometry":{"type":"Polygon","coordinates":[[[-39.24702,-4.10525],[-39.24682,-4.11071],[-39.24611,-4.10924],[-39.24499,-4.10633],[-39.24394,-4.10508],[-39.24214,-4.10495],[-39.23798,-4.10448],[-39.23338,-4.10154],[-39.23339,-4.10149],[-39.23853,-4.10015],[-39.2399,-4.0998],[-39.24003,-4.10048],[-39.24144,-4.10209],[-39.24243,-4.10241],[-39.24319,-4.10364],[-39.24381,-4.10426],[-39.24633,-4.10494],[-39.24702,-4.10525]]]},"properties":{"codigo":"2310407004","name":"Esplanada do Conjunto","population":803,"households":354,"areaKm2":0.4637,"density":1731.8}},{"type":"Feature","geometry":{"type":"Polygon","coordinates":[[[-39.23917,-4.09471],[-39.23917,-4.09526],[-39.23853,-4.09526],[-39.23853,-4.10015],[-39.23339,-4.10149],[-39.23353,-4.10016],[-39.23383,-4.09862],[-39.23431,-4.0969],[-39.23524,-4.0957],[-39.23676,-4.0943],[-39.23746,-4.09291],[-39.23846,-4.08969],[-39.23851,-4.08808],[-39.23775,-4.08638],[-39.23632,-4.08529],[-39.23454,-4.08451],[-39.23233,-4.0847],[-39.23134,-4.08422],[-39.24473,-4.08355],[-39.24395,-4.08447],[-39.24272,-4.0857],[-39.24201,-4.08596],[-39.24091,-4.0907],[-39.23916,-4.09421],[-39.23917,-4.09471]]]},"properties":{"codigo":"2310407002","name":"Vicente Farias","population":885,"households":420,"areaKm2":0.8561,"density":1033.8}},{"type":"Feature","geometry":{"type":"Polygon","coordinates":[[[-39.2399,-4.0998],[-39.23853,-4.10015],[-39.23853,-4.09526],[-39.23917,-4.09526],[-39.23917,-4.09471],[-39.23979,-4.09471],[-39.23979,-4.09523],[-39.24041,-4.09523],[-39.24041,-4.09967],[-39.2399,-4.0998]]]},"properties":{"codigo":"2310407001","name":"Centro","population":511,"households":252,"areaKm2":0.1117,"density":4576.5}},{"type":"Feature","geometry":{"type":"Polygon","coordinates":[[[-39.23338,-4.10154],[-39.2333,-4.10439],[-39.23353,-4.10557],[-39.23131,-4.10786],[-39.23036,-4.10713],[-39.22883,-4.10646],[-39.22792,-4.10642],[-39.22676,-4.10594],[-39.22557,-4.10517],[-39.2297,-4.09412],[-39.23353,-4.09519],[-39.23383,-4.09862],[-39.23353,-4.10016],[-39.23339,-4.10149],[-39.23338,-4.10154]]]},"properties":{"codigo":"2310407003","name":"Arrudas","population":1476,"households":659,"areaKm2":0.9074,"density":1626.6}}]}