{"type":"FeatureCollection","features":[{"type":"Feature","geometry":{"type":"Polygon","coordinates":[[[-40.2067,-3.45935],[-40.20633,-3.45956],[-40.20578,-3.46046],[-40.20532,-3.46049],[-40.20473,-3.46099],[-40.20409,-3.46026],[-40.20366,-3.4588],[-40.20424,-3.4587],[-40.20548,-3.45765],[-40.2067,-3.45935]]]},"properties":{"codigo":"2312007004","name":"Jericó","population":1121,"households":458,"areaKm2":0.0678,"density":16531.9}},{"type":"Feature","geometry":{"type":"Polygon","coordinates":[[[-40.21253,-3.45572],[-40.21329,-3.45612],[-40.21389,-3.45756],[-40.21374,-3.45823],[-40.21414,-3.45875],[-40.21411,-3.45929],[-40.21438,-3.46031],[-40.21318,-3.46139],[-40.21245,-3.46061],[-40.2104,-3.46246],[-40.20988,-3.46246],[-40.20895,-3.46136],[-40.20788,-3.46051],[-40.20923,-3.45872],[-40.21129,-3.4562],[-40.21253,-3.45572]]]},"properties":{"codigo":"2312007001","name":"Centro","population":1612,"households":700,"areaKm2":0.3052,"density":5281.6}},{"type":"Feature","geometry":{"type":"Polygon","coordinates":[[[-40.20548,-3.45765],[-40.20455,-3.45664],[-40.20384,-3.45573],[-40.20317,-3.45312],[-40.20299,-3.45209],[-40.20355,-3.44969],[-40.20347,-3.44914],[-40.20241,-3.44708],[-40.21353,-3.4437],[-40.21418,-3.44344],[-40.21566,-3.44444],[-40.21671,-3.44426],[-40.21793,-3.44464],[-40.21875,-3.44469],[-40.21937,-3.44551],[-40.21945,-3.44602],[-40.21904,-3.44643],[-40.21784,-3.44647],[-40.21757,-3.44808],[-40.21541,-3.45027],[-40.21427,-3.45143],[-40.21402,-3.4518],[-40.21355,-3.45399],[-40.21343,-3.45511],[-40.21253,-3.45572],[-40.21129,-3.4562],[-40.20923,-3.45872],[-40.20788,-3.46051],[-40.20712,-3.45989],[-40.2067,-3.45935],[-40.20548,-3.45765]]]},"properties":{"codigo":"2312007002","name":"Alto da Liberdade","population":1656,"households":634,"areaKm2":1.9001,"density":871.5}},{"type":"Feature","geometry":{"type":"Polygon","coordinates":[[[-40.20473,-3.46099],[-40.20413,-3.46149],[-40.20373,-3.46242],[-40.20277,-3.46294],[-40.20084,-3.46449],[-40.19948,-3.46512],[-40.19883,-3.4656],[-40.19761,-3.46544],[-40.19559,-3.46497],[-40.19427,-3.46476],[-40.19307,-3.4648],[-40.1927,-3.46391],[-40.19437,-3.46242],[-40.19377,-3.46072],[-40.19681,-3.46007],[-40.20031,-3.45942],[-40.20012,-3.45864],[-40.19734,-3.45159],[-40.20231,-3.44711],[-40.20241,-3.44708],[-40.20347,-3.44914],[-40.20355,-3.44969],[-40.20299,-3.45209],[-40.20317,-3.45312],[-40.20384,-3.45573],[-40.20455,-3.45664],[-40.20548,-3.45765],[-40.20424,-3.4587],[-40.20366,-3.4588],[-40.20409,-3.46026],[-40.20473,-3.46099]]]},"properties":{"codigo":"2312007003","name":"Pedregal","population":2540,"households":1017,"areaKm2":1.2714,"density":1997.8}},{"type":"Feature","geometry":{"type":"Polygon","coordinates":[[[-40.21253,-3.45572],[-40.21343,-3.45511],[-40.21355,-3.45399],[-40.21402,-3.4518],[-40.21427,-3.45143],[-40.21541,-3.45027],[-40.21597,-3.45154],[-40.21614,-3.45146],[-40.21699,-3.45304],[-40.21471,-3.45393],[-40.21628,-3.45621],[-40.21742,-3.45687],[-40.21757,-3.45732],[-40.21852,-3.45838],[-40.21869,-3.45881],[-40.2181,-3.4602],[-40.21801,-3.46152],[-40.21821,-3.46367],[-40.21812,-3.4648],[-40.21679,-3.46575],[-40.2165,-3.46614],[-40.21411,-3.46731],[-40.21382,-3.46774],[-40.21394,-3.4688],[-40.21329,-3.46888],[-40.21341,-3.47005],[-40.21411,-3.47034],[-40.21473,-3.47202],[-40.21398,-3.47266],[-40.21264,-3.47305],[-40.21296,-3.47422],[-40.21371,-3.47533],[-40.21471,-3.47709],[-40.21572,-3.4784],[-40.20866,-3.47695],[-40.19948,-3.47162],[-40.20057,-3.471],[-40.20122,-3.47018],[-40.20148,-3.46957],[-40.20199,-3.46935],[-40.2029,-3.46861],[-40.20308,-3.46765],[-40.20439,-3.46587],[-40.20581,-3.46447],[-40.20757,-3.46307],[-40.2092,-3.46385],[-40.21006,-3.46273],[-40.20988,-3.46246],[-40.2104,-3.46246],[-40.21245,-3.46061],[-40.21318,-3.46139],[-40.21438,-3.46031],[-40.21411,-3.45929],[-40.21414,-3.45875],[-40.21374,-3.45823],[-40.21389,-3.45756],[-40.21329,-3.45612],[-40.21253,-3.45572]]]},"properties":{"codigo":"2312007007","name":"João Alfredo","population":2380,"households":927,"areaKm2":2.5057,"density":949.8}},{"type":"Feature","geometry":{"type":"Polygon","coordinates":[[[-40.2067,-3.45935],[-40.20712,-3.45989],[-40.20788,-3.46051],[-40.20703,-3.46171],[-40.20694,-3.46207],[-40.20757,-3.46307],[-40.20581,-3.46447],[-40.20439,-3.46587],[-40.20308,-3.46765],[-40.2029,-3.46861],[-40.20199,-3.46935],[-40.20148,-3.46957],[-40.20122,-3.47018],[-40.20057,-3.471],[-40.19948,-3.47162],[-40.1866,-3.46158],[-40.18783,-3.46176],[-40.19049,-3.46326],[-40.19114,-3.4633],[-40.1927,-3.46391],[-40.19307,-3.4648],[-40.19427,-3.46476],[-40.19559,-3.46497],[-40.19761,-3.46544],[-40.19883,-3.4656],[-40.19948,-3.46512],[-40.20084,-3.46449],[-40.20277,-3.46294],[-40.20373,-3.46242],[-40.20413,-3.46149],[-40.20473,-3.46099],[-40.20532,-3.46049],[-40.20578,-3.46046],[-40.20633,-3.45956],[-40.2067,-3.45935]]]},"properties":{"codigo":"2312007005","name":"Gerardo Arcanjo","population":1819,"households":696,"areaKm2":0.9135,"density":1991.2}},{"type":"Feature","geometry":{"type":"Polygon","coordinates":[[[-40.20988,-3.46246],[-40.21006,-3.46273],[-40.2092,-3.46385],[-40.20757,-3.46307],[-40.20694,-3.46207],[-40.20703,-3.46171],[-40.20788,-3.46051],[-40.20895,-3.46136],[-40.20988,-3.46246]]]},"properties":{"codigo":"2312007006","name":"Retiro","population":878,"households":322,"areaKm2":0.0691,"density":12707.8}}]}