{"type":"FeatureCollection","features":[{"type":"Feature","geometry":{"type":"Polygon","coordinates":[[[-40.55629,-3.31973],[-40.5525,-3.32017],[-40.55171,-3.32072],[-40.55142,-3.32038],[-40.55129,-3.3195],[-40.55069,-3.31837],[-40.55083,-3.31712],[-40.55006,-3.31581],[-40.55069,-3.31528],[-40.55162,-3.31351],[-40.55204,-3.31317],[-40.55539,-3.31427],[-40.55665,-3.31495],[-40.55848,-3.31607],[-40.55935,-3.31642],[-40.55919,-3.31746],[-40.55661,-3.31849],[-40.55647,-3.31875],[-40.55701,-3.31951],[-40.55629,-3.31973]]]},"properties":{"codigo":"2313906004","name":"Nossa Senhora do Livramento","population":181,"households":71,"areaKm2":0.515,"density":351.4}},{"type":"Feature","geometry":{"type":"Polygon","coordinates":[[[-40.55935,-3.31642],[-40.56,-3.31643],[-40.56274,-3.31651],[-40.56406,-3.31669],[-40.56551,-3.31717],[-40.56726,-3.31787],[-40.56521,-3.31894],[-40.55959,-3.32105],[-40.5578,-3.32094],[-40.55736,-3.32021],[-40.55674,-3.31971],[-40.55629,-3.31973],[-40.55701,-3.31951],[-40.55647,-3.31875],[-40.55661,-3.31849],[-40.55919,-3.31746],[-40.55935,-3.31642]]]},"properties":{"codigo":"2313906005","name":"26 de Março","population":364,"households":149,"areaKm2":0.3642,"density":999.5}},{"type":"Feature","geometry":{"type":"Polygon","coordinates":[[[-40.56,-3.31643],[-40.56009,-3.31558],[-40.56127,-3.31606],[-40.56141,-3.3148],[-40.56231,-3.31497],[-40.56244,-3.3142],[-40.56632,-3.31466],[-40.56688,-3.31544],[-40.56726,-3.31787],[-40.56551,-3.31717],[-40.56406,-3.31669],[-40.56274,-3.31651],[-40.56,-3.31643]]]},"properties":{"codigo":"2313906006","name":"Alecrim","population":443,"households":191,"areaKm2":0.1699,"density":2606.7}},{"type":"Feature","geometry":{"type":"Polygon","coordinates":[[[-40.55204,-3.31317],[-40.55371,-3.30901],[-40.5564,-3.3054],[-40.56033,-3.30873],[-40.55861,-3.31312],[-40.55802,-3.31278],[-40.5574,-3.3142],[-40.55707,-3.3141],[-40.55665,-3.31495],[-40.55539,-3.31427],[-40.55204,-3.31317]]]},"properties":{"codigo":"2313906003","name":"Roberto Dourado","population":1614,"households":676,"areaKm2":0.5448,"density":2962.4}},{"type":"Feature","geometry":{"type":"Polygon","coordinates":[[[-40.56141,-3.3148],[-40.56029,-3.31458],[-40.56049,-3.31365],[-40.55969,-3.31339],[-40.55955,-3.31368],[-40.55861,-3.31312],[-40.56033,-3.30873],[-40.56159,-3.30979],[-40.56365,-3.31061],[-40.56632,-3.31466],[-40.56244,-3.3142],[-40.56231,-3.31497],[-40.56141,-3.3148]]]},"properties":{"codigo":"2313906002","name":"Brasília","population":1733,"households":696,"areaKm2":0.3074,"density":5637.9}},{"type":"Feature","geometry":{"type":"Polygon","coordinates":[[[-40.55665,-3.31495],[-40.55707,-3.3141],[-40.5574,-3.3142],[-40.55802,-3.31278],[-40.55861,-3.31312],[-40.55955,-3.31368],[-40.55969,-3.31339],[-40.56049,-3.31365],[-40.56029,-3.31458],[-40.56141,-3.3148],[-40.56127,-3.31606],[-40.56009,-3.31558],[-40.56,-3.31643],[-40.55935,-3.31642],[-40.55848,-3.31607],[-40.55665,-3.31495]]]},"properties":{"codigo":"2313906001","name":"Centro","population":589,"households":301,"areaKm2":0.1197,"density":4922.2}}]}