{"type":"FeatureCollection","features":[{"type":"Feature","geometry":{"type":"Polygon","coordinates":[[[-40.89154,-3.86806],[-40.88899,-3.85863],[-40.88764,-3.85447],[-40.88763,-3.85061],[-40.88859,-3.84875],[-40.88989,-3.84573],[-40.89211,-3.84289],[-40.89319,-3.84314],[-40.89674,-3.84327],[-40.89656,-3.84427],[-40.89742,-3.84486],[-40.89907,-3.84433],[-40.90157,-3.84394],[-40.90374,-3.84285],[-40.9051,-3.84161],[-40.90538,-3.84025],[-40.90591,-3.83524],[-40.90571,-3.82959],[-40.90537,-3.82417],[-40.90343,-3.81353],[-40.90185,-3.8069],[-40.90057,-3.80299],[-40.89975,-3.79949],[-40.89695,-3.78968],[-40.8953,-3.78098],[-40.89734,-3.77968],[-40.89912,-3.77804],[-40.90148,-3.77821],[-40.90239,-3.779],[-40.90344,-3.78041],[-40.9045,-3.784],[-40.90551,-3.78536],[-40.90782,-3.78713],[-40.91061,-3.78845],[-40.91218,-3.78795],[-40.91384,-3.7882],[-40.9146,-3.78789],[-40.91656,-3.78811],[-40.91851,-3.78719],[-40.92063,-3.78665],[-40.9233,-3.78794],[-40.9247,-3.78919],[-40.92773,-3.79075],[-40.92804,-3.79134],[-40.92955,-3.79238],[-40.93017,-3.79353],[-40.93171,-3.79486],[-40.93204,-3.79561],[-40.93415,-3.7983],[-40.93548,-3.79812],[-40.93624,-3.79837],[-40.93881,-3.80006],[-40.94013,-3.80041],[-40.94147,-3.8004],[-40.94256,-3.80135],[-40.94396,-3.80099],[-40.94506,-3.80196],[-40.94642,-3.80219],[-40.94702,-3.80323],[-40.94869,-3.80327],[-40.94967,-3.80425],[-40.951,-3.80404],[-40.95297,-3.80484],[-40.95427,-3.80653],[-40.95509,-3.80633],[-40.9559,-3.80674],[-40.95637,-3.8088],[-40.95812,-3.81004],[-40.9582,-3.81087],[-40.9598,-3.81156],[-40.96023,-3.81267],[-40.95991,-3.81393],[-40.96036,-3.8145],[-40.96164,-3.81491],[-40.9616,-3.81587],[-40.96206,-3.82094],[-40.96144,-3.82359],[-40.9627,-3.82486],[-40.96286,-3.82663],[-40.96574,-3.82886],[-40.96685,-3.83044],[-40.96668,-3.83097],[-40.96725,-3.83259],[-40.96784,-3.83307],[-40.96782,-3.83457],[-40.96702,-3.83748],[-40.96738,-3.83911],[-40.96796,-3.83887],[-40.96971,-3.83985],[-40.97106,-3.84009],[-40.96954,-3.84197],[-40.96912,-3.84173],[-40.96781,-3.8422],[-40.967,-3.84302],[-40.96577,-3.84514],[-40.96418,-3.84616],[-40.96073,-3.84751],[-40.95839,-3.84819],[-40.955,-3.85047],[-40.95411,-3.85202],[-40.95151,-3.8528],[-40.9495,-3.85287],[-40.94827,-3.85232],[-40.94694,-3.85235],[-40.94537,-3.85332],[-40.94622,-3.85626],[-40.94777,-3.85961],[-40.94826,-3.86384],[-40.94807,-3.86841],[-40.94745,-3.87149],[-40.94606,-3.87388],[-40.94237,-3.87851],[-40.94519,-3.88022],[-40.94478,-3.88101],[-40.94653,-3.88777],[-40.94889,-3.89742],[-40.95122,-3.89882],[-40.95455,-3.90127],[-40.95393,-3.90203],[-40.95115,-3.90315],[-40.94946,-3.90354],[-40.94783,-3.90479],[-40.94635,-3.90431],[-40.94452,-3.90577],[-40.94361,-3.90607],[-40.94217,-3.90723],[-40.94135,-3.90556],[-40.94046,-3.90466],[-40.93804,-3.90522],[-40.93615,-3.90646],[-40.93362,-3.90626],[-40.93239,-3.9076],[-40.93185,-3.90682],[-40.93083,-3.90352],[-40.92949,-3.90236],[-40.9261,-3.89981],[-40.9255,-3.89845],[-40.92577,-3.89803],[-40.92389,-3.89489],[-40.92105,-3.89148],[-40.91808,-3.88912],[-40.89433,-3.88821],[-40.89604,-3.88243],[-40.89619,-3.87775],[-40.89455,-3.87572],[-40.89358,-3.87385],[-40.8932,-3.87023],[-40.89154,-3.86806]]]},"properties":{"codigo":"231360905","name":"Ubajara","population":20716,"households":8301,"areaKm2":73.2842,"density":282.7}},{"type":"Feature","geometry":{"type":"Polygon","coordinates":[[[-40.77964,-3.78625],[-40.8182,-3.78772],[-40.84392,-3.7887],[-40.84569,-3.78872],[-40.84734,-3.78802],[-40.84841,-3.7879],[-40.85056,-3.78662],[-40.85393,-3.78532],[-40.85547,-3.78556],[-40.85926,-3.78562],[-40.86139,-3.78608],[-40.86272,-3.78541],[-40.86519,-3.78516],[-40.86796,-3.78382],[-40.87011,-3.78344],[-40.87228,-3.78361],[-40.87306,-3.78428],[-40.87423,-3.78433],[-40.87666,-3.78398],[-40.87858,-3.78417],[-40.88117,-3.78324],[-40.88315,-3.78406],[-40.88549,-3.78312],[-40.88692,-3.78338],[-40.88796,-3.78302],[-40.892,-3.78069],[-40.89383,-3.78064],[-40.8953,-3.78098],[-40.89695,-3.78968],[-40.89975,-3.79949],[-40.90057,-3.80299],[-40.90185,-3.8069],[-40.90343,-3.81353],[-40.90537,-3.82417],[-40.90571,-3.82959],[-40.90591,-3.83524],[-40.90538,-3.84025],[-40.9051,-3.84161],[-40.90374,-3.84285],[-40.90157,-3.84394],[-40.89907,-3.84433],[-40.89742,-3.84486],[-40.89656,-3.84427],[-40.89674,-3.84327],[-40.89319,-3.84314],[-40.89211,-3.84289],[-40.88989,-3.84573],[-40.88859,-3.84875],[-40.88763,-3.85061],[-40.88764,-3.85447],[-40.88899,-3.85863],[-40.89154,-3.86806],[-40.88948,-3.86856],[-40.88784,-3.86852],[-40.88632,-3.86783],[-40.88462,-3.86664],[-40.88345,-3.86661],[-40.88157,-3.86536],[-40.87941,-3.86523],[-40.87663,-3.86552],[-40.87574,-3.86582],[-40.87274,-3.86811],[-40.87257,-3.86875],[-40.87189,-3.87042],[-40.87077,-3.87051],[-40.86769,-3.8701],[-40.86575,-3.86943],[-40.86478,-3.86822],[-40.86358,-3.86848],[-40.86239,-3.86795],[-40.8606,-3.86803],[-40.85901,-3.86771],[-40.85779,-3.86709],[-40.8566,-3.86744],[-40.85584,-3.86689],[-40.85371,-3.86685],[-40.8525,-3.86563],[-40.85165,-3.86553],[-40.85133,-3.8646],[-40.8488,-3.86433],[-40.84726,-3.86321],[-40.84504,-3.86379],[-40.84348,-3.86496],[-40.84237,-3.86513],[-40.84205,-3.86664],[-40.84103,-3.86759],[-40.84021,-3.86766],[-40.83952,-3.86869],[-40.83602,-3.86861],[-40.83585,-3.86804],[-40.8344,-3.86839],[-40.83347,-3.86756],[-40.83166,-3.86721],[-40.83005,-3.86553],[-40.82935,-3.86644],[-40.82699,-3.86834],[-40.82585,-3.86857],[-40.82409,-3.86662],[-40.82324,-3.86647],[-40.82264,-3.86447],[-40.8208,-3.86217],[-40.82001,-3.86175],[-40.82025,-3.86078],[-40.81954,-3.8594],[-40.81864,-3.8593],[-40.8181,-3.85998],[-40.81617,-3.86026],[-40.81601,-3.8592],[-40.81526,-3.85766],[-40.8152,-3.85672],[-40.81427,-3.85649],[-40.8138,-3.85543],[-40.8143,-3.85359],[-40.81571,-3.85307],[-40.81516,-3.85224],[-40.81386,-3.85136],[-40.81313,-3.85121],[-40.80994,-3.84948],[-40.80955,-3.84746],[-40.80785,-3.84588],[-40.80646,-3.84543],[-40.80436,-3.84526],[-40.80347,-3.84561],[-40.80292,-3.84644],[-40.80054,-3.84687],[-40.79786,-3.84694],[-40.7972,-3.84539],[-40.79563,-3.84443],[-40.79518,-3.84382],[-40.79567,-3.84287],[-40.79668,-3.84314],[-40.79772,-3.842],[-40.79784,-3.84086],[-40.79691,-3.84018],[-40.79476,-3.84058],[-40.79307,-3.84017],[-40.79281,-3.839],[-40.79393,-3.838],[-40.79451,-3.83664],[-40.79338,-3.8367],[-40.79265,-3.83748],[-40.78969,-3.83722],[-40.78955,-3.83621],[-40.79141,-3.83382],[-40.79383,-3.83165],[-40.79355,-3.83111],[-40.79198,-3.82998],[-40.79192,-3.82904],[-40.79075,-3.82635],[-40.79238,-3.82423],[-40.79194,-3.82261],[-40.79102,-3.82277],[-40.78877,-3.82241],[-40.78783,-3.822],[-40.78741,-3.82082],[-40.7865,-3.82001],[-40.78455,-3.82259],[-40.7826,-3.82168],[-40.7833,-3.81869],[-40.78218,-3.81805],[-40.78197,-3.81677],[-40.78081,-3.81456],[-40.77945,-3.81306],[-40.77929,-3.81241],[-40.78009,-3.81171],[-40.77955,-3.81098],[-40.7777,-3.81003],[-40.77744,-3.80901],[-40.77797,-3.80835],[-40.77889,-3.80545],[-40.77723,-3.80501],[-40.7766,-3.80416],[-40.77629,-3.80019],[-40.77736,-3.79894],[-40.77712,-3.79838],[-40.77578,-3.79844],[-40.77587,-3.79732],[-40.77547,-3.79628],[-40.77596,-3.79522],[-40.77664,-3.795],[-40.77891,-3.79513],[-40.78051,-3.79422],[-40.78054,-3.79207],[-40.78017,-3.79108],[-40.78146,-3.7885],[-40.77961,-3.78695],[-40.77964,-3.78625]]]},"properties":{"codigo":"231360910","name":"Araticum","population":3827,"households":2161,"areaKm2":105.1802,"density":36.4}},{"type":"Feature","geometry":{"type":"Polygon","coordinates":[[[-41.22893,-3.9681],[-41.22813,-3.96842],[-41.2268,-3.96784],[-41.22454,-3.96872],[-41.22349,-3.9685],[-41.22182,-3.96895],[-41.21821,-3.97241],[-41.21565,-3.97323],[-41.21185,-3.97241],[-41.20421,-3.96808],[-41.1999,-3.96428],[-41.1953,-3.96193],[-41.18943,-3.95975],[-41.18386,-3.95534],[-41.18137,-3.95456],[-41.1775,-3.95282],[-41.16812,-3.94554],[-41.16352,-3.94372],[-41.16001,-3.94396],[-41.15694,-3.94513],[-41.15329,-3.94705],[-41.15073,-3.94715],[-41.14351,-3.94259],[-41.13364,-3.94204],[-41.13057,-3.94026],[-41.12569,-3.9341],[-41.12468,-3.93037],[-41.12225,-3.92822],[-41.11939,-3.92766],[-41.11532,-3.92939],[-41.11375,-3.93169],[-41.10819,-3.93188],[-41.10173,-3.93008],[-41.06792,-3.9199],[-40.97833,-3.89292],[-40.9771,-3.89252],[-40.9757,-3.89289],[-40.97312,-3.89199],[-40.97186,-3.89282],[-40.97148,-3.89373],[-40.9704,-3.89425],[-40.96931,-3.89357],[-40.967,-3.89336],[-40.96625,-3.89295],[-40.96502,-3.89315],[-40.96474,-3.89394],[-40.9635,-3.89465],[-40.96297,-3.89637],[-40.96183,-3.89659],[-40.96149,-3.89786],[-40.95941,-3.89773],[-40.95861,-3.89924],[-40.95681,-3.90052],[-40.95455,-3.90127],[-40.95122,-3.89882],[-40.94889,-3.89742],[-40.94653,-3.88777],[-40.94478,-3.88101],[-40.94519,-3.88022],[-40.94237,-3.87851],[-40.94606,-3.87388],[-40.9638,-3.87111],[-40.98016,-3.8677],[-41.00013,-3.86442],[-41.01725,-3.86138],[-41.03539,-3.85775],[-41.05322,-3.85283],[-41.07131,-3.85155],[-41.07517,-3.85038],[-41.07569,-3.85121],[-41.07532,-3.85279],[-41.07282,-3.8526],[-41.07145,-3.85386],[-41.07186,-3.85533],[-41.06936,-3.85737],[-41.06868,-3.85753],[-41.06769,-3.85704],[-41.06754,-3.85865],[-41.06672,-3.85934],[-41.06606,-3.85907],[-41.06505,-3.86012],[-41.06412,-3.85974],[-41.06317,-3.85999],[-41.06354,-3.861],[-41.06326,-3.86178],[-41.06203,-3.86226],[-41.06169,-3.86363],[-41.06069,-3.86448],[-41.06022,-3.86602],[-41.05887,-3.86651],[-41.05879,-3.86775],[-41.05958,-3.86804],[-41.06137,-3.86745],[-41.06289,-3.86503],[-41.06424,-3.86389],[-41.06531,-3.86389],[-41.06657,-3.86274],[-41.06797,-3.86226],[-41.0703,-3.86305],[-41.07152,-3.86256],[-41.07335,-3.86105],[-41.0756,-3.86133],[-41.07613,-3.86013],[-41.07703,-3.8596],[-41.07811,-3.86024],[-41.07889,-3.85949],[-41.07875,-3.85835],[-41.07912,-3.85745],[-41.08103,-3.85719],[-41.08243,-3.8583],[-41.08318,-3.85696],[-41.08445,-3.85612],[-41.08543,-3.855],[-41.08619,-3.8557],[-41.08748,-3.85463],[-41.08734,-3.85328],[-41.0864,-3.85279],[-41.08788,-3.85128],[-41.08886,-3.85114],[-41.08956,-3.8505],[-41.08882,-3.84957],[-41.08865,-3.84859],[-41.09005,-3.84743],[-41.09129,-3.84745],[-41.09173,-3.84877],[-41.09307,-3.8476],[-41.09382,-3.84785],[-41.09511,-3.84755],[-41.09563,-3.84813],[-41.09771,-3.84714],[-41.09891,-3.84736],[-41.101,-3.84702],[-41.10805,-3.84513],[-41.10963,-3.8448],[-41.11249,-3.84526],[-41.11529,-3.84474],[-41.12723,-3.84364],[-41.12827,-3.84365],[-41.13086,-3.84417],[-41.13189,-3.8441],[-41.13337,-3.8454],[-41.13977,-3.85192],[-41.15177,-3.86427],[-41.15469,-3.86687],[-41.16002,-3.87137],[-41.16191,-3.87283],[-41.16438,-3.87353],[-41.17688,-3.87524],[-41.17832,-3.87592],[-41.179,-3.87705],[-41.18156,-3.8876],[-41.18246,-3.89099],[-41.18344,-3.89204],[-41.18526,-3.89235],[-41.18645,-3.89202],[-41.18929,-3.89017],[-41.18999,-3.88994],[-41.1913,-3.89121],[-41.19139,-3.89197],[-41.19322,-3.89323],[-41.19459,-3.89545],[-41.19624,-3.89543],[-41.19877,-3.8958],[-41.2,-3.89683],[-41.2049,-3.89929],[-41.20753,-3.8997],[-41.20879,-3.89926],[-41.21099,-3.89975],[-41.21659,-3.89925],[-41.21925,-3.90017],[-41.22399,-3.89876],[-41.23522,-3.89596],[-41.23876,-3.89466],[-41.24053,-3.89472],[-41.24203,-3.89553],[-41.24511,-3.89545],[-41.24567,-3.89643],[-41.24533,-3.89832],[-41.24173,-3.90052],[-41.23904,-3.90348],[-41.23564,-3.90595],[-41.23335,-3.91026],[-41.23265,-3.91081],[-41.23001,-3.91091],[-41.22891,-3.91173],[-41.22024,-3.94151],[-41.22893,-3.9681]]]},"properties":{"codigo":"231360915","name":"Jaburuna","population":5461,"households":1960,"areaKm2":210.9014,"density":25.9}},{"type":"Feature","geometry":{"type":"Polygon","coordinates":[[[-41.08626,-3.83872],[-41.08815,-3.8391],[-41.09052,-3.8412],[-41.09491,-3.84294],[-41.09908,-3.84413],[-41.10248,-3.8444],[-41.10963,-3.8448],[-41.10805,-3.84513],[-41.101,-3.84702],[-41.09891,-3.84736],[-41.09771,-3.84714],[-41.09563,-3.84813],[-41.09511,-3.84755],[-41.09382,-3.84785],[-41.09307,-3.8476],[-41.09173,-3.84877],[-41.09129,-3.84745],[-41.09005,-3.84743],[-41.08865,-3.84859],[-41.08882,-3.84957],[-41.08956,-3.8505],[-41.08886,-3.85114],[-41.08788,-3.85128],[-41.0864,-3.85279],[-41.08734,-3.85328],[-41.08748,-3.85463],[-41.08619,-3.8557],[-41.08543,-3.855],[-41.08445,-3.85612],[-41.08318,-3.85696],[-41.08243,-3.8583],[-41.08103,-3.85719],[-41.07912,-3.85745],[-41.07875,-3.85835],[-41.07889,-3.85949],[-41.07811,-3.86024],[-41.07703,-3.8596],[-41.07613,-3.86013],[-41.0756,-3.86133],[-41.07335,-3.86105],[-41.07152,-3.86256],[-41.0703,-3.86305],[-41.06797,-3.86226],[-41.06657,-3.86274],[-41.06531,-3.86389],[-41.06424,-3.86389],[-41.06289,-3.86503],[-41.06137,-3.86745],[-41.05958,-3.86804],[-41.05879,-3.86775],[-41.05887,-3.86651],[-41.06022,-3.86602],[-41.06069,-3.86448],[-41.06169,-3.86363],[-41.06203,-3.86226],[-41.06326,-3.86178],[-41.06354,-3.861],[-41.06317,-3.85999],[-41.06412,-3.85974],[-41.06505,-3.86012],[-41.06606,-3.85907],[-41.06672,-3.85934],[-41.06754,-3.85865],[-41.06769,-3.85704],[-41.06868,-3.85753],[-41.06936,-3.85737],[-41.07186,-3.85533],[-41.07145,-3.85386],[-41.07282,-3.8526],[-41.07532,-3.85279],[-41.07569,-3.85121],[-41.07517,-3.85038],[-41.07131,-3.85155],[-41.05322,-3.85283],[-41.03539,-3.85775],[-41.01725,-3.86138],[-41.00013,-3.86442],[-40.98016,-3.8677],[-40.9638,-3.87111],[-40.94606,-3.87388],[-40.94745,-3.87149],[-40.94807,-3.86841],[-40.94826,-3.86384],[-40.94777,-3.85961],[-40.94622,-3.85626],[-40.94537,-3.85332],[-40.94694,-3.85235],[-40.94827,-3.85232],[-40.9495,-3.85287],[-40.95151,-3.8528],[-40.95411,-3.85202],[-40.955,-3.85047],[-40.95839,-3.84819],[-40.96073,-3.84751],[-40.96418,-3.84616],[-40.96577,-3.84514],[-40.967,-3.84302],[-40.96781,-3.8422],[-40.96912,-3.84173],[-40.96954,-3.84197],[-40.97106,-3.84009],[-40.97211,-3.8404],[-40.97314,-3.84193],[-40.97404,-3.84205],[-40.97487,-3.84123],[-40.97662,-3.84046],[-40.9802,-3.83941],[-40.9811,-3.83865],[-40.98344,-3.83925],[-40.98426,-3.83897],[-40.98611,-3.83959],[-40.98887,-3.84092],[-40.9925,-3.84103],[-40.99435,-3.84123],[-40.99749,-3.84063],[-40.99998,-3.84038],[-41.00215,-3.84071],[-41.00379,-3.84074],[-41.00659,-3.83997],[-41.00872,-3.84084],[-41.0089,-3.84155],[-41.01066,-3.84246],[-41.01158,-3.84325],[-41.01287,-3.84327],[-41.01405,-3.84407],[-41.01463,-3.84365],[-41.01474,-3.84205],[-41.01562,-3.84179],[-41.01578,-3.84289],[-41.01647,-3.84366],[-41.01804,-3.84363],[-41.01884,-3.84459],[-41.02173,-3.84405],[-41.02484,-3.84561],[-41.026,-3.84542],[-41.02715,-3.8463],[-41.02798,-3.84647],[-41.02972,-3.84607],[-41.03117,-3.84649],[-41.03179,-3.84785],[-41.033,-3.84852],[-41.03447,-3.84851],[-41.03477,-3.84945],[-41.03584,-3.84949],[-41.03765,-3.84861],[-41.04011,-3.84638],[-41.04093,-3.84735],[-41.0415,-3.84724],[-41.04292,-3.84595],[-41.04636,-3.84418],[-41.04682,-3.84365],[-41.04801,-3.84372],[-41.04958,-3.84233],[-41.05072,-3.84195],[-41.05158,-3.84231],[-41.05308,-3.8416],[-41.05468,-3.83996],[-41.0555,-3.84018],[-41.05815,-3.8398],[-41.06616,-3.84112],[-41.07576,-3.838],[-41.08417,-3.83829],[-41.08626,-3.83872]]]},"properties":{"codigo":"231360925","name":"Nova Veneza","population":2763,"households":1002,"areaKm2":34.3077,"density":80.5}}]}