{"type":"FeatureCollection","features":[{"type":"Feature","geometry":{"type":"Polygon","coordinates":[[[-37.34049,-6.37243],[-37.34155,-6.37514],[-37.34246,-6.37635],[-37.34352,-6.37815],[-37.34372,-6.37857],[-37.34115,-6.37956],[-37.3403,-6.38046],[-37.33883,-6.38083],[-37.33848,-6.38012],[-37.3367,-6.37873],[-37.33505,-6.37801],[-37.33217,-6.3763],[-37.33119,-6.37511],[-37.33898,-6.3729],[-37.34049,-6.37243]]]},"properties":{"codigo":"2405603009","name":"Floresta","population":2056,"households":826,"areaKm2":0.6625,"density":3103.2}},{"type":"Feature","geometry":{"type":"Polygon","coordinates":[[[-37.35117,-6.37624],[-37.35048,-6.37519],[-37.34932,-6.37206],[-37.34827,-6.37119],[-37.34793,-6.3705],[-37.34968,-6.37027],[-37.35188,-6.37359],[-37.35266,-6.37376],[-37.35361,-6.37433],[-37.35411,-6.37478],[-37.35418,-6.37533],[-37.35489,-6.37628],[-37.35548,-6.37807],[-37.35288,-6.37856],[-37.35224,-6.37875],[-37.35117,-6.37624]]]},"properties":{"codigo":"2405603004","name":"Santo Amaro","population":639,"households":272,"areaKm2":0.2783,"density":2296.2}},{"type":"Feature","geometry":{"type":"Polygon","coordinates":[[[-37.34799,-6.38569],[-37.34179,-6.38607],[-37.33791,-6.38668],[-37.33674,-6.38486],[-37.33633,-6.38308],[-37.33926,-6.38237],[-37.34506,-6.38085],[-37.34521,-6.38134],[-37.34676,-6.3809],[-37.34739,-6.38307],[-37.34782,-6.38442],[-37.34763,-6.38449],[-37.34799,-6.38569]]]},"properties":{"codigo":"2405603006","name":"Novo Jardim","population":1519,"households":626,"areaKm2":0.5685,"density":2671.8}},{"type":"Feature","geometry":{"type":"Polygon","coordinates":[[[-37.34352,-6.37815],[-37.34541,-6.37737],[-37.34665,-6.38045],[-37.34506,-6.38085],[-37.33926,-6.38237],[-37.33883,-6.38083],[-37.3403,-6.38046],[-37.34115,-6.37956],[-37.34372,-6.37857],[-37.34352,-6.37815]]]},"properties":{"codigo":"2405603005","name":"Santa Cecilia","population":1316,"households":530,"areaKm2":0.2171,"density":6062.1}},{"type":"Feature","geometry":{"type":"Polygon","coordinates":[[[-37.34049,-6.37243],[-37.34312,-6.37156],[-37.34604,-6.37079],[-37.34793,-6.3705],[-37.34827,-6.37119],[-37.34932,-6.37206],[-37.35048,-6.37519],[-37.35117,-6.37624],[-37.35033,-6.37652],[-37.34964,-6.37504],[-37.34916,-6.37516],[-37.34935,-6.37578],[-37.34541,-6.37737],[-37.34352,-6.37815],[-37.34246,-6.37635],[-37.34155,-6.37514],[-37.34049,-6.37243]]]},"properties":{"codigo":"2405603008","name":"Santa Maria","population":1851,"households":744,"areaKm2":0.588,"density":3148.2}},{"type":"Feature","geometry":{"type":"Polygon","coordinates":[[[-37.34739,-6.38307],[-37.34917,-6.38245],[-37.35275,-6.38079],[-37.35287,-6.38106],[-37.35177,-6.38157],[-37.35218,-6.38303],[-37.35267,-6.38514],[-37.35257,-6.38537],[-37.35162,-6.3858],[-37.34799,-6.38569],[-37.34763,-6.38449],[-37.34782,-6.38442],[-37.34739,-6.38307]]]},"properties":{"codigo":"2405603007","name":"Emboca","population":899,"households":349,"areaKm2":0.2067,"density":4348.9}},{"type":"Feature","geometry":{"type":"Polygon","coordinates":[[[-37.35224,-6.37875],[-37.35184,-6.37887],[-37.34665,-6.38045],[-37.34541,-6.37737],[-37.34935,-6.37578],[-37.34916,-6.37516],[-37.34964,-6.37504],[-37.35033,-6.37652],[-37.35117,-6.37624],[-37.35224,-6.37875]]]},"properties":{"codigo":"2405603003","name":"Sao José","population":1837,"households":788,"areaKm2":0.2447,"density":7506}},{"type":"Feature","geometry":{"type":"Polygon","coordinates":[[[-37.35548,-6.37807],[-37.35568,-6.37867],[-37.35549,-6.37955],[-37.35563,-6.38114],[-37.3556,-6.3819],[-37.35477,-6.38328],[-37.35327,-6.38431],[-37.35267,-6.38514],[-37.35218,-6.38303],[-37.35177,-6.38157],[-37.35287,-6.38106],[-37.35275,-6.38079],[-37.35184,-6.37887],[-37.35224,-6.37875],[-37.35288,-6.37856],[-37.35548,-6.37807]]]},"properties":{"codigo":"2405603001","name":"Vila do Rio","population":478,"households":208,"areaKm2":0.2201,"density":2171.7}},{"type":"Feature","geometry":{"type":"Polygon","coordinates":[[[-37.34506,-6.38085],[-37.34665,-6.38045],[-37.35184,-6.37887],[-37.35275,-6.38079],[-37.34917,-6.38245],[-37.34739,-6.38307],[-37.34676,-6.3809],[-37.34521,-6.38134],[-37.34506,-6.38085]]]},"properties":{"codigo":"2405603002","name":"Centro","population":608,"households":291,"areaKm2":0.182,"density":3339.9}}]}