{"type":"FeatureCollection","features":[{"type":"Feature","geometry":{"type":"Polygon","coordinates":[[[-37.39352,-6.66282],[-37.39189,-6.66228],[-37.39021,-6.66214],[-37.38844,-6.6618],[-37.38784,-6.66079],[-37.38808,-6.65943],[-37.39308,-6.66039],[-37.39326,-6.66062],[-37.39379,-6.6609],[-37.39472,-6.66187],[-37.39352,-6.66282]]]},"properties":{"codigo":"2413409002","name":"Arécio Batista","population":640,"households":221,"areaKm2":0.1666,"density":3841.9}},{"type":"Feature","geometry":{"type":"Polygon","coordinates":[[[-37.39326,-6.66062],[-37.3976,-6.66155],[-37.39814,-6.66281],[-37.40002,-6.66788],[-37.39769,-6.6688],[-37.39705,-6.66721],[-37.39626,-6.66752],[-37.39602,-6.66696],[-37.39435,-6.66782],[-37.3938,-6.66731],[-37.3948,-6.66542],[-37.39456,-6.66422],[-37.39352,-6.66282],[-37.39472,-6.66187],[-37.39379,-6.6609],[-37.39326,-6.66062]]]},"properties":{"codigo":"2413409001","name":"Centro","population":1165,"households":496,"areaKm2":0.3667,"density":3176.6}},{"type":"Feature","geometry":{"type":"Polygon","coordinates":[[[-37.40002,-6.66788],[-37.40156,-6.66726],[-37.40083,-6.66542],[-37.40227,-6.66492],[-37.40351,-6.66646],[-37.40414,-6.66746],[-37.3973,-6.67025],[-37.39688,-6.66917],[-37.39769,-6.6688],[-37.40002,-6.66788]]]},"properties":{"codigo":"2413409005","name":"Helvécio Praxedes","population":1231,"households":413,"areaKm2":0.1474,"density":8353.7}},{"type":"Feature","geometry":{"type":"Polygon","coordinates":[[[-37.3976,-6.66155],[-37.39852,-6.6619],[-37.39974,-6.66264],[-37.4016,-6.66417],[-37.40227,-6.66492],[-37.40083,-6.66542],[-37.40156,-6.66726],[-37.40002,-6.66788],[-37.39814,-6.66281],[-37.3976,-6.66155]]]},"properties":{"codigo":"2413409006","name":"Ambrozina","population":1401,"households":493,"areaKm2":0.1456,"density":9620}},{"type":"Feature","geometry":{"type":"Polygon","coordinates":[[[-37.39769,-6.6688],[-37.39688,-6.66917],[-37.39635,-6.67009],[-37.39435,-6.66782],[-37.39602,-6.66696],[-37.39626,-6.66752],[-37.39705,-6.66721],[-37.39769,-6.6688]]]},"properties":{"codigo":"2413409004","name":"Derosse Mariz","population":278,"households":90,"areaKm2":0.0653,"density":4254.7}},{"type":"Feature","geometry":{"type":"Polygon","coordinates":[[[-37.39435,-6.66782],[-37.39635,-6.67009],[-37.39331,-6.67497],[-37.39113,-6.67318],[-37.38815,-6.67146],[-37.39179,-6.66861],[-37.3938,-6.66731],[-37.39435,-6.66782]]]},"properties":{"codigo":"2413409003","name":"Liberdade","population":599,"households":199,"areaKm2":0.3772,"density":1587.8}}]}