{"type":"FeatureCollection","features":[{"type":"Feature","geometry":{"type":"Polygon","coordinates":[[[-34.83345,-6.98645],[-34.83293,-6.98914],[-34.83015,-6.98963],[-34.82848,-6.98985],[-34.82869,-6.98701],[-34.82901,-6.9849],[-34.82935,-6.9846],[-34.83215,-6.9848],[-34.83384,-6.98467],[-34.83345,-6.98645]]]},"properties":{"codigo":"2503209007","name":"Jardim Brasília","population":2451,"households":962,"areaKm2":0.2712,"density":9037}},{"type":"Feature","geometry":{"type":"Polygon","coordinates":[[[-34.83213,-6.9739],[-34.83253,-6.97272],[-34.83292,-6.97233],[-34.83451,-6.97198],[-34.83689,-6.97108],[-34.83796,-6.97111],[-34.83859,-6.9708],[-34.83911,-6.96929],[-34.83991,-6.97016],[-34.84038,-6.96988],[-34.84076,-6.97032],[-34.84078,-6.9704],[-34.83753,-6.97594],[-34.83706,-6.97565],[-34.83595,-6.9775],[-34.83571,-6.97847],[-34.83518,-6.97839],[-34.83528,-6.97787],[-34.8358,-6.97534],[-34.83624,-6.97363],[-34.83579,-6.9733],[-34.83476,-6.97716],[-34.83468,-6.97785],[-34.83411,-6.97788],[-34.83088,-6.97841],[-34.83213,-6.9739]]]},"properties":{"codigo":"2503209001","name":"Centro","population":3647,"households":1375,"areaKm2":0.4851,"density":7517.6}},{"type":"Feature","geometry":{"type":"Polygon","coordinates":[[[-34.85115,-7.04037],[-34.84602,-7.04161],[-34.84557,-7.04166],[-34.84429,-7.03893],[-34.84193,-7.03375],[-34.83981,-7.02904],[-34.83965,-7.02841],[-34.8399,-7.02823],[-34.84191,-7.02763],[-34.84161,-7.02673],[-34.84534,-7.02578],[-34.84653,-7.02777],[-34.84964,-7.03349],[-34.84998,-7.03432],[-34.85152,-7.04028],[-34.85115,-7.04037]]]},"properties":{"codigo":"2503209015","name":"Portal do Poço","population":4868,"households":1886,"areaKm2":1.2634,"density":3853.2}},{"type":"Feature","geometry":{"type":"Polygon","coordinates":[[[-34.84739,-7.08467],[-34.84784,-7.08449],[-34.84873,-7.08445],[-34.84824,-7.09145],[-34.84794,-7.09507],[-34.84799,-7.09546],[-34.84769,-7.09968],[-34.84663,-7.09934],[-34.84552,-7.09936],[-34.84555,-7.09795],[-34.84614,-7.09599],[-34.84626,-7.09517],[-34.84692,-7.09321],[-34.84687,-7.09229],[-34.84725,-7.08937],[-34.84719,-7.08873],[-34.84741,-7.08562],[-34.84739,-7.08467]]]},"properties":{"codigo":"2503209022","name":"Parque Verde","population":335,"households":233,"areaKm2":0.272,"density":1231.5}},{"type":"Feature","geometry":{"type":"Polygon","coordinates":[[[-34.82901,-6.9849],[-34.82885,-6.98462],[-34.82727,-6.98469],[-34.82759,-6.97887],[-34.83088,-6.97841],[-34.82954,-6.98325],[-34.82935,-6.9846],[-34.82901,-6.9849]]]},"properties":{"codigo":"2503209006","name":"Formosa","population":429,"households":287,"areaKm2":0.1898,"density":2260}},{"type":"Feature","geometry":{"type":"Polygon","coordinates":[[[-34.82935,-6.9846],[-34.82954,-6.98325],[-34.83088,-6.97841],[-34.83411,-6.97788],[-34.83468,-6.97785],[-34.83528,-6.97787],[-34.83518,-6.97839],[-34.83571,-6.97847],[-34.83557,-6.9797],[-34.8357,-6.98155],[-34.83521,-6.98279],[-34.8348,-6.98415],[-34.83435,-6.98668],[-34.83345,-6.98645],[-34.83384,-6.98467],[-34.83215,-6.9848],[-34.82935,-6.9846]]]},"properties":{"codigo":"2503209005","name":"Camalaú","population":3978,"households":1540,"areaKm2":0.4499,"density":8842.2}},{"type":"Feature","geometry":{"type":"Polygon","coordinates":[[[-34.83981,-7.02904],[-34.83789,-7.02483],[-34.83751,-7.02374],[-34.8359,-7.01992],[-34.83458,-7.01728],[-34.83307,-7.01392],[-34.83241,-7.01225],[-34.83649,-7.01042],[-34.83729,-7.01178],[-34.83756,-7.01159],[-34.83881,-7.01278],[-34.83897,-7.01257],[-34.84012,-7.01384],[-34.84269,-7.01632],[-34.84478,-7.01797],[-34.84722,-7.02024],[-34.85041,-7.02407],[-34.85074,-7.02435],[-34.84972,-7.02471],[-34.84534,-7.02578],[-34.84161,-7.02673],[-34.84191,-7.02763],[-34.8399,-7.02823],[-34.83965,-7.02841],[-34.83981,-7.02904]]]},"properties":{"codigo":"2503209013","name":"Recanto do Poço","population":3814,"households":1757,"areaKm2":1.7861,"density":2135.4}},{"type":"Feature","geometry":{"type":"Polygon","coordinates":[[[-34.83241,-7.01225],[-34.8323,-7.0123],[-34.8314,-7.01044],[-34.83097,-7.00939],[-34.83029,-7.00813],[-34.82949,-7.00628],[-34.82898,-7.00474],[-34.82856,-7.00278],[-34.82843,-7.00181],[-34.82827,-6.99866],[-34.8284,-6.99879],[-34.83223,-6.99914],[-34.83416,-6.99923],[-34.83412,-6.99996],[-34.83526,-7.00018],[-34.83496,-6.99917],[-34.83553,-6.99917],[-34.83591,-7.00029],[-34.83541,-7.0017],[-34.83494,-7.00495],[-34.83709,-7.01001],[-34.83821,-7.01172],[-34.83897,-7.01257],[-34.83881,-7.01278],[-34.83756,-7.01159],[-34.83729,-7.01178],[-34.83649,-7.01042],[-34.83241,-7.01225]]]},"properties":{"codigo":"2503209010","name":"Jardim Camboinha","population":5095,"households":2111,"areaKm2":0.959,"density":5313}},{"type":"Feature","geometry":{"type":"Polygon","coordinates":[[[-34.84739,-7.08467],[-34.84727,-7.08216],[-34.84675,-7.0794],[-34.84678,-7.07773],[-34.84693,-7.07692],[-34.84714,-7.07583],[-34.84706,-7.0749],[-34.84681,-7.07402],[-34.84692,-7.07358],[-34.84698,-7.07185],[-34.84744,-7.06973],[-34.84829,-7.06817],[-34.84865,-7.0659],[-34.84903,-7.0647],[-34.84928,-7.06321],[-34.84918,-7.06178],[-34.85035,-7.06194],[-34.85018,-7.06393],[-34.84983,-7.06919],[-34.84963,-7.07184],[-34.84947,-7.07286],[-34.84933,-7.07488],[-34.84927,-7.07693],[-34.84873,-7.08445],[-34.84784,-7.08449],[-34.84739,-7.08467]]]},"properties":{"codigo":"2503209019","name":"Jardim América","population":1504,"households":712,"areaKm2":0.5304,"density":2835.5}},{"type":"Feature","geometry":{"type":"Polygon","coordinates":[[[-34.84824,-7.09145],[-34.84846,-7.09145],[-34.85112,-7.09005],[-34.85193,-7.09084],[-34.85236,-7.091],[-34.85191,-7.09171],[-34.85144,-7.09192],[-34.84915,-7.098],[-34.84913,-7.09827],[-34.84994,-7.0984],[-34.84973,-7.09892],[-34.84914,-7.09968],[-34.84856,-7.09994],[-34.84769,-7.09968],[-34.84799,-7.09546],[-34.84794,-7.09507],[-34.84824,-7.09145]]]},"properties":{"codigo":"2503209023","name":"Morada Nova","population":27,"households":11,"areaKm2":0.2642,"density":102.2}},{"type":"Feature","geometry":{"type":"Polygon","coordinates":[[[-34.84534,-7.02578],[-34.84972,-7.02471],[-34.85074,-7.02435],[-34.85262,-7.02593],[-34.85341,-7.02723],[-34.85501,-7.02885],[-34.8571,-7.02964],[-34.85896,-7.02967],[-34.85991,-7.03297],[-34.85536,-7.03327],[-34.85529,-7.03814],[-34.85573,-7.04382],[-34.85209,-7.04424],[-34.85115,-7.04037],[-34.85152,-7.04028],[-34.84998,-7.03432],[-34.84964,-7.03349],[-34.84653,-7.02777],[-34.84534,-7.02578]]]},"properties":{"codigo":"2503209016","name":"Jacaré","population":5384,"households":2042,"areaKm2":1.4851,"density":3625.3}},{"type":"Feature","geometry":{"type":"Polygon","coordinates":[[[-34.83789,-7.02483],[-34.83593,-7.02512],[-34.83067,-7.02568],[-34.82962,-7.02573],[-34.82918,-7.01852],[-34.82901,-7.01787],[-34.82813,-7.0153],[-34.83025,-7.01475],[-34.83292,-7.01398],[-34.83215,-7.01237],[-34.8323,-7.0123],[-34.83241,-7.01225],[-34.83307,-7.01392],[-34.83458,-7.01728],[-34.8359,-7.01992],[-34.83751,-7.02374],[-34.83789,-7.02483]]]},"properties":{"codigo":"2503209012","name":"Poço","population":1970,"households":1801,"areaKm2":0.8865,"density":2222.2}},{"type":"Feature","geometry":{"type":"Polygon","coordinates":[[[-34.84557,-7.04166],[-34.84737,-7.04571],[-34.84883,-7.0489],[-34.8495,-7.05049],[-34.8501,-7.05239],[-34.85051,-7.05445],[-34.85065,-7.0571],[-34.85035,-7.06194],[-34.84918,-7.06178],[-34.84947,-7.06151],[-34.84896,-7.06054],[-34.84901,-7.06003],[-34.84822,-7.05947],[-34.84739,-7.05826],[-34.84692,-7.0579],[-34.84657,-7.05687],[-34.84607,-7.05679],[-34.84468,-7.05623],[-34.8424,-7.05598],[-34.84234,-7.05272],[-34.8417,-7.04868],[-34.84063,-7.04565],[-34.84027,-7.04477],[-34.83823,-7.04071],[-34.83596,-7.03747],[-34.83755,-7.03647],[-34.84153,-7.03406],[-34.84193,-7.03375],[-34.84429,-7.03893],[-34.84557,-7.04166]]]},"properties":{"codigo":"2503209018","name":"Intermares","population":9280,"households":6645,"areaKm2":2.0228,"density":4587.8}},{"type":"Feature","geometry":{"type":"Polygon","coordinates":[[[-34.85112,-7.09005],[-34.8521,-7.08945],[-34.85856,-7.086],[-34.86375,-7.08363],[-34.86347,-7.08418],[-34.86336,-7.08645],[-34.86277,-7.08793],[-34.86186,-7.08824],[-34.86028,-7.08802],[-34.85898,-7.08797],[-34.85789,-7.08832],[-34.85761,-7.08874],[-34.85743,-7.08969],[-34.85751,-7.09032],[-34.85811,-7.09153],[-34.85951,-7.09325],[-34.85957,-7.09369],[-34.8593,-7.09511],[-34.85879,-7.0955],[-34.85716,-7.09514],[-34.85588,-7.09508],[-34.85546,-7.09521],[-34.85459,-7.09642],[-34.85294,-7.0969],[-34.85182,-7.09683],[-34.85129,-7.0979],[-34.85095,-7.09822],[-34.85011,-7.09816],[-34.84994,-7.0984],[-34.84913,-7.09827],[-34.84915,-7.098],[-34.85144,-7.09192],[-34.85191,-7.09171],[-34.85236,-7.091],[-34.85193,-7.09084],[-34.85112,-7.09005]]]},"properties":{"codigo":"2503209024","name":"Salinas Ribamar","population":667,"households":262,"areaKm2":0.9594,"density":695.3}},{"type":"Feature","geometry":{"type":"Polygon","coordinates":[[[-34.84193,-7.03375],[-34.84153,-7.03406],[-34.83755,-7.03647],[-34.83596,-7.03747],[-34.83391,-7.0351],[-34.83277,-7.03408],[-34.83057,-7.0324],[-34.83002,-7.03172],[-34.8296,-7.03067],[-34.82948,-7.02952],[-34.82962,-7.02573],[-34.83067,-7.02568],[-34.83593,-7.02512],[-34.83789,-7.02483],[-34.83981,-7.02904],[-34.84193,-7.03375]]]},"properties":{"codigo":"2503209014","name":"Ponta de Campina","population":1825,"households":1751,"areaKm2":1.2503,"density":1459.6}},{"type":"Feature","geometry":{"type":"Polygon","coordinates":[[[-34.83345,-6.98645],[-34.83435,-6.98668],[-34.83418,-6.98763],[-34.83396,-6.99112],[-34.83402,-6.99358],[-34.83426,-6.9948],[-34.83529,-6.99846],[-34.83553,-6.99917],[-34.83496,-6.99917],[-34.83526,-7.00018],[-34.83412,-6.99996],[-34.83416,-6.99923],[-34.83223,-6.99914],[-34.8284,-6.99879],[-34.82827,-6.99866],[-34.82814,-6.99531],[-34.8282,-6.99386],[-34.82848,-6.98985],[-34.83015,-6.98963],[-34.83293,-6.98914],[-34.83345,-6.98645]]]},"properties":{"codigo":"2503209009","name":"Jardim Manguinhos","population":1947,"households":713,"areaKm2":0.7624,"density":2553.7}},{"type":"Feature","geometry":{"type":"Polygon","coordinates":[[[-34.82848,-6.98985],[-34.8282,-6.99386],[-34.82814,-6.99531],[-34.82827,-6.99866],[-34.82576,-6.99812],[-34.82603,-6.99649],[-34.82704,-6.98962],[-34.827,-6.98884],[-34.82727,-6.98469],[-34.82885,-6.98462],[-34.82901,-6.9849],[-34.82869,-6.98701],[-34.82848,-6.98985]]]},"properties":{"codigo":"2503209008","name":"Areia Dourada","population":120,"households":363,"areaKm2":0.2978,"density":403}},{"type":"Feature","geometry":{"type":"Polygon","coordinates":[[[-34.83796,-6.97111],[-34.83797,-6.97039],[-34.83691,-6.96879],[-34.83661,-6.96863],[-34.83279,-6.96702],[-34.83083,-6.96625],[-34.83054,-6.96587],[-34.8316,-6.96522],[-34.83279,-6.96491],[-34.83533,-6.96465],[-34.83669,-6.96424],[-34.83981,-6.96317],[-34.84033,-6.96291],[-34.84313,-6.96235],[-34.84305,-6.96526],[-34.84249,-6.96679],[-34.84071,-6.96971],[-34.84076,-6.97032],[-34.84038,-6.96988],[-34.83991,-6.97016],[-34.83911,-6.96929],[-34.83859,-6.9708],[-34.83796,-6.97111]]]},"properties":{"codigo":"2503209002","name":"Santa Catarina","population":2383,"households":950,"areaKm2":0.6493,"density":3670.3}},{"type":"Feature","geometry":{"type":"Polygon","coordinates":[[[-34.83213,-6.9739],[-34.83052,-6.97351],[-34.83041,-6.9738],[-34.82837,-6.9736],[-34.82794,-6.97367],[-34.82809,-6.97236],[-34.82844,-6.97079],[-34.82861,-6.96954],[-34.8294,-6.96729],[-34.83006,-6.96623],[-34.83054,-6.96587],[-34.83083,-6.96625],[-34.83279,-6.96702],[-34.83661,-6.96863],[-34.83691,-6.96879],[-34.83797,-6.97039],[-34.83796,-6.97111],[-34.83689,-6.97108],[-34.83451,-6.97198],[-34.83292,-6.97233],[-34.83253,-6.97272],[-34.83213,-6.9739]]]},"properties":{"codigo":"2503209003","name":"Ponta de Matos","population":3788,"households":1616,"areaKm2":0.5751,"density":6586.6}},{"type":"Feature","geometry":{"type":"Polygon","coordinates":[[[-34.83088,-6.97841],[-34.82759,-6.97887],[-34.82794,-6.97367],[-34.82837,-6.9736],[-34.83041,-6.9738],[-34.83052,-6.97351],[-34.83213,-6.9739],[-34.83088,-6.97841]]]},"properties":{"codigo":"2503209004","name":"Monte Castelo","population":1767,"households":912,"areaKm2":0.2265,"density":7800.3}},{"type":"Feature","geometry":{"type":"Polygon","coordinates":[[[-34.8323,-7.0123],[-34.83215,-7.01237],[-34.83292,-7.01398],[-34.83025,-7.01475],[-34.82813,-7.0153],[-34.82758,-7.01341],[-34.82692,-7.01082],[-34.8266,-7.00921],[-34.82593,-7.007],[-34.82546,-7.00582],[-34.82523,-7.00395],[-34.82517,-7.00223],[-34.82521,-7.00115],[-34.82576,-6.99812],[-34.82827,-6.99866],[-34.82843,-7.00181],[-34.82856,-7.00278],[-34.82898,-7.00474],[-34.82949,-7.00628],[-34.83029,-7.00813],[-34.83097,-7.00939],[-34.8314,-7.01044],[-34.8323,-7.0123]]]},"properties":{"codigo":"2503209011","name":"Camboinha","population":959,"households":2089,"areaKm2":0.7814,"density":1227.3}},{"type":"Feature","geometry":{"type":"Polygon","coordinates":[[[-34.85115,-7.04037],[-34.85209,-7.04424],[-34.85573,-7.04382],[-34.85676,-7.04884],[-34.85703,-7.05034],[-34.85755,-7.05169],[-34.85985,-7.05622],[-34.86127,-7.0589],[-34.86332,-7.05832],[-34.86339,-7.06077],[-34.86137,-7.06147],[-34.8587,-7.06211],[-34.85809,-7.06235],[-34.85747,-7.06319],[-34.85704,-7.06424],[-34.85703,-7.06503],[-34.8574,-7.06616],[-34.85809,-7.06705],[-34.85627,-7.06716],[-34.85631,-7.06747],[-34.854,-7.06825],[-34.85173,-7.06891],[-34.84983,-7.06919],[-34.85018,-7.06393],[-34.85035,-7.06194],[-34.85065,-7.0571],[-34.85051,-7.05445],[-34.8501,-7.05239],[-34.8495,-7.05049],[-34.84883,-7.0489],[-34.84737,-7.04571],[-34.84557,-7.04166],[-34.84602,-7.04161],[-34.85115,-7.04037]]]},"properties":{"codigo":"2503209017","name":"Amazônia Park","population":1666,"households":553,"areaKm2":2.7973,"density":595.6}},{"type":"Feature","geometry":{"type":"Polygon","coordinates":[[[-34.84983,-7.06919],[-34.85173,-7.06891],[-34.854,-7.06825],[-34.85631,-7.06747],[-34.85627,-7.06716],[-34.85809,-7.06705],[-34.85903,-7.06836],[-34.85954,-7.07],[-34.85956,-7.07069],[-34.85931,-7.07288],[-34.85909,-7.07373],[-34.85903,-7.07458],[-34.85946,-7.07561],[-34.86084,-7.0763],[-34.86342,-7.07665],[-34.86417,-7.07701],[-34.86478,-7.07752],[-34.8656,-7.07889],[-34.86588,-7.08002],[-34.85487,-7.07756],[-34.85469,-7.07735],[-34.84965,-7.07701],[-34.84927,-7.07693],[-34.84933,-7.07488],[-34.84947,-7.07286],[-34.84963,-7.07184],[-34.84983,-7.06919]]]},"properties":{"codigo":"2503209020","name":"Renascer","population":7592,"households":2884,"areaKm2":1.3275,"density":5719}},{"type":"Feature","geometry":{"type":"Polygon","coordinates":[[[-34.84873,-7.08445],[-34.84927,-7.07693],[-34.84965,-7.07701],[-34.85469,-7.07735],[-34.85487,-7.07756],[-34.86588,-7.08002],[-34.86575,-7.08152],[-34.86521,-7.08237],[-34.86407,-7.08325],[-34.86375,-7.08363],[-34.85856,-7.086],[-34.8521,-7.08945],[-34.85112,-7.09005],[-34.84846,-7.09145],[-34.84824,-7.09145],[-34.84873,-7.08445]]]},"properties":{"codigo":"2503209021","name":"Parque Esperança","population":1021,"households":337,"areaKm2":1.7852,"density":571.9}}]}