{"type":"FeatureCollection","features":[{"type":"Feature","geometry":{"type":"Polygon","coordinates":[[[-35.11255,-6.50512],[-35.1106,-6.51019],[-35.1107,-6.51131],[-35.11753,-6.54173],[-35.11795,-6.543],[-35.11926,-6.54494],[-35.12545,-6.55046],[-35.12763,-6.55202],[-35.13288,-6.55667],[-35.13379,-6.55787],[-35.13161,-6.55992],[-35.1307,-6.56125],[-35.131,-6.562],[-35.13081,-6.56317],[-35.13128,-6.56391],[-35.13093,-6.56613],[-35.13163,-6.56861],[-35.13182,-6.5703],[-35.13262,-6.57189],[-35.1337,-6.57305],[-35.13405,-6.57404],[-35.13571,-6.57457],[-35.13625,-6.57576],[-35.13573,-6.57804],[-35.13598,-6.57946],[-35.13492,-6.58018],[-35.1333,-6.58341],[-35.1321,-6.58427],[-35.13139,-6.58537],[-35.12949,-6.58582],[-35.12877,-6.58654],[-35.12913,-6.58729],[-35.10371,-6.58732],[-35.10297,-6.58783],[-35.10379,-6.59103],[-35.1032,-6.59187],[-35.1025,-6.59388],[-35.1028,-6.59623],[-35.10251,-6.59807],[-35.1031,-6.60026],[-35.10399,-6.6008],[-35.10458,-6.60173],[-35.10474,-6.60336],[-35.1055,-6.60608],[-35.10452,-6.60698],[-35.10358,-6.60681],[-35.10321,-6.60787],[-35.10211,-6.60844],[-35.10093,-6.61025],[-35.09975,-6.61021],[-35.09919,-6.61116],[-35.09826,-6.61153],[-35.09704,-6.61256],[-35.09654,-6.61347],[-35.095,-6.61485],[-35.09387,-6.6153],[-35.09473,-6.61642],[-35.09385,-6.61848],[-35.09244,-6.61924],[-35.09118,-6.62141],[-35.08995,-6.62295],[-35.08984,-6.6235],[-35.08842,-6.62386],[-35.08791,-6.62519],[-35.08721,-6.62521],[-35.08466,-6.62382],[-35.0831,-6.62317],[-35.07986,-6.62133],[-35.07478,-6.6188],[-35.07418,-6.61886],[-35.07083,-6.61813],[-35.06431,-6.61292],[-35.06372,-6.61216],[-35.06309,-6.6101],[-35.06236,-6.60958],[-35.06092,-6.61019],[-35.05809,-6.60972],[-35.05596,-6.60901],[-35.05223,-6.60474],[-35.05119,-6.60439],[-35.0491,-6.60249],[-35.04457,-6.6012],[-35.0429,-6.60093],[-35.04217,-6.60013],[-35.04097,-6.59974],[-35.03986,-6.6001],[-35.03896,-6.5997],[-35.03569,-6.59919],[-35.03448,-6.59886],[-35.03102,-6.59839],[-35.02657,-6.59751],[-35.02078,-6.5965],[-35.01872,-6.59589],[-35.01806,-6.59604],[-35.01484,-6.59549],[-35.0157,-6.58106],[-35.01656,-6.58077],[-35.01795,-6.57119],[-35.01373,-6.56759],[-35.00901,-6.54567],[-35.00539,-6.52777],[-34.99008,-6.51108],[-34.98771,-6.50814],[-34.98443,-6.50039],[-34.98332,-6.49811],[-34.9814,-6.49586],[-34.97996,-6.49463],[-34.97897,-6.49299],[-34.97969,-6.49013],[-34.98007,-6.49023],[-34.98203,-6.49225],[-34.98338,-6.49253],[-34.98388,-6.4938],[-34.98526,-6.49454],[-34.99207,-6.50149],[-34.99321,-6.50178],[-34.99478,-6.501],[-34.99753,-6.50248],[-34.99899,-6.50173],[-35.0011,-6.50198],[-35.00214,-6.50347],[-35.00341,-6.50423],[-35.00716,-6.50484],[-35.01112,-6.50612],[-35.01666,-6.50529],[-35.01708,-6.50403],[-35.0188,-6.50306],[-35.02017,-6.50357],[-35.02199,-6.50525],[-35.02854,-6.50552],[-35.03007,-6.50705],[-35.03132,-6.50871],[-35.03334,-6.51267],[-35.03696,-6.51713],[-35.043,-6.51948],[-35.04578,-6.52214],[-35.05179,-6.52404],[-35.0546,-6.52654],[-35.05773,-6.52779],[-35.06307,-6.52654],[-35.06715,-6.52466],[-35.07152,-6.52035],[-35.07542,-6.5144],[-35.08894,-6.50498],[-35.09205,-6.5001],[-35.09455,-6.4981],[-35.09554,-6.49768],[-35.09808,-6.49776],[-35.10073,-6.49927],[-35.10166,-6.50015],[-35.10223,-6.50395],[-35.10368,-6.50585],[-35.10729,-6.50648],[-35.11255,-6.50512]]]},"properties":{"codigo":"250930505","name":"Mataraca","population":7470,"households":2995,"areaKm2":131.8668,"density":56.6}},{"type":"Feature","geometry":{"type":"Polygon","coordinates":[[[-34.97969,-6.49013],[-34.97897,-6.49299],[-34.97996,-6.49463],[-34.9814,-6.49586],[-34.98332,-6.49811],[-34.98443,-6.50039],[-34.98771,-6.50814],[-34.99008,-6.51108],[-35.00539,-6.52777],[-35.00901,-6.54567],[-35.01373,-6.56759],[-35.01795,-6.57119],[-35.01656,-6.58077],[-35.0157,-6.58106],[-35.01484,-6.59549],[-35.0131,-6.59543],[-35.01097,-6.59578],[-35.00559,-6.5961],[-35.00494,-6.59828],[-35.00389,-6.5988],[-35.00142,-6.59832],[-34.99951,-6.59865],[-34.99606,-6.59813],[-34.99308,-6.5979],[-34.99126,-6.59797],[-34.9888,-6.59676],[-34.98792,-6.59677],[-34.98733,-6.59756],[-34.98641,-6.59672],[-34.98509,-6.59877],[-34.98352,-6.59855],[-34.98282,-6.59763],[-34.9816,-6.59883],[-34.98112,-6.59986],[-34.97992,-6.59869],[-34.97909,-6.5997],[-34.97867,-6.60077],[-34.97673,-6.60103],[-34.97608,-6.60056],[-34.97553,-6.59781],[-34.97429,-6.5982],[-34.97409,-6.59934],[-34.97492,-6.59986],[-34.97494,-6.60077],[-34.97366,-6.60106],[-34.97306,-6.59998],[-34.97229,-6.60107],[-34.97118,-6.60135],[-34.97063,-6.60098],[-34.96981,-6.59913],[-34.96885,-6.59926],[-34.96843,-6.60067],[-34.96905,-6.6016],[-34.96917,-6.60329],[-34.96791,-6.60359],[-34.96622,-6.60309],[-34.96587,-6.60416],[-34.96497,-6.60295],[-34.96545,-6.60207],[-34.9658,-6.60035],[-34.96594,-6.59777],[-34.96618,-6.58953],[-34.96641,-6.58552],[-34.96647,-6.58083],[-34.96619,-6.57444],[-34.9661,-6.5705],[-34.96619,-6.56234],[-34.96634,-6.55423],[-34.96641,-6.54679],[-34.96679,-6.53811],[-34.96743,-6.52109],[-34.96758,-6.51229],[-34.96738,-6.50085],[-34.96768,-6.496],[-34.96768,-6.49277],[-34.96786,-6.49091],[-34.96756,-6.49034],[-34.96787,-6.48856],[-34.96846,-6.4872],[-34.97092,-6.4895],[-34.97095,-6.4885],[-34.97006,-6.48725],[-34.97103,-6.4854],[-34.97157,-6.48524],[-34.97557,-6.48616],[-34.97653,-6.4872],[-34.97836,-6.48726],[-34.97918,-6.48837],[-34.97969,-6.49013]]]},"properties":{"codigo":"250930510","name":"Barra de Camaratuba","population":774,"households":389,"areaKm2":50.5719,"density":15.3}}]}