{"type":"FeatureCollection","features":[{"type":"Feature","geometry":{"type":"Polygon","coordinates":[[[-37.78307,-6.64171],[-37.71559,-6.68472],[-37.67705,-6.70934],[-37.65735,-6.7219],[-37.65501,-6.72061],[-37.64701,-6.7107],[-37.64621,-6.71027],[-37.6398,-6.70965],[-37.63199,-6.70762],[-37.63108,-6.70716],[-37.5999,-6.68842],[-37.59399,-6.68611],[-37.60201,-6.66988],[-37.60024,-6.66663],[-37.59742,-6.66473],[-37.59527,-6.6635],[-37.59368,-6.66207],[-37.59184,-6.66081],[-37.59089,-6.65915],[-37.59144,-6.65653],[-37.59092,-6.65366],[-37.5887,-6.65142],[-37.5877,-6.64983],[-37.58739,-6.64805],[-37.59117,-6.64542],[-37.59297,-6.64332],[-37.59479,-6.64169],[-37.59502,-6.63939],[-37.59429,-6.63629],[-37.59499,-6.63525],[-37.59514,-6.63344],[-37.59493,-6.63229],[-37.58291,-6.6319],[-37.57217,-6.6318],[-37.5698,-6.63166],[-37.57453,-6.62792],[-37.5746,-6.6249],[-37.57543,-6.62222],[-37.57593,-6.61826],[-37.57678,-6.61686],[-37.57812,-6.61573],[-37.57985,-6.61461],[-37.58062,-6.6137],[-37.57997,-6.61208],[-37.58181,-6.61177],[-37.58043,-6.60875],[-37.58019,-6.60713],[-37.57914,-6.60605],[-37.57878,-6.60435],[-37.57932,-6.60306],[-37.57929,-6.60113],[-37.57715,-6.59943],[-37.57623,-6.59783],[-37.57629,-6.59493],[-37.57792,-6.59427],[-37.58111,-6.59384],[-37.58213,-6.59227],[-37.58204,-6.59071],[-37.58034,-6.5872],[-37.57903,-6.58501],[-37.5788,-6.58318],[-37.57896,-6.58129],[-37.58086,-6.57903],[-37.58148,-6.5763],[-37.5836,-6.57487],[-37.58612,-6.57455],[-37.58829,-6.57359],[-37.59113,-6.57278],[-37.5914,-6.57099],[-37.59131,-6.56858],[-37.58881,-6.56648],[-37.58242,-6.56019],[-37.57961,-6.55764],[-37.5772,-6.55623],[-37.57596,-6.5551],[-37.57477,-6.55298],[-37.57251,-6.55137],[-37.57299,-6.55097],[-37.57413,-6.55137],[-37.6042,-6.53456],[-37.6023,-6.53394],[-37.60176,-6.53322],[-37.60168,-6.53186],[-37.60218,-6.5295],[-37.60215,-6.52839],[-37.60168,-6.52682],[-37.6026,-6.52365],[-37.60272,-6.52228],[-37.60186,-6.51846],[-37.59923,-6.51503],[-37.59918,-6.5129],[-37.5998,-6.51235],[-37.60166,-6.51228],[-37.60282,-6.51265],[-37.60496,-6.51459],[-37.60573,-6.51677],[-37.60694,-6.51849],[-37.60906,-6.51867],[-37.61129,-6.51955],[-37.61258,-6.52216],[-37.61357,-6.52233],[-37.61421,-6.52365],[-37.61367,-6.52566],[-37.61419,-6.52697],[-37.6156,-6.52732],[-37.61741,-6.52695],[-37.61893,-6.52697],[-37.62024,-6.52635],[-37.6228,-6.52466],[-37.62486,-6.52466],[-37.62608,-6.52553],[-37.62672,-6.52679],[-37.62848,-6.52873],[-37.62943,-6.52925],[-37.63161,-6.52915],[-37.63434,-6.52945],[-37.63642,-6.52928],[-37.63895,-6.52948],[-37.64027,-6.53107],[-37.64069,-6.53332],[-37.64156,-6.53434],[-37.64352,-6.53479],[-37.64441,-6.53603],[-37.64536,-6.53876],[-37.64675,-6.5403],[-37.65057,-6.53963],[-37.65335,-6.53943],[-37.65831,-6.54007],[-37.6603,-6.54136],[-37.66238,-6.54305],[-37.66409,-6.54823],[-37.69758,-6.54661],[-37.69699,-6.55016],[-37.69171,-6.5566],[-37.69144,-6.55818],[-37.69234,-6.55912],[-37.69567,-6.55945],[-37.70203,-6.5625],[-37.70623,-6.56307],[-37.70835,-6.56414],[-37.71073,-6.56475],[-37.71236,-6.56339],[-37.71441,-6.56136],[-37.71659,-6.56093],[-37.7176,-6.56195],[-37.71492,-6.56529],[-37.71394,-6.56812],[-37.71519,-6.57547],[-37.71637,-6.57637],[-37.71743,-6.57773],[-37.7278,-6.58122],[-37.73652,-6.5784],[-37.7406,-6.57843],[-37.74292,-6.57774],[-37.74423,-6.57865],[-37.75406,-6.58436],[-37.75395,-6.5888],[-37.75058,-6.59274],[-37.753,-6.59412],[-37.75451,-6.5961],[-37.77107,-6.59844],[-37.77359,-6.59985],[-37.77639,-6.60369],[-37.78076,-6.60512],[-37.78429,-6.6037],[-37.78608,-6.59875],[-37.78807,-6.59793],[-37.78668,-6.59956],[-37.78641,-6.60101],[-37.78548,-6.60352],[-37.78767,-6.60761],[-37.78933,-6.61091],[-37.791,-6.61302],[-37.79066,-6.61645],[-37.7892,-6.62008],[-37.78801,-6.6212],[-37.78634,-6.62508],[-37.78435,-6.62681],[-37.78395,-6.62885],[-37.78389,-6.634],[-37.78289,-6.63618],[-37.78203,-6.63914],[-37.78307,-6.64171]]]},"properties":{"codigo":"251090705","name":"Paulista","population":8159,"households":3651,"areaKm2":319.5707,"density":25.5}},{"type":"Feature","geometry":{"type":"Polygon","coordinates":[[[-37.63922,-6.72475],[-37.57474,-6.72082],[-37.55683,-6.71741],[-37.5437,-6.70618],[-37.5363,-6.69736],[-37.53119,-6.68959],[-37.52714,-6.68036],[-37.5258,-6.67302],[-37.52655,-6.66758],[-37.52864,-6.65932],[-37.53439,-6.63378],[-37.54167,-6.63293],[-37.54849,-6.63224],[-37.56052,-6.63112],[-37.56174,-6.63178],[-37.56245,-6.6335],[-37.56376,-6.63327],[-37.56504,-6.63348],[-37.56617,-6.63198],[-37.56912,-6.63154],[-37.5698,-6.63166],[-37.57217,-6.6318],[-37.58291,-6.6319],[-37.59493,-6.63229],[-37.59514,-6.63344],[-37.59499,-6.63525],[-37.59429,-6.63629],[-37.59502,-6.63939],[-37.59479,-6.64169],[-37.59297,-6.64332],[-37.59117,-6.64542],[-37.58739,-6.64805],[-37.5877,-6.64983],[-37.5887,-6.65142],[-37.59092,-6.65366],[-37.59144,-6.65653],[-37.59089,-6.65915],[-37.59184,-6.66081],[-37.59368,-6.66207],[-37.59527,-6.6635],[-37.59742,-6.66473],[-37.60024,-6.66663],[-37.60201,-6.66988],[-37.59399,-6.68611],[-37.5999,-6.68842],[-37.63108,-6.70716],[-37.63199,-6.70762],[-37.6398,-6.70965],[-37.64621,-6.71027],[-37.64701,-6.7107],[-37.65501,-6.72061],[-37.65735,-6.7219],[-37.63922,-6.72475]]]},"properties":{"codigo":"251090707","name":"Ipueiras","population":1555,"households":664,"areaKm2":80.5547,"density":19.3}},{"type":"Feature","geometry":{"type":"Polygon","coordinates":[[[-37.46472,-6.53266],[-37.47843,-6.53353],[-37.48763,-6.51005],[-37.48805,-6.51018],[-37.48863,-6.51315],[-37.48971,-6.51532],[-37.4922,-6.51731],[-37.49385,-6.51924],[-37.49438,-6.52104],[-37.49635,-6.52266],[-37.49787,-6.52356],[-37.50111,-6.52371],[-37.50515,-6.52488],[-37.5064,-6.52543],[-37.50756,-6.5265],[-37.50954,-6.52665],[-37.5108,-6.52722],[-37.51111,-6.52854],[-37.51211,-6.5296],[-37.51232,-6.53091],[-37.51706,-6.53202],[-37.51766,-6.53356],[-37.51952,-6.53462],[-37.52135,-6.53472],[-37.52322,-6.53576],[-37.52434,-6.53685],[-37.52537,-6.53727],[-37.52575,-6.53797],[-37.5283,-6.54011],[-37.52965,-6.54092],[-37.53235,-6.54153],[-37.53373,-6.54165],[-37.53721,-6.54342],[-37.54025,-6.54564],[-37.54287,-6.54524],[-37.54408,-6.54463],[-37.54707,-6.54638],[-37.54949,-6.54715],[-37.55059,-6.54831],[-37.55166,-6.54905],[-37.55384,-6.54986],[-37.55523,-6.55005],[-37.55602,-6.54964],[-37.56159,-6.54973],[-37.56409,-6.55048],[-37.56611,-6.55019],[-37.57193,-6.55099],[-37.57251,-6.55137],[-37.57477,-6.55298],[-37.57596,-6.5551],[-37.5772,-6.55623],[-37.57961,-6.55764],[-37.58242,-6.56019],[-37.58881,-6.56648],[-37.59131,-6.56858],[-37.5914,-6.57099],[-37.59113,-6.57278],[-37.58829,-6.57359],[-37.58612,-6.57455],[-37.5836,-6.57487],[-37.58148,-6.5763],[-37.58086,-6.57903],[-37.57896,-6.58129],[-37.5788,-6.58318],[-37.57903,-6.58501],[-37.58034,-6.5872],[-37.58204,-6.59071],[-37.58213,-6.59227],[-37.58111,-6.59384],[-37.57792,-6.59427],[-37.57629,-6.59493],[-37.57623,-6.59783],[-37.57715,-6.59943],[-37.57929,-6.60113],[-37.57932,-6.60306],[-37.57878,-6.60435],[-37.57914,-6.60605],[-37.58019,-6.60713],[-37.58043,-6.60875],[-37.58181,-6.61177],[-37.57997,-6.61208],[-37.58062,-6.6137],[-37.57985,-6.61461],[-37.57812,-6.61573],[-37.57678,-6.61686],[-37.57593,-6.61826],[-37.57543,-6.62222],[-37.5746,-6.6249],[-37.57453,-6.62792],[-37.5698,-6.63166],[-37.56912,-6.63154],[-37.56617,-6.63198],[-37.56504,-6.63348],[-37.56376,-6.63327],[-37.56245,-6.6335],[-37.56174,-6.63178],[-37.56052,-6.63112],[-37.54849,-6.63224],[-37.54167,-6.63293],[-37.53439,-6.63378],[-37.52864,-6.65932],[-37.52655,-6.66758],[-37.5258,-6.67302],[-37.52714,-6.68036],[-37.53119,-6.68959],[-37.5363,-6.69736],[-37.5437,-6.70618],[-37.55683,-6.71741],[-37.51964,-6.71073],[-37.52845,-6.73169],[-37.52577,-6.72998],[-37.52423,-6.72882],[-37.52223,-6.72766],[-37.52061,-6.72637],[-37.51829,-6.72385],[-37.5181,-6.72269],[-37.51507,-6.71921],[-37.51375,-6.71802],[-37.51229,-6.71808],[-37.51104,-6.71856],[-37.50977,-6.71684],[-37.50833,-6.71589],[-37.50794,-6.71511],[-37.50581,-6.71547],[-37.50405,-6.71537],[-37.5023,-6.71498],[-37.5001,-6.71379],[-37.49904,-6.71286],[-37.4973,-6.71041],[-37.49633,-6.70989],[-37.4948,-6.70862],[-37.49343,-6.70831],[-37.48948,-6.70634],[-37.4847,-6.71004],[-37.48205,-6.70461],[-37.47807,-6.69517],[-37.47599,-6.68905],[-37.47098,-6.68034],[-37.47086,-6.67953],[-37.47217,-6.67769],[-37.47496,-6.6745],[-37.4752,-6.67282],[-37.47084,-6.6693],[-37.46815,-6.66563],[-37.46714,-6.66359],[-37.46619,-6.65996],[-37.47362,-6.64934],[-37.47636,-6.6448],[-37.47722,-6.64191],[-37.47741,-6.63744],[-37.47453,-6.61791],[-37.476,-6.60811],[-37.47876,-6.60728],[-37.48002,-6.60618],[-37.48038,-6.60522],[-37.47974,-6.59988],[-37.48012,-6.59415],[-37.47853,-6.58507],[-37.47861,-6.57822],[-37.47481,-6.56445],[-37.47506,-6.56349],[-37.47602,-6.56265],[-37.47872,-6.5617],[-37.48058,-6.55982],[-37.48191,-6.55725],[-37.48294,-6.55329],[-37.48313,-6.55041],[-37.48236,-6.54771],[-37.47367,-6.5376],[-37.46814,-6.53393],[-37.46472,-6.53266]]]},"properties":{"codigo":"251090710","name":"Mimoso","population":2120,"households":946,"areaKm2":177.2538,"density":12}}]}