{"type":"FeatureCollection","features":[{"type":"Feature","geometry":{"type":"Polygon","coordinates":[[[-38.68302,-7.17599],[-38.6838,-7.17832],[-38.68391,-7.18087],[-38.68635,-7.18311],[-38.68783,-7.19016],[-38.6838,-7.1877],[-38.68184,-7.18735],[-38.67594,-7.18957],[-38.67497,-7.18889],[-38.67403,-7.18599],[-38.67341,-7.18529],[-38.67219,-7.18519],[-38.66835,-7.18582],[-38.66481,-7.18567],[-38.65932,-7.18325],[-38.65478,-7.18323],[-38.6498,-7.1847],[-38.64758,-7.18372],[-38.64529,-7.18342],[-38.6442,-7.18376],[-38.61454,-7.18282],[-38.57181,-7.18321],[-38.56785,-7.18042],[-38.56785,-7.17697],[-38.56268,-7.17697],[-38.56068,-7.17631],[-38.55987,-7.17484],[-38.55713,-7.17352],[-38.55536,-7.17338],[-38.55299,-7.17169],[-38.549,-7.16956],[-38.54722,-7.17198],[-38.54493,-7.17015],[-38.54167,-7.16853],[-38.53879,-7.16736],[-38.53613,-7.16839],[-38.53191,-7.17088],[-38.52636,-7.16927],[-38.52452,-7.16949],[-38.52242,-7.17042],[-38.52074,-7.17198],[-38.51874,-7.1732],[-38.51822,-7.17458],[-38.51822,-7.17647],[-38.51863,-7.17902],[-38.51812,-7.18107],[-38.51801,-7.1826],[-38.51251,-7.18234],[-38.50978,-7.18199],[-38.50824,-7.18285],[-38.50608,-7.18326],[-38.50299,-7.18449],[-38.49352,-7.18199],[-38.4912,-7.18178],[-38.48945,-7.18071],[-38.48647,-7.18168],[-38.484,-7.18163],[-38.48153,-7.18331],[-38.47911,-7.18459],[-38.47607,-7.18388],[-38.4734,-7.18423],[-38.46717,-7.18479],[-38.4628,-7.18474],[-38.45961,-7.18428],[-38.45673,-7.18367],[-38.45348,-7.18142],[-38.45318,-7.18239],[-38.45369,-7.18428],[-38.45472,-7.18627],[-38.45359,-7.18776],[-38.45348,-7.18939],[-38.45235,-7.19138],[-38.45235,-7.19337],[-38.45014,-7.19455],[-38.44952,-7.19552],[-38.44798,-7.19659],[-38.44602,-7.19587],[-38.44252,-7.19725],[-38.4418,-7.19843],[-38.44041,-7.1994],[-38.43542,-7.19863],[-38.43455,-7.19822],[-38.43218,-7.19802],[-38.43012,-7.19746],[-38.42914,-7.19664],[-38.42559,-7.19541],[-38.42209,-7.19332],[-38.42086,-7.19215],[-38.41967,-7.19158],[-38.41602,-7.19225],[-38.41407,-7.19291],[-38.41201,-7.19307],[-38.41015,-7.19245],[-38.4082,-7.19276],[-38.40861,-7.19429],[-38.40933,-7.19567],[-38.40877,-7.19735],[-38.40969,-7.19863],[-38.40933,-7.20037],[-38.40814,-7.20245],[-38.37091,-7.18698],[-38.31465,-7.16362],[-38.3121,-7.16376],[-38.31076,-7.16086],[-38.31123,-7.15884],[-38.3112,-7.15697],[-38.31199,-7.15485],[-38.31143,-7.15444],[-38.30924,-7.15441],[-38.30666,-7.15491],[-38.30453,-7.15555],[-38.30359,-7.15552],[-38.30198,-7.15473],[-38.29985,-7.15714],[-38.29906,-7.15766],[-38.29789,-7.15708],[-38.29536,-7.1544],[-38.28464,-7.13049],[-38.2857,-7.12888],[-38.28714,-7.12945],[-38.28911,-7.12922],[-38.29074,-7.12841],[-38.29488,-7.12833],[-38.29357,-7.12546],[-38.29459,-7.12521],[-38.29556,-7.12587],[-38.29644,-7.12597],[-38.29801,-7.12676],[-38.2987,-7.12612],[-38.29988,-7.1267],[-38.30043,-7.12766],[-38.30165,-7.12747],[-38.30286,-7.12795],[-38.30509,-7.12828],[-38.30593,-7.12865],[-38.3069,-7.12966],[-38.30714,-7.13107],[-38.30768,-7.13203],[-38.30883,-7.13213],[-38.30971,-7.13357],[-38.31121,-7.13539],[-38.313,-7.13625],[-38.31315,-7.1346],[-38.31428,-7.13425],[-38.31674,-7.13492],[-38.31762,-7.1363],[-38.3191,-7.13614],[-38.31988,-7.13645],[-38.32097,-7.13619],[-38.32236,-7.13697],[-38.32326,-7.13804],[-38.32761,-7.14],[-38.32995,-7.14182],[-38.3307,-7.14424],[-38.34324,-7.10487],[-38.34975,-7.08939],[-38.36799,-7.04602],[-38.36796,-7.0453],[-38.36967,-7.04527],[-38.37177,-7.04556],[-38.37493,-7.04545],[-38.37729,-7.04497],[-38.37805,-7.04509],[-38.37988,-7.046],[-38.38068,-7.04699],[-38.3833,-7.04698],[-38.38667,-7.04786],[-38.38757,-7.04825],[-38.39037,-7.04785],[-38.3918,-7.0484],[-38.39396,-7.04963],[-38.3956,-7.04841],[-38.39907,-7.04789],[-38.40054,-7.04671],[-38.40258,-7.04613],[-38.40384,-7.04493],[-38.40489,-7.04563],[-38.40515,-7.0465],[-38.40652,-7.04713],[-38.40756,-7.04718],[-38.4091,-7.04849],[-38.41399,-7.04783],[-38.41579,-7.04849],[-38.41892,-7.04782],[-38.42292,-7.04851],[-38.42376,-7.04933],[-38.42546,-7.0494],[-38.42696,-7.04905],[-38.42859,-7.05118],[-38.43222,-7.05269],[-38.43675,-7.05342],[-38.43936,-7.05181],[-38.44079,-7.04978],[-38.44325,-7.04713],[-38.44638,-7.04607],[-38.44885,-7.04501],[-38.45065,-7.04381],[-38.45081,-7.04273],[-38.45159,-7.04048],[-38.45086,-7.03967],[-38.44679,-7.04007],[-38.44339,-7.03913],[-38.43999,-7.0386],[-38.43746,-7.03859],[-38.43594,-7.03657],[-38.43724,-7.03659],[-38.43746,-7.03502],[-38.43724,-7.03417],[-38.43739,-7.03252],[-38.43721,-7.03135],[-38.43595,-7.0308],[-38.43669,-7.02886],[-38.43757,-7.02886],[-38.43968,-7.02985],[-38.44053,-7.02944],[-38.44042,-7.0282],[-38.43905,-7.02849],[-38.43684,-7.02688],[-38.43536,-7.02622],[-38.43591,-7.02545],[-38.4351,-7.02446],[-38.43414,-7.02435],[-38.43285,-7.02329],[-38.43325,-7.02197],[-38.43226,-7.02116],[-38.43104,-7.02134],[-38.431,-7.02233],[-38.42956,-7.02252],[-38.42823,-7.02178],[-38.42686,-7.02211],[-38.42646,-7.02285],[-38.42539,-7.02138],[-38.42609,-7.02043],[-38.42753,-7.02138],[-38.4289,-7.02138],[-38.42886,-7.01973],[-38.42912,-7.01896],[-38.42782,-7.01848],[-38.42845,-7.01764],[-38.42978,-7.01815],[-38.43015,-7.02017],[-38.43189,-7.02002],[-38.43347,-7.02035],[-38.43466,-7.02101],[-38.43499,-7.02189],[-38.43632,-7.02123],[-38.43739,-7.02112],[-38.43636,-7.01995],[-38.43698,-7.01885],[-38.43613,-7.01768],[-38.43706,-7.01695],[-38.43901,-7.01691],[-38.44031,-7.01717],[-38.44046,-7.01772],[-38.44226,-7.01823],[-38.44411,-7.01757],[-38.4443,-7.01596],[-38.44371,-7.01537],[-38.44426,-7.01438],[-38.44304,-7.01409],[-38.44153,-7.01332],[-38.44005,-7.01394],[-38.43972,-7.01343],[-38.43994,-7.01141],[-38.4409,-7.01218],[-38.44193,-7.01178],[-38.44293,-7.01189],[-38.44274,-7.00994],[-38.44175,-7.00994],[-38.44068,-7.00943],[-38.44023,-7.00873],[-38.44219,-7.00837],[-38.44123,-7.00741],[-38.43916,-7.00719],[-38.43783,-7.00679],[-38.43687,-7.00796],[-38.43676,-7.00917],[-38.4341,-7.0091],[-38.43347,-7.0098],[-38.43266,-7.00972],[-38.43362,-7.00811],[-38.43429,-7.00818],[-38.43617,-7.00679],[-38.43584,-7.00599],[-38.43082,-7.00415],[-38.4303,-7.00364],[-38.42901,-7.0039],[-38.42731,-7.00371],[-38.42731,-7.00316],[-38.42897,-7.00298],[-38.42963,-7.00239],[-38.43178,-7.00173],[-38.43141,-7.0006],[-38.43063,-7.0006],[-38.42982,-6.99931],[-38.42901,-6.99873],[-38.42886,-6.99799],[-38.42805,-6.99759],[-38.42679,-6.99821],[-38.42631,-6.99748],[-38.42864,-6.99656],[-38.42882,-6.99601],[-38.43305,-6.98678],[-38.43673,-6.98696],[-38.44294,-6.98775],[-38.44498,-6.98785],[-38.44632,-6.98829],[-38.45109,-6.98657],[-38.45398,-6.98489],[-38.46064,-6.98864],[-38.46591,-6.98992],[-38.47247,-6.99091],[-38.47455,-6.98903],[-38.47863,-6.98874],[-38.484,-6.98992],[-38.48937,-6.98982],[-38.49742,-6.9913],[-38.50169,-6.9916],[-38.50129,-6.99702],[-38.50607,-6.99841],[-38.51243,-6.9985],[-38.5172,-7.00117],[-38.517,-7.00728],[-38.51929,-7.01044],[-38.52286,-7.01024],[-38.52654,-7.01123],[-38.53125,-7.01386],[-38.5337,-7.01567],[-38.53589,-7.02277],[-38.54652,-7.03195],[-38.55318,-7.03274],[-38.55587,-7.03106],[-38.55974,-7.0283],[-38.56263,-7.02455],[-38.56521,-7.02564],[-38.56596,-7.02653],[-38.56893,-7.02803],[-38.57237,-7.03096],[-38.57605,-7.03343],[-38.57992,-7.0355],[-38.58052,-7.03718],[-38.57963,-7.04043],[-38.58161,-7.04616],[-38.5837,-7.04872],[-38.58493,-7.04972],[-38.58607,-7.05123],[-38.59036,-7.05582],[-38.59265,-7.0573],[-38.59722,-7.0578],[-38.59991,-7.05833],[-38.60756,-7.05987],[-38.61233,-7.06046],[-38.61501,-7.0573],[-38.6173,-7.05434],[-38.61929,-7.05257],[-38.61969,-7.0504],[-38.62963,-7.04507],[-38.6339,-7.04349],[-38.63698,-7.04537],[-38.63967,-7.04774],[-38.64175,-7.04714],[-38.64831,-7.04389],[-38.65567,-7.04152],[-38.65895,-7.03925],[-38.66263,-7.03856],[-38.66453,-7.03758],[-38.66606,-7.0372],[-38.66985,-7.0477],[-38.66924,-7.05111],[-38.67007,-7.05414],[-38.67132,-7.05617],[-38.67531,-7.05978],[-38.67502,-7.06254],[-38.67529,-7.06363],[-38.6771,-7.06619],[-38.67724,-7.0671],[-38.67583,-7.06868],[-38.67258,-7.06945],[-38.67145,-7.07053],[-38.67044,-7.07266],[-38.67,-7.07662],[-38.66887,-7.07908],[-38.66669,-7.08168],[-38.66166,-7.08375],[-38.66071,-7.08507],[-38.6598,-7.08554],[-38.65763,-7.09074],[-38.65641,-7.09243],[-38.65714,-7.09422],[-38.65829,-7.09706],[-38.65842,-7.10176],[-38.6588,-7.10334],[-38.66092,-7.10694],[-38.66215,-7.11018],[-38.66305,-7.11159],[-38.66799,-7.11502],[-38.66981,-7.12259],[-38.67286,-7.12493],[-38.67742,-7.13094],[-38.67788,-7.13267],[-38.67765,-7.13431],[-38.67652,-7.13759],[-38.67591,-7.13831],[-38.67494,-7.14381],[-38.67494,-7.15335],[-38.67529,-7.15572],[-38.67666,-7.15799],[-38.67766,-7.15859],[-38.68238,-7.15933],[-38.68438,-7.16039],[-38.68519,-7.16134],[-38.68505,-7.16348],[-38.68427,-7.16444],[-38.68252,-7.1655],[-38.67764,-7.16673],[-38.67672,-7.16757],[-38.67658,-7.1692],[-38.67713,-7.17094],[-38.67766,-7.17262],[-38.67935,-7.17503],[-38.68302,-7.17599]]]},"properties":{"codigo":"251450305","name":"São José de Piranhas","population":18236,"households":8520,"areaKm2":633.3234,"density":28.8}},{"type":"Feature","geometry":{"type":"Polygon","coordinates":[[[-38.43305,-6.98678],[-38.42882,-6.99601],[-38.42864,-6.99656],[-38.42631,-6.99748],[-38.42679,-6.99821],[-38.42805,-6.99759],[-38.42886,-6.99799],[-38.42901,-6.99873],[-38.42982,-6.99931],[-38.43063,-7.0006],[-38.43141,-7.0006],[-38.43178,-7.00173],[-38.42963,-7.00239],[-38.42897,-7.00298],[-38.42731,-7.00316],[-38.42731,-7.00371],[-38.42901,-7.0039],[-38.4303,-7.00364],[-38.43082,-7.00415],[-38.43584,-7.00599],[-38.43617,-7.00679],[-38.43429,-7.00818],[-38.43362,-7.00811],[-38.43266,-7.00972],[-38.43347,-7.0098],[-38.4341,-7.0091],[-38.43676,-7.00917],[-38.43687,-7.00796],[-38.43783,-7.00679],[-38.43916,-7.00719],[-38.44123,-7.00741],[-38.44219,-7.00837],[-38.44023,-7.00873],[-38.44068,-7.00943],[-38.44175,-7.00994],[-38.44274,-7.00994],[-38.44293,-7.01189],[-38.44193,-7.01178],[-38.4409,-7.01218],[-38.43994,-7.01141],[-38.43972,-7.01343],[-38.44005,-7.01394],[-38.44153,-7.01332],[-38.44304,-7.01409],[-38.44426,-7.01438],[-38.44371,-7.01537],[-38.4443,-7.01596],[-38.44411,-7.01757],[-38.44226,-7.01823],[-38.44046,-7.01772],[-38.44031,-7.01717],[-38.43901,-7.01691],[-38.43706,-7.01695],[-38.43613,-7.01768],[-38.43698,-7.01885],[-38.43636,-7.01995],[-38.43739,-7.02112],[-38.43632,-7.02123],[-38.43499,-7.02189],[-38.43466,-7.02101],[-38.43347,-7.02035],[-38.43189,-7.02002],[-38.43015,-7.02017],[-38.42978,-7.01815],[-38.42845,-7.01764],[-38.42782,-7.01848],[-38.42912,-7.01896],[-38.42886,-7.01973],[-38.4289,-7.02138],[-38.42753,-7.02138],[-38.42609,-7.02043],[-38.42539,-7.02138],[-38.42646,-7.02285],[-38.42686,-7.02211],[-38.42823,-7.02178],[-38.42956,-7.02252],[-38.431,-7.02233],[-38.43104,-7.02134],[-38.43226,-7.02116],[-38.43325,-7.02197],[-38.43285,-7.02329],[-38.43414,-7.02435],[-38.4351,-7.02446],[-38.43591,-7.02545],[-38.43536,-7.02622],[-38.43684,-7.02688],[-38.43905,-7.02849],[-38.44042,-7.0282],[-38.44053,-7.02944],[-38.43968,-7.02985],[-38.43757,-7.02886],[-38.43669,-7.02886],[-38.43595,-7.0308],[-38.43721,-7.03135],[-38.43739,-7.03252],[-38.43724,-7.03417],[-38.43746,-7.03502],[-38.43724,-7.03659],[-38.43594,-7.03657],[-38.43746,-7.03859],[-38.43999,-7.0386],[-38.44339,-7.03913],[-38.44679,-7.04007],[-38.45086,-7.03967],[-38.45159,-7.04048],[-38.45081,-7.04273],[-38.45065,-7.04381],[-38.44885,-7.04501],[-38.44638,-7.04607],[-38.44325,-7.04713],[-38.44079,-7.04978],[-38.43936,-7.05181],[-38.43675,-7.05342],[-38.43222,-7.05269],[-38.42859,-7.05118],[-38.42696,-7.04905],[-38.42546,-7.0494],[-38.42376,-7.04933],[-38.42292,-7.04851],[-38.41892,-7.04782],[-38.41579,-7.04849],[-38.41399,-7.04783],[-38.4091,-7.04849],[-38.40756,-7.04718],[-38.40652,-7.04713],[-38.40515,-7.0465],[-38.40489,-7.04563],[-38.40384,-7.04493],[-38.40258,-7.04613],[-38.40054,-7.04671],[-38.39907,-7.04789],[-38.3956,-7.04841],[-38.39396,-7.04963],[-38.3918,-7.0484],[-38.39037,-7.04785],[-38.38757,-7.04825],[-38.38667,-7.04786],[-38.3833,-7.04698],[-38.38068,-7.04699],[-38.37988,-7.046],[-38.37805,-7.04509],[-38.37729,-7.04497],[-38.37493,-7.04545],[-38.37177,-7.04556],[-38.36967,-7.04527],[-38.36796,-7.0453],[-38.36707,-7.02992],[-38.36044,-6.98989],[-38.36168,-6.98977],[-38.36593,-6.9889],[-38.37128,-6.98885],[-38.37339,-6.98915],[-38.37696,-6.98846],[-38.37907,-6.98873],[-38.38044,-6.98865],[-38.38296,-6.98899],[-38.38536,-6.98891],[-38.38693,-6.98819],[-38.39165,-6.98775],[-38.39339,-6.98731],[-38.39692,-6.98701],[-38.4002,-6.98637],[-38.40348,-6.98642],[-38.4088,-6.98602],[-38.41163,-6.98602],[-38.41332,-6.98578],[-38.41576,-6.98617],[-38.4173,-6.98617],[-38.42028,-6.98583],[-38.42271,-6.98617],[-38.42758,-6.98617],[-38.43305,-6.98678]]]},"properties":{"codigo":"251450310","name":"Bom Jesus","population":831,"households":432,"areaKm2":53.5948,"density":15.5}}]}