{"type":"FeatureCollection","features":[{"type":"Feature","geometry":{"type":"Polygon","coordinates":[[[-36.56794,-6.8748],[-36.55597,-6.89409],[-36.47458,-6.94783],[-36.47287,-6.94116],[-36.47305,-6.93682],[-36.47302,-6.93437],[-36.47279,-6.93341],[-36.47272,-6.93073],[-36.47304,-6.9295],[-36.47268,-6.92344],[-36.47256,-6.91978],[-36.47127,-6.91442],[-36.47012,-6.91308],[-36.46818,-6.91283],[-36.46452,-6.91368],[-36.46079,-6.91522],[-36.4589,-6.91288],[-36.45119,-6.91208],[-36.45043,-6.91252],[-36.44874,-6.91254],[-36.44774,-6.91203],[-36.44529,-6.9095],[-36.44417,-6.90868],[-36.44096,-6.90753],[-36.43956,-6.90591],[-36.43818,-6.90504],[-36.43669,-6.90355],[-36.43536,-6.90093],[-36.43484,-6.89865],[-36.43476,-6.89737],[-36.43307,-6.894],[-36.43176,-6.89437],[-36.4314,-6.88899],[-36.43127,-6.88469],[-36.42902,-6.88275],[-36.42785,-6.88065],[-36.42608,-6.88014],[-36.42518,-6.8795],[-36.42374,-6.87765],[-36.42213,-6.87641],[-36.41933,-6.8757],[-36.41803,-6.87407],[-36.41674,-6.87295],[-36.41566,-6.87078],[-36.41528,-6.86871],[-36.41448,-6.86576],[-36.41447,-6.86263],[-36.41378,-6.85995],[-36.40396,-6.86289],[-36.40804,-6.85835],[-36.40833,-6.85595],[-36.40909,-6.85478],[-36.41072,-6.85495],[-36.41431,-6.85269],[-36.41544,-6.84938],[-36.41528,-6.84794],[-36.41576,-6.84711],[-36.41673,-6.84736],[-36.41783,-6.84921],[-36.42006,-6.84965],[-36.42078,-6.84727],[-36.42158,-6.84558],[-36.42238,-6.8451],[-36.42326,-6.84301],[-36.42405,-6.84233],[-36.4256,-6.84242],[-36.42677,-6.8441],[-36.42599,-6.84454],[-36.42541,-6.8463],[-36.42549,-6.84827],[-36.42683,-6.84802],[-36.42804,-6.84858],[-36.4296,-6.84744],[-36.43043,-6.84728],[-36.43198,-6.84847],[-36.43298,-6.84802],[-36.43432,-6.84599],[-36.43483,-6.84579],[-36.43618,-6.8442],[-36.43712,-6.84355],[-36.4382,-6.84329],[-36.43931,-6.84355],[-36.44107,-6.84458],[-36.4422,-6.84489],[-36.44302,-6.84552],[-36.4453,-6.84672],[-36.44725,-6.84747],[-36.44775,-6.84857],[-36.44843,-6.84879],[-36.4507,-6.84854],[-36.45195,-6.84779],[-36.45355,-6.84811],[-36.45433,-6.84747],[-36.456,-6.84723],[-36.45766,-6.84857],[-36.45941,-6.84796],[-36.46094,-6.84857],[-36.46227,-6.84721],[-36.4635,-6.84635],[-36.46492,-6.84641],[-36.46631,-6.84853],[-36.46821,-6.84763],[-36.46802,-6.84615],[-36.46852,-6.8459],[-36.46997,-6.8469],[-36.47229,-6.84723],[-36.47323,-6.84765],[-36.47447,-6.84892],[-36.4757,-6.84906],[-36.47695,-6.84783],[-36.47698,-6.847],[-36.4763,-6.84576],[-36.47659,-6.84446],[-36.47733,-6.84414],[-36.47816,-6.84447],[-36.47888,-6.84534],[-36.4793,-6.84661],[-36.48107,-6.84642],[-36.48177,-6.84595],[-36.4817,-6.8447],[-36.48241,-6.84202],[-36.48208,-6.84133],[-36.48186,-6.83915],[-36.48381,-6.83872],[-36.48524,-6.83782],[-36.48599,-6.83814],[-36.48699,-6.83786],[-36.48886,-6.83662],[-36.48967,-6.83661],[-36.49033,-6.83721],[-36.4904,-6.8383],[-36.4912,-6.83888],[-36.49313,-6.83944],[-36.4945,-6.83957],[-36.49512,-6.84117],[-36.49524,-6.84258],[-36.49666,-6.8429],[-36.49745,-6.84346],[-36.4971,-6.84425],[-36.4974,-6.8459],[-36.49949,-6.84627],[-36.5008,-6.84743],[-36.50125,-6.84834],[-36.50267,-6.84923],[-36.50361,-6.85022],[-36.50592,-6.84913],[-36.50708,-6.84805],[-36.5088,-6.84783],[-36.50927,-6.84674],[-36.51051,-6.84526],[-36.51133,-6.84484],[-36.51215,-6.84516],[-36.51265,-6.84711],[-36.51329,-6.84778],[-36.51431,-6.84751],[-36.51577,-6.84573],[-36.51765,-6.84567],[-36.51806,-6.84345],[-36.51874,-6.84234],[-36.51837,-6.84049],[-36.5186,-6.83954],[-36.52083,-6.83937],[-36.52439,-6.83827],[-36.52542,-6.83841],[-36.52695,-6.83818],[-36.52765,-6.83861],[-36.52877,-6.84001],[-36.52999,-6.84111],[-36.53063,-6.84122],[-36.53236,-6.83993],[-36.53288,-6.83776],[-36.53506,-6.83818],[-36.53645,-6.83938],[-36.53591,-6.84155],[-36.53598,-6.84244],[-36.537,-6.84367],[-36.53891,-6.84412],[-36.54075,-6.84377],[-36.54137,-6.84261],[-36.54367,-6.8421],[-36.54435,-6.84296],[-36.54515,-6.84307],[-36.5471,-6.84054],[-36.55021,-6.84355],[-36.55146,-6.84345],[-36.55436,-6.84213],[-36.55754,-6.84239],[-36.56016,-6.84077],[-36.56627,-6.84435],[-36.5698,-6.84801],[-36.5716,-6.85103],[-36.57408,-6.85746],[-36.57396,-6.8594],[-36.57263,-6.86119],[-36.56679,-6.86659],[-36.56636,-6.86843],[-36.567,-6.8707],[-36.56925,-6.87291],[-36.56794,-6.8748]]]},"properties":{"codigo":"251540105","name":"Seridó","population":1000,"households":512,"areaKm2":125.5458,"density":8}},{"type":"Feature","geometry":{"type":"Polygon","coordinates":[[[-36.40481,-6.856],[-36.40521,-6.8556],[-36.40693,-6.85621],[-36.40833,-6.85595],[-36.40804,-6.85835],[-36.40396,-6.86289],[-36.41378,-6.85995],[-36.41447,-6.86263],[-36.41448,-6.86576],[-36.41528,-6.86871],[-36.41566,-6.87078],[-36.41674,-6.87295],[-36.41803,-6.87407],[-36.41933,-6.8757],[-36.42213,-6.87641],[-36.42374,-6.87765],[-36.42518,-6.8795],[-36.42608,-6.88014],[-36.42785,-6.88065],[-36.42902,-6.88275],[-36.43127,-6.88469],[-36.4314,-6.88899],[-36.43176,-6.89437],[-36.43307,-6.894],[-36.43476,-6.89737],[-36.43484,-6.89865],[-36.43536,-6.90093],[-36.43669,-6.90355],[-36.43818,-6.90504],[-36.43956,-6.90591],[-36.44096,-6.90753],[-36.44417,-6.90868],[-36.44529,-6.9095],[-36.44774,-6.91203],[-36.44874,-6.91254],[-36.45043,-6.91252],[-36.45119,-6.91208],[-36.4589,-6.91288],[-36.46079,-6.91522],[-36.46452,-6.91368],[-36.46818,-6.91283],[-36.47012,-6.91308],[-36.47127,-6.91442],[-36.47256,-6.91978],[-36.47268,-6.92344],[-36.47304,-6.9295],[-36.47272,-6.93073],[-36.47279,-6.93341],[-36.47302,-6.93437],[-36.47305,-6.93682],[-36.47287,-6.94116],[-36.47458,-6.94783],[-36.47233,-6.94933],[-36.47671,-6.99421],[-36.44396,-6.98771],[-36.4282,-6.98464],[-36.37563,-6.97426],[-36.34206,-6.95254],[-36.3292,-6.93514],[-36.33037,-6.93312],[-36.33175,-6.92941],[-36.33416,-6.92602],[-36.3366,-6.92511],[-36.33808,-6.92372],[-36.3401,-6.92259],[-36.34232,-6.92198],[-36.34608,-6.91958],[-36.34784,-6.91938],[-36.34839,-6.91863],[-36.35027,-6.91711],[-36.3523,-6.91581],[-36.35381,-6.91576],[-36.35624,-6.91538],[-36.35684,-6.91454],[-36.35778,-6.91401],[-36.36022,-6.91317],[-36.36116,-6.91245],[-36.36255,-6.9099],[-36.36408,-6.90759],[-36.36488,-6.90676],[-36.36784,-6.90487],[-36.37008,-6.90407],[-36.37176,-6.901],[-36.37354,-6.89958],[-36.37449,-6.89747],[-36.37549,-6.89681],[-36.37644,-6.89396],[-36.37698,-6.89118],[-36.37679,-6.89015],[-36.37802,-6.88831],[-36.37991,-6.88683],[-36.38105,-6.88547],[-36.38472,-6.88292],[-36.3871,-6.88204],[-36.38847,-6.88103],[-36.38987,-6.87884],[-36.39201,-6.87727],[-36.39623,-6.87351],[-36.39691,-6.87218],[-36.39968,-6.86912],[-36.40025,-6.86757],[-36.39987,-6.86614],[-36.40086,-6.86424],[-36.40078,-6.862],[-36.40103,-6.86107],[-36.40226,-6.86027],[-36.40242,-6.85955],[-36.40421,-6.85728],[-36.40481,-6.856]]]},"properties":{"codigo":"251540110","name":"São Vicente do Seridó","population":9291,"households":3876,"areaKm2":137.2049,"density":67.7}}]}