{"type":"FeatureCollection","features":[{"type":"Feature","geometry":{"type":"Polygon","coordinates":[[[-35.71136,-7.64197],[-35.71324,-7.64297],[-35.71524,-7.6425],[-35.71658,-7.6429],[-35.71711,-7.64343],[-35.71965,-7.64317],[-35.72125,-7.64397],[-35.72386,-7.64444],[-35.7288,-7.64497],[-35.73361,-7.64691],[-35.73394,-7.64784],[-35.73488,-7.64858],[-35.73815,-7.64944],[-35.73969,-7.65005],[-35.7424,-7.65048],[-35.74576,-7.65018],[-35.75017,-7.65111],[-35.75131,-7.65111],[-35.75411,-7.65045],[-35.75685,-7.65051],[-35.75946,-7.64971],[-35.76066,-7.64811],[-35.76423,-7.64881],[-35.76617,-7.64862],[-35.76789,-7.64878],[-35.7689,-7.65001],[-35.77015,-7.65206],[-35.76986,-7.65354],[-35.76858,-7.65602],[-35.76853,-7.65749],[-35.76895,-7.65884],[-35.76957,-7.66319],[-35.77194,-7.66518],[-35.7709,-7.66836],[-35.77097,-7.67042],[-35.77187,-7.67189],[-35.77323,-7.67311],[-35.77271,-7.67482],[-35.77243,-7.67665],[-35.77285,-7.67835],[-35.77387,-7.68041],[-35.77394,-7.68247],[-35.77366,-7.68453],[-35.77302,-7.68577],[-35.77367,-7.68735],[-35.77405,-7.69112],[-35.77483,-7.69296],[-35.77276,-7.69361],[-35.77076,-7.69546],[-35.76962,-7.69582],[-35.76902,-7.6955],[-35.76582,-7.69647],[-35.76427,-7.69785],[-35.76014,-7.699],[-35.75819,-7.70083],[-35.75667,-7.70124],[-35.75455,-7.70071],[-35.75285,-7.7011],[-35.75074,-7.70208],[-35.75021,-7.70261],[-35.74804,-7.70319],[-35.74845,-7.70494],[-35.74816,-7.70665],[-35.74717,-7.70824],[-35.74519,-7.7119],[-35.74526,-7.71408],[-35.74616,-7.71649],[-35.74659,-7.71866],[-35.74645,-7.72139],[-35.74311,-7.71377],[-35.74138,-7.71192],[-35.73655,-7.7096],[-35.73225,-7.70847],[-35.72822,-7.708],[-35.7214,-7.70946],[-35.71916,-7.70873],[-35.71692,-7.70858],[-35.71362,-7.70737],[-35.71161,-7.70521],[-35.70939,-7.69897],[-35.70677,-7.69577],[-35.70008,-7.69186],[-35.69724,-7.69194],[-35.69535,-7.69397],[-35.69541,-7.69697],[-35.69372,-7.69978],[-35.68991,-7.70067],[-35.68411,-7.7078],[-35.68186,-7.70691],[-35.68125,-7.70623],[-35.68093,-7.70449],[-35.67989,-7.70358],[-35.67935,-7.70301],[-35.6751,-7.7007],[-35.67298,-7.69975],[-35.66866,-7.69895],[-35.66747,-7.69743],[-35.66593,-7.69707],[-35.66465,-7.69739],[-35.6611,-7.69692],[-35.65758,-7.69742],[-35.6568,-7.69768],[-35.65556,-7.69705],[-35.65223,-7.69637],[-35.65107,-7.69462],[-35.64527,-7.69241],[-35.63941,-7.68633],[-35.63638,-7.68386],[-35.63355,-7.68266],[-35.63152,-7.68124],[-35.62611,-7.67463],[-35.62524,-7.67319],[-35.62131,-7.66861],[-35.62361,-7.66793],[-35.62355,-7.66683],[-35.62477,-7.66588],[-35.62177,-7.66273],[-35.61951,-7.66408],[-35.6195,-7.66251],[-35.61949,-7.66212],[-35.62113,-7.66001],[-35.6215,-7.65644],[-35.63017,-7.64057],[-35.63048,-7.63943],[-35.63191,-7.63803],[-35.63201,-7.63746],[-35.63322,-7.63624],[-35.63527,-7.63473],[-35.63594,-7.63208],[-35.63428,-7.6305],[-35.63449,-7.62732],[-35.63378,-7.62571],[-35.63304,-7.62503],[-35.64467,-7.62506],[-35.64663,-7.62436],[-35.65063,-7.62229],[-35.65159,-7.62162],[-35.65392,-7.62114],[-35.65485,-7.62067],[-35.65577,-7.6187],[-35.65664,-7.61816],[-35.65658,-7.61686],[-35.65811,-7.61854],[-35.6601,-7.61974],[-35.66265,-7.62019],[-35.6651,-7.62099],[-35.66595,-7.62161],[-35.66993,-7.62258],[-35.67112,-7.62406],[-35.67288,-7.62667],[-35.67396,-7.62866],[-35.6747,-7.6307],[-35.67487,-7.63213],[-35.67572,-7.63474],[-35.67709,-7.63667],[-35.67822,-7.63758],[-35.67925,-7.63895],[-35.68078,-7.63957],[-35.68442,-7.6415],[-35.68874,-7.6427],[-35.69056,-7.64338],[-35.69334,-7.64315],[-35.69465,-7.64173],[-35.69635,-7.64065],[-35.70027,-7.63997],[-35.70266,-7.639],[-35.70453,-7.64002],[-35.70567,-7.6411],[-35.70709,-7.64167],[-35.70993,-7.64224],[-35.71136,-7.64197]]]},"properties":{"codigo":"251700105","name":"Umbuzeiro","population":6522,"households":2914,"areaKm2":108.9161,"density":59.9}},{"type":"Feature","geometry":{"type":"Polygon","coordinates":[[[-35.83281,-7.66115],[-35.83288,-7.66373],[-35.83726,-7.66419],[-35.83767,-7.66448],[-35.83766,-7.66612],[-35.8366,-7.6674],[-35.83486,-7.66815],[-35.83333,-7.66684],[-35.83269,-7.66735],[-35.83299,-7.66858],[-35.83423,-7.66939],[-35.83497,-7.67025],[-35.83544,-7.67206],[-35.83607,-7.676],[-35.8373,-7.67724],[-35.83649,-7.67777],[-35.83541,-7.67684],[-35.83432,-7.67653],[-35.83353,-7.67684],[-35.83346,-7.6777],[-35.83251,-7.67909],[-35.83078,-7.67999],[-35.82971,-7.67888],[-35.82807,-7.67888],[-35.82905,-7.68007],[-35.82828,-7.68085],[-35.82907,-7.68169],[-35.82877,-7.68267],[-35.82839,-7.6864],[-35.82851,-7.68733],[-35.8276,-7.68892],[-35.8274,-7.6902],[-35.82784,-7.69189],[-35.82763,-7.69303],[-35.82828,-7.69426],[-35.82854,-7.69553],[-35.83021,-7.69737],[-35.82957,-7.69839],[-35.82848,-7.69857],[-35.82841,-7.70022],[-35.82874,-7.70106],[-35.83008,-7.70169],[-35.8304,-7.70371],[-35.83143,-7.70486],[-35.83146,-7.7058],[-35.82949,-7.7066],[-35.82969,-7.70751],[-35.83137,-7.70895],[-35.83306,-7.7098],[-35.83154,-7.71395],[-35.83176,-7.71567],[-35.8313,-7.71655],[-35.83,-7.71709],[-35.8303,-7.71787],[-35.83157,-7.71942],[-35.83293,-7.71814],[-35.83511,-7.71866],[-35.83544,-7.71943],[-35.83689,-7.71985],[-35.83763,-7.71874],[-35.8383,-7.71918],[-35.83921,-7.72099],[-35.83719,-7.72141],[-35.83755,-7.72404],[-35.83928,-7.72461],[-35.83884,-7.72585],[-35.83692,-7.7264],[-35.83622,-7.72807],[-35.83713,-7.72932],[-35.83661,-7.73028],[-35.83634,-7.7342],[-35.83607,-7.73637],[-35.83637,-7.73724],[-35.83608,-7.73866],[-35.83606,-7.74061],[-35.8349,-7.74244],[-35.83486,-7.74405],[-35.83368,-7.74539],[-35.8316,-7.74662],[-35.82895,-7.74684],[-35.82764,-7.74725],[-35.82646,-7.7481],[-35.82572,-7.74796],[-35.82529,-7.74957],[-35.82051,-7.74889],[-35.81733,-7.7469],[-35.81369,-7.74635],[-35.81279,-7.74571],[-35.81057,-7.74532],[-35.80811,-7.74667],[-35.8061,-7.74668],[-35.80418,-7.74567],[-35.80032,-7.74182],[-35.79478,-7.73989],[-35.79187,-7.74042],[-35.78991,-7.74044],[-35.78922,-7.74044],[-35.78657,-7.73904],[-35.78058,-7.73835],[-35.77533,-7.73416],[-35.77435,-7.73285],[-35.77294,-7.7321],[-35.76757,-7.72671],[-35.76485,-7.7249],[-35.759,-7.72241],[-35.75181,-7.72366],[-35.74725,-7.7232],[-35.74645,-7.72139],[-35.74659,-7.71866],[-35.74616,-7.71649],[-35.74526,-7.71408],[-35.74519,-7.7119],[-35.74717,-7.70824],[-35.74816,-7.70665],[-35.74845,-7.70494],[-35.74804,-7.70319],[-35.75021,-7.70261],[-35.75074,-7.70208],[-35.75285,-7.7011],[-35.75455,-7.70071],[-35.75667,-7.70124],[-35.75819,-7.70083],[-35.76014,-7.699],[-35.76427,-7.69785],[-35.76582,-7.69647],[-35.76902,-7.6955],[-35.76962,-7.69582],[-35.77076,-7.69546],[-35.77276,-7.69361],[-35.77483,-7.69296],[-35.77405,-7.69112],[-35.77367,-7.68735],[-35.77302,-7.68577],[-35.77366,-7.68453],[-35.77394,-7.68247],[-35.77387,-7.68041],[-35.77285,-7.67835],[-35.77243,-7.67665],[-35.77271,-7.67482],[-35.77323,-7.67311],[-35.77187,-7.67189],[-35.77097,-7.67042],[-35.7709,-7.66836],[-35.77194,-7.66518],[-35.76957,-7.66319],[-35.76895,-7.65884],[-35.76853,-7.65749],[-35.76858,-7.65602],[-35.76986,-7.65354],[-35.77015,-7.65206],[-35.7689,-7.65001],[-35.76789,-7.64878],[-35.76617,-7.64862],[-35.76423,-7.64881],[-35.76066,-7.64811],[-35.76119,-7.64544],[-35.76146,-7.6421],[-35.76239,-7.63976],[-35.76346,-7.63816],[-35.7642,-7.63769],[-35.76647,-7.63689],[-35.768,-7.63662],[-35.77128,-7.63649],[-35.77448,-7.63562],[-35.77589,-7.63655],[-35.77582,-7.63976],[-35.77635,-7.64123],[-35.77755,-7.64337],[-35.77889,-7.64484],[-35.78337,-7.64811],[-35.78737,-7.64985],[-35.79258,-7.65285],[-35.79445,-7.65472],[-35.79626,-7.65566],[-35.79873,-7.65572],[-35.79946,-7.65526],[-35.801,-7.65238],[-35.80167,-7.64804],[-35.80227,-7.64684],[-35.80427,-7.64484],[-35.80594,-7.64417],[-35.80774,-7.64417],[-35.80961,-7.64524],[-35.81035,-7.64664],[-35.81108,-7.64951],[-35.81168,-7.64998],[-35.81302,-7.65225],[-35.81202,-7.65526],[-35.81228,-7.65719],[-35.81208,-7.659],[-35.81369,-7.66153],[-35.81863,-7.6638],[-35.8203,-7.66434],[-35.82184,-7.66414],[-35.82431,-7.66267],[-35.82578,-7.6612],[-35.82671,-7.6608],[-35.82992,-7.6606],[-35.83078,-7.66107],[-35.83281,-7.66115]]]},"properties":{"codigo":"251700110","name":"Mata Virgem","population":2602,"households":1216,"areaKm2":76.662,"density":33.9}}]}