{"type":"FeatureCollection","features":[{"type":"Feature","geometry":{"type":"Polygon","coordinates":[[[-35.45056,-8.37318],[-35.45056,-8.37244],[-35.44987,-8.37154],[-35.44995,-8.3707],[-35.4498,-8.36927],[-35.452,-8.36714],[-35.45227,-8.36703],[-35.45363,-8.3673],[-35.45276,-8.36912],[-35.45281,-8.36981],[-35.45363,-8.37031],[-35.45405,-8.37026],[-35.45402,-8.37121],[-35.45369,-8.37189],[-35.45351,-8.3728],[-35.45375,-8.37417],[-35.45251,-8.37375],[-35.45116,-8.37348],[-35.45056,-8.37318]]]},"properties":{"codigo":"2600906004","name":"Miquilina","population":1600,"households":776,"areaKm2":0.2461,"density":6501.7}},{"type":"Feature","geometry":{"type":"Polygon","coordinates":[[[-35.44777,-8.37718],[-35.44968,-8.3768],[-35.45063,-8.3773],[-35.44988,-8.37868],[-35.44899,-8.37805],[-35.44777,-8.37718]]]},"properties":{"codigo":"2600906006","name":"Tancredo Neves","population":384,"households":162,"areaKm2":0.0324,"density":11834.9}},{"type":"Feature","geometry":{"type":"Polygon","coordinates":[[[-35.44777,-8.37718],[-35.4469,-8.37735],[-35.44624,-8.37773],[-35.44531,-8.37853],[-35.44452,-8.37872],[-35.44318,-8.37821],[-35.44358,-8.37686],[-35.44366,-8.37538],[-35.44466,-8.37547],[-35.4447,-8.37507],[-35.44579,-8.37411],[-35.44658,-8.37505],[-35.44735,-8.37552],[-35.44795,-8.37624],[-35.44968,-8.3768],[-35.44777,-8.37718]]]},"properties":{"codigo":"2600906007","name":"Nossa Senhora de Fátima","population":612,"households":252,"areaKm2":0.1628,"density":3758.6}},{"type":"Feature","geometry":{"type":"Polygon","coordinates":[[[-35.44968,-8.3768],[-35.45239,-8.37584],[-35.45408,-8.37534],[-35.45563,-8.3775],[-35.45562,-8.37802],[-35.45622,-8.37857],[-35.45558,-8.38042],[-35.45458,-8.38127],[-35.45336,-8.38294],[-35.45362,-8.3834],[-35.45334,-8.38377],[-35.45268,-8.3832],[-35.4521,-8.38309],[-35.4518,-8.38278],[-35.4518,-8.38184],[-35.45128,-8.3816],[-35.45087,-8.38096],[-35.45081,-8.37995],[-35.45004,-8.37972],[-35.44963,-8.38019],[-35.44916,-8.38014],[-35.44827,-8.37963],[-35.44833,-8.37899],[-35.44899,-8.37805],[-35.44988,-8.37868],[-35.45063,-8.3773],[-35.44968,-8.3768]]]},"properties":{"codigo":"2600906001","name":"Centro","population":2629,"households":1226,"areaKm2":0.4227,"density":6219.1}},{"type":"Feature","geometry":{"type":"Polygon","coordinates":[[[-35.45408,-8.37534],[-35.45515,-8.37493],[-35.45638,-8.37413],[-35.45822,-8.37222],[-35.46003,-8.37023],[-35.46025,-8.36985],[-35.46051,-8.36857],[-35.46032,-8.36659],[-35.46068,-8.36654],[-35.46083,-8.36718],[-35.46209,-8.36808],[-35.46043,-8.36986],[-35.46053,-8.37041],[-35.4618,-8.37016],[-35.46212,-8.37055],[-35.46187,-8.37112],[-35.46109,-8.37195],[-35.46009,-8.37245],[-35.45996,-8.37327],[-35.46015,-8.37365],[-35.45924,-8.37391],[-35.45967,-8.37429],[-35.46126,-8.3747],[-35.46055,-8.37532],[-35.4606,-8.37583],[-35.45954,-8.37623],[-35.45863,-8.37695],[-35.45861,-8.37798],[-35.45833,-8.3784],[-35.45743,-8.3783],[-35.45712,-8.37802],[-35.45563,-8.3775],[-35.45408,-8.37534]]]},"properties":{"codigo":"2600906002","name":"João Paulo II","population":1344,"households":579,"areaKm2":0.3734,"density":3599.2}},{"type":"Feature","geometry":{"type":"Polygon","coordinates":[[[-35.45375,-8.37417],[-35.45408,-8.37534],[-35.45239,-8.37584],[-35.44968,-8.3768],[-35.44795,-8.37624],[-35.44735,-8.37552],[-35.44658,-8.37505],[-35.44894,-8.37511],[-35.45005,-8.37463],[-35.45056,-8.37398],[-35.45056,-8.37318],[-35.45116,-8.37348],[-35.45251,-8.37375],[-35.45375,-8.37417]]]},"properties":{"codigo":"2600906005","name":"Nossa Senhora da Conceição","population":1177,"households":553,"areaKm2":0.1524,"density":7721.1}},{"type":"Feature","geometry":{"type":"Polygon","coordinates":[[[-35.45128,-8.3816],[-35.45034,-8.38218],[-35.44987,-8.38275],[-35.4496,-8.38202],[-35.44926,-8.38179],[-35.44879,-8.38083],[-35.44824,-8.38043],[-35.44827,-8.37963],[-35.44916,-8.38014],[-35.44963,-8.38019],[-35.45004,-8.37972],[-35.45081,-8.37995],[-35.45087,-8.38096],[-35.45128,-8.3816]]]},"properties":{"codigo":"2600906009","name":"Santo Amaro","population":697,"households":306,"areaKm2":0.0603,"density":11549.4}},{"type":"Feature","geometry":{"type":"Polygon","coordinates":[[[-35.4521,-8.38309],[-35.44971,-8.38426],[-35.44947,-8.3838],[-35.44987,-8.38275],[-35.45034,-8.38218],[-35.45128,-8.3816],[-35.4518,-8.38184],[-35.4518,-8.38278],[-35.4521,-8.38309]]]},"properties":{"codigo":"2600906010","name":"do Campo","population":397,"households":167,"areaKm2":0.0453,"density":8764.6}},{"type":"Feature","geometry":{"type":"Polygon","coordinates":[[[-35.45405,-8.37026],[-35.45412,-8.36817],[-35.45511,-8.36626],[-35.45577,-8.36461],[-35.45615,-8.36462],[-35.45622,-8.36628],[-35.45652,-8.36671],[-35.45713,-8.36672],[-35.45769,-8.36726],[-35.45814,-8.36679],[-35.45866,-8.36565],[-35.45975,-8.36486],[-35.45977,-8.36388],[-35.45927,-8.36287],[-35.45949,-8.36255],[-35.46009,-8.36434],[-35.46032,-8.36659],[-35.46051,-8.36857],[-35.46025,-8.36985],[-35.46003,-8.37023],[-35.45822,-8.37222],[-35.45638,-8.37413],[-35.45515,-8.37493],[-35.45408,-8.37534],[-35.45375,-8.37417],[-35.45351,-8.3728],[-35.45369,-8.37189],[-35.45402,-8.37121],[-35.45405,-8.37026]]]},"properties":{"codigo":"2600906003","name":"Bela Vista","population":4863,"households":2128,"areaKm2":0.5571,"density":8729.7}},{"type":"Feature","geometry":{"type":"Polygon","coordinates":[[[-35.44899,-8.37805],[-35.44833,-8.37899],[-35.44827,-8.37963],[-35.44824,-8.38043],[-35.44792,-8.38051],[-35.44715,-8.37961],[-35.44652,-8.37951],[-35.44568,-8.37895],[-35.44531,-8.37853],[-35.44624,-8.37773],[-35.4469,-8.37735],[-35.44777,-8.37718],[-35.44899,-8.37805]]]},"properties":{"codigo":"2600906008","name":"Cruzeiro","population":1102,"households":469,"areaKm2":0.0824,"density":13373.3}}]}