{"type":"FeatureCollection","features":[{"type":"Feature","geometry":{"type":"Polygon","coordinates":[[[-37.06278,-8.41839],[-37.06324,-8.41621],[-37.06251,-8.41681],[-37.06214,-8.4164],[-37.06105,-8.41732],[-37.06,-8.41762],[-37.05848,-8.41761],[-37.05858,-8.41605],[-37.05922,-8.41605],[-37.05955,-8.41388],[-37.05994,-8.41188],[-37.06057,-8.40806],[-37.06169,-8.40155],[-37.06206,-8.39937],[-37.06273,-8.39664],[-37.0634,-8.39421],[-37.06379,-8.39306],[-37.06608,-8.39385],[-37.06683,-8.39451],[-37.06754,-8.39538],[-37.06812,-8.39683],[-37.06919,-8.39683],[-37.06924,-8.39763],[-37.07306,-8.39853],[-37.07275,-8.39994],[-37.07223,-8.40157],[-37.07209,-8.40253],[-37.07539,-8.40309],[-37.07586,-8.40311],[-37.07733,-8.40357],[-37.07709,-8.4046],[-37.07664,-8.40521],[-37.07656,-8.40598],[-37.07836,-8.40639],[-37.07895,-8.40626],[-37.07921,-8.40524],[-37.07979,-8.4053],[-37.07984,-8.40741],[-37.07968,-8.40821],[-37.0763,-8.41242],[-37.07436,-8.41488],[-37.07412,-8.41506],[-37.07255,-8.41707],[-37.07171,-8.41783],[-37.07026,-8.41842],[-37.06872,-8.41834],[-37.066,-8.41762],[-37.06487,-8.41746],[-37.0642,-8.41753],[-37.06278,-8.41839]]]},"properties":{"codigo":"2601201011","name":"São Cristóvão","population":22380,"households":8857,"areaKm2":3.8773,"density":5772.1}},{"type":"Feature","geometry":{"type":"Polygon","coordinates":[[[-37.0763,-8.41242],[-37.07602,-8.41497],[-37.08133,-8.41496],[-37.0817,-8.41515],[-37.08301,-8.41397],[-37.08577,-8.41173],[-37.08716,-8.41081],[-37.08798,-8.4106],[-37.09142,-8.4102],[-37.09159,-8.41018],[-37.09221,-8.41306],[-37.09232,-8.41447],[-37.0918,-8.41502],[-37.09094,-8.41511],[-37.09007,-8.41449],[-37.08956,-8.41512],[-37.08959,-8.41563],[-37.08912,-8.41634],[-37.08866,-8.41655],[-37.08754,-8.41618],[-37.08759,-8.41576],[-37.08681,-8.41576],[-37.08613,-8.41612],[-37.08549,-8.41699],[-37.08428,-8.41784],[-37.08366,-8.41773],[-37.08255,-8.41718],[-37.08184,-8.41702],[-37.08031,-8.41761],[-37.07956,-8.41763],[-37.07771,-8.41819],[-37.07666,-8.41915],[-37.07595,-8.41918],[-37.07474,-8.41956],[-37.07432,-8.4202],[-37.07456,-8.42105],[-37.07413,-8.42135],[-37.07258,-8.42096],[-37.07206,-8.42124],[-37.07088,-8.42086],[-37.06941,-8.41992],[-37.06942,-8.41898],[-37.07013,-8.41904],[-37.07026,-8.41842],[-37.07171,-8.41783],[-37.07255,-8.41707],[-37.07412,-8.41506],[-37.07436,-8.41488],[-37.0763,-8.41242]]]},"properties":{"codigo":"2601201008","name":"Tamboril","population":1290,"households":495,"areaKm2":1.1233,"density":1148.4}},{"type":"Feature","geometry":{"type":"Polygon","coordinates":[[[-37.06278,-8.41839],[-37.0626,-8.41878],[-37.06122,-8.41959],[-37.05958,-8.42011],[-37.0583,-8.42009],[-37.05822,-8.42118],[-37.05943,-8.42119],[-37.0593,-8.42278],[-37.0581,-8.42267],[-37.05803,-8.4236],[-37.05558,-8.42132],[-37.05371,-8.42081],[-37.05267,-8.42096],[-37.05067,-8.4211],[-37.05061,-8.42059],[-37.04847,-8.42106],[-37.04825,-8.42],[-37.04737,-8.42024],[-37.04499,-8.41983],[-37.0456,-8.41955],[-37.04627,-8.419],[-37.04904,-8.41861],[-37.05017,-8.41828],[-37.05237,-8.41762],[-37.05321,-8.41748],[-37.05848,-8.41761],[-37.06,-8.41762],[-37.06105,-8.41732],[-37.06214,-8.4164],[-37.06251,-8.41681],[-37.06324,-8.41621],[-37.06278,-8.41839]]]},"properties":{"codigo":"2601201001","name":"Centro","population":4445,"households":2295,"areaKm2":0.629,"density":7066.8}},{"type":"Feature","geometry":{"type":"Polygon","coordinates":[[[-37.07026,-8.41842],[-37.07013,-8.41904],[-37.06942,-8.41898],[-37.06941,-8.41992],[-37.06852,-8.41946],[-37.06675,-8.41923],[-37.06575,-8.41967],[-37.06527,-8.42014],[-37.06415,-8.42058],[-37.06343,-8.42366],[-37.06356,-8.42654],[-37.06366,-8.42737],[-37.06344,-8.42867],[-37.06538,-8.43088],[-37.06409,-8.43088],[-37.06265,-8.43035],[-37.06087,-8.42968],[-37.06005,-8.42922],[-37.05704,-8.42676],[-37.05782,-8.42633],[-37.05803,-8.4236],[-37.0581,-8.42267],[-37.0593,-8.42278],[-37.05943,-8.42119],[-37.05822,-8.42118],[-37.0583,-8.42009],[-37.05958,-8.42011],[-37.06122,-8.41959],[-37.0626,-8.41878],[-37.06278,-8.41839],[-37.0642,-8.41753],[-37.06487,-8.41746],[-37.066,-8.41762],[-37.06872,-8.41834],[-37.07026,-8.41842]]]},"properties":{"codigo":"2601201007","name":"São Miguel","population":5044,"households":2200,"areaKm2":0.8256,"density":6109.4}},{"type":"Feature","geometry":{"type":"Polygon","coordinates":[[[-37.07956,-8.41763],[-37.07653,-8.42123],[-37.07508,-8.4229],[-37.0742,-8.42376],[-37.07168,-8.42583],[-37.06935,-8.42782],[-37.06766,-8.42917],[-37.06608,-8.43056],[-37.06538,-8.43088],[-37.06344,-8.42867],[-37.06366,-8.42737],[-37.06356,-8.42654],[-37.06343,-8.42366],[-37.06415,-8.42058],[-37.06527,-8.42014],[-37.06575,-8.41967],[-37.06675,-8.41923],[-37.06852,-8.41946],[-37.06941,-8.41992],[-37.07088,-8.42086],[-37.07206,-8.42124],[-37.07258,-8.42096],[-37.07413,-8.42135],[-37.07456,-8.42105],[-37.07432,-8.4202],[-37.07474,-8.41956],[-37.07595,-8.41918],[-37.07666,-8.41915],[-37.07771,-8.41819],[-37.07956,-8.41763]]]},"properties":{"codigo":"2601201009","name":"Pôr do Sol","population":1452,"households":570,"areaKm2":1.1007,"density":1319.1}},{"type":"Feature","geometry":{"type":"Polygon","coordinates":[[[-37.06265,-8.43035],[-37.05989,-8.43576],[-37.05677,-8.44176],[-37.06198,-8.44606],[-37.0587,-8.44907],[-37.05629,-8.44827],[-37.05422,-8.44612],[-37.0548,-8.44482],[-37.05572,-8.44304],[-37.05408,-8.44296],[-37.0539,-8.44155],[-37.05367,-8.44059],[-37.05335,-8.44037],[-37.0537,-8.43985],[-37.0537,-8.43871],[-37.05163,-8.43827],[-37.0502,-8.43589],[-37.05093,-8.43428],[-37.04905,-8.43432],[-37.04823,-8.43444],[-37.04663,-8.43438],[-37.04721,-8.43273],[-37.04701,-8.43265],[-37.04763,-8.43244],[-37.04893,-8.43228],[-37.049,-8.43155],[-37.04959,-8.4304],[-37.05048,-8.42924],[-37.0519,-8.42935],[-37.05251,-8.42899],[-37.05246,-8.42758],[-37.05359,-8.42761],[-37.05414,-8.42729],[-37.05396,-8.42687],[-37.05461,-8.42602],[-37.05539,-8.4267],[-37.05583,-8.42614],[-37.05704,-8.42676],[-37.06005,-8.42922],[-37.06087,-8.42968],[-37.06265,-8.43035]]]},"properties":{"codigo":"2601201006","name":"Coronel Siqueira Campos","population":542,"households":205,"areaKm2":2.0026,"density":270.7}},{"type":"Feature","geometry":{"type":"Polygon","coordinates":[[[-37.04499,-8.41983],[-37.04421,-8.41976],[-37.04434,-8.41746],[-37.04272,-8.41747],[-37.04261,-8.41645],[-37.04228,-8.41506],[-37.04476,-8.41496],[-37.04475,-8.41432],[-37.04572,-8.41433],[-37.04577,-8.41372],[-37.04664,-8.41393],[-37.047,-8.41451],[-37.04816,-8.41466],[-37.04894,-8.41548],[-37.04964,-8.41535],[-37.05,-8.41708],[-37.05017,-8.41828],[-37.04904,-8.41861],[-37.04627,-8.419],[-37.0456,-8.41955],[-37.04499,-8.41983]]]},"properties":{"codigo":"2601201002","name":"São Geraldo","population":5397,"households":2337,"areaKm2":0.3522,"density":15323.7}},{"type":"Feature","geometry":{"type":"Polygon","coordinates":[[[-37.05067,-8.4211],[-37.04963,-8.42132],[-37.04936,-8.42154],[-37.04936,-8.42287],[-37.04746,-8.42258],[-37.04644,-8.42265],[-37.03941,-8.42415],[-37.03663,-8.42475],[-37.03562,-8.42471],[-37.02651,-8.42299],[-37.0231,-8.42188],[-37.02107,-8.42139],[-37.01941,-8.42089],[-37.02633,-8.41406],[-37.02664,-8.4137],[-37.02922,-8.41415],[-37.02936,-8.41667],[-37.02963,-8.41718],[-37.02939,-8.41784],[-37.03044,-8.41723],[-37.03096,-8.41725],[-37.03184,-8.41783],[-37.03884,-8.41896],[-37.04421,-8.41976],[-37.04499,-8.41983],[-37.04737,-8.42024],[-37.04825,-8.42],[-37.04847,-8.42106],[-37.05061,-8.42059],[-37.05067,-8.4211]]]},"properties":{"codigo":"2601201004","name":"Santa Luzia","population":534,"households":237,"areaKm2":1.876,"density":284.7}},{"type":"Feature","geometry":{"type":"Polygon","coordinates":[[[-37.05848,-8.41761],[-37.05321,-8.41748],[-37.05237,-8.41762],[-37.05017,-8.41828],[-37.05,-8.41708],[-37.04964,-8.41535],[-37.04949,-8.413],[-37.05204,-8.41236],[-37.05241,-8.41255],[-37.05511,-8.41275],[-37.05724,-8.41283],[-37.05767,-8.41218],[-37.05798,-8.41213],[-37.05763,-8.4109],[-37.05718,-8.41052],[-37.05714,-8.40943],[-37.05748,-8.40914],[-37.05761,-8.40783],[-37.05672,-8.40711],[-37.0565,-8.40572],[-37.05617,-8.40443],[-37.05589,-8.40384],[-37.05585,-8.40215],[-37.05616,-8.40204],[-37.06029,-8.40198],[-37.06169,-8.40155],[-37.06057,-8.40806],[-37.05994,-8.41188],[-37.05955,-8.41388],[-37.05922,-8.41605],[-37.05858,-8.41605],[-37.05848,-8.41761]]]},"properties":{"codigo":"2601201012","name":"Cardeal","population":6151,"households":2330,"areaKm2":1.0788,"density":5701.9}},{"type":"Feature","geometry":{"type":"Polygon","coordinates":[[[-37.08366,-8.41773],[-37.0838,-8.41885],[-37.08253,-8.42455],[-37.08237,-8.42499],[-37.07929,-8.4381],[-37.07882,-8.44015],[-37.07863,-8.44126],[-37.08067,-8.44158],[-37.08365,-8.44213],[-37.08214,-8.44356],[-37.0778,-8.44542],[-37.07325,-8.44053],[-37.07236,-8.44011],[-37.07188,-8.43972],[-37.06548,-8.4313],[-37.06538,-8.43088],[-37.06608,-8.43056],[-37.06766,-8.42917],[-37.06935,-8.42782],[-37.07168,-8.42583],[-37.0742,-8.42376],[-37.07508,-8.4229],[-37.07653,-8.42123],[-37.07956,-8.41763],[-37.08031,-8.41761],[-37.08184,-8.41702],[-37.08255,-8.41718],[-37.08366,-8.41773]]]},"properties":{"codigo":"2601201014","name":"Cidade Jardim","population":5732,"households":2127,"areaKm2":3.1291,"density":1831.8}},{"type":"Feature","geometry":{"type":"Polygon","coordinates":[[[-37.04421,-8.41976],[-37.03884,-8.41896],[-37.03184,-8.41783],[-37.03096,-8.41725],[-37.03044,-8.41723],[-37.02939,-8.41784],[-37.02963,-8.41718],[-37.02936,-8.41667],[-37.02922,-8.41415],[-37.02964,-8.41422],[-37.0298,-8.41332],[-37.0307,-8.41321],[-37.03105,-8.41362],[-37.03306,-8.41381],[-37.03298,-8.41482],[-37.03387,-8.41498],[-37.03617,-8.41522],[-37.03825,-8.41578],[-37.03922,-8.41625],[-37.04261,-8.41645],[-37.04272,-8.41747],[-37.04434,-8.41746],[-37.04421,-8.41976]]]},"properties":{"codigo":"2601201003","name":"Boa Vista","population":4669,"households":1891,"areaKm2":0.5842,"density":7992.5}},{"type":"Feature","geometry":{"type":"Polygon","coordinates":[[[-37.05803,-8.4236],[-37.05782,-8.42633],[-37.05704,-8.42676],[-37.05583,-8.42614],[-37.05539,-8.4267],[-37.05461,-8.42602],[-37.05396,-8.42687],[-37.05414,-8.42729],[-37.05359,-8.42761],[-37.05246,-8.42758],[-37.05251,-8.42899],[-37.0519,-8.42935],[-37.05048,-8.42924],[-37.04959,-8.4304],[-37.049,-8.43155],[-37.04893,-8.43228],[-37.04763,-8.43244],[-37.04701,-8.43265],[-37.04589,-8.4326],[-37.0455,-8.42709],[-37.04246,-8.42687],[-37.04268,-8.42523],[-37.0412,-8.42532],[-37.03969,-8.4249],[-37.03941,-8.42415],[-37.04644,-8.42265],[-37.04746,-8.42258],[-37.04936,-8.42287],[-37.04936,-8.42154],[-37.04963,-8.42132],[-37.05067,-8.4211],[-37.05267,-8.42096],[-37.05371,-8.42081],[-37.05558,-8.42132],[-37.05803,-8.4236]]]},"properties":{"codigo":"2601201005","name":"Sucupira","population":3575,"households":1519,"areaKm2":1.2893,"density":2772.8}},{"type":"Feature","geometry":{"type":"Polygon","coordinates":[[[-37.07979,-8.4053],[-37.08001,-8.40373],[-37.08055,-8.40248],[-37.08091,-8.40216],[-37.08199,-8.40273],[-37.08163,-8.40365],[-37.08407,-8.40404],[-37.0843,-8.4039],[-37.08469,-8.40153],[-37.08529,-8.39892],[-37.08575,-8.39825],[-37.08608,-8.39729],[-37.08688,-8.39761],[-37.08731,-8.39835],[-37.08736,-8.39883],[-37.08812,-8.39945],[-37.08807,-8.40076],[-37.0879,-8.40155],[-37.08779,-8.40351],[-37.09001,-8.40468],[-37.09367,-8.402],[-37.09534,-8.40392],[-37.08981,-8.40833],[-37.09142,-8.4102],[-37.08798,-8.4106],[-37.08716,-8.41081],[-37.08577,-8.41173],[-37.08301,-8.41397],[-37.0817,-8.41515],[-37.08133,-8.41496],[-37.07602,-8.41497],[-37.0763,-8.41242],[-37.07968,-8.40821],[-37.07984,-8.40741],[-37.07979,-8.4053]]]},"properties":{"codigo":"2601201010","name":"Santos Dumont","population":4117,"households":1861,"areaKm2":1.7276,"density":2383.1}},{"type":"Feature","geometry":{"type":"Polygon","coordinates":[[[-37.06538,-8.43088],[-37.06548,-8.4313],[-37.07188,-8.43972],[-37.07236,-8.44011],[-37.07325,-8.44053],[-37.0778,-8.44542],[-37.08214,-8.44356],[-37.08365,-8.44213],[-37.09022,-8.44079],[-37.08154,-8.44844],[-37.07648,-8.45278],[-37.07505,-8.45154],[-37.073,-8.45075],[-37.07378,-8.44875],[-37.0749,-8.44656],[-37.07573,-8.44457],[-37.07384,-8.4433],[-37.07234,-8.44713],[-37.07181,-8.44691],[-37.07148,-8.44746],[-37.07068,-8.44714],[-37.07033,-8.44673],[-37.06964,-8.4464],[-37.06999,-8.44536],[-37.0697,-8.44514],[-37.06989,-8.4445],[-37.067,-8.44369],[-37.06746,-8.44297],[-37.06802,-8.44147],[-37.06831,-8.44116],[-37.06803,-8.44],[-37.06693,-8.43966],[-37.06653,-8.43923],[-37.06374,-8.43783],[-37.06253,-8.43714],[-37.06109,-8.43663],[-37.05989,-8.43576],[-37.06265,-8.43035],[-37.06409,-8.43088],[-37.06538,-8.43088]]]},"properties":{"codigo":"2601201013","name":"Boa Esperança","population":6281,"households":2434,"areaKm2":2.0093,"density":3126}}]}