{"type":"FeatureCollection","features":[{"type":"Feature","geometry":{"type":"Polygon","coordinates":[[[-35.70033,-8.37321],[-35.7222,-8.38758],[-35.7542,-8.3849],[-35.76216,-8.38431],[-35.75163,-8.40105],[-35.75162,-8.40209],[-35.75219,-8.40385],[-35.75233,-8.40715],[-35.75306,-8.40754],[-35.75821,-8.40944],[-35.75976,-8.40971],[-35.74814,-8.43015],[-35.76927,-8.44877],[-35.76896,-8.45056],[-35.7695,-8.45108],[-35.77024,-8.45306],[-35.77108,-8.45379],[-35.77347,-8.45297],[-35.77457,-8.45313],[-35.77534,-8.45465],[-35.77714,-8.45601],[-35.77974,-8.45596],[-35.78114,-8.45562],[-35.78278,-8.45757],[-35.78504,-8.4585],[-35.78718,-8.46042],[-35.78906,-8.46038],[-35.79146,-8.46107],[-35.79184,-8.46214],[-35.79263,-8.46285],[-35.79358,-8.46309],[-35.7947,-8.46142],[-35.79646,-8.46169],[-35.79855,-8.46245],[-35.79846,-8.46395],[-35.80319,-8.46461],[-35.80593,-8.46599],[-35.80731,-8.46694],[-35.80952,-8.46906],[-35.81164,-8.46913],[-35.81252,-8.46652],[-35.81378,-8.46521],[-35.81618,-8.46547],[-35.81966,-8.46373],[-35.82118,-8.46328],[-35.8227,-8.46185],[-35.82473,-8.46102],[-35.82541,-8.46221],[-35.82658,-8.46535],[-35.82725,-8.46675],[-35.82863,-8.46882],[-35.83101,-8.47116],[-35.83225,-8.47206],[-35.83291,-8.47356],[-35.83505,-8.47527],[-35.83865,-8.48013],[-35.83936,-8.48195],[-35.83915,-8.48275],[-35.83796,-8.48436],[-35.83517,-8.48682],[-35.83368,-8.48858],[-35.8307,-8.49096],[-35.82987,-8.49245],[-35.82882,-8.49292],[-35.82827,-8.49367],[-35.8233,-8.49049],[-35.82249,-8.48911],[-35.82241,-8.48813],[-35.8213,-8.48669],[-35.81957,-8.48532],[-35.81823,-8.48613],[-35.81604,-8.48665],[-35.81601,-8.48756],[-35.81394,-8.48863],[-35.81358,-8.48969],[-35.81241,-8.48911],[-35.81051,-8.48942],[-35.80667,-8.49304],[-35.80474,-8.49389],[-35.80216,-8.49638],[-35.80173,-8.49707],[-35.80042,-8.49694],[-35.79911,-8.49815],[-35.79794,-8.49772],[-35.79714,-8.49805],[-35.79648,-8.49762],[-35.79542,-8.4981],[-35.7943,-8.49927],[-35.79317,-8.49946],[-35.79157,-8.50049],[-35.78851,-8.50083],[-35.78155,-8.50952],[-35.77833,-8.54869],[-35.80365,-8.59436],[-35.8035,-8.59461],[-35.80274,-8.59503],[-35.80021,-8.59486],[-35.79927,-8.59449],[-35.7976,-8.59438],[-35.79562,-8.59495],[-35.79447,-8.59562],[-35.79405,-8.59713],[-35.79313,-8.59902],[-35.7918,-8.5999],[-35.79001,-8.5991],[-35.78592,-8.59635],[-35.78438,-8.59558],[-35.78124,-8.59197],[-35.78078,-8.59083],[-35.77888,-8.59028],[-35.77704,-8.59088],[-35.77552,-8.59312],[-35.77671,-8.59671],[-35.77613,-8.59795],[-35.77368,-8.5999],[-35.77257,-8.59971],[-35.77029,-8.59723],[-35.76782,-8.59392],[-35.76715,-8.59355],[-35.76583,-8.59402],[-35.76439,-8.59419],[-35.76152,-8.59413],[-35.76017,-8.59331],[-35.75988,-8.59239],[-35.75877,-8.59149],[-35.75749,-8.58977],[-35.75643,-8.58758],[-35.75538,-8.58486],[-35.75393,-8.58284],[-35.75193,-8.58267],[-35.74946,-8.58343],[-35.74681,-8.58587],[-35.74478,-8.58842],[-35.74325,-8.59055],[-35.74222,-8.5909],[-35.74034,-8.59097],[-35.73745,-8.59056],[-35.73519,-8.59101],[-35.73356,-8.59084],[-35.73153,-8.59183],[-35.73124,-8.59252],[-35.73019,-8.59321],[-35.72883,-8.5934],[-35.72751,-8.59307],[-35.72451,-8.59172],[-35.72166,-8.58943],[-35.72078,-8.58902],[-35.7199,-8.58806],[-35.71985,-8.58679],[-35.72088,-8.58543],[-35.72338,-8.5836],[-35.7243,-8.58038],[-35.72389,-8.57981],[-35.72202,-8.57933],[-35.72112,-8.5798],[-35.71743,-8.58031],[-35.71604,-8.58018],[-35.71414,-8.58041],[-35.71354,-8.58155],[-35.71177,-8.58286],[-35.71063,-8.58305],[-35.70995,-8.58369],[-35.70787,-8.58651],[-35.7061,-8.58713],[-35.70604,-8.58847],[-35.70687,-8.58965],[-35.70713,-8.59103],[-35.7052,-8.59407],[-35.70356,-8.59459],[-35.70154,-8.59611],[-35.70071,-8.59793],[-35.6997,-8.59946],[-35.69795,-8.59973],[-35.6948,-8.59878],[-35.6915,-8.5983],[-35.69065,-8.59745],[-35.69116,-8.59636],[-35.69096,-8.59512],[-35.69166,-8.59486],[-35.69289,-8.5955],[-35.694,-8.5941],[-35.69431,-8.59255],[-35.69519,-8.59251],[-35.69616,-8.59306],[-35.69687,-8.59263],[-35.69618,-8.59184],[-35.69502,-8.59143],[-35.69348,-8.59019],[-35.69357,-8.58922],[-35.69224,-8.58863],[-35.69167,-8.5875],[-35.6924,-8.58674],[-35.69301,-8.58501],[-35.69219,-8.58478],[-35.69241,-8.58374],[-35.69377,-8.58351],[-35.6946,-8.58223],[-35.69643,-8.58026],[-35.69744,-8.57889],[-35.69781,-8.57769],[-35.69852,-8.57661],[-35.69903,-8.57514],[-35.69992,-8.57445],[-35.69995,-8.57336],[-35.69955,-8.57246],[-35.7006,-8.57199],[-35.7008,-8.57097],[-35.69976,-8.57045],[-35.69998,-8.56921],[-35.69887,-8.56755],[-35.69916,-8.56557],[-35.6989,-8.56416],[-35.70042,-8.5637],[-35.70064,-8.56304],[-35.6985,-8.55798],[-35.69855,-8.55631],[-35.69819,-8.55567],[-35.69807,-8.55413],[-35.69833,-8.55252],[-35.69712,-8.55109],[-35.69717,-8.54874],[-35.69804,-8.54823],[-35.70149,-8.54874],[-35.705,-8.54883],[-35.7069,-8.54856],[-35.71063,-8.54721],[-35.65242,-8.53571],[-35.65349,-8.52262],[-35.65604,-8.48885],[-35.65675,-8.48744],[-35.66523,-8.49346],[-35.67701,-8.46764],[-35.68798,-8.44379],[-35.67706,-8.4009],[-35.67852,-8.39988],[-35.67989,-8.39833],[-35.67916,-8.39693],[-35.68092,-8.39444],[-35.67961,-8.39271],[-35.6786,-8.39209],[-35.67749,-8.39046],[-35.67749,-8.38904],[-35.67868,-8.38754],[-35.68006,-8.3869],[-35.68202,-8.38636],[-35.68443,-8.38695],[-35.68662,-8.38589],[-35.68966,-8.38329],[-35.6892,-8.38254],[-35.69059,-8.38206],[-35.69147,-8.38058],[-35.69399,-8.38057],[-35.6948,-8.3788],[-35.69438,-8.37697],[-35.69584,-8.37575],[-35.69644,-8.37405],[-35.69818,-8.37396],[-35.70033,-8.37321]]]},"properties":{"codigo":"260230805","name":"Bonito","population":29277,"households":12954,"areaKm2":264.7148,"density":110.6}},{"type":"Feature","geometry":{"type":"Polygon","coordinates":[[[-35.65675,-8.48744],[-35.65604,-8.48885],[-35.65349,-8.52262],[-35.65242,-8.53571],[-35.64591,-8.53443],[-35.64011,-8.55198],[-35.6382,-8.55199],[-35.63636,-8.5512],[-35.6345,-8.55075],[-35.63412,-8.54979],[-35.63269,-8.55037],[-35.63256,-8.54883],[-35.63069,-8.5484],[-35.62994,-8.54746],[-35.62762,-8.54615],[-35.62729,-8.5449],[-35.62586,-8.54438],[-35.62343,-8.54249],[-35.62303,-8.54165],[-35.61982,-8.53975],[-35.61889,-8.54016],[-35.61789,-8.5396],[-35.61889,-8.53878],[-35.61926,-8.53773],[-35.61744,-8.5361],[-35.61615,-8.53391],[-35.6154,-8.53355],[-35.616,-8.53193],[-35.61707,-8.53149],[-35.61654,-8.53073],[-35.61586,-8.5289],[-35.61521,-8.52875],[-35.61329,-8.52931],[-35.61134,-8.52934],[-35.61041,-8.53033],[-35.60902,-8.52995],[-35.60651,-8.52682],[-35.60518,-8.52579],[-35.60482,-8.5251],[-35.60181,-8.52262],[-35.6009,-8.52257],[-35.59984,-8.52162],[-35.60004,-8.521],[-35.59802,-8.52049],[-35.59719,-8.5189],[-35.59608,-8.51901],[-35.59549,-8.51824],[-35.59361,-8.5173],[-35.59256,-8.51738],[-35.59246,-8.51668],[-35.59123,-8.51621],[-35.59097,-8.51429],[-35.58153,-8.50988],[-35.57975,-8.50809],[-35.57747,-8.50689],[-35.57567,-8.50562],[-35.57469,-8.50459],[-35.57197,-8.5024],[-35.57119,-8.50216],[-35.5682,-8.50026],[-35.56608,-8.49864],[-35.56376,-8.49741],[-35.56035,-8.49504],[-35.55794,-8.49377],[-35.55409,-8.49127],[-35.55287,-8.4903],[-35.55093,-8.48932],[-35.54688,-8.4883],[-35.54465,-8.4886],[-35.54387,-8.48779],[-35.54295,-8.48746],[-35.54342,-8.48217],[-35.54305,-8.48058],[-35.54384,-8.47985],[-35.54667,-8.47961],[-35.54834,-8.47967],[-35.55139,-8.47849],[-35.55205,-8.47878],[-35.55379,-8.47833],[-35.55561,-8.47854],[-35.55662,-8.47766],[-35.55654,-8.47629],[-35.55551,-8.47449],[-35.55441,-8.47312],[-35.55302,-8.47262],[-35.55048,-8.47228],[-35.55033,-8.47134],[-35.54967,-8.47076],[-35.54865,-8.47077],[-35.54738,-8.4697],[-35.54696,-8.46781],[-35.54811,-8.46643],[-35.54853,-8.46368],[-35.54838,-8.46259],[-35.54734,-8.45971],[-35.54511,-8.45613],[-35.54525,-8.45499],[-35.54651,-8.45404],[-35.54655,-8.4527],[-35.54805,-8.45325],[-35.55059,-8.45355],[-35.55204,-8.45432],[-35.55341,-8.45392],[-35.55337,-8.45198],[-35.55474,-8.45028],[-35.55559,-8.45008],[-35.55664,-8.44929],[-35.557,-8.44983],[-35.55825,-8.45033],[-35.56071,-8.45019],[-35.56198,-8.4495],[-35.56256,-8.44732],[-35.5624,-8.44572],[-35.56159,-8.44386],[-35.56184,-8.44313],[-35.56312,-8.44198],[-35.56285,-8.44056],[-35.56389,-8.43942],[-35.5631,-8.43869],[-35.56168,-8.43796],[-35.56124,-8.43675],[-35.559,-8.43523],[-35.55695,-8.4353],[-35.55514,-8.43383],[-35.55392,-8.43384],[-35.55322,-8.43325],[-35.55133,-8.43321],[-35.55058,-8.43207],[-35.55245,-8.43154],[-35.55318,-8.4306],[-35.55358,-8.42925],[-35.55284,-8.4279],[-35.55399,-8.42696],[-35.5546,-8.42477],[-35.55575,-8.42508],[-35.5574,-8.4232],[-35.55782,-8.42236],[-35.55906,-8.42163],[-35.55968,-8.42079],[-35.56197,-8.41911],[-35.56269,-8.41734],[-35.5658,-8.41483],[-35.57736,-8.43106],[-35.60416,-8.45009],[-35.62926,-8.46792],[-35.65675,-8.48744]]]},"properties":{"codigo":"260230810","name":"Bentevi","population":2480,"households":1196,"areaKm2":91.2519,"density":27.2}},{"type":"Feature","geometry":{"type":"Polygon","coordinates":[[[-35.80365,-8.59436],[-35.77833,-8.54869],[-35.78155,-8.50952],[-35.78851,-8.50083],[-35.79157,-8.50049],[-35.79317,-8.49946],[-35.7943,-8.49927],[-35.79542,-8.4981],[-35.79648,-8.49762],[-35.79714,-8.49805],[-35.79794,-8.49772],[-35.79911,-8.49815],[-35.80042,-8.49694],[-35.80173,-8.49707],[-35.80216,-8.49638],[-35.80474,-8.49389],[-35.80667,-8.49304],[-35.81051,-8.48942],[-35.81241,-8.48911],[-35.81358,-8.48969],[-35.81394,-8.48863],[-35.81601,-8.48756],[-35.81604,-8.48665],[-35.81823,-8.48613],[-35.81957,-8.48532],[-35.8213,-8.48669],[-35.82241,-8.48813],[-35.82249,-8.48911],[-35.8233,-8.49049],[-35.82827,-8.49367],[-35.82772,-8.49613],[-35.82555,-8.49681],[-35.82428,-8.49823],[-35.82218,-8.50274],[-35.82125,-8.5053],[-35.82142,-8.50615],[-35.82251,-8.50721],[-35.82354,-8.51197],[-35.82406,-8.51558],[-35.82468,-8.51765],[-35.82505,-8.51967],[-35.82514,-8.52209],[-35.82541,-8.52298],[-35.81906,-8.54658],[-35.81733,-8.54951],[-35.81592,-8.55079],[-35.81351,-8.5519],[-35.81216,-8.55148],[-35.81126,-8.55041],[-35.80627,-8.54853],[-35.80351,-8.54733],[-35.80173,-8.54637],[-35.80532,-8.55794],[-35.81383,-8.5845],[-35.81297,-8.58497],[-35.81116,-8.5844],[-35.80875,-8.58426],[-35.80716,-8.58548],[-35.80645,-8.58789],[-35.80535,-8.58951],[-35.8041,-8.59227],[-35.80365,-8.59436]]]},"properties":{"codigo":"260230815","name":"Alto Bonito","population":5717,"households":2770,"areaKm2":37.224,"density":153.6}}]}