{"type":"FeatureCollection","features":[{"type":"Feature","geometry":{"type":"Polygon","coordinates":[[[-35.62935,-7.81232],[-35.62781,-7.81272],[-35.62693,-7.81243],[-35.62565,-7.81255],[-35.62401,-7.81336],[-35.62291,-7.81328],[-35.61995,-7.81413],[-35.61743,-7.8147],[-35.6174,-7.81653],[-35.61629,-7.81991],[-35.61241,-7.81945],[-35.6094,-7.81841],[-35.60818,-7.81723],[-35.60664,-7.81709],[-35.60576,-7.81661],[-35.60503,-7.81692],[-35.60414,-7.81553],[-35.60222,-7.8146],[-35.59935,-7.81261],[-35.59785,-7.81049],[-35.59396,-7.80714],[-35.59323,-7.80676],[-35.59223,-7.8054],[-35.5897,-7.807],[-35.58659,-7.80838],[-35.58479,-7.80827],[-35.58295,-7.80973],[-35.58095,-7.80887],[-35.58017,-7.80876],[-35.57905,-7.80935],[-35.57707,-7.81166],[-35.57635,-7.81279],[-35.57588,-7.81421],[-35.57511,-7.81536],[-35.57418,-7.8159],[-35.57336,-7.81583],[-35.5717,-7.81488],[-35.57005,-7.8165],[-35.56993,-7.81741],[-35.56802,-7.81828],[-35.56758,-7.81987],[-35.55568,-7.82629],[-35.5554,-7.82534],[-35.5544,-7.82484],[-35.55166,-7.82485],[-35.54977,-7.82435],[-35.5476,-7.82184],[-35.54683,-7.8216],[-35.54578,-7.82003],[-35.54373,-7.81812],[-35.54129,-7.81663],[-35.53874,-7.81566],[-35.53454,-7.81324],[-35.53221,-7.81077],[-35.52803,-7.80806],[-35.526,-7.8071],[-35.52515,-7.80708],[-35.52321,-7.80579],[-35.52132,-7.80541],[-35.51962,-7.80308],[-35.51955,-7.80225],[-35.52132,-7.80277],[-35.52147,-7.80134],[-35.52406,-7.80062],[-35.52492,-7.79959],[-35.52766,-7.79755],[-35.53087,-7.79496],[-35.53204,-7.79385],[-35.53153,-7.79136],[-35.53155,-7.78848],[-35.53292,-7.78403],[-35.53668,-7.7837],[-35.537,-7.78286],[-35.53813,-7.78199],[-35.53941,-7.78164],[-35.54117,-7.78008],[-35.54322,-7.77963],[-35.54509,-7.78022],[-35.54682,-7.78029],[-35.54715,-7.77821],[-35.5476,-7.77688],[-35.54833,-7.77598],[-35.54992,-7.77645],[-35.54998,-7.7755],[-35.5494,-7.77431],[-35.55054,-7.77286],[-35.55106,-7.7702],[-35.55049,-7.76756],[-35.55017,-7.76505],[-35.55034,-7.76394],[-35.54941,-7.7619],[-35.55461,-7.76009],[-35.55541,-7.7602],[-35.55625,-7.76108],[-35.55869,-7.76169],[-35.56054,-7.76171],[-35.56567,-7.76408],[-35.56708,-7.76411],[-35.57157,-7.76585],[-35.57643,-7.76586],[-35.57604,-7.76457],[-35.57657,-7.76332],[-35.57826,-7.76149],[-35.57996,-7.76],[-35.58276,-7.75599],[-35.58601,-7.74342],[-35.60645,-7.77213],[-35.60666,-7.77402],[-35.60757,-7.77581],[-35.60755,-7.77821],[-35.60933,-7.77944],[-35.6102,-7.7812],[-35.61022,-7.78293],[-35.60918,-7.78515],[-35.60945,-7.78613],[-35.60913,-7.78699],[-35.60557,-7.78996],[-35.60571,-7.79137],[-35.60462,-7.79261],[-35.60355,-7.79274],[-35.60171,-7.79238],[-35.5998,-7.79159],[-35.59885,-7.7924],[-35.60542,-7.79478],[-35.61488,-7.79654],[-35.61567,-7.79624],[-35.61663,-7.79688],[-35.62158,-7.79798],[-35.62327,-7.79757],[-35.62467,-7.7977],[-35.62577,-7.79847],[-35.62674,-7.80186],[-35.6279,-7.80323],[-35.62878,-7.80325],[-35.63092,-7.80381],[-35.63278,-7.80547],[-35.63402,-7.80507],[-35.63627,-7.80667],[-35.63795,-7.80834],[-35.63839,-7.80952],[-35.63718,-7.8101],[-35.63336,-7.81041],[-35.63159,-7.81086],[-35.62935,-7.81232]]]},"properties":{"codigo":"260220905","name":"Bom Jardim","population":14334,"households":6778,"areaKm2":53.137,"density":269.8}},{"type":"Feature","geometry":{"type":"Polygon","coordinates":[[[-35.51955,-7.80225],[-35.51895,-7.80078],[-35.51825,-7.80087],[-35.51571,-7.8002],[-35.51552,-7.80189],[-35.51371,-7.80185],[-35.51333,-7.80254],[-35.51089,-7.80238],[-35.51034,-7.80278],[-35.51034,-7.8044],[-35.50963,-7.80501],[-35.50905,-7.80438],[-35.50854,-7.80292],[-35.50713,-7.80388],[-35.50663,-7.80464],[-35.50578,-7.80397],[-35.50532,-7.80537],[-35.50446,-7.80594],[-35.50482,-7.8069],[-35.50372,-7.81007],[-35.47705,-7.79777],[-35.47636,-7.78453],[-35.47789,-7.78395],[-35.47969,-7.78363],[-35.48218,-7.78219],[-35.48486,-7.77858],[-35.48519,-7.77711],[-35.48442,-7.77515],[-35.48457,-7.77172],[-35.48405,-7.77099],[-35.4823,-7.76964],[-35.48213,-7.76827],[-35.48165,-7.76767],[-35.48154,-7.76618],[-35.48205,-7.76524],[-35.48212,-7.76411],[-35.48175,-7.763],[-35.48244,-7.76175],[-35.48241,-7.76094],[-35.48132,-7.75879],[-35.48094,-7.75736],[-35.48126,-7.75635],[-35.48208,-7.75546],[-35.48211,-7.75468],[-35.48156,-7.75222],[-35.48202,-7.75012],[-35.48175,-7.74776],[-35.48194,-7.74366],[-35.48101,-7.74209],[-35.47909,-7.74052],[-35.47787,-7.73892],[-35.47658,-7.73769],[-35.47502,-7.73572],[-35.47337,-7.73449],[-35.47141,-7.73041],[-35.47014,-7.72906],[-35.46809,-7.7256],[-35.46531,-7.7223],[-35.46362,-7.72048],[-35.45925,-7.71812],[-35.4579,-7.71673],[-35.45731,-7.71569],[-35.45727,-7.71402],[-35.41912,-7.72128],[-35.42773,-7.71337],[-35.44567,-7.69272],[-35.48436,-7.72995],[-35.4907,-7.72991],[-35.49253,-7.73261],[-35.49606,-7.73434],[-35.50095,-7.73786],[-35.50228,-7.73901],[-35.50446,-7.7422],[-35.50491,-7.74375],[-35.51164,-7.74786],[-35.51452,-7.74796],[-35.51647,-7.74957],[-35.51783,-7.74902],[-35.52026,-7.74915],[-35.52258,-7.74625],[-35.5234,-7.74418],[-35.52631,-7.74897],[-35.52943,-7.74804],[-35.532,-7.74787],[-35.53314,-7.74842],[-35.5336,-7.7479],[-35.53338,-7.74683],[-35.52971,-7.74403],[-35.52974,-7.74323],[-35.54141,-7.73538],[-35.54147,-7.73503],[-35.53871,-7.72872],[-35.54128,-7.72603],[-35.54325,-7.72656],[-35.54413,-7.72598],[-35.54413,-7.72343],[-35.54502,-7.72281],[-35.54689,-7.72302],[-35.54864,-7.72282],[-35.54928,-7.72218],[-35.54937,-7.72013],[-35.54845,-7.7172],[-35.55433,-7.71869],[-35.55665,-7.72069],[-35.5574,-7.72303],[-35.55951,-7.72272],[-35.56679,-7.72765],[-35.57181,-7.73395],[-35.5809,-7.73841],[-35.585,-7.742],[-35.58601,-7.74342],[-35.58276,-7.75599],[-35.57996,-7.76],[-35.57826,-7.76149],[-35.57657,-7.76332],[-35.57604,-7.76457],[-35.57643,-7.76586],[-35.57157,-7.76585],[-35.56708,-7.76411],[-35.56567,-7.76408],[-35.56054,-7.76171],[-35.55869,-7.76169],[-35.55625,-7.76108],[-35.55541,-7.7602],[-35.55461,-7.76009],[-35.54941,-7.7619],[-35.55034,-7.76394],[-35.55017,-7.76505],[-35.55049,-7.76756],[-35.55106,-7.7702],[-35.55054,-7.77286],[-35.5494,-7.77431],[-35.54998,-7.7755],[-35.54992,-7.77645],[-35.54833,-7.77598],[-35.5476,-7.77688],[-35.54715,-7.77821],[-35.54682,-7.78029],[-35.54509,-7.78022],[-35.54322,-7.77963],[-35.54117,-7.78008],[-35.53941,-7.78164],[-35.53813,-7.78199],[-35.537,-7.78286],[-35.53668,-7.7837],[-35.53292,-7.78403],[-35.53155,-7.78848],[-35.53153,-7.79136],[-35.53204,-7.79385],[-35.53087,-7.79496],[-35.52766,-7.79755],[-35.52492,-7.79959],[-35.52406,-7.80062],[-35.52147,-7.80134],[-35.52132,-7.80277],[-35.51955,-7.80225]]]},"properties":{"codigo":"260220910","name":"Bizarra","population":8490,"households":3901,"areaKm2":73.3651,"density":115.7}},{"type":"Feature","geometry":{"type":"Polygon","coordinates":[[[-35.62935,-7.81232],[-35.62941,-7.81373],[-35.62884,-7.81441],[-35.62872,-7.81656],[-35.62829,-7.81734],[-35.62806,-7.8193],[-35.62913,-7.82039],[-35.62919,-7.82158],[-35.62867,-7.82272],[-35.62951,-7.82453],[-35.63072,-7.82564],[-35.63191,-7.82714],[-35.63262,-7.82847],[-35.6359,-7.83174],[-35.63597,-7.83329],[-35.63668,-7.83439],[-35.63493,-7.83529],[-35.63135,-7.83672],[-35.62919,-7.83702],[-35.63073,-7.83772],[-35.63107,-7.83923],[-35.63073,-7.84016],[-35.59665,-7.83755],[-35.59595,-7.83727],[-35.59488,-7.83528],[-35.59319,-7.83516],[-35.59119,-7.83424],[-35.58931,-7.83409],[-35.5873,-7.83467],[-35.58541,-7.83378],[-35.58224,-7.83358],[-35.58106,-7.83377],[-35.57898,-7.83259],[-35.57698,-7.83187],[-35.57468,-7.83057],[-35.57416,-7.83142],[-35.57455,-7.83257],[-35.57307,-7.83231],[-35.57192,-7.83156],[-35.57111,-7.83165],[-35.57091,-7.83344],[-35.56944,-7.83404],[-35.56906,-7.8351],[-35.5668,-7.83307],[-35.56568,-7.83163],[-35.56221,-7.83063],[-35.56111,-7.82974],[-35.55962,-7.82931],[-35.55783,-7.82795],[-35.55708,-7.82771],[-35.55568,-7.82629],[-35.56758,-7.81987],[-35.56802,-7.81828],[-35.56993,-7.81741],[-35.57005,-7.8165],[-35.5717,-7.81488],[-35.57336,-7.81583],[-35.57418,-7.8159],[-35.57511,-7.81536],[-35.57588,-7.81421],[-35.57635,-7.81279],[-35.57707,-7.81166],[-35.57905,-7.80935],[-35.58017,-7.80876],[-35.58095,-7.80887],[-35.58295,-7.80973],[-35.58479,-7.80827],[-35.58659,-7.80838],[-35.5897,-7.807],[-35.59223,-7.8054],[-35.59323,-7.80676],[-35.59396,-7.80714],[-35.59785,-7.81049],[-35.59935,-7.81261],[-35.60222,-7.8146],[-35.60414,-7.81553],[-35.60503,-7.81692],[-35.60576,-7.81661],[-35.60664,-7.81709],[-35.60818,-7.81723],[-35.6094,-7.81841],[-35.61241,-7.81945],[-35.61629,-7.81991],[-35.6174,-7.81653],[-35.61743,-7.8147],[-35.61995,-7.81413],[-35.62291,-7.81328],[-35.62401,-7.81336],[-35.62565,-7.81255],[-35.62693,-7.81243],[-35.62781,-7.81272],[-35.62935,-7.81232]]]},"properties":{"codigo":"260220913","name":"Encruzilhada","population":4928,"households":2270,"areaKm2":19.1429,"density":257.4}},{"type":"Feature","geometry":{"type":"Polygon","coordinates":[[[-35.6102,-7.7812],[-35.61205,-7.78134],[-35.61402,-7.78236],[-35.61693,-7.77795],[-35.61957,-7.77726],[-35.61918,-7.77477],[-35.61704,-7.77404],[-35.61735,-7.77298],[-35.62143,-7.77341],[-35.6227,-7.77507],[-35.62348,-7.77221],[-35.62245,-7.77133],[-35.62413,-7.77023],[-35.62399,-7.76809],[-35.62694,-7.76902],[-35.62708,-7.76752],[-35.62592,-7.76705],[-35.62656,-7.76362],[-35.62681,-7.76343],[-35.62941,-7.76623],[-35.63144,-7.76186],[-35.63873,-7.75877],[-35.63964,-7.75783],[-35.644,-7.75971],[-35.65215,-7.75921],[-35.6535,-7.75739],[-35.6621,-7.75689],[-35.66369,-7.75502],[-35.66527,-7.75642],[-35.67014,-7.75638],[-35.67209,-7.76044],[-35.67099,-7.77577],[-35.70575,-7.77556],[-35.70588,-7.77712],[-35.70677,-7.78015],[-35.70764,-7.78117],[-35.70822,-7.78342],[-35.70781,-7.78651],[-35.70835,-7.78693],[-35.70968,-7.7903],[-35.71117,-7.79196],[-35.71071,-7.79392],[-35.71034,-7.79445],[-35.71056,-7.79588],[-35.70965,-7.79728],[-35.70996,-7.79888],[-35.70968,-7.79958],[-35.70951,-7.79921],[-35.70636,-7.79686],[-35.70496,-7.79621],[-35.70203,-7.79603],[-35.70053,-7.79553],[-35.6981,-7.79587],[-35.69691,-7.79507],[-35.69587,-7.79339],[-35.69375,-7.79252],[-35.69298,-7.79301],[-35.69219,-7.79269],[-35.69125,-7.79161],[-35.69103,-7.78973],[-35.68906,-7.78773],[-35.68412,-7.78742],[-35.68265,-7.78763],[-35.68157,-7.78825],[-35.68039,-7.78949],[-35.67732,-7.79037],[-35.67538,-7.79203],[-35.67511,-7.79303],[-35.67443,-7.79358],[-35.6744,-7.79475],[-35.67322,-7.79554],[-35.67112,-7.79611],[-35.67061,-7.79675],[-35.67099,-7.79916],[-35.67078,-7.8015],[-35.66979,-7.80154],[-35.66803,-7.8011],[-35.66584,-7.80161],[-35.66296,-7.80254],[-35.66181,-7.80328],[-35.66042,-7.80334],[-35.65818,-7.80245],[-35.65561,-7.8023],[-35.654,-7.80054],[-35.65179,-7.79971],[-35.65124,-7.80003],[-35.64912,-7.80281],[-35.6489,-7.80354],[-35.64683,-7.80486],[-35.64497,-7.80522],[-35.64411,-7.80569],[-35.6426,-7.80585],[-35.64109,-7.8068],[-35.63927,-7.80883],[-35.63839,-7.80952],[-35.63795,-7.80834],[-35.63627,-7.80667],[-35.63402,-7.80507],[-35.63278,-7.80547],[-35.63092,-7.80381],[-35.62878,-7.80325],[-35.6279,-7.80323],[-35.62674,-7.80186],[-35.62577,-7.79847],[-35.62467,-7.7977],[-35.62327,-7.79757],[-35.62158,-7.79798],[-35.61663,-7.79688],[-35.61567,-7.79624],[-35.61488,-7.79654],[-35.60542,-7.79478],[-35.59885,-7.7924],[-35.5998,-7.79159],[-35.60171,-7.79238],[-35.60355,-7.79274],[-35.60462,-7.79261],[-35.60571,-7.79137],[-35.60557,-7.78996],[-35.60913,-7.78699],[-35.60945,-7.78613],[-35.60918,-7.78515],[-35.61022,-7.78293],[-35.6102,-7.7812]]]},"properties":{"codigo":"260220915","name":"Tamboatá","population":3045,"households":1497,"areaKm2":36.8158,"density":82.7}},{"type":"Feature","geometry":{"type":"Polygon","coordinates":[[[-35.63839,-7.80952],[-35.63927,-7.80883],[-35.64109,-7.8068],[-35.6426,-7.80585],[-35.64411,-7.80569],[-35.64497,-7.80522],[-35.64683,-7.80486],[-35.6489,-7.80354],[-35.64912,-7.80281],[-35.65124,-7.80003],[-35.65179,-7.79971],[-35.654,-7.80054],[-35.65561,-7.8023],[-35.65818,-7.80245],[-35.66042,-7.80334],[-35.66181,-7.80328],[-35.66296,-7.80254],[-35.66584,-7.80161],[-35.66803,-7.8011],[-35.66979,-7.80154],[-35.67078,-7.8015],[-35.67099,-7.79916],[-35.67061,-7.79675],[-35.67112,-7.79611],[-35.67322,-7.79554],[-35.6744,-7.79475],[-35.67443,-7.79358],[-35.67511,-7.79303],[-35.67538,-7.79203],[-35.67732,-7.79037],[-35.68039,-7.78949],[-35.68157,-7.78825],[-35.68265,-7.78763],[-35.68412,-7.78742],[-35.68906,-7.78773],[-35.69103,-7.78973],[-35.69125,-7.79161],[-35.69219,-7.79269],[-35.69298,-7.79301],[-35.69375,-7.79252],[-35.69587,-7.79339],[-35.69691,-7.79507],[-35.6981,-7.79587],[-35.70053,-7.79553],[-35.70203,-7.79603],[-35.70496,-7.79621],[-35.70636,-7.79686],[-35.70951,-7.79921],[-35.70968,-7.79958],[-35.70941,-7.80024],[-35.70974,-7.80416],[-35.71084,-7.80539],[-35.71069,-7.80899],[-35.71116,-7.8099],[-35.71065,-7.81058],[-35.7113,-7.81168],[-35.71089,-7.81308],[-35.71217,-7.81466],[-35.7125,-7.81637],[-35.71065,-7.81746],[-35.70922,-7.81741],[-35.70873,-7.81785],[-35.70833,-7.81931],[-35.70847,-7.82155],[-35.7092,-7.82308],[-35.70904,-7.82872],[-35.70798,-7.8314],[-35.70613,-7.8328],[-35.70205,-7.83388],[-35.70138,-7.83445],[-35.70146,-7.83589],[-35.69952,-7.83764],[-35.69981,-7.83865],[-35.69934,-7.8405],[-35.69801,-7.84274],[-35.69791,-7.84388],[-35.6983,-7.84454],[-35.69985,-7.84507],[-35.70049,-7.8481],[-35.70002,-7.84841],[-35.69803,-7.8481],[-35.69733,-7.84744],[-35.69496,-7.84684],[-35.6943,-7.84794],[-35.69278,-7.84767],[-35.69188,-7.8472],[-35.68768,-7.84741],[-35.68762,-7.84676],[-35.68539,-7.84567],[-35.68332,-7.84419],[-35.63073,-7.84016],[-35.63107,-7.83923],[-35.63073,-7.83772],[-35.62919,-7.83702],[-35.63135,-7.83672],[-35.63493,-7.83529],[-35.63668,-7.83439],[-35.63597,-7.83329],[-35.6359,-7.83174],[-35.63262,-7.82847],[-35.63191,-7.82714],[-35.63072,-7.82564],[-35.62951,-7.82453],[-35.62867,-7.82272],[-35.62919,-7.82158],[-35.62913,-7.82039],[-35.62806,-7.8193],[-35.62829,-7.81734],[-35.62872,-7.81656],[-35.62884,-7.81441],[-35.62941,-7.81373],[-35.62935,-7.81232],[-35.63159,-7.81086],[-35.63336,-7.81041],[-35.63718,-7.8101],[-35.63839,-7.80952]]]},"properties":{"codigo":"260220920","name":"Umari","population":6832,"households":3160,"areaKm2":41.6477,"density":164}}]}