{"type":"FeatureCollection","features":[{"type":"Feature","geometry":{"type":"Polygon","coordinates":[[[-35.20961,-7.99516],[-35.20716,-7.99567],[-35.2066,-7.99576],[-35.20548,-7.99565],[-35.20542,-7.99412],[-35.20637,-7.99361],[-35.20584,-7.99119],[-35.20504,-7.99021],[-35.20467,-7.98944],[-35.20549,-7.98945],[-35.20614,-7.98911],[-35.20625,-7.98881],[-35.20729,-7.98878],[-35.20792,-7.98793],[-35.2083,-7.98786],[-35.20862,-7.98828],[-35.20761,-7.98911],[-35.20762,-7.98982],[-35.20787,-7.99007],[-35.20845,-7.98996],[-35.20886,-7.99064],[-35.20873,-7.99119],[-35.20823,-7.99149],[-35.20805,-7.99204],[-35.2083,-7.99298],[-35.20828,-7.99376],[-35.20885,-7.99402],[-35.20914,-7.99356],[-35.21123,-7.99371],[-35.21093,-7.99429],[-35.21097,-7.99503],[-35.20961,-7.99516]]]},"properties":{"codigo":"2604403007","name":"Matadouro","population":2183,"households":847,"areaKm2":0.2692,"density":8110.4}},{"type":"Feature","geometry":{"type":"Polygon","coordinates":[[[-35.21335,-8.00308],[-35.21232,-8.00084],[-35.21207,-7.9991],[-35.21232,-7.99906],[-35.21274,-7.99981],[-35.21304,-8.00072],[-35.21342,-8.00032],[-35.21408,-8.00045],[-35.21441,-8.00143],[-35.21441,-8.0021],[-35.21335,-8.00308]]]},"properties":{"codigo":"2604403005","name":"Guindaste","population":704,"households":272,"areaKm2":0.0527,"density":13346.8}},{"type":"Feature","geometry":{"type":"Polygon","coordinates":[[[-35.21097,-7.99503],[-35.21279,-7.99493],[-35.21242,-7.99611],[-35.21204,-7.99689],[-35.21191,-7.99782],[-35.21102,-7.99785],[-35.2112,-7.99722],[-35.21167,-7.99632],[-35.21123,-7.99597],[-35.20961,-7.99516],[-35.21097,-7.99503]]]},"properties":{"codigo":"2604403002","name":"Castelo Branco","population":601,"households":242,"areaKm2":0.0448,"density":13409.1}},{"type":"Feature","geometry":{"type":"Polygon","coordinates":[[[-35.21335,-8.00308],[-35.21224,-8.0043],[-35.2106,-8.00496],[-35.20832,-7.99936],[-35.21086,-7.99917],[-35.21204,-7.999],[-35.21207,-7.9991],[-35.21232,-8.00084],[-35.21335,-8.00308]]]},"properties":{"codigo":"2604403004","name":"Santa Luzia","population":1264,"households":481,"areaKm2":0.2142,"density":5900.4}},{"type":"Feature","geometry":{"type":"Polygon","coordinates":[[[-35.21123,-7.99371],[-35.21262,-7.99074],[-35.21354,-7.98808],[-35.21615,-7.98771],[-35.22004,-7.98729],[-35.21929,-7.98783],[-35.21873,-7.98876],[-35.21854,-7.98954],[-35.21504,-7.99364],[-35.2135,-7.99539],[-35.21279,-7.99493],[-35.21097,-7.99503],[-35.21093,-7.99429],[-35.21123,-7.99371]]]},"properties":{"codigo":"2604403006","name":"Maria Doralice Mascena","population":2354,"households":909,"areaKm2":0.4145,"density":5679.4}},{"type":"Feature","geometry":{"type":"Polygon","coordinates":[[[-35.20961,-7.99516],[-35.21123,-7.99597],[-35.21167,-7.99632],[-35.2112,-7.99722],[-35.21102,-7.99785],[-35.21191,-7.99782],[-35.21204,-7.999],[-35.21086,-7.99917],[-35.20832,-7.99936],[-35.20809,-7.99815],[-35.20753,-7.99807],[-35.20716,-7.99567],[-35.20961,-7.99516]]]},"properties":{"codigo":"2604403003","name":"Cruzeiro","population":1115,"households":444,"areaKm2":0.182,"density":6127.7}},{"type":"Feature","geometry":{"type":"Polygon","coordinates":[[[-35.21207,-7.9991],[-35.21204,-7.999],[-35.21191,-7.99782],[-35.21204,-7.99689],[-35.21242,-7.99611],[-35.21279,-7.99493],[-35.2135,-7.99539],[-35.21443,-7.99657],[-35.21535,-7.99748],[-35.2163,-7.99786],[-35.21654,-7.99889],[-35.21697,-7.99891],[-35.21709,-7.99978],[-35.21401,-7.99992],[-35.21408,-8.00045],[-35.21342,-8.00032],[-35.21304,-8.00072],[-35.21274,-7.99981],[-35.21232,-7.99906],[-35.21207,-7.9991]]]},"properties":{"codigo":"2604403001","name":"Centro","population":951,"households":393,"areaKm2":0.1924,"density":4942.7}}]}