{"type":"FeatureCollection","features":[{"type":"Feature","geometry":{"type":"Polygon","coordinates":[[[-35.96546,-8.27982],[-35.96516,-8.28016],[-35.96379,-8.28093],[-35.96301,-8.28174],[-35.96301,-8.28226],[-35.9633,-8.28302],[-35.96265,-8.28371],[-35.96202,-8.28335],[-35.96157,-8.28333],[-35.95987,-8.28363],[-35.95903,-8.28316],[-35.95774,-8.2831],[-35.95636,-8.28393],[-35.95554,-8.28475],[-35.95497,-8.28581],[-35.95423,-8.28605],[-35.95383,-8.28559],[-35.95315,-8.28473],[-35.95338,-8.28344],[-35.95401,-8.28234],[-35.95489,-8.28031],[-35.95563,-8.28074],[-35.95633,-8.28157],[-35.95687,-8.28201],[-35.95914,-8.28208],[-35.95993,-8.28219],[-35.96075,-8.28176],[-35.96228,-8.28002],[-35.96293,-8.27967],[-35.96374,-8.27952],[-35.96546,-8.27982]]]},"properties":{"codigo":"2604106004","name":"Riachão","population":5221,"households":2516,"areaKm2":0.3282,"density":15908.1}},{"type":"Feature","geometry":{"type":"Polygon","coordinates":[[[-35.95383,-8.28559],[-35.95347,-8.2878],[-35.95307,-8.28911],[-35.9508,-8.28873],[-35.95007,-8.28898],[-35.94859,-8.28733],[-35.94809,-8.28878],[-35.94883,-8.28975],[-35.94738,-8.29028],[-35.94672,-8.29159],[-35.94582,-8.29167],[-35.94493,-8.29198],[-35.94343,-8.29293],[-35.94255,-8.29366],[-35.94191,-8.29447],[-35.94096,-8.29612],[-35.94121,-8.2952],[-35.9413,-8.29413],[-35.94107,-8.29306],[-35.94077,-8.2924],[-35.94015,-8.29159],[-35.93684,-8.2883],[-35.93608,-8.28728],[-35.93562,-8.28634],[-35.93613,-8.28627],[-35.93705,-8.28556],[-35.93848,-8.28471],[-35.93952,-8.28461],[-35.93996,-8.28419],[-35.94029,-8.28291],[-35.94015,-8.28117],[-35.93968,-8.28065],[-35.93976,-8.2803],[-35.94059,-8.27937],[-35.94109,-8.27908],[-35.94182,-8.279],[-35.94332,-8.27981],[-35.94412,-8.28086],[-35.94439,-8.28145],[-35.94479,-8.28331],[-35.94528,-8.28382],[-35.94673,-8.28383],[-35.94744,-8.28318],[-35.94833,-8.28275],[-35.94893,-8.28274],[-35.95132,-8.28331],[-35.95234,-8.2844],[-35.95315,-8.28473],[-35.95383,-8.28559]]]},"properties":{"codigo":"2604106032","name":"DEPUTADO JOSÉ ANTÔNIO LIBERATO","population":12544,"households":5179,"areaKm2":1.6352,"density":7671.2}},{"type":"Feature","geometry":{"type":"Polygon","coordinates":[[[-35.98373,-8.2852],[-35.98353,-8.28458],[-35.98308,-8.28393],[-35.98178,-8.2829],[-35.98134,-8.28221],[-35.98122,-8.2813],[-35.98195,-8.27605],[-35.9832,-8.2756],[-35.98388,-8.27554],[-35.98468,-8.27571],[-35.98513,-8.27612],[-35.98466,-8.27666],[-35.98453,-8.27744],[-35.98403,-8.27775],[-35.98348,-8.27854],[-35.98281,-8.27911],[-35.98315,-8.27954],[-35.98276,-8.28081],[-35.98285,-8.28129],[-35.98272,-8.28254],[-35.98324,-8.28303],[-35.98479,-8.28283],[-35.9851,-8.283],[-35.98605,-8.28269],[-35.9867,-8.28267],[-35.9871,-8.28312],[-35.98711,-8.28353],[-35.98808,-8.28585],[-35.98846,-8.28628],[-35.98915,-8.2876],[-35.98817,-8.2884],[-35.98821,-8.2899],[-35.9868,-8.29007],[-35.98586,-8.29037],[-35.9851,-8.2908],[-35.98416,-8.28819],[-35.9839,-8.28706],[-35.98373,-8.2852]]]},"properties":{"codigo":"2604106011","name":"Caiuca","population":5297,"households":2500,"areaKm2":0.5582,"density":9489.5}},{"type":"Feature","geometry":{"type":"Polygon","coordinates":[[[-36.01036,-8.27851],[-36.00996,-8.2783],[-36.00251,-8.27887],[-36.00227,-8.27592],[-36.00198,-8.27577],[-36.00269,-8.27271],[-36.00358,-8.27149],[-36.00551,-8.26841],[-36.00727,-8.26864],[-36.00739,-8.26774],[-36.00614,-8.2676],[-36.00637,-8.26521],[-36.00696,-8.2656],[-36.00849,-8.26573],[-36.01081,-8.26613],[-36.01156,-8.26597],[-36.01301,-8.26625],[-36.0132,-8.26683],[-36.01394,-8.26687],[-36.01395,-8.26629],[-36.01465,-8.26632],[-36.01467,-8.26697],[-36.01744,-8.26692],[-36.01745,-8.26741],[-36.01836,-8.27089],[-36.01861,-8.27162],[-36.01769,-8.27207],[-36.01566,-8.27267],[-36.0145,-8.27339],[-36.01355,-8.27433],[-36.01147,-8.27703],[-36.01083,-8.27815],[-36.01036,-8.27851]]]},"properties":{"codigo":"2604106034","name":"JOSÉ CARLOS DE OLIVEIRA","population":14952,"households":6623,"areaKm2":1.7441,"density":8573}},{"type":"Feature","geometry":{"type":"Polygon","coordinates":[[[-35.99077,-8.27027],[-35.99011,-8.27016],[-35.98558,-8.27028],[-35.98551,-8.26959],[-35.98613,-8.26829],[-35.98687,-8.26699],[-35.98692,-8.26604],[-35.98742,-8.26483],[-35.98898,-8.26339],[-35.99033,-8.26236],[-35.99087,-8.26879],[-35.99077,-8.27027]]]},"properties":{"codigo":"2604106033","name":"JARDIM PANORAMA","population":4193,"households":1712,"areaKm2":0.3307,"density":12681}},{"type":"Feature","geometry":{"type":"Polygon","coordinates":[[[-35.98195,-8.27605],[-35.98224,-8.27381],[-35.9841,-8.27159],[-35.98551,-8.26959],[-35.98558,-8.27028],[-35.99011,-8.27016],[-35.99077,-8.27027],[-35.99117,-8.27031],[-35.99458,-8.26988],[-35.99167,-8.27438],[-35.99175,-8.27459],[-35.99204,-8.27726],[-35.99163,-8.27731],[-35.99167,-8.27831],[-35.99136,-8.27905],[-35.98974,-8.27963],[-35.98854,-8.2802],[-35.98774,-8.28035],[-35.98688,-8.27993],[-35.98548,-8.2783],[-35.98556,-8.27738],[-35.9854,-8.27655],[-35.98513,-8.27612],[-35.98468,-8.27571],[-35.98388,-8.27554],[-35.9832,-8.2756],[-35.98195,-8.27605]]]},"properties":{"codigo":"2604106017","name":"Boa Vista","population":9020,"households":3838,"areaKm2":0.947,"density":9524.9}},{"type":"Feature","geometry":{"type":"Polygon","coordinates":[[[-35.98195,-8.27605],[-35.98103,-8.27616],[-35.97949,-8.27599],[-35.97872,-8.27614],[-35.97692,-8.27739],[-35.97552,-8.27868],[-35.97387,-8.28124],[-35.97313,-8.28214],[-35.96933,-8.28321],[-35.96783,-8.2833],[-35.96662,-8.28273],[-35.96622,-8.28114],[-35.96544,-8.28007],[-35.96546,-8.27982],[-35.96604,-8.2794],[-35.96662,-8.27846],[-35.9668,-8.27779],[-35.96635,-8.27651],[-35.96648,-8.27596],[-35.96662,-8.27561],[-35.96652,-8.27388],[-35.96696,-8.27324],[-35.96832,-8.27212],[-35.96911,-8.27171],[-35.96947,-8.27046],[-35.96969,-8.26804],[-35.97076,-8.26516],[-35.97063,-8.26393],[-35.97123,-8.2623],[-35.97122,-8.26118],[-35.97145,-8.26055],[-35.97126,-8.25955],[-35.96969,-8.25877],[-35.96941,-8.25829],[-35.96914,-8.25721],[-35.96947,-8.25393],[-35.97448,-8.25258],[-35.97508,-8.25216],[-35.97614,-8.26209],[-35.97634,-8.26308],[-35.97677,-8.2641],[-35.98161,-8.27187],[-35.982,-8.27252],[-35.98224,-8.27381],[-35.98195,-8.27605]]]},"properties":{"codigo":"2604106010","name":"Maurício de Nassau","population":16766,"households":8304,"areaKm2":3.1457,"density":5329.9}},{"type":"Feature","geometry":{"type":"Polygon","coordinates":[[[-35.98809,-8.30022],[-35.98603,-8.3008],[-35.97953,-8.30235],[-35.97976,-8.30055],[-35.98039,-8.29649],[-35.98062,-8.29593],[-35.98009,-8.29459],[-35.97979,-8.2946],[-35.97955,-8.29392],[-35.98021,-8.29401],[-35.98074,-8.29373],[-35.98248,-8.29177],[-35.98385,-8.29112],[-35.9851,-8.2908],[-35.98569,-8.29246],[-35.98625,-8.29352],[-35.98776,-8.29576],[-35.98815,-8.29703],[-35.98818,-8.29786],[-35.98809,-8.30022]]]},"properties":{"codigo":"2604106039","name":"PINHEIRÓPOLIS","population":6046,"households":2807,"areaKm2":0.8337,"density":7252.2}},{"type":"Feature","geometry":{"type":"Polygon","coordinates":[[[-35.96042,-8.30078],[-35.95878,-8.29902],[-35.95671,-8.29678],[-35.95631,-8.29608],[-35.95612,-8.29413],[-35.95904,-8.29318],[-35.96276,-8.29205],[-35.96389,-8.29162],[-35.96614,-8.29099],[-35.96652,-8.2907],[-35.96836,-8.29134],[-35.96855,-8.2921],[-35.96809,-8.29307],[-35.96719,-8.29355],[-35.9655,-8.29332],[-35.96497,-8.29522],[-35.96435,-8.29639],[-35.9634,-8.29754],[-35.96291,-8.29931],[-35.96285,-8.30037],[-35.96252,-8.30098],[-35.96075,-8.30046],[-35.96042,-8.30078]]]},"properties":{"codigo":"2604106024","name":"Santa Rosa","population":9575,"households":4405,"areaKm2":0.7498,"density":12769.2}},{"type":"Feature","geometry":{"type":"Polygon","coordinates":[[[-35.95489,-8.28031],[-35.95398,-8.28026],[-35.95388,-8.2753],[-35.95285,-8.27539],[-35.95288,-8.27393],[-35.95391,-8.27387],[-35.95391,-8.27333],[-35.95262,-8.27326],[-35.95276,-8.27295],[-35.95295,-8.27089],[-35.95295,-8.26958],[-35.95284,-8.26717],[-35.9549,-8.26709],[-35.95489,-8.26578],[-35.95428,-8.26578],[-35.95369,-8.26542],[-35.9523,-8.26513],[-35.95135,-8.2637],[-35.9497,-8.26094],[-35.95043,-8.25953],[-35.95071,-8.25848],[-35.95194,-8.2554],[-35.95344,-8.25717],[-35.95414,-8.25765],[-35.9546,-8.25776],[-35.95479,-8.25879],[-35.95628,-8.26012],[-35.95725,-8.26127],[-35.96005,-8.26337],[-35.9614,-8.26739],[-35.96157,-8.26825],[-35.96152,-8.26903],[-35.96171,-8.26969],[-35.963,-8.27195],[-35.96408,-8.27357],[-35.96518,-8.27447],[-35.96648,-8.27596],[-35.96635,-8.27651],[-35.9668,-8.27779],[-35.96662,-8.27846],[-35.96604,-8.2794],[-35.96546,-8.27982],[-35.96374,-8.27952],[-35.96293,-8.27967],[-35.96228,-8.28002],[-35.96075,-8.28176],[-35.95993,-8.28219],[-35.95914,-8.28208],[-35.95687,-8.28201],[-35.95633,-8.28157],[-35.95563,-8.28074],[-35.95489,-8.28031]]]},"properties":{"codigo":"2604106013","name":"Salgado","population":35947,"households":15609,"areaKm2":2.657,"density":13529.2}},{"type":"Feature","geometry":{"type":"Polygon","coordinates":[[[-35.94641,-8.2736],[-35.94593,-8.27285],[-35.94675,-8.27166],[-35.947,-8.26992],[-35.94661,-8.26851],[-35.94587,-8.2671],[-35.9457,-8.26703],[-35.94221,-8.26699],[-35.94077,-8.26567],[-35.94084,-8.26258],[-35.93909,-8.26255],[-35.93663,-8.26215],[-35.93679,-8.26038],[-35.93537,-8.25958],[-35.93509,-8.2576],[-35.93765,-8.25828],[-35.9389,-8.25846],[-35.94117,-8.25861],[-35.9411,-8.25762],[-35.94067,-8.25719],[-35.93862,-8.25723],[-35.93865,-8.2556],[-35.93751,-8.25557],[-35.93746,-8.25536],[-35.93531,-8.25475],[-35.93564,-8.25334],[-35.93629,-8.25203],[-35.93548,-8.25136],[-35.93595,-8.25061],[-35.94012,-8.25072],[-35.93978,-8.24939],[-35.93911,-8.2492],[-35.93916,-8.24848],[-35.94046,-8.24725],[-35.94127,-8.24681],[-35.94202,-8.24817],[-35.9418,-8.25087],[-35.94178,-8.2528],[-35.94191,-8.25417],[-35.94277,-8.2586],[-35.94348,-8.26053],[-35.94427,-8.26246],[-35.94452,-8.26344],[-35.94459,-8.26445],[-35.94595,-8.26677],[-35.94694,-8.26854],[-35.94723,-8.26987],[-35.94719,-8.2709],[-35.94661,-8.2736],[-35.94641,-8.2736]]]},"properties":{"codigo":"2604106042","name":"SERRAS DO VALE","population":1082,"households":790,"areaKm2":1.1659,"density":928.1}},{"type":"Feature","geometry":{"type":"Polygon","coordinates":[[[-35.98551,-8.26959],[-35.9841,-8.27159],[-35.98224,-8.27381],[-35.982,-8.27252],[-35.98161,-8.27187],[-35.98208,-8.27116],[-35.98229,-8.26975],[-35.9836,-8.26773],[-35.98403,-8.26652],[-35.98401,-8.26547],[-35.98367,-8.26502],[-35.98348,-8.26395],[-35.98352,-8.26256],[-35.98394,-8.26249],[-35.98496,-8.26285],[-35.98515,-8.26308],[-35.98642,-8.26308],[-35.98857,-8.26225],[-35.98898,-8.26339],[-35.98742,-8.26483],[-35.98692,-8.26604],[-35.98687,-8.26699],[-35.98613,-8.26829],[-35.98551,-8.26959]]]},"properties":{"codigo":"2604106043","name":"SEVERINO AFONSO","population":4356,"households":1951,"areaKm2":0.3953,"density":11020.3}},{"type":"Feature","geometry":{"type":"Polygon","coordinates":[[[-35.99033,-8.26236],[-35.99112,-8.2618],[-35.99148,-8.26133],[-35.99322,-8.2584],[-35.99367,-8.25814],[-35.99671,-8.25631],[-35.99772,-8.25556],[-35.99941,-8.25813],[-35.99991,-8.25826],[-36.00033,-8.25868],[-36.0019,-8.25971],[-36.00211,-8.26006],[-36.00219,-8.26092],[-36.00311,-8.26],[-36.0045,-8.25925],[-36.0064,-8.25877],[-36.00805,-8.25846],[-36.01049,-8.25785],[-36.00964,-8.25921],[-36.00811,-8.26144],[-36.00774,-8.26179],[-36.00628,-8.26247],[-36.00532,-8.26351],[-36.00455,-8.26402],[-36.0034,-8.26473],[-36.00147,-8.26521],[-35.99894,-8.26694],[-35.99655,-8.2685],[-35.99532,-8.26948],[-35.99458,-8.26988],[-35.99117,-8.27031],[-35.99077,-8.27027],[-35.99087,-8.26879],[-35.99033,-8.26236]]]},"properties":{"codigo":"2604106028","name":"Jardim Boa Vista","population":2054,"households":844,"areaKm2":1.7598,"density":1167.2}},{"type":"Feature","geometry":{"type":"Polygon","coordinates":[[[-35.95398,-8.28026],[-35.95192,-8.2812],[-35.9511,-8.2811],[-35.94987,-8.28067],[-35.94961,-8.28082],[-35.94785,-8.2803],[-35.94712,-8.27997],[-35.9452,-8.2788],[-35.94459,-8.27829],[-35.94297,-8.27628],[-35.94274,-8.27613],[-35.94372,-8.27527],[-35.94464,-8.27467],[-35.94581,-8.27406],[-35.94638,-8.27409],[-35.94641,-8.2736],[-35.94661,-8.2736],[-35.95013,-8.27338],[-35.95049,-8.27294],[-35.9512,-8.27395],[-35.95159,-8.27394],[-35.95169,-8.27331],[-35.95262,-8.27326],[-35.95391,-8.27333],[-35.95391,-8.27387],[-35.95288,-8.27393],[-35.95285,-8.27539],[-35.95388,-8.2753],[-35.95398,-8.28026]]]},"properties":{"codigo":"2604106031","name":"CIDADE JARDIM","population":7118,"households":2860,"areaKm2":0.7825,"density":9096.6}},{"type":"Feature","geometry":{"type":"Polygon","coordinates":[[[-36.03538,-8.2924],[-36.03548,-8.29469],[-36.03638,-8.29528],[-36.03688,-8.29643],[-36.03693,-8.29686],[-36.03601,-8.29876],[-36.0355,-8.29939],[-36.035,-8.29969],[-36.03412,-8.29987],[-36.03266,-8.29991],[-36.03022,-8.29968],[-36.02923,-8.29984],[-36.02878,-8.29973],[-36.02803,-8.29844],[-36.02731,-8.29769],[-36.02566,-8.29748],[-36.02473,-8.29755],[-36.02349,-8.29801],[-36.02237,-8.2992],[-36.02192,-8.30058],[-36.02193,-8.30163],[-36.02122,-8.30106],[-36.01999,-8.3009],[-36.01897,-8.30138],[-36.01864,-8.29729],[-36.01829,-8.29588],[-36.01773,-8.29442],[-36.01789,-8.29377],[-36.01854,-8.29254],[-36.01858,-8.28989],[-36.01949,-8.28988],[-36.0208,-8.28944],[-36.02302,-8.28924],[-36.02437,-8.28941],[-36.02746,-8.29007],[-36.02717,-8.28865],[-36.02656,-8.28775],[-36.026,-8.28639],[-36.02586,-8.28501],[-36.02861,-8.2837],[-36.02937,-8.2835],[-36.03043,-8.28359],[-36.03215,-8.28418],[-36.0335,-8.28497],[-36.03362,-8.28553],[-36.03433,-8.28571],[-36.03551,-8.28641],[-36.03551,-8.28917],[-36.03583,-8.29038],[-36.03488,-8.29069],[-36.03538,-8.2924]]]},"properties":{"codigo":"2604106018","name":"Alto do Moura","population":4444,"households":2128,"areaKm2":2.6467,"density":1679.1}},{"type":"Feature","geometry":{"type":"Polygon","coordinates":[[[-35.9851,-8.2908],[-35.98385,-8.29112],[-35.98248,-8.29177],[-35.98074,-8.29373],[-35.98021,-8.29401],[-35.97955,-8.29392],[-35.97899,-8.29395],[-35.97833,-8.29361],[-35.97516,-8.29265],[-35.97439,-8.29208],[-35.97425,-8.29134],[-35.97465,-8.29031],[-35.97526,-8.29027],[-35.97497,-8.28933],[-35.97543,-8.28928],[-35.97553,-8.28861],[-35.97642,-8.28889],[-35.97688,-8.2874],[-35.97861,-8.28746],[-35.97859,-8.2869],[-35.97971,-8.28672],[-35.97979,-8.28493],[-35.98008,-8.2853],[-35.98373,-8.2852],[-35.9839,-8.28706],[-35.98416,-8.28819],[-35.9851,-8.2908]]]},"properties":{"codigo":"2604106016","name":"São Francisco","population":7857,"households":3862,"areaKm2":0.729,"density":10778.2}},{"type":"Feature","geometry":{"type":"MultiPolygon","coordinates":[[[[-35.98353,-8.32837],[-35.98255,-8.33034],[-35.98198,-8.33197],[-35.98055,-8.33523],[-35.98043,-8.33602],[-35.98066,-8.33679],[-35.97974,-8.33713],[-35.978,-8.33751],[-35.97774,-8.33577],[-35.97712,-8.3342],[-35.97658,-8.3321],[-35.97601,-8.3311],[-35.97602,-8.3299],[-35.9749,-8.3294],[-35.97491,-8.32919],[-35.97617,-8.32875],[-35.97685,-8.3291],[-35.97826,-8.32723],[-35.97833,-8.32532],[-35.98041,-8.32489],[-35.98178,-8.32514],[-35.98205,-8.32608],[-35.98291,-8.32756],[-35.98353,-8.32837]]],[[[-35.9713,-8.31042],[-35.97031,-8.31258],[-35.96956,-8.31299],[-35.96921,-8.31297],[-35.96918,-8.31414],[-35.96709,-8.31503],[-35.96681,-8.31434],[-35.96579,-8.31299],[-35.96472,-8.31176],[-35.96416,-8.3107],[-35.96384,-8.3104],[-35.96239,-8.3112],[-35.96207,-8.31125],[-35.95958,-8.30816],[-35.95916,-8.30746],[-35.95826,-8.30768],[-35.95787,-8.30853],[-35.95761,-8.30954],[-35.95762,-8.31146],[-35.95783,-8.31181],[-35.95915,-8.31258],[-35.96097,-8.31228],[-35.96111,-8.31512],[-35.96188,-8.31784],[-35.96188,-8.32018],[-35.96068,-8.32012],[-35.96069,-8.32176],[-35.95896,-8.32205],[-35.95574,-8.31879],[-35.95526,-8.31826],[-35.95592,-8.31682],[-35.95654,-8.31457],[-35.9568,-8.31262],[-35.95737,-8.30932],[-35.9579,-8.30779],[-35.95707,-8.30797],[-35.95664,-8.30783],[-35.96125,-8.30673],[-35.96308,-8.30621],[-35.96501,-8.30575],[-35.96749,-8.30845],[-35.96841,-8.3091],[-35.9713,-8.31042]]]]},"properties":{"codigo":"2604106025","name":"Verde","population":1920,"households":785,"areaKm2":1.9263,"density":996.7}},{"type":"Feature","geometry":{"type":"Polygon","coordinates":[[[-35.94672,-8.29159],[-35.94594,-8.2931],[-35.9476,-8.29412],[-35.94629,-8.2962],[-35.94704,-8.29631],[-35.9502,-8.29643],[-35.95014,-8.30011],[-35.9507,-8.30037],[-35.95209,-8.30072],[-35.95476,-8.30104],[-35.95688,-8.29983],[-35.95851,-8.29904],[-35.95878,-8.29902],[-35.96042,-8.30078],[-35.96501,-8.30575],[-35.96308,-8.30621],[-35.96125,-8.30673],[-35.95664,-8.30783],[-35.9556,-8.30808],[-35.95498,-8.30747],[-35.95406,-8.30686],[-35.95324,-8.30727],[-35.95284,-8.30716],[-35.95235,-8.30754],[-35.95146,-8.30774],[-35.95116,-8.30685],[-35.94962,-8.30593],[-35.94827,-8.30599],[-35.9478,-8.30574],[-35.94679,-8.30472],[-35.94637,-8.30415],[-35.94595,-8.30469],[-35.94529,-8.30514],[-35.94495,-8.30464],[-35.94397,-8.30437],[-35.94284,-8.30377],[-35.94216,-8.30266],[-35.94226,-8.30184],[-35.94295,-8.30148],[-35.94365,-8.30079],[-35.94346,-8.30031],[-35.94257,-8.30001],[-35.94177,-8.29923],[-35.94146,-8.2985],[-35.94101,-8.29813],[-35.94036,-8.29819],[-35.93998,-8.29795],[-35.94096,-8.29612],[-35.94191,-8.29447],[-35.94255,-8.29366],[-35.94343,-8.29293],[-35.94493,-8.29198],[-35.94582,-8.29167],[-35.94672,-8.29159]]]},"properties":{"codigo":"2604106035","name":"MANOEL BEZERRA LOPES (NEZINHO DA CIPAN)","population":2993,"households":1955,"areaKm2":2.1491,"density":1392.7}},{"type":"Feature","geometry":{"type":"Polygon","coordinates":[[[-35.98134,-8.28221],[-35.9781,-8.28214],[-35.97702,-8.28195],[-35.9757,-8.28233],[-35.97514,-8.28228],[-35.97387,-8.28124],[-35.97552,-8.27868],[-35.97692,-8.27739],[-35.97872,-8.27614],[-35.97949,-8.27599],[-35.98103,-8.27616],[-35.98195,-8.27605],[-35.98122,-8.2813],[-35.98134,-8.28221]]]},"properties":{"codigo":"2604106007","name":"Divinópolis","population":5526,"households":2741,"areaKm2":0.4345,"density":12719.1}},{"type":"Feature","geometry":{"type":"Polygon","coordinates":[[[-35.98513,-8.27612],[-35.9854,-8.27655],[-35.98556,-8.27738],[-35.98548,-8.2783],[-35.98688,-8.27993],[-35.98774,-8.28035],[-35.98854,-8.2802],[-35.98974,-8.27963],[-35.99136,-8.27905],[-35.99138,-8.27917],[-35.99095,-8.27937],[-35.99112,-8.2812],[-35.98793,-8.2821],[-35.98744,-8.28291],[-35.9871,-8.28312],[-35.9867,-8.28267],[-35.98605,-8.28269],[-35.9851,-8.283],[-35.98479,-8.28283],[-35.98324,-8.28303],[-35.98272,-8.28254],[-35.98285,-8.28129],[-35.98276,-8.28081],[-35.98315,-8.27954],[-35.98281,-8.27911],[-35.98348,-8.27854],[-35.98403,-8.27775],[-35.98453,-8.27744],[-35.98466,-8.27666],[-35.98513,-8.27612]]]},"properties":{"codigo":"2604106005","name":"João Mota","population":4446,"households":2029,"areaKm2":0.3347,"density":13283.6}},{"type":"Feature","geometry":{"type":"Polygon","coordinates":[[[-35.97953,-8.30235],[-35.97193,-8.30416],[-35.97187,-8.30348],[-35.97255,-8.30279],[-35.97186,-8.30268],[-35.97169,-8.3034],[-35.97085,-8.30307],[-35.97046,-8.30247],[-35.97062,-8.30128],[-35.97103,-8.30084],[-35.97118,-8.29936],[-35.97149,-8.29893],[-35.97099,-8.29762],[-35.97006,-8.29324],[-35.97011,-8.29274],[-35.97135,-8.29284],[-35.97114,-8.29223],[-35.97099,-8.29109],[-35.96986,-8.29058],[-35.96899,-8.29066],[-35.96925,-8.28992],[-35.96934,-8.289],[-35.96959,-8.28812],[-35.9701,-8.28764],[-35.97109,-8.28769],[-35.97281,-8.28839],[-35.97388,-8.28833],[-35.97435,-8.2888],[-35.97466,-8.28976],[-35.97465,-8.29031],[-35.97425,-8.29134],[-35.97439,-8.29208],[-35.97516,-8.29265],[-35.97833,-8.29361],[-35.97899,-8.29395],[-35.97955,-8.29392],[-35.97979,-8.2946],[-35.98009,-8.29459],[-35.98062,-8.29593],[-35.98039,-8.29649],[-35.97976,-8.30055],[-35.97953,-8.30235]]]},"properties":{"codigo":"2604106015","name":"Petrópolis","population":7863,"households":3590,"areaKm2":1.3951,"density":5636.2}},{"type":"Feature","geometry":{"type":"Polygon","coordinates":[[[-35.9871,-8.28312],[-35.98744,-8.28291],[-35.98793,-8.2821],[-35.99112,-8.2812],[-35.99095,-8.27937],[-35.99138,-8.27917],[-35.99336,-8.2786],[-35.99521,-8.27926],[-35.99688,-8.27878],[-35.99715,-8.27804],[-35.99769,-8.2773],[-35.99758,-8.27637],[-35.99808,-8.27577],[-35.99855,-8.27601],[-36.00176,-8.27599],[-36.00198,-8.27577],[-36.00227,-8.27592],[-36.00251,-8.27887],[-36.00996,-8.2783],[-36.01036,-8.27851],[-36.00966,-8.27915],[-36.00894,-8.28067],[-36.01005,-8.28079],[-36.01241,-8.28173],[-36.02343,-8.27885],[-36.02389,-8.28056],[-36.01516,-8.28287],[-36.01613,-8.2833],[-36.01545,-8.28385],[-36.0157,-8.28488],[-36.01669,-8.2848],[-36.01703,-8.28509],[-36.01939,-8.28521],[-36.02073,-8.28536],[-36.02066,-8.28574],[-36.0179,-8.28544],[-36.01662,-8.28569],[-36.01398,-8.2868],[-36.01337,-8.28693],[-36.01242,-8.28651],[-36.0094,-8.28561],[-36.00868,-8.28545],[-36.00849,-8.28821],[-36.00598,-8.28777],[-36.00631,-8.28921],[-36.0071,-8.29167],[-36.00667,-8.29455],[-36.00455,-8.29439],[-36.00365,-8.29446],[-36.00313,-8.29561],[-36.00283,-8.29588],[-36.00252,-8.29711],[-36.00231,-8.30076],[-36.00126,-8.30085],[-36.00014,-8.30018],[-35.99911,-8.30006],[-35.99787,-8.30009],[-35.99718,-8.29976],[-35.99638,-8.29985],[-35.99554,-8.29974],[-35.99333,-8.29916],[-35.99272,-8.29875],[-35.9927,-8.2979],[-35.99355,-8.29673],[-35.99416,-8.29483],[-35.99431,-8.29331],[-35.9943,-8.29205],[-35.99416,-8.29127],[-35.99369,-8.2898],[-35.99288,-8.28834],[-35.99228,-8.288],[-35.9919,-8.28813],[-35.9911,-8.28916],[-35.99035,-8.2896],[-35.98978,-8.28961],[-35.98821,-8.2899],[-35.98817,-8.2884],[-35.98915,-8.2876],[-35.98846,-8.28628],[-35.98808,-8.28585],[-35.98711,-8.28353],[-35.9871,-8.28312]]]},"properties":{"codigo":"2604106021","name":"Presidente Kennedy","population":23043,"households":10079,"areaKm2":4.7529,"density":4848.2}},{"type":"Feature","geometry":{"type":"Polygon","coordinates":[[[-35.95262,-8.27326],[-35.95169,-8.27331],[-35.95159,-8.27394],[-35.9512,-8.27395],[-35.95049,-8.27294],[-35.95013,-8.27338],[-35.94661,-8.2736],[-35.94719,-8.2709],[-35.94723,-8.26987],[-35.94694,-8.26854],[-35.94595,-8.26677],[-35.94682,-8.26629],[-35.94722,-8.26547],[-35.94742,-8.26424],[-35.94788,-8.2638],[-35.94892,-8.26231],[-35.9497,-8.26094],[-35.95135,-8.2637],[-35.9523,-8.26513],[-35.95369,-8.26542],[-35.95428,-8.26578],[-35.95489,-8.26578],[-35.9549,-8.26709],[-35.95284,-8.26717],[-35.95295,-8.26958],[-35.95295,-8.27089],[-35.95276,-8.27295],[-35.95262,-8.27326]]]},"properties":{"codigo":"2604106040","name":"SÃO JOÃO DA ESCÓCIA","population":8754,"households":3522,"areaKm2":0.7805,"density":11216.4}},{"type":"Feature","geometry":{"type":"Polygon","coordinates":[[[-35.98809,-8.30022],[-35.98834,-8.30299],[-35.98912,-8.30631],[-35.98993,-8.30854],[-35.99107,-8.31363],[-35.99123,-8.31505],[-35.99122,-8.31825],[-35.99126,-8.32033],[-35.99111,-8.32105],[-35.99061,-8.3218],[-35.98713,-8.32509],[-35.98502,-8.32692],[-35.98353,-8.32837],[-35.98291,-8.32756],[-35.98205,-8.32608],[-35.98178,-8.32514],[-35.98117,-8.32168],[-35.97986,-8.31821],[-35.97927,-8.31753],[-35.97658,-8.31615],[-35.97605,-8.31566],[-35.97378,-8.31178],[-35.9734,-8.3114],[-35.9713,-8.31042],[-35.96841,-8.3091],[-35.96749,-8.30845],[-35.96501,-8.30575],[-35.9675,-8.30515],[-35.96889,-8.3049],[-35.97193,-8.30416],[-35.97953,-8.30235],[-35.98603,-8.3008],[-35.98809,-8.30022]]]},"properties":{"codigo":"2604106022","name":"Cidade Alta","population":8541,"households":3674,"areaKm2":4.3856,"density":1947.5}},{"type":"Feature","geometry":{"type":"Polygon","coordinates":[[[-35.98373,-8.2852],[-35.98008,-8.2853],[-35.97979,-8.28493],[-35.97984,-8.28377],[-35.97805,-8.28322],[-35.9766,-8.283],[-35.9757,-8.28347],[-35.97535,-8.28249],[-35.9757,-8.28233],[-35.97702,-8.28195],[-35.9781,-8.28214],[-35.98134,-8.28221],[-35.98178,-8.2829],[-35.98308,-8.28393],[-35.98353,-8.28458],[-35.98373,-8.2852]]]},"properties":{"codigo":"2604106006","name":"Centenário","population":3416,"households":1612,"areaKm2":0.1671,"density":20438.5}},{"type":"Feature","geometry":{"type":"MultiPolygon","coordinates":[[[[-35.97508,-8.25216],[-35.975,-8.25078],[-35.9751,-8.24856],[-35.9751,-8.24563],[-35.97532,-8.24313],[-35.9755,-8.23865],[-35.97559,-8.2373],[-35.97606,-8.23586],[-35.97693,-8.23415],[-35.97849,-8.23073],[-35.97874,-8.22943],[-35.97866,-8.22896],[-35.97784,-8.22631],[-35.97806,-8.22597],[-35.98018,-8.22509],[-35.98319,-8.22397],[-35.98434,-8.22374],[-35.98543,-8.22375],[-35.98649,-8.22388],[-35.98813,-8.22395],[-35.98838,-8.2242],[-35.98888,-8.22586],[-35.9889,-8.22643],[-35.9892,-8.2274],[-35.98892,-8.22892],[-35.98893,-8.22961],[-35.988,-8.23203],[-35.98747,-8.2337],[-35.98651,-8.2352],[-35.98583,-8.23656],[-35.98555,-8.23943],[-35.98461,-8.24224],[-35.98446,-8.24361],[-35.98428,-8.24415],[-35.98279,-8.2458],[-35.98233,-8.24735],[-35.98161,-8.24916],[-35.98158,-8.25105],[-35.98176,-8.25121],[-35.98339,-8.25359],[-35.98392,-8.25399],[-35.98409,-8.25457],[-35.98485,-8.25461],[-35.98517,-8.25517],[-35.98665,-8.25634],[-35.98674,-8.25687],[-35.98464,-8.25794],[-35.98408,-8.25911],[-35.98452,-8.25969],[-35.98449,-8.26082],[-35.98423,-8.26126],[-35.98331,-8.26147],[-35.98325,-8.26187],[-35.98394,-8.26249],[-35.98352,-8.26256],[-35.98348,-8.26395],[-35.98367,-8.26502],[-35.98401,-8.26547],[-35.98403,-8.26652],[-35.9836,-8.26773],[-35.98229,-8.26975],[-35.98208,-8.27116],[-35.98161,-8.27187],[-35.97677,-8.2641],[-35.97634,-8.26308],[-35.97614,-8.26209],[-35.97508,-8.25216]]],[[[-35.99148,-8.26133],[-35.99044,-8.26137],[-35.99014,-8.26039],[-35.98868,-8.25879],[-35.98819,-8.25798],[-35.98819,-8.25643],[-35.99387,-8.25499],[-35.99384,-8.25623],[-35.99355,-8.25625],[-35.99367,-8.25814],[-35.99322,-8.2584],[-35.99148,-8.26133]]],[[[-35.97165,-8.21028],[-35.97102,-8.21042],[-35.96824,-8.21048],[-35.96832,-8.20784],[-35.96828,-8.20554],[-35.97051,-8.2086],[-35.97131,-8.20958],[-35.97165,-8.21028]]]]},"properties":{"codigo":"2604106019","name":"Nova Caruaru","population":7674,"households":3185,"areaKm2":5.1525,"density":1489.4}},{"type":"Feature","geometry":{"type":"Polygon","coordinates":[[[-36.03522,-8.27208],[-36.03493,-8.27258],[-36.03388,-8.27196],[-36.03248,-8.27441],[-36.03241,-8.27477],[-36.03244,-8.27675],[-36.03273,-8.27872],[-36.03306,-8.27986],[-36.03149,-8.27987],[-36.03148,-8.27852],[-36.03099,-8.27807],[-36.0295,-8.27808],[-36.02939,-8.27677],[-36.0291,-8.27541],[-36.02998,-8.27496],[-36.03039,-8.2745],[-36.03107,-8.27447],[-36.03105,-8.27342],[-36.02993,-8.27184],[-36.02996,-8.27138],[-36.02884,-8.27121],[-36.02888,-8.26992],[-36.02856,-8.26784],[-36.02913,-8.26773],[-36.03073,-8.2677],[-36.03352,-8.26706],[-36.03575,-8.26623],[-36.03683,-8.26644],[-36.03908,-8.2677],[-36.03871,-8.26852],[-36.03896,-8.2688],[-36.03904,-8.26961],[-36.03795,-8.27009],[-36.03688,-8.27039],[-36.03698,-8.27071],[-36.03658,-8.27192],[-36.03522,-8.27208]]]},"properties":{"codigo":"2604106037","name":"NINA LIBERATO","population":1961,"households":1104,"areaKm2":0.782,"density":2507.6}},{"type":"Feature","geometry":{"type":"Polygon","coordinates":[[[-35.96836,-8.29134],[-35.96899,-8.29066],[-35.96986,-8.29058],[-35.97099,-8.29109],[-35.97114,-8.29223],[-35.97135,-8.29284],[-35.97011,-8.29274],[-35.97006,-8.29324],[-35.97099,-8.29762],[-35.97149,-8.29893],[-35.97118,-8.29936],[-35.97103,-8.30084],[-35.97062,-8.30128],[-35.97046,-8.30247],[-35.97085,-8.30307],[-35.97169,-8.3034],[-35.97186,-8.30268],[-35.97255,-8.30279],[-35.97187,-8.30348],[-35.97193,-8.30416],[-35.96889,-8.3049],[-35.9675,-8.30515],[-35.96501,-8.30575],[-35.96042,-8.30078],[-35.96075,-8.30046],[-35.96252,-8.30098],[-35.96285,-8.30037],[-35.96291,-8.29931],[-35.9634,-8.29754],[-35.96435,-8.29639],[-35.96497,-8.29522],[-35.9655,-8.29332],[-35.96719,-8.29355],[-35.96809,-8.29307],[-35.96855,-8.2921],[-35.96836,-8.29134]]]},"properties":{"codigo":"2604106002","name":"Vassoural","population":16523,"households":6806,"areaKm2":1.1511,"density":14353.5}},{"type":"Feature","geometry":{"type":"Polygon","coordinates":[[[-35.96546,-8.27982],[-35.96544,-8.28007],[-35.96622,-8.28114],[-35.96662,-8.28273],[-35.96783,-8.2833],[-35.96933,-8.28321],[-35.97313,-8.28214],[-35.97387,-8.28124],[-35.97514,-8.28228],[-35.9757,-8.28233],[-35.97535,-8.28249],[-35.9757,-8.28347],[-35.97492,-8.28392],[-35.97448,-8.28392],[-35.97422,-8.28507],[-35.9742,-8.28592],[-35.97491,-8.28674],[-35.97688,-8.2874],[-35.97642,-8.28889],[-35.97553,-8.28861],[-35.97543,-8.28928],[-35.97497,-8.28933],[-35.97526,-8.29027],[-35.97465,-8.29031],[-35.97466,-8.28976],[-35.97435,-8.2888],[-35.97388,-8.28833],[-35.97281,-8.28839],[-35.97109,-8.28769],[-35.9701,-8.28764],[-35.96959,-8.28812],[-35.96934,-8.289],[-35.96925,-8.28992],[-35.96899,-8.29066],[-35.96836,-8.29134],[-35.96652,-8.2907],[-35.96537,-8.29007],[-35.96495,-8.28941],[-35.96468,-8.28791],[-35.96388,-8.28635],[-35.96381,-8.28595],[-35.96309,-8.28427],[-35.96265,-8.28371],[-35.9633,-8.28302],[-35.96301,-8.28226],[-35.96301,-8.28174],[-35.96379,-8.28093],[-35.96516,-8.28016],[-35.96546,-8.27982]]]},"properties":{"codigo":"2604106009","name":"Nossa Senhora das Dores","population":5838,"households":3845,"areaKm2":1.0148,"density":5753}},{"type":"Feature","geometry":{"type":"Polygon","coordinates":[[[-36.00198,-8.27577],[-36.00176,-8.27599],[-35.99855,-8.27601],[-35.99808,-8.27577],[-35.99758,-8.27637],[-35.99769,-8.2773],[-35.99715,-8.27804],[-35.99688,-8.27878],[-35.99521,-8.27926],[-35.99336,-8.2786],[-35.99138,-8.27917],[-35.99136,-8.27905],[-35.99167,-8.27831],[-35.99163,-8.27731],[-35.99204,-8.27726],[-35.99175,-8.27459],[-35.99167,-8.27438],[-35.99458,-8.26988],[-35.99532,-8.26948],[-35.99655,-8.2685],[-35.99894,-8.26694],[-36.00147,-8.26521],[-36.0034,-8.26473],[-36.00455,-8.26402],[-36.00637,-8.26521],[-36.00614,-8.2676],[-36.00739,-8.26774],[-36.00727,-8.26864],[-36.00551,-8.26841],[-36.00358,-8.27149],[-36.00269,-8.27271],[-36.00198,-8.27577]]]},"properties":{"codigo":"2604106036","name":"MARIA AUXILIADORA","population":6742,"households":3055,"areaKm2":1.4478,"density":4656.6}},{"type":"Feature","geometry":{"type":"MultiPolygon","coordinates":[[[[-35.96947,-8.25393],[-35.96517,-8.25509],[-35.96461,-8.25406],[-35.96381,-8.25292],[-35.96287,-8.25189],[-35.96274,-8.25034],[-35.9627,-8.24796],[-35.96389,-8.24771],[-35.96433,-8.24743],[-35.96606,-8.24687],[-35.96662,-8.24814],[-35.97102,-8.24652],[-35.97129,-8.24418],[-35.97134,-8.24082],[-35.97144,-8.23836],[-35.97126,-8.23633],[-35.97427,-8.23585],[-35.97417,-8.23479],[-35.974,-8.2344],[-35.97385,-8.23266],[-35.97346,-8.23103],[-35.97339,-8.22973],[-35.9724,-8.22268],[-35.97224,-8.22117],[-35.97261,-8.2209],[-35.97422,-8.22047],[-35.97563,-8.22027],[-35.97598,-8.22146],[-35.97718,-8.22427],[-35.97784,-8.22631],[-35.97866,-8.22896],[-35.97874,-8.22943],[-35.97849,-8.23073],[-35.97693,-8.23415],[-35.97606,-8.23586],[-35.97559,-8.2373],[-35.9755,-8.23865],[-35.97532,-8.24313],[-35.9751,-8.24563],[-35.9751,-8.24856],[-35.975,-8.25078],[-35.97508,-8.25216],[-35.97448,-8.25258],[-35.96947,-8.25393]]],[[[-35.95414,-8.25765],[-35.95437,-8.25674],[-35.95445,-8.25527],[-35.95458,-8.25094],[-35.95435,-8.24948],[-35.95485,-8.24898],[-35.95523,-8.2483],[-35.95665,-8.24852],[-35.9566,-8.25122],[-35.95773,-8.25129],[-35.95832,-8.25163],[-35.95807,-8.25231],[-35.95773,-8.25641],[-35.95786,-8.25707],[-35.95567,-8.25767],[-35.9546,-8.25776],[-35.95414,-8.25765]]]]},"properties":{"codigo":"2604106027","name":"Luiz Gonzaga","population":3707,"households":1757,"areaKm2":2.6378,"density":1405.3}},{"type":"Feature","geometry":{"type":"Polygon","coordinates":[[[-35.96265,-8.28371],[-35.96309,-8.28427],[-35.96381,-8.28595],[-35.96388,-8.28635],[-35.96468,-8.28791],[-35.96495,-8.28941],[-35.96537,-8.29007],[-35.96652,-8.2907],[-35.96614,-8.29099],[-35.96389,-8.29162],[-35.96276,-8.29205],[-35.95904,-8.29318],[-35.95612,-8.29413],[-35.95631,-8.29608],[-35.95671,-8.29678],[-35.95878,-8.29902],[-35.95851,-8.29904],[-35.95688,-8.29983],[-35.95476,-8.30104],[-35.95209,-8.30072],[-35.9507,-8.30037],[-35.95014,-8.30011],[-35.9502,-8.29643],[-35.94704,-8.29631],[-35.94629,-8.2962],[-35.9476,-8.29412],[-35.94594,-8.2931],[-35.94672,-8.29159],[-35.94738,-8.29028],[-35.94883,-8.28975],[-35.94809,-8.28878],[-35.94859,-8.28733],[-35.95007,-8.28898],[-35.9508,-8.28873],[-35.95307,-8.28911],[-35.95347,-8.2878],[-35.95383,-8.28559],[-35.95423,-8.28605],[-35.95497,-8.28581],[-35.95554,-8.28475],[-35.95636,-8.28393],[-35.95774,-8.2831],[-35.95903,-8.28316],[-35.95987,-8.28363],[-35.96157,-8.28333],[-35.96202,-8.28335],[-35.96265,-8.28371]]]},"properties":{"codigo":"2604106008","name":"Indianópolis","population":8928,"households":4832,"areaKm2":2.2779,"density":3919.5}},{"type":"Feature","geometry":{"type":"Polygon","coordinates":[[[-35.97688,-8.2874],[-35.97491,-8.28674],[-35.9742,-8.28592],[-35.97422,-8.28507],[-35.97448,-8.28392],[-35.97492,-8.28392],[-35.9757,-8.28347],[-35.9766,-8.283],[-35.97805,-8.28322],[-35.97984,-8.28377],[-35.97979,-8.28493],[-35.97971,-8.28672],[-35.97859,-8.2869],[-35.97861,-8.28746],[-35.97688,-8.2874]]]},"properties":{"codigo":"2604106012","name":"Morro do Bom Jesus","population":3596,"households":1849,"areaKm2":0.245,"density":14680.3}},{"type":"Feature","geometry":{"type":"MultiPolygon","coordinates":[[[[-35.96648,-8.27596],[-35.96518,-8.27447],[-35.96408,-8.27357],[-35.963,-8.27195],[-35.96171,-8.26969],[-35.96152,-8.26903],[-35.96157,-8.26825],[-35.9614,-8.26739],[-35.96005,-8.26337],[-35.95725,-8.26127],[-35.95628,-8.26012],[-35.95479,-8.25879],[-35.9546,-8.25776],[-35.95567,-8.25767],[-35.95786,-8.25707],[-35.96517,-8.25509],[-35.96947,-8.25393],[-35.96914,-8.25721],[-35.96941,-8.25829],[-35.96969,-8.25877],[-35.97126,-8.25955],[-35.97145,-8.26055],[-35.97122,-8.26118],[-35.97123,-8.2623],[-35.97063,-8.26393],[-35.97076,-8.26516],[-35.96969,-8.26804],[-35.96947,-8.27046],[-35.96911,-8.27171],[-35.96832,-8.27212],[-35.96696,-8.27324],[-35.96652,-8.27388],[-35.96662,-8.27561],[-35.96648,-8.27596]]],[[[-35.95194,-8.2554],[-35.9512,-8.25462],[-35.94913,-8.25272],[-35.94946,-8.25123],[-35.94858,-8.25121],[-35.94828,-8.25097],[-35.94842,-8.25011],[-35.9477,-8.24797],[-35.94826,-8.2463],[-35.94978,-8.2462],[-35.95291,-8.24568],[-35.9529,-8.24487],[-35.95306,-8.24203],[-35.9533,-8.23979],[-35.9532,-8.23839],[-35.95284,-8.23638],[-35.95507,-8.23591],[-35.95768,-8.23566],[-35.95748,-8.23979],[-35.95725,-8.24123],[-35.95689,-8.24247],[-35.9568,-8.2433],[-35.95687,-8.24481],[-35.95665,-8.24852],[-35.95523,-8.2483],[-35.95485,-8.24898],[-35.95435,-8.24948],[-35.95458,-8.25094],[-35.95445,-8.25527],[-35.95437,-8.25674],[-35.95414,-8.25765],[-35.95344,-8.25717],[-35.95194,-8.2554]]]]},"properties":{"codigo":"2604106014","name":"Universitário","population":11362,"households":6308,"areaKm2":3.5353,"density":3213.9}},{"type":"Feature","geometry":{"type":"Polygon","coordinates":[[[-35.927,-8.27332],[-35.92772,-8.27123],[-35.93143,-8.27213],[-35.93187,-8.27216],[-35.93234,-8.26833],[-35.93668,-8.26843],[-35.93661,-8.27052],[-35.93721,-8.2707],[-35.93753,-8.27124],[-35.93834,-8.27182],[-35.93741,-8.27297],[-35.93671,-8.27453],[-35.93804,-8.27512],[-35.93881,-8.27556],[-35.94004,-8.27597],[-35.94129,-8.27623],[-35.94065,-8.27686],[-35.94016,-8.27759],[-35.93958,-8.27803],[-35.93901,-8.27807],[-35.93766,-8.27771],[-35.9365,-8.27778],[-35.93405,-8.27707],[-35.93334,-8.27668],[-35.93099,-8.27638],[-35.93078,-8.27602],[-35.93134,-8.2742],[-35.92986,-8.27392],[-35.92816,-8.27339],[-35.927,-8.27332]]]},"properties":{"codigo":"2604106041","name":"SÃO JOSÉ","population":4004,"households":1712,"areaKm2":0.793,"density":5049.3}},{"type":"Feature","geometry":{"type":"Polygon","coordinates":[[[-35.98821,-8.2899],[-35.98978,-8.28961],[-35.99035,-8.2896],[-35.9911,-8.28916],[-35.9919,-8.28813],[-35.99228,-8.288],[-35.99288,-8.28834],[-35.99369,-8.2898],[-35.99416,-8.29127],[-35.9943,-8.29205],[-35.99431,-8.29331],[-35.99416,-8.29483],[-35.99355,-8.29673],[-35.9927,-8.2979],[-35.99272,-8.29875],[-35.99333,-8.29916],[-35.99554,-8.29974],[-35.99638,-8.29985],[-35.99718,-8.29976],[-35.99787,-8.30009],[-35.99911,-8.30006],[-36.00014,-8.30018],[-36.00126,-8.30085],[-36.00231,-8.30076],[-36.00358,-8.30122],[-36.00633,-8.30174],[-36.00682,-8.30207],[-36.00751,-8.30176],[-36.00878,-8.30248],[-36.00945,-8.3026],[-36.01186,-8.30281],[-36.01269,-8.30306],[-36.01442,-8.30323],[-36.01603,-8.30369],[-36.01733,-8.30392],[-36.02007,-8.30366],[-36.02144,-8.30303],[-36.02183,-8.30226],[-36.02193,-8.30163],[-36.02192,-8.30058],[-36.02237,-8.2992],[-36.02349,-8.29801],[-36.02473,-8.29755],[-36.02566,-8.29748],[-36.02731,-8.29769],[-36.02803,-8.29844],[-36.02762,-8.29911],[-36.02757,-8.29977],[-36.0271,-8.3004],[-36.02678,-8.30159],[-36.02698,-8.30491],[-36.02752,-8.30594],[-36.02888,-8.30703],[-36.03194,-8.30778],[-36.03139,-8.30968],[-36.03207,-8.31177],[-36.03358,-8.31455],[-36.03237,-8.31467],[-36.03164,-8.31443],[-36.02904,-8.3132],[-36.02864,-8.31388],[-36.02773,-8.31326],[-36.02712,-8.31308],[-36.02585,-8.31306],[-36.02477,-8.31283],[-36.02414,-8.313],[-36.02412,-8.31359],[-36.02298,-8.31326],[-36.02293,-8.3137],[-36.02128,-8.31293],[-36.02157,-8.31026],[-36.02276,-8.31051],[-36.02308,-8.30941],[-36.02324,-8.30827],[-36.00791,-8.30392],[-36.00048,-8.30183],[-36.00018,-8.3025],[-35.99963,-8.30254],[-35.9994,-8.30285],[-35.99919,-8.30394],[-35.99927,-8.30432],[-35.99895,-8.30508],[-35.9995,-8.30501],[-36.00027,-8.30536],[-36.00041,-8.30563],[-36.00009,-8.30691],[-35.99791,-8.30577],[-35.99734,-8.30581],[-35.99621,-8.30618],[-35.99646,-8.30853],[-35.9962,-8.3091],[-35.99684,-8.30979],[-35.99695,-8.31074],[-35.99828,-8.31111],[-35.99879,-8.31111],[-35.99932,-8.3114],[-36.00013,-8.31283],[-35.99977,-8.31347],[-35.99875,-8.31357],[-35.99867,-8.3139],[-35.99792,-8.31446],[-35.99673,-8.31494],[-35.9955,-8.31635],[-35.99578,-8.31779],[-35.99553,-8.31822],[-35.99595,-8.31961],[-35.99551,-8.31969],[-35.99431,-8.31953],[-35.99284,-8.3212],[-35.99243,-8.32178],[-35.99111,-8.32105],[-35.99126,-8.32033],[-35.99122,-8.31825],[-35.99123,-8.31505],[-35.99107,-8.31363],[-35.98993,-8.30854],[-35.98912,-8.30631],[-35.98834,-8.30299],[-35.98809,-8.30022],[-35.98818,-8.29786],[-35.98815,-8.29703],[-35.98776,-8.29576],[-35.98625,-8.29352],[-35.98569,-8.29246],[-35.9851,-8.2908],[-35.98586,-8.29037],[-35.9868,-8.29007],[-35.98821,-8.2899]]]},"properties":{"codigo":"2604106020","name":"Agamenon Magalhães","population":7755,"households":3428,"areaKm2":4.8183,"density":1609.5}},{"type":"Feature","geometry":{"type":"MultiPolygon","coordinates":[[[[-36.06235,-8.2946],[-36.06243,-8.29289],[-36.06237,-8.29133],[-36.06249,-8.29041],[-36.06339,-8.29056],[-36.06405,-8.29042],[-36.06471,-8.29055],[-36.06446,-8.29134],[-36.0659,-8.29183],[-36.06675,-8.29226],[-36.06665,-8.29262],[-36.06598,-8.2933],[-36.06592,-8.29431],[-36.06767,-8.29444],[-36.06706,-8.29898],[-36.06652,-8.29883],[-36.06537,-8.29908],[-36.06488,-8.29903],[-36.06397,-8.29827],[-36.06002,-8.29747],[-36.06072,-8.29505],[-36.06119,-8.29576],[-36.06176,-8.29623],[-36.06244,-8.29638],[-36.06249,-8.2958],[-36.06235,-8.2946]]],[[[-36.05923,-8.2883],[-36.05906,-8.29058],[-36.05892,-8.29347],[-36.05817,-8.29402],[-36.05724,-8.29502],[-36.05772,-8.28519],[-36.06261,-8.28517],[-36.06261,-8.28704],[-36.06239,-8.28827],[-36.05923,-8.2883]]],[[[-36.03538,-8.2924],[-36.03814,-8.29276],[-36.0391,-8.29281],[-36.03915,-8.29192],[-36.03886,-8.29129],[-36.03972,-8.29076],[-36.04032,-8.29116],[-36.04078,-8.2911],[-36.04098,-8.29069],[-36.04034,-8.28967],[-36.03906,-8.28818],[-36.03864,-8.28753],[-36.0386,-8.28709],[-36.03907,-8.28601],[-36.03974,-8.28671],[-36.03999,-8.28746],[-36.04039,-8.2879],[-36.04221,-8.28884],[-36.04274,-8.28975],[-36.04343,-8.29162],[-36.04411,-8.29208],[-36.0449,-8.29209],[-36.04785,-8.29133],[-36.04862,-8.29118],[-36.04961,-8.29159],[-36.05022,-8.29252],[-36.05074,-8.29299],[-36.05129,-8.29317],[-36.05269,-8.29317],[-36.05325,-8.29329],[-36.05403,-8.29374],[-36.0555,-8.29523],[-36.0546,-8.29625],[-36.05464,-8.29713],[-36.0545,-8.29788],[-36.0545,-8.2992],[-36.0547,-8.29971],[-36.05446,-8.30075],[-36.05304,-8.30106],[-36.0514,-8.30096],[-36.04988,-8.30078],[-36.04881,-8.30047],[-36.04706,-8.30158],[-36.0459,-8.30157],[-36.04442,-8.30111],[-36.04354,-8.30113],[-36.04283,-8.30043],[-36.04154,-8.29991],[-36.03922,-8.29886],[-36.03692,-8.2991],[-36.03622,-8.29901],[-36.0355,-8.29939],[-36.03601,-8.29876],[-36.03693,-8.29686],[-36.03688,-8.29643],[-36.03638,-8.29528],[-36.03548,-8.29469],[-36.03538,-8.2924]]]]},"properties":{"codigo":"2604106038","name":"NOSSA SENHORA DAS GRAÇAS","population":6952,"households":3648,"areaKm2":2.7758,"density":2504.5}},{"type":"Feature","geometry":{"type":"Polygon","coordinates":[[[-36.00637,-8.26521],[-36.00455,-8.26402],[-36.00532,-8.26351],[-36.00628,-8.26247],[-36.00774,-8.26179],[-36.00811,-8.26144],[-36.00964,-8.25921],[-36.01049,-8.25785],[-36.01266,-8.25439],[-36.01315,-8.25391],[-36.01403,-8.25258],[-36.0159,-8.25133],[-36.01664,-8.25034],[-36.01729,-8.24845],[-36.01877,-8.24521],[-36.01968,-8.24384],[-36.02151,-8.24303],[-36.02261,-8.24319],[-36.02213,-8.24497],[-36.02261,-8.24742],[-36.02296,-8.24792],[-36.02428,-8.24797],[-36.02427,-8.24949],[-36.02348,-8.24978],[-36.02396,-8.25103],[-36.02415,-8.25318],[-36.0238,-8.2534],[-36.0241,-8.25448],[-36.02317,-8.25473],[-36.02321,-8.25532],[-36.02287,-8.25542],[-36.02176,-8.25519],[-36.0211,-8.25533],[-36.01958,-8.25622],[-36.01791,-8.25817],[-36.01735,-8.25946],[-36.01656,-8.26047],[-36.01662,-8.26115],[-36.01703,-8.26345],[-36.01592,-8.26435],[-36.01508,-8.26436],[-36.01441,-8.26406],[-36.014,-8.26537],[-36.01395,-8.26629],[-36.01394,-8.26687],[-36.0132,-8.26683],[-36.01301,-8.26625],[-36.01156,-8.26597],[-36.01081,-8.26613],[-36.00849,-8.26573],[-36.00696,-8.2656],[-36.00637,-8.26521]]]},"properties":{"codigo":"2604106030","name":"ANDORINHA","population":14093,"households":6896,"areaKm2":2.1399,"density":6585.7}},{"type":"Feature","geometry":{"type":"Polygon","coordinates":[[[-35.93562,-8.28634],[-35.93499,-8.28496],[-35.93498,-8.28399],[-35.93439,-8.2842],[-35.93375,-8.28513],[-35.93335,-8.28594],[-35.93283,-8.2862],[-35.93213,-8.28616],[-35.93047,-8.28528],[-35.9288,-8.28506],[-35.9277,-8.28505],[-35.92599,-8.28486],[-35.92445,-8.28495],[-35.92404,-8.28507],[-35.92219,-8.28616],[-35.9218,-8.28669],[-35.9212,-8.28708],[-35.91997,-8.28743],[-35.91849,-8.28911],[-35.91645,-8.29002],[-35.91457,-8.29034],[-35.91405,-8.29032],[-35.91307,-8.28961],[-35.91222,-8.28995],[-35.91152,-8.28993],[-35.9116,-8.2888],[-35.91098,-8.28758],[-35.90861,-8.28663],[-35.9072,-8.28571],[-35.90617,-8.28486],[-35.90389,-8.28358],[-35.90365,-8.28299],[-35.90395,-8.28273],[-35.90486,-8.28282],[-35.90571,-8.28249],[-35.90575,-8.28198],[-35.90629,-8.28017],[-35.90655,-8.27769],[-35.9067,-8.27718],[-35.90761,-8.27578],[-35.90805,-8.27534],[-35.9086,-8.2744],[-35.90949,-8.27493],[-35.91065,-8.27429],[-35.9113,-8.27428],[-35.91103,-8.27542],[-35.91119,-8.27572],[-35.91179,-8.27545],[-35.91267,-8.2748],[-35.91398,-8.27505],[-35.9145,-8.27568],[-35.91429,-8.27613],[-35.91386,-8.27631],[-35.914,-8.27681],[-35.91466,-8.27676],[-35.91561,-8.27627],[-35.91598,-8.27572],[-35.91647,-8.27618],[-35.91697,-8.27704],[-35.91773,-8.27731],[-35.91868,-8.27727],[-35.91805,-8.2759],[-35.91839,-8.27549],[-35.91913,-8.27532],[-35.91954,-8.27602],[-35.92061,-8.27556],[-35.9206,-8.2748],[-35.92003,-8.27345],[-35.9204,-8.27267],[-35.92252,-8.27249],[-35.92291,-8.27305],[-35.92368,-8.27329],[-35.92513,-8.2734],[-35.92544,-8.27302],[-35.92594,-8.27323],[-35.927,-8.27332],[-35.92816,-8.27339],[-35.92986,-8.27392],[-35.93134,-8.2742],[-35.93078,-8.27602],[-35.93099,-8.27638],[-35.93334,-8.27668],[-35.93405,-8.27707],[-35.9365,-8.27778],[-35.93766,-8.27771],[-35.93901,-8.27807],[-35.93958,-8.27803],[-35.94016,-8.27759],[-35.94065,-8.27686],[-35.94129,-8.27623],[-35.94086,-8.27795],[-35.93986,-8.27917],[-35.93976,-8.2803],[-35.93968,-8.28065],[-35.94015,-8.28117],[-35.94029,-8.28291],[-35.93996,-8.28419],[-35.93952,-8.28461],[-35.93848,-8.28471],[-35.93705,-8.28556],[-35.93613,-8.28627],[-35.93562,-8.28634]]]},"properties":{"codigo":"2604106023","name":"Rendeiras","population":15463,"households":6720,"areaKm2":4.7187,"density":3276.9}},{"type":"Feature","geometry":{"type":"Polygon","coordinates":[[[-35.95315,-8.28473],[-35.95234,-8.2844],[-35.95132,-8.28331],[-35.94893,-8.28274],[-35.94833,-8.28275],[-35.94744,-8.28318],[-35.94673,-8.28383],[-35.94528,-8.28382],[-35.94479,-8.28331],[-35.94439,-8.28145],[-35.94412,-8.28086],[-35.94332,-8.27981],[-35.94182,-8.279],[-35.94109,-8.27908],[-35.94059,-8.27937],[-35.93976,-8.2803],[-35.93986,-8.27917],[-35.94086,-8.27795],[-35.94129,-8.27623],[-35.94211,-8.27598],[-35.94274,-8.27613],[-35.94297,-8.27628],[-35.94459,-8.27829],[-35.9452,-8.2788],[-35.94712,-8.27997],[-35.94785,-8.2803],[-35.94961,-8.28082],[-35.94987,-8.28067],[-35.9511,-8.2811],[-35.95192,-8.2812],[-35.95398,-8.28026],[-35.95489,-8.28031],[-35.95401,-8.28234],[-35.95338,-8.28344],[-35.95315,-8.28473]]]},"properties":{"codigo":"2604106003","name":"Cedro","population":1780,"households":929,"areaKm2":0.5242,"density":3395.3}}]}