{"type":"FeatureCollection","features":[{"type":"Feature","geometry":{"type":"Polygon","coordinates":[[[-35.44506,-7.87721],[-35.44455,-7.87793],[-35.44341,-7.87895],[-35.43839,-7.88165],[-35.43727,-7.88242],[-35.43516,-7.88447],[-35.43438,-7.88555],[-35.43396,-7.8865],[-35.43367,-7.88771],[-35.43289,-7.88805],[-35.43139,-7.88897],[-35.43026,-7.88977],[-35.42911,-7.89006],[-35.42829,-7.89014],[-35.42777,-7.89037],[-35.42479,-7.89252],[-35.42477,-7.8908],[-35.42493,-7.88865],[-35.42893,-7.88868],[-35.42898,-7.88481],[-35.43019,-7.88465],[-35.43038,-7.88324],[-35.43263,-7.88164],[-35.43327,-7.88094],[-35.43357,-7.8802],[-35.4336,-7.87953],[-35.43427,-7.87946],[-35.43426,-7.87843],[-35.43455,-7.87844],[-35.43523,-7.87943],[-35.436,-7.87987],[-35.4361,-7.87498],[-35.43704,-7.87429],[-35.43905,-7.87443],[-35.43911,-7.87338],[-35.43745,-7.87244],[-35.43843,-7.86974],[-35.43869,-7.86996],[-35.43954,-7.87095],[-35.43997,-7.87114],[-35.4422,-7.87327],[-35.44449,-7.87527],[-35.44541,-7.87671],[-35.44506,-7.87721]]]},"properties":{"codigo":"2608909006","name":"Juá","population":4057,"households":1618,"areaKm2":1.4583,"density":2782}},{"type":"Feature","geometry":{"type":"Polygon","coordinates":[[[-35.45776,-7.88088],[-35.45946,-7.88157],[-35.46208,-7.88207],[-35.46252,-7.88364],[-35.46283,-7.88412],[-35.46258,-7.88523],[-35.46208,-7.88568],[-35.46147,-7.88676],[-35.46187,-7.88739],[-35.46153,-7.8877],[-35.4605,-7.88599],[-35.4594,-7.88474],[-35.4577,-7.88258],[-35.45699,-7.88206],[-35.45776,-7.88088]]]},"properties":{"codigo":"2608909013","name":"Pirauira","population":1343,"households":579,"areaKm2":0.2163,"density":6208.2}},{"type":"Feature","geometry":{"type":"Polygon","coordinates":[[[-35.45133,-7.87857],[-35.4518,-7.87785],[-35.45219,-7.87811],[-35.4533,-7.87683],[-35.45259,-7.87607],[-35.45271,-7.87551],[-35.45111,-7.8747],[-35.4509,-7.87499],[-35.45029,-7.87477],[-35.44985,-7.87423],[-35.44825,-7.87304],[-35.45016,-7.87124],[-35.45015,-7.8706],[-35.4504,-7.87001],[-35.45111,-7.86954],[-35.45161,-7.86977],[-35.4533,-7.87014],[-35.45341,-7.87086],[-35.45488,-7.87078],[-35.45535,-7.87111],[-35.45626,-7.87349],[-35.45513,-7.87494],[-35.45576,-7.87517],[-35.45626,-7.87591],[-35.45657,-7.87527],[-35.45709,-7.87487],[-35.45889,-7.87535],[-35.45957,-7.87566],[-35.46038,-7.87631],[-35.46076,-7.87699],[-35.46136,-7.87743],[-35.46212,-7.87765],[-35.46175,-7.87809],[-35.46069,-7.87872],[-35.46,-7.87883],[-35.45921,-7.87864],[-35.45834,-7.8789],[-35.45777,-7.87969],[-35.45739,-7.87896],[-35.4566,-7.8784],[-35.45631,-7.87919],[-35.45338,-7.87784],[-35.45302,-7.87867],[-35.45256,-7.87923],[-35.45133,-7.87857]]]},"properties":{"codigo":"2608909002","name":"Redentor","population":3913,"households":1947,"areaKm2":0.709,"density":5519.4}},{"type":"Feature","geometry":{"type":"Polygon","coordinates":[[[-35.44752,-7.86463],[-35.44447,-7.86575],[-35.44447,-7.86728],[-35.44352,-7.86763],[-35.44398,-7.86876],[-35.44402,-7.8693],[-35.44312,-7.86982],[-35.44223,-7.86918],[-35.44223,-7.8699],[-35.44047,-7.86934],[-35.43997,-7.8694],[-35.44036,-7.8689],[-35.44092,-7.86703],[-35.4414,-7.86703],[-35.44134,-7.86617],[-35.44146,-7.86536],[-35.44118,-7.8634],[-35.44106,-7.86193],[-35.44152,-7.86137],[-35.44126,-7.86063],[-35.44154,-7.8592],[-35.44106,-7.8591],[-35.44112,-7.85822],[-35.44085,-7.85815],[-35.44113,-7.85713],[-35.44153,-7.85725],[-35.44223,-7.85681],[-35.44372,-7.8562],[-35.4456,-7.85507],[-35.4468,-7.85365],[-35.44757,-7.85257],[-35.44829,-7.85193],[-35.4551,-7.85198],[-35.45451,-7.85308],[-35.45325,-7.857],[-35.45285,-7.85779],[-35.45229,-7.85831],[-35.45155,-7.85859],[-35.4459,-7.85918],[-35.44596,-7.86018],[-35.44553,-7.86115],[-35.44551,-7.86245],[-35.4469,-7.86319],[-35.44743,-7.86399],[-35.44752,-7.86463]]]},"properties":{"codigo":"2608909004","name":"São Sebastião","population":5447,"households":1978,"areaKm2":1.3449,"density":4050.2}},{"type":"Feature","geometry":{"type":"Polygon","coordinates":[[[-35.44541,-7.87671],[-35.44658,-7.8751],[-35.44976,-7.87746],[-35.45129,-7.87855],[-35.45083,-7.8793],[-35.4521,-7.87993],[-35.4538,-7.8806],[-35.45619,-7.88168],[-35.45509,-7.883],[-35.45468,-7.88264],[-35.45481,-7.88165],[-35.45375,-7.88126],[-35.453,-7.88436],[-35.45217,-7.88533],[-35.45019,-7.88644],[-35.44986,-7.88703],[-35.44851,-7.88812],[-35.44773,-7.88904],[-35.44605,-7.88779],[-35.44609,-7.88642],[-35.44589,-7.88611],[-35.44616,-7.87858],[-35.44506,-7.87721],[-35.44541,-7.87671]]]},"properties":{"codigo":"2608909010","name":"José Fernades Salsa","population":4538,"households":1895,"areaKm2":0.8742,"density":5191}},{"type":"Feature","geometry":{"type":"Polygon","coordinates":[[[-35.44825,-7.87304],[-35.44803,-7.87346],[-35.44448,-7.87082],[-35.44312,-7.86982],[-35.44402,-7.8693],[-35.44398,-7.86876],[-35.44352,-7.86763],[-35.44447,-7.86728],[-35.44447,-7.86575],[-35.44752,-7.86463],[-35.44747,-7.86496],[-35.448,-7.86576],[-35.44866,-7.86636],[-35.44934,-7.86744],[-35.45111,-7.86954],[-35.4504,-7.87001],[-35.45015,-7.8706],[-35.45016,-7.87124],[-35.44825,-7.87304]]]},"properties":{"codigo":"2608909003","name":"Santa Luzia","population":2450,"households":1114,"areaKm2":0.4732,"density":5177}},{"type":"Feature","geometry":{"type":"Polygon","coordinates":[[[-35.45776,-7.88088],[-35.45749,-7.88077],[-35.45777,-7.87969],[-35.45834,-7.8789],[-35.45921,-7.87864],[-35.46,-7.87883],[-35.46069,-7.87872],[-35.46175,-7.87809],[-35.46212,-7.87765],[-35.46275,-7.87785],[-35.46255,-7.87952],[-35.46329,-7.87969],[-35.46406,-7.88029],[-35.46404,-7.88687],[-35.46585,-7.88837],[-35.46663,-7.88791],[-35.46732,-7.88793],[-35.468,-7.88877],[-35.46865,-7.88865],[-35.46877,-7.8897],[-35.4695,-7.89018],[-35.46944,-7.89295],[-35.46914,-7.89364],[-35.46746,-7.8927],[-35.46509,-7.89107],[-35.4623,-7.88865],[-35.46153,-7.8877],[-35.46187,-7.88739],[-35.46147,-7.88676],[-35.46208,-7.88568],[-35.46258,-7.88523],[-35.46283,-7.88412],[-35.46252,-7.88364],[-35.46208,-7.88207],[-35.45946,-7.88157],[-35.45776,-7.88088]]]},"properties":{"codigo":"2608909012","name":"Santo Antônio","population":2926,"households":1356,"areaKm2":0.646,"density":4529.7}},{"type":"Feature","geometry":{"type":"Polygon","coordinates":[[[-35.43843,-7.86974],[-35.43767,-7.86919],[-35.43613,-7.86844],[-35.43508,-7.86777],[-35.43443,-7.86756],[-35.4318,-7.86627],[-35.43048,-7.86576],[-35.42809,-7.86536],[-35.42675,-7.86575],[-35.42704,-7.86461],[-35.42753,-7.86425],[-35.42767,-7.86371],[-35.42646,-7.86199],[-35.42658,-7.86167],[-35.42995,-7.86367],[-35.43059,-7.86257],[-35.43126,-7.86362],[-35.43279,-7.86389],[-35.43286,-7.86063],[-35.43478,-7.86064],[-35.43504,-7.8616],[-35.43745,-7.86033],[-35.43957,-7.85998],[-35.44007,-7.85978],[-35.44106,-7.8591],[-35.44154,-7.8592],[-35.44126,-7.86063],[-35.44152,-7.86137],[-35.44106,-7.86193],[-35.44118,-7.8634],[-35.44146,-7.86536],[-35.44134,-7.86617],[-35.4414,-7.86703],[-35.44092,-7.86703],[-35.44036,-7.8689],[-35.43997,-7.8694],[-35.43904,-7.86944],[-35.43869,-7.86996],[-35.43843,-7.86974]]]},"properties":{"codigo":"2608909005","name":"João Ernesto","population":2461,"households":1041,"areaKm2":1.0138,"density":2427.5}},{"type":"Feature","geometry":{"type":"Polygon","coordinates":[[[-35.43869,-7.86996],[-35.43904,-7.86944],[-35.43997,-7.8694],[-35.44047,-7.86934],[-35.44223,-7.8699],[-35.44223,-7.86918],[-35.44312,-7.86982],[-35.44448,-7.87082],[-35.4432,-7.87253],[-35.44404,-7.87328],[-35.44658,-7.8751],[-35.44541,-7.87671],[-35.44449,-7.87527],[-35.4422,-7.87327],[-35.43997,-7.87114],[-35.43954,-7.87095],[-35.43869,-7.86996]]]},"properties":{"codigo":"2608909007","name":"Ponto Certo","population":757,"households":350,"areaKm2":0.2266,"density":3340.9}},{"type":"Feature","geometry":{"type":"Polygon","coordinates":[[[-35.45133,-7.87857],[-35.45129,-7.87855],[-35.44976,-7.87746],[-35.44658,-7.8751],[-35.44404,-7.87328],[-35.4432,-7.87253],[-35.44448,-7.87082],[-35.44803,-7.87346],[-35.44825,-7.87304],[-35.44985,-7.87423],[-35.45029,-7.87477],[-35.4509,-7.87499],[-35.45111,-7.8747],[-35.45271,-7.87551],[-35.45259,-7.87607],[-35.4533,-7.87683],[-35.45219,-7.87811],[-35.4518,-7.87785],[-35.45133,-7.87857]]]},"properties":{"codigo":"2608909008","name":"Dt Severino Pinheiro","population":1787,"households":818,"areaKm2":0.3262,"density":5477.4}},{"type":"Feature","geometry":{"type":"Polygon","coordinates":[[[-35.44506,-7.87721],[-35.44616,-7.87858],[-35.44589,-7.88611],[-35.44609,-7.88642],[-35.44605,-7.88779],[-35.4452,-7.88927],[-35.44487,-7.89033],[-35.44438,-7.89448],[-35.43827,-7.89323],[-35.43744,-7.89297],[-35.43664,-7.89255],[-35.43617,-7.89362],[-35.43605,-7.89623],[-35.43463,-7.89619],[-35.43408,-7.90309],[-35.4269,-7.90057],[-35.42881,-7.89735],[-35.42991,-7.89528],[-35.43087,-7.89364],[-35.43264,-7.89043],[-35.43342,-7.88866],[-35.43367,-7.88771],[-35.43396,-7.8865],[-35.43438,-7.88555],[-35.43516,-7.88447],[-35.43727,-7.88242],[-35.43839,-7.88165],[-35.44341,-7.87895],[-35.44455,-7.87793],[-35.44506,-7.87721]]]},"properties":{"codigo":"2608909009","name":"Otácio de Lemos","population":10067,"households":4271,"areaKm2":2.5288,"density":3981}},{"type":"Feature","geometry":{"type":"Polygon","coordinates":[[[-35.46153,-7.8877],[-35.4623,-7.88865],[-35.46145,-7.89257],[-35.46069,-7.8987],[-35.45919,-7.90086],[-35.4585,-7.90033],[-35.45928,-7.89626],[-35.45501,-7.89541],[-35.45601,-7.8922],[-35.45446,-7.89245],[-35.45313,-7.89253],[-35.45311,-7.89191],[-35.45339,-7.88873],[-35.45186,-7.88854],[-35.4516,-7.88907],[-35.45084,-7.88957],[-35.45009,-7.89066],[-35.44773,-7.88904],[-35.44851,-7.88812],[-35.44986,-7.88703],[-35.45019,-7.88644],[-35.45217,-7.88533],[-35.453,-7.88436],[-35.45375,-7.88126],[-35.45481,-7.88165],[-35.45468,-7.88264],[-35.45509,-7.883],[-35.45619,-7.88168],[-35.45699,-7.88206],[-35.4577,-7.88258],[-35.4594,-7.88474],[-35.4605,-7.88599],[-35.46153,-7.8877]]]},"properties":{"codigo":"2608909011","name":"Santa Teresinha","population":3759,"households":1484,"areaKm2":1.4639,"density":2567.8}},{"type":"Feature","geometry":{"type":"Polygon","coordinates":[[[-35.45699,-7.88206],[-35.45619,-7.88168],[-35.4538,-7.8806],[-35.4521,-7.87993],[-35.45083,-7.8793],[-35.45129,-7.87855],[-35.45133,-7.87857],[-35.45256,-7.87923],[-35.45302,-7.87867],[-35.45338,-7.87784],[-35.45631,-7.87919],[-35.4566,-7.8784],[-35.45739,-7.87896],[-35.45777,-7.87969],[-35.45749,-7.88077],[-35.45776,-7.88088],[-35.45699,-7.88206]]]},"properties":{"codigo":"2608909001","name":"Centro","population":450,"households":261,"areaKm2":0.1714,"density":2625.1}}]}