{"type":"FeatureCollection","features":[{"type":"Feature","geometry":{"type":"Polygon","coordinates":[[[-38.59825,-8.13232],[-38.59983,-8.13634],[-38.60067,-8.13982],[-38.60327,-8.14249],[-38.60743,-8.14345],[-38.61299,-8.1425],[-38.61486,-8.14138],[-38.61775,-8.14118],[-38.62075,-8.13844],[-38.62239,-8.13798],[-38.62499,-8.13848],[-38.6262,-8.13745],[-38.62829,-8.13724],[-38.63182,-8.1392],[-38.63267,-8.14028],[-38.63284,-8.14169],[-38.63479,-8.14522],[-38.63517,-8.14523],[-38.63846,-8.14278],[-38.63913,-8.14132],[-38.64016,-8.14078],[-38.64089,-8.14157],[-38.6416,-8.14049],[-38.6436,-8.13975],[-38.64527,-8.13767],[-38.64741,-8.13726],[-38.64869,-8.13602],[-38.6499,-8.13589],[-38.65076,-8.1351],[-38.65139,-8.13331],[-38.65428,-8.13228],[-38.65517,-8.13111],[-38.65768,-8.12941],[-38.65822,-8.12833],[-38.65813,-8.12655],[-38.65738,-8.12538],[-38.65746,-8.12384],[-38.65809,-8.12393],[-38.65882,-8.12314],[-38.65972,-8.11811],[-38.66214,-8.11549],[-38.66343,-8.11296],[-38.66592,-8.11218],[-38.6663,-8.11014],[-38.66768,-8.10952],[-38.66755,-8.10877],[-38.66826,-8.1079],[-38.66955,-8.10923],[-38.67019,-8.10885],[-38.66997,-8.10391],[-38.66922,-8.1032],[-38.6696,-8.10229],[-38.67262,-8.10113],[-38.67551,-8.10167],[-38.68242,-8.10126],[-38.68478,-8.10031],[-38.68767,-8.10031],[-38.68841,-8.09944],[-38.68952,-8.0964],[-38.68994,-8.08918],[-38.68964,-8.0878],[-38.69087,-8.08111],[-38.6934,-8.0756],[-38.69347,-8.07368],[-38.69103,-8.07093],[-38.6919,-8.06608],[-38.69408,-8.06474],[-38.69701,-8.06462],[-38.69808,-8.06379],[-38.69926,-8.06171],[-38.69931,-8.05565],[-38.702,-8.05278],[-38.70231,-8.05178],[-38.70365,-8.05083],[-38.70436,-8.04913],[-38.70669,-8.04788],[-38.70865,-8.04518],[-38.7115,-8.04327],[-38.7149,-8.04298],[-38.71734,-8.04215],[-38.71895,-8.04008],[-38.72301,-8.03792],[-38.72661,-8.03469],[-38.72933,-8.03094],[-38.73436,-8.02878],[-38.73658,-8.02568],[-38.73854,-8.02464],[-38.73865,-8.02276],[-38.777,-8.00364],[-38.7782,-8.00304],[-38.83038,-8.0165],[-38.87776,-8.0102],[-38.87838,-8.03746],[-38.87731,-8.03978],[-38.87482,-8.04028],[-38.87242,-8.04211],[-38.87188,-8.04377],[-38.87046,-8.04543],[-38.87322,-8.04759],[-38.87873,-8.04925],[-38.88237,-8.05194],[-38.91062,-8.08678],[-38.91747,-8.09392],[-38.92479,-8.09988],[-38.92727,-8.10212],[-38.93158,-8.10654],[-38.93578,-8.11822],[-38.93728,-8.12485],[-38.93497,-8.12632],[-38.93092,-8.13201],[-38.92473,-8.13797],[-38.9227,-8.14127],[-38.92018,-8.14315],[-38.91158,-8.14535],[-38.90968,-8.14746],[-38.90738,-8.1556],[-38.90601,-8.15874],[-38.90119,-8.16198],[-38.89175,-8.16365],[-38.88818,-8.16637],[-38.88157,-8.16992],[-38.87349,-8.16783],[-38.87084,-8.16836],[-38.86944,-8.16791],[-38.86703,-8.16602],[-38.86513,-8.16576],[-38.86107,-8.16804],[-38.8579,-8.17031],[-38.85385,-8.17227],[-38.8503,-8.17366],[-38.84726,-8.17593],[-38.8451,-8.17896],[-38.84193,-8.18206],[-38.83965,-8.18345],[-38.83711,-8.1861],[-38.8347,-8.18812],[-38.83369,-8.18989],[-38.83166,-8.19096],[-38.8295,-8.19248],[-38.82583,-8.19298],[-38.82342,-8.19248],[-38.81454,-8.19506],[-38.81201,-8.19532],[-38.8063,-8.19658],[-38.8063,-8.19544],[-38.80174,-8.1974],[-38.79946,-8.20068],[-38.79717,-8.20207],[-38.79666,-8.20485],[-38.79514,-8.20706],[-38.79324,-8.20757],[-38.79197,-8.20933],[-38.79058,-8.20959],[-38.78716,-8.20933],[-38.78437,-8.20882],[-38.77891,-8.21103],[-38.77688,-8.21356],[-38.7746,-8.21545],[-38.77105,-8.21773],[-38.76915,-8.21956],[-38.76522,-8.22044],[-38.76154,-8.21968],[-38.7604,-8.21816],[-38.75837,-8.21665],[-38.7546,-8.21957],[-38.75398,-8.21854],[-38.75197,-8.21807],[-38.75015,-8.21865],[-38.7494,-8.21857],[-38.7474,-8.21687],[-38.74595,-8.21617],[-38.74442,-8.21582],[-38.74235,-8.21416],[-38.74142,-8.21381],[-38.74065,-8.21294],[-38.73842,-8.2129],[-38.73727,-8.21217],[-38.73711,-8.21147],[-38.73765,-8.2106],[-38.73595,-8.20925],[-38.73566,-8.20818],[-38.73629,-8.20681],[-38.73601,-8.20603],[-38.73522,-8.20556],[-38.73278,-8.20601],[-38.73186,-8.20524],[-38.73175,-8.20241],[-38.73087,-8.20111],[-38.72864,-8.1999],[-38.72703,-8.19941],[-38.72517,-8.19931],[-38.72353,-8.19741],[-38.72213,-8.19526],[-38.71909,-8.19362],[-38.71707,-8.19109],[-38.71517,-8.189],[-38.71644,-8.18736],[-38.71606,-8.18521],[-38.71466,-8.18395],[-38.71276,-8.18294],[-38.71112,-8.18091],[-38.7096,-8.17959],[-38.70833,-8.18034],[-38.70731,-8.18249],[-38.70554,-8.1816],[-38.70402,-8.18047],[-38.70288,-8.17907],[-38.70339,-8.17731],[-38.70352,-8.17585],[-38.70123,-8.17395],[-38.7006,-8.17206],[-38.69832,-8.17193],[-38.69579,-8.17281],[-38.69287,-8.17281],[-38.6911,-8.17211],[-38.69021,-8.1711],[-38.68831,-8.1711],[-38.68598,-8.17158],[-38.68575,-8.1719],[-38.68359,-8.1727],[-38.68045,-8.17319],[-38.68035,-8.17403],[-38.67945,-8.17493],[-38.67805,-8.17533],[-38.67725,-8.17662],[-38.67605,-8.17742],[-38.67455,-8.17792],[-38.67146,-8.17552],[-38.67006,-8.17308],[-38.66807,-8.17318],[-38.66736,-8.17268],[-38.66557,-8.17009],[-38.66377,-8.16879],[-38.66217,-8.16899],[-38.66007,-8.17033],[-38.65797,-8.17103],[-38.65538,-8.16883],[-38.65368,-8.16893],[-38.64978,-8.17027],[-38.64918,-8.17077],[-38.64908,-8.17276],[-38.64778,-8.17416],[-38.64558,-8.17366],[-38.64468,-8.17376],[-38.64298,-8.17465],[-38.63958,-8.1751],[-38.63818,-8.1747],[-38.63718,-8.174],[-38.63659,-8.1724],[-38.63669,-8.17031],[-38.63469,-8.16862],[-38.63279,-8.16827],[-38.63099,-8.16896],[-38.6293,-8.16876],[-38.6282,-8.16966],[-38.62709,-8.17175],[-38.62589,-8.17244],[-38.6239,-8.17164],[-38.6232,-8.17055],[-38.6211,-8.16571],[-38.62031,-8.16412],[-38.61891,-8.16342],[-38.61701,-8.16322],[-38.61591,-8.16123],[-38.61481,-8.16142],[-38.61391,-8.16257],[-38.61221,-8.16346],[-38.61061,-8.16336],[-38.60912,-8.16187],[-38.60682,-8.16017],[-38.60632,-8.16107],[-38.60592,-8.16386],[-38.60472,-8.1645],[-38.60362,-8.16341],[-38.60242,-8.1631],[-38.60052,-8.16211],[-38.60042,-8.16101],[-38.60073,-8.15852],[-38.59833,-8.15802],[-38.59743,-8.15722],[-38.59673,-8.15598],[-38.59543,-8.15528],[-38.59424,-8.15398],[-38.59194,-8.15268],[-38.58874,-8.15029],[-38.58495,-8.14625],[-38.58405,-8.14545],[-38.58405,-8.14436],[-38.58515,-8.14346],[-38.58576,-8.14217],[-38.58496,-8.14027],[-38.58406,-8.13967],[-38.58328,-8.1399],[-38.58933,-8.1281],[-38.59001,-8.12885],[-38.59099,-8.12786],[-38.59409,-8.12863],[-38.59706,-8.12986],[-38.59825,-8.13232]]]},"properties":{"codigo":"260930305","name":"Mirandiba","population":11789,"households":5204,"areaKm2":498.5577,"density":23.6}},{"type":"Feature","geometry":{"type":"Polygon","coordinates":[[[-38.54945,-8.28832],[-38.55285,-8.27744],[-38.55421,-8.27528],[-38.55367,-8.27035],[-38.55583,-8.26569],[-38.55552,-8.26344],[-38.5541,-8.26153],[-38.54967,-8.25944],[-38.54873,-8.25753],[-38.54918,-8.25571],[-38.54918,-8.25122],[-38.54807,-8.24997],[-38.54523,-8.24997],[-38.54194,-8.24872],[-38.53958,-8.2488],[-38.53736,-8.24946],[-38.53584,-8.25154],[-38.53251,-8.24921],[-38.53029,-8.24663],[-38.53083,-8.2409],[-38.53012,-8.23899],[-38.52785,-8.23882],[-38.5259,-8.23748],[-38.52679,-8.2369],[-38.53026,-8.23724],[-38.53105,-8.23561],[-38.53657,-8.23088],[-38.58328,-8.1399],[-38.58406,-8.13967],[-38.58496,-8.14027],[-38.58576,-8.14217],[-38.58515,-8.14346],[-38.58405,-8.14436],[-38.58405,-8.14545],[-38.58495,-8.14625],[-38.58874,-8.15029],[-38.59194,-8.15268],[-38.59424,-8.15398],[-38.59543,-8.15528],[-38.59673,-8.15598],[-38.59743,-8.15722],[-38.59833,-8.15802],[-38.60073,-8.15852],[-38.60042,-8.16101],[-38.60052,-8.16211],[-38.60242,-8.1631],[-38.60362,-8.16341],[-38.60472,-8.1645],[-38.60592,-8.16386],[-38.60632,-8.16107],[-38.60682,-8.16017],[-38.60912,-8.16187],[-38.61061,-8.16336],[-38.61221,-8.16346],[-38.61391,-8.16257],[-38.61481,-8.16142],[-38.61591,-8.16123],[-38.61701,-8.16322],[-38.61891,-8.16342],[-38.62031,-8.16412],[-38.6211,-8.16571],[-38.6232,-8.17055],[-38.6239,-8.17164],[-38.62589,-8.17244],[-38.62709,-8.17175],[-38.6282,-8.16966],[-38.6293,-8.16876],[-38.63099,-8.16896],[-38.63279,-8.16827],[-38.63469,-8.16862],[-38.63669,-8.17031],[-38.63659,-8.1724],[-38.63718,-8.174],[-38.63818,-8.1747],[-38.63958,-8.1751],[-38.64298,-8.17465],[-38.64468,-8.17376],[-38.64558,-8.17366],[-38.64778,-8.17416],[-38.64908,-8.17276],[-38.64918,-8.17077],[-38.64978,-8.17027],[-38.65368,-8.16893],[-38.65538,-8.16883],[-38.65797,-8.17103],[-38.66007,-8.17033],[-38.66217,-8.16899],[-38.66377,-8.16879],[-38.66557,-8.17009],[-38.66736,-8.17268],[-38.66807,-8.17318],[-38.67006,-8.17308],[-38.67146,-8.17552],[-38.67455,-8.17792],[-38.67605,-8.17742],[-38.67725,-8.17662],[-38.67805,-8.17533],[-38.67945,-8.17493],[-38.68035,-8.17403],[-38.68045,-8.17319],[-38.68359,-8.1727],[-38.68575,-8.1719],[-38.68598,-8.17158],[-38.68831,-8.1711],[-38.69021,-8.1711],[-38.6911,-8.17211],[-38.69287,-8.17281],[-38.69579,-8.17281],[-38.69832,-8.17193],[-38.7006,-8.17206],[-38.70123,-8.17395],[-38.70352,-8.17585],[-38.70339,-8.17731],[-38.70288,-8.17907],[-38.70402,-8.18047],[-38.70554,-8.1816],[-38.70731,-8.18249],[-38.70833,-8.18034],[-38.7096,-8.17959],[-38.71112,-8.18091],[-38.71276,-8.18294],[-38.71466,-8.18395],[-38.71606,-8.18521],[-38.71644,-8.18736],[-38.71517,-8.189],[-38.71707,-8.19109],[-38.71909,-8.19362],[-38.72213,-8.19526],[-38.72353,-8.19741],[-38.72517,-8.19931],[-38.72703,-8.19941],[-38.72864,-8.1999],[-38.73087,-8.20111],[-38.73175,-8.20241],[-38.73186,-8.20524],[-38.73278,-8.20601],[-38.73522,-8.20556],[-38.73601,-8.20603],[-38.73629,-8.20681],[-38.73566,-8.20818],[-38.73595,-8.20925],[-38.73765,-8.2106],[-38.73711,-8.21147],[-38.73727,-8.21217],[-38.73842,-8.2129],[-38.74065,-8.21294],[-38.74142,-8.21381],[-38.74235,-8.21416],[-38.74442,-8.21582],[-38.74595,-8.21617],[-38.7474,-8.21687],[-38.7494,-8.21857],[-38.75015,-8.21865],[-38.75197,-8.21807],[-38.75398,-8.21854],[-38.7546,-8.21957],[-38.75837,-8.21665],[-38.7604,-8.21816],[-38.76154,-8.21968],[-38.76522,-8.22044],[-38.76915,-8.21956],[-38.77105,-8.21773],[-38.7746,-8.21545],[-38.77688,-8.21356],[-38.77891,-8.21103],[-38.78437,-8.20882],[-38.78716,-8.20933],[-38.79058,-8.20959],[-38.79197,-8.20933],[-38.79324,-8.20757],[-38.79514,-8.20706],[-38.79666,-8.20485],[-38.79717,-8.20207],[-38.79946,-8.20068],[-38.80174,-8.1974],[-38.8063,-8.19544],[-38.8063,-8.19658],[-38.81201,-8.19532],[-38.81454,-8.19506],[-38.82342,-8.19248],[-38.82583,-8.19298],[-38.8295,-8.19248],[-38.83166,-8.19096],[-38.83369,-8.18989],[-38.8347,-8.18812],[-38.83711,-8.1861],[-38.83965,-8.18345],[-38.84193,-8.18206],[-38.8451,-8.17896],[-38.84726,-8.17593],[-38.8503,-8.17366],[-38.85385,-8.17227],[-38.8579,-8.17031],[-38.86107,-8.16804],[-38.86513,-8.16576],[-38.86703,-8.16602],[-38.86944,-8.16791],[-38.87084,-8.16836],[-38.86961,-8.16982],[-38.86866,-8.1786],[-38.8672,-8.18153],[-38.86698,-8.18833],[-38.86855,-8.19492],[-38.87159,-8.20119],[-38.87715,-8.20601],[-38.87966,-8.20948],[-38.87689,-8.21285],[-38.87452,-8.21417],[-38.86823,-8.21469],[-38.86566,-8.21594],[-38.85868,-8.22243],[-38.85548,-8.22436],[-38.85086,-8.2253],[-38.83927,-8.22388],[-38.83046,-8.221],[-38.82717,-8.22153],[-38.82717,-8.22557],[-38.81289,-8.23516],[-38.81253,-8.23521],[-38.73931,-8.24502],[-38.71996,-8.25803],[-38.71637,-8.25844],[-38.71314,-8.25948],[-38.70929,-8.26131],[-38.70742,-8.26186],[-38.70325,-8.26222],[-38.70125,-8.26271],[-38.70066,-8.26317],[-38.69897,-8.26673],[-38.69767,-8.2681],[-38.69625,-8.26874],[-38.6941,-8.26931],[-38.69231,-8.27097],[-38.69167,-8.27125],[-38.69034,-8.27092],[-38.68867,-8.27128],[-38.68559,-8.27423],[-38.6835,-8.27515],[-38.68183,-8.27528],[-38.68021,-8.27611],[-38.67839,-8.27755],[-38.67821,-8.28012],[-38.67686,-8.28078],[-38.67394,-8.28072],[-38.67102,-8.28173],[-38.67036,-8.28212],[-38.66718,-8.28506],[-38.6651,-8.28538],[-38.66375,-8.28488],[-38.66212,-8.28466],[-38.65989,-8.28489],[-38.65681,-8.28677],[-38.65634,-8.28745],[-38.6529,-8.289],[-38.65011,-8.29085],[-38.64903,-8.29319],[-38.64878,-8.29566],[-38.64795,-8.29619],[-38.6463,-8.29665],[-38.64533,-8.29837],[-38.64512,-8.30113],[-38.64461,-8.30274],[-38.6425,-8.30392],[-38.64139,-8.30427],[-38.63945,-8.30429],[-38.63682,-8.30703],[-38.63558,-8.30776],[-38.63413,-8.3082],[-38.63161,-8.30981],[-38.63032,-8.3104],[-38.62856,-8.31083],[-38.62562,-8.3107],[-38.62402,-8.3103],[-38.62223,-8.30912],[-38.62087,-8.30862],[-38.61842,-8.30849],[-38.61496,-8.3103],[-38.61324,-8.31006],[-38.61044,-8.30731],[-38.60705,-8.30516],[-38.60606,-8.30493],[-38.60307,-8.30499],[-38.60085,-8.30557],[-38.59726,-8.30362],[-38.59344,-8.30379],[-38.59225,-8.30341],[-38.59005,-8.30337],[-38.58912,-8.30382],[-38.58776,-8.3038],[-38.58713,-8.30344],[-38.58535,-8.30169],[-38.5831,-8.29986],[-38.58065,-8.29925],[-38.57874,-8.29762],[-38.57677,-8.29699],[-38.57506,-8.29891],[-38.57272,-8.29936],[-38.5711,-8.29936],[-38.5687,-8.29866],[-38.56528,-8.29686],[-38.56432,-8.2962],[-38.5619,-8.29564],[-38.56057,-8.29553],[-38.55851,-8.29481],[-38.55495,-8.29309],[-38.55375,-8.29195],[-38.55368,-8.29102],[-38.55256,-8.28843],[-38.55083,-8.28808],[-38.54945,-8.28832]]]},"properties":{"codigo":"260930310","name":"Tupanaci","population":2377,"households":1047,"areaKm2":323.1179,"density":7.4}}]}