{"type":"FeatureCollection","features":[{"type":"Feature","geometry":{"type":"Polygon","coordinates":[[[-35.83576,-8.11444],[-35.8366,-8.11277],[-35.83665,-8.1101],[-35.8364,-8.1096],[-35.83455,-8.10978],[-35.83338,-8.10668],[-35.83286,-8.10623],[-35.83121,-8.10632],[-35.82994,-8.10521],[-35.83104,-8.10468],[-35.83275,-8.10225],[-35.83335,-8.10104],[-35.83444,-8.09997],[-35.83526,-8.1001],[-35.83642,-8.09938],[-35.8373,-8.09807],[-35.83604,-8.09561],[-35.83633,-8.09257],[-35.83534,-8.08755],[-35.83536,-8.08608],[-35.83461,-8.08352],[-35.83482,-8.08196],[-35.83613,-8.08108],[-35.8365,-8.0792],[-35.83835,-8.07395],[-35.83891,-8.07281],[-35.84015,-8.07228],[-35.84016,-8.07131],[-35.83885,-8.06977],[-35.83957,-8.06906],[-35.83885,-8.06732],[-35.83903,-8.06616],[-35.84154,-8.06575],[-35.84348,-8.06701],[-35.84388,-8.06777],[-35.84533,-8.06848],[-35.84633,-8.06963],[-35.84646,-8.07044],[-35.84923,-8.07222],[-35.85048,-8.07659],[-35.85127,-8.07742],[-35.8528,-8.0778],[-35.85322,-8.07829],[-35.85338,-8.08081],[-35.85377,-8.08188],[-35.85455,-8.08277],[-35.85782,-8.08316],[-35.8608,-8.08395],[-35.86259,-8.08406],[-35.86416,-8.08352],[-35.86547,-8.08403],[-35.86727,-8.08566],[-35.86975,-8.08438],[-35.87079,-8.08358],[-35.87273,-8.08385],[-35.87292,-8.0813],[-35.87323,-8.08013],[-35.87342,-8.07775],[-35.87803,-8.07821],[-35.88008,-8.07755],[-35.87973,-8.07666],[-35.87847,-8.07485],[-35.87714,-8.07412],[-35.87641,-8.0694],[-35.87681,-8.06689],[-35.87761,-8.06621],[-35.87954,-8.06621],[-35.88064,-8.06534],[-35.88178,-8.06513],[-35.88385,-8.06429],[-35.88609,-8.06449],[-35.88742,-8.06508],[-35.88888,-8.0653],[-35.89314,-8.06419],[-35.89603,-8.06523],[-35.89756,-8.06533],[-35.89893,-8.06477],[-35.90124,-8.06343],[-35.90343,-8.06258],[-35.9043,-8.06302],[-35.9069,-8.06237],[-35.90948,-8.06208],[-35.91032,-8.06223],[-35.91447,-8.06382],[-35.91748,-8.06397],[-35.92006,-8.06464],[-35.92158,-8.06466],[-35.92285,-8.06599],[-35.92555,-8.06623],[-35.9275,-8.06585],[-35.9297,-8.06453],[-35.93079,-8.06334],[-35.93283,-8.06245],[-35.93445,-8.06293],[-35.93677,-8.06289],[-35.93879,-8.06261],[-35.94007,-8.06206],[-35.94122,-8.06222],[-35.94368,-8.0613],[-35.95873,-8.09171],[-35.9704,-8.1153],[-35.97564,-8.12555],[-35.97418,-8.12613],[-35.97284,-8.12548],[-35.9708,-8.12509],[-35.9685,-8.12396],[-35.96623,-8.12195],[-35.96528,-8.12008],[-35.96387,-8.11902],[-35.96255,-8.11704],[-35.961,-8.11577],[-35.9599,-8.11536],[-35.95871,-8.1156],[-35.95692,-8.11536],[-35.95512,-8.11473],[-35.95291,-8.11277],[-35.95183,-8.11229],[-35.94927,-8.11049],[-35.94674,-8.10755],[-35.9457,-8.10689],[-35.94426,-8.10513],[-35.94288,-8.10445],[-35.94249,-8.10383],[-35.93949,-8.10331],[-35.93889,-8.10448],[-35.93753,-8.10553],[-35.93562,-8.10813],[-35.93304,-8.10984],[-35.93151,-8.11012],[-35.92934,-8.11082],[-35.92647,-8.11271],[-35.92457,-8.11362],[-35.9241,-8.11488],[-35.92327,-8.11607],[-35.92091,-8.11853],[-35.91888,-8.12011],[-35.91724,-8.122],[-35.91579,-8.1234],[-35.91439,-8.12509],[-35.91284,-8.12578],[-35.91119,-8.12936],[-35.90955,-8.13114],[-35.90695,-8.13556],[-35.9046,-8.13923],[-35.90662,-8.14004],[-35.90781,-8.14223],[-35.90691,-8.14325],[-35.90655,-8.14471],[-35.90583,-8.15017],[-35.90548,-8.15142],[-35.90476,-8.15177],[-35.90553,-8.15425],[-35.90259,-8.15782],[-35.9028,-8.15879],[-35.90099,-8.15932],[-35.89969,-8.16025],[-35.89882,-8.16126],[-35.90092,-8.16375],[-35.90229,-8.16493],[-35.90528,-8.16862],[-35.90645,-8.17068],[-35.90868,-8.17234],[-35.91361,-8.17832],[-35.91429,-8.18056],[-35.91491,-8.18185],[-35.91491,-8.18362],[-35.91535,-8.18598],[-35.91622,-8.18749],[-35.87994,-8.20629],[-35.88261,-8.19905],[-35.8872,-8.19123],[-35.88835,-8.18956],[-35.8908,-8.17924],[-35.89047,-8.17667],[-35.88974,-8.17486],[-35.8883,-8.17218],[-35.88591,-8.17026],[-35.88311,-8.1697],[-35.88101,-8.16749],[-35.87906,-8.16661],[-35.87699,-8.16467],[-35.87577,-8.16463],[-35.87346,-8.16232],[-35.87152,-8.16335],[-35.87039,-8.1642],[-35.86764,-8.16574],[-35.8662,-8.16528],[-35.86386,-8.16532],[-35.86237,-8.16464],[-35.86136,-8.16485],[-35.86033,-8.16417],[-35.85879,-8.16272],[-35.85777,-8.16228],[-35.85503,-8.16246],[-35.85443,-8.16228],[-35.85241,-8.16038],[-35.85154,-8.15991],[-35.85093,-8.15905],[-35.84961,-8.159],[-35.84924,-8.15793],[-35.8499,-8.1554],[-35.84939,-8.15471],[-35.84788,-8.15406],[-35.84773,-8.15308],[-35.84767,-8.14958],[-35.8487,-8.14825],[-35.84821,-8.14699],[-35.84727,-8.14643],[-35.84524,-8.14675],[-35.84442,-8.14592],[-35.84567,-8.14447],[-35.84585,-8.14372],[-35.84535,-8.14276],[-35.84565,-8.13956],[-35.84589,-8.13875],[-35.84762,-8.13787],[-35.84651,-8.13533],[-35.84557,-8.13058],[-35.84428,-8.12981],[-35.84387,-8.12749],[-35.8424,-8.12675],[-35.84229,-8.1262],[-35.84354,-8.12481],[-35.84381,-8.12406],[-35.84221,-8.12237],[-35.84231,-8.12001],[-35.84189,-8.11948],[-35.83972,-8.11984],[-35.83788,-8.11893],[-35.83746,-8.11816],[-35.83826,-8.11669],[-35.83732,-8.11562],[-35.8357,-8.11545],[-35.83576,-8.11444]]]},"properties":{"codigo":"261170505","name":"Riacho das Almas","population":13255,"households":6826,"areaKm2":115.0687,"density":115.2}},{"type":"Feature","geometry":{"type":"Polygon","coordinates":[[[-35.75776,-7.97494],[-35.76041,-7.97749],[-35.76395,-7.97881],[-35.76532,-7.97749],[-35.76697,-7.9755],[-35.76935,-7.97398],[-35.77339,-7.97063],[-35.77554,-7.96976],[-35.78131,-7.96941],[-35.78448,-7.9696],[-35.78664,-7.96904],[-35.79375,-7.9713],[-35.79886,-7.97313],[-35.80135,-7.97301],[-35.80439,-7.97323],[-35.80502,-7.97356],[-35.80565,-7.97389],[-35.80722,-7.97637],[-35.80765,-7.97803],[-35.80696,-7.97941],[-35.80806,-7.98059],[-35.8115,-7.98155],[-35.81693,-7.98154],[-35.82396,-7.98341],[-35.82581,-7.98348],[-35.82762,-7.98279],[-35.83342,-7.98257],[-35.83614,-7.98289],[-35.83381,-7.98285],[-35.83358,-7.98415],[-35.83424,-7.98522],[-35.83319,-7.98688],[-35.83309,-7.98868],[-35.83211,-7.9898],[-35.83277,-7.99107],[-35.83074,-7.99222],[-35.82773,-7.99171],[-35.82603,-7.99177],[-35.82555,-7.99361],[-35.82553,-7.99466],[-35.82254,-7.99399],[-35.82218,-7.99542],[-35.82306,-7.99547],[-35.82328,-7.99712],[-35.82303,-7.99839],[-35.82142,-8.00037],[-35.82157,-8.00208],[-35.82106,-8.00302],[-35.82123,-8.0041],[-35.81961,-8.00339],[-35.81777,-8.00148],[-35.81608,-8.00082],[-35.81676,-8.00398],[-35.81644,-8.0059],[-35.81599,-8.00661],[-35.81593,-8.00853],[-35.81633,-8.0108],[-35.81587,-8.01227],[-35.81578,-8.01444],[-35.81595,-8.0167],[-35.8109,-8.02315],[-35.8104,-8.02266],[-35.80782,-8.02189],[-35.8054,-8.02215],[-35.80412,-8.02394],[-35.80107,-8.02692],[-35.79959,-8.02743],[-35.79711,-8.02754],[-35.79551,-8.02728],[-35.79529,-8.02606],[-35.7929,-8.02543],[-35.79181,-8.02388],[-35.79114,-8.02337],[-35.78879,-8.02294],[-35.78817,-8.02243],[-35.78816,-8.02116],[-35.7869,-8.01656],[-35.7859,-8.01509],[-35.78477,-8.01487],[-35.78269,-8.01501],[-35.78139,-8.01533],[-35.77864,-8.01519],[-35.77719,-8.0147],[-35.77544,-8.01367],[-35.77378,-8.0123],[-35.77242,-8.01182],[-35.77049,-8.01202],[-35.76711,-8.01282],[-35.76533,-8.01219],[-35.76414,-8.01218],[-35.76279,-8.01319],[-35.76106,-8.01246],[-35.76006,-8.01231],[-35.75927,-8.0111],[-35.76042,-8.00946],[-35.75997,-8.00782],[-35.76022,-8.00682],[-35.76121,-8.00589],[-35.76373,-8.00474],[-35.76521,-8.00281],[-35.7654,-8.00202],[-35.76281,-8.00154],[-35.76214,-8.00104],[-35.76235,-7.99846],[-35.75972,-7.99661],[-35.7596,-7.99619],[-35.7606,-7.99299],[-35.75972,-7.99172],[-35.75515,-7.99167],[-35.75423,-7.98942],[-35.75421,-7.98859],[-35.75784,-7.98759],[-35.75643,-7.98037],[-35.75776,-7.97494]]]},"properties":{"codigo":"261170510","name":"Couro d'Antas","population":614,"households":427,"areaKm2":33.9497,"density":18.1}},{"type":"Feature","geometry":{"type":"Polygon","coordinates":[[[-35.79551,-8.02728],[-35.79711,-8.02754],[-35.79959,-8.02743],[-35.80107,-8.02692],[-35.80412,-8.02394],[-35.8054,-8.02215],[-35.80782,-8.02189],[-35.8104,-8.02266],[-35.8109,-8.02315],[-35.81595,-8.0167],[-35.81578,-8.01444],[-35.81587,-8.01227],[-35.81633,-8.0108],[-35.81593,-8.00853],[-35.81599,-8.00661],[-35.81644,-8.0059],[-35.81676,-8.00398],[-35.81608,-8.00082],[-35.81777,-8.00148],[-35.81961,-8.00339],[-35.82123,-8.0041],[-35.82106,-8.00302],[-35.82157,-8.00208],[-35.82142,-8.00037],[-35.82303,-7.99839],[-35.82328,-7.99712],[-35.82306,-7.99547],[-35.82218,-7.99542],[-35.82254,-7.99399],[-35.82553,-7.99466],[-35.82555,-7.99361],[-35.82603,-7.99177],[-35.82773,-7.99171],[-35.83074,-7.99222],[-35.83277,-7.99107],[-35.83211,-7.9898],[-35.83309,-7.98868],[-35.83319,-7.98688],[-35.83424,-7.98522],[-35.83358,-7.98415],[-35.83381,-7.98285],[-35.83614,-7.98289],[-35.8427,-7.98366],[-35.84336,-7.98401],[-35.84696,-7.98976],[-35.84826,-7.99336],[-35.84962,-7.99449],[-35.85296,-7.99551],[-35.85584,-7.99551],[-35.85932,-7.9945],[-35.86501,-7.99413],[-35.86703,-7.99323],[-35.87034,-7.99093],[-35.87125,-7.9905],[-35.87332,-7.98953],[-35.87608,-7.98941],[-35.87847,-7.9898],[-35.88106,-7.99153],[-35.88347,-7.9941],[-35.88499,-7.99653],[-35.88318,-8.00098],[-35.88385,-8.00369],[-35.88519,-8.00475],[-35.88692,-8.00535],[-35.88812,-8.00473],[-35.88805,-8.00801],[-35.88948,-8.00829],[-35.88964,-8.01022],[-35.88918,-8.01092],[-35.88767,-8.01118],[-35.88761,-8.0124],[-35.88814,-8.01301],[-35.89021,-8.012],[-35.89071,-8.01244],[-35.89037,-8.01406],[-35.89148,-8.01537],[-35.89282,-8.01439],[-35.89367,-8.01541],[-35.89293,-8.01673],[-35.89446,-8.01807],[-35.89484,-8.0192],[-35.8945,-8.02085],[-35.89667,-8.02121],[-35.89641,-8.02302],[-35.89723,-8.02542],[-35.89719,-8.02608],[-35.89526,-8.03002],[-35.89501,-8.03135],[-35.89379,-8.03144],[-35.89286,-8.03026],[-35.8909,-8.03148],[-35.88864,-8.03131],[-35.88868,-8.03256],[-35.88793,-8.03365],[-35.88907,-8.03446],[-35.89043,-8.03477],[-35.89178,-8.03384],[-35.89311,-8.034],[-35.89286,-8.03607],[-35.89204,-8.03672],[-35.89297,-8.03764],[-35.8927,-8.03822],[-35.89031,-8.03709],[-35.88981,-8.03734],[-35.89105,-8.03905],[-35.89128,-8.03988],[-35.89286,-8.0407],[-35.89278,-8.04291],[-35.89318,-8.04352],[-35.89295,-8.04585],[-35.8925,-8.04694],[-35.8938,-8.0495],[-35.89329,-8.05068],[-35.89349,-8.05198],[-35.8923,-8.05371],[-35.89143,-8.05342],[-35.89077,-8.05392],[-35.89124,-8.05486],[-35.89095,-8.05545],[-35.88959,-8.05613],[-35.8897,-8.05681],[-35.89065,-8.05706],[-35.89265,-8.05828],[-35.89274,-8.05917],[-35.89163,-8.0611],[-35.89215,-8.0624],[-35.89056,-8.06316],[-35.88901,-8.06303],[-35.88809,-8.06436],[-35.88888,-8.0653],[-35.88742,-8.06508],[-35.88609,-8.06449],[-35.88385,-8.06429],[-35.88178,-8.06513],[-35.88064,-8.06534],[-35.87954,-8.06621],[-35.87761,-8.06621],[-35.87681,-8.06689],[-35.87641,-8.0694],[-35.87714,-8.07412],[-35.87847,-8.07485],[-35.87973,-8.07666],[-35.88008,-8.07755],[-35.87803,-8.07821],[-35.87342,-8.07775],[-35.87323,-8.08013],[-35.87292,-8.0813],[-35.87273,-8.08385],[-35.87079,-8.08358],[-35.86975,-8.08438],[-35.86727,-8.08566],[-35.86547,-8.08403],[-35.86416,-8.08352],[-35.86259,-8.08406],[-35.8608,-8.08395],[-35.85782,-8.08316],[-35.85455,-8.08277],[-35.85377,-8.08188],[-35.85338,-8.08081],[-35.85322,-8.07829],[-35.8528,-8.0778],[-35.85127,-8.07742],[-35.85048,-8.07659],[-35.84923,-8.07222],[-35.84646,-8.07044],[-35.84633,-8.06963],[-35.84533,-8.06848],[-35.84388,-8.06777],[-35.84348,-8.06701],[-35.84154,-8.06575],[-35.83903,-8.06616],[-35.83885,-8.06732],[-35.83957,-8.06906],[-35.83885,-8.06977],[-35.83666,-8.06718],[-35.83601,-8.06664],[-35.83356,-8.06638],[-35.8313,-8.06481],[-35.83085,-8.06368],[-35.8332,-8.06158],[-35.83349,-8.06023],[-35.83265,-8.05916],[-35.83104,-8.05773],[-35.82933,-8.05505],[-35.8281,-8.05451],[-35.82745,-8.05469],[-35.82732,-8.05723],[-35.82605,-8.05873],[-35.82518,-8.05877],[-35.82304,-8.0583],[-35.82174,-8.05756],[-35.81777,-8.0564],[-35.81617,-8.05673],[-35.81392,-8.05265],[-35.81161,-8.05044],[-35.80942,-8.04952],[-35.80666,-8.04722],[-35.80536,-8.04591],[-35.80325,-8.04449],[-35.8031,-8.04238],[-35.80189,-8.04149],[-35.80051,-8.0418],[-35.7996,-8.04075],[-35.80066,-8.03916],[-35.80068,-8.0385],[-35.79959,-8.03762],[-35.79877,-8.03653],[-35.80102,-8.03449],[-35.80193,-8.03323],[-35.80232,-8.03216],[-35.80334,-8.03082],[-35.80299,-8.02884],[-35.80246,-8.02835],[-35.80167,-8.02878],[-35.80132,-8.03008],[-35.80025,-8.03073],[-35.79933,-8.03202],[-35.79861,-8.03225],[-35.79629,-8.03146],[-35.79577,-8.03067],[-35.79551,-8.02728]]]},"properties":{"codigo":"261170512","name":"Pinhões","population":1688,"households":1002,"areaKm2":76.4873,"density":22.1}},{"type":"Feature","geometry":{"type":"Polygon","coordinates":[[[-35.94368,-8.0613],[-35.94122,-8.06222],[-35.94007,-8.06206],[-35.93879,-8.06261],[-35.93677,-8.06289],[-35.93445,-8.06293],[-35.93283,-8.06245],[-35.93079,-8.06334],[-35.9297,-8.06453],[-35.9275,-8.06585],[-35.92555,-8.06623],[-35.92285,-8.06599],[-35.92158,-8.06466],[-35.92006,-8.06464],[-35.91748,-8.06397],[-35.91447,-8.06382],[-35.91032,-8.06223],[-35.90948,-8.06208],[-35.9069,-8.06237],[-35.9043,-8.06302],[-35.90343,-8.06258],[-35.90124,-8.06343],[-35.89893,-8.06477],[-35.89756,-8.06533],[-35.89603,-8.06523],[-35.89314,-8.06419],[-35.88888,-8.0653],[-35.88809,-8.06436],[-35.88901,-8.06303],[-35.89056,-8.06316],[-35.89215,-8.0624],[-35.89163,-8.0611],[-35.89274,-8.05917],[-35.89265,-8.05828],[-35.89065,-8.05706],[-35.8897,-8.05681],[-35.88959,-8.05613],[-35.89095,-8.05545],[-35.89124,-8.05486],[-35.89077,-8.05392],[-35.89143,-8.05342],[-35.8923,-8.05371],[-35.89349,-8.05198],[-35.89329,-8.05068],[-35.8938,-8.0495],[-35.8925,-8.04694],[-35.89295,-8.04585],[-35.89318,-8.04352],[-35.89278,-8.04291],[-35.89286,-8.0407],[-35.89128,-8.03988],[-35.89105,-8.03905],[-35.88981,-8.03734],[-35.89031,-8.03709],[-35.8927,-8.03822],[-35.89297,-8.03764],[-35.89204,-8.03672],[-35.89286,-8.03607],[-35.89311,-8.034],[-35.89178,-8.03384],[-35.89043,-8.03477],[-35.88907,-8.03446],[-35.88793,-8.03365],[-35.88868,-8.03256],[-35.88864,-8.03131],[-35.8909,-8.03148],[-35.89286,-8.03026],[-35.89379,-8.03144],[-35.89501,-8.03135],[-35.89526,-8.03002],[-35.89719,-8.02608],[-35.89723,-8.02542],[-35.89641,-8.02302],[-35.89667,-8.02121],[-35.8945,-8.02085],[-35.89484,-8.0192],[-35.89446,-8.01807],[-35.89293,-8.01673],[-35.89367,-8.01541],[-35.89282,-8.01439],[-35.89148,-8.01537],[-35.89037,-8.01406],[-35.89071,-8.01244],[-35.89021,-8.012],[-35.88814,-8.01301],[-35.88761,-8.0124],[-35.88767,-8.01118],[-35.88918,-8.01092],[-35.88964,-8.01022],[-35.88948,-8.00829],[-35.88805,-8.00801],[-35.88812,-8.00473],[-35.88981,-8.0034],[-35.89216,-8.00248],[-35.89392,-8.00147],[-35.8954,-8.00108],[-35.89759,-8.00235],[-35.89958,-8.00393],[-35.90346,-8.0057],[-35.90663,-8.00618],[-35.91142,-8.0043],[-35.91432,-8.0028],[-35.91565,-8.00469],[-35.9281,-8.02982],[-35.94368,-8.0613]]]},"properties":{"codigo":"261170515","name":"Trapiá","population":2516,"households":1446,"areaKm2":27.5743,"density":91.2}},{"type":"Feature","geometry":{"type":"Polygon","coordinates":[[[-35.92595,-8.20096],[-35.92254,-8.20327],[-35.9217,-8.203],[-35.92095,-8.20208],[-35.92027,-8.19835],[-35.92063,-8.19649],[-35.92046,-8.19381],[-35.91989,-8.19177],[-35.91903,-8.18954],[-35.91771,-8.18759],[-35.917,-8.18708],[-35.91622,-8.18749],[-35.91535,-8.18598],[-35.91491,-8.18362],[-35.91491,-8.18185],[-35.91429,-8.18056],[-35.91361,-8.17832],[-35.90868,-8.17234],[-35.90645,-8.17068],[-35.90528,-8.16862],[-35.90229,-8.16493],[-35.90092,-8.16375],[-35.89882,-8.16126],[-35.89969,-8.16025],[-35.90099,-8.15932],[-35.9028,-8.15879],[-35.90259,-8.15782],[-35.90553,-8.15425],[-35.90476,-8.15177],[-35.90548,-8.15142],[-35.90583,-8.15017],[-35.90655,-8.14471],[-35.90691,-8.14325],[-35.90781,-8.14223],[-35.90662,-8.14004],[-35.9046,-8.13923],[-35.90695,-8.13556],[-35.90955,-8.13114],[-35.91119,-8.12936],[-35.91284,-8.12578],[-35.91439,-8.12509],[-35.91579,-8.1234],[-35.91724,-8.122],[-35.91888,-8.12011],[-35.92091,-8.11853],[-35.92327,-8.11607],[-35.9241,-8.11488],[-35.92457,-8.11362],[-35.92647,-8.11271],[-35.92934,-8.11082],[-35.93151,-8.11012],[-35.93304,-8.10984],[-35.93562,-8.10813],[-35.93753,-8.10553],[-35.93889,-8.10448],[-35.93949,-8.10331],[-35.94249,-8.10383],[-35.94288,-8.10445],[-35.94426,-8.10513],[-35.9457,-8.10689],[-35.94674,-8.10755],[-35.94927,-8.11049],[-35.95183,-8.11229],[-35.95291,-8.11277],[-35.95512,-8.11473],[-35.95692,-8.11536],[-35.95871,-8.1156],[-35.9599,-8.11536],[-35.961,-8.11577],[-35.96255,-8.11704],[-35.96387,-8.11902],[-35.96528,-8.12008],[-35.96623,-8.12195],[-35.9685,-8.12396],[-35.9708,-8.12509],[-35.97284,-8.12548],[-35.97418,-8.12613],[-35.97564,-8.12555],[-35.98512,-8.1441],[-35.97622,-8.16675],[-35.96424,-8.17491],[-35.92595,-8.20096]]]},"properties":{"codigo":"261170520","name":"Vitorino","population":2566,"households":1929,"areaKm2":60.9228,"density":42.1}}]}