{"type":"FeatureCollection","features":[{"type":"Feature","geometry":{"type":"Polygon","coordinates":[[[-34.9569,-8.06121],[-34.95628,-8.0606],[-34.95605,-8.05966],[-34.95564,-8.05942],[-34.95539,-8.05985],[-34.95459,-8.057],[-34.95105,-8.05811],[-34.94864,-8.05881],[-34.9459,-8.05967],[-34.94612,-8.05815],[-34.9462,-8.0567],[-34.94614,-8.05311],[-34.94599,-8.05285],[-34.94316,-8.05363],[-34.94295,-8.05202],[-34.94435,-8.05162],[-34.94419,-8.04986],[-34.94389,-8.0463],[-34.94482,-8.04639],[-34.94679,-8.04642],[-34.95377,-8.04639],[-34.9547,-8.04965],[-34.95657,-8.05639],[-34.95714,-8.05623],[-34.95776,-8.05702],[-34.9584,-8.05688],[-34.95813,-8.05593],[-34.95911,-8.05565],[-34.95848,-8.05796],[-34.95772,-8.05961],[-34.95822,-8.06128],[-34.9569,-8.06121]]]},"properties":{"codigo":"2611606074","name":"Cidade Universitária","population":1819,"households":848,"areaKm2":1.6554,"density":1098.8}},{"type":"Feature","geometry":{"type":"Polygon","coordinates":[[[-34.90491,-8.02111],[-34.90457,-8.02156],[-34.90386,-8.02204],[-34.9032,-8.02222],[-34.9039,-8.02325],[-34.90534,-8.02271],[-34.90574,-8.02412],[-34.90673,-8.02485],[-34.90661,-8.02556],[-34.90548,-8.02616],[-34.90494,-8.02608],[-34.90344,-8.02645],[-34.8992,-8.02638],[-34.89882,-8.02646],[-34.89974,-8.02479],[-34.90061,-8.02288],[-34.90491,-8.02111]]]},"properties":{"codigo":"2611606053","name":"Mangabeira","population":6397,"households":2630,"areaKm2":0.2873,"density":22267.6}},{"type":"Feature","geometry":{"type":"Polygon","coordinates":[[[-34.88674,-8.0405],[-34.88477,-8.04246],[-34.88127,-8.04082],[-34.88179,-8.03979],[-34.88269,-8.03857],[-34.88361,-8.03898],[-34.88376,-8.03779],[-34.88599,-8.03978],[-34.88674,-8.0405]]]},"properties":{"codigo":"2611606026","name":"Torreão","population":1566,"households":732,"areaKm2":0.1618,"density":9678.5}},{"type":"Feature","geometry":{"type":"Polygon","coordinates":[[[-34.91192,-8.02407],[-34.91167,-8.02289],[-34.91164,-8.02029],[-34.91099,-8.01919],[-34.91103,-8.01876],[-34.91146,-8.01831],[-34.91263,-8.018],[-34.91365,-8.01687],[-34.91508,-8.01695],[-34.91597,-8.01624],[-34.91647,-8.01618],[-34.91777,-8.01713],[-34.9176,-8.01865],[-34.91771,-8.01975],[-34.91716,-8.02049],[-34.91583,-8.02108],[-34.91526,-8.02109],[-34.9144,-8.02139],[-34.91473,-8.02254],[-34.91313,-8.02351],[-34.91192,-8.02407]]]},"properties":{"codigo":"2611606051","name":"Morro da Conceição","population":8217,"households":3298,"areaKm2":0.3794,"density":21658.9}},{"type":"Feature","geometry":{"type":"Polygon","coordinates":[[[-34.93473,-8.07781],[-34.93305,-8.07841],[-34.9327,-8.07825],[-34.93215,-8.07845],[-34.93129,-8.07835],[-34.93004,-8.0788],[-34.9298,-8.07919],[-34.9289,-8.08002],[-34.9285,-8.08069],[-34.9284,-8.08151],[-34.9279,-8.08204],[-34.92653,-8.08311],[-34.9288,-8.0838],[-34.92844,-8.08478],[-34.92813,-8.08468],[-34.92653,-8.08903],[-34.92638,-8.08978],[-34.92583,-8.0909],[-34.92521,-8.09245],[-34.92538,-8.09272],[-34.92142,-8.09452],[-34.92057,-8.09514],[-34.91991,-8.09586],[-34.91995,-8.09493],[-34.91915,-8.09294],[-34.91922,-8.09056],[-34.919,-8.08988],[-34.91857,-8.08932],[-34.91794,-8.08893],[-34.91647,-8.08883],[-34.91687,-8.08779],[-34.91684,-8.08704],[-34.91743,-8.08586],[-34.91784,-8.08532],[-34.91869,-8.08478],[-34.92122,-8.08391],[-34.9221,-8.08345],[-34.92296,-8.08382],[-34.9232,-8.08353],[-34.9228,-8.08302],[-34.92315,-8.08271],[-34.92384,-8.08331],[-34.92437,-8.084],[-34.92542,-8.0837],[-34.92446,-8.08286],[-34.92222,-8.08147],[-34.9226,-8.0798],[-34.92331,-8.07663],[-34.92389,-8.07661],[-34.92568,-8.07604],[-34.92816,-8.07543],[-34.93115,-8.07497],[-34.93148,-8.07625],[-34.93098,-8.07673],[-34.9317,-8.07838],[-34.93189,-8.07792],[-34.93271,-8.07777],[-34.93394,-8.07777],[-34.9344,-8.0775],[-34.93467,-8.07701],[-34.93524,-8.07703],[-34.93473,-8.07781]]]},"properties":{"codigo":"2611606076","name":"Jiquiá","population":12051,"households":5295,"areaKm2":1.675,"density":7194.6}},{"type":"Feature","geometry":{"type":"Polygon","coordinates":[[[-34.93762,-8.00902],[-34.93758,-8.01045],[-34.93785,-8.01133],[-34.93936,-8.01435],[-34.93997,-8.01541],[-34.94186,-8.01815],[-34.9422,-8.01881],[-34.94259,-8.02012],[-34.94281,-8.02307],[-34.94304,-8.02751],[-34.94176,-8.02714],[-34.94134,-8.02658],[-34.94041,-8.02616],[-34.93964,-8.02542],[-34.93802,-8.02417],[-34.93794,-8.02345],[-34.93847,-8.02289],[-34.93848,-8.02239],[-34.93777,-8.02206],[-34.93674,-8.02242],[-34.93559,-8.02254],[-34.93407,-8.0225],[-34.93369,-8.02127],[-34.93242,-8.02165],[-34.93169,-8.02202],[-34.93137,-8.02177],[-34.93144,-8.02096],[-34.93117,-8.02033],[-34.93048,-8.02007],[-34.93063,-8.01975],[-34.92986,-8.01922],[-34.92985,-8.01868],[-34.93013,-8.01745],[-34.93098,-8.01658],[-34.93306,-8.01832],[-34.93424,-8.0183],[-34.93517,-8.01738],[-34.93517,-8.01627],[-34.93477,-8.01566],[-34.93485,-8.01503],[-34.9345,-8.01438],[-34.93431,-8.01276],[-34.93334,-8.01208],[-34.9343,-8.01158],[-34.93545,-8.01038],[-34.93676,-8.00893],[-34.93762,-8.00902]]]},"properties":{"codigo":"2611606043","name":"Apipucos","population":2523,"households":991,"areaKm2":1.3045,"density":1934}},{"type":"Feature","geometry":{"type":"Polygon","coordinates":[[[-34.99087,-8.03231],[-34.99282,-8.03206],[-34.99324,-8.03223],[-34.99392,-8.03211],[-34.99384,-8.0328],[-34.99439,-8.03266],[-34.99497,-8.03299],[-34.99583,-8.03317],[-34.99619,-8.03364],[-34.99599,-8.03487],[-34.99654,-8.03534],[-34.99628,-8.03577],[-34.99614,-8.03685],[-34.99498,-8.03828],[-34.99398,-8.03985],[-34.99375,-8.04042],[-34.99326,-8.04267],[-34.99353,-8.04355],[-34.99428,-8.04437],[-34.99478,-8.04607],[-34.99641,-8.04672],[-35.00523,-8.05072],[-35.01669,-8.05581],[-35.01587,-8.05578],[-35.01494,-8.05591],[-35.01461,-8.05631],[-35.01367,-8.05627],[-35.01352,-8.05691],[-35.013,-8.05751],[-35.01227,-8.05799],[-35.01231,-8.05904],[-35.01132,-8.05947],[-35.01075,-8.0591],[-35.00999,-8.05928],[-35.00938,-8.06033],[-35.00883,-8.06009],[-35.00662,-8.05966],[-35.00641,-8.06041],[-35.00522,-8.06209],[-35.0049,-8.06272],[-35.00331,-8.06278],[-35.00266,-8.06402],[-35.00182,-8.06387],[-35.0003,-8.0639],[-34.99923,-8.06305],[-34.99799,-8.06247],[-34.99712,-8.06152],[-34.99625,-8.06089],[-34.99571,-8.06073],[-34.99541,-8.06098],[-34.99509,-8.06242],[-34.99455,-8.06226],[-34.99312,-8.06224],[-34.99306,-8.06261],[-34.99377,-8.06359],[-34.99326,-8.06516],[-34.99323,-8.06591],[-34.99299,-8.06642],[-34.99195,-8.06658],[-34.99158,-8.06692],[-34.9901,-8.06889],[-34.98925,-8.0692],[-34.9892,-8.06964],[-34.98953,-8.0709],[-34.9894,-8.07117],[-34.98719,-8.0716],[-34.98614,-8.07165],[-34.98561,-8.07132],[-34.98307,-8.06924],[-34.98257,-8.06893],[-34.98056,-8.0673],[-34.98005,-8.07225],[-34.97595,-8.07109],[-34.9753,-8.07083],[-34.96575,-8.06618],[-34.96268,-8.06489],[-34.9569,-8.06121],[-34.95822,-8.06128],[-34.95772,-8.05961],[-34.95848,-8.05796],[-34.95911,-8.05565],[-34.95813,-8.05593],[-34.9584,-8.05688],[-34.95776,-8.05702],[-34.95714,-8.05623],[-34.95657,-8.05639],[-34.9547,-8.04965],[-34.95377,-8.04639],[-34.94679,-8.04642],[-34.94482,-8.04639],[-34.94369,-8.04369],[-34.94348,-8.04349],[-34.94217,-8.04018],[-34.9418,-8.03909],[-34.94556,-8.03704],[-34.94981,-8.03466],[-34.95278,-8.03306],[-34.95838,-8.02995],[-34.95884,-8.02956],[-34.96011,-8.02735],[-34.96188,-8.02443],[-34.96269,-8.0238],[-34.9628,-8.02298],[-34.9631,-8.02259],[-34.964,-8.02206],[-34.96596,-8.02119],[-34.96598,-8.02103],[-34.96646,-8.02214],[-34.96712,-8.02251],[-34.96799,-8.02235],[-34.96842,-8.02256],[-34.9741,-8.02935],[-34.97476,-8.0299],[-34.97535,-8.02977],[-34.97606,-8.02893],[-34.97677,-8.02897],[-34.97717,-8.0293],[-34.97868,-8.02937],[-34.97974,-8.03073],[-34.98015,-8.0319],[-34.97993,-8.03275],[-34.98177,-8.03397],[-34.98233,-8.03475],[-34.98345,-8.03491],[-34.98471,-8.03546],[-34.98599,-8.03671],[-34.98658,-8.03659],[-34.98733,-8.03618],[-34.98845,-8.03505],[-34.98963,-8.03372],[-34.99019,-8.03265],[-34.99087,-8.03231]]]},"properties":{"codigo":"2611606069","name":"Várzea","population":70946,"households":31183,"areaKm2":22.4719,"density":3157.1}},{"type":"Feature","geometry":{"type":"Polygon","coordinates":[[[-34.91647,-8.01618],[-34.91647,-8.01589],[-34.91583,-8.01527],[-34.91664,-8.01488],[-34.91623,-8.01357],[-34.91572,-8.01248],[-34.91566,-8.01188],[-34.91528,-8.01153],[-34.91503,-8.01072],[-34.91456,-8.00987],[-34.91233,-8.00748],[-34.91232,-8.00723],[-34.91287,-8.00661],[-34.91348,-8.0062],[-34.91468,-8.00576],[-34.91617,-8.00478],[-34.91792,-8.00345],[-34.91916,-8.0026],[-34.92165,-8.00353],[-34.92213,-8.00476],[-34.92133,-8.00604],[-34.9221,-8.00614],[-34.92255,-8.0072],[-34.92214,-8.00837],[-34.92227,-8.00899],[-34.92323,-8.00986],[-34.92316,-8.01184],[-34.92322,-8.0128],[-34.923,-8.01334],[-34.92322,-8.01415],[-34.92337,-8.01559],[-34.92383,-8.01613],[-34.92439,-8.01747],[-34.92421,-8.01774],[-34.92439,-8.019],[-34.92523,-8.01976],[-34.92536,-8.02033],[-34.92274,-8.02069],[-34.91849,-8.02113],[-34.91766,-8.02127],[-34.91716,-8.02049],[-34.91771,-8.01975],[-34.9176,-8.01865],[-34.91777,-8.01713],[-34.91647,-8.01618]]]},"properties":{"codigo":"2611606049","name":"Vasco da Gama","population":26631,"households":10773,"areaKm2":1.5996,"density":16648.3}},{"type":"Feature","geometry":{"type":"Polygon","coordinates":[[[-34.90393,-8.07579],[-34.90271,-8.07522],[-34.89806,-8.07384],[-34.89422,-8.07277],[-34.89298,-8.07267],[-34.88958,-8.07285],[-34.88848,-8.07266],[-34.88789,-8.07235],[-34.88854,-8.07105],[-34.88942,-8.07098],[-34.89036,-8.07055],[-34.89414,-8.06829],[-34.89542,-8.06768],[-34.89685,-8.0675],[-34.89803,-8.06771],[-34.89922,-8.06751],[-34.89982,-8.0672],[-34.90062,-8.06786],[-34.90134,-8.06759],[-34.90248,-8.06591],[-34.90315,-8.06576],[-34.90364,-8.06623],[-34.90395,-8.0669],[-34.9046,-8.06764],[-34.90509,-8.06799],[-34.90613,-8.06867],[-34.90656,-8.06944],[-34.90665,-8.06997],[-34.90653,-8.07124],[-34.9062,-8.07184],[-34.90537,-8.07227],[-34.90479,-8.07286],[-34.90438,-8.07364],[-34.90403,-8.0738],[-34.90421,-8.07474],[-34.90393,-8.07579]]]},"properties":{"codigo":"2611606009","name":"Ilha Joana Bezerra","population":12257,"households":4766,"areaKm2":1.1688,"density":10486.6}},{"type":"Feature","geometry":{"type":"Polygon","coordinates":[[[-34.88376,-8.03779],[-34.88395,-8.03676],[-34.88324,-8.03582],[-34.88539,-8.03355],[-34.88792,-8.03532],[-34.8886,-8.03566],[-34.89049,-8.0326],[-34.88984,-8.03175],[-34.88978,-8.02968],[-34.89176,-8.02999],[-34.8915,-8.03113],[-34.89399,-8.03156],[-34.89501,-8.03121],[-34.89651,-8.03351],[-34.89815,-8.03696],[-34.89574,-8.03793],[-34.89429,-8.0383],[-34.89462,-8.03931],[-34.89374,-8.03968],[-34.89246,-8.03992],[-34.89203,-8.03859],[-34.8907,-8.03906],[-34.88878,-8.03937],[-34.88758,-8.03984],[-34.88674,-8.0405],[-34.88599,-8.03978],[-34.88376,-8.03779]]]},"properties":{"codigo":"2611606025","name":"Encruzilhada","population":15249,"households":6868,"areaKm2":1.0165,"density":15001.1}},{"type":"Feature","geometry":{"type":"Polygon","coordinates":[[[-34.94745,-8.13762],[-34.94424,-8.13764],[-34.94307,-8.13731],[-34.93719,-8.13682],[-34.93643,-8.13795],[-34.93323,-8.14159],[-34.9325,-8.14189],[-34.93022,-8.14163],[-34.92792,-8.14122],[-34.92581,-8.14129],[-34.9251,-8.14139],[-34.92161,-8.1416],[-34.92024,-8.14207],[-34.918,-8.1431],[-34.91807,-8.1428],[-34.91786,-8.14159],[-34.91808,-8.14188],[-34.91933,-8.14161],[-34.92062,-8.14088],[-34.9216,-8.13987],[-34.92183,-8.13981],[-34.92277,-8.14025],[-34.92407,-8.14062],[-34.9271,-8.14048],[-34.92944,-8.14074],[-34.92953,-8.13771],[-34.93023,-8.13739],[-34.93231,-8.13619],[-34.93296,-8.13497],[-34.93401,-8.13448],[-34.9337,-8.13421],[-34.93369,-8.13163],[-34.93416,-8.13074],[-34.93328,-8.13106],[-34.93323,-8.13044],[-34.93345,-8.1293],[-34.93918,-8.13036],[-34.94015,-8.12974],[-34.94093,-8.13091],[-34.94182,-8.13114],[-34.94267,-8.13159],[-34.9441,-8.13056],[-34.94467,-8.1314],[-34.94504,-8.13117],[-34.94677,-8.13322],[-34.94732,-8.13432],[-34.94742,-8.1351],[-34.9474,-8.13743],[-34.94747,-8.13762],[-34.94745,-8.13762]]]},"properties":{"codigo":"2611606088","name":"Jordão","population":20449,"households":8233,"areaKm2":1.5769,"density":12967.6}},{"type":"Feature","geometry":{"type":"Polygon","coordinates":[[[-34.96369,-8.00247],[-34.96374,-8.00291],[-34.96205,-8.00204],[-34.96057,-8.0021],[-34.95979,-8.00196],[-34.95923,-8.00162],[-34.95869,-8.00081],[-34.95822,-7.99889],[-34.95773,-7.99835],[-34.95323,-7.99453],[-34.95251,-7.99399],[-34.95151,-7.99365],[-34.94598,-7.99262],[-34.94518,-7.9924],[-34.9442,-7.99238],[-34.94347,-7.99252],[-34.94145,-7.99328],[-34.94095,-7.99207],[-34.94022,-7.99181],[-34.93961,-7.99182],[-34.94059,-7.9934],[-34.93865,-7.99491],[-34.93803,-7.99419],[-34.93703,-7.99285],[-34.93603,-7.99047],[-34.93524,-7.98914],[-34.93267,-7.98616],[-34.93192,-7.98513],[-34.9318,-7.98398],[-34.93206,-7.98234],[-34.93183,-7.98158],[-34.93121,-7.9809],[-34.92994,-7.97984],[-34.92771,-7.97843],[-34.92656,-7.97727],[-34.92558,-7.97662],[-34.9235,-7.97578],[-34.92266,-7.97523],[-34.922,-7.97414],[-34.92092,-7.97079],[-34.92021,-7.96945],[-34.91718,-7.96518],[-34.91613,-7.96378],[-34.91562,-7.96353],[-34.91421,-7.96234],[-34.91324,-7.96128],[-34.9128,-7.96039],[-34.91184,-7.95751],[-34.91124,-7.95447],[-34.91081,-7.95372],[-34.91029,-7.95375],[-34.91016,-7.95278],[-34.90925,-7.94401],[-34.91059,-7.94279],[-34.91128,-7.94112],[-34.9113,-7.94041],[-34.91105,-7.93956],[-34.91124,-7.93911],[-34.91387,-7.93707],[-34.91407,-7.93665],[-34.91535,-7.93583],[-34.91548,-7.93549],[-34.91616,-7.93483],[-34.91799,-7.93533],[-34.91841,-7.93593],[-34.91975,-7.93555],[-34.92066,-7.93498],[-34.9211,-7.93497],[-34.92244,-7.9344],[-34.92262,-7.93453],[-34.92351,-7.93353],[-34.92448,-7.93398],[-34.92546,-7.93395],[-34.92548,-7.93454],[-34.92606,-7.93535],[-34.92749,-7.93571],[-34.92813,-7.93564],[-34.92864,-7.93507],[-34.9296,-7.93483],[-34.9305,-7.93491],[-34.93179,-7.93419],[-34.93224,-7.9341],[-34.93302,-7.9336],[-34.93395,-7.9325],[-34.93441,-7.9324],[-34.93531,-7.93268],[-34.93606,-7.93212],[-34.93682,-7.93277],[-34.93765,-7.93309],[-34.93812,-7.93306],[-34.93926,-7.93221],[-34.94019,-7.93119],[-34.941,-7.93162],[-34.94177,-7.93117],[-34.94259,-7.93088],[-34.9428,-7.93002],[-34.945,-7.92987],[-34.94576,-7.93029],[-34.94714,-7.92984],[-34.94763,-7.93031],[-34.94841,-7.92954],[-34.94893,-7.93002],[-34.94902,-7.93103],[-34.95005,-7.93178],[-34.95102,-7.93303],[-34.95129,-7.93386],[-34.95166,-7.93429],[-34.95187,-7.93501],[-34.9523,-7.93549],[-34.95396,-7.93603],[-34.95454,-7.936],[-34.95657,-7.9355],[-34.95723,-7.9358],[-34.9578,-7.9363],[-34.95843,-7.93597],[-34.95908,-7.9365],[-34.95932,-7.93718],[-34.95995,-7.93769],[-34.96022,-7.93824],[-34.96115,-7.93844],[-34.96316,-7.93902],[-34.96462,-7.94014],[-34.96569,-7.9406],[-34.96634,-7.94108],[-34.96776,-7.94179],[-34.9685,-7.94153],[-34.96965,-7.94139],[-34.97001,-7.94058],[-34.97086,-7.94014],[-34.97152,-7.94047],[-34.972,-7.94118],[-34.97247,-7.94101],[-34.97384,-7.94097],[-34.97477,-7.9405],[-34.97509,-7.93988],[-34.97721,-7.93962],[-34.97755,-7.94008],[-34.97834,-7.94017],[-34.97892,-7.94074],[-34.9796,-7.9411],[-34.98064,-7.94139],[-34.98112,-7.9413],[-34.98117,-7.94056],[-34.9819,-7.94024],[-34.98239,-7.9398],[-34.98312,-7.94019],[-34.98401,-7.94],[-34.984,-7.9397],[-34.98475,-7.93943],[-34.9851,-7.94027],[-34.98484,-7.94063],[-34.98592,-7.94078],[-34.98633,-7.94101],[-34.98687,-7.9407],[-34.98732,-7.94079],[-34.98776,-7.94045],[-34.98788,-7.93957],[-34.98869,-7.93879],[-34.99036,-7.93883],[-34.99093,-7.93835],[-34.99083,-7.93728],[-34.99086,-7.93631],[-34.99145,-7.93614],[-34.99161,-7.93569],[-34.99141,-7.93489],[-34.99212,-7.93428],[-34.99271,-7.93429],[-34.9927,-7.93328],[-34.99366,-7.93293],[-34.99459,-7.93332],[-34.99589,-7.93326],[-34.99656,-7.93241],[-34.99632,-7.93195],[-34.99638,-7.93125],[-34.99701,-7.93076],[-34.99734,-7.93019],[-34.9984,-7.93026],[-34.99911,-7.92971],[-34.99996,-7.92973],[-35.00011,-7.9292],[-35.0084,-7.94573],[-35.00711,-7.94583],[-35.00579,-7.94622],[-35.00524,-7.94672],[-35.00409,-7.9468],[-35.00333,-7.94752],[-35.00286,-7.9476],[-35.00262,-7.94721],[-35.00205,-7.94713],[-35.0011,-7.94745],[-35.00064,-7.94811],[-34.99943,-7.94823],[-34.99872,-7.94848],[-34.99947,-7.95022],[-35.00372,-7.95955],[-35.0029,-7.96022],[-35.00284,-7.96066],[-35.00221,-7.96127],[-35.00192,-7.96182],[-35.00106,-7.9626],[-35.00071,-7.96331],[-35.00008,-7.96384],[-34.99921,-7.96388],[-34.99824,-7.96349],[-34.9978,-7.96288],[-34.99737,-7.96266],[-34.99534,-7.96268],[-34.99444,-7.96193],[-34.99382,-7.9616],[-34.99268,-7.96158],[-34.99174,-7.96225],[-34.99097,-7.96248],[-34.98989,-7.96231],[-34.98942,-7.96325],[-34.98877,-7.96406],[-34.98788,-7.96476],[-34.98736,-7.96488],[-34.98558,-7.96629],[-34.98344,-7.96667],[-34.98214,-7.9676],[-34.98127,-7.96795],[-34.9814,-7.96819],[-34.98055,-7.96888],[-34.97976,-7.9699],[-34.97927,-7.97012],[-34.97894,-7.96989],[-34.97838,-7.97004],[-34.97726,-7.969],[-34.97748,-7.96864],[-34.97705,-7.9675],[-34.97658,-7.96724],[-34.97609,-7.96645],[-34.97608,-7.96501],[-34.97591,-7.96446],[-34.97402,-7.96371],[-34.9733,-7.96352],[-34.9731,-7.96375],[-34.9718,-7.96367],[-34.97116,-7.96394],[-34.97139,-7.96502],[-34.97122,-7.96585],[-34.97134,-7.96644],[-34.97073,-7.96681],[-34.97051,-7.96782],[-34.96972,-7.96925],[-34.97045,-7.96996],[-34.97073,-7.97054],[-34.97094,-7.97162],[-34.97034,-7.9717],[-34.96846,-7.97229],[-34.96776,-7.97261],[-34.96601,-7.97314],[-34.96547,-7.97356],[-34.96351,-7.97367],[-34.96306,-7.97396],[-34.96207,-7.97409],[-34.96154,-7.97459],[-34.96123,-7.97559],[-34.96172,-7.97622],[-34.96202,-7.97695],[-34.96242,-7.97704],[-34.96262,-7.97765],[-34.96227,-7.97854],[-34.9623,-7.98066],[-34.96192,-7.98195],[-34.9622,-7.98306],[-34.96325,-7.98397],[-34.96366,-7.98485],[-34.96371,-7.98565],[-34.96401,-7.9866],[-34.96409,-7.98738],[-34.96325,-7.98866],[-34.96308,-7.98915],[-34.96232,-7.99009],[-34.96232,-7.99041],[-34.96317,-7.99793],[-34.96369,-8.00247]]]},"properties":{"codigo":"2611606038","name":"Guabiraba","population":11095,"households":5149,"areaKm2":46.1197,"density":240.6}},{"type":"Feature","geometry":{"type":"Polygon","coordinates":[[[-34.8905,-8.07711],[-34.89149,-8.07739],[-34.89198,-8.076],[-34.89639,-8.07747],[-34.90201,-8.07939],[-34.90211,-8.07939],[-34.90201,-8.07971],[-34.90185,-8.07965],[-34.90097,-8.08152],[-34.89976,-8.08208],[-34.89879,-8.08189],[-34.89712,-8.08123],[-34.89541,-8.08118],[-34.89179,-8.08195],[-34.89104,-8.08144],[-34.88934,-8.08096],[-34.88877,-8.08015],[-34.89102,-8.07858],[-34.89116,-8.07803],[-34.8905,-8.07711]]]},"properties":{"codigo":"2611606010","name":"Cabanga","population":1831,"households":835,"areaKm2":0.5652,"density":3239.6}},{"type":"Feature","geometry":{"type":"Polygon","coordinates":[[[-34.87569,-8.06683],[-34.87601,-8.06478],[-34.87595,-8.06418],[-34.87611,-8.063],[-34.87596,-8.06181],[-34.87639,-8.06151],[-34.87658,-8.05984],[-34.87744,-8.05926],[-34.87835,-8.05967],[-34.88021,-8.06192],[-34.88056,-8.06252],[-34.88116,-8.06394],[-34.8817,-8.06465],[-34.88253,-8.0653],[-34.88429,-8.06589],[-34.88398,-8.06636],[-34.88297,-8.06733],[-34.88276,-8.06669],[-34.88081,-8.06729],[-34.87978,-8.06794],[-34.87936,-8.06837],[-34.87837,-8.06784],[-34.87643,-8.0686],[-34.87597,-8.06694],[-34.87569,-8.06683]]]},"properties":{"codigo":"2611606005","name":"Santo Antônio","population":447,"households":324,"areaKm2":0.5177,"density":863.4}},{"type":"Feature","geometry":{"type":"Polygon","coordinates":[[[-34.89974,-8.02479],[-34.89875,-8.02407],[-34.89765,-8.02487],[-34.89724,-8.02392],[-34.89684,-8.02202],[-34.89766,-8.02168],[-34.89744,-8.02102],[-34.89777,-8.02059],[-34.89788,-8.01994],[-34.89817,-8.01945],[-34.89869,-8.01989],[-34.89997,-8.01961],[-34.90157,-8.01969],[-34.9016,-8.01932],[-34.90259,-8.01898],[-34.90341,-8.01905],[-34.90365,-8.01825],[-34.904,-8.01811],[-34.90464,-8.01836],[-34.90555,-8.01738],[-34.90595,-8.01738],[-34.90517,-8.01864],[-34.9063,-8.01822],[-34.9066,-8.01792],[-34.90716,-8.01835],[-34.90792,-8.01952],[-34.9082,-8.01995],[-34.90742,-8.02037],[-34.90601,-8.02071],[-34.90491,-8.02111],[-34.90061,-8.02288],[-34.89974,-8.02479]]]},"properties":{"codigo":"2611606036","name":"Bomba do Hemetério","population":7728,"households":3035,"areaKm2":0.4317,"density":17900.1}},{"type":"Feature","geometry":{"type":"MultiPolygon","coordinates":[[[[-34.86781,-8.05492],[-34.86823,-8.04971],[-34.86729,-8.04766],[-34.86599,-8.04506],[-34.8666,-8.04474],[-34.86874,-8.0439],[-34.86969,-8.04582],[-34.87067,-8.04804],[-34.87199,-8.04999],[-34.87265,-8.05063],[-34.87293,-8.05116],[-34.87324,-8.05226],[-34.87355,-8.05462],[-34.87389,-8.05578],[-34.87405,-8.05676],[-34.87389,-8.05804],[-34.87356,-8.05939],[-34.87375,-8.06072],[-34.87444,-8.06296],[-34.8747,-8.06411],[-34.87474,-8.06523],[-34.8746,-8.0659],[-34.87417,-8.06664],[-34.87354,-8.06667],[-34.87286,-8.06717],[-34.87085,-8.06333],[-34.86922,-8.05867],[-34.86781,-8.05492]]],[[[-34.87378,-8.07463],[-34.87364,-8.0747],[-34.87182,-8.07058],[-34.87046,-8.06694],[-34.8687,-8.06319],[-34.86837,-8.0627],[-34.86771,-8.06086],[-34.86664,-8.05828],[-34.86627,-8.05721],[-34.8638,-8.05171],[-34.86224,-8.04847],[-34.8615,-8.04781],[-34.859,-8.0472],[-34.85919,-8.04695],[-34.86143,-8.04757],[-34.86223,-8.04803],[-34.86288,-8.04928],[-34.86554,-8.05476],[-34.86711,-8.05872],[-34.8687,-8.06231],[-34.86981,-8.06518],[-34.87075,-8.06694],[-34.87091,-8.06749],[-34.87187,-8.06958],[-34.87254,-8.06929],[-34.87275,-8.06973],[-34.87202,-8.07004],[-34.87279,-8.07214],[-34.87383,-8.07446],[-34.87378,-8.07463]]]]},"properties":{"codigo":"2611606001","name":"Recife","population":541,"households":224,"areaKm2":1.2356,"density":437.8}},{"type":"Feature","geometry":{"type":"Polygon","coordinates":[[[-34.92165,-8.00353],[-34.92228,-8.00337],[-34.92285,-8.00244],[-34.92282,-8.00194],[-34.92371,-8.00175],[-34.92361,-8.00136],[-34.92304,-8.00091],[-34.92341,-8.00016],[-34.92377,-7.99986],[-34.92458,-8.00037],[-34.92507,-7.99998],[-34.92699,-7.99788],[-34.92802,-7.9965],[-34.92901,-7.99597],[-34.9299,-7.99512],[-34.93047,-7.99456],[-34.93108,-7.99511],[-34.9319,-7.99546],[-34.93252,-7.99651],[-34.93259,-7.99749],[-34.93434,-7.99778],[-34.93478,-7.99808],[-34.93528,-7.99855],[-34.93626,-7.99907],[-34.9368,-8.00058],[-34.93657,-8.00111],[-34.93604,-8.00139],[-34.93565,-8.00189],[-34.93529,-8.00299],[-34.93468,-8.00333],[-34.93408,-8.00396],[-34.93361,-8.00361],[-34.93288,-8.0042],[-34.93255,-8.00477],[-34.93196,-8.00497],[-34.93129,-8.00622],[-34.93038,-8.00554],[-34.92966,-8.00587],[-34.9288,-8.00548],[-34.92662,-8.00546],[-34.92577,-8.00651],[-34.92554,-8.00699],[-34.92589,-8.00732],[-34.92578,-8.0081],[-34.92632,-8.00808],[-34.92671,-8.00871],[-34.9268,-8.00967],[-34.92741,-8.011],[-34.9262,-8.0122],[-34.92608,-8.01347],[-34.92673,-8.0144],[-34.92701,-8.01528],[-34.92694,-8.0162],[-34.92743,-8.01757],[-34.92752,-8.01836],[-34.92791,-8.01878],[-34.92671,-8.01992],[-34.92536,-8.02033],[-34.92523,-8.01976],[-34.92439,-8.019],[-34.92421,-8.01774],[-34.92439,-8.01747],[-34.92383,-8.01613],[-34.92337,-8.01559],[-34.92322,-8.01415],[-34.923,-8.01334],[-34.92322,-8.0128],[-34.92316,-8.01184],[-34.92323,-8.00986],[-34.92227,-8.00899],[-34.92214,-8.00837],[-34.92255,-8.0072],[-34.9221,-8.00614],[-34.92133,-8.00604],[-34.92213,-8.00476],[-34.92165,-8.00353]]]},"properties":{"codigo":"2611606045","name":"Nova Descoberta","population":28697,"households":11904,"areaKm2":1.8259,"density":15716.9}},{"type":"Feature","geometry":{"type":"Polygon","coordinates":[[[-34.90415,-8.05304],[-34.90372,-8.05482],[-34.90341,-8.05576],[-34.90275,-8.05684],[-34.90149,-8.05782],[-34.90086,-8.05886],[-34.90066,-8.05978],[-34.9006,-8.0611],[-34.90069,-8.06187],[-34.89997,-8.06201],[-34.89987,-8.06151],[-34.89834,-8.05975],[-34.89786,-8.05954],[-34.89794,-8.05812],[-34.89792,-8.05609],[-34.89761,-8.05503],[-34.89647,-8.05342],[-34.89691,-8.053],[-34.89866,-8.05246],[-34.89953,-8.05247],[-34.90415,-8.05304]]]},"properties":{"codigo":"2611606012","name":"Derby","population":1867,"households":865,"areaKm2":0.4757,"density":3925}},{"type":"Feature","geometry":{"type":"Polygon","coordinates":[[[-34.89815,-8.03696],[-34.89939,-8.03957],[-34.89819,-8.04142],[-34.89786,-8.04214],[-34.89737,-8.04364],[-34.89579,-8.04312],[-34.89471,-8.04259],[-34.89385,-8.04148],[-34.89246,-8.03992],[-34.89374,-8.03968],[-34.89462,-8.03931],[-34.89429,-8.0383],[-34.89574,-8.03793],[-34.89815,-8.03696]]]},"properties":{"codigo":"2611606015","name":"Aflitos","population":4990,"households":2252,"areaKm2":0.3067,"density":16270.2}},{"type":"Feature","geometry":{"type":"Polygon","coordinates":[[[-34.96181,-8.1096],[-34.96047,-8.1104],[-34.95926,-8.11059],[-34.95747,-8.11148],[-34.95657,-8.11199],[-34.95638,-8.11159],[-34.95526,-8.1109],[-34.95456,-8.11078],[-34.95425,-8.11142],[-34.95388,-8.11148],[-34.95286,-8.11115],[-34.95234,-8.11084],[-34.95152,-8.11063],[-34.94799,-8.10996],[-34.94765,-8.10998],[-34.94694,-8.1095],[-34.94699,-8.10924],[-34.94865,-8.1063],[-34.94882,-8.10569],[-34.94867,-8.10447],[-34.94846,-8.10381],[-34.9484,-8.10294],[-34.9486,-8.10244],[-34.94975,-8.10055],[-34.95014,-8.09926],[-34.95017,-8.09829],[-34.95003,-8.09739],[-34.94956,-8.0963],[-34.94853,-8.09474],[-34.94763,-8.09551],[-34.94686,-8.09593],[-34.94609,-8.09605],[-34.94502,-8.09646],[-34.94337,-8.09857],[-34.94292,-8.09926],[-34.94198,-8.09996],[-34.9404,-8.10047],[-34.9399,-8.10094],[-34.93972,-8.09867],[-34.9401,-8.09734],[-34.93924,-8.0952],[-34.93788,-8.09327],[-34.93772,-8.09233],[-34.93664,-8.09207],[-34.93611,-8.09175],[-34.93683,-8.09073],[-34.93731,-8.08822],[-34.93773,-8.08645],[-34.93904,-8.08658],[-34.94053,-8.08635],[-34.94193,-8.08664],[-34.94324,-8.08733],[-34.945,-8.08844],[-34.94683,-8.0895],[-34.94678,-8.09101],[-34.94711,-8.0925],[-34.95343,-8.08997],[-34.95368,-8.08999],[-34.95758,-8.09103],[-34.95746,-8.09185],[-34.959,-8.09262],[-34.95902,-8.0931],[-34.9595,-8.09333],[-34.95973,-8.09382],[-34.96016,-8.09394],[-34.96033,-8.09503],[-34.96144,-8.09498],[-34.96221,-8.09594],[-34.96232,-8.09627],[-34.96212,-8.09705],[-34.96218,-8.09773],[-34.96199,-8.09867],[-34.96228,-8.09957],[-34.96292,-8.09967],[-34.96293,-8.10036],[-34.96269,-8.10148],[-34.9628,-8.10221],[-34.96269,-8.10385],[-34.96288,-8.10603],[-34.96331,-8.10648],[-34.96278,-8.10719],[-34.96281,-8.10786],[-34.96244,-8.10866],[-34.96186,-8.10913],[-34.96181,-8.1096]]]},"properties":{"codigo":"2611606086","name":"Barro","population":30565,"households":12864,"areaKm2":4.4069,"density":6935.7}},{"type":"Feature","geometry":{"type":"Polygon","coordinates":[[[-34.90862,-8.03104],[-34.90928,-8.0308],[-34.91088,-8.02985],[-34.91184,-8.03062],[-34.91299,-8.03227],[-34.91528,-8.03154],[-34.91556,-8.03223],[-34.91648,-8.03306],[-34.91588,-8.03383],[-34.91611,-8.03426],[-34.91467,-8.03491],[-34.91394,-8.03647],[-34.91466,-8.03716],[-34.91134,-8.03781],[-34.91027,-8.03772],[-34.90891,-8.03692],[-34.90787,-8.03655],[-34.90686,-8.03583],[-34.90589,-8.03474],[-34.90595,-8.03384],[-34.90678,-8.03355],[-34.9073,-8.03259],[-34.9079,-8.03265],[-34.90862,-8.03104]]]},"properties":{"codigo":"2611606054","name":"Parnamirim","population":6954,"households":2957,"areaKm2":0.6122,"density":11359.1}},{"type":"Feature","geometry":{"type":"Polygon","coordinates":[[[-34.93407,-8.0225],[-34.93321,-8.02284],[-34.93298,-8.02334],[-34.93322,-8.02427],[-34.93314,-8.02498],[-34.93207,-8.02575],[-34.93168,-8.02623],[-34.93142,-8.02698],[-34.93053,-8.0286],[-34.92901,-8.03036],[-34.92781,-8.03198],[-34.92713,-8.03131],[-34.92582,-8.02945],[-34.92516,-8.02915],[-34.92434,-8.02941],[-34.92408,-8.02871],[-34.92374,-8.02816],[-34.9246,-8.02761],[-34.92577,-8.02754],[-34.92639,-8.02738],[-34.92679,-8.02753],[-34.92724,-8.02689],[-34.92638,-8.02481],[-34.92734,-8.02496],[-34.92793,-8.02563],[-34.9282,-8.02553],[-34.92799,-8.02478],[-34.92854,-8.02381],[-34.92927,-8.02327],[-34.9294,-8.02184],[-34.93084,-8.0215],[-34.93137,-8.02177],[-34.93169,-8.02202],[-34.93242,-8.02165],[-34.93369,-8.02127],[-34.93407,-8.0225]]]},"properties":{"codigo":"2611606058","name":"Monteiro","population":6738,"households":2603,"areaKm2":0.5481,"density":12294.1}},{"type":"Feature","geometry":{"type":"Polygon","coordinates":[[[-34.96598,-8.02103],[-34.96596,-8.02119],[-34.964,-8.02206],[-34.9631,-8.02259],[-34.9628,-8.02298],[-34.96269,-8.0238],[-34.96188,-8.02443],[-34.96011,-8.02735],[-34.95884,-8.02956],[-34.95838,-8.02995],[-34.95278,-8.03306],[-34.94981,-8.03466],[-34.94556,-8.03704],[-34.94502,-8.03636],[-34.94449,-8.03494],[-34.94455,-8.03097],[-34.94464,-8.0275],[-34.94304,-8.02751],[-34.94281,-8.02307],[-34.94349,-8.02329],[-34.94449,-8.02282],[-34.94621,-8.02118],[-34.94784,-8.02056],[-34.94919,-8.02083],[-34.95048,-8.02058],[-34.95142,-8.0208],[-34.95236,-8.02204],[-34.95368,-8.02272],[-34.9545,-8.0229],[-34.95579,-8.02251],[-34.95702,-8.02221],[-34.95885,-8.02159],[-34.95979,-8.02139],[-34.96208,-8.02066],[-34.96194,-8.02138],[-34.96554,-8.01981],[-34.96598,-8.02103]]]},"properties":{"codigo":"2611606070","name":"Caxangá","population":13813,"households":6175,"areaKm2":2.4675,"density":5598}},{"type":"Feature","geometry":{"type":"Polygon","coordinates":[[[-34.94564,-8.06066],[-34.94532,-8.06169],[-34.94447,-8.06361],[-34.9422,-8.06674],[-34.93804,-8.0679],[-34.93683,-8.0682],[-34.93463,-8.06893],[-34.93282,-8.0695],[-34.93088,-8.06364],[-34.93073,-8.06346],[-34.9301,-8.06172],[-34.93231,-8.06266],[-34.93188,-8.0596],[-34.93116,-8.05817],[-34.93377,-8.05507],[-34.93394,-8.05527],[-34.93499,-8.05468],[-34.93437,-8.05358],[-34.93631,-8.05427],[-34.93672,-8.05282],[-34.93742,-8.05302],[-34.93762,-8.0523],[-34.93835,-8.0522],[-34.93881,-8.05287],[-34.93926,-8.05308],[-34.94109,-8.06059],[-34.94175,-8.06357],[-34.943,-8.06371],[-34.94396,-8.06311],[-34.94473,-8.06206],[-34.94547,-8.06067],[-34.94564,-8.06066]]]},"properties":{"codigo":"2611606072","name":"Torrões","population":31130,"households":12434,"areaKm2":1.6778,"density":18553.9}},{"type":"Feature","geometry":{"type":"Polygon","coordinates":[[[-34.91378,-7.98225],[-34.91406,-7.98],[-34.91387,-7.97936],[-34.9135,-7.97487],[-34.91285,-7.96979],[-34.91029,-7.95375],[-34.91081,-7.95372],[-34.91124,-7.95447],[-34.91184,-7.95751],[-34.9128,-7.96039],[-34.91324,-7.96128],[-34.91421,-7.96234],[-34.91562,-7.96353],[-34.91613,-7.96378],[-34.91718,-7.96518],[-34.92021,-7.96945],[-34.92092,-7.97079],[-34.922,-7.97414],[-34.92266,-7.97523],[-34.9235,-7.97578],[-34.92558,-7.97662],[-34.92656,-7.97727],[-34.92771,-7.97843],[-34.92994,-7.97984],[-34.93121,-7.9809],[-34.93183,-7.98158],[-34.93206,-7.98234],[-34.9318,-7.98398],[-34.93192,-7.98513],[-34.93267,-7.98616],[-34.93127,-7.9869],[-34.93046,-7.98702],[-34.93089,-7.98778],[-34.92952,-7.98825],[-34.92881,-7.98951],[-34.92845,-7.99117],[-34.92767,-7.99204],[-34.92702,-7.9917],[-34.92603,-7.99273],[-34.9249,-7.99516],[-34.92433,-7.99664],[-34.92436,-7.99716],[-34.92393,-7.99735],[-34.92307,-7.99815],[-34.92288,-7.9986],[-34.92155,-7.99952],[-34.92118,-7.99921],[-34.92158,-7.99884],[-34.92219,-7.99728],[-34.92262,-7.99593],[-34.92324,-7.99476],[-34.92306,-7.9938],[-34.92335,-7.99305],[-34.92368,-7.9927],[-34.9212,-7.99031],[-34.92005,-7.98935],[-34.91901,-7.98875],[-34.91923,-7.98766],[-34.91836,-7.98724],[-34.91661,-7.98719],[-34.91672,-7.98672],[-34.91617,-7.98641],[-34.91613,-7.98555],[-34.91667,-7.98511],[-34.91621,-7.98466],[-34.91612,-7.98418],[-34.91565,-7.98401],[-34.91544,-7.98332],[-34.91513,-7.98302],[-34.91378,-7.98225]]]},"properties":{"codigo":"2611606027","name":"Passarinho","population":24306,"households":9764,"areaKm2":4.0474,"density":6005.4}},{"type":"Feature","geometry":{"type":"Polygon","coordinates":[[[-34.87997,-8.01135],[-34.8803,-8.01163],[-34.88074,-8.01131],[-34.88133,-8.01205],[-34.88195,-8.01318],[-34.88253,-8.01306],[-34.88486,-8.0159],[-34.88515,-8.01626],[-34.88399,-8.01658],[-34.8853,-8.01929],[-34.88559,-8.01968],[-34.885,-8.02008],[-34.88105,-8.02227],[-34.87978,-8.02253],[-34.88018,-8.02162],[-34.87957,-8.02132],[-34.87935,-8.02089],[-34.87976,-8.01857],[-34.87907,-8.01788],[-34.87936,-8.0167],[-34.87932,-8.01611],[-34.87961,-8.01445],[-34.87961,-8.0132],[-34.87976,-8.01186],[-34.87997,-8.01135]]]},"properties":{"codigo":"2611606020","name":"Campina do Barreto","population":8757,"households":3508,"areaKm2":0.5419,"density":16159.3}},{"type":"Feature","geometry":{"type":"Polygon","coordinates":[[[-34.88486,-8.0159],[-34.88711,-8.01432],[-34.88931,-8.01388],[-34.88951,-8.01247],[-34.88926,-8.01134],[-34.89003,-8.01104],[-34.89207,-8.01089],[-34.89271,-8.0097],[-34.89318,-8.00909],[-34.89428,-8.0097],[-34.89433,-8.0107],[-34.8957,-8.01283],[-34.89647,-8.01348],[-34.89488,-8.01514],[-34.89319,-8.01652],[-34.89339,-8.01676],[-34.89247,-8.01758],[-34.89193,-8.01694],[-34.89086,-8.0178],[-34.89026,-8.01859],[-34.88885,-8.01829],[-34.88815,-8.01844],[-34.88779,-8.01689],[-34.88705,-8.017],[-34.88615,-8.01687],[-34.88515,-8.01626],[-34.88486,-8.0159]]]},"properties":{"codigo":"2611606034","name":"Fundão","population":7793,"households":3209,"areaKm2":0.6268,"density":12432.1}},{"type":"Feature","geometry":{"type":"Polygon","coordinates":[[[-34.91786,-8.14159],[-34.91769,-8.14159],[-34.91705,-8.1378],[-34.9166,-8.13482],[-34.91559,-8.12882],[-34.91451,-8.12276],[-34.91672,-8.12244],[-34.91789,-8.12181],[-34.91838,-8.12141],[-34.91939,-8.12024],[-34.92098,-8.11933],[-34.92163,-8.11871],[-34.92573,-8.11405],[-34.92619,-8.11338],[-34.92646,-8.11252],[-34.92698,-8.109],[-34.92709,-8.10796],[-34.9279,-8.10241],[-34.92872,-8.1024],[-34.9301,-8.10317],[-34.9312,-8.10408],[-34.932,-8.10451],[-34.93398,-8.10478],[-34.93484,-8.10463],[-34.93627,-8.1045],[-34.93707,-8.10467],[-34.93774,-8.10453],[-34.93802,-8.10414],[-34.93895,-8.10219],[-34.93946,-8.10167],[-34.9399,-8.10094],[-34.9404,-8.10047],[-34.94198,-8.09996],[-34.94292,-8.09926],[-34.94337,-8.09857],[-34.94502,-8.09646],[-34.94609,-8.09605],[-34.94686,-8.09593],[-34.94763,-8.09551],[-34.94853,-8.09474],[-34.94956,-8.0963],[-34.95003,-8.09739],[-34.95017,-8.09829],[-34.95014,-8.09926],[-34.94975,-8.10055],[-34.9486,-8.10244],[-34.9484,-8.10294],[-34.94846,-8.10381],[-34.94867,-8.10447],[-34.94882,-8.10569],[-34.94865,-8.1063],[-34.94699,-8.10924],[-34.94694,-8.1095],[-34.94642,-8.11065],[-34.94534,-8.11349],[-34.94442,-8.11553],[-34.94293,-8.11926],[-34.94274,-8.12031],[-34.9428,-8.12107],[-34.9434,-8.12319],[-34.9437,-8.12457],[-34.94381,-8.12597],[-34.94389,-8.12833],[-34.94403,-8.12945],[-34.94429,-8.13011],[-34.94504,-8.13117],[-34.94467,-8.1314],[-34.9441,-8.13056],[-34.94267,-8.13159],[-34.94182,-8.13114],[-34.94093,-8.13091],[-34.94015,-8.12974],[-34.93918,-8.13036],[-34.93345,-8.1293],[-34.93323,-8.13044],[-34.93328,-8.13106],[-34.93416,-8.13074],[-34.93369,-8.13163],[-34.9337,-8.13421],[-34.93401,-8.13448],[-34.93296,-8.13497],[-34.93231,-8.13619],[-34.93023,-8.13739],[-34.92953,-8.13771],[-34.92944,-8.14074],[-34.9271,-8.14048],[-34.92407,-8.14062],[-34.92277,-8.14025],[-34.92183,-8.13981],[-34.9216,-8.13987],[-34.92062,-8.14088],[-34.91933,-8.14161],[-34.91808,-8.14188],[-34.91786,-8.14159]]]},"properties":{"codigo":"2611606089","name":"Ibura","population":45448,"households":19061,"areaKm2":10.1728,"density":4467.6}},{"type":"Feature","geometry":{"type":"Polygon","coordinates":[[[-34.9226,-8.0798],[-34.92204,-8.07959],[-34.91748,-8.07839],[-34.91751,-8.07714],[-34.91713,-8.07539],[-34.91736,-8.07534],[-34.91822,-8.07515],[-34.92062,-8.07488],[-34.92224,-8.07439],[-34.92299,-8.07398],[-34.92392,-8.07308],[-34.92392,-8.07382],[-34.92331,-8.07663],[-34.9226,-8.0798]]]},"properties":{"codigo":"2611606068","name":"Mangueira","population":7664,"households":3240,"areaKm2":0.3151,"density":24322.1}},{"type":"Feature","geometry":{"type":"Polygon","coordinates":[[[-34.91716,-8.02049],[-34.91766,-8.02127],[-34.91849,-8.02113],[-34.92274,-8.02069],[-34.92536,-8.02033],[-34.92671,-8.01992],[-34.92574,-8.02156],[-34.92566,-8.02188],[-34.92566,-8.02363],[-34.92603,-8.02454],[-34.92638,-8.02481],[-34.92724,-8.02689],[-34.92679,-8.02753],[-34.92639,-8.02738],[-34.92577,-8.02754],[-34.9246,-8.02761],[-34.92374,-8.02816],[-34.92408,-8.02871],[-34.92156,-8.02956],[-34.91528,-8.03154],[-34.91299,-8.03227],[-34.91184,-8.03062],[-34.91088,-8.02985],[-34.90928,-8.0308],[-34.90862,-8.03104],[-34.90709,-8.03009],[-34.90746,-8.02988],[-34.90661,-8.02556],[-34.90748,-8.02527],[-34.91192,-8.02407],[-34.91313,-8.02351],[-34.91473,-8.02254],[-34.9144,-8.02139],[-34.91526,-8.02109],[-34.91583,-8.02108],[-34.91716,-8.02049]]]},"properties":{"codigo":"2611606048","name":"Casa Amarela","population":32450,"households":14083,"areaKm2":1.8838,"density":17225.8}},{"type":"Feature","geometry":{"type":"Polygon","coordinates":[[[-34.9088,-8.15515],[-34.90774,-8.15263],[-34.90675,-8.15004],[-34.90424,-8.14423],[-34.9027,-8.14117],[-34.90133,-8.13834],[-34.9006,-8.13598],[-34.89936,-8.13316],[-34.89845,-8.1309],[-34.89734,-8.1287],[-34.89646,-8.12668],[-34.89565,-8.12428],[-34.89453,-8.12213],[-34.89322,-8.12006],[-34.89188,-8.11747],[-34.89057,-8.11529],[-34.88929,-8.11352],[-34.88797,-8.11053],[-34.88499,-8.10448],[-34.88409,-8.10249],[-34.88316,-8.10148],[-34.88276,-8.10045],[-34.88652,-8.09879],[-34.88893,-8.10406],[-34.88962,-8.10375],[-34.89144,-8.10536],[-34.8925,-8.10613],[-34.89407,-8.10763],[-34.89479,-8.10785],[-34.8968,-8.1077],[-34.89773,-8.10805],[-34.89867,-8.10912],[-34.8996,-8.11046],[-34.89994,-8.11132],[-34.90054,-8.11123],[-34.90104,-8.11212],[-34.90211,-8.11288],[-34.90283,-8.11434],[-34.90314,-8.11475],[-34.90556,-8.11737],[-34.9062,-8.11791],[-34.90767,-8.11868],[-34.90822,-8.11917],[-34.90957,-8.12125],[-34.90955,-8.12243],[-34.91007,-8.12737],[-34.9108,-8.1315],[-34.91209,-8.13166],[-34.91204,-8.13103],[-34.91274,-8.13109],[-34.91254,-8.13007],[-34.91352,-8.12992],[-34.91426,-8.12913],[-34.91559,-8.12882],[-34.9166,-8.13482],[-34.91705,-8.1378],[-34.91769,-8.14159],[-34.91786,-8.14159],[-34.91807,-8.1428],[-34.918,-8.1431],[-34.91676,-8.14379],[-34.91507,-8.14461],[-34.91387,-8.14492],[-34.91359,-8.14512],[-34.91452,-8.1476],[-34.91368,-8.14793],[-34.91398,-8.14874],[-34.91153,-8.14966],[-34.91249,-8.15224],[-34.91361,-8.1539],[-34.91214,-8.15435],[-34.9119,-8.15331],[-34.91111,-8.15359],[-34.91133,-8.15424],[-34.9088,-8.15515]]]},"properties":{"codigo":"2611606092","name":"Boa Viagem","population":125805,"households":62639,"areaKm2":7.7623,"density":16207.3}},{"type":"Feature","geometry":{"type":"Polygon","coordinates":[[[-34.91099,-8.01919],[-34.91076,-8.01906],[-34.91071,-8.01853],[-34.91028,-8.018],[-34.91017,-8.01651],[-34.91039,-8.01569],[-34.90991,-8.01461],[-34.91028,-8.01394],[-34.91023,-8.01251],[-34.91132,-8.01327],[-34.91164,-8.01288],[-34.91264,-8.01224],[-34.91064,-8.01128],[-34.91035,-8.01126],[-34.91075,-8.00811],[-34.91142,-8.00757],[-34.91232,-8.00723],[-34.91233,-8.00748],[-34.91456,-8.00987],[-34.91503,-8.01072],[-34.91528,-8.01153],[-34.91566,-8.01188],[-34.91572,-8.01248],[-34.91623,-8.01357],[-34.91664,-8.01488],[-34.91583,-8.01527],[-34.91647,-8.01589],[-34.91647,-8.01618],[-34.91597,-8.01624],[-34.91508,-8.01695],[-34.91365,-8.01687],[-34.91263,-8.018],[-34.91146,-8.01831],[-34.91103,-8.01876],[-34.91099,-8.01919]]]},"properties":{"codigo":"2611606050","name":"Alto José Bonifácio","population":10365,"households":4028,"areaKm2":0.5684,"density":18235.4}},{"type":"Feature","geometry":{"type":"Polygon","coordinates":[[[-34.91647,-8.08883],[-34.91458,-8.08877],[-34.91378,-8.08851],[-34.91279,-8.08761],[-34.91176,-8.08623],[-34.91051,-8.08411],[-34.90984,-8.08339],[-34.90897,-8.08319],[-34.90689,-8.08367],[-34.9033,-8.08464],[-34.9023,-8.08412],[-34.90052,-8.08339],[-34.89944,-8.08271],[-34.90007,-8.08272],[-34.90091,-8.08236],[-34.90129,-8.08191],[-34.90201,-8.07971],[-34.90211,-8.07939],[-34.90279,-8.07755],[-34.90393,-8.07579],[-34.90421,-8.07474],[-34.90403,-8.0738],[-34.90438,-8.07364],[-34.90479,-8.07286],[-34.90537,-8.07227],[-34.9062,-8.07184],[-34.90653,-8.07124],[-34.90665,-8.06997],[-34.90656,-8.06944],[-34.90613,-8.06867],[-34.90509,-8.06799],[-34.90675,-8.06691],[-34.90721,-8.06639],[-34.90769,-8.06546],[-34.90905,-8.06512],[-34.91108,-8.06408],[-34.91202,-8.06385],[-34.91286,-8.06678],[-34.91306,-8.06667],[-34.91364,-8.0681],[-34.91421,-8.06806],[-34.91472,-8.06974],[-34.91489,-8.07079],[-34.91456,-8.07132],[-34.91516,-8.0723],[-34.91559,-8.07223],[-34.91596,-8.07427],[-34.91711,-8.07424],[-34.91736,-8.07534],[-34.91713,-8.07539],[-34.91751,-8.07714],[-34.91748,-8.07839],[-34.92204,-8.07959],[-34.9226,-8.0798],[-34.92222,-8.08147],[-34.92446,-8.08286],[-34.92542,-8.0837],[-34.92437,-8.084],[-34.92384,-8.08331],[-34.92315,-8.08271],[-34.9228,-8.08302],[-34.9232,-8.08353],[-34.92296,-8.08382],[-34.9221,-8.08345],[-34.92122,-8.08391],[-34.91869,-8.08478],[-34.91784,-8.08532],[-34.91743,-8.08586],[-34.91684,-8.08704],[-34.91687,-8.08779],[-34.91647,-8.08883]]]},"properties":{"codigo":"2611606075","name":"Afogados","population":31457,"households":13930,"areaKm2":3.3889,"density":9282.2}},{"type":"Feature","geometry":{"type":"Polygon","coordinates":[[[-34.90393,-8.07579],[-34.90279,-8.07755],[-34.90211,-8.07939],[-34.90201,-8.07939],[-34.89639,-8.07747],[-34.89198,-8.076],[-34.89149,-8.07739],[-34.8905,-8.07711],[-34.88958,-8.07739],[-34.88922,-8.07695],[-34.88744,-8.07632],[-34.88575,-8.07558],[-34.88235,-8.07421],[-34.88107,-8.07386],[-34.87967,-8.07329],[-34.87827,-8.07256],[-34.87586,-8.07154],[-34.87528,-8.07112],[-34.8749,-8.07024],[-34.87471,-8.06944],[-34.87421,-8.06831],[-34.87549,-8.06719],[-34.87569,-8.06683],[-34.87597,-8.06694],[-34.87643,-8.0686],[-34.87837,-8.06784],[-34.87936,-8.06837],[-34.87978,-8.06794],[-34.88081,-8.06729],[-34.88276,-8.06669],[-34.88297,-8.06733],[-34.88398,-8.06636],[-34.88429,-8.06589],[-34.88469,-8.06534],[-34.88557,-8.06587],[-34.88612,-8.06661],[-34.88698,-8.06978],[-34.88762,-8.07054],[-34.88854,-8.07105],[-34.88789,-8.07235],[-34.88848,-8.07266],[-34.88958,-8.07285],[-34.89298,-8.07267],[-34.89422,-8.07277],[-34.89806,-8.07384],[-34.90271,-8.07522],[-34.90393,-8.07579]]]},"properties":{"codigo":"2611606011","name":"São José","population":8876,"households":3906,"areaKm2":1.7752,"density":5000}},{"type":"Feature","geometry":{"type":"Polygon","coordinates":[[[-34.89862,-8.00193],[-34.89877,-8.00225],[-34.90049,-8.00385],[-34.8996,-8.00414],[-34.89993,-8.00548],[-34.899,-8.00746],[-34.89817,-8.00993],[-34.89756,-8.00966],[-34.8969,-8.00911],[-34.89661,-8.00851],[-34.89653,-8.00776],[-34.89592,-8.00773],[-34.89431,-8.00811],[-34.89392,-8.00778],[-34.89271,-8.00575],[-34.89159,-8.00347],[-34.89299,-8.00339],[-34.89398,-8.00317],[-34.89548,-8.00291],[-34.89729,-8.00161],[-34.89803,-8.00155],[-34.89862,-8.00193]]]},"properties":{"codigo":"2611606030","name":"Beberibe","population":7089,"households":2936,"areaKm2":0.4891,"density":14493}},{"type":"Feature","geometry":{"type":"Polygon","coordinates":[[[-34.97094,-7.97162],[-34.97073,-7.97054],[-34.97045,-7.96996],[-34.96972,-7.96925],[-34.97051,-7.96782],[-34.97073,-7.96681],[-34.97134,-7.96644],[-34.97122,-7.96585],[-34.97139,-7.96502],[-34.97116,-7.96394],[-34.9718,-7.96367],[-34.9731,-7.96375],[-34.9733,-7.96352],[-34.97402,-7.96371],[-34.97591,-7.96446],[-34.97608,-7.96501],[-34.97609,-7.96645],[-34.97658,-7.96724],[-34.97705,-7.9675],[-34.97748,-7.96864],[-34.97726,-7.969],[-34.97614,-7.96918],[-34.97522,-7.96877],[-34.9747,-7.9689],[-34.97344,-7.9697],[-34.97222,-7.97176],[-34.97145,-7.97155],[-34.97094,-7.97162]]]},"properties":{"codigo":"2611606037","name":"Pau Ferro","population":89,"households":33,"areaKm2":0.4373,"density":203.5}},{"type":"Feature","geometry":{"type":"Polygon","coordinates":[[[-34.91991,-8.09586],[-34.92032,-8.09672],[-34.92146,-8.09728],[-34.92182,-8.0976],[-34.92289,-8.09934],[-34.92382,-8.10053],[-34.92276,-8.10144],[-34.92244,-8.10207],[-34.92256,-8.10354],[-34.92244,-8.10406],[-34.92154,-8.10427],[-34.91973,-8.10438],[-34.91805,-8.10424],[-34.91752,-8.10433],[-34.91694,-8.10474],[-34.91632,-8.10549],[-34.91598,-8.1066],[-34.91603,-8.10761],[-34.91591,-8.10799],[-34.91606,-8.1117],[-34.91621,-8.11176],[-34.91627,-8.11501],[-34.9167,-8.11563],[-34.92098,-8.11933],[-34.91939,-8.12024],[-34.91838,-8.12141],[-34.91789,-8.12181],[-34.91672,-8.12244],[-34.91451,-8.12276],[-34.91559,-8.12882],[-34.91426,-8.12913],[-34.91352,-8.12992],[-34.91254,-8.13007],[-34.91274,-8.13109],[-34.91204,-8.13103],[-34.91209,-8.13166],[-34.9108,-8.1315],[-34.91007,-8.12737],[-34.90955,-8.12243],[-34.90957,-8.12125],[-34.90822,-8.11917],[-34.90767,-8.11868],[-34.9062,-8.11791],[-34.90556,-8.11737],[-34.90314,-8.11475],[-34.90283,-8.11434],[-34.90211,-8.11288],[-34.90104,-8.11212],[-34.90054,-8.11123],[-34.90135,-8.10989],[-34.9015,-8.10944],[-34.9016,-8.10783],[-34.90197,-8.10723],[-34.90345,-8.10677],[-34.90433,-8.10614],[-34.90474,-8.10554],[-34.90465,-8.10447],[-34.90408,-8.10313],[-34.90421,-8.10239],[-34.90523,-8.10134],[-34.90574,-8.10016],[-34.90655,-8.0988],[-34.90735,-8.09712],[-34.90777,-8.09559],[-34.90778,-8.09423],[-34.90765,-8.09344],[-34.90734,-8.09264],[-34.90665,-8.09176],[-34.90591,-8.09142],[-34.90509,-8.09079],[-34.90429,-8.08949],[-34.90379,-8.08786],[-34.90374,-8.08633],[-34.9033,-8.08464],[-34.90689,-8.08367],[-34.90897,-8.08319],[-34.90984,-8.08339],[-34.91051,-8.08411],[-34.91176,-8.08623],[-34.91279,-8.08761],[-34.91378,-8.08851],[-34.91458,-8.08877],[-34.91647,-8.08883],[-34.91794,-8.08893],[-34.91857,-8.08932],[-34.919,-8.08988],[-34.91922,-8.09056],[-34.91915,-8.09294],[-34.91995,-8.09493],[-34.91991,-8.09586]]]},"properties":{"codigo":"2611606091","name":"Imbiribeira","population":52158,"households":22330,"areaKm2":6.653,"density":7839.8}},{"type":"Feature","geometry":{"type":"Polygon","coordinates":[[[-34.91736,-8.07534],[-34.91711,-8.07424],[-34.91596,-8.07427],[-34.91559,-8.07223],[-34.91516,-8.0723],[-34.91456,-8.07132],[-34.91489,-8.07079],[-34.91472,-8.06974],[-34.91421,-8.06806],[-34.9158,-8.06753],[-34.91661,-8.06896],[-34.91693,-8.06978],[-34.91765,-8.06946],[-34.92134,-8.06846],[-34.92162,-8.06818],[-34.92288,-8.06748],[-34.92372,-8.0705],[-34.92415,-8.07245],[-34.92392,-8.07308],[-34.92299,-8.07398],[-34.92224,-8.07439],[-34.92062,-8.07488],[-34.91822,-8.07515],[-34.91736,-8.07534]]]},"properties":{"codigo":"2611606067","name":"Mustardinha","population":10642,"households":4350,"areaKm2":0.6391,"density":16652.4}},{"type":"Feature","geometry":{"type":"Polygon","coordinates":[[[-34.9459,-8.05967],[-34.94564,-8.06066],[-34.94547,-8.06067],[-34.94473,-8.06206],[-34.94396,-8.06311],[-34.943,-8.06371],[-34.94175,-8.06357],[-34.94109,-8.06059],[-34.93926,-8.05308],[-34.93881,-8.05287],[-34.93835,-8.0522],[-34.93884,-8.05201],[-34.9396,-8.04946],[-34.94419,-8.04986],[-34.94435,-8.05162],[-34.94295,-8.05202],[-34.94316,-8.05363],[-34.94599,-8.05285],[-34.94614,-8.05311],[-34.9462,-8.0567],[-34.94612,-8.05815],[-34.9459,-8.05967]]]},"properties":{"codigo":"2611606073","name":"Engenho do Meio","population":9849,"households":4058,"areaKm2":0.8534,"density":11541}},{"type":"Feature","geometry":{"type":"Polygon","coordinates":[[[-34.92538,-8.09272],[-34.92951,-8.09079],[-34.92974,-8.08896],[-34.93002,-8.08802],[-34.93132,-8.0865],[-34.93181,-8.08569],[-34.93217,-8.08479],[-34.93446,-8.08548],[-34.93773,-8.08645],[-34.93731,-8.08822],[-34.93683,-8.09073],[-34.93611,-8.09175],[-34.93664,-8.09207],[-34.93772,-8.09233],[-34.93788,-8.09327],[-34.93924,-8.0952],[-34.9401,-8.09734],[-34.93972,-8.09867],[-34.9399,-8.10094],[-34.93946,-8.10167],[-34.93895,-8.10219],[-34.93802,-8.10414],[-34.93774,-8.10453],[-34.93707,-8.10467],[-34.93627,-8.1045],[-34.93484,-8.10463],[-34.93485,-8.10311],[-34.93476,-8.09919],[-34.93286,-8.09966],[-34.92965,-8.0967],[-34.9288,-8.09587],[-34.92809,-8.10085],[-34.9279,-8.10241],[-34.92552,-8.1021],[-34.92504,-8.10182],[-34.92382,-8.10053],[-34.92289,-8.09934],[-34.92182,-8.0976],[-34.92146,-8.09728],[-34.92032,-8.09672],[-34.91991,-8.09586],[-34.92057,-8.09514],[-34.92142,-8.09452],[-34.92538,-8.09272]]]},"properties":{"codigo":"2611606078","name":"Areias","population":26740,"households":11356,"areaKm2":2.3953,"density":11163.6}},{"type":"Feature","geometry":{"type":"Polygon","coordinates":[[[-34.89786,-8.05954],[-34.89758,-8.06239],[-34.89454,-8.05977],[-34.89497,-8.06103],[-34.89523,-8.06285],[-34.89133,-8.06356],[-34.8908,-8.0627],[-34.8901,-8.06321],[-34.89079,-8.06394],[-34.89073,-8.06523],[-34.88956,-8.06523],[-34.88944,-8.06631],[-34.88561,-8.06501],[-34.885,-8.06488],[-34.88313,-8.06428],[-34.88247,-8.0639],[-34.88197,-8.06292],[-34.88033,-8.06021],[-34.87989,-8.05958],[-34.88275,-8.0578],[-34.88416,-8.05784],[-34.88631,-8.05671],[-34.88697,-8.05782],[-34.8862,-8.05923],[-34.8864,-8.0596],[-34.88999,-8.05751],[-34.88987,-8.05847],[-34.89023,-8.0604],[-34.8913,-8.06048],[-34.89133,-8.05932],[-34.89305,-8.059],[-34.89298,-8.05822],[-34.89262,-8.0565],[-34.89136,-8.0544],[-34.89194,-8.05344],[-34.89226,-8.05263],[-34.88996,-8.05316],[-34.89005,-8.05074],[-34.89002,-8.0497],[-34.88977,-8.04762],[-34.89001,-8.04507],[-34.89052,-8.04561],[-34.89397,-8.05],[-34.89514,-8.05149],[-34.89647,-8.05342],[-34.89761,-8.05503],[-34.89792,-8.05609],[-34.89794,-8.05812],[-34.89786,-8.05954]]]},"properties":{"codigo":"2611606003","name":"Boa Vista","population":13147,"households":8328,"areaKm2":1.7697,"density":7428.7}},{"type":"Feature","geometry":{"type":"Polygon","coordinates":[[[-34.93803,-7.99419],[-34.93715,-7.9955],[-34.9365,-7.99596],[-34.93556,-7.99707],[-34.93543,-7.9977],[-34.93478,-7.99808],[-34.93434,-7.99778],[-34.93259,-7.99749],[-34.93252,-7.99651],[-34.9319,-7.99546],[-34.93108,-7.99511],[-34.93047,-7.99456],[-34.9299,-7.99512],[-34.92782,-7.99351],[-34.92877,-7.99215],[-34.92965,-7.99121],[-34.9298,-7.99033],[-34.9301,-7.98966],[-34.93049,-7.98936],[-34.92952,-7.98825],[-34.93089,-7.98778],[-34.93046,-7.98702],[-34.93127,-7.9869],[-34.93267,-7.98616],[-34.93524,-7.98914],[-34.93603,-7.99047],[-34.93703,-7.99285],[-34.93803,-7.99419]]]},"properties":{"codigo":"2611606041","name":"Brejo da Guabiraba","population":10620,"households":4475,"areaKm2":0.7894,"density":13452.6}},{"type":"Feature","geometry":{"type":"Polygon","coordinates":[[[-34.91027,-8.03772],[-34.90998,-8.03818],[-34.90956,-8.03783],[-34.90838,-8.03724],[-34.90785,-8.03717],[-34.90676,-8.03748],[-34.90595,-8.03812],[-34.90523,-8.03898],[-34.90496,-8.0397],[-34.90477,-8.04208],[-34.9038,-8.04175],[-34.90326,-8.04142],[-34.90362,-8.04045],[-34.90505,-8.03861],[-34.90162,-8.0369],[-34.90258,-8.03466],[-34.90429,-8.03572],[-34.90496,-8.03498],[-34.90565,-8.0338],[-34.90595,-8.03384],[-34.90589,-8.03474],[-34.90686,-8.03583],[-34.90787,-8.03655],[-34.90891,-8.03692],[-34.91027,-8.03772]]]},"properties":{"codigo":"2611606014","name":"Jaqueira","population":1342,"households":627,"areaKm2":0.241,"density":5569.4}},{"type":"Feature","geometry":{"type":"Polygon","coordinates":[[[-34.88674,-8.0405],[-34.88758,-8.03984],[-34.88878,-8.03937],[-34.8907,-8.03906],[-34.89203,-8.03859],[-34.89246,-8.03992],[-34.89385,-8.04148],[-34.89471,-8.04259],[-34.89579,-8.04312],[-34.89419,-8.04446],[-34.89535,-8.04583],[-34.89596,-8.04693],[-34.89697,-8.04762],[-34.89648,-8.04898],[-34.89606,-8.04865],[-34.89397,-8.05],[-34.89052,-8.04561],[-34.89001,-8.04507],[-34.88924,-8.04456],[-34.88477,-8.04246],[-34.88674,-8.0405]]]},"properties":{"codigo":"2611606016","name":"Espinheiro","population":10741,"households":5069,"areaKm2":0.7344,"density":14625}},{"type":"Feature","geometry":{"type":"Polygon","coordinates":[[[-34.88854,-8.07105],[-34.88762,-8.07054],[-34.88698,-8.06978],[-34.88612,-8.06661],[-34.88557,-8.06587],[-34.88469,-8.06534],[-34.885,-8.06488],[-34.88561,-8.06501],[-34.88944,-8.06631],[-34.88956,-8.06523],[-34.89073,-8.06523],[-34.89079,-8.06394],[-34.892,-8.06522],[-34.89305,-8.06597],[-34.89414,-8.06829],[-34.89036,-8.07055],[-34.88942,-8.07098],[-34.88854,-8.07105]]]},"properties":{"codigo":"2611606008","name":"Coelhos","population":5923,"households":2538,"areaKm2":0.4251,"density":13932.4}},{"type":"Feature","geometry":{"type":"Polygon","coordinates":[[[-34.92331,-8.07663],[-34.92392,-8.07382],[-34.92392,-8.07308],[-34.92415,-8.07245],[-34.92372,-8.0705],[-34.92288,-8.06748],[-34.92395,-8.06694],[-34.92281,-8.06382],[-34.92203,-8.06409],[-34.92177,-8.06331],[-34.92157,-8.06154],[-34.92579,-8.0605],[-34.92623,-8.06042],[-34.92747,-8.06059],[-34.9301,-8.06172],[-34.93073,-8.06346],[-34.93088,-8.06364],[-34.93282,-8.0695],[-34.93463,-8.06893],[-34.93892,-8.07083],[-34.93864,-8.072],[-34.93524,-8.07703],[-34.93467,-8.07701],[-34.9344,-8.0775],[-34.93394,-8.07777],[-34.93271,-8.07777],[-34.93189,-8.07792],[-34.9317,-8.07838],[-34.93098,-8.07673],[-34.93148,-8.07625],[-34.93115,-8.07497],[-34.92816,-8.07543],[-34.92568,-8.07604],[-34.92389,-8.07661],[-34.92331,-8.07663]]]},"properties":{"codigo":"2611606066","name":"San Martin","population":23074,"households":9496,"areaKm2":2.059,"density":11206.3}},{"type":"Feature","geometry":{"type":"Polygon","coordinates":[[[-34.87378,-8.07463],[-34.87482,-8.07714],[-34.87544,-8.07782],[-34.87615,-8.07827],[-34.87984,-8.08093],[-34.8839,-8.08279],[-34.88327,-8.08435],[-34.88285,-8.08614],[-34.88219,-8.08798],[-34.88171,-8.08884],[-34.88155,-8.08947],[-34.88171,-8.09056],[-34.87953,-8.09112],[-34.87924,-8.09029],[-34.87779,-8.08536],[-34.87726,-8.0841],[-34.87703,-8.08301],[-34.87604,-8.08072],[-34.87561,-8.07995],[-34.87524,-8.0785],[-34.87471,-8.07712],[-34.87364,-8.0747],[-34.87378,-8.07463]]]},"properties":{"codigo":"2611606094","name":"Brasília Teimosa","population":16685,"households":7028,"areaKm2":0.6396,"density":26086.5}},{"type":"Feature","geometry":{"type":"Polygon","coordinates":[[[-34.93473,-8.07781],[-34.93441,-8.07834],[-34.93392,-8.07961],[-34.93522,-8.07997],[-34.93485,-8.08304],[-34.93446,-8.08548],[-34.93217,-8.08479],[-34.93181,-8.08569],[-34.93132,-8.0865],[-34.93002,-8.08802],[-34.92974,-8.08896],[-34.92951,-8.09079],[-34.92538,-8.09272],[-34.92521,-8.09245],[-34.92583,-8.0909],[-34.92638,-8.08978],[-34.92653,-8.08903],[-34.92813,-8.08468],[-34.92844,-8.08478],[-34.9288,-8.0838],[-34.92653,-8.08311],[-34.9279,-8.08204],[-34.9284,-8.08151],[-34.9285,-8.08069],[-34.9289,-8.08002],[-34.9298,-8.07919],[-34.93004,-8.0788],[-34.93129,-8.07835],[-34.93215,-8.07845],[-34.9327,-8.07825],[-34.93305,-8.07841],[-34.93473,-8.07781]]]},"properties":{"codigo":"2611606077","name":"Estância","population":7408,"households":3323,"areaKm2":0.8062,"density":9188.3}},{"type":"Feature","geometry":{"type":"Polygon","coordinates":[[[-34.89414,-8.06829],[-34.89305,-8.06597],[-34.892,-8.06522],[-34.89079,-8.06394],[-34.8901,-8.06321],[-34.8908,-8.0627],[-34.89133,-8.06356],[-34.89523,-8.06285],[-34.89487,-8.06353],[-34.89742,-8.06382],[-34.89733,-8.06484],[-34.8971,-8.06552],[-34.89685,-8.0675],[-34.89542,-8.06768],[-34.89414,-8.06829]]]},"properties":{"codigo":"2611606007","name":"Ilha do Leite","population":990,"households":757,"areaKm2":0.2622,"density":3775.4}},{"type":"Feature","geometry":{"type":"Polygon","coordinates":[[[-34.91232,-8.00723],[-34.91142,-8.00757],[-34.91088,-8.00768],[-34.91043,-8.00636],[-34.91226,-8.00625],[-34.91327,-8.00555],[-34.91389,-8.00531],[-34.91409,-8.00464],[-34.91505,-8.00426],[-34.91539,-8.00374],[-34.91601,-8.00378],[-34.91625,-8.00302],[-34.91677,-8.00254],[-34.91745,-8.00251],[-34.9188,-8.00161],[-34.9201,-8.00109],[-34.92114,-8.00056],[-34.92165,-8.00002],[-34.92155,-7.99952],[-34.92288,-7.9986],[-34.92307,-7.99815],[-34.92393,-7.99735],[-34.92436,-7.99716],[-34.92433,-7.99664],[-34.9249,-7.99516],[-34.92603,-7.99273],[-34.92702,-7.9917],[-34.92767,-7.99204],[-34.92845,-7.99117],[-34.92881,-7.98951],[-34.92952,-7.98825],[-34.93049,-7.98936],[-34.9301,-7.98966],[-34.9298,-7.99033],[-34.92965,-7.99121],[-34.92877,-7.99215],[-34.92782,-7.99351],[-34.9299,-7.99512],[-34.92901,-7.99597],[-34.92802,-7.9965],[-34.92699,-7.99788],[-34.92507,-7.99998],[-34.92458,-8.00037],[-34.92377,-7.99986],[-34.92341,-8.00016],[-34.92304,-8.00091],[-34.92361,-8.00136],[-34.92371,-8.00175],[-34.92282,-8.00194],[-34.92285,-8.00244],[-34.92228,-8.00337],[-34.92165,-8.00353],[-34.91916,-8.0026],[-34.91792,-8.00345],[-34.91617,-8.00478],[-34.91468,-8.00576],[-34.91348,-8.0062],[-34.91287,-8.00661],[-34.91232,-8.00723]]]},"properties":{"codigo":"2611606046","name":"Brejo de Beberibe","population":7738,"households":3234,"areaKm2":0.6495,"density":11914.3}},{"type":"Feature","geometry":{"type":"Polygon","coordinates":[[[-34.91771,-8.04839],[-34.91888,-8.05159],[-34.9214,-8.05616],[-34.91703,-8.05739],[-34.91645,-8.05552],[-34.91527,-8.05157],[-34.91416,-8.04813],[-34.91514,-8.04845],[-34.91771,-8.04839]]]},"properties":{"codigo":"2611606061","name":"Zumbí","population":4763,"households":2327,"areaKm2":0.4087,"density":11653}},{"type":"Feature","geometry":{"type":"Polygon","coordinates":[[[-34.96356,-8.09325],[-34.96464,-8.09165],[-34.96502,-8.09125],[-34.96623,-8.09039],[-34.96596,-8.09],[-34.96501,-8.08984],[-34.96517,-8.08849],[-34.96561,-8.08712],[-34.96631,-8.08576],[-34.96704,-8.08497],[-34.96808,-8.0836],[-34.96844,-8.08386],[-34.96933,-8.08285],[-34.9702,-8.08252],[-34.97022,-8.08196],[-34.97097,-8.08232],[-34.97128,-8.08368],[-34.97209,-8.08501],[-34.97315,-8.0856],[-34.97359,-8.08644],[-34.97316,-8.08746],[-34.97175,-8.08821],[-34.97134,-8.08765],[-34.97022,-8.08754],[-34.97016,-8.08813],[-34.96956,-8.08818],[-34.96975,-8.08867],[-34.96954,-8.0893],[-34.96817,-8.08988],[-34.96784,-8.09129],[-34.96617,-8.09113],[-34.9651,-8.09147],[-34.96525,-8.09212],[-34.96435,-8.09313],[-34.96545,-8.09384],[-34.9662,-8.09414],[-34.96581,-8.09472],[-34.96356,-8.09325]]]},"properties":{"codigo":"2611606082","name":"Coqueiral","population":9427,"households":4189,"areaKm2":0.5166,"density":18247.7}},{"type":"Feature","geometry":{"type":"Polygon","coordinates":[[[-34.93773,-8.08645],[-34.93446,-8.08548],[-34.93485,-8.08304],[-34.93522,-8.07997],[-34.93392,-8.07961],[-34.93441,-8.07834],[-34.93473,-8.07781],[-34.93494,-8.07782],[-34.93576,-8.07677],[-34.93758,-8.0766],[-34.93779,-8.07602],[-34.93753,-8.07523],[-34.93778,-8.07471],[-34.93995,-8.07519],[-34.94121,-8.07528],[-34.94439,-8.07507],[-34.94577,-8.07519],[-34.94639,-8.07511],[-34.94647,-8.07606],[-34.9474,-8.07664],[-34.94746,-8.07759],[-34.94926,-8.07748],[-34.95019,-8.07796],[-34.95076,-8.0779],[-34.95178,-8.07873],[-34.95187,-8.07936],[-34.9522,-8.07986],[-34.95235,-8.08054],[-34.95297,-8.08174],[-34.95384,-8.0827],[-34.95396,-8.08305],[-34.95389,-8.0842],[-34.95459,-8.0854],[-34.9539,-8.08589],[-34.9523,-8.0876],[-34.95088,-8.08932],[-34.94874,-8.08968],[-34.948,-8.08974],[-34.94683,-8.0895],[-34.945,-8.08844],[-34.94324,-8.08733],[-34.94193,-8.08664],[-34.94053,-8.08635],[-34.93904,-8.08658],[-34.93773,-8.08645]]]},"properties":{"codigo":"2611606085","name":"Jardim São Paulo","population":29996,"households":13160,"areaKm2":2.5524,"density":11751.9}},{"type":"Feature","geometry":{"type":"Polygon","coordinates":[[[-34.88539,-8.03355],[-34.88461,-8.03301],[-34.88525,-8.03194],[-34.88757,-8.02852],[-34.88819,-8.02884],[-34.88855,-8.02831],[-34.88967,-8.02897],[-34.88978,-8.02968],[-34.88984,-8.03175],[-34.89049,-8.0326],[-34.8886,-8.03566],[-34.88792,-8.03532],[-34.88539,-8.03355]]]},"properties":{"codigo":"2611606023","name":"Hipódromo","population":2091,"households":952,"areaKm2":0.3011,"density":6943.7}},{"type":"Feature","geometry":{"type":"Polygon","coordinates":[[[-34.97115,-8.08157],[-34.9711,-8.08115],[-34.97024,-8.08048],[-34.97008,-8.0807],[-34.96819,-8.08112],[-34.96577,-8.08146],[-34.96327,-8.08175],[-34.95996,-8.08221],[-34.95845,-8.0828],[-34.95643,-8.08423],[-34.95459,-8.0854],[-34.95389,-8.0842],[-34.95396,-8.08305],[-34.95384,-8.0827],[-34.95297,-8.08174],[-34.95235,-8.08054],[-34.9522,-8.07986],[-34.95187,-8.07936],[-34.95178,-8.07873],[-34.95076,-8.0779],[-34.95019,-8.07796],[-34.94926,-8.07748],[-34.94746,-8.07759],[-34.9474,-8.07664],[-34.94647,-8.07606],[-34.94639,-8.07511],[-34.94577,-8.07519],[-34.94439,-8.07507],[-34.94121,-8.07528],[-34.93995,-8.07519],[-34.93778,-8.07471],[-34.93753,-8.07523],[-34.93779,-8.07602],[-34.93758,-8.0766],[-34.93576,-8.07677],[-34.93494,-8.07782],[-34.93473,-8.07781],[-34.93524,-8.07703],[-34.93864,-8.072],[-34.93892,-8.07083],[-34.93463,-8.06893],[-34.93683,-8.0682],[-34.93804,-8.0679],[-34.9422,-8.06674],[-34.94447,-8.06361],[-34.94532,-8.06169],[-34.94564,-8.06066],[-34.9459,-8.05967],[-34.94864,-8.05881],[-34.95105,-8.05811],[-34.95459,-8.057],[-34.95539,-8.05985],[-34.95564,-8.05942],[-34.95605,-8.05966],[-34.95628,-8.0606],[-34.9569,-8.06121],[-34.96268,-8.06489],[-34.96575,-8.06618],[-34.9753,-8.07083],[-34.97595,-8.07109],[-34.98005,-8.07225],[-34.98056,-8.0673],[-34.98257,-8.06893],[-34.98307,-8.06924],[-34.98561,-8.07132],[-34.98614,-8.07165],[-34.98567,-8.07202],[-34.98624,-8.07401],[-34.98506,-8.07458],[-34.98448,-8.0751],[-34.98399,-8.0749],[-34.9831,-8.07585],[-34.98052,-8.07546],[-34.97956,-8.07587],[-34.97909,-8.07636],[-34.97893,-8.07788],[-34.97793,-8.07816],[-34.97736,-8.0782],[-34.97735,-8.07928],[-34.97681,-8.07929],[-34.9765,-8.07988],[-34.97663,-8.08046],[-34.97611,-8.08049],[-34.97568,-8.0796],[-34.97509,-8.07909],[-34.97423,-8.07912],[-34.9739,-8.0783],[-34.97347,-8.0784],[-34.97265,-8.0782],[-34.97174,-8.07836],[-34.97189,-8.07911],[-34.97227,-8.07935],[-34.97126,-8.08092],[-34.97115,-8.08157]]]},"properties":{"codigo":"2611606080","name":"Curado","population":16559,"households":7033,"areaKm2":8.0147,"density":2066.1}},{"type":"Feature","geometry":{"type":"Polygon","coordinates":[[[-34.96436,-8.00887],[-34.96293,-8.0082],[-34.96139,-8.00848],[-34.96073,-8.00851],[-34.95945,-8.00821],[-34.95863,-8.00821],[-34.95837,-8.00768],[-34.95738,-8.00723],[-34.95659,-8.00777],[-34.95562,-8.00821],[-34.95528,-8.00893],[-34.95487,-8.00924],[-34.95386,-8.01036],[-34.95267,-8.01076],[-34.95217,-8.01154],[-34.952,-8.01291],[-34.95175,-8.01365],[-34.95194,-8.01484],[-34.95168,-8.01639],[-34.95138,-8.01684],[-34.95281,-8.01841],[-34.95465,-8.0199],[-34.95534,-8.02097],[-34.95579,-8.02251],[-34.9545,-8.0229],[-34.95368,-8.02272],[-34.95236,-8.02204],[-34.95142,-8.0208],[-34.95048,-8.02058],[-34.94919,-8.02083],[-34.94784,-8.02056],[-34.94621,-8.02118],[-34.94449,-8.02282],[-34.94349,-8.02329],[-34.94281,-8.02307],[-34.94259,-8.02012],[-34.9422,-8.01881],[-34.94186,-8.01815],[-34.93997,-8.01541],[-34.93936,-8.01435],[-34.93785,-8.01133],[-34.93758,-8.01045],[-34.93762,-8.00902],[-34.93808,-8.0053],[-34.93883,-8.00041],[-34.93947,-7.99785],[-34.93944,-7.99663],[-34.93896,-7.99533],[-34.93865,-7.99491],[-34.94059,-7.9934],[-34.93961,-7.99182],[-34.94022,-7.99181],[-34.94095,-7.99207],[-34.94145,-7.99328],[-34.94347,-7.99252],[-34.9442,-7.99238],[-34.94518,-7.9924],[-34.94598,-7.99262],[-34.95151,-7.99365],[-34.95251,-7.99399],[-34.95323,-7.99453],[-34.95773,-7.99835],[-34.95822,-7.99889],[-34.95869,-8.00081],[-34.95923,-8.00162],[-34.95979,-8.00196],[-34.96057,-8.0021],[-34.96205,-8.00204],[-34.96374,-8.00291],[-34.96436,-8.00835],[-34.96436,-8.00887]]]},"properties":{"codigo":"2611606040","name":"Dois Irmãos","population":3026,"households":1313,"areaKm2":5.9968,"density":504.6}},{"type":"Feature","geometry":{"type":"Polygon","coordinates":[[[-34.86992,-8.03633],[-34.87063,-8.03614],[-34.87118,-8.0362],[-34.87645,-8.03863],[-34.88127,-8.04082],[-34.88477,-8.04246],[-34.88924,-8.04456],[-34.89001,-8.04507],[-34.88977,-8.04762],[-34.89002,-8.0497],[-34.89005,-8.05074],[-34.88996,-8.05316],[-34.88978,-8.05443],[-34.88937,-8.05498],[-34.88631,-8.05671],[-34.88416,-8.05784],[-34.88275,-8.0578],[-34.87989,-8.05958],[-34.87805,-8.0574],[-34.87718,-8.05605],[-34.87654,-8.05534],[-34.87531,-8.05302],[-34.87375,-8.05061],[-34.87349,-8.05078],[-34.87292,-8.04996],[-34.8731,-8.04897],[-34.87278,-8.04834],[-34.87421,-8.04703],[-34.87373,-8.0462],[-34.87293,-8.04451],[-34.87023,-8.04076],[-34.86954,-8.03967],[-34.86945,-8.0378],[-34.86956,-8.03727],[-34.86926,-8.03687],[-34.86992,-8.03633]]]},"properties":{"codigo":"2611606002","name":"Santo Amaro","population":27103,"households":11661,"areaKm2":3.3778,"density":8023.8}},{"type":"Feature","geometry":{"type":"Polygon","coordinates":[[[-34.89882,-8.02646],[-34.89744,-8.02697],[-34.89516,-8.02813],[-34.89296,-8.02793],[-34.88987,-8.02773],[-34.88846,-8.02756],[-34.88759,-8.02717],[-34.88565,-8.02584],[-34.88297,-8.02449],[-34.88234,-8.02398],[-34.87952,-8.02258],[-34.87978,-8.02253],[-34.88105,-8.02227],[-34.885,-8.02008],[-34.88559,-8.01968],[-34.88601,-8.0203],[-34.88653,-8.02143],[-34.88723,-8.02336],[-34.89092,-8.02193],[-34.89308,-8.02117],[-34.89382,-8.02317],[-34.89705,-8.0238],[-34.89724,-8.02392],[-34.89765,-8.02487],[-34.89875,-8.02407],[-34.89974,-8.02479],[-34.89882,-8.02646]]]},"properties":{"codigo":"2611606021","name":"Arruda","population":12797,"households":5904,"areaKm2":0.9847,"density":12996.2}},{"type":"Feature","geometry":{"type":"Polygon","coordinates":[[[-34.91202,-8.06385],[-34.91334,-8.06329],[-34.91413,-8.06608],[-34.91712,-8.0647],[-34.91829,-8.06361],[-34.91828,-8.06304],[-34.91869,-8.06258],[-34.92018,-8.06232],[-34.92067,-8.06239],[-34.92121,-8.06162],[-34.92157,-8.06154],[-34.92177,-8.06331],[-34.92203,-8.06409],[-34.92281,-8.06382],[-34.92395,-8.06694],[-34.92288,-8.06748],[-34.92162,-8.06818],[-34.92134,-8.06846],[-34.91765,-8.06946],[-34.91693,-8.06978],[-34.91661,-8.06896],[-34.9158,-8.06753],[-34.91421,-8.06806],[-34.91364,-8.0681],[-34.91306,-8.06667],[-34.91286,-8.06678],[-34.91202,-8.06385]]]},"properties":{"codigo":"2611606065","name":"Bongi","population":7060,"households":2961,"areaKm2":0.5999,"density":11768.4}},{"type":"Feature","geometry":{"type":"Polygon","coordinates":[[[-34.90415,-8.05304],[-34.90445,-8.05077],[-34.90356,-8.04798],[-34.90343,-8.04685],[-34.90366,-8.0455],[-34.90437,-8.04562],[-34.9042,-8.04687],[-34.90917,-8.04748],[-34.91416,-8.04813],[-34.91527,-8.05157],[-34.91645,-8.05552],[-34.91593,-8.05578],[-34.91426,-8.05634],[-34.91171,-8.05685],[-34.90985,-8.05923],[-34.91004,-8.06065],[-34.90978,-8.0621],[-34.90669,-8.06143],[-34.9045,-8.06122],[-34.90069,-8.06187],[-34.9006,-8.0611],[-34.90066,-8.05978],[-34.90086,-8.05886],[-34.90149,-8.05782],[-34.90275,-8.05684],[-34.90341,-8.05576],[-34.90372,-8.05482],[-34.90415,-8.05304]]]},"properties":{"codigo":"2611606062","name":"Madalena","population":25832,"households":11785,"areaKm2":1.8327,"density":14094.9}},{"type":"Feature","geometry":{"type":"Polygon","coordinates":[[[-34.96561,-8.08712],[-34.96461,-8.08693],[-34.95911,-8.08803],[-34.95847,-8.08798],[-34.95643,-8.08718],[-34.95643,-8.08423],[-34.95845,-8.0828],[-34.95996,-8.08221],[-34.96327,-8.08175],[-34.96577,-8.08146],[-34.96624,-8.08221],[-34.96704,-8.08497],[-34.96631,-8.08576],[-34.96561,-8.08712]]]},"properties":{"codigo":"2611606083","name":"Sancho","population":12768,"households":3082,"areaKm2":0.632,"density":20202.9}},{"type":"Feature","geometry":{"type":"Polygon","coordinates":[[[-34.88276,-8.10045],[-34.88186,-8.09845],[-34.88115,-8.09624],[-34.88018,-8.09295],[-34.87953,-8.09112],[-34.88171,-8.09056],[-34.88155,-8.08947],[-34.88171,-8.08884],[-34.88219,-8.08798],[-34.88285,-8.08614],[-34.88327,-8.08435],[-34.8839,-8.08279],[-34.88587,-8.08372],[-34.88679,-8.0839],[-34.8877,-8.08367],[-34.8883,-8.08373],[-34.88864,-8.08338],[-34.89155,-8.08294],[-34.89324,-8.08262],[-34.89442,-8.08255],[-34.89634,-8.08231],[-34.89944,-8.08271],[-34.90052,-8.08339],[-34.9023,-8.08412],[-34.9033,-8.08464],[-34.90374,-8.08633],[-34.90379,-8.08786],[-34.90429,-8.08949],[-34.90509,-8.09079],[-34.90591,-8.09142],[-34.90665,-8.09176],[-34.90734,-8.09264],[-34.90765,-8.09344],[-34.90778,-8.09423],[-34.90777,-8.09559],[-34.90735,-8.09712],[-34.90655,-8.0988],[-34.90574,-8.10016],[-34.90523,-8.10134],[-34.90421,-8.10239],[-34.90408,-8.10313],[-34.90465,-8.10447],[-34.90474,-8.10554],[-34.90433,-8.10614],[-34.90345,-8.10677],[-34.90197,-8.10723],[-34.9016,-8.10783],[-34.9015,-8.10944],[-34.90135,-8.10989],[-34.90054,-8.11123],[-34.89994,-8.11132],[-34.8996,-8.11046],[-34.89867,-8.10912],[-34.89773,-8.10805],[-34.8968,-8.1077],[-34.89479,-8.10785],[-34.89407,-8.10763],[-34.8925,-8.10613],[-34.89144,-8.10536],[-34.88962,-8.10375],[-34.88893,-8.10406],[-34.88652,-8.09879],[-34.88276,-8.10045]]]},"properties":{"codigo":"2611606093","name":"Pina","population":29195,"households":13954,"areaKm2":6.3687,"density":4584.1}},{"type":"Feature","geometry":{"type":"Polygon","coordinates":[[[-34.89724,-8.02392],[-34.89705,-8.0238],[-34.89382,-8.02317],[-34.89308,-8.02117],[-34.89092,-8.02193],[-34.88723,-8.02336],[-34.88653,-8.02143],[-34.88601,-8.0203],[-34.88559,-8.01968],[-34.8853,-8.01929],[-34.88399,-8.01658],[-34.88515,-8.01626],[-34.88615,-8.01687],[-34.88705,-8.017],[-34.88779,-8.01689],[-34.88815,-8.01844],[-34.88885,-8.01829],[-34.89026,-8.01859],[-34.89086,-8.0178],[-34.89193,-8.01694],[-34.89247,-8.01758],[-34.89339,-8.01676],[-34.89319,-8.01652],[-34.89488,-8.01514],[-34.89647,-8.01348],[-34.8957,-8.01283],[-34.89433,-8.0107],[-34.89428,-8.0097],[-34.89318,-8.00909],[-34.89369,-8.00844],[-34.89431,-8.00811],[-34.89592,-8.00773],[-34.89653,-8.00776],[-34.89661,-8.00851],[-34.8969,-8.00911],[-34.89756,-8.00966],[-34.89817,-8.00993],[-34.90034,-8.01036],[-34.90117,-8.01064],[-34.90321,-8.01056],[-34.90388,-8.01103],[-34.90509,-8.0128],[-34.90533,-8.01348],[-34.90615,-8.01432],[-34.90642,-8.01515],[-34.9062,-8.01682],[-34.90595,-8.01738],[-34.90555,-8.01738],[-34.90464,-8.01836],[-34.904,-8.01811],[-34.90365,-8.01825],[-34.90341,-8.01905],[-34.90259,-8.01898],[-34.9016,-8.01932],[-34.90157,-8.01969],[-34.89997,-8.01961],[-34.89869,-8.01989],[-34.89817,-8.01945],[-34.89788,-8.01994],[-34.89777,-8.02059],[-34.89744,-8.02102],[-34.89766,-8.02168],[-34.89684,-8.02202],[-34.89724,-8.02392]]]},"properties":{"codigo":"2611606035","name":"Água Fria","population":39012,"households":15328,"areaKm2":1.9229,"density":20287.8}},{"type":"Feature","geometry":{"type":"Polygon","coordinates":[[[-34.92781,-8.03198],[-34.92708,-8.03315],[-34.92652,-8.03447],[-34.92641,-8.03561],[-34.92647,-8.03719],[-34.92637,-8.038],[-34.92591,-8.03905],[-34.92528,-8.03959],[-34.92381,-8.0402],[-34.9225,-8.04055],[-34.92108,-8.04137],[-34.92005,-8.04208],[-34.91907,-8.0398],[-34.9185,-8.03915],[-34.91781,-8.03795],[-34.9186,-8.03793],[-34.91931,-8.03743],[-34.92008,-8.03648],[-34.92006,-8.03598],[-34.921,-8.03465],[-34.92172,-8.03402],[-34.9226,-8.03362],[-34.92371,-8.03202],[-34.9223,-8.03118],[-34.92156,-8.02956],[-34.92408,-8.02871],[-34.92434,-8.02941],[-34.92516,-8.02915],[-34.92582,-8.02945],[-34.92713,-8.03131],[-34.92781,-8.03198]]]},"properties":{"codigo":"2611606057","name":"Poço","population":5542,"households":2215,"areaKm2":0.796,"density":6962.4}},{"type":"Feature","geometry":{"type":"Polygon","coordinates":[[[-34.89685,-8.0675],[-34.8971,-8.06552],[-34.89733,-8.06484],[-34.89742,-8.06382],[-34.89487,-8.06353],[-34.89523,-8.06285],[-34.89497,-8.06103],[-34.89454,-8.05977],[-34.89758,-8.06239],[-34.89786,-8.05954],[-34.89834,-8.05975],[-34.89987,-8.06151],[-34.89997,-8.06201],[-34.90069,-8.06187],[-34.9009,-8.0638],[-34.9008,-8.06499],[-34.90052,-8.06599],[-34.89982,-8.0672],[-34.89922,-8.06751],[-34.89803,-8.06771],[-34.89685,-8.0675]]]},"properties":{"codigo":"2611606006","name":"Paissandu","population":568,"households":348,"areaKm2":0.3451,"density":1645.9}},{"type":"Feature","geometry":{"type":"Polygon","coordinates":[[[-34.92098,-8.11933],[-34.9167,-8.11563],[-34.91627,-8.11501],[-34.91621,-8.11176],[-34.91606,-8.1117],[-34.91591,-8.10799],[-34.91603,-8.10761],[-34.91598,-8.1066],[-34.91632,-8.10549],[-34.91694,-8.10474],[-34.91752,-8.10433],[-34.91805,-8.10424],[-34.91973,-8.10438],[-34.92154,-8.10427],[-34.92244,-8.10406],[-34.92256,-8.10354],[-34.92244,-8.10207],[-34.92276,-8.10144],[-34.92382,-8.10053],[-34.92504,-8.10182],[-34.92552,-8.1021],[-34.9279,-8.10241],[-34.92709,-8.10796],[-34.92698,-8.109],[-34.92646,-8.11252],[-34.92619,-8.11338],[-34.92573,-8.11405],[-34.92163,-8.11871],[-34.92098,-8.11933]]]},"properties":{"codigo":"2611606090","name":"Ipsep","population":20610,"households":9168,"areaKm2":1.7868,"density":11534.5}},{"type":"Feature","geometry":{"type":"Polygon","coordinates":[[[-34.93137,-8.02177],[-34.93084,-8.0215],[-34.9294,-8.02184],[-34.92927,-8.02327],[-34.92854,-8.02381],[-34.92799,-8.02478],[-34.9282,-8.02553],[-34.92793,-8.02563],[-34.92734,-8.02496],[-34.92638,-8.02481],[-34.92603,-8.02454],[-34.92566,-8.02363],[-34.92566,-8.02188],[-34.92574,-8.02156],[-34.92671,-8.01992],[-34.92791,-8.01878],[-34.92846,-8.01822],[-34.92881,-8.01843],[-34.92862,-8.0191],[-34.92818,-8.01981],[-34.92847,-8.02011],[-34.92986,-8.02017],[-34.93048,-8.02007],[-34.93117,-8.02033],[-34.93144,-8.02096],[-34.93137,-8.02177]]]},"properties":{"codigo":"2611606047","name":"Alto do Mandu","population":4221,"households":1697,"areaKm2":0.2485,"density":16986.4}},{"type":"Feature","geometry":{"type":"Polygon","coordinates":[[[-34.91528,-8.03154],[-34.92156,-8.02956],[-34.9223,-8.03118],[-34.92371,-8.03202],[-34.9226,-8.03362],[-34.92172,-8.03402],[-34.921,-8.03465],[-34.92006,-8.03598],[-34.92008,-8.03648],[-34.91931,-8.03743],[-34.9186,-8.03793],[-34.91781,-8.03795],[-34.91588,-8.03782],[-34.91466,-8.03716],[-34.91394,-8.03647],[-34.91467,-8.03491],[-34.91611,-8.03426],[-34.91588,-8.03383],[-34.91648,-8.03306],[-34.91556,-8.03223],[-34.91528,-8.03154]]]},"properties":{"codigo":"2611606055","name":"Casa Forte","population":6307,"households":2571,"areaKm2":0.5609,"density":11244.1}},{"type":"Feature","geometry":{"type":"Polygon","coordinates":[[[-34.89647,-8.05342],[-34.89514,-8.05149],[-34.89397,-8.05],[-34.89606,-8.04865],[-34.89648,-8.04898],[-34.89697,-8.04762],[-34.89596,-8.04693],[-34.89535,-8.04583],[-34.89419,-8.04446],[-34.89579,-8.04312],[-34.89737,-8.04364],[-34.89786,-8.04214],[-34.89819,-8.04142],[-34.89939,-8.03957],[-34.89815,-8.03696],[-34.89943,-8.03629],[-34.9001,-8.03615],[-34.90162,-8.0369],[-34.90505,-8.03861],[-34.90362,-8.04045],[-34.90326,-8.04142],[-34.9038,-8.04175],[-34.90477,-8.04208],[-34.90448,-8.04361],[-34.90402,-8.04449],[-34.90366,-8.0455],[-34.90343,-8.04685],[-34.90356,-8.04798],[-34.90445,-8.05077],[-34.90415,-8.05304],[-34.89953,-8.05247],[-34.89866,-8.05246],[-34.89691,-8.053],[-34.89647,-8.05342]]]},"properties":{"codigo":"2611606013","name":"Graças","population":19694,"households":9071,"areaKm2":1.4345,"density":13729.2}},{"type":"Feature","geometry":{"type":"Polygon","coordinates":[[[-34.90491,-8.02111],[-34.90601,-8.02071],[-34.90742,-8.02037],[-34.9082,-8.01995],[-34.90792,-8.01952],[-34.90881,-8.01903],[-34.9097,-8.01891],[-34.91076,-8.01906],[-34.91099,-8.01919],[-34.91164,-8.02029],[-34.91167,-8.02289],[-34.91192,-8.02407],[-34.90748,-8.02527],[-34.90661,-8.02556],[-34.90673,-8.02485],[-34.90574,-8.02412],[-34.90534,-8.02271],[-34.9039,-8.02325],[-34.9032,-8.02222],[-34.90386,-8.02204],[-34.90457,-8.02156],[-34.90491,-8.02111]]]},"properties":{"codigo":"2611606052","name":"Alto José do Pinho","population":11313,"households":4352,"areaKm2":0.4139,"density":27335.3}},{"type":"Feature","geometry":{"type":"Polygon","coordinates":[[[-34.89982,-8.0672],[-34.90052,-8.06599],[-34.9008,-8.06499],[-34.9009,-8.0638],[-34.90069,-8.06187],[-34.9045,-8.06122],[-34.90669,-8.06143],[-34.90978,-8.0621],[-34.90919,-8.06502],[-34.90905,-8.06512],[-34.90769,-8.06546],[-34.90721,-8.06639],[-34.90675,-8.06691],[-34.90509,-8.06799],[-34.9046,-8.06764],[-34.90395,-8.0669],[-34.90364,-8.06623],[-34.90315,-8.06576],[-34.90248,-8.06591],[-34.90134,-8.06759],[-34.90062,-8.06786],[-34.89982,-8.0672]]]},"properties":{"codigo":"2611606064","name":"Ilha do Retiro","population":3946,"households":1655,"areaKm2":0.5426,"density":7272.4}},{"type":"Feature","geometry":{"type":"Polygon","coordinates":[[[-34.9301,-8.06172],[-34.92747,-8.06059],[-34.92623,-8.06042],[-34.92579,-8.0605],[-34.92487,-8.05775],[-34.92401,-8.05547],[-34.9214,-8.05616],[-34.91888,-8.05159],[-34.91771,-8.04839],[-34.91667,-8.04548],[-34.91665,-8.04325],[-34.91836,-8.043],[-34.92005,-8.04208],[-34.92108,-8.04137],[-34.9225,-8.04055],[-34.92381,-8.0402],[-34.92528,-8.03959],[-34.92591,-8.03905],[-34.92671,-8.03977],[-34.92799,-8.04209],[-34.92839,-8.04186],[-34.92888,-8.04234],[-34.92952,-8.04347],[-34.92894,-8.04379],[-34.92996,-8.04562],[-34.93094,-8.04509],[-34.93169,-8.04645],[-34.93264,-8.04702],[-34.93482,-8.04706],[-34.93861,-8.04719],[-34.94007,-8.0471],[-34.9402,-8.0474],[-34.9396,-8.04946],[-34.93884,-8.05201],[-34.93835,-8.0522],[-34.93762,-8.0523],[-34.93742,-8.05302],[-34.93672,-8.05282],[-34.93631,-8.05427],[-34.93437,-8.05358],[-34.93499,-8.05468],[-34.93394,-8.05527],[-34.93377,-8.05507],[-34.93116,-8.05817],[-34.93188,-8.0596],[-34.93231,-8.06266],[-34.9301,-8.06172]]]},"properties":{"codigo":"2611606060","name":"Cordeiro","population":37660,"households":16252,"areaKm2":3.3987,"density":11080.6}},{"type":"Feature","geometry":{"type":"Polygon","coordinates":[[[-34.88607,-8.00567],[-34.88714,-8.00547],[-34.8881,-8.00484],[-34.88867,-8.00437],[-34.88963,-8.00421],[-34.8908,-8.00344],[-34.89159,-8.00347],[-34.89271,-8.00575],[-34.89392,-8.00778],[-34.89431,-8.00811],[-34.89369,-8.00844],[-34.89318,-8.00909],[-34.89271,-8.0097],[-34.89207,-8.01089],[-34.89003,-8.01104],[-34.88926,-8.01134],[-34.88887,-8.01087],[-34.88822,-8.01053],[-34.88834,-8.00889],[-34.88504,-8.00656],[-34.88607,-8.00567]]]},"properties":{"codigo":"2611606032","name":"Porto da Madeira","population":6495,"households":2673,"areaKm2":0.4813,"density":13494.7}},{"type":"Feature","geometry":{"type":"Polygon","coordinates":[[[-34.91466,-8.03716],[-34.91588,-8.03782],[-34.91781,-8.03795],[-34.9185,-8.03915],[-34.91907,-8.0398],[-34.92005,-8.04208],[-34.91836,-8.043],[-34.91665,-8.04325],[-34.916,-8.04331],[-34.91484,-8.04318],[-34.91367,-8.0426],[-34.91282,-8.04186],[-34.91218,-8.04069],[-34.9111,-8.03922],[-34.90998,-8.03818],[-34.91027,-8.03772],[-34.91134,-8.03781],[-34.91466,-8.03716]]]},"properties":{"codigo":"2611606056","name":"Santana","population":2574,"households":1169,"areaKm2":0.475,"density":5418.4}},{"type":"Feature","geometry":{"type":"Polygon","coordinates":[[[-34.96276,-8.01715],[-34.96208,-8.02066],[-34.95979,-8.02139],[-34.95885,-8.02159],[-34.95702,-8.02221],[-34.95579,-8.02251],[-34.95534,-8.02097],[-34.95465,-8.0199],[-34.95281,-8.01841],[-34.95138,-8.01684],[-34.95168,-8.01639],[-34.95194,-8.01484],[-34.95175,-8.01365],[-34.952,-8.01291],[-34.95217,-8.01154],[-34.95267,-8.01076],[-34.95386,-8.01036],[-34.95487,-8.00924],[-34.95528,-8.00893],[-34.95562,-8.00821],[-34.95659,-8.00777],[-34.95738,-8.00723],[-34.95837,-8.00768],[-34.95863,-8.00821],[-34.95945,-8.00821],[-34.96073,-8.00851],[-34.96139,-8.00848],[-34.96293,-8.0082],[-34.96436,-8.00887],[-34.96276,-8.01715]]]},"properties":{"codigo":"2611606039","name":"Sítio dos Pintos - São Brás","population":7996,"households":3656,"areaKm2":1.661,"density":4814}},{"type":"Feature","geometry":{"type":"Polygon","coordinates":[[[-34.93545,-8.01038],[-34.93558,-8.00994],[-34.93477,-8.00908],[-34.93397,-8.00889],[-34.93392,-8.00822],[-34.93339,-8.00643],[-34.93359,-8.0056],[-34.93433,-8.00485],[-34.93408,-8.00396],[-34.93468,-8.00333],[-34.93529,-8.00299],[-34.93565,-8.00189],[-34.93604,-8.00139],[-34.93657,-8.00111],[-34.9368,-8.00058],[-34.93626,-7.99907],[-34.93528,-7.99855],[-34.93478,-7.99808],[-34.93543,-7.9977],[-34.93556,-7.99707],[-34.9365,-7.99596],[-34.93715,-7.9955],[-34.93803,-7.99419],[-34.93865,-7.99491],[-34.93896,-7.99533],[-34.93944,-7.99663],[-34.93947,-7.99785],[-34.93883,-8.00041],[-34.93808,-8.0053],[-34.93762,-8.00902],[-34.93676,-8.00893],[-34.93545,-8.01038]]]},"properties":{"codigo":"2611606042","name":"Córrego do Jenipapo","population":8086,"households":3406,"areaKm2":0.6085,"density":13289.2}},{"type":"Feature","geometry":{"type":"Polygon","coordinates":[[[-34.89501,-8.03121],[-34.89517,-8.0283],[-34.89576,-8.02837],[-34.89703,-8.02902],[-34.89856,-8.03105],[-34.89816,-8.03164],[-34.90025,-8.03505],[-34.8992,-8.03526],[-34.89943,-8.03629],[-34.89815,-8.03696],[-34.89651,-8.03351],[-34.89501,-8.03121]]]},"properties":{"codigo":"2611606017","name":"Rosarinho","population":7271,"households":3210,"areaKm2":0.2552,"density":28489.3}},{"type":"Feature","geometry":{"type":"Polygon","coordinates":[[[-34.89908,-8.00209],[-34.89947,-8.00196],[-34.90191,-8.00037],[-34.90327,-7.99931],[-34.90499,-7.99817],[-34.90563,-7.9976],[-34.90631,-7.99738],[-34.90692,-7.99674],[-34.90688,-7.99611],[-34.90761,-7.99524],[-34.90822,-7.99483],[-34.90904,-7.9937],[-34.90948,-7.99286],[-34.91082,-7.99194],[-34.91228,-7.99108],[-34.91305,-7.99078],[-34.91409,-7.98995],[-34.91613,-7.98853],[-34.91636,-7.98819],[-34.91692,-7.98805],[-34.91661,-7.98719],[-34.91836,-7.98724],[-34.91923,-7.98766],[-34.91901,-7.98875],[-34.92005,-7.98935],[-34.9212,-7.99031],[-34.92368,-7.9927],[-34.92335,-7.99305],[-34.92306,-7.9938],[-34.92324,-7.99476],[-34.92262,-7.99593],[-34.92219,-7.99728],[-34.92158,-7.99884],[-34.92118,-7.99921],[-34.92155,-7.99952],[-34.92165,-8.00002],[-34.92114,-8.00056],[-34.9201,-8.00109],[-34.9188,-8.00161],[-34.91745,-8.00251],[-34.91677,-8.00254],[-34.91625,-8.00302],[-34.91601,-8.00378],[-34.91539,-8.00374],[-34.91505,-8.00426],[-34.91409,-8.00464],[-34.91389,-8.00531],[-34.91327,-8.00555],[-34.91226,-8.00625],[-34.91043,-8.00636],[-34.90964,-8.00676],[-34.90912,-8.00727],[-34.90826,-8.0074],[-34.90743,-8.00731],[-34.90658,-8.00747],[-34.90608,-8.0072],[-34.90415,-8.00659],[-34.90263,-8.00585],[-34.90236,-8.00541],[-34.90145,-8.00474],[-34.90049,-8.00385],[-34.89877,-8.00225],[-34.89862,-8.00193],[-34.89908,-8.00209]]]},"properties":{"codigo":"2611606028","name":"Dois Unidos","population":31437,"households":12580,"areaKm2":3.1479,"density":9986.6}},{"type":"Feature","geometry":{"type":"Polygon","coordinates":[[[-34.90661,-8.02556],[-34.90746,-8.02988],[-34.90709,-8.03009],[-34.90862,-8.03104],[-34.9079,-8.03265],[-34.9073,-8.03259],[-34.90678,-8.03355],[-34.90595,-8.03384],[-34.90565,-8.0338],[-34.90496,-8.03498],[-34.90429,-8.03572],[-34.90258,-8.03466],[-34.90162,-8.0369],[-34.9001,-8.03615],[-34.89943,-8.03629],[-34.8992,-8.03526],[-34.90025,-8.03505],[-34.89816,-8.03164],[-34.89856,-8.03105],[-34.89703,-8.02902],[-34.89576,-8.02837],[-34.89517,-8.0283],[-34.89516,-8.02813],[-34.89744,-8.02697],[-34.89882,-8.02646],[-34.8992,-8.02638],[-34.90344,-8.02645],[-34.90494,-8.02608],[-34.90548,-8.02616],[-34.90661,-8.02556]]]},"properties":{"codigo":"2611606018","name":"Tamarineira","population":13236,"households":5671,"areaKm2":1.0218,"density":12953.2}},{"type":"Feature","geometry":{"type":"Polygon","coordinates":[[[-34.87932,-8.01611],[-34.87936,-8.0167],[-34.87907,-8.01788],[-34.87976,-8.01857],[-34.87935,-8.02089],[-34.87957,-8.02132],[-34.88018,-8.02162],[-34.87978,-8.02253],[-34.87952,-8.02258],[-34.87857,-8.02231],[-34.87594,-8.02081],[-34.87442,-8.0199],[-34.87337,-8.02022],[-34.87335,-8.02013],[-34.8729,-8.01731],[-34.87764,-8.01654],[-34.87932,-8.01611]]]},"properties":{"codigo":"2611606019","name":"Peixinhos","population":2915,"households":1218,"areaKm2":0.3424,"density":8513.2}},{"type":"Feature","geometry":{"type":"Polygon","coordinates":[[[-34.91023,-8.01251],[-34.90959,-8.01265],[-34.909,-8.01248],[-34.90823,-8.01287],[-34.90733,-8.01375],[-34.9069,-8.01393],[-34.90621,-8.01302],[-34.90617,-8.01261],[-34.90553,-8.01185],[-34.90511,-8.01187],[-34.90509,-8.0128],[-34.90388,-8.01103],[-34.90321,-8.01056],[-34.90117,-8.01064],[-34.90034,-8.01036],[-34.89817,-8.00993],[-34.899,-8.00746],[-34.89993,-8.00548],[-34.8996,-8.00414],[-34.90049,-8.00385],[-34.90145,-8.00474],[-34.90236,-8.00541],[-34.90263,-8.00585],[-34.90415,-8.00659],[-34.90608,-8.0072],[-34.90658,-8.00747],[-34.90743,-8.00731],[-34.90826,-8.0074],[-34.90912,-8.00727],[-34.90964,-8.00676],[-34.91043,-8.00636],[-34.91088,-8.00768],[-34.91142,-8.00757],[-34.91075,-8.00811],[-34.91035,-8.01126],[-34.91064,-8.01128],[-34.91264,-8.01224],[-34.91164,-8.01288],[-34.91132,-8.01327],[-34.91023,-8.01251]]]},"properties":{"codigo":"2611606029","name":"Linha do Tiro","population":14202,"households":5622,"areaKm2":0.8131,"density":17467}},{"type":"Feature","geometry":{"type":"Polygon","coordinates":[[[-34.96144,-8.09498],[-34.96033,-8.09503],[-34.96016,-8.09394],[-34.95973,-8.09382],[-34.9595,-8.09333],[-34.95902,-8.0931],[-34.959,-8.09262],[-34.95746,-8.09185],[-34.95758,-8.09103],[-34.95368,-8.08999],[-34.95343,-8.08997],[-34.94711,-8.0925],[-34.94678,-8.09101],[-34.94683,-8.0895],[-34.948,-8.08974],[-34.94874,-8.08968],[-34.95088,-8.08932],[-34.9523,-8.0876],[-34.9539,-8.08589],[-34.95459,-8.0854],[-34.95643,-8.08423],[-34.95643,-8.08718],[-34.95847,-8.08798],[-34.95911,-8.08803],[-34.96461,-8.08693],[-34.96561,-8.08712],[-34.96517,-8.08849],[-34.96501,-8.08984],[-34.96596,-8.09],[-34.96623,-8.09039],[-34.96502,-8.09125],[-34.96464,-8.09165],[-34.96356,-8.09325],[-34.96252,-8.09392],[-34.96168,-8.09381],[-34.96144,-8.09498]]]},"properties":{"codigo":"2611606084","name":"Tejipió","population":9835,"households":4571,"areaKm2":0.9741,"density":10096.1}},{"type":"Feature","geometry":{"type":"Polygon","coordinates":[[[-34.90595,-8.01738],[-34.9062,-8.01682],[-34.90642,-8.01515],[-34.90615,-8.01432],[-34.90533,-8.01348],[-34.90509,-8.0128],[-34.90511,-8.01187],[-34.90553,-8.01185],[-34.90617,-8.01261],[-34.90621,-8.01302],[-34.9069,-8.01393],[-34.90733,-8.01375],[-34.90823,-8.01287],[-34.909,-8.01248],[-34.90959,-8.01265],[-34.91023,-8.01251],[-34.91028,-8.01394],[-34.90991,-8.01461],[-34.91039,-8.01569],[-34.91017,-8.01651],[-34.91028,-8.018],[-34.91071,-8.01853],[-34.91076,-8.01906],[-34.9097,-8.01891],[-34.90881,-8.01903],[-34.90792,-8.01952],[-34.90716,-8.01835],[-34.9066,-8.01792],[-34.9063,-8.01822],[-34.90517,-8.01864],[-34.90595,-8.01738]]]},"properties":{"codigo":"2611606031","name":"Alto Santa Terezinha","population":6620,"households":2611,"areaKm2":0.3146,"density":21044.4}},{"type":"Feature","geometry":{"type":"Polygon","coordinates":[[[-34.87337,-8.02022],[-34.87442,-8.0199],[-34.87594,-8.02081],[-34.87857,-8.02231],[-34.87952,-8.02258],[-34.88234,-8.02398],[-34.88297,-8.02449],[-34.88565,-8.02584],[-34.88759,-8.02717],[-34.88846,-8.02756],[-34.88987,-8.02773],[-34.88953,-8.02857],[-34.88967,-8.02897],[-34.88855,-8.02831],[-34.88819,-8.02884],[-34.88757,-8.02852],[-34.88525,-8.03194],[-34.88461,-8.03301],[-34.88539,-8.03355],[-34.88324,-8.03582],[-34.88395,-8.03676],[-34.88376,-8.03779],[-34.88361,-8.03898],[-34.88269,-8.03857],[-34.88179,-8.03979],[-34.88127,-8.04082],[-34.87645,-8.03863],[-34.87118,-8.0362],[-34.87063,-8.03614],[-34.86992,-8.03633],[-34.87555,-8.03172],[-34.87614,-8.02976],[-34.87572,-8.02756],[-34.87504,-8.02535],[-34.87337,-8.02022]]]},"properties":{"codigo":"2611606024","name":"Campo Grande","population":31783,"households":13185,"areaKm2":2.249,"density":14132.3}},{"type":"Feature","geometry":{"type":"Polygon","coordinates":[[[-34.97128,-8.08368],[-34.97097,-8.08232],[-34.97022,-8.08196],[-34.9702,-8.08252],[-34.96933,-8.08285],[-34.96844,-8.08386],[-34.96808,-8.0836],[-34.96704,-8.08497],[-34.96624,-8.08221],[-34.96577,-8.08146],[-34.96819,-8.08112],[-34.97008,-8.0807],[-34.97024,-8.08048],[-34.9711,-8.08115],[-34.97115,-8.08157],[-34.97086,-8.08172],[-34.9712,-8.08234],[-34.97136,-8.08322],[-34.97128,-8.08368]]]},"properties":{"codigo":"2611606081","name":"Totó","population":2074,"households":880,"areaKm2":0.1372,"density":15117.4}},{"type":"Feature","geometry":{"type":"Polygon","coordinates":[[[-34.94747,-8.13762],[-34.9474,-8.13743],[-34.94742,-8.1351],[-34.94732,-8.13432],[-34.94677,-8.13322],[-34.94504,-8.13117],[-34.94429,-8.13011],[-34.94403,-8.12945],[-34.94389,-8.12833],[-34.94381,-8.12597],[-34.9437,-8.12457],[-34.9434,-8.12319],[-34.9428,-8.12107],[-34.94274,-8.12031],[-34.94293,-8.11926],[-34.94442,-8.11553],[-34.94534,-8.11349],[-34.94642,-8.11065],[-34.94694,-8.1095],[-34.94765,-8.10998],[-34.94799,-8.10996],[-34.95152,-8.11063],[-34.95234,-8.11084],[-34.95286,-8.11115],[-34.95388,-8.11148],[-34.95425,-8.11142],[-34.95456,-8.11078],[-34.95526,-8.1109],[-34.95638,-8.11159],[-34.95657,-8.11199],[-34.95747,-8.11148],[-34.95814,-8.11156],[-34.95895,-8.11203],[-34.9597,-8.11454],[-34.95887,-8.11668],[-34.95905,-8.11769],[-34.95991,-8.11879],[-34.96018,-8.11939],[-34.96015,-8.11988],[-34.95967,-8.12149],[-34.95917,-8.12241],[-34.9594,-8.1234],[-34.95993,-8.12443],[-34.96003,-8.12494],[-34.96054,-8.1252],[-34.96042,-8.1258],[-34.96073,-8.12633],[-34.96027,-8.12756],[-34.95908,-8.1287],[-34.95848,-8.12972],[-34.95758,-8.12985],[-34.95716,-8.12957],[-34.95662,-8.12883],[-34.95565,-8.12915],[-34.95503,-8.12741],[-34.95475,-8.12618],[-34.95426,-8.12521],[-34.95407,-8.12399],[-34.95374,-8.12421],[-34.95318,-8.12518],[-34.95324,-8.12606],[-34.9529,-8.12654],[-34.95299,-8.12722],[-34.95246,-8.12927],[-34.95215,-8.12985],[-34.95249,-8.13064],[-34.95616,-8.13346],[-34.9567,-8.13401],[-34.95715,-8.13412],[-34.95654,-8.13647],[-34.9563,-8.13695],[-34.95599,-8.13749],[-34.95498,-8.1373],[-34.95373,-8.13849],[-34.95299,-8.13861],[-34.95234,-8.13822],[-34.95174,-8.13826],[-34.95179,-8.13774],[-34.95117,-8.13745],[-34.95026,-8.13819],[-34.94797,-8.13794],[-34.94747,-8.13762]]]},"properties":{"codigo":"2611606087","name":"Cohab","population":62632,"households":25723,"areaKm2":4.3283,"density":14470.3}},{"type":"Feature","geometry":{"type":"Polygon","coordinates":[[[-34.88504,-8.00656],[-34.88834,-8.00889],[-34.88822,-8.01053],[-34.88887,-8.01087],[-34.88926,-8.01134],[-34.88951,-8.01247],[-34.88931,-8.01388],[-34.88711,-8.01432],[-34.88486,-8.0159],[-34.88253,-8.01306],[-34.88195,-8.01318],[-34.88133,-8.01205],[-34.88074,-8.01131],[-34.8803,-8.01163],[-34.87997,-8.01135],[-34.88147,-8.00971],[-34.88224,-8.00921],[-34.88323,-8.00881],[-34.88417,-8.00788],[-34.88504,-8.00656]]]},"properties":{"codigo":"2611606033","name":"Cajueiro","population":5062,"households":2311,"areaKm2":0.5832,"density":8679.5}},{"type":"Feature","geometry":{"type":"Polygon","coordinates":[[[-34.93048,-8.02007],[-34.92986,-8.02017],[-34.92847,-8.02011],[-34.92818,-8.01981],[-34.92862,-8.0191],[-34.92881,-8.01843],[-34.92846,-8.01822],[-34.92791,-8.01878],[-34.92752,-8.01836],[-34.92743,-8.01757],[-34.92694,-8.0162],[-34.92701,-8.01528],[-34.92673,-8.0144],[-34.92608,-8.01347],[-34.9262,-8.0122],[-34.92741,-8.011],[-34.9268,-8.00967],[-34.92671,-8.00871],[-34.92632,-8.00808],[-34.92578,-8.0081],[-34.92589,-8.00732],[-34.92554,-8.00699],[-34.92577,-8.00651],[-34.92662,-8.00546],[-34.9288,-8.00548],[-34.92966,-8.00587],[-34.93038,-8.00554],[-34.93129,-8.00622],[-34.93196,-8.00497],[-34.93255,-8.00477],[-34.93288,-8.0042],[-34.93361,-8.00361],[-34.93408,-8.00396],[-34.93433,-8.00485],[-34.93359,-8.0056],[-34.93339,-8.00643],[-34.93392,-8.00822],[-34.93397,-8.00889],[-34.93477,-8.00908],[-34.93558,-8.00994],[-34.93545,-8.01038],[-34.9343,-8.01158],[-34.93334,-8.01208],[-34.93431,-8.01276],[-34.9345,-8.01438],[-34.93485,-8.01503],[-34.93477,-8.01566],[-34.93517,-8.01627],[-34.93517,-8.01738],[-34.93424,-8.0183],[-34.93306,-8.01832],[-34.93098,-8.01658],[-34.93013,-8.01745],[-34.92985,-8.01868],[-34.92986,-8.01922],[-34.93063,-8.01975],[-34.93048,-8.02007]]]},"properties":{"codigo":"2611606044","name":"Macaxeira","population":20126,"households":7843,"areaKm2":1.2494,"density":16108.1}},{"type":"Feature","geometry":{"type":"Polygon","coordinates":[[[-34.88978,-8.02968],[-34.88967,-8.02897],[-34.88953,-8.02857],[-34.88987,-8.02773],[-34.89296,-8.02793],[-34.89516,-8.02813],[-34.89517,-8.0283],[-34.89501,-8.03121],[-34.89399,-8.03156],[-34.8915,-8.03113],[-34.89176,-8.02999],[-34.88978,-8.02968]]]},"properties":{"codigo":"2611606022","name":"Ponto de Parada","population":2382,"households":1053,"areaKm2":0.1909,"density":12477}},{"type":"Feature","geometry":{"type":"Polygon","coordinates":[[[-34.90905,-8.06512],[-34.90919,-8.06502],[-34.90978,-8.0621],[-34.91004,-8.06065],[-34.90985,-8.05923],[-34.91171,-8.05685],[-34.91426,-8.05634],[-34.91593,-8.05578],[-34.91645,-8.05552],[-34.91703,-8.05739],[-34.9214,-8.05616],[-34.92401,-8.05547],[-34.92487,-8.05775],[-34.92579,-8.0605],[-34.92157,-8.06154],[-34.92121,-8.06162],[-34.92067,-8.06239],[-34.92018,-8.06232],[-34.91869,-8.06258],[-34.91828,-8.06304],[-34.91829,-8.06361],[-34.91712,-8.0647],[-34.91413,-8.06608],[-34.91334,-8.06329],[-34.91202,-8.06385],[-34.91108,-8.06408],[-34.90905,-8.06512]]]},"properties":{"codigo":"2611606063","name":"Prado","population":11412,"households":4915,"areaKm2":1.2582,"density":9070.1}},{"type":"Feature","geometry":{"type":"Polygon","coordinates":[[[-34.90998,-8.03818],[-34.9111,-8.03922],[-34.91218,-8.04069],[-34.91282,-8.04186],[-34.91367,-8.0426],[-34.91484,-8.04318],[-34.916,-8.04331],[-34.91665,-8.04325],[-34.91667,-8.04548],[-34.91771,-8.04839],[-34.91514,-8.04845],[-34.91416,-8.04813],[-34.90917,-8.04748],[-34.9042,-8.04687],[-34.90437,-8.04562],[-34.90366,-8.0455],[-34.90402,-8.04449],[-34.90448,-8.04361],[-34.90477,-8.04208],[-34.90496,-8.0397],[-34.90523,-8.03898],[-34.90595,-8.03812],[-34.90676,-8.03748],[-34.90785,-8.03717],[-34.90838,-8.03724],[-34.90956,-8.03783],[-34.90998,-8.03818]]]},"properties":{"codigo":"2611606059","name":"Torre","population":20872,"households":9419,"areaKm2":1.1705,"density":17831.7}},{"type":"Feature","geometry":{"type":"Polygon","coordinates":[[[-34.9279,-8.10241],[-34.92809,-8.10085],[-34.9288,-8.09587],[-34.92965,-8.0967],[-34.93286,-8.09966],[-34.93476,-8.09919],[-34.93485,-8.10311],[-34.93484,-8.10463],[-34.93398,-8.10478],[-34.932,-8.10451],[-34.9312,-8.10408],[-34.9301,-8.10317],[-34.92872,-8.1024],[-34.9279,-8.10241]]]},"properties":{"codigo":"2611606079","name":"Caçote","population":8738,"households":3698,"areaKm2":0.4552,"density":19196.7}},{"type":"Feature","geometry":{"type":"Polygon","coordinates":[[[-34.94419,-8.04986],[-34.9396,-8.04946],[-34.9402,-8.0474],[-34.94007,-8.0471],[-34.93861,-8.04719],[-34.93482,-8.04706],[-34.93264,-8.04702],[-34.93169,-8.04645],[-34.93094,-8.04509],[-34.92996,-8.04562],[-34.92894,-8.04379],[-34.92952,-8.04347],[-34.92888,-8.04234],[-34.92839,-8.04186],[-34.92799,-8.04209],[-34.92671,-8.03977],[-34.92591,-8.03905],[-34.92637,-8.038],[-34.92647,-8.03719],[-34.92641,-8.03561],[-34.92652,-8.03447],[-34.92708,-8.03315],[-34.92781,-8.03198],[-34.92901,-8.03036],[-34.93053,-8.0286],[-34.93142,-8.02698],[-34.93168,-8.02623],[-34.93207,-8.02575],[-34.93314,-8.02498],[-34.93322,-8.02427],[-34.93298,-8.02334],[-34.93321,-8.02284],[-34.93407,-8.0225],[-34.93559,-8.02254],[-34.93674,-8.02242],[-34.93777,-8.02206],[-34.93848,-8.02239],[-34.93847,-8.02289],[-34.93794,-8.02345],[-34.93802,-8.02417],[-34.93964,-8.02542],[-34.94041,-8.02616],[-34.94134,-8.02658],[-34.94176,-8.02714],[-34.94304,-8.02751],[-34.94464,-8.0275],[-34.94455,-8.03097],[-34.94449,-8.03494],[-34.94502,-8.03636],[-34.94556,-8.03704],[-34.9418,-8.03909],[-34.94217,-8.04018],[-34.94348,-8.04349],[-34.94369,-8.04369],[-34.94482,-8.04639],[-34.94389,-8.0463],[-34.94419,-8.04986]]]},"properties":{"codigo":"2611606071","name":"Iputinga","population":49944,"households":21724,"areaKm2":4.3255,"density":11546.4}},{"type":"Feature","geometry":{"type":"Polygon","coordinates":[[[-34.88631,-8.05671],[-34.88937,-8.05498],[-34.88978,-8.05443],[-34.88996,-8.05316],[-34.89226,-8.05263],[-34.89194,-8.05344],[-34.89136,-8.0544],[-34.89262,-8.0565],[-34.89298,-8.05822],[-34.89305,-8.059],[-34.89133,-8.05932],[-34.8913,-8.06048],[-34.89023,-8.0604],[-34.88987,-8.05847],[-34.88999,-8.05751],[-34.8864,-8.0596],[-34.8862,-8.05923],[-34.88697,-8.05782],[-34.88631,-8.05671]]]},"properties":{"codigo":"2611606004","name":"Soledade","population":2081,"households":1553,"areaKm2":0.3234,"density":6434.5}}]}