{"type":"FeatureCollection","features":[{"type":"Feature","geometry":{"type":"Polygon","coordinates":[[[-40.66665,-8.16221],[-40.66431,-8.16203],[-40.65991,-8.16256],[-40.65849,-8.16349],[-40.65635,-8.16596],[-40.65545,-8.16801],[-40.65322,-8.1689],[-40.65204,-8.16967],[-40.65126,-8.16973],[-40.64931,-8.16915],[-40.64818,-8.16983],[-40.64754,-8.17132],[-40.64285,-8.17439],[-40.64165,-8.17486],[-40.64056,-8.17569],[-40.6396,-8.17562],[-40.63804,-8.17664],[-40.63706,-8.17786],[-40.63857,-8.17925],[-40.63934,-8.1815],[-40.63949,-8.18328],[-40.63911,-8.18509],[-40.6385,-8.18567],[-40.63866,-8.18718],[-40.63831,-8.18786],[-40.63996,-8.18823],[-40.64032,-8.18868],[-40.64221,-8.18958],[-40.64321,-8.19196],[-40.64321,-8.19415],[-40.64395,-8.19565],[-40.64405,-8.19647],[-40.64531,-8.19842],[-40.64582,-8.19979],[-40.64399,-8.20311],[-40.64573,-8.20577],[-40.64587,-8.20689],[-40.64692,-8.2094],[-40.64938,-8.21046],[-40.64974,-8.21109],[-40.6496,-8.21336],[-40.65185,-8.21422],[-40.65192,-8.2153],[-40.65326,-8.21908],[-40.65428,-8.22052],[-40.65462,-8.22249],[-40.65569,-8.22297],[-40.65725,-8.22439],[-40.65913,-8.2277],[-40.66145,-8.22927],[-40.66161,-8.23141],[-40.66247,-8.2317],[-40.66419,-8.23465],[-40.66675,-8.23586],[-40.66905,-8.23676],[-40.67071,-8.23848],[-40.6708,-8.24026],[-40.6711,-8.24087],[-40.67377,-8.24301],[-40.67695,-8.24338],[-40.67855,-8.24755],[-40.6799,-8.24789],[-40.68089,-8.24862],[-40.68215,-8.2501],[-40.68286,-8.25317],[-40.68509,-8.25407],[-40.68535,-8.25526],[-40.68629,-8.25538],[-40.68793,-8.25423],[-40.68934,-8.25438],[-40.69102,-8.25498],[-40.69294,-8.25765],[-40.69331,-8.25866],[-40.6927,-8.26123],[-40.69346,-8.26233],[-40.69483,-8.26225],[-40.69755,-8.26166],[-40.69855,-8.26217],[-40.70035,-8.26461],[-40.7028,-8.26498],[-40.70492,-8.26404],[-40.7061,-8.26385],[-40.7091,-8.26408],[-40.71023,-8.26473],[-40.71231,-8.26899],[-40.71237,-8.27023],[-40.71339,-8.27428],[-40.71401,-8.2759],[-40.71263,-8.28549],[-40.71175,-8.28629],[-40.71213,-8.28819],[-40.71167,-8.28877],[-40.71241,-8.29004],[-40.71366,-8.29072],[-40.71378,-8.29139],[-40.71516,-8.29117],[-40.71889,-8.29208],[-40.72321,-8.2913],[-40.72491,-8.29145],[-40.72517,-8.2911],[-40.72622,-8.28689],[-40.72791,-8.28735],[-40.7311,-8.29041],[-40.732,-8.29098],[-40.73445,-8.29182],[-40.73641,-8.29217],[-40.73683,-8.29373],[-40.73783,-8.29582],[-40.73879,-8.29599],[-40.74029,-8.29523],[-40.7414,-8.2954],[-40.74342,-8.29501],[-40.74514,-8.29509],[-40.74926,-8.29596],[-40.7511,-8.29702],[-40.75271,-8.29723],[-40.75415,-8.29785],[-40.75497,-8.29925],[-40.75612,-8.30178],[-40.75785,-8.30366],[-40.75975,-8.30747],[-40.76157,-8.30956],[-40.76214,-8.31203],[-40.76138,-8.31483],[-40.76228,-8.31608],[-40.7622,-8.31825],[-40.75878,-8.32176],[-40.75614,-8.32635],[-40.75779,-8.32932],[-40.75798,-8.33693],[-40.75733,-8.33907],[-40.75522,-8.34227],[-40.75377,-8.34291],[-40.75157,-8.34229],[-40.74947,-8.34258],[-40.74835,-8.34176],[-40.74748,-8.33936],[-40.74669,-8.33865],[-40.74382,-8.33789],[-40.74266,-8.33711],[-40.74012,-8.33881],[-40.73834,-8.34101],[-40.73622,-8.34199],[-40.73442,-8.34383],[-40.73096,-8.34548],[-40.72855,-8.3475],[-40.72412,-8.34907],[-40.72001,-8.34989],[-40.71681,-8.35119],[-40.71657,-8.35052],[-40.71282,-8.3376],[-40.71042,-8.32949],[-40.70999,-8.32857],[-40.70877,-8.32765],[-40.70504,-8.32695],[-40.70346,-8.32637],[-40.7018,-8.32508],[-40.69217,-8.31485],[-40.69125,-8.31302],[-40.69048,-8.30968],[-40.6887,-8.30992],[-40.6861,-8.31163],[-40.68454,-8.31414],[-40.6841,-8.31532],[-40.68312,-8.31683],[-40.68216,-8.31688],[-40.68101,-8.31587],[-40.67728,-8.3148],[-40.6757,-8.31489],[-40.67486,-8.31587],[-40.67304,-8.31654],[-40.67012,-8.31648],[-40.66723,-8.31561],[-40.66349,-8.31547],[-40.66264,-8.3162],[-40.66094,-8.31594],[-40.65797,-8.3163],[-40.65717,-8.31706],[-40.65543,-8.31575],[-40.65405,-8.31522],[-40.65249,-8.31313],[-40.64926,-8.31331],[-40.64806,-8.31045],[-40.64756,-8.3088],[-40.64595,-8.30764],[-40.64327,-8.30707],[-40.64095,-8.30699],[-40.64011,-8.30757],[-40.63902,-8.30924],[-40.63931,-8.31205],[-40.63876,-8.3136],[-40.63599,-8.31673],[-40.63595,-8.31796],[-40.63474,-8.319],[-40.63273,-8.31968],[-40.63116,-8.31916],[-40.63065,-8.3181],[-40.62998,-8.31792],[-40.6276,-8.31809],[-40.62309,-8.31888],[-40.61806,-8.3176],[-40.61562,-8.31658],[-40.61278,-8.3171],[-40.6112,-8.31588],[-40.60959,-8.31607],[-40.60544,-8.31591],[-40.60257,-8.31557],[-40.60233,-8.31381],[-40.60031,-8.31486],[-40.59797,-8.31685],[-40.59688,-8.31728],[-40.5916,-8.31761],[-40.59063,-8.31737],[-40.58802,-8.31756],[-40.5865,-8.31823],[-40.586,-8.31877],[-40.58397,-8.31934],[-40.58233,-8.32063],[-40.57992,-8.32155],[-40.57873,-8.32156],[-40.57826,-8.3204],[-40.57648,-8.31862],[-40.57504,-8.31773],[-40.57335,-8.31704],[-40.57234,-8.31414],[-40.57122,-8.31391],[-40.5684,-8.31181],[-40.56752,-8.3115],[-40.56606,-8.31021],[-40.56433,-8.3104],[-40.56132,-8.3096],[-40.56028,-8.30813],[-40.55894,-8.30709],[-40.55816,-8.30689],[-40.55532,-8.30698],[-40.55264,-8.30616],[-40.55026,-8.30642],[-40.54776,-8.30616],[-40.54627,-8.30558],[-40.54253,-8.305],[-40.542,-8.30469],[-40.54155,-8.30329],[-40.54119,-8.30004],[-40.54107,-8.29729],[-40.54055,-8.2964],[-40.53691,-8.29355],[-40.53458,-8.29057],[-40.53349,-8.28939],[-40.53214,-8.28841],[-40.53108,-8.28692],[-40.52766,-8.2841],[-40.52677,-8.28278],[-40.52539,-8.27991],[-40.52522,-8.27807],[-40.52433,-8.27494],[-40.52462,-8.27147],[-40.52315,-8.27023],[-40.52071,-8.26607],[-40.51821,-8.26386],[-40.51629,-8.26096],[-40.5154,-8.25901],[-40.51474,-8.2568],[-40.51393,-8.25298],[-40.51327,-8.25099],[-40.51253,-8.24965],[-40.51043,-8.24689],[-40.50989,-8.24591],[-40.50966,-8.2419],[-40.50929,-8.23663],[-40.50933,-8.23538],[-40.51036,-8.23304],[-40.51246,-8.22869],[-40.51528,-8.22554],[-40.51662,-8.22434],[-40.51816,-8.2225],[-40.51932,-8.21883],[-40.51945,-8.21749],[-40.51901,-8.21591],[-40.51526,-8.21215],[-40.51494,-8.20946],[-40.51679,-8.20643],[-40.51709,-8.20238],[-40.51752,-8.20049],[-40.51941,-8.19485],[-40.51974,-8.19249],[-40.5197,-8.19121],[-40.51877,-8.18872],[-40.51814,-8.18777],[-40.51684,-8.18475],[-40.5166,-8.18039],[-40.51516,-8.17966],[-40.5136,-8.17972],[-40.51135,-8.18016],[-40.51059,-8.17973],[-40.50852,-8.17925],[-40.50643,-8.17803],[-40.50535,-8.17703],[-40.50469,-8.17562],[-40.50508,-8.17292],[-40.50488,-8.17164],[-40.50426,-8.17016],[-40.50415,-8.16894],[-40.50359,-8.16743],[-40.50118,-8.1661],[-40.49822,-8.16227],[-40.49608,-8.1612],[-40.49546,-8.1599],[-40.49559,-8.15904],[-40.4974,-8.15645],[-40.49766,-8.15548],[-40.49885,-8.15392],[-40.49981,-8.15221],[-40.50181,-8.15147],[-40.50389,-8.14971],[-40.50441,-8.14852],[-40.50495,-8.14635],[-40.50468,-8.14229],[-40.5042,-8.14163],[-40.50131,-8.13981],[-40.49905,-8.13809],[-40.50018,-8.13414],[-40.50044,-8.13263],[-40.50209,-8.13186],[-40.50432,-8.12986],[-40.50531,-8.12871],[-40.50594,-8.12741],[-40.50713,-8.12569],[-40.50806,-8.12471],[-40.50858,-8.12173],[-40.51046,-8.11978],[-40.51,-8.11916],[-40.50924,-8.11688],[-40.50925,-8.11622],[-40.50997,-8.11394],[-40.51263,-8.11005],[-40.51426,-8.1098],[-40.51745,-8.11024],[-40.51925,-8.10969],[-40.52039,-8.10897],[-40.52186,-8.10725],[-40.52219,-8.10725],[-40.52477,-8.1111],[-40.52534,-8.11176],[-40.53156,-8.11546],[-40.53504,-8.116],[-40.5358,-8.1159],[-40.53941,-8.11345],[-40.54277,-8.11244],[-40.54366,-8.11182],[-40.54545,-8.11],[-40.54712,-8.10901],[-40.54834,-8.10748],[-40.54949,-8.10655],[-40.55567,-8.11102],[-40.55931,-8.11025],[-40.56108,-8.11047],[-40.56354,-8.10962],[-40.57013,-8.10715],[-40.5711,-8.10652],[-40.57251,-8.10619],[-40.57425,-8.10464],[-40.57613,-8.10399],[-40.57764,-8.10459],[-40.57952,-8.10422],[-40.58218,-8.10331],[-40.58404,-8.10217],[-40.5854,-8.1007],[-40.58755,-8.09673],[-40.58811,-8.0948],[-40.58777,-8.0919],[-40.58554,-8.08822],[-40.58558,-8.08694],[-40.58673,-8.08549],[-40.58783,-8.08247],[-40.59007,-8.08073],[-40.59004,-8.07789],[-40.58985,-8.07612],[-40.59019,-8.07369],[-40.59064,-8.07277],[-40.59032,-8.07205],[-40.58914,-8.07187],[-40.5892,-8.07124],[-40.58804,-8.07093],[-40.58782,-8.06945],[-40.58849,-8.06807],[-40.58951,-8.06759],[-40.58997,-8.06467],[-40.58891,-8.05964],[-40.58899,-8.05947],[-40.59876,-8.08086],[-40.60109,-8.09119],[-40.60312,-8.09533],[-40.60153,-8.09962],[-40.60387,-8.10369],[-40.60226,-8.10543],[-40.60118,-8.1075],[-40.59934,-8.11562],[-40.59415,-8.12001],[-40.59124,-8.12352],[-40.59092,-8.12881],[-40.5895,-8.1378],[-40.5897,-8.13881],[-40.59118,-8.13962],[-40.59756,-8.14117],[-40.60114,-8.14405],[-40.60204,-8.14601],[-40.60101,-8.14926],[-40.60132,-8.15017],[-40.6047,-8.14963],[-40.61053,-8.14661],[-40.61442,-8.1465],[-40.61781,-8.14361],[-40.62188,-8.14122],[-40.62448,-8.14035],[-40.6287,-8.14107],[-40.63284,-8.1393],[-40.63395,-8.13945],[-40.63684,-8.1421],[-40.63787,-8.14445],[-40.63831,-8.14722],[-40.63906,-8.14815],[-40.64278,-8.15007],[-40.6427,-8.15504],[-40.64357,-8.15754],[-40.6452,-8.15808],[-40.64948,-8.15686],[-40.65284,-8.15769],[-40.65851,-8.15656],[-40.66648,-8.16159],[-40.66665,-8.16221]]]},"properties":{"codigo":"261255405","name":"Santa Filomena","population":5229,"households":2736,"areaKm2":396.8548,"density":13.2}},{"type":"Feature","geometry":{"type":"Polygon","coordinates":[[[-40.64906,-8.38051],[-40.64795,-8.38096],[-40.64551,-8.38103],[-40.64517,-8.38043],[-40.64569,-8.37861],[-40.64382,-8.37817],[-40.64232,-8.37603],[-40.64083,-8.37536],[-40.63761,-8.37695],[-40.6366,-8.3764],[-40.63563,-8.37459],[-40.63103,-8.37578],[-40.62998,-8.37507],[-40.63038,-8.37281],[-40.63008,-8.37181],[-40.62907,-8.37137],[-40.62759,-8.37275],[-40.62623,-8.37244],[-40.62234,-8.36844],[-40.62125,-8.36804],[-40.61947,-8.36812],[-40.61778,-8.36971],[-40.61699,-8.36993],[-40.61487,-8.36938],[-40.61119,-8.37244],[-40.60992,-8.37215],[-40.60878,-8.37124],[-40.60862,-8.36831],[-40.607,-8.36735],[-40.60534,-8.36691],[-40.60393,-8.36852],[-40.60302,-8.36887],[-40.60048,-8.36807],[-40.59977,-8.36729],[-40.59916,-8.36436],[-40.59737,-8.36396],[-40.59639,-8.36512],[-40.5952,-8.36736],[-40.59419,-8.3682],[-40.59156,-8.36815],[-40.58909,-8.36754],[-40.5872,-8.36441],[-40.58611,-8.36378],[-40.58415,-8.36438],[-40.58187,-8.36335],[-40.58068,-8.36339],[-40.57865,-8.36435],[-40.57753,-8.36443],[-40.57499,-8.36321],[-40.57313,-8.36296],[-40.57149,-8.3646],[-40.56913,-8.365],[-40.56738,-8.36619],[-40.56548,-8.3662],[-40.56499,-8.36698],[-40.56491,-8.3714],[-40.56287,-8.37263],[-40.55833,-8.37186],[-40.55305,-8.37381],[-40.55147,-8.37521],[-40.54816,-8.37648],[-40.54532,-8.37601],[-40.54372,-8.37646],[-40.54233,-8.37786],[-40.54119,-8.38101],[-40.54112,-8.38336],[-40.54053,-8.38429],[-40.53977,-8.38423],[-40.5367,-8.38198],[-40.53323,-8.38129],[-40.53275,-8.38055],[-40.53458,-8.378],[-40.53476,-8.37678],[-40.53405,-8.37529],[-40.53285,-8.37448],[-40.53214,-8.37318],[-40.53091,-8.36831],[-40.53005,-8.36716],[-40.52889,-8.36653],[-40.52751,-8.36687],[-40.52457,-8.36614],[-40.52371,-8.36637],[-40.52199,-8.36929],[-40.52084,-8.37026],[-40.51927,-8.37045],[-40.51644,-8.36964],[-40.51411,-8.37112],[-40.51303,-8.37123],[-40.51034,-8.36835],[-40.50552,-8.36898],[-40.50405,-8.36672],[-40.50252,-8.36572],[-40.50159,-8.36624],[-40.50011,-8.36892],[-40.49805,-8.36981],[-40.49522,-8.37011],[-40.4935,-8.36793],[-40.49092,-8.36675],[-40.49018,-8.36439],[-40.48899,-8.36388],[-40.48791,-8.36422],[-40.48561,-8.36619],[-40.48438,-8.36612],[-40.48141,-8.36445],[-40.48118,-8.36304],[-40.47965,-8.36293],[-40.47711,-8.36164],[-40.47469,-8.36191],[-40.47305,-8.36281],[-40.47158,-8.36253],[-40.47065,-8.36324],[-40.47036,-8.36406],[-40.4692,-8.36436],[-40.46846,-8.36592],[-40.46492,-8.36438],[-40.46422,-8.36146],[-40.46246,-8.36091],[-40.46068,-8.362],[-40.45867,-8.36212],[-40.45746,-8.36273],[-40.45533,-8.36245],[-40.4528,-8.36353],[-40.45154,-8.36543],[-40.44875,-8.36704],[-40.44748,-8.36858],[-40.44428,-8.37064],[-40.44228,-8.37402],[-40.44234,-8.37575],[-40.44001,-8.37794],[-40.43901,-8.37836],[-40.43797,-8.38208],[-40.43825,-8.38325],[-40.43792,-8.3854],[-40.43733,-8.38593],[-40.43648,-8.38868],[-40.43518,-8.38968],[-40.43459,-8.38745],[-40.43369,-8.38573],[-40.43298,-8.38108],[-40.43311,-8.37925],[-40.43251,-8.37745],[-40.43254,-8.37635],[-40.43012,-8.37511],[-40.42998,-8.37428],[-40.43181,-8.373],[-40.43178,-8.36977],[-40.43148,-8.36884],[-40.43169,-8.36664],[-40.43259,-8.36447],[-40.43117,-8.36283],[-40.43007,-8.36209],[-40.43053,-8.3606],[-40.43352,-8.35831],[-40.43471,-8.35781],[-40.4338,-8.35626],[-40.43455,-8.35514],[-40.43391,-8.35362],[-40.43302,-8.35239],[-40.43458,-8.35006],[-40.43582,-8.34706],[-40.4371,-8.34538],[-40.44047,-8.3425],[-40.44227,-8.34236],[-40.44491,-8.34294],[-40.44646,-8.34207],[-40.44801,-8.33964],[-40.44816,-8.33798],[-40.44764,-8.33698],[-40.44675,-8.33621],[-40.44554,-8.33567],[-40.44398,-8.33445],[-40.44387,-8.33373],[-40.44499,-8.3306],[-40.44668,-8.329],[-40.44743,-8.32762],[-40.44639,-8.32522],[-40.44678,-8.32362],[-40.44714,-8.32068],[-40.44792,-8.31962],[-40.44781,-8.31804],[-40.44891,-8.31737],[-40.44863,-8.31645],[-40.44944,-8.31578],[-40.4508,-8.31626],[-40.45407,-8.31511],[-40.45579,-8.31266],[-40.45544,-8.31142],[-40.45642,-8.31108],[-40.45663,-8.31029],[-40.45867,-8.30966],[-40.45985,-8.30798],[-40.4599,-8.3055],[-40.45913,-8.30395],[-40.45979,-8.30266],[-40.45969,-8.30157],[-40.45877,-8.30149],[-40.45874,-8.30042],[-40.45682,-8.29956],[-40.45624,-8.29785],[-40.45631,-8.29638],[-40.4567,-8.29499],[-40.45552,-8.29263],[-40.45555,-8.29169],[-40.45505,-8.29003],[-40.45576,-8.28907],[-40.45549,-8.28802],[-40.45427,-8.28722],[-40.45385,-8.2856],[-40.45255,-8.28502],[-40.45183,-8.28412],[-40.45209,-8.28325],[-40.45022,-8.28217],[-40.45002,-8.28043],[-40.44942,-8.28004],[-40.44881,-8.27818],[-40.44681,-8.2764],[-40.44634,-8.27496],[-40.44551,-8.27467],[-40.44255,-8.23886],[-40.44586,-8.23661],[-40.44733,-8.23719],[-40.45112,-8.23735],[-40.46056,-8.23794],[-40.463,-8.23756],[-40.46728,-8.23728],[-40.46795,-8.23797],[-40.46948,-8.23836],[-40.47136,-8.23807],[-40.47619,-8.23606],[-40.47786,-8.23591],[-40.47923,-8.23619],[-40.48029,-8.23589],[-40.48246,-8.23586],[-40.48345,-8.23555],[-40.48635,-8.23634],[-40.48838,-8.23737],[-40.48886,-8.2381],[-40.49014,-8.23757],[-40.49196,-8.23802],[-40.49323,-8.23955],[-40.49425,-8.24022],[-40.49569,-8.24035],[-40.49757,-8.23996],[-40.49911,-8.24032],[-40.50184,-8.2397],[-40.50326,-8.24043],[-40.50966,-8.2419],[-40.50989,-8.24591],[-40.51043,-8.24689],[-40.51253,-8.24965],[-40.51327,-8.25099],[-40.51393,-8.25298],[-40.51474,-8.2568],[-40.5154,-8.25901],[-40.51629,-8.26096],[-40.51821,-8.26386],[-40.52071,-8.26607],[-40.52315,-8.27023],[-40.52462,-8.27147],[-40.52433,-8.27494],[-40.52522,-8.27807],[-40.52539,-8.27991],[-40.52677,-8.28278],[-40.52766,-8.2841],[-40.53108,-8.28692],[-40.53214,-8.28841],[-40.53349,-8.28939],[-40.53458,-8.29057],[-40.53691,-8.29355],[-40.54055,-8.2964],[-40.54107,-8.29729],[-40.54119,-8.30004],[-40.54155,-8.30329],[-40.542,-8.30469],[-40.54253,-8.305],[-40.54627,-8.30558],[-40.54776,-8.30616],[-40.55026,-8.30642],[-40.55264,-8.30616],[-40.55532,-8.30698],[-40.55816,-8.30689],[-40.55894,-8.30709],[-40.56028,-8.30813],[-40.56132,-8.3096],[-40.56433,-8.3104],[-40.56606,-8.31021],[-40.56752,-8.3115],[-40.5684,-8.31181],[-40.57122,-8.31391],[-40.57234,-8.31414],[-40.57335,-8.31704],[-40.57504,-8.31773],[-40.57648,-8.31862],[-40.57826,-8.3204],[-40.57873,-8.32156],[-40.57992,-8.32155],[-40.58233,-8.32063],[-40.58397,-8.31934],[-40.586,-8.31877],[-40.5865,-8.31823],[-40.58802,-8.31756],[-40.59063,-8.31737],[-40.5916,-8.31761],[-40.59688,-8.31728],[-40.59797,-8.31685],[-40.60031,-8.31486],[-40.60233,-8.31381],[-40.60257,-8.31557],[-40.60544,-8.31591],[-40.60959,-8.31607],[-40.6112,-8.31588],[-40.61278,-8.3171],[-40.61562,-8.31658],[-40.61806,-8.3176],[-40.62309,-8.31888],[-40.6276,-8.31809],[-40.62998,-8.31792],[-40.63065,-8.3181],[-40.63116,-8.31916],[-40.63273,-8.31968],[-40.63474,-8.319],[-40.63595,-8.31796],[-40.63599,-8.31673],[-40.63876,-8.3136],[-40.63931,-8.31205],[-40.63902,-8.30924],[-40.64011,-8.30757],[-40.64095,-8.30699],[-40.64327,-8.30707],[-40.64595,-8.30764],[-40.64756,-8.3088],[-40.64806,-8.31045],[-40.64926,-8.31331],[-40.65249,-8.31313],[-40.65405,-8.31522],[-40.65543,-8.31575],[-40.65717,-8.31706],[-40.65797,-8.3163],[-40.66094,-8.31594],[-40.66264,-8.3162],[-40.66349,-8.31547],[-40.66723,-8.31561],[-40.67012,-8.31648],[-40.67304,-8.31654],[-40.67486,-8.31587],[-40.6757,-8.31489],[-40.67728,-8.3148],[-40.68101,-8.31587],[-40.68216,-8.31688],[-40.68312,-8.31683],[-40.6841,-8.31532],[-40.68454,-8.31414],[-40.6861,-8.31163],[-40.6887,-8.30992],[-40.69048,-8.30968],[-40.69125,-8.31302],[-40.69217,-8.31485],[-40.7018,-8.32508],[-40.70346,-8.32637],[-40.70504,-8.32695],[-40.70877,-8.32765],[-40.70999,-8.32857],[-40.71042,-8.32949],[-40.71282,-8.3376],[-40.71657,-8.35052],[-40.71681,-8.35119],[-40.71658,-8.35116],[-40.71313,-8.35073],[-40.70683,-8.34733],[-40.70321,-8.34731],[-40.6977,-8.3508],[-40.69261,-8.35521],[-40.68612,-8.35807],[-40.68549,-8.35927],[-40.68557,-8.36045],[-40.68651,-8.36219],[-40.68655,-8.36331],[-40.68431,-8.365],[-40.68106,-8.36521],[-40.68084,-8.36584],[-40.68159,-8.36669],[-40.68156,-8.3681],[-40.68247,-8.3694],[-40.67958,-8.37151],[-40.67937,-8.3738],[-40.67867,-8.37463],[-40.67618,-8.37443],[-40.67417,-8.37263],[-40.67297,-8.37074],[-40.67151,-8.36989],[-40.66727,-8.37065],[-40.66415,-8.36908],[-40.66222,-8.37121],[-40.65909,-8.37148],[-40.65836,-8.37229],[-40.65845,-8.37484],[-40.65782,-8.37596],[-40.65805,-8.37681],[-40.6591,-8.37759],[-40.65925,-8.37908],[-40.65689,-8.37977],[-40.65566,-8.3807],[-40.65234,-8.37968],[-40.65089,-8.37976],[-40.64906,-8.38051]]]},"properties":{"codigo":"261255410","name":"Campo Santo","population":1180,"households":650,"areaKm2":248.1764,"density":4.8}},{"type":"Feature","geometry":{"type":"Polygon","coordinates":[[[-40.57586,-8.03073],[-40.5743,-8.03076],[-40.5729,-8.03245],[-40.57196,-8.03315],[-40.56993,-8.03377],[-40.56938,-8.03465],[-40.5676,-8.03539],[-40.56575,-8.03662],[-40.56483,-8.03772],[-40.56232,-8.03899],[-40.56156,-8.04],[-40.56027,-8.04011],[-40.55838,-8.0396],[-40.55744,-8.03845],[-40.55849,-8.03422],[-40.55554,-8.03487],[-40.55362,-8.03573],[-40.5514,-8.03701],[-40.54709,-8.03856],[-40.54609,-8.03936],[-40.54367,-8.04025],[-40.53824,-8.04245],[-40.53652,-8.04334],[-40.5354,-8.0444],[-40.53562,-8.04656],[-40.53467,-8.05081],[-40.53464,-8.05284],[-40.53499,-8.05388],[-40.53458,-8.05905],[-40.53318,-8.06089],[-40.52967,-8.06227],[-40.52609,-8.06463],[-40.52509,-8.06453],[-40.52514,-8.06555],[-40.5247,-8.06622],[-40.5221,-8.06718],[-40.52195,-8.06921],[-40.52166,-8.06994],[-40.52012,-8.0717],[-40.5203,-8.07357],[-40.51991,-8.07425],[-40.5186,-8.07485],[-40.51836,-8.07537],[-40.52536,-8.1114],[-40.52534,-8.11176],[-40.52477,-8.1111],[-40.52219,-8.10725],[-40.52186,-8.10725],[-40.52039,-8.10897],[-40.51925,-8.10969],[-40.51745,-8.11024],[-40.51426,-8.1098],[-40.51263,-8.11005],[-40.50997,-8.11394],[-40.50925,-8.11622],[-40.50924,-8.11688],[-40.51,-8.11916],[-40.51046,-8.11978],[-40.50858,-8.12173],[-40.50806,-8.12471],[-40.50713,-8.12569],[-40.50594,-8.12741],[-40.50531,-8.12871],[-40.50432,-8.12986],[-40.50209,-8.13186],[-40.50044,-8.13263],[-40.50018,-8.13414],[-40.49905,-8.13809],[-40.50131,-8.13981],[-40.5042,-8.14163],[-40.50468,-8.14229],[-40.50495,-8.14635],[-40.50441,-8.14852],[-40.50389,-8.14971],[-40.50181,-8.15147],[-40.49981,-8.15221],[-40.49885,-8.15392],[-40.49766,-8.15548],[-40.4974,-8.15645],[-40.49559,-8.15904],[-40.49546,-8.1599],[-40.49608,-8.1612],[-40.49822,-8.16227],[-40.50118,-8.1661],[-40.50359,-8.16743],[-40.50415,-8.16894],[-40.50426,-8.17016],[-40.50488,-8.17164],[-40.50508,-8.17292],[-40.50469,-8.17562],[-40.50535,-8.17703],[-40.50643,-8.17803],[-40.50852,-8.17925],[-40.51059,-8.17973],[-40.51135,-8.18016],[-40.5136,-8.17972],[-40.51516,-8.17966],[-40.5166,-8.18039],[-40.51684,-8.18475],[-40.51814,-8.18777],[-40.51877,-8.18872],[-40.5197,-8.19121],[-40.51974,-8.19249],[-40.51941,-8.19485],[-40.51752,-8.20049],[-40.51709,-8.20238],[-40.51679,-8.20643],[-40.51494,-8.20946],[-40.51526,-8.21215],[-40.51901,-8.21591],[-40.51945,-8.21749],[-40.51932,-8.21883],[-40.51816,-8.2225],[-40.51662,-8.22434],[-40.51528,-8.22554],[-40.51246,-8.22869],[-40.51036,-8.23304],[-40.50933,-8.23538],[-40.50929,-8.23663],[-40.50966,-8.2419],[-40.50326,-8.24043],[-40.50184,-8.2397],[-40.49911,-8.24032],[-40.49757,-8.23996],[-40.49569,-8.24035],[-40.49425,-8.24022],[-40.49323,-8.23955],[-40.49196,-8.23802],[-40.49014,-8.23757],[-40.48886,-8.2381],[-40.48838,-8.23737],[-40.48635,-8.23634],[-40.48345,-8.23555],[-40.48246,-8.23586],[-40.48029,-8.23589],[-40.47923,-8.23619],[-40.47786,-8.23591],[-40.47619,-8.23606],[-40.47136,-8.23807],[-40.46948,-8.23836],[-40.46795,-8.23797],[-40.46728,-8.23728],[-40.463,-8.23756],[-40.46056,-8.23794],[-40.45112,-8.23735],[-40.44733,-8.23719],[-40.44586,-8.23661],[-40.44255,-8.23886],[-40.43761,-8.17917],[-40.43104,-8.10016],[-40.42851,-8.06975],[-40.42916,-8.06582],[-40.4286,-8.06284],[-40.43045,-8.05708],[-40.42909,-8.0549],[-40.42992,-8.05316],[-40.42949,-8.05178],[-40.4265,-8.04984],[-40.42531,-8.04839],[-40.42552,-8.04694],[-40.42499,-8.04559],[-40.42616,-8.04198],[-40.42607,-8.03657],[-40.42718,-8.03511],[-40.42891,-8.03469],[-40.42992,-8.0334],[-40.43228,-8.03326],[-40.43429,-8.03186],[-40.47428,-8.03145],[-40.52699,-8.0309],[-40.57073,-8.03044],[-40.57574,-8.03047],[-40.57586,-8.03073]]]},"properties":{"codigo":"261255415","name":"Socorro","population":3934,"households":1883,"areaKm2":210.0901,"density":18.7}},{"type":"Feature","geometry":{"type":"Polygon","coordinates":[[[-40.58899,-8.05947],[-40.58891,-8.05964],[-40.58997,-8.06467],[-40.58951,-8.06759],[-40.58849,-8.06807],[-40.58782,-8.06945],[-40.58804,-8.07093],[-40.5892,-8.07124],[-40.58914,-8.07187],[-40.59032,-8.07205],[-40.59064,-8.07277],[-40.59019,-8.07369],[-40.58985,-8.07612],[-40.59004,-8.07789],[-40.59007,-8.08073],[-40.58783,-8.08247],[-40.58673,-8.08549],[-40.58558,-8.08694],[-40.58554,-8.08822],[-40.58777,-8.0919],[-40.58811,-8.0948],[-40.58755,-8.09673],[-40.5854,-8.1007],[-40.58404,-8.10217],[-40.58218,-8.10331],[-40.57952,-8.10422],[-40.57764,-8.10459],[-40.57613,-8.10399],[-40.57425,-8.10464],[-40.57251,-8.10619],[-40.5711,-8.10652],[-40.57013,-8.10715],[-40.56354,-8.10962],[-40.56108,-8.11047],[-40.55931,-8.11025],[-40.55567,-8.11102],[-40.54949,-8.10655],[-40.54834,-8.10748],[-40.54712,-8.10901],[-40.54545,-8.11],[-40.54366,-8.11182],[-40.54277,-8.11244],[-40.53941,-8.11345],[-40.5358,-8.1159],[-40.53504,-8.116],[-40.53156,-8.11546],[-40.52534,-8.11176],[-40.52536,-8.1114],[-40.51836,-8.07537],[-40.5186,-8.07485],[-40.51991,-8.07425],[-40.5203,-8.07357],[-40.52012,-8.0717],[-40.52166,-8.06994],[-40.52195,-8.06921],[-40.5221,-8.06718],[-40.5247,-8.06622],[-40.52514,-8.06555],[-40.52509,-8.06453],[-40.52609,-8.06463],[-40.52967,-8.06227],[-40.53318,-8.06089],[-40.53458,-8.05905],[-40.53499,-8.05388],[-40.53464,-8.05284],[-40.53467,-8.05081],[-40.53562,-8.04656],[-40.5354,-8.0444],[-40.53652,-8.04334],[-40.53824,-8.04245],[-40.54367,-8.04025],[-40.54609,-8.03936],[-40.54709,-8.03856],[-40.5514,-8.03701],[-40.55362,-8.03573],[-40.55554,-8.03487],[-40.55849,-8.03422],[-40.55744,-8.03845],[-40.55838,-8.0396],[-40.56027,-8.04011],[-40.56156,-8.04],[-40.56232,-8.03899],[-40.56483,-8.03772],[-40.56575,-8.03662],[-40.5676,-8.03539],[-40.56938,-8.03465],[-40.56993,-8.03377],[-40.57196,-8.03315],[-40.5729,-8.03245],[-40.5743,-8.03076],[-40.57586,-8.03073],[-40.58899,-8.05947]]]},"properties":{"codigo":"261255420","name":"Poço Comprido","population":1177,"households":568,"areaKm2":52.9619,"density":22.2}},{"type":"Feature","geometry":{"type":"Polygon","coordinates":[[[-40.78009,-8.29627],[-40.77121,-8.29718],[-40.76679,-8.29928],[-40.76384,-8.30306],[-40.76355,-8.30631],[-40.7631,-8.30849],[-40.76214,-8.31203],[-40.76157,-8.30956],[-40.75975,-8.30747],[-40.75785,-8.30366],[-40.75612,-8.30178],[-40.75497,-8.29925],[-40.75415,-8.29785],[-40.75271,-8.29723],[-40.7511,-8.29702],[-40.74926,-8.29596],[-40.74514,-8.29509],[-40.74342,-8.29501],[-40.7414,-8.2954],[-40.74029,-8.29523],[-40.73879,-8.29599],[-40.73783,-8.29582],[-40.73683,-8.29373],[-40.73641,-8.29217],[-40.73445,-8.29182],[-40.732,-8.29098],[-40.7311,-8.29041],[-40.72791,-8.28735],[-40.72622,-8.28689],[-40.72517,-8.2911],[-40.72491,-8.29145],[-40.72321,-8.2913],[-40.71889,-8.29208],[-40.71516,-8.29117],[-40.71378,-8.29139],[-40.71366,-8.29072],[-40.71241,-8.29004],[-40.71167,-8.28877],[-40.71213,-8.28819],[-40.71175,-8.28629],[-40.71263,-8.28549],[-40.71401,-8.2759],[-40.71339,-8.27428],[-40.71237,-8.27023],[-40.71231,-8.26899],[-40.71023,-8.26473],[-40.7091,-8.26408],[-40.7061,-8.26385],[-40.70492,-8.26404],[-40.7028,-8.26498],[-40.70035,-8.26461],[-40.69855,-8.26217],[-40.69755,-8.26166],[-40.69483,-8.26225],[-40.69346,-8.26233],[-40.6927,-8.26123],[-40.69331,-8.25866],[-40.69294,-8.25765],[-40.69102,-8.25498],[-40.68934,-8.25438],[-40.68793,-8.25423],[-40.68629,-8.25538],[-40.68535,-8.25526],[-40.68509,-8.25407],[-40.68286,-8.25317],[-40.68215,-8.2501],[-40.68089,-8.24862],[-40.6799,-8.24789],[-40.67855,-8.24755],[-40.67695,-8.24338],[-40.67377,-8.24301],[-40.6711,-8.24087],[-40.6708,-8.24026],[-40.67071,-8.23848],[-40.66905,-8.23676],[-40.66675,-8.23586],[-40.66419,-8.23465],[-40.66247,-8.2317],[-40.66161,-8.23141],[-40.66145,-8.22927],[-40.65913,-8.2277],[-40.65725,-8.22439],[-40.65569,-8.22297],[-40.65462,-8.22249],[-40.65428,-8.22052],[-40.65326,-8.21908],[-40.65192,-8.2153],[-40.65185,-8.21422],[-40.6496,-8.21336],[-40.64974,-8.21109],[-40.64938,-8.21046],[-40.64692,-8.2094],[-40.64587,-8.20689],[-40.64573,-8.20577],[-40.64399,-8.20311],[-40.64582,-8.19979],[-40.64531,-8.19842],[-40.64405,-8.19647],[-40.64395,-8.19565],[-40.64321,-8.19415],[-40.64321,-8.19196],[-40.64221,-8.18958],[-40.64032,-8.18868],[-40.63996,-8.18823],[-40.63831,-8.18786],[-40.63866,-8.18718],[-40.6385,-8.18567],[-40.63911,-8.18509],[-40.63949,-8.18328],[-40.63934,-8.1815],[-40.63857,-8.17925],[-40.63706,-8.17786],[-40.63804,-8.17664],[-40.6396,-8.17562],[-40.64056,-8.17569],[-40.64165,-8.17486],[-40.64285,-8.17439],[-40.64754,-8.17132],[-40.64818,-8.16983],[-40.64931,-8.16915],[-40.65126,-8.16973],[-40.65204,-8.16967],[-40.65322,-8.1689],[-40.65545,-8.16801],[-40.65635,-8.16596],[-40.65849,-8.16349],[-40.65991,-8.16256],[-40.66431,-8.16203],[-40.66665,-8.16221],[-40.66725,-8.16445],[-40.66781,-8.17534],[-40.66903,-8.17748],[-40.67025,-8.17926],[-40.673,-8.18082],[-40.67526,-8.18486],[-40.67726,-8.18605],[-40.68441,-8.18778],[-40.68682,-8.19227],[-40.68862,-8.19425],[-40.6912,-8.19546],[-40.6924,-8.19675],[-40.69437,-8.20088],[-40.70059,-8.20261],[-40.7019,-8.2042],[-40.70364,-8.2086],[-40.70342,-8.21713],[-40.70726,-8.22349],[-40.71106,-8.22506],[-40.71471,-8.22446],[-40.71809,-8.22479],[-40.72273,-8.22325],[-40.72459,-8.22344],[-40.7292,-8.22491],[-40.73109,-8.22656],[-40.73368,-8.22776],[-40.73687,-8.22823],[-40.73856,-8.23032],[-40.73934,-8.23236],[-40.7424,-8.23495],[-40.74321,-8.23902],[-40.7445,-8.24007],[-40.74969,-8.24044],[-40.7521,-8.24183],[-40.7557,-8.24171],[-40.75961,-8.24305],[-40.76317,-8.24321],[-40.76429,-8.24399],[-40.76684,-8.24798],[-40.76932,-8.24946],[-40.77284,-8.251],[-40.78113,-8.25259],[-40.78248,-8.2533],[-40.78357,-8.25544],[-40.78398,-8.26185],[-40.78179,-8.26844],[-40.78164,-8.27084],[-40.78026,-8.27581],[-40.78112,-8.27799],[-40.78126,-8.28007],[-40.77876,-8.284],[-40.77824,-8.28614],[-40.77898,-8.28749],[-40.77945,-8.29043],[-40.78168,-8.29312],[-40.78009,-8.29627]]]},"properties":{"codigo":"261255425","name":"Livramento","population":586,"households":298,"areaKm2":97.2577,"density":6}}]}