{"type":"FeatureCollection","features":[{"type":"Feature","geometry":{"type":"Polygon","coordinates":[[[-36.82117,-8.41774],[-36.82155,-8.41904],[-36.82161,-8.42175],[-36.82347,-8.42654],[-36.82453,-8.42849],[-36.82471,-8.43046],[-36.82534,-8.43261],[-36.82666,-8.43452],[-36.82985,-8.43793],[-36.83262,-8.44361],[-36.83427,-8.44526],[-36.83608,-8.44612],[-36.83797,-8.44671],[-36.83895,-8.44782],[-36.84228,-8.45508],[-36.84182,-8.46042],[-36.84251,-8.46122],[-36.84383,-8.46161],[-36.84486,-8.46253],[-36.84578,-8.46386],[-36.84796,-8.46575],[-36.84752,-8.46831],[-36.84867,-8.47122],[-36.84849,-8.47228],[-36.8488,-8.47373],[-36.85013,-8.47593],[-36.84974,-8.47797],[-36.84877,-8.47972],[-36.84921,-8.48174],[-36.85138,-8.48464],[-36.85156,-8.48541],[-36.85258,-8.48721],[-36.85438,-8.48968],[-36.85547,-8.49274],[-36.85692,-8.49561],[-36.85717,-8.49683],[-36.85786,-8.49827],[-36.85923,-8.50022],[-36.85909,-8.50089],[-36.85789,-8.50246],[-36.85713,-8.5042],[-36.85711,-8.50776],[-36.85775,-8.51043],[-36.85873,-8.51198],[-36.8597,-8.51229],[-36.8617,-8.51226],[-36.86285,-8.51347],[-36.86294,-8.51554],[-36.86347,-8.51746],[-36.86426,-8.51911],[-36.8648,-8.52092],[-36.86575,-8.52288],[-36.8675,-8.52521],[-36.86797,-8.52695],[-36.86943,-8.53054],[-36.872,-8.53559],[-36.87447,-8.53979],[-36.87508,-8.54146],[-36.87674,-8.54312],[-36.87847,-8.54298],[-36.87977,-8.54175],[-36.88139,-8.54224],[-36.88309,-8.54434],[-36.88503,-8.548],[-36.8873,-8.54992],[-36.88779,-8.55191],[-36.88784,-8.55346],[-36.88845,-8.55508],[-36.89211,-8.55644],[-36.89347,-8.55632],[-36.89565,-8.55534],[-36.89655,-8.5566],[-36.89788,-8.5595],[-36.89937,-8.56168],[-36.90094,-8.56299],[-36.902,-8.56419],[-36.90409,-8.56749],[-36.90525,-8.56744],[-36.90565,-8.56809],[-36.90337,-8.57446],[-36.90247,-8.57529],[-36.89987,-8.576],[-36.8999,-8.5773],[-36.90037,-8.57818],[-36.90077,-8.58169],[-36.90119,-8.58254],[-36.9048,-8.58732],[-36.90463,-8.58834],[-36.90357,-8.58925],[-36.90364,-8.59005],[-36.90471,-8.59202],[-36.90615,-8.5929],[-36.90991,-8.59621],[-36.91086,-8.59763],[-36.91149,-8.59921],[-36.91177,-8.60282],[-36.91237,-8.60537],[-36.91199,-8.60843],[-36.91136,-8.60999],[-36.91205,-8.61223],[-36.87085,-8.64241],[-36.84109,-8.6642],[-36.8168,-8.6896],[-36.80706,-8.67755],[-36.80639,-8.67804],[-36.80555,-8.67664],[-36.80566,-8.67549],[-36.80483,-8.67418],[-36.80307,-8.67323],[-36.8033,-8.67242],[-36.80151,-8.67007],[-36.80067,-8.66949],[-36.79871,-8.66921],[-36.79775,-8.66873],[-36.79603,-8.66843],[-36.79471,-8.66915],[-36.79339,-8.66889],[-36.78751,-8.66731],[-36.78594,-8.66705],[-36.78396,-8.66805],[-36.78167,-8.66798],[-36.78084,-8.66772],[-36.77983,-8.66463],[-36.77883,-8.66424],[-36.77674,-8.66435],[-36.7753,-8.66379],[-36.77453,-8.66311],[-36.77444,-8.66142],[-36.77346,-8.66102],[-36.77218,-8.65928],[-36.77097,-8.65836],[-36.77005,-8.65807],[-36.76898,-8.65636],[-36.7677,-8.65539],[-36.76596,-8.65351],[-36.76672,-8.65276],[-36.76603,-8.65134],[-36.76481,-8.65145],[-36.76378,-8.6496],[-36.76027,-8.64904],[-36.75822,-8.64921],[-36.7565,-8.64878],[-36.75501,-8.64778],[-36.75318,-8.64608],[-36.75227,-8.64589],[-36.75156,-8.64505],[-36.7488,-8.64398],[-36.74798,-8.64326],[-36.74678,-8.6432],[-36.74504,-8.64242],[-36.74332,-8.63909],[-36.74116,-8.63706],[-36.73842,-8.63617],[-36.73451,-8.63449],[-36.73133,-8.63433],[-36.72423,-8.63214],[-36.72595,-8.63046],[-36.72922,-8.62974],[-36.72987,-8.62779],[-36.7299,-8.62607],[-36.73143,-8.62498],[-36.73114,-8.62357],[-36.72897,-8.6235],[-36.72596,-8.6203],[-36.72689,-8.6173],[-36.72629,-8.60612],[-36.73239,-8.60514],[-36.73391,-8.60438],[-36.73548,-8.6029],[-36.73953,-8.60319],[-36.74319,-8.60271],[-36.75698,-8.59872],[-36.76627,-8.59928],[-36.76675,-8.60133],[-36.76814,-8.60293],[-36.76979,-8.60236],[-36.77269,-8.60232],[-36.77377,-8.60304],[-36.7751,-8.60537],[-36.77705,-8.60551],[-36.78053,-8.60504],[-36.78329,-8.60413],[-36.78381,-8.60342],[-36.7814,-8.5993],[-36.77978,-8.59563],[-36.77942,-8.59392],[-36.77996,-8.59388],[-36.7806,-8.59174],[-36.78148,-8.59179],[-36.7815,-8.59081],[-36.78052,-8.58926],[-36.78349,-8.58927],[-36.7842,-8.58115],[-36.78329,-8.57625],[-36.78208,-8.57356],[-36.78045,-8.57203],[-36.77964,-8.57049],[-36.78,-8.56857],[-36.7797,-8.56678],[-36.77878,-8.56419],[-36.77892,-8.56201],[-36.77989,-8.56079],[-36.78217,-8.56041],[-36.78272,-8.55905],[-36.78522,-8.55593],[-36.78599,-8.55559],[-36.78701,-8.55258],[-36.78824,-8.55055],[-36.78859,-8.54845],[-36.78731,-8.54451],[-36.82627,-8.50375],[-36.82368,-8.46057],[-36.82162,-8.42618],[-36.82117,-8.41774]]]},"properties":{"codigo":"261600105","name":"Venturosa","population":16430,"households":6620,"areaKm2":244.3418,"density":67.2}},{"type":"Feature","geometry":{"type":"Polygon","coordinates":[[[-36.70222,-8.72386],[-36.69001,-8.67019],[-36.72491,-8.6496],[-36.72493,-8.64836],[-36.72554,-8.64729],[-36.72579,-8.64577],[-36.72537,-8.64534],[-36.72295,-8.64595],[-36.72141,-8.6442],[-36.72134,-8.64245],[-36.72218,-8.63857],[-36.72367,-8.6327],[-36.72423,-8.63214],[-36.73133,-8.63433],[-36.73451,-8.63449],[-36.73842,-8.63617],[-36.74116,-8.63706],[-36.74332,-8.63909],[-36.74504,-8.64242],[-36.74678,-8.6432],[-36.74798,-8.64326],[-36.7488,-8.64398],[-36.75156,-8.64505],[-36.75227,-8.64589],[-36.75318,-8.64608],[-36.75501,-8.64778],[-36.7565,-8.64878],[-36.75822,-8.64921],[-36.76027,-8.64904],[-36.76378,-8.6496],[-36.76481,-8.65145],[-36.76603,-8.65134],[-36.76672,-8.65276],[-36.76596,-8.65351],[-36.7677,-8.65539],[-36.76898,-8.65636],[-36.77005,-8.65807],[-36.77097,-8.65836],[-36.77218,-8.65928],[-36.77346,-8.66102],[-36.77444,-8.66142],[-36.77453,-8.66311],[-36.7753,-8.66379],[-36.77674,-8.66435],[-36.77883,-8.66424],[-36.77983,-8.66463],[-36.78084,-8.66772],[-36.78167,-8.66798],[-36.78396,-8.66805],[-36.78594,-8.66705],[-36.78751,-8.66731],[-36.79339,-8.66889],[-36.79471,-8.66915],[-36.79603,-8.66843],[-36.79775,-8.66873],[-36.79871,-8.66921],[-36.80067,-8.66949],[-36.80151,-8.67007],[-36.8033,-8.67242],[-36.80307,-8.67323],[-36.80483,-8.67418],[-36.80566,-8.67549],[-36.80555,-8.67664],[-36.80639,-8.67804],[-36.80706,-8.67755],[-36.8168,-8.6896],[-36.81123,-8.69316],[-36.80361,-8.69762],[-36.80207,-8.69846],[-36.7988,-8.6999],[-36.7969,-8.70195],[-36.79346,-8.70292],[-36.79123,-8.70299],[-36.78784,-8.70473],[-36.78626,-8.70636],[-36.78575,-8.70962],[-36.7732,-8.73191],[-36.75327,-8.72965],[-36.70222,-8.72386]]]},"properties":{"codigo":"261600110","name":"Grotão","population":821,"households":332,"areaKm2":91.765,"density":8.9}}]}