{"type":"FeatureCollection","features":[{"type":"Feature","geometry":{"type":"Polygon","coordinates":[[[-37.84223,-9.57942],[-37.83754,-9.58328],[-37.83655,-9.58455],[-37.83526,-9.58851],[-37.8355,-9.59048],[-37.83499,-9.59228],[-37.83311,-9.59489],[-37.83179,-9.59488],[-37.82378,-9.5913],[-37.81979,-9.59171],[-37.81825,-9.59289],[-37.81644,-9.59772],[-37.81132,-9.60171],[-37.81058,-9.60532],[-37.80976,-9.60702],[-37.80707,-9.6101],[-37.80175,-9.61502],[-37.79501,-9.61905],[-37.7931,-9.62061],[-37.79152,-9.62282],[-37.79053,-9.62516],[-37.78986,-9.62896],[-37.79082,-9.62989],[-37.79085,-9.63072],[-37.79031,-9.63304],[-37.78984,-9.63394],[-37.78712,-9.6358],[-37.78658,-9.63662],[-37.78654,-9.63865],[-37.78505,-9.63912],[-37.78287,-9.63767],[-37.77821,-9.63664],[-37.77577,-9.63571],[-37.7732,-9.63504],[-37.77108,-9.63415],[-37.76986,-9.63324],[-37.76855,-9.63269],[-37.76599,-9.63222],[-37.76493,-9.63128],[-37.76254,-9.63038],[-37.75758,-9.62904],[-37.75679,-9.62864],[-37.75467,-9.62702],[-37.75351,-9.62647],[-37.7509,-9.62611],[-37.74699,-9.62492],[-37.7456,-9.62495],[-37.74301,-9.62565],[-37.74159,-9.62586],[-37.73912,-9.62563],[-37.73695,-9.62617],[-37.73428,-9.62738],[-37.73206,-9.62818],[-37.72995,-9.62856],[-37.7275,-9.62936],[-37.72488,-9.62998],[-37.72152,-9.62988],[-37.71979,-9.63071],[-37.71666,-9.63062],[-37.71345,-9.63104],[-37.71165,-9.63022],[-37.71012,-9.63007],[-37.70893,-9.63082],[-37.7079,-9.63229],[-37.70684,-9.63337],[-37.7052,-9.6345],[-37.70276,-9.63518],[-37.69995,-9.63686],[-37.69583,-9.63978],[-37.69369,-9.64077],[-37.69253,-9.64105],[-37.68969,-9.64301],[-37.68606,-9.64385],[-37.67451,-9.63385],[-37.67104,-9.6308],[-37.66458,-9.62526],[-37.66989,-9.61023],[-37.67439,-9.59762],[-37.67602,-9.59285],[-37.68229,-9.5752],[-37.68901,-9.55607],[-37.69852,-9.5292],[-37.71377,-9.48601],[-37.72124,-9.46487],[-37.73985,-9.41206],[-37.7658,-9.44319],[-37.76483,-9.44362],[-37.76581,-9.44546],[-37.76489,-9.44746],[-37.76562,-9.44827],[-37.76522,-9.44907],[-37.76626,-9.44977],[-37.76639,-9.45089],[-37.76781,-9.4523],[-37.76904,-9.45312],[-37.76976,-9.45409],[-37.77063,-9.45388],[-37.7719,-9.45498],[-37.77164,-9.45705],[-37.77097,-9.45822],[-37.77172,-9.45897],[-37.77147,-9.46042],[-37.77072,-9.46194],[-37.77103,-9.46257],[-37.77061,-9.46361],[-37.77095,-9.46565],[-37.77165,-9.46638],[-37.77099,-9.46776],[-37.77082,-9.46932],[-37.77312,-9.47161],[-37.7746,-9.47114],[-37.77439,-9.47244],[-37.77451,-9.47406],[-37.77516,-9.47412],[-37.77493,-9.47546],[-37.77582,-9.47607],[-37.7758,-9.47752],[-37.77476,-9.47878],[-37.7755,-9.48093],[-37.77616,-9.48128],[-37.7767,-9.48457],[-37.77724,-9.48602],[-37.77689,-9.48825],[-37.77768,-9.48797],[-37.77828,-9.48854],[-37.77991,-9.48879],[-37.78029,-9.4927],[-37.78115,-9.49369],[-37.78088,-9.49433],[-37.78201,-9.49608],[-37.78353,-9.49785],[-37.78522,-9.49802],[-37.7861,-9.49726],[-37.78725,-9.49935],[-37.78825,-9.49956],[-37.78981,-9.50114],[-37.7923,-9.50206],[-37.79303,-9.50174],[-37.79356,-9.50334],[-37.79478,-9.50372],[-37.79638,-9.50469],[-37.79686,-9.50804],[-37.79643,-9.50907],[-37.79642,-9.51071],[-37.79471,-9.51161],[-37.79403,-9.51145],[-37.79233,-9.51388],[-37.79189,-9.51516],[-37.7909,-9.51643],[-37.79015,-9.51795],[-37.79046,-9.51886],[-37.7896,-9.51946],[-37.78931,-9.52073],[-37.78799,-9.52256],[-37.78856,-9.52486],[-37.78892,-9.52782],[-37.78866,-9.52928],[-37.7897,-9.52958],[-37.78969,-9.53031],[-37.79177,-9.53123],[-37.79134,-9.53186],[-37.79228,-9.53241],[-37.79318,-9.53392],[-37.79454,-9.53511],[-37.79526,-9.53683],[-37.79351,-9.53751],[-37.7922,-9.53833],[-37.79229,-9.53989],[-37.79363,-9.54199],[-37.7942,-9.54384],[-37.79525,-9.54391],[-37.7961,-9.54231],[-37.79732,-9.54204],[-37.79822,-9.54222],[-37.79926,-9.543],[-37.80097,-9.5428],[-37.8027,-9.54163],[-37.80308,-9.54277],[-37.80217,-9.54481],[-37.80209,-9.54607],[-37.80484,-9.54586],[-37.8058,-9.54461],[-37.80686,-9.54438],[-37.80748,-9.54496],[-37.80794,-9.54822],[-37.81077,-9.54762],[-37.8128,-9.54667],[-37.81374,-9.54593],[-37.81303,-9.54485],[-37.81318,-9.54401],[-37.81467,-9.54351],[-37.81596,-9.54403],[-37.81661,-9.54465],[-37.81677,-9.5457],[-37.81753,-9.54657],[-37.8187,-9.54854],[-37.81942,-9.5488],[-37.82028,-9.54842],[-37.82194,-9.54657],[-37.82604,-9.54824],[-37.82769,-9.54837],[-37.82861,-9.54808],[-37.83021,-9.54922],[-37.83109,-9.55082],[-37.83273,-9.55183],[-37.83438,-9.55111],[-37.83518,-9.55122],[-37.83546,-9.55336],[-37.83603,-9.55483],[-37.83536,-9.55598],[-37.83619,-9.55648],[-37.83689,-9.55766],[-37.8389,-9.55958],[-37.83959,-9.56001],[-37.84162,-9.56236],[-37.84159,-9.5642],[-37.84304,-9.56597],[-37.8446,-9.56872],[-37.84511,-9.57067],[-37.84493,-9.57139],[-37.84232,-9.574],[-37.84204,-9.57657],[-37.84223,-9.57942]]]},"properties":{"codigo":"270710705","name":"Piranhas","population":15274,"households":6543,"areaKm2":248.5619,"density":61.4}},{"type":"Feature","geometry":{"type":"Polygon","coordinates":[[[-37.72525,-9.33439],[-37.72002,-9.38827],[-37.73985,-9.41206],[-37.72124,-9.46487],[-37.71377,-9.48601],[-37.69852,-9.5292],[-37.68901,-9.55607],[-37.68229,-9.5752],[-37.67602,-9.59285],[-37.67439,-9.59762],[-37.66989,-9.61023],[-37.66458,-9.62526],[-37.67104,-9.6308],[-37.67451,-9.63385],[-37.68606,-9.64385],[-37.68361,-9.64542],[-37.6815,-9.64629],[-37.67827,-9.64878],[-37.67345,-9.65301],[-37.67039,-9.65598],[-37.66942,-9.65751],[-37.6686,-9.65958],[-37.66825,-9.66129],[-37.66733,-9.66345],[-37.66593,-9.66592],[-37.66372,-9.67067],[-37.66311,-9.67256],[-37.66161,-9.67518],[-37.65962,-9.67824],[-37.65891,-9.67768],[-37.65861,-9.67509],[-37.65709,-9.67198],[-37.65619,-9.67052],[-37.6559,-9.66891],[-37.65597,-9.66722],[-37.65679,-9.66349],[-37.65796,-9.66001],[-37.65943,-9.65732],[-37.65932,-9.65532],[-37.6578,-9.65109],[-37.65664,-9.64954],[-37.65536,-9.64824],[-37.65412,-9.64545],[-37.65349,-9.64344],[-37.65201,-9.64102],[-37.64944,-9.63553],[-37.64868,-9.63421],[-37.64794,-9.63199],[-37.64666,-9.62965],[-37.64586,-9.62584],[-37.64297,-9.62142],[-37.64227,-9.61977],[-37.64189,-9.61769],[-37.64023,-9.61361],[-37.63918,-9.61037],[-37.63768,-9.60741],[-37.63751,-9.60668],[-37.6373,-9.60308],[-37.63698,-9.60168],[-37.63795,-9.59942],[-37.64344,-9.59097],[-37.64487,-9.58844],[-37.64526,-9.58621],[-37.6458,-9.58483],[-37.64717,-9.5823],[-37.64835,-9.57974],[-37.64949,-9.57881],[-37.64958,-9.57751],[-37.65015,-9.57605],[-37.65152,-9.57479],[-37.65318,-9.57288],[-37.65432,-9.57252],[-37.65489,-9.57191],[-37.65518,-9.57074],[-37.65511,-9.56868],[-37.65578,-9.56712],[-37.65889,-9.56422],[-37.66013,-9.56261],[-37.66164,-9.56004],[-37.66431,-9.55623],[-37.66494,-9.55413],[-37.66454,-9.55192],[-37.66492,-9.54945],[-37.66619,-9.54749],[-37.6676,-9.54435],[-37.66788,-9.54328],[-37.66756,-9.54183],[-37.6667,-9.53993],[-37.6668,-9.53926],[-37.66901,-9.53679],[-37.67055,-9.53598],[-37.67219,-9.53563],[-37.67254,-9.53491],[-37.67264,-9.5334],[-37.6721,-9.53221],[-37.67358,-9.53038],[-37.67389,-9.5286],[-37.67607,-9.52423],[-37.67626,-9.52265],[-37.67538,-9.52019],[-37.67251,-9.51642],[-37.67204,-9.51491],[-37.67216,-9.51403],[-37.67173,-9.51094],[-37.67,-9.50802],[-37.67016,-9.50624],[-37.66994,-9.50543],[-37.67088,-9.50411],[-37.67181,-9.50213],[-37.67343,-9.49964],[-37.67068,-9.49797],[-37.66657,-9.49426],[-37.66414,-9.49237],[-37.66276,-9.48959],[-37.66143,-9.48815],[-37.66101,-9.48717],[-37.65985,-9.48628],[-37.6596,-9.48561],[-37.66037,-9.48382],[-37.66262,-9.48096],[-37.66406,-9.47847],[-37.66601,-9.47645],[-37.66665,-9.47424],[-37.66639,-9.47329],[-37.66661,-9.47119],[-37.66578,-9.4667],[-37.66686,-9.46449],[-37.66831,-9.46292],[-37.66897,-9.46255],[-37.66907,-9.46116],[-37.66859,-9.45956],[-37.66703,-9.45765],[-37.66636,-9.45566],[-37.66669,-9.45442],[-37.66657,-9.45264],[-37.66578,-9.45066],[-37.66328,-9.44711],[-37.66226,-9.44652],[-37.66199,-9.44512],[-37.66333,-9.44087],[-37.66343,-9.43979],[-37.66299,-9.43785],[-37.66248,-9.43673],[-37.66181,-9.43326],[-37.66016,-9.42966],[-37.6582,-9.42492],[-37.657,-9.42121],[-37.65698,-9.41792],[-37.65578,-9.41145],[-37.65437,-9.40904],[-37.65416,-9.4088],[-37.72525,-9.33439]]]},"properties":{"codigo":"270710710","name":"Entremontes","population":7335,"households":3259,"areaKm2":155.4327,"density":47.2}}]}