{"type":"FeatureCollection","features":[{"type":"Feature","geometry":{"type":"Polygon","coordinates":[[[-37.42772,-10.21789],[-37.43175,-10.2148],[-37.43412,-10.21307],[-37.43461,-10.21441],[-37.43597,-10.21861],[-37.43512,-10.21876],[-37.43284,-10.21872],[-37.43146,-10.21917],[-37.43086,-10.21921],[-37.42967,-10.21893],[-37.42744,-10.21868],[-37.42687,-10.21853],[-37.42772,-10.21789]]]},"properties":{"codigo":"2804508009","name":"Nossa Senhora de Lourdes","population":812,"households":324,"areaKm2":0.3384,"density":2399.8}},{"type":"Feature","geometry":{"type":"Polygon","coordinates":[[[-37.38975,-10.21913],[-37.3861,-10.22098],[-37.38594,-10.22011],[-37.38812,-10.21513],[-37.38816,-10.21133],[-37.39375,-10.21088],[-37.39417,-10.20799],[-37.39431,-10.20783],[-37.39728,-10.20805],[-37.40128,-10.20623],[-37.403,-10.20627],[-37.403,-10.20443],[-37.40385,-10.20475],[-37.4055,-10.20496],[-37.40669,-10.2058],[-37.40739,-10.20685],[-37.40776,-10.20806],[-37.40838,-10.20866],[-37.40452,-10.20847],[-37.40311,-10.20842],[-37.40216,-10.2088],[-37.40165,-10.20919],[-37.39764,-10.21289],[-37.39286,-10.21729],[-37.39183,-10.21805],[-37.38975,-10.21913]]]},"properties":{"codigo":"2804508004","name":"Cohab","population":951,"households":398,"areaKm2":1.3084,"density":726.8}},{"type":"Feature","geometry":{"type":"MultiPolygon","coordinates":[[[[-37.41129,-10.21935],[-37.41226,-10.21939],[-37.41319,-10.21908],[-37.41423,-10.21828],[-37.41572,-10.21802],[-37.41659,-10.2177],[-37.41796,-10.2175],[-37.41846,-10.21704],[-37.41855,-10.21909],[-37.41904,-10.22085],[-37.41906,-10.22093],[-37.41627,-10.22466],[-37.41456,-10.2234],[-37.41404,-10.22356],[-37.41305,-10.22452],[-37.41272,-10.22434],[-37.41233,-10.22356],[-37.41204,-10.22261],[-37.4111,-10.22108],[-37.41129,-10.21935]]],[[[-37.41292,-10.21102],[-37.41507,-10.20755],[-37.41518,-10.20813],[-37.4148,-10.20878],[-37.41469,-10.20996],[-37.41452,-10.21029],[-37.41606,-10.21119],[-37.41529,-10.21245],[-37.41292,-10.21102]]],[[[-37.40838,-10.20866],[-37.40943,-10.20892],[-37.41292,-10.21102],[-37.41188,-10.21257],[-37.41151,-10.21203],[-37.41069,-10.21153],[-37.40832,-10.21021],[-37.40755,-10.2102],[-37.40753,-10.2122],[-37.40355,-10.21397],[-37.40341,-10.21321],[-37.40406,-10.21292],[-37.40403,-10.21238],[-37.40502,-10.21208],[-37.40487,-10.21108],[-37.40452,-10.20847],[-37.40838,-10.20866]]]]},"properties":{"codigo":"2804508012","name":"Silos","population":2530,"households":921,"areaKm2":0.7995,"density":3164.6}},{"type":"Feature","geometry":{"type":"Polygon","coordinates":[[[-37.42255,-10.21459],[-37.42254,-10.21568],[-37.42354,-10.21694],[-37.42684,-10.21852],[-37.42636,-10.21892],[-37.42237,-10.21697],[-37.42099,-10.21614],[-37.42127,-10.21566],[-37.42151,-10.2153],[-37.42255,-10.21459]]]},"properties":{"codigo":"2804508010","name":"Novo Horizonte","population":419,"households":201,"areaKm2":0.0606,"density":6912.6}},{"type":"Feature","geometry":{"type":"Polygon","coordinates":[[[-37.42772,-10.21789],[-37.42445,-10.21327],[-37.43471,-10.20601],[-37.44571,-10.19822],[-37.44701,-10.19854],[-37.44855,-10.19928],[-37.44389,-10.2062],[-37.44307,-10.20573],[-37.4429,-10.20616],[-37.4416,-10.20827],[-37.43412,-10.21307],[-37.43175,-10.2148],[-37.42772,-10.21789]]]},"properties":{"codigo":"2804508011","name":"Sebastião Lopes da Silva","population":2843,"households":1121,"areaKm2":1.6916,"density":1680.7}},{"type":"Feature","geometry":{"type":"MultiPolygon","coordinates":[[[[-37.41846,-10.21704],[-37.4188,-10.21674],[-37.41795,-10.21528],[-37.41709,-10.21446],[-37.41795,-10.21391],[-37.41796,-10.21391],[-37.42127,-10.21566],[-37.42099,-10.21614],[-37.42237,-10.21697],[-37.42636,-10.21892],[-37.42281,-10.22158],[-37.42271,-10.22143],[-37.41937,-10.22078],[-37.41904,-10.22085],[-37.41855,-10.21909],[-37.41846,-10.21704]]],[[[-37.42687,-10.21853],[-37.42684,-10.21852],[-37.42354,-10.21694],[-37.42254,-10.21568],[-37.42255,-10.21459],[-37.42445,-10.21327],[-37.42772,-10.21789],[-37.42687,-10.21853]]]]},"properties":{"codigo":"2804508003","name":"Centro","population":3763,"households":1677,"areaKm2":0.5541,"density":6790.7}},{"type":"Feature","geometry":{"type":"Polygon","coordinates":[[[-37.39764,-10.21289],[-37.39874,-10.21406],[-37.40038,-10.21256],[-37.40073,-10.21292],[-37.40294,-10.21113],[-37.40313,-10.21163],[-37.40487,-10.21108],[-37.40502,-10.21208],[-37.40403,-10.21238],[-37.40406,-10.21292],[-37.40341,-10.21321],[-37.40355,-10.21397],[-37.39626,-10.21689],[-37.39657,-10.21844],[-37.3983,-10.2181],[-37.39851,-10.21923],[-37.39674,-10.21946],[-37.39416,-10.22048],[-37.3929,-10.22063],[-37.39141,-10.22061],[-37.39062,-10.22031],[-37.39004,-10.2203],[-37.38975,-10.21913],[-37.39183,-10.21805],[-37.39286,-10.21729],[-37.39764,-10.21289]]]},"properties":{"codigo":"2804508001","name":"Alto da Glória","population":1177,"households":452,"areaKm2":0.553,"density":2128.3}},{"type":"Feature","geometry":{"type":"MultiPolygon","coordinates":[[[[-37.41129,-10.21935],[-37.41042,-10.21978],[-37.4086,-10.22104],[-37.4073,-10.22105],[-37.4068,-10.22089],[-37.40549,-10.22013],[-37.40493,-10.21965],[-37.40624,-10.21895],[-37.40627,-10.21877],[-37.40738,-10.21796],[-37.40799,-10.217],[-37.40802,-10.21669],[-37.40836,-10.21669],[-37.41001,-10.21733],[-37.41078,-10.2172],[-37.41138,-10.2162],[-37.41242,-10.216],[-37.4136,-10.21507],[-37.41436,-10.21624],[-37.41709,-10.21446],[-37.41795,-10.21528],[-37.4188,-10.21674],[-37.41846,-10.21704],[-37.41796,-10.2175],[-37.41659,-10.2177],[-37.41572,-10.21802],[-37.41423,-10.21828],[-37.41319,-10.21908],[-37.41226,-10.21939],[-37.41129,-10.21935]]],[[[-37.41507,-10.20755],[-37.41422,-10.2058],[-37.41341,-10.20374],[-37.41777,-10.2041],[-37.421,-10.20585],[-37.42043,-10.20672],[-37.41964,-10.20837],[-37.41999,-10.20919],[-37.41862,-10.20935],[-37.4193,-10.2104],[-37.41995,-10.21177],[-37.41985,-10.21268],[-37.41796,-10.21391],[-37.41795,-10.21391],[-37.41714,-10.21361],[-37.41529,-10.21245],[-37.41606,-10.21119],[-37.41452,-10.21029],[-37.41469,-10.20996],[-37.4148,-10.20878],[-37.41518,-10.20813],[-37.41507,-10.20755]]]]},"properties":{"codigo":"2804508002","name":"Brasília","population":3311,"households":1385,"areaKm2":1.0095,"density":3280}},{"type":"Feature","geometry":{"type":"MultiPolygon","coordinates":[[[[-37.42127,-10.21566],[-37.41796,-10.21391],[-37.41985,-10.21268],[-37.41995,-10.21177],[-37.4193,-10.2104],[-37.41862,-10.20935],[-37.41999,-10.20919],[-37.41964,-10.20837],[-37.42043,-10.20672],[-37.421,-10.20585],[-37.42142,-10.20591],[-37.42221,-10.20466],[-37.42292,-10.2038],[-37.42396,-10.20308],[-37.4246,-10.2025],[-37.42573,-10.20188],[-37.4263,-10.20044],[-37.42655,-10.20013],[-37.4273,-10.1999],[-37.42833,-10.20103],[-37.44342,-10.19626],[-37.44363,-10.19688],[-37.44431,-10.19747],[-37.44571,-10.19822],[-37.43471,-10.20601],[-37.42445,-10.21327],[-37.42255,-10.21459],[-37.42151,-10.2153],[-37.42127,-10.21566]]],[[[-37.40385,-10.20475],[-37.4042,-10.20361],[-37.40475,-10.20367],[-37.41341,-10.20374],[-37.41422,-10.2058],[-37.41507,-10.20755],[-37.41292,-10.21102],[-37.40943,-10.20892],[-37.40838,-10.20866],[-37.40776,-10.20806],[-37.40739,-10.20685],[-37.40669,-10.2058],[-37.4055,-10.20496],[-37.40385,-10.20475]]]]},"properties":{"codigo":"2804508008","name":"Nova Esperança","population":4748,"households":2072,"areaKm2":2.8841,"density":1646.3}},{"type":"Feature","geometry":{"type":"Polygon","coordinates":[[[-37.40452,-10.20847],[-37.40487,-10.21108],[-37.40313,-10.21163],[-37.40294,-10.21113],[-37.40073,-10.21292],[-37.40038,-10.21256],[-37.39874,-10.21406],[-37.39764,-10.21289],[-37.40165,-10.20919],[-37.40216,-10.2088],[-37.40311,-10.20842],[-37.40452,-10.20847]]]},"properties":{"codigo":"2804508005","name":"Danilo Aragão","population":1069,"households":403,"areaKm2":0.2078,"density":5143.1}},{"type":"Feature","geometry":{"type":"Polygon","coordinates":[[[-37.41529,-10.21245],[-37.41714,-10.21361],[-37.41795,-10.21391],[-37.41709,-10.21446],[-37.41436,-10.21624],[-37.4136,-10.21507],[-37.41242,-10.216],[-37.41138,-10.2162],[-37.41078,-10.2172],[-37.41001,-10.21733],[-37.40836,-10.21669],[-37.40802,-10.21669],[-37.40825,-10.2158],[-37.40848,-10.21409],[-37.40896,-10.21372],[-37.4095,-10.21258],[-37.41069,-10.21153],[-37.41151,-10.21203],[-37.41188,-10.21257],[-37.41292,-10.21102],[-37.41529,-10.21245]]]},"properties":{"codigo":"2804508007","name":"Nova Brasília","population":1808,"households":759,"areaKm2":0.4023,"density":4494.6}},{"type":"Feature","geometry":{"type":"Polygon","coordinates":[[[-37.43597,-10.21861],[-37.43781,-10.21775],[-37.44015,-10.21739],[-37.43205,-10.22536],[-37.43188,-10.22591],[-37.4309,-10.22708],[-37.42945,-10.22857],[-37.42909,-10.2285],[-37.42951,-10.22741],[-37.42926,-10.22632],[-37.42831,-10.22596],[-37.42798,-10.22507],[-37.42744,-10.2249],[-37.42667,-10.22553],[-37.42649,-10.22599],[-37.4256,-10.22652],[-37.42544,-10.22562],[-37.4245,-10.224],[-37.42264,-10.22527],[-37.42251,-10.22548],[-37.42117,-10.22624],[-37.42006,-10.22662],[-37.41461,-10.22748],[-37.4153,-10.22597],[-37.41627,-10.22466],[-37.41906,-10.22093],[-37.41904,-10.22085],[-37.41937,-10.22078],[-37.42271,-10.22143],[-37.42281,-10.22158],[-37.42636,-10.21892],[-37.42684,-10.21852],[-37.42687,-10.21853],[-37.42744,-10.21868],[-37.42967,-10.21893],[-37.43086,-10.21921],[-37.43146,-10.21917],[-37.43284,-10.21872],[-37.43512,-10.21876],[-37.43597,-10.21861]]]},"properties":{"codigo":"2804508006","name":"Divinéia","population":2740,"households":1143,"areaKm2":1.4345,"density":1910}}]}