{"type":"FeatureCollection","features":[{"type":"Feature","geometry":{"type":"Polygon","coordinates":[[[-37.19741,-11.00993],[-37.19736,-11.00952],[-37.19757,-11.00845],[-37.19753,-11.00788],[-37.1971,-11.00738],[-37.19614,-11.00744],[-37.19602,-11.0064],[-37.19538,-11.00563],[-37.1943,-11.00395],[-37.19443,-11.00238],[-37.19392,-10.99999],[-37.19361,-10.99929],[-37.19301,-10.99885],[-37.1915,-10.99863],[-37.18995,-10.99787],[-37.18883,-10.99655],[-37.19228,-10.99303],[-37.19618,-10.99648],[-37.19748,-10.99726],[-37.19854,-10.99659],[-37.2004,-10.99558],[-37.20115,-10.99482],[-37.20157,-10.99465],[-37.20134,-10.99696],[-37.20146,-10.99743],[-37.20072,-10.99833],[-37.20093,-10.99897],[-37.19947,-11.00028],[-37.20005,-11.0014],[-37.20082,-11.00194],[-37.20222,-11.00427],[-37.20348,-11.00473],[-37.20444,-11.0059],[-37.20495,-11.00673],[-37.20317,-11.009],[-37.20392,-11.00959],[-37.20372,-11.01185],[-37.20294,-11.0116],[-37.20133,-11.01154],[-37.20091,-11.0112],[-37.19919,-11.00945],[-37.19871,-11.00939],[-37.19741,-11.00993]]]},"properties":{"codigo":"2806701009","name":"Romualdo Prado","population":2368,"households":1069,"areaKm2":1.4939,"density":1585.1}},{"type":"Feature","geometry":{"type":"Polygon","coordinates":[[[-37.20495,-11.00673],[-37.20647,-11.00886],[-37.20737,-11.00921],[-37.20753,-11.00968],[-37.2086,-11.00939],[-37.20883,-11.00991],[-37.20945,-11.01039],[-37.20975,-11.01102],[-37.2099,-11.01197],[-37.21023,-11.01244],[-37.20981,-11.01378],[-37.21026,-11.01465],[-37.2102,-11.01498],[-37.21109,-11.01664],[-37.21098,-11.01683],[-37.21002,-11.01665],[-37.20974,-11.01717],[-37.20935,-11.01723],[-37.20854,-11.01694],[-37.20783,-11.0172],[-37.20343,-11.01723],[-37.20211,-11.01771],[-37.20109,-11.01737],[-37.20051,-11.01672],[-37.20006,-11.01516],[-37.19966,-11.0145],[-37.2001,-11.0139],[-37.19965,-11.01359],[-37.19986,-11.01288],[-37.19902,-11.01219],[-37.19897,-11.01161],[-37.19829,-11.01083],[-37.19784,-11.01074],[-37.19741,-11.00993],[-37.19871,-11.00939],[-37.19919,-11.00945],[-37.20091,-11.0112],[-37.20133,-11.01154],[-37.20294,-11.0116],[-37.20372,-11.01185],[-37.20392,-11.00959],[-37.20317,-11.009],[-37.20495,-11.00673]]]},"properties":{"codigo":"2806701001","name":"Centro","population":4535,"households":1969,"areaKm2":0.9719,"density":4665.9}},{"type":"Feature","geometry":{"type":"Polygon","coordinates":[[[-37.2179,-11.00729],[-37.21552,-11.00797],[-37.21056,-11.00934],[-37.20888,-11.00938],[-37.20895,-11.00896],[-37.20888,-11.00669],[-37.20911,-11.00578],[-37.20982,-11.00477],[-37.20991,-11.00372],[-37.21045,-11.00196],[-37.21082,-11.00142],[-37.21165,-11.00082],[-37.21409,-11.00006],[-37.21497,-10.99948],[-37.21658,-11.0022],[-37.21721,-11.00424],[-37.2179,-11.00729]]]},"properties":{"codigo":"2806701002","name":"Divinéia","population":4704,"households":1905,"areaKm2":0.7203,"density":6530.8}},{"type":"Feature","geometry":{"type":"Polygon","coordinates":[[[-37.11803,-10.91738],[-37.11815,-10.92176],[-37.11833,-10.92708],[-37.11843,-10.9313],[-37.11798,-10.93136],[-37.11801,-10.93243],[-37.116,-10.93178],[-37.11341,-10.93085],[-37.11297,-10.93202],[-37.11036,-10.92979],[-37.11118,-10.9257],[-37.11103,-10.92567],[-37.11169,-10.92225],[-37.1118,-10.92127],[-37.1116,-10.92051],[-37.11165,-10.9185],[-37.1119,-10.91852],[-37.11185,-10.917],[-37.11216,-10.91571],[-37.11577,-10.91665],[-37.11803,-10.91738]]]},"properties":{"codigo":"2806701010","name":"Rosa Maria","population":10514,"households":4412,"areaKm2":1.2573,"density":8362.5}},{"type":"Feature","geometry":{"type":"Polygon","coordinates":[[[-37.12866,-10.93631],[-37.12889,-10.93494],[-37.1291,-10.93308],[-37.12899,-10.93122],[-37.12773,-10.93124],[-37.12779,-10.92815],[-37.1277,-10.927],[-37.1291,-10.92724],[-37.12914,-10.92652],[-37.12952,-10.92627],[-37.13026,-10.92631],[-37.13085,-10.9266],[-37.13232,-10.92652],[-37.1328,-10.92708],[-37.13359,-10.92741],[-37.13513,-10.9271],[-37.13624,-10.92728],[-37.13572,-10.93014],[-37.13428,-10.93001],[-37.13423,-10.93183],[-37.134,-10.93241],[-37.13382,-10.93484],[-37.13468,-10.93476],[-37.13472,-10.93557],[-37.13338,-10.93685],[-37.13147,-10.93756],[-37.13132,-10.93736],[-37.12914,-10.93793],[-37.12829,-10.93797],[-37.12832,-10.93734],[-37.12866,-10.93631]]]},"properties":{"codigo":"2806701013","name":"Tijuquinha","population":4313,"households":1807,"areaKm2":0.8011,"density":5384.1}},{"type":"Feature","geometry":{"type":"Polygon","coordinates":[[[-37.20854,-11.01694],[-37.20858,-11.01813],[-37.20779,-11.01843],[-37.20761,-11.02083],[-37.20585,-11.02113],[-37.20598,-11.02168],[-37.20734,-11.02249],[-37.20821,-11.02319],[-37.20852,-11.02422],[-37.20863,-11.02551],[-37.20822,-11.02639],[-37.20719,-11.02784],[-37.20548,-11.02695],[-37.20335,-11.02549],[-37.20261,-11.02542],[-37.19817,-11.02588],[-37.19771,-11.02589],[-37.19727,-11.02463],[-37.19536,-11.02223],[-37.19629,-11.02151],[-37.19732,-11.02088],[-37.19619,-11.01988],[-37.19569,-11.01904],[-37.19593,-11.01801],[-37.19715,-11.01829],[-37.19806,-11.01797],[-37.19927,-11.0178],[-37.19982,-11.01787],[-37.20073,-11.01849],[-37.20183,-11.01805],[-37.20211,-11.01771],[-37.20343,-11.01723],[-37.20783,-11.0172],[-37.20854,-11.01694]]]},"properties":{"codigo":"2806701012","name":"São Gonçalo","population":2237,"households":950,"areaKm2":1.1674,"density":1916.2}},{"type":"Feature","geometry":{"type":"Polygon","coordinates":[[[-37.12914,-10.93793],[-37.13033,-10.93807],[-37.13101,-10.94202],[-37.12923,-10.94239],[-37.12934,-10.94495],[-37.12797,-10.94414],[-37.12799,-10.94315],[-37.12754,-10.94242],[-37.12605,-10.94306],[-37.12346,-10.94463],[-37.12289,-10.94404],[-37.12263,-10.94349],[-37.12433,-10.9416],[-37.12248,-10.94003],[-37.12246,-10.93887],[-37.12226,-10.93659],[-37.12575,-10.93573],[-37.12696,-10.93565],[-37.12866,-10.93631],[-37.12832,-10.93734],[-37.12829,-10.93797],[-37.12914,-10.93793]]]},"properties":{"codigo":"2806701005","name":"Luiz Alves","population":2569,"households":1069,"areaKm2":0.6475,"density":3967.7}},{"type":"Feature","geometry":{"type":"Polygon","coordinates":[[[-37.10747,-10.94446],[-37.10874,-10.94452],[-37.10928,-10.94467],[-37.10981,-10.94605],[-37.11095,-10.94601],[-37.11188,-10.94651],[-37.11265,-10.94665],[-37.11453,-10.94681],[-37.1156,-10.94725],[-37.116,-10.94815],[-37.11585,-10.9501],[-37.11617,-10.95081],[-37.11616,-10.9524],[-37.11561,-10.95245],[-37.11435,-10.95204],[-37.11209,-10.9523],[-37.11107,-10.95232],[-37.10909,-10.95211],[-37.10727,-10.95203],[-37.10476,-10.95246],[-37.10419,-10.95227],[-37.10462,-10.95128],[-37.10525,-10.95015],[-37.10554,-10.94934],[-37.10623,-10.9484],[-37.10627,-10.94794],[-37.10665,-10.94727],[-37.10689,-10.94606],[-37.10747,-10.94446]]]},"properties":{"codigo":"2806701014","name":"Várzea Grande","population":563,"households":240,"areaKm2":0.7731,"density":728.3}},{"type":"Feature","geometry":{"type":"Polygon","coordinates":[[[-37.20157,-10.99465],[-37.20219,-10.99417],[-37.20306,-10.99389],[-37.20362,-10.99341],[-37.20406,-10.99221],[-37.2048,-10.99084],[-37.20558,-10.9903],[-37.20695,-10.99006],[-37.20771,-10.98901],[-37.20853,-10.98812],[-37.20969,-10.98777],[-37.21054,-10.98694],[-37.21153,-10.98644],[-37.21307,-10.98541],[-37.21417,-10.9843],[-37.21763,-10.98326],[-37.21795,-10.9879],[-37.21807,-10.99049],[-37.21801,-10.99139],[-37.21758,-10.99271],[-37.21581,-10.99689],[-37.21484,-10.99904],[-37.21409,-11.00006],[-37.21165,-11.00082],[-37.21082,-11.00142],[-37.21045,-11.00196],[-37.20991,-11.00372],[-37.20982,-11.00477],[-37.20911,-11.00578],[-37.20888,-11.00669],[-37.20895,-11.00896],[-37.20888,-11.00938],[-37.2086,-11.00939],[-37.20753,-11.00968],[-37.20737,-11.00921],[-37.20647,-11.00886],[-37.20495,-11.00673],[-37.20444,-11.0059],[-37.20348,-11.00473],[-37.20222,-11.00427],[-37.20082,-11.00194],[-37.20005,-11.0014],[-37.19947,-11.00028],[-37.20093,-10.99897],[-37.20072,-10.99833],[-37.20146,-10.99743],[-37.20134,-10.99696],[-37.20157,-10.99465]]]},"properties":{"codigo":"2806701006","name":"Lourival Batista","population":2993,"households":1239,"areaKm2":3.0117,"density":993.8}},{"type":"Feature","geometry":{"type":"Polygon","coordinates":[[[-37.12954,-10.92123],[-37.1293,-10.9237],[-37.13124,-10.92419],[-37.13346,-10.9246],[-37.13329,-10.92537],[-37.13395,-10.92575],[-37.13393,-10.92615],[-37.13232,-10.92652],[-37.13085,-10.9266],[-37.13026,-10.92631],[-37.12952,-10.92627],[-37.12914,-10.92652],[-37.1291,-10.92724],[-37.1277,-10.927],[-37.12779,-10.92815],[-37.12773,-10.93124],[-37.12899,-10.93122],[-37.1291,-10.93308],[-37.12889,-10.93494],[-37.12866,-10.93631],[-37.12696,-10.93565],[-37.12575,-10.93573],[-37.12226,-10.93659],[-37.12246,-10.93887],[-37.12248,-10.94003],[-37.12192,-10.93964],[-37.1161,-10.93481],[-37.11297,-10.93202],[-37.11341,-10.93085],[-37.116,-10.93178],[-37.11801,-10.93243],[-37.11798,-10.93136],[-37.11843,-10.9313],[-37.11833,-10.92708],[-37.11815,-10.92176],[-37.11803,-10.91738],[-37.12248,-10.91883],[-37.1275,-10.92059],[-37.12954,-10.92123]]]},"properties":{"codigo":"2806701003","name":"Eduardo Gomes","population":15230,"households":5957,"areaKm2":2.5492,"density":5974.4}},{"type":"Feature","geometry":{"type":"Polygon","coordinates":[[[-37.10008,-10.92151],[-37.10206,-10.91713],[-37.10385,-10.91593],[-37.10484,-10.91546],[-37.10699,-10.91505],[-37.10738,-10.91486],[-37.10895,-10.91492],[-37.11216,-10.91571],[-37.11185,-10.917],[-37.1119,-10.91852],[-37.11165,-10.9185],[-37.1116,-10.92051],[-37.1118,-10.92127],[-37.11169,-10.92225],[-37.11103,-10.92567],[-37.11118,-10.9257],[-37.11036,-10.92979],[-37.11027,-10.9302],[-37.10945,-10.9305],[-37.10802,-10.93183],[-37.10804,-10.93246],[-37.10736,-10.93247],[-37.10342,-10.93227],[-37.10277,-10.93243],[-37.10173,-10.93209],[-37.09723,-10.92788],[-37.10008,-10.92151]]]},"properties":{"codigo":"2806701011","name":"Rosa Elze","population":6574,"households":3860,"areaKm2":2.2795,"density":2884}},{"type":"Feature","geometry":{"type":"MultiPolygon","coordinates":[[[[-37.09703,-10.94273],[-37.09696,-10.94233],[-37.09632,-10.94182],[-37.09712,-10.94075],[-37.09801,-10.9423],[-37.09835,-10.94178],[-37.09771,-10.94081],[-37.09798,-10.94032],[-37.09887,-10.94064],[-37.09876,-10.94215],[-37.09932,-10.94261],[-37.09983,-10.94226],[-37.10026,-10.94229],[-37.10138,-10.94322],[-37.10252,-10.94365],[-37.10105,-10.94394],[-37.10089,-10.94484],[-37.10017,-10.94543],[-37.09951,-10.9457],[-37.09894,-10.94404],[-37.09835,-10.94416],[-37.09729,-10.94354],[-37.09703,-10.94273]]],[[[-37.09792,-10.95769],[-37.09861,-10.9575],[-37.09919,-10.95794],[-37.09928,-10.95885],[-37.09875,-10.95884],[-37.09822,-10.95842],[-37.09792,-10.95769]]],[[[-37.11027,-10.9302],[-37.10954,-10.93435],[-37.10908,-10.93662],[-37.10765,-10.93638],[-37.10775,-10.93546],[-37.10743,-10.9352],[-37.10575,-10.93551],[-37.10571,-10.93472],[-37.1051,-10.93503],[-37.10472,-10.93548],[-37.10491,-10.93805],[-37.10307,-10.93814],[-37.103,-10.93915],[-37.1023,-10.93914],[-37.10227,-10.94036],[-37.10057,-10.94051],[-37.1005,-10.93918],[-37.10012,-10.93529],[-37.10053,-10.93475],[-37.10111,-10.93447],[-37.10134,-10.93391],[-37.10221,-10.93277],[-37.10277,-10.93243],[-37.10342,-10.93227],[-37.10736,-10.93247],[-37.10804,-10.93246],[-37.10802,-10.93183],[-37.10945,-10.9305],[-37.11027,-10.9302]]],[[[-37.09443,-10.93418],[-37.09526,-10.9342],[-37.09527,-10.93536],[-37.09577,-10.93537],[-37.09595,-10.93617],[-37.09403,-10.93612],[-37.09384,-10.9355],[-37.09443,-10.93418]]],[[[-37.09462,-10.93953],[-37.09442,-10.94122],[-37.09371,-10.94098],[-37.09305,-10.94113],[-37.09311,-10.93946],[-37.0937,-10.93839],[-37.09514,-10.93847],[-37.0951,-10.93945],[-37.09462,-10.93953]]],[[[-37.09205,-10.94267],[-37.09348,-10.94199],[-37.09442,-10.94478],[-37.09382,-10.94638],[-37.09355,-10.94649],[-37.09205,-10.94267]]],[[[-37.09385,-10.94728],[-37.09703,-10.94648],[-37.09873,-10.94683],[-37.10017,-10.94941],[-37.09984,-10.95002],[-37.09753,-10.95122],[-37.09545,-10.95136],[-37.09385,-10.94728]]]]},"properties":{"codigo":"2806701008","name":"Marcelo Déda","population":9868,"households":4279,"areaKm2":1.127,"density":8756.2}},{"type":"Feature","geometry":{"type":"Polygon","coordinates":[[[-37.2086,-11.00939],[-37.20888,-11.00938],[-37.21056,-11.00934],[-37.21552,-11.00797],[-37.2179,-11.00729],[-37.21958,-11.00688],[-37.22611,-11.00693],[-37.22611,-11.00662],[-37.22739,-11.00488],[-37.23278,-11.00426],[-37.23322,-11.00477],[-37.23441,-11.00549],[-37.23463,-11.00576],[-37.23555,-11.00615],[-37.23602,-11.00604],[-37.23667,-11.0062],[-37.23752,-11.0067],[-37.23739,-11.00734],[-37.23667,-11.00787],[-37.23562,-11.00814],[-37.23502,-11.00857],[-37.23371,-11.00871],[-37.23328,-11.00903],[-37.23255,-11.00908],[-37.23208,-11.0097],[-37.23209,-11.01007],[-37.23094,-11.01046],[-37.22948,-11.00997],[-37.22956,-11.00964],[-37.22693,-11.00865],[-37.22596,-11.00867],[-37.22396,-11.00891],[-37.22387,-11.00988],[-37.22283,-11.0108],[-37.22135,-11.0089],[-37.21974,-11.00959],[-37.22007,-11.01038],[-37.22164,-11.01244],[-37.22131,-11.013],[-37.22021,-11.01306],[-37.21885,-11.01251],[-37.21656,-11.00937],[-37.21602,-11.00916],[-37.2156,-11.00971],[-37.21393,-11.0102],[-37.21187,-11.01068],[-37.20975,-11.01102],[-37.20945,-11.01039],[-37.20883,-11.00991],[-37.2086,-11.00939]]]},"properties":{"codigo":"2806701004","name":"Irineu Neri","population":2727,"households":1140,"areaKm2":1.0737,"density":2539.8}},{"type":"Feature","geometry":{"type":"Polygon","coordinates":[[[-37.11297,-10.93202],[-37.1161,-10.93481],[-37.12192,-10.93964],[-37.12248,-10.94003],[-37.12433,-10.9416],[-37.12263,-10.94349],[-37.12289,-10.94404],[-37.12346,-10.94463],[-37.12318,-10.94577],[-37.1229,-10.946],[-37.12036,-10.94611],[-37.1197,-10.94594],[-37.11793,-10.94519],[-37.11696,-10.94511],[-37.1156,-10.94725],[-37.11453,-10.94681],[-37.11265,-10.94665],[-37.11188,-10.94651],[-37.11095,-10.94601],[-37.10981,-10.94605],[-37.10928,-10.94467],[-37.10874,-10.94452],[-37.10747,-10.94446],[-37.10908,-10.93662],[-37.10954,-10.93435],[-37.11027,-10.9302],[-37.11036,-10.92979],[-37.11297,-10.93202]]]},"properties":{"codigo":"2806701007","name":"Madre Paulina","population":9972,"households":4731,"areaKm2":1.9636,"density":5078.4}}]}