{"type":"FeatureCollection","features":[{"type":"Feature","geometry":{"type":"Polygon","coordinates":[[[-38.00989,-11.18196],[-38.00949,-11.18228],[-38.0075,-11.18298],[-38.00629,-11.18352],[-38.00565,-11.18468],[-38.00526,-11.18577],[-38.00467,-11.18661],[-38.00136,-11.18392],[-38.00225,-11.18186],[-38.00273,-11.18059],[-38.00493,-11.17531],[-38.00573,-11.17622],[-38.00703,-11.17842],[-38.00813,-11.17996],[-38.00989,-11.18196]]]},"properties":{"codigo":"2807402003","name":"Santa Rita","population":4326,"households":1756,"areaKm2":0.521,"density":8302.9}},{"type":"Feature","geometry":{"type":"Polygon","coordinates":[[[-38.00596,-11.17288],[-38.00764,-11.16888],[-38.00893,-11.16827],[-38.01106,-11.16715],[-38.01226,-11.17279],[-38.01443,-11.17829],[-38.01431,-11.17828],[-38.01378,-11.17731],[-38.01302,-11.17655],[-38.01202,-11.17581],[-38.01097,-11.17519],[-38.00807,-11.17404],[-38.00588,-11.17306],[-38.00596,-11.17288]]]},"properties":{"codigo":"2807402005","name":"Avenida","population":1606,"households":650,"areaKm2":0.4443,"density":3614.3}},{"type":"Feature","geometry":{"type":"Polygon","coordinates":[[[-37.98268,-11.18434],[-37.98256,-11.18351],[-37.98312,-11.18315],[-37.98277,-11.18262],[-37.98268,-11.1818],[-37.98233,-11.18115],[-37.98271,-11.18066],[-37.98227,-11.18018],[-37.98201,-11.17888],[-37.98159,-11.17798],[-37.98162,-11.1771],[-37.98068,-11.17602],[-37.98032,-11.17527],[-37.9799,-11.17488],[-37.97879,-11.17432],[-37.97841,-11.17392],[-37.97785,-11.17406],[-37.97629,-11.17337],[-37.97549,-11.17287],[-37.97506,-11.17193],[-37.97979,-11.16636],[-37.98158,-11.16711],[-37.98395,-11.16859],[-37.98568,-11.17039],[-37.99125,-11.1765],[-37.99128,-11.1766],[-37.99066,-11.17712],[-37.99123,-11.17771],[-37.99111,-11.1783],[-37.99031,-11.17948],[-37.98962,-11.18009],[-37.98908,-11.17999],[-37.98869,-11.18099],[-37.9878,-11.18093],[-37.98732,-11.18225],[-37.98667,-11.1822],[-37.98514,-11.1824],[-37.98429,-11.1833],[-37.98268,-11.18434]]]},"properties":{"codigo":"2807402015","name":"Centenário","population":2291,"households":1007,"areaKm2":1.6266,"density":1408.4}},{"type":"Feature","geometry":{"type":"Polygon","coordinates":[[[-37.99125,-11.1765],[-37.99271,-11.1781],[-37.9945,-11.17973],[-37.99824,-11.18296],[-37.99774,-11.18326],[-37.99845,-11.18475],[-37.99581,-11.18552],[-37.99414,-11.18596],[-37.9932,-11.18274],[-37.99184,-11.17929],[-37.99178,-11.17845],[-37.99128,-11.1766],[-37.99125,-11.1765]]]},"properties":{"codigo":"2807402010","name":"Castelo Branco","population":2289,"households":959,"areaKm2":0.3229,"density":7089.1}},{"type":"Feature","geometry":{"type":"Polygon","coordinates":[[[-37.97796,-11.18805],[-37.97907,-11.18773],[-37.98274,-11.18868],[-37.98328,-11.18954],[-37.98503,-11.18918],[-37.98655,-11.18866],[-37.98698,-11.19026],[-37.98723,-11.19154],[-37.98803,-11.19298],[-37.98823,-11.19402],[-37.98712,-11.19474],[-37.98766,-11.19508],[-37.98719,-11.19554],[-37.9873,-11.19593],[-37.98669,-11.19605],[-37.98569,-11.19601],[-37.98539,-11.1962],[-37.98484,-11.19594],[-37.98424,-11.19596],[-37.98389,-11.19563],[-37.98391,-11.1948],[-37.9845,-11.19399],[-37.98471,-11.1926],[-37.98406,-11.1917],[-37.98313,-11.19161],[-37.9827,-11.19124],[-37.98176,-11.19112],[-37.98054,-11.19151],[-37.97973,-11.19165],[-37.97855,-11.19153],[-37.97888,-11.19064],[-37.97889,-11.18951],[-37.97824,-11.18971],[-37.9776,-11.18908],[-37.97796,-11.18805]]]},"properties":{"codigo":"2807402012","name":"Sutí","population":384,"households":158,"areaKm2":0.4784,"density":802.7}},{"type":"Feature","geometry":{"type":"Polygon","coordinates":[[[-38.00526,-11.18577],[-38.00899,-11.1889],[-38.0085,-11.18905],[-38.0077,-11.1899],[-38.00698,-11.19029],[-38.00623,-11.19048],[-38.0059,-11.19128],[-38.00547,-11.19192],[-38.00401,-11.19249],[-38.00313,-11.1937],[-38.00176,-11.19399],[-37.99958,-11.19118],[-37.99966,-11.19098],[-38.00098,-11.19037],[-37.99845,-11.18475],[-37.99774,-11.18326],[-37.99824,-11.18296],[-37.99927,-11.18212],[-38.00136,-11.18392],[-38.00467,-11.18661],[-38.00526,-11.18577]]]},"properties":{"codigo":"2807402001","name":"Centro","population":5003,"households":2399,"areaKm2":0.7158,"density":6989.8}},{"type":"Feature","geometry":{"type":"Polygon","coordinates":[[[-37.99128,-11.1766],[-37.99178,-11.17845],[-37.99184,-11.17929],[-37.9932,-11.18274],[-37.99414,-11.18596],[-37.99314,-11.1863],[-37.98797,-11.18821],[-37.98655,-11.18866],[-37.98503,-11.18918],[-37.98328,-11.18954],[-37.98274,-11.18868],[-37.97907,-11.18773],[-37.97796,-11.18805],[-37.97638,-11.18739],[-37.97607,-11.18651],[-37.97699,-11.18607],[-37.97754,-11.18536],[-37.97804,-11.18527],[-37.97845,-11.18586],[-37.97909,-11.18543],[-37.97937,-11.18589],[-37.98069,-11.186],[-37.98112,-11.18541],[-37.98166,-11.18539],[-37.98268,-11.18434],[-37.98429,-11.1833],[-37.98514,-11.1824],[-37.98667,-11.1822],[-37.98732,-11.18225],[-37.9878,-11.18093],[-37.98869,-11.18099],[-37.98908,-11.17999],[-37.98962,-11.18009],[-37.99031,-11.17948],[-37.99111,-11.1783],[-37.99123,-11.17771],[-37.99066,-11.17712],[-37.99128,-11.1766]]]},"properties":{"codigo":"2807402011","name":"Santos Dumont","population":1423,"households":558,"areaKm2":1.0735,"density":1325.6}},{"type":"Feature","geometry":{"type":"Polygon","coordinates":[[[-38.00493,-11.17531],[-38.00588,-11.17306],[-38.00807,-11.17404],[-38.01097,-11.17519],[-38.01202,-11.17581],[-38.01302,-11.17655],[-38.01378,-11.17731],[-38.01431,-11.17828],[-38.01322,-11.1792],[-38.01158,-11.18071],[-38.00989,-11.18196],[-38.00813,-11.17996],[-38.00703,-11.17842],[-38.00573,-11.17622],[-38.00493,-11.17531]]]},"properties":{"codigo":"2807402004","name":"Pinheiro","population":3165,"households":1322,"areaKm2":0.5064,"density":6250.2}},{"type":"Feature","geometry":{"type":"Polygon","coordinates":[[[-37.98655,-11.18866],[-37.98797,-11.18821],[-37.99314,-11.1863],[-37.99406,-11.18876],[-37.99622,-11.18786],[-37.99673,-11.18944],[-37.99671,-11.18978],[-37.99718,-11.19027],[-37.99723,-11.19099],[-37.99674,-11.19111],[-37.99551,-11.19103],[-37.99395,-11.19164],[-37.99344,-11.19168],[-37.99096,-11.19255],[-37.98943,-11.19348],[-37.98823,-11.19402],[-37.98803,-11.19298],[-37.98723,-11.19154],[-37.98698,-11.19026],[-37.98655,-11.18866]]]},"properties":{"codigo":"2807402013","name":"Macaé","population":1485,"households":600,"areaKm2":0.539,"density":2754.9}},{"type":"Feature","geometry":{"type":"Polygon","coordinates":[[[-37.99125,-11.1765],[-37.99155,-11.17503],[-37.992,-11.17535],[-37.99228,-11.17438],[-37.99323,-11.17296],[-37.99275,-11.17273],[-37.99287,-11.17215],[-37.99338,-11.17196],[-37.99357,-11.17025],[-37.99427,-11.16968],[-37.99451,-11.1691],[-37.99599,-11.1681],[-37.99625,-11.16853],[-37.99669,-11.16835],[-37.99675,-11.16777],[-37.99632,-11.1672],[-37.99649,-11.1668],[-37.99739,-11.16656],[-37.99766,-11.16579],[-37.9981,-11.16572],[-37.99846,-11.16519],[-37.99939,-11.16475],[-37.99962,-11.16412],[-37.99993,-11.16407],[-38.00312,-11.17114],[-38.00432,-11.17375],[-38.00157,-11.17493],[-38.0007,-11.1755],[-37.9977,-11.17853],[-37.99693,-11.17901],[-37.9945,-11.17973],[-37.99271,-11.1781],[-37.99125,-11.1765]]]},"properties":{"codigo":"2807402009","name":"Bela Vista","population":1103,"households":398,"areaKm2":1.304,"density":845.9}},{"type":"Feature","geometry":{"type":"Polygon","coordinates":[[[-38.00989,-11.18196],[-38.01158,-11.18071],[-38.01322,-11.1792],[-38.01431,-11.17828],[-38.01443,-11.17829],[-38.01462,-11.18421],[-38.0139,-11.18489],[-38.01322,-11.18523],[-38.01284,-11.186],[-38.01114,-11.18785],[-38.01061,-11.18814],[-38.01061,-11.18875],[-38.01007,-11.18902],[-38.00943,-11.18875],[-38.00899,-11.1889],[-38.00526,-11.18577],[-38.00565,-11.18468],[-38.00629,-11.18352],[-38.0075,-11.18298],[-38.00949,-11.18228],[-38.00989,-11.18196]]]},"properties":{"codigo":"2807402002","name":"Palame","population":223,"households":110,"areaKm2":0.6172,"density":361.3}},{"type":"Feature","geometry":{"type":"Polygon","coordinates":[[[-38.00764,-11.16888],[-38.01145,-11.1599],[-38.01239,-11.15775],[-38.01312,-11.15615],[-38.01517,-11.15643],[-38.01162,-11.16552],[-38.01106,-11.16715],[-38.00893,-11.16827],[-38.00764,-11.16888]]]},"properties":{"codigo":"2807402006","name":"Cruz","population":296,"households":131,"areaKm2":0.348,"density":850.5}},{"type":"Feature","geometry":{"type":"Polygon","coordinates":[[[-37.99845,-11.18475],[-38.00098,-11.19037],[-37.99966,-11.19098],[-37.99958,-11.19118],[-38.00176,-11.19399],[-38.00061,-11.19433],[-37.99989,-11.19405],[-37.99864,-11.19425],[-37.99828,-11.1939],[-37.99842,-11.19302],[-37.99776,-11.19256],[-37.99723,-11.19099],[-37.99718,-11.19027],[-37.99671,-11.18978],[-37.99673,-11.18944],[-37.99622,-11.18786],[-37.99406,-11.18876],[-37.99314,-11.1863],[-37.99414,-11.18596],[-37.99581,-11.18552],[-37.99845,-11.18475]]]},"properties":{"codigo":"2807402014","name":"Campos","population":2360,"households":976,"areaKm2":0.43,"density":5487.9}},{"type":"Feature","geometry":{"type":"Polygon","coordinates":[[[-38.00596,-11.17288],[-38.00532,-11.17334],[-38.00432,-11.17375],[-38.00312,-11.17114],[-37.99993,-11.16407],[-38.0004,-11.1632],[-38.00127,-11.16257],[-38.00218,-11.16242],[-38.00311,-11.16182],[-38.00477,-11.16136],[-38.00487,-11.16111],[-38.00597,-11.16081],[-38.00655,-11.16018],[-38.0076,-11.16013],[-38.00814,-11.15962],[-38.00932,-11.15951],[-38.01051,-11.15925],[-38.01065,-11.15878],[-38.01111,-11.15867],[-38.01239,-11.15775],[-38.01145,-11.1599],[-38.00764,-11.16888],[-38.00596,-11.17288]]]},"properties":{"codigo":"2807402007","name":"Bom Jardim","population":677,"households":290,"areaKm2":1.0457,"density":647.4}},{"type":"Feature","geometry":{"type":"Polygon","coordinates":[[[-38.00136,-11.18392],[-37.99927,-11.18212],[-37.99824,-11.18296],[-37.9945,-11.17973],[-37.99693,-11.17901],[-37.9977,-11.17853],[-38.0007,-11.1755],[-38.00157,-11.17493],[-38.00432,-11.17375],[-38.00532,-11.17334],[-38.00596,-11.17288],[-38.00588,-11.17306],[-38.00493,-11.17531],[-38.00273,-11.18059],[-38.00225,-11.18186],[-38.00136,-11.18392]]]},"properties":{"codigo":"2807402008","name":"Vicentino","population":6144,"households":2582,"areaKm2":0.5848,"density":10506.9}}]}