{"type":"FeatureCollection","features":[{"type":"Feature","geometry":{"type":"Polygon","coordinates":[[[-38.0819,-11.61039],[-38.08225,-11.61105],[-38.08194,-11.61228],[-38.08321,-11.61281],[-38.08551,-11.6152],[-38.08742,-11.61539],[-38.08869,-11.61583],[-38.08871,-11.61722],[-38.08907,-11.61833],[-38.09062,-11.6189],[-38.09158,-11.61842],[-38.09226,-11.61689],[-38.09361,-11.61678],[-38.09434,-11.61712],[-38.09645,-11.61658],[-38.0976,-11.61468],[-38.09873,-11.61507],[-38.09972,-11.61468],[-38.10127,-11.61519],[-38.10212,-11.61641],[-38.10229,-11.6176],[-38.10315,-11.61845],[-38.10435,-11.61856],[-38.10506,-11.61762],[-38.10481,-11.61618],[-38.10531,-11.61513],[-38.10634,-11.61475],[-38.10691,-11.61301],[-38.10785,-11.61271],[-38.10917,-11.61282],[-38.10952,-11.61186],[-38.11062,-11.61251],[-38.11167,-11.6127],[-38.11278,-11.61353],[-38.11522,-11.61395],[-38.11668,-11.61564],[-38.11725,-11.61701],[-38.11874,-11.61619],[-38.11994,-11.61596],[-38.12169,-11.61602],[-38.12283,-11.6153],[-38.12399,-11.61535],[-38.12476,-11.61497],[-38.12586,-11.61533],[-38.12686,-11.61439],[-38.12641,-11.61326],[-38.12647,-11.61215],[-38.12834,-11.61171],[-38.13065,-11.61204],[-38.13097,-11.61139],[-38.13242,-11.6106],[-38.13329,-11.60932],[-38.13539,-11.60886],[-38.13684,-11.60918],[-38.13765,-11.60973],[-38.13888,-11.6095],[-38.1396,-11.6107],[-38.14123,-11.61096],[-38.14267,-11.61022],[-38.14483,-11.61065],[-38.14577,-11.61109],[-38.14835,-11.60963],[-38.14942,-11.60944],[-38.15047,-11.61004],[-38.1505,-11.61115],[-38.14997,-11.61188],[-38.1504,-11.6137],[-38.1493,-11.61759],[-38.1495,-11.61985],[-38.14892,-11.62067],[-38.14912,-11.62238],[-38.15034,-11.62395],[-38.15165,-11.62459],[-38.15233,-11.62602],[-38.15277,-11.62814],[-38.1533,-11.62859],[-38.15393,-11.63046],[-38.15467,-11.63052],[-38.15488,-11.63189],[-38.1542,-11.63281],[-38.15292,-11.63299],[-38.15256,-11.63407],[-38.15326,-11.63477],[-38.15468,-11.63531],[-38.15482,-11.63438],[-38.1559,-11.63443],[-38.15742,-11.63501],[-38.15933,-11.63446],[-38.16099,-11.6359],[-38.16247,-11.63504],[-38.16301,-11.63382],[-38.16374,-11.63405],[-38.16597,-11.6335],[-38.16718,-11.63352],[-38.16925,-11.63428],[-38.17023,-11.63404],[-38.17146,-11.63458],[-38.17187,-11.63557],[-38.17361,-11.63604],[-38.17332,-11.63837],[-38.17441,-11.63865],[-38.17616,-11.63843],[-38.17653,-11.6396],[-38.17775,-11.63956],[-38.17723,-11.6377],[-38.17751,-11.63736],[-38.17925,-11.63725],[-38.18029,-11.63781],[-38.18246,-11.6372],[-38.18409,-11.63613],[-38.18502,-11.63617],[-38.18782,-11.63503],[-38.18897,-11.63419],[-38.19038,-11.63444],[-38.19173,-11.6341],[-38.19279,-11.63423],[-38.19362,-11.63496],[-38.19506,-11.63454],[-38.19709,-11.63507],[-38.19928,-11.63452],[-38.19978,-11.63554],[-38.20094,-11.63542],[-38.20205,-11.63629],[-38.20233,-11.63731],[-38.20393,-11.63752],[-38.20512,-11.63819],[-38.20729,-11.63816],[-38.2092,-11.63845],[-38.21057,-11.6394],[-38.2114,-11.63886],[-38.21227,-11.63918],[-38.21338,-11.63897],[-38.21425,-11.63824],[-38.21512,-11.63812],[-38.21733,-11.64005],[-38.21869,-11.64041],[-38.22034,-11.63987],[-38.22177,-11.64067],[-38.22352,-11.64132],[-38.22492,-11.64066],[-38.22605,-11.63962],[-38.22913,-11.63826],[-38.22962,-11.63676],[-38.23143,-11.63654],[-38.23279,-11.63511],[-38.23353,-11.63496],[-38.2339,-11.63336],[-38.23467,-11.63259],[-38.2363,-11.63211],[-38.23722,-11.63092],[-38.23786,-11.62843],[-38.23852,-11.62763],[-38.2402,-11.62693],[-38.2425,-11.62705],[-38.24452,-11.62587],[-38.24601,-11.62553],[-38.24997,-11.62668],[-38.23566,-11.64135],[-38.21358,-11.66427],[-38.17532,-11.70175],[-38.17327,-11.70326],[-38.16745,-11.71034],[-38.15766,-11.71865],[-38.15657,-11.72072],[-38.15594,-11.72107],[-38.15447,-11.72325],[-38.15406,-11.72528],[-38.15345,-11.72639],[-38.15352,-11.72868],[-38.15412,-11.7295],[-38.15433,-11.73073],[-38.15408,-11.73236],[-38.1542,-11.73353],[-38.15388,-11.73532],[-38.15319,-11.73691],[-38.15377,-11.73835],[-38.15602,-11.74052],[-38.15716,-11.74196],[-38.1578,-11.74411],[-38.15879,-11.74549],[-38.15887,-11.74657],[-38.15955,-11.7479],[-38.16113,-11.74916],[-38.16172,-11.75006],[-38.16325,-11.7506],[-38.1639,-11.75161],[-38.16503,-11.7522],[-38.16593,-11.75184],[-38.1681,-11.75201],[-38.16895,-11.7516],[-38.1696,-11.75266],[-38.17111,-11.75381],[-38.17125,-11.75506],[-38.17262,-11.75573],[-38.17266,-11.75652],[-38.17353,-11.75772],[-38.17246,-11.75993],[-38.1729,-11.76085],[-38.17285,-11.76274],[-38.17421,-11.76424],[-38.17475,-11.7654],[-38.17438,-11.76618],[-38.17512,-11.76798],[-38.17417,-11.77035],[-38.17499,-11.77041],[-38.17618,-11.77105],[-38.17661,-11.77193],[-38.17776,-11.77257],[-38.17831,-11.77449],[-38.17819,-11.77615],[-38.17903,-11.77714],[-38.17996,-11.77881],[-38.17963,-11.7796],[-38.18002,-11.78227],[-38.18089,-11.78289],[-38.17932,-11.78441],[-38.17852,-11.78571],[-38.17768,-11.7857],[-38.17627,-11.78647],[-38.1758,-11.78889],[-38.17316,-11.78931],[-38.17216,-11.79035],[-38.17089,-11.79083],[-38.16933,-11.79212],[-38.168,-11.79389],[-38.16795,-11.79476],[-38.16854,-11.79594],[-38.16745,-11.79751],[-38.16692,-11.79964],[-38.16646,-11.80037],[-38.16674,-11.80217],[-38.16779,-11.80305],[-38.16681,-11.80343],[-38.16419,-11.80252],[-38.1629,-11.80181],[-38.161,-11.80195],[-38.15965,-11.80333],[-38.15848,-11.8028],[-38.1564,-11.80283],[-38.15495,-11.80245],[-38.1527,-11.80246],[-38.15191,-11.80154],[-38.14949,-11.8011],[-38.1483,-11.80131],[-38.14653,-11.80281],[-38.1446,-11.80337],[-38.14478,-11.80472],[-38.1431,-11.80416],[-38.14239,-11.80287],[-38.14248,-11.80127],[-38.14397,-11.79979],[-38.14285,-11.79807],[-38.14239,-11.79635],[-38.1426,-11.79369],[-38.14484,-11.79152],[-38.14482,-11.78993],[-38.14746,-11.78594],[-38.14699,-11.78479],[-38.1476,-11.78281],[-38.14717,-11.77579],[-38.14718,-11.77409],[-38.14561,-11.77173],[-38.1457,-11.77102],[-38.14509,-11.76824],[-38.14398,-11.76428],[-38.14354,-11.76408],[-38.14089,-11.76423],[-38.13882,-11.76361],[-38.11173,-11.73283],[-38.11125,-11.73193],[-38.10992,-11.72828],[-38.10921,-11.72771],[-38.10622,-11.72766],[-38.10479,-11.72687],[-38.06649,-11.68908],[-38.05235,-11.66127],[-38.05235,-11.65843],[-38.05112,-11.65694],[-38.05062,-11.65431],[-38.05066,-11.65241],[-38.04906,-11.64949],[-38.05035,-11.6477],[-38.05377,-11.64476],[-38.05464,-11.64342],[-38.05847,-11.63534],[-38.05923,-11.63202],[-38.0607,-11.62859],[-38.06183,-11.6272],[-38.07377,-11.61884],[-38.07702,-11.61756],[-38.07889,-11.61394],[-38.0819,-11.61039]]]},"properties":{"codigo":"290190805","name":"Aporá","population":6980,"households":3483,"areaKm2":193.7685,"density":36}},{"type":"Feature","geometry":{"type":"Polygon","coordinates":[[[-38.24997,-11.62668],[-38.25153,-11.62751],[-38.25427,-11.63044],[-38.25792,-11.63388],[-38.25939,-11.63494],[-38.26176,-11.63621],[-38.26457,-11.63854],[-38.26679,-11.63992],[-38.26792,-11.641],[-38.2698,-11.64167],[-38.27093,-11.64366],[-38.27265,-11.64476],[-38.27346,-11.64701],[-38.27443,-11.64744],[-38.27498,-11.64709],[-38.2774,-11.64374],[-38.27826,-11.64131],[-38.27976,-11.63861],[-38.30171,-11.63586],[-38.29928,-11.63718],[-38.29695,-11.63936],[-38.2959,-11.63998],[-38.2948,-11.64192],[-38.29327,-11.64378],[-38.29149,-11.64534],[-38.29037,-11.64671],[-38.28928,-11.64875],[-38.28911,-11.65007],[-38.2896,-11.65195],[-38.28938,-11.65286],[-38.28803,-11.65364],[-38.28694,-11.65477],[-38.28494,-11.6592],[-38.28339,-11.66146],[-38.28182,-11.6627],[-38.28061,-11.66311],[-38.27947,-11.66405],[-38.27919,-11.66471],[-38.27951,-11.66698],[-38.28004,-11.6688],[-38.27955,-11.67157],[-38.27885,-11.67363],[-38.27782,-11.67561],[-38.27689,-11.67788],[-38.27671,-11.67914],[-38.27721,-11.68047],[-38.2771,-11.68206],[-38.27611,-11.68344],[-38.27483,-11.68655],[-38.2742,-11.68768],[-38.27434,-11.68903],[-38.27495,-11.69094],[-38.27433,-11.69304],[-38.27336,-11.69486],[-38.27336,-11.69731],[-38.27128,-11.70024],[-38.27094,-11.7018],[-38.26963,-11.70344],[-38.26866,-11.70581],[-38.2686,-11.70735],[-38.2681,-11.70812],[-38.26591,-11.70883],[-38.26488,-11.70971],[-38.26568,-11.71159],[-38.2659,-11.71339],[-38.26544,-11.71432],[-38.26479,-11.71728],[-38.26548,-11.71973],[-38.26561,-11.72194],[-38.2663,-11.72386],[-38.26808,-11.72551],[-38.2694,-11.72719],[-38.27016,-11.72887],[-38.27002,-11.73013],[-38.27039,-11.73088],[-38.2721,-11.73236],[-38.27282,-11.73432],[-38.27285,-11.73512],[-38.27405,-11.73653],[-38.27379,-11.73773],[-38.27396,-11.73902],[-38.27342,-11.74061],[-38.27377,-11.74145],[-38.2736,-11.74285],[-38.27405,-11.74412],[-38.27481,-11.7474],[-38.27548,-11.74838],[-38.27547,-11.74975],[-38.27739,-11.75247],[-38.27853,-11.75282],[-38.27875,-11.75354],[-38.28024,-11.75385],[-38.28246,-11.75525],[-38.28442,-11.7559],[-38.28657,-11.75597],[-38.28789,-11.75659],[-38.2886,-11.75867],[-38.28934,-11.75952],[-38.29158,-11.76081],[-38.29099,-11.76198],[-38.29273,-11.7626],[-38.29321,-11.76451],[-38.29545,-11.76623],[-38.29548,-11.7674],[-38.29634,-11.76849],[-38.29634,-11.76941],[-38.29706,-11.77006],[-38.29665,-11.7717],[-38.2972,-11.7732],[-38.29656,-11.77371],[-38.29583,-11.77608],[-38.29645,-11.7767],[-38.29505,-11.77805],[-38.29379,-11.77892],[-38.29345,-11.77962],[-38.29363,-11.78126],[-38.29244,-11.78273],[-38.292,-11.78397],[-38.2912,-11.78479],[-38.28995,-11.78511],[-38.28918,-11.78612],[-38.28813,-11.786],[-38.28715,-11.78669],[-38.28676,-11.78859],[-38.28559,-11.78803],[-38.28537,-11.78889],[-38.28388,-11.78966],[-38.28313,-11.78938],[-38.28246,-11.79004],[-38.28346,-11.79071],[-38.2823,-11.79161],[-38.28266,-11.79251],[-38.28224,-11.79384],[-38.28277,-11.79495],[-38.28167,-11.79691],[-38.28055,-11.79737],[-38.28211,-11.79963],[-38.283,-11.79993],[-38.28255,-11.8024],[-38.28318,-11.80426],[-38.28471,-11.80405],[-38.28505,-11.80491],[-38.2864,-11.80614],[-38.28849,-11.80724],[-38.28951,-11.80803],[-38.28944,-11.8094],[-38.2907,-11.80995],[-38.29115,-11.81274],[-38.29023,-11.81291],[-38.29007,-11.81398],[-38.29142,-11.81496],[-38.29124,-11.81712],[-38.29226,-11.81689],[-38.2931,-11.81826],[-38.29297,-11.81947],[-38.29407,-11.81976],[-38.29416,-11.82122],[-38.29307,-11.82166],[-38.29345,-11.82323],[-38.29513,-11.82429],[-38.29643,-11.82589],[-38.29643,-11.82655],[-38.29495,-11.82649],[-38.29475,-11.82747],[-38.29741,-11.82983],[-38.29804,-11.83011],[-38.29983,-11.82938],[-38.30093,-11.82962],[-38.30082,-11.83066],[-38.29943,-11.8309],[-38.29823,-11.83224],[-38.29868,-11.83402],[-38.29969,-11.83458],[-38.30002,-11.83539],[-38.30204,-11.83614],[-38.30343,-11.83601],[-38.3036,-11.83759],[-38.30427,-11.83846],[-38.30558,-11.83837],[-38.30666,-11.83871],[-38.31015,-11.83926],[-38.31158,-11.8392],[-38.31204,-11.84013],[-38.31057,-11.84094],[-38.30975,-11.84395],[-38.30896,-11.84426],[-38.30768,-11.84396],[-38.30608,-11.84486],[-38.30485,-11.84722],[-38.30357,-11.84893],[-38.30314,-11.85022],[-38.30189,-11.85246],[-38.30143,-11.85363],[-38.29984,-11.85435],[-38.29933,-11.85567],[-38.29953,-11.8563],[-38.30154,-11.85717],[-38.30051,-11.85965],[-38.29926,-11.86131],[-38.29801,-11.86234],[-38.29718,-11.86353],[-38.29574,-11.86273],[-38.29385,-11.86381],[-38.2938,-11.86509],[-38.2954,-11.86633],[-38.29572,-11.86754],[-38.29548,-11.86908],[-38.29737,-11.87119],[-38.29755,-11.87243],[-38.29566,-11.87262],[-38.29258,-11.87188],[-38.29103,-11.87112],[-38.28971,-11.87096],[-38.28845,-11.87047],[-38.28745,-11.87053],[-38.28628,-11.87002],[-38.28543,-11.86846],[-38.2856,-11.86629],[-38.28522,-11.86593],[-38.28249,-11.86613],[-38.28134,-11.86701],[-38.27981,-11.86724],[-38.27893,-11.8682],[-38.27827,-11.86757],[-38.27738,-11.86764],[-38.27642,-11.86673],[-38.27494,-11.86593],[-38.27401,-11.86672],[-38.27322,-11.86834],[-38.27273,-11.87075],[-38.27184,-11.87156],[-38.2686,-11.87291],[-38.2668,-11.87511],[-38.26645,-11.87592],[-38.26719,-11.87644],[-38.26718,-11.87844],[-38.26648,-11.87884],[-38.26662,-11.87989],[-38.26431,-11.88103],[-38.26315,-11.88138],[-38.26144,-11.88026],[-38.26113,-11.87897],[-38.26049,-11.87847],[-38.25988,-11.87639],[-38.25885,-11.87521],[-38.25814,-11.87494],[-38.25674,-11.87517],[-38.2542,-11.87448],[-38.25161,-11.87606],[-38.24992,-11.87614],[-38.24794,-11.87707],[-38.24495,-11.87623],[-38.24362,-11.87626],[-38.24068,-11.87684],[-38.239,-11.87792],[-38.23827,-11.87929],[-38.23737,-11.87882],[-38.23619,-11.88083],[-38.23511,-11.88104],[-38.23436,-11.88217],[-38.23307,-11.88223],[-38.23127,-11.88132],[-38.23047,-11.88124],[-38.22946,-11.8826],[-38.22865,-11.88257],[-38.22719,-11.88313],[-38.22633,-11.88381],[-38.22536,-11.88254],[-38.22264,-11.88359],[-38.22184,-11.88316],[-38.22125,-11.88384],[-38.22021,-11.88319],[-38.21934,-11.88445],[-38.21874,-11.88434],[-38.21776,-11.88564],[-38.21585,-11.88622],[-38.21453,-11.8873],[-38.21304,-11.88923],[-38.21184,-11.88942],[-38.21105,-11.8906],[-38.20896,-11.88956],[-38.20735,-11.88968],[-38.20655,-11.8904],[-38.20515,-11.89036],[-38.20402,-11.89069],[-38.20361,-11.89131],[-38.20229,-11.89203],[-38.20127,-11.89197],[-38.20082,-11.89126],[-38.2,-11.89179],[-38.19876,-11.89027],[-38.19623,-11.8905],[-38.19526,-11.89121],[-38.19413,-11.89076],[-38.19316,-11.89179],[-38.19266,-11.89161],[-38.19206,-11.89025],[-38.19275,-11.88869],[-38.19215,-11.88679],[-38.19178,-11.88664],[-38.19178,-11.88414],[-38.19137,-11.8815],[-38.19256,-11.88027],[-38.19292,-11.87846],[-38.19342,-11.87725],[-38.1933,-11.876],[-38.19424,-11.87408],[-38.19421,-11.87292],[-38.19461,-11.8715],[-38.19399,-11.87059],[-38.19404,-11.86923],[-38.19625,-11.86662],[-38.19628,-11.86589],[-38.19583,-11.85525],[-38.19581,-11.85128],[-38.19545,-11.84872],[-38.19526,-11.84544],[-38.1952,-11.84014],[-38.1951,-11.83935],[-38.19334,-11.83895],[-38.191,-11.83875],[-38.18575,-11.83798],[-38.18508,-11.83756],[-38.18691,-11.83527],[-38.18787,-11.8344],[-38.18796,-11.83352],[-38.18682,-11.83222],[-38.18634,-11.82918],[-38.18969,-11.82585],[-38.20021,-11.79163],[-38.18089,-11.78289],[-38.18002,-11.78227],[-38.17963,-11.7796],[-38.17996,-11.77881],[-38.17903,-11.77714],[-38.17819,-11.77615],[-38.17831,-11.77449],[-38.17776,-11.77257],[-38.17661,-11.77193],[-38.17618,-11.77105],[-38.17499,-11.77041],[-38.17417,-11.77035],[-38.17512,-11.76798],[-38.17438,-11.76618],[-38.17475,-11.7654],[-38.17421,-11.76424],[-38.17285,-11.76274],[-38.1729,-11.76085],[-38.17246,-11.75993],[-38.17353,-11.75772],[-38.17266,-11.75652],[-38.17262,-11.75573],[-38.17125,-11.75506],[-38.17111,-11.75381],[-38.1696,-11.75266],[-38.16895,-11.7516],[-38.1681,-11.75201],[-38.16593,-11.75184],[-38.16503,-11.7522],[-38.1639,-11.75161],[-38.16325,-11.7506],[-38.16172,-11.75006],[-38.16113,-11.74916],[-38.15955,-11.7479],[-38.15887,-11.74657],[-38.15879,-11.74549],[-38.1578,-11.74411],[-38.15716,-11.74196],[-38.15602,-11.74052],[-38.15377,-11.73835],[-38.15319,-11.73691],[-38.15388,-11.73532],[-38.1542,-11.73353],[-38.15408,-11.73236],[-38.15433,-11.73073],[-38.15412,-11.7295],[-38.15352,-11.72868],[-38.15345,-11.72639],[-38.15406,-11.72528],[-38.15447,-11.72325],[-38.15594,-11.72107],[-38.15657,-11.72072],[-38.15766,-11.71865],[-38.16745,-11.71034],[-38.17327,-11.70326],[-38.17532,-11.70175],[-38.21358,-11.66427],[-38.23566,-11.64135],[-38.24997,-11.62668]]]},"properties":{"codigo":"290190810","name":"Itamira","population":8942,"households":4248,"areaKm2":285.4937,"density":31.3}}]}