{"type":"FeatureCollection","features":[{"type":"Feature","geometry":{"type":"Polygon","coordinates":[[[-40.77936,-14.67521],[-40.77964,-14.67367],[-40.77842,-14.67284],[-40.77643,-14.67316],[-40.77541,-14.67307],[-40.77547,-14.67201],[-40.77471,-14.67054],[-40.77496,-14.66909],[-40.77633,-14.6683],[-40.77681,-14.66727],[-40.77578,-14.66623],[-40.77849,-14.66406],[-40.77881,-14.66308],[-40.77593,-14.65972],[-40.77574,-14.6585],[-40.7772,-14.65821],[-40.77735,-14.65659],[-40.77665,-14.65506],[-40.77627,-14.65285],[-40.77714,-14.64956],[-40.77686,-14.64826],[-40.77725,-14.64772],[-40.77899,-14.64676],[-40.77927,-14.64589],[-40.78133,-14.64504],[-40.78201,-14.64312],[-40.78406,-14.64239],[-40.78478,-14.64274],[-40.78619,-14.64269],[-40.78773,-14.64028],[-40.78923,-14.63889],[-40.78923,-14.63818],[-40.78829,-14.6369],[-40.78816,-14.63545],[-40.78958,-14.63441],[-40.79008,-14.6321],[-40.79096,-14.63049],[-40.79242,-14.62986],[-40.7939,-14.62995],[-40.79617,-14.62933],[-40.79598,-14.62878],[-40.79607,-14.62611],[-40.7964,-14.62543],[-40.79774,-14.62659],[-40.8007,-14.627],[-40.80182,-14.62656],[-40.80352,-14.62658],[-40.80444,-14.62793],[-40.80529,-14.62823],[-40.80742,-14.6283],[-40.8088,-14.62933],[-40.80943,-14.6304],[-40.81061,-14.63053],[-40.81097,-14.62972],[-40.81051,-14.62887],[-40.8111,-14.62723],[-40.81273,-14.62672],[-40.81514,-14.62673],[-40.81466,-14.624],[-40.81334,-14.62339],[-40.81271,-14.62208],[-40.81285,-14.62112],[-40.81408,-14.62118],[-40.8144,-14.62043],[-40.8136,-14.61902],[-40.81393,-14.61743],[-40.81501,-14.61809],[-40.81574,-14.61791],[-40.81766,-14.61552],[-40.81833,-14.61537],[-40.81896,-14.61641],[-40.81977,-14.6164],[-40.82138,-14.61548],[-40.82117,-14.61669],[-40.82158,-14.61821],[-40.82238,-14.61917],[-40.82485,-14.61855],[-40.82647,-14.61856],[-40.8275,-14.61805],[-40.8286,-14.61628],[-40.82984,-14.61575],[-40.83191,-14.61528],[-40.83241,-14.61654],[-40.83338,-14.61753],[-40.83447,-14.617],[-40.83466,-14.61559],[-40.83587,-14.61407],[-40.83522,-14.61326],[-40.83523,-14.61245],[-40.83665,-14.61144],[-40.83579,-14.61005],[-40.83474,-14.60973],[-40.83452,-14.60845],[-40.83595,-14.60874],[-40.83767,-14.60843],[-40.83791,-14.60726],[-40.83917,-14.60647],[-40.83889,-14.60498],[-40.83804,-14.60421],[-40.83743,-14.60304],[-40.83744,-14.60189],[-40.83694,-14.60148],[-40.83794,-14.60012],[-40.83882,-14.59986],[-40.83877,-14.59816],[-40.83752,-14.59789],[-40.83739,-14.5969],[-40.83881,-14.59633],[-40.83886,-14.59538],[-40.83838,-14.59378],[-40.83978,-14.59284],[-40.84205,-14.59295],[-40.84351,-14.59127],[-40.84317,-14.58987],[-40.84402,-14.58973],[-40.84516,-14.5858],[-40.84666,-14.58533],[-40.84769,-14.58411],[-40.84835,-14.58145],[-40.8481,-14.58063],[-40.84858,-14.57749],[-40.84948,-14.57692],[-40.84941,-14.5759],[-40.84988,-14.57437],[-40.8496,-14.57259],[-40.85091,-14.57299],[-40.85248,-14.57176],[-40.85316,-14.57166],[-40.85259,-14.57037],[-40.85167,-14.57071],[-40.85104,-14.57025],[-40.85124,-14.56927],[-40.84985,-14.56759],[-40.8517,-14.56633],[-40.85097,-14.56609],[-40.85124,-14.56511],[-40.85264,-14.56447],[-40.8527,-14.56352],[-40.85422,-14.56201],[-40.85462,-14.56077],[-40.85544,-14.55961],[-40.85559,-14.55799],[-40.85499,-14.55672],[-40.85343,-14.55592],[-40.85297,-14.55497],[-40.85369,-14.5544],[-40.85385,-14.55264],[-40.85483,-14.55027],[-40.85417,-14.54961],[-40.85398,-14.54844],[-40.85447,-14.54706],[-40.85692,-14.54428],[-40.85933,-14.54322],[-40.85956,-14.54264],[-40.86098,-14.54147],[-40.86347,-14.54099],[-40.86415,-14.5399],[-40.86391,-14.53925],[-40.86264,-14.53817],[-40.86259,-14.53729],[-40.86326,-14.53649],[-40.86537,-14.53638],[-40.86724,-14.53663],[-40.86815,-14.53624],[-40.86738,-14.53498],[-40.86601,-14.5344],[-40.86419,-14.53307],[-40.86523,-14.53255],[-40.86679,-14.53105],[-40.86756,-14.53194],[-40.86936,-14.52996],[-40.86874,-14.52871],[-40.86804,-14.52817],[-40.86805,-14.52728],[-40.87025,-14.52602],[-40.87183,-14.5255],[-40.87229,-14.52395],[-40.87223,-14.52258],[-40.87267,-14.52208],[-40.87061,-14.51968],[-40.87107,-14.5185],[-40.87194,-14.51794],[-40.8731,-14.51829],[-40.87448,-14.51723],[-40.87596,-14.51702],[-40.87631,-14.51605],[-40.87759,-14.51462],[-40.87844,-14.51237],[-40.87991,-14.51215],[-40.88221,-14.51142],[-40.8826,-14.50943],[-40.88411,-14.50706],[-40.88339,-14.50597],[-40.88486,-14.50487],[-40.88497,-14.50341],[-40.88386,-14.50271],[-40.88434,-14.50146],[-40.8844,-14.49979],[-40.8857,-14.49938],[-40.88563,-14.4979],[-40.88676,-14.49698],[-40.88706,-14.49537],[-40.88608,-14.49294],[-40.88639,-14.49254],[-40.8892,-14.49099],[-40.88928,-14.48933],[-40.89013,-14.48863],[-40.89163,-14.48476],[-40.8919,-14.48336],[-40.89085,-14.48192],[-40.89097,-14.48003],[-40.89155,-14.47785],[-40.89056,-14.4744],[-40.88921,-14.47312],[-40.88775,-14.47128],[-40.88783,-14.46956],[-40.88726,-14.46864],[-40.88639,-14.46829],[-40.88403,-14.46609],[-40.88287,-14.4648],[-40.8828,-14.46051],[-40.88199,-14.45831],[-40.88255,-14.45559],[-40.88464,-14.45465],[-40.8854,-14.45273],[-40.88539,-14.45186],[-40.88598,-14.45105],[-40.88525,-14.44926],[-40.88565,-14.44781],[-40.88434,-14.4475],[-40.88345,-14.44687],[-40.8815,-14.44617],[-40.8785,-14.44483],[-40.87766,-14.44344],[-40.87753,-14.44217],[-40.87899,-14.43898],[-40.87791,-14.43806],[-40.87661,-14.43784],[-40.87624,-14.43692],[-40.87754,-14.43609],[-40.87711,-14.43477],[-40.87812,-14.43377],[-40.87848,-14.43481],[-40.87966,-14.4348],[-40.88038,-14.43268],[-40.87848,-14.43222],[-40.8776,-14.42983],[-40.8793,-14.42942],[-40.88014,-14.42866],[-40.88033,-14.42773],[-40.87928,-14.42723],[-40.8795,-14.42573],[-40.8793,-14.42465],[-40.87797,-14.42382],[-40.87802,-14.4221],[-40.8778,-14.42094],[-40.87706,-14.42021],[-40.87642,-14.41875],[-40.87756,-14.41813],[-40.87864,-14.41861],[-40.87934,-14.4165],[-40.88026,-14.4167],[-40.88051,-14.41545],[-40.88159,-14.41433],[-40.88306,-14.4147],[-40.88399,-14.41449],[-40.88393,-14.41348],[-40.88293,-14.41231],[-40.88462,-14.40799],[-40.87917,-14.40711],[-40.87955,-14.4061],[-40.88243,-14.40294],[-40.88311,-14.40147],[-40.88315,-14.3987],[-40.97543,-14.41751],[-40.99,-14.42048],[-41.01885,-14.42637],[-41.09367,-14.44162],[-41.09326,-14.4428],[-41.09254,-14.44321],[-41.09086,-14.4433],[-41.08835,-14.44297],[-41.08704,-14.44309],[-41.08623,-14.44362],[-41.08285,-14.4467],[-41.08113,-14.44782],[-41.07929,-14.44854],[-41.0771,-14.44872],[-41.07615,-14.44928],[-41.07588,-14.45007],[-41.0758,-14.45319],[-41.07509,-14.45449],[-41.0714,-14.45782],[-41.06939,-14.46127],[-41.06882,-14.46331],[-41.06913,-14.46567],[-41.07035,-14.4672],[-41.07445,-14.46992],[-41.07559,-14.47043],[-41.07785,-14.47053],[-41.07861,-14.47163],[-41.07872,-14.47262],[-41.07816,-14.47465],[-41.07779,-14.47737],[-41.0778,-14.48193],[-41.07825,-14.48661],[-41.07873,-14.48757],[-41.0797,-14.48805],[-41.08332,-14.48756],[-41.09215,-14.48855],[-41.09308,-14.48912],[-41.09439,-14.49398],[-41.09467,-14.49639],[-41.09582,-14.49855],[-41.0973,-14.50021],[-41.09803,-14.50221],[-41.09835,-14.5046],[-41.099,-14.50561],[-41.10017,-14.50647],[-41.10152,-14.50799],[-41.10233,-14.51178],[-41.10268,-14.51226],[-41.10563,-14.51421],[-41.10638,-14.51525],[-41.10609,-14.51613],[-41.10306,-14.5202],[-41.10253,-14.52145],[-41.10232,-14.5231],[-41.10248,-14.52475],[-41.10322,-14.52715],[-41.1037,-14.52944],[-41.10433,-14.53087],[-41.10485,-14.53123],[-41.10697,-14.5317],[-41.10873,-14.53273],[-41.11135,-14.53583],[-41.11351,-14.5367],[-41.11567,-14.53659],[-41.11703,-14.53711],[-41.1174,-14.53766],[-41.11772,-14.53956],[-41.1177,-14.54262],[-41.11725,-14.54639],[-41.11745,-14.54834],[-41.11793,-14.54941],[-41.11942,-14.55158],[-41.12149,-14.5532],[-41.12444,-14.55387],[-41.12622,-14.5548],[-41.1263,-14.55574],[-41.12524,-14.55927],[-41.12507,-14.56097],[-41.12573,-14.5628],[-41.12723,-14.5641],[-41.12739,-14.56573],[-41.12649,-14.56717],[-41.12454,-14.56926],[-41.12358,-14.57082],[-41.12375,-14.57285],[-41.12523,-14.5751],[-41.1269,-14.57704],[-41.12807,-14.57736],[-41.13129,-14.57698],[-41.13323,-14.57744],[-41.13718,-14.58029],[-41.14063,-14.58234],[-41.14253,-14.58446],[-41.14308,-14.58547],[-41.14351,-14.58727],[-41.14298,-14.59035],[-41.1412,-14.59452],[-41.14065,-14.59534],[-41.13917,-14.5962],[-41.13615,-14.59641],[-41.13512,-14.59702],[-41.13358,-14.60063],[-41.13273,-14.60224],[-41.13085,-14.60513],[-41.1308,-14.60641],[-41.13181,-14.60764],[-41.13804,-14.6096],[-41.13998,-14.60997],[-41.14171,-14.61],[-41.14518,-14.60962],[-41.14711,-14.6101],[-41.14774,-14.61079],[-41.1493,-14.61158],[-41.15149,-14.61221],[-41.15353,-14.61313],[-41.15627,-14.61341],[-41.15923,-14.61444],[-41.16025,-14.61427],[-41.16163,-14.61349],[-41.16313,-14.61157],[-41.16445,-14.60889],[-41.16562,-14.60732],[-41.16784,-14.60645],[-41.1707,-14.60628],[-41.17169,-14.60655],[-41.1732,-14.60799],[-41.17414,-14.61217],[-41.17491,-14.61292],[-41.17663,-14.61345],[-41.17968,-14.61365],[-41.18243,-14.61406],[-41.18304,-14.6147],[-41.18421,-14.61714],[-41.18495,-14.61802],[-41.18709,-14.61881],[-41.18779,-14.61964],[-41.18749,-14.62119],[-41.18554,-14.62257],[-41.18518,-14.62426],[-41.1861,-14.62579],[-41.19207,-14.63138],[-41.19294,-14.63277],[-41.19354,-14.63734],[-41.19397,-14.63873],[-41.19407,-14.64032],[-41.19409,-14.64177],[-41.19305,-14.64584],[-41.19215,-14.64712],[-41.19184,-14.64877],[-41.19208,-14.64982],[-41.19369,-14.65091],[-41.19677,-14.65105],[-41.19859,-14.6521],[-41.20013,-14.65365],[-41.20178,-14.65567],[-41.2027,-14.65717],[-41.20227,-14.66029],[-41.20258,-14.66123],[-41.2049,-14.6634],[-41.20661,-14.66448],[-41.20943,-14.6645],[-41.21124,-14.66528],[-41.2149,-14.66751],[-41.2182,-14.66865],[-41.21843,-14.6716],[-41.21925,-14.6736],[-41.22106,-14.67581],[-41.22308,-14.6776],[-41.22428,-14.6801],[-41.22461,-14.68186],[-41.22509,-14.68286],[-41.2262,-14.68401],[-41.22958,-14.68573],[-41.22888,-14.68729],[-41.2255,-14.68809],[-41.22427,-14.68886],[-41.22204,-14.69154],[-41.21957,-14.69377],[-41.2189,-14.6951],[-41.21866,-14.69684],[-41.21899,-14.69912],[-41.22054,-14.70126],[-41.22436,-14.70313],[-41.22715,-14.70524],[-41.22722,-14.70661],[-41.22517,-14.70942],[-41.22348,-14.71087],[-41.22237,-14.71144],[-41.22055,-14.71087],[-41.2172,-14.71171],[-41.21579,-14.71259],[-41.21516,-14.7148],[-41.21355,-14.71539],[-41.21234,-14.71617],[-41.20901,-14.71701],[-41.20796,-14.71794],[-41.20647,-14.7209],[-41.20445,-14.71902],[-41.20248,-14.71848],[-41.20106,-14.71764],[-41.20031,-14.71787],[-41.19965,-14.71973],[-41.19745,-14.72263],[-41.19681,-14.72295],[-41.19378,-14.72356],[-41.19257,-14.72401],[-41.19312,-14.72483],[-41.19435,-14.725],[-41.19652,-14.7258],[-41.19835,-14.72584],[-41.19891,-14.72827],[-41.19942,-14.72879],[-41.2013,-14.72879],[-41.20195,-14.72925],[-41.20131,-14.73018],[-41.20033,-14.73039],[-41.19958,-14.73129],[-41.20028,-14.7337],[-41.19974,-14.7348],[-41.19909,-14.73469],[-41.19797,-14.73336],[-41.19729,-14.73304],[-41.1953,-14.73355],[-41.19318,-14.73316],[-41.19249,-14.73395],[-41.19219,-14.73546],[-41.19116,-14.73599],[-41.18923,-14.73453],[-41.1871,-14.73491],[-41.18461,-14.73701],[-41.18273,-14.73738],[-41.18039,-14.7368],[-41.17879,-14.73676],[-41.17714,-14.73729],[-41.1767,-14.73864],[-41.17758,-14.73915],[-41.17972,-14.73981],[-41.18026,-14.74079],[-41.18044,-14.74215],[-41.18189,-14.74373],[-41.18218,-14.74449],[-41.1814,-14.74827],[-41.18092,-14.74836],[-41.17941,-14.74638],[-41.17777,-14.74571],[-41.17592,-14.74627],[-41.17388,-14.74489],[-41.17291,-14.74599],[-41.16945,-14.74709],[-41.16708,-14.74862],[-41.16605,-14.74986],[-41.1659,-14.75295],[-41.16423,-14.75438],[-41.16452,-14.7552],[-41.16666,-14.75518],[-41.16812,-14.75609],[-41.16866,-14.75882],[-41.16832,-14.75989],[-41.16618,-14.76098],[-41.16524,-14.76175],[-41.16484,-14.7626],[-41.16516,-14.76537],[-41.16623,-14.76967],[-41.16549,-14.77028],[-41.16374,-14.76955],[-41.16177,-14.76927],[-41.16031,-14.76956],[-41.1597,-14.77028],[-41.16015,-14.77128],[-41.16198,-14.77282],[-41.16259,-14.77396],[-41.16312,-14.77796],[-41.16369,-14.7792],[-41.16627,-14.78229],[-41.16636,-14.78308],[-41.16543,-14.7855],[-41.16566,-14.78803],[-41.16444,-14.78868],[-41.16252,-14.78831],[-41.16177,-14.78919],[-41.16162,-14.79048],[-41.16211,-14.79168],[-41.16145,-14.79361],[-41.16193,-14.79403],[-41.16344,-14.79374],[-41.16498,-14.79225],[-41.16576,-14.792],[-41.1663,-14.79295],[-41.16651,-14.79428],[-41.16635,-14.79587],[-41.16479,-14.79733],[-41.16628,-14.79841],[-41.16617,-14.79947],[-41.16501,-14.79976],[-41.16524,-14.80083],[-41.16674,-14.8018],[-41.16858,-14.80238],[-41.16969,-14.80428],[-41.16936,-14.80538],[-41.16708,-14.80554],[-41.16678,-14.80592],[-41.16663,-14.80781],[-41.16627,-14.8085],[-41.16454,-14.81038],[-41.16392,-14.81224],[-41.16391,-14.81396],[-41.16574,-14.81562],[-41.16646,-14.81661],[-41.16749,-14.8164],[-41.16836,-14.81712],[-41.16838,-14.81799],[-41.16748,-14.81878],[-41.16578,-14.81907],[-41.16505,-14.82196],[-41.16522,-14.82333],[-41.1647,-14.82447],[-41.16281,-14.82474],[-41.16212,-14.82553],[-41.16227,-14.82653],[-41.1638,-14.82851],[-41.1649,-14.82915],[-41.16706,-14.82933],[-41.16774,-14.83027],[-41.171,-14.83003],[-41.17161,-14.83044],[-41.17203,-14.83229],[-41.17265,-14.83251],[-41.1741,-14.83182],[-41.17479,-14.83187],[-41.17571,-14.83291],[-41.17593,-14.83381],[-41.17434,-14.83636],[-41.17493,-14.83833],[-41.17592,-14.84039],[-41.17594,-14.84276],[-41.17746,-14.84446],[-41.1769,-14.84552],[-41.17585,-14.84567],[-41.1731,-14.8455],[-41.17238,-14.84585],[-41.17136,-14.84743],[-41.17143,-14.84813],[-41.17257,-14.84906],[-41.17269,-14.84977],[-41.17223,-14.85158],[-41.17148,-14.85292],[-41.17152,-14.85372],[-41.15911,-14.84986],[-41.10837,-14.83399],[-41.07264,-14.82281],[-41.07262,-14.82284],[-41.06009,-14.81889],[-41.04367,-14.81376],[-40.98227,-14.79457],[-40.96366,-14.78874],[-40.9615,-14.73818],[-40.95968,-14.69553],[-40.95877,-14.67429],[-40.95472,-14.6743],[-40.85702,-14.67482],[-40.80263,-14.67511],[-40.77936,-14.67521]]]},"properties":{"codigo":"290120505","name":"Anagé","population":18782,"households":9067,"areaKm2":1239.6188,"density":15.2}},{"type":"Feature","geometry":{"type":"Polygon","coordinates":[[[-40.77936,-14.67521],[-40.74875,-14.67538],[-40.72433,-14.67457],[-40.68098,-14.67313],[-40.64789,-14.67203],[-40.61462,-14.67092],[-40.61838,-14.66367],[-40.61974,-14.66443],[-40.62103,-14.66454],[-40.62372,-14.66392],[-40.62664,-14.66207],[-40.63186,-14.65971],[-40.63315,-14.65887],[-40.63355,-14.65724],[-40.63332,-14.65623],[-40.63349,-14.65483],[-40.63467,-14.65286],[-40.63619,-14.64893],[-40.63506,-14.64573],[-40.63518,-14.64456],[-40.63675,-14.64248],[-40.63798,-14.64006],[-40.63871,-14.63788],[-40.63871,-14.63518],[-40.63837,-14.63327],[-40.63658,-14.62906],[-40.63579,-14.62614],[-40.63579,-14.62334],[-40.63798,-14.62025],[-40.63826,-14.61738],[-40.6377,-14.61441],[-40.63826,-14.61228],[-40.63916,-14.6102],[-40.64034,-14.60891],[-40.64124,-14.6084],[-40.63922,-14.60621],[-40.63832,-14.60498],[-40.63731,-14.60273],[-40.63692,-14.60105],[-40.63692,-14.59908],[-40.63742,-14.59723],[-40.63933,-14.59381],[-40.64017,-14.59117],[-40.64017,-14.5887],[-40.63933,-14.58488],[-40.63882,-14.58353],[-40.63759,-14.58207],[-40.6368,-14.57983],[-40.6368,-14.57837],[-40.63787,-14.57483],[-40.63849,-14.57337],[-40.64,-14.5727],[-40.6409,-14.57186],[-40.64236,-14.56838],[-40.64303,-14.5672],[-40.64469,-14.5633],[-40.64528,-14.56142],[-40.64573,-14.559],[-40.64781,-14.5549],[-40.6482,-14.5535],[-40.6482,-14.55193],[-40.6471,-14.54947],[-40.6471,-14.54786],[-40.64676,-14.54698],[-40.64723,-14.54508],[-40.64838,-14.54219],[-40.6473,-14.5392],[-40.64741,-14.53829],[-40.64886,-14.53657],[-40.6508,-14.53595],[-40.65099,-14.53416],[-40.65002,-14.53209],[-40.64955,-14.52982],[-40.64854,-14.52883],[-40.64688,-14.52374],[-40.64727,-14.52146],[-40.64916,-14.5187],[-40.65108,-14.51369],[-40.65342,-14.51147],[-40.65854,-14.50748],[-40.65995,-14.50579],[-40.66183,-14.50193],[-40.66352,-14.49971],[-40.6655,-14.49819],[-40.66742,-14.49785],[-40.67111,-14.49358],[-40.67375,-14.49136],[-40.6746,-14.48972],[-40.67629,-14.4871],[-40.67667,-14.48557],[-40.67588,-14.48467],[-40.67372,-14.48281],[-40.67374,-14.48144],[-40.67448,-14.47958],[-40.67555,-14.47836],[-40.67715,-14.47767],[-40.67805,-14.47592],[-40.67738,-14.47421],[-40.67707,-14.47101],[-40.6762,-14.4693],[-40.67365,-14.46905],[-40.67077,-14.46901],[-40.66896,-14.46844],[-40.66791,-14.46774],[-40.66706,-14.46663],[-40.66221,-14.46432],[-40.65996,-14.46296],[-40.66038,-14.46272],[-40.6609,-14.46047],[-40.6628,-14.46034],[-40.66387,-14.45992],[-40.66574,-14.45965],[-40.66681,-14.4592],[-40.66973,-14.45889],[-40.67066,-14.45859],[-40.67101,-14.45788],[-40.67178,-14.45484],[-40.67333,-14.45246],[-40.67406,-14.44924],[-40.67495,-14.44844],[-40.67696,-14.44773],[-40.67734,-14.44685],[-40.67849,-14.4462],[-40.67944,-14.44476],[-40.68093,-14.44341],[-40.68234,-14.44261],[-40.68335,-14.44258],[-40.68462,-14.44356],[-40.68564,-14.44536],[-40.68533,-14.44798],[-40.68525,-14.45009],[-40.68588,-14.45103],[-40.68647,-14.45294],[-40.6877,-14.45264],[-40.68857,-14.45153],[-40.69025,-14.45172],[-40.69172,-14.45147],[-40.6929,-14.4517],[-40.69409,-14.45111],[-40.69378,-14.44935],[-40.69569,-14.44886],[-40.69748,-14.44771],[-40.69913,-14.44764],[-40.69979,-14.44696],[-40.70152,-14.44635],[-40.70309,-14.44722],[-40.70367,-14.44616],[-40.70307,-14.44487],[-40.70473,-14.4442],[-40.70511,-14.44265],[-40.71005,-14.43538],[-40.71212,-14.43342],[-40.71386,-14.43298],[-40.71401,-14.43225],[-40.71621,-14.43089],[-40.71657,-14.42964],[-40.71809,-14.42963],[-40.71996,-14.42921],[-40.72019,-14.42813],[-40.71855,-14.42839],[-40.71886,-14.42682],[-40.72048,-14.42651],[-40.72094,-14.4259],[-40.71984,-14.42426],[-40.72015,-14.42351],[-40.72128,-14.42325],[-40.72162,-14.42211],[-40.72227,-14.42181],[-40.72201,-14.4207],[-40.72104,-14.41962],[-40.72168,-14.41825],[-40.72327,-14.41826],[-40.72408,-14.4173],[-40.72253,-14.416],[-40.72243,-14.41506],[-40.72296,-14.41415],[-40.72422,-14.414],[-40.72389,-14.4128],[-40.72404,-14.4118],[-40.72509,-14.41153],[-40.72548,-14.41062],[-40.72423,-14.40867],[-40.72408,-14.40796],[-40.72501,-14.4073],[-40.72453,-14.40582],[-40.72574,-14.40491],[-40.72692,-14.40251],[-40.72659,-14.40204],[-40.72539,-14.40195],[-40.72405,-14.40074],[-40.72355,-14.39941],[-40.72349,-14.39725],[-40.72443,-14.39554],[-40.72616,-14.39474],[-40.72741,-14.39223],[-40.72817,-14.39108],[-40.72878,-14.39117],[-40.72925,-14.39276],[-40.73038,-14.3938],[-40.73185,-14.39285],[-40.73458,-14.39022],[-40.736,-14.38984],[-40.73667,-14.39126],[-40.7385,-14.39257],[-40.74046,-14.39285],[-40.74172,-14.39248],[-40.74255,-14.39128],[-40.74106,-14.38925],[-40.74146,-14.38782],[-40.74231,-14.38704],[-40.74369,-14.38789],[-40.74342,-14.38603],[-40.74248,-14.38569],[-40.74082,-14.38565],[-40.73946,-14.3852],[-40.73772,-14.38521],[-40.73642,-14.38468],[-40.73549,-14.38319],[-40.73457,-14.38251],[-40.73284,-14.38228],[-40.7305,-14.38078],[-40.7292,-14.38076],[-40.72826,-14.38131],[-40.72624,-14.38114],[-40.72481,-14.38163],[-40.72398,-14.3814],[-40.72157,-14.38283],[-40.72084,-14.38418],[-40.72002,-14.38427],[-40.71753,-14.38291],[-40.71651,-14.38123],[-40.71645,-14.37936],[-40.71609,-14.37834],[-40.71261,-14.37457],[-40.71157,-14.37374],[-40.70687,-14.37082],[-40.70639,-14.3695],[-40.70634,-14.3664],[-40.70691,-14.36395],[-40.70664,-14.36271],[-40.74701,-14.37097],[-40.77575,-14.3768],[-40.81174,-14.38413],[-40.84188,-14.39028],[-40.88315,-14.3987],[-40.88311,-14.40147],[-40.88243,-14.40294],[-40.87955,-14.4061],[-40.87917,-14.40711],[-40.88462,-14.40799],[-40.88293,-14.41231],[-40.88393,-14.41348],[-40.88399,-14.41449],[-40.88306,-14.4147],[-40.88159,-14.41433],[-40.88051,-14.41545],[-40.88026,-14.4167],[-40.87934,-14.4165],[-40.87864,-14.41861],[-40.87756,-14.41813],[-40.87642,-14.41875],[-40.87706,-14.42021],[-40.8778,-14.42094],[-40.87802,-14.4221],[-40.87797,-14.42382],[-40.8793,-14.42465],[-40.8795,-14.42573],[-40.87928,-14.42723],[-40.88033,-14.42773],[-40.88014,-14.42866],[-40.8793,-14.42942],[-40.8776,-14.42983],[-40.87848,-14.43222],[-40.88038,-14.43268],[-40.87966,-14.4348],[-40.87848,-14.43481],[-40.87812,-14.43377],[-40.87711,-14.43477],[-40.87754,-14.43609],[-40.87624,-14.43692],[-40.87661,-14.43784],[-40.87791,-14.43806],[-40.87899,-14.43898],[-40.87753,-14.44217],[-40.87766,-14.44344],[-40.8785,-14.44483],[-40.8815,-14.44617],[-40.88345,-14.44687],[-40.88434,-14.4475],[-40.88565,-14.44781],[-40.88525,-14.44926],[-40.88598,-14.45105],[-40.88539,-14.45186],[-40.8854,-14.45273],[-40.88464,-14.45465],[-40.88255,-14.45559],[-40.88199,-14.45831],[-40.8828,-14.46051],[-40.88287,-14.4648],[-40.88403,-14.46609],[-40.88639,-14.46829],[-40.88726,-14.46864],[-40.88783,-14.46956],[-40.88775,-14.47128],[-40.88921,-14.47312],[-40.89056,-14.4744],[-40.89155,-14.47785],[-40.89097,-14.48003],[-40.89085,-14.48192],[-40.8919,-14.48336],[-40.89163,-14.48476],[-40.89013,-14.48863],[-40.88928,-14.48933],[-40.8892,-14.49099],[-40.88639,-14.49254],[-40.88608,-14.49294],[-40.88706,-14.49537],[-40.88676,-14.49698],[-40.88563,-14.4979],[-40.8857,-14.49938],[-40.8844,-14.49979],[-40.88434,-14.50146],[-40.88386,-14.50271],[-40.88497,-14.50341],[-40.88486,-14.50487],[-40.88339,-14.50597],[-40.88411,-14.50706],[-40.8826,-14.50943],[-40.88221,-14.51142],[-40.87991,-14.51215],[-40.87844,-14.51237],[-40.87759,-14.51462],[-40.87631,-14.51605],[-40.87596,-14.51702],[-40.87448,-14.51723],[-40.8731,-14.51829],[-40.87194,-14.51794],[-40.87107,-14.5185],[-40.87061,-14.51968],[-40.87267,-14.52208],[-40.87223,-14.52258],[-40.87229,-14.52395],[-40.87183,-14.5255],[-40.87025,-14.52602],[-40.86805,-14.52728],[-40.86804,-14.52817],[-40.86874,-14.52871],[-40.86936,-14.52996],[-40.86756,-14.53194],[-40.86679,-14.53105],[-40.86523,-14.53255],[-40.86419,-14.53307],[-40.86601,-14.5344],[-40.86738,-14.53498],[-40.86815,-14.53624],[-40.86724,-14.53663],[-40.86537,-14.53638],[-40.86326,-14.53649],[-40.86259,-14.53729],[-40.86264,-14.53817],[-40.86391,-14.53925],[-40.86415,-14.5399],[-40.86347,-14.54099],[-40.86098,-14.54147],[-40.85956,-14.54264],[-40.85933,-14.54322],[-40.85692,-14.54428],[-40.85447,-14.54706],[-40.85398,-14.54844],[-40.85417,-14.54961],[-40.85483,-14.55027],[-40.85385,-14.55264],[-40.85369,-14.5544],[-40.85297,-14.55497],[-40.85343,-14.55592],[-40.85499,-14.55672],[-40.85559,-14.55799],[-40.85544,-14.55961],[-40.85462,-14.56077],[-40.85422,-14.56201],[-40.8527,-14.56352],[-40.85264,-14.56447],[-40.85124,-14.56511],[-40.85097,-14.56609],[-40.8517,-14.56633],[-40.84985,-14.56759],[-40.85124,-14.56927],[-40.85104,-14.57025],[-40.85167,-14.57071],[-40.85259,-14.57037],[-40.85316,-14.57166],[-40.85248,-14.57176],[-40.85091,-14.57299],[-40.8496,-14.57259],[-40.84988,-14.57437],[-40.84941,-14.5759],[-40.84948,-14.57692],[-40.84858,-14.57749],[-40.8481,-14.58063],[-40.84835,-14.58145],[-40.84769,-14.58411],[-40.84666,-14.58533],[-40.84516,-14.5858],[-40.84402,-14.58973],[-40.84317,-14.58987],[-40.84351,-14.59127],[-40.84205,-14.59295],[-40.83978,-14.59284],[-40.83838,-14.59378],[-40.83886,-14.59538],[-40.83881,-14.59633],[-40.83739,-14.5969],[-40.83752,-14.59789],[-40.83877,-14.59816],[-40.83882,-14.59986],[-40.83794,-14.60012],[-40.83694,-14.60148],[-40.83744,-14.60189],[-40.83743,-14.60304],[-40.83804,-14.60421],[-40.83889,-14.60498],[-40.83917,-14.60647],[-40.83791,-14.60726],[-40.83767,-14.60843],[-40.83595,-14.60874],[-40.83452,-14.60845],[-40.83474,-14.60973],[-40.83579,-14.61005],[-40.83665,-14.61144],[-40.83523,-14.61245],[-40.83522,-14.61326],[-40.83587,-14.61407],[-40.83466,-14.61559],[-40.83447,-14.617],[-40.83338,-14.61753],[-40.83241,-14.61654],[-40.83191,-14.61528],[-40.82984,-14.61575],[-40.8286,-14.61628],[-40.8275,-14.61805],[-40.82647,-14.61856],[-40.82485,-14.61855],[-40.82238,-14.61917],[-40.82158,-14.61821],[-40.82117,-14.61669],[-40.82138,-14.61548],[-40.81977,-14.6164],[-40.81896,-14.61641],[-40.81833,-14.61537],[-40.81766,-14.61552],[-40.81574,-14.61791],[-40.81501,-14.61809],[-40.81393,-14.61743],[-40.8136,-14.61902],[-40.8144,-14.62043],[-40.81408,-14.62118],[-40.81285,-14.62112],[-40.81271,-14.62208],[-40.81334,-14.62339],[-40.81466,-14.624],[-40.81514,-14.62673],[-40.81273,-14.62672],[-40.8111,-14.62723],[-40.81051,-14.62887],[-40.81097,-14.62972],[-40.81061,-14.63053],[-40.80943,-14.6304],[-40.8088,-14.62933],[-40.80742,-14.6283],[-40.80529,-14.62823],[-40.80444,-14.62793],[-40.80352,-14.62658],[-40.80182,-14.62656],[-40.8007,-14.627],[-40.79774,-14.62659],[-40.7964,-14.62543],[-40.79607,-14.62611],[-40.79598,-14.62878],[-40.79617,-14.62933],[-40.7939,-14.62995],[-40.79242,-14.62986],[-40.79096,-14.63049],[-40.79008,-14.6321],[-40.78958,-14.63441],[-40.78816,-14.63545],[-40.78829,-14.6369],[-40.78923,-14.63818],[-40.78923,-14.63889],[-40.78773,-14.64028],[-40.78619,-14.64269],[-40.78478,-14.64274],[-40.78406,-14.64239],[-40.78201,-14.64312],[-40.78133,-14.64504],[-40.77927,-14.64589],[-40.77899,-14.64676],[-40.77725,-14.64772],[-40.77686,-14.64826],[-40.77714,-14.64956],[-40.77627,-14.65285],[-40.77665,-14.65506],[-40.77735,-14.65659],[-40.7772,-14.65821],[-40.77574,-14.6585],[-40.77593,-14.65972],[-40.77881,-14.66308],[-40.77849,-14.66406],[-40.77578,-14.66623],[-40.77681,-14.66727],[-40.77633,-14.6683],[-40.77496,-14.66909],[-40.77471,-14.67054],[-40.77547,-14.67201],[-40.77541,-14.67307],[-40.77643,-14.67316],[-40.77842,-14.67284],[-40.77964,-14.67367],[-40.77936,-14.67521]]]},"properties":{"codigo":"290120510","name":"Coquinhos","population":6656,"households":3638,"areaKm2":660.0644,"density":10.1}}]}