{"type":"FeatureCollection","features":[{"type":"Feature","geometry":{"type":"Polygon","coordinates":[[[-39.75236,-10.43933],[-39.75153,-10.43874],[-39.74872,-10.43894],[-39.7462,-10.43837],[-39.74513,-10.4379],[-39.74436,-10.43642],[-39.74289,-10.4342],[-39.74176,-10.43151],[-39.7397,-10.42954],[-39.73914,-10.42851],[-39.73904,-10.42537],[-39.73843,-10.4232],[-39.73893,-10.42173],[-39.73921,-10.41996],[-39.73922,-10.41799],[-39.73831,-10.41609],[-39.73497,-10.41488],[-39.73291,-10.4129],[-39.73199,-10.41096],[-39.73133,-10.41011],[-39.7315,-10.40873],[-39.73207,-10.40769],[-39.73161,-10.40579],[-39.73321,-10.40401],[-39.7335,-10.40199],[-39.73409,-10.40115],[-39.7335,-10.39997],[-39.73552,-10.3977],[-39.73595,-10.39679],[-39.73619,-10.39362],[-39.73686,-10.39206],[-39.73638,-10.39009],[-39.73534,-10.38895],[-39.73522,-10.38569],[-39.73618,-10.38152],[-39.73631,-10.3791],[-39.73745,-10.37631],[-39.73686,-10.37397],[-39.73579,-10.37131],[-39.73575,-10.37049],[-39.73683,-10.36927],[-39.73722,-10.36796],[-39.73721,-10.36647],[-39.73869,-10.3652],[-39.73931,-10.36337],[-39.73903,-10.36081],[-39.73788,-10.35988],[-39.73748,-10.35894],[-39.73806,-10.35809],[-39.73785,-10.3568],[-39.73805,-10.3558],[-39.739,-10.35511],[-39.73957,-10.35397],[-39.73906,-10.35296],[-39.73891,-10.35168],[-39.73932,-10.34905],[-39.73733,-10.34709],[-39.73772,-10.34498],[-39.73781,-10.34315],[-39.73719,-10.34178],[-39.73605,-10.34051],[-39.73549,-10.33831],[-39.73534,-10.33688],[-39.73292,-10.33625],[-39.7313,-10.33646],[-39.72889,-10.33613],[-39.72725,-10.3361],[-39.72408,-10.33486],[-39.723,-10.33403],[-39.72287,-10.33274],[-39.7219,-10.33111],[-39.72202,-10.32942],[-39.72135,-10.3285],[-39.72007,-10.32789],[-39.71987,-10.32598],[-39.72,-10.32454],[-39.7195,-10.32268],[-39.71839,-10.32137],[-39.71679,-10.32038],[-39.716,-10.32092],[-39.71397,-10.31909],[-39.71385,-10.31757],[-39.7154,-10.31484],[-39.71562,-10.31288],[-39.71378,-10.30938],[-39.71665,-10.27795],[-39.71722,-10.27679],[-39.71793,-10.27631],[-39.71842,-10.27432],[-39.72007,-10.27265],[-39.71991,-10.27124],[-39.72127,-10.27055],[-39.72035,-10.26942],[-39.72056,-10.26853],[-39.72171,-10.267],[-39.74425,-10.24278],[-39.74257,-10.23961],[-39.7412,-10.23852],[-39.73994,-10.23416],[-39.73786,-10.23004],[-39.73742,-10.22883],[-39.73637,-10.22156],[-39.73435,-10.20691],[-39.73445,-10.20611],[-39.73625,-10.19929],[-39.73627,-10.19811],[-39.73433,-10.18396],[-39.73394,-10.18269],[-39.73264,-10.17998],[-39.73237,-10.17899],[-39.7316,-10.17284],[-39.73147,-10.1599],[-39.73124,-10.15766],[-39.73037,-10.15531],[-39.73006,-10.14464],[-39.72986,-10.1437],[-39.73002,-10.14131],[-39.72921,-10.1203],[-39.72901,-10.11666],[-39.72866,-10.1156],[-39.73141,-10.11508],[-39.73254,-10.11437],[-39.73353,-10.11277],[-39.73372,-10.11147],[-39.73477,-10.10738],[-39.73475,-10.10551],[-39.73524,-10.10154],[-39.73501,-10.10024],[-39.73586,-10.09807],[-39.73503,-10.09459],[-39.73442,-10.09315],[-39.73471,-10.09125],[-39.7343,-10.08922],[-39.73532,-10.08842],[-39.74037,-10.08698],[-39.74167,-10.08637],[-39.74336,-10.08478],[-39.74544,-10.0824],[-39.74685,-10.08128],[-39.74903,-10.08019],[-39.75169,-10.07726],[-39.7526,-10.07661],[-39.75562,-10.07555],[-39.7574,-10.07439],[-39.75821,-10.07359],[-39.7579,-10.07209],[-39.7582,-10.07089],[-39.7599,-10.0658],[-39.75912,-10.06247],[-39.75658,-10.0569],[-39.75662,-10.05522],[-39.75751,-10.05411],[-39.7586,-10.05331],[-39.76013,-10.05022],[-39.76048,-10.0492],[-39.76223,-10.04218],[-39.76404,-10.04154],[-39.76504,-10.0409],[-39.76518,-10.04004],[-39.7649,-10.03754],[-39.76554,-10.03205],[-39.76511,-10.03062],[-39.76297,-10.02698],[-39.76219,-10.0217],[-39.76204,-10.0152],[-39.76276,-10.01435],[-39.76383,-10.01135],[-39.76497,-10.01006],[-39.76625,-10.00935],[-39.76761,-10.00806],[-39.76797,-10.00671],[-39.76782,-10.00571],[-39.7684,-10.00421],[-39.76904,-10.001],[-39.76847,-9.99878],[-39.76734,-9.99711],[-39.76391,-9.9962],[-39.761,-9.9942],[-39.76014,-9.99323],[-39.7598,-9.99174],[-39.75997,-9.98786],[-39.76032,-9.98449],[-39.76083,-9.98198],[-39.76243,-9.98021],[-39.76494,-9.97815],[-39.76546,-9.97621],[-39.76603,-9.97318],[-39.76711,-9.97027],[-39.77147,-9.96812],[-39.7741,-9.96597],[-39.77643,-9.96288],[-39.77762,-9.95934],[-39.77922,-9.95934],[-39.78041,-9.95858],[-39.78069,-9.95786],[-39.78079,-9.95329],[-39.78097,-9.95219],[-39.78129,-9.94793],[-39.7822,-9.94502],[-39.78333,-9.94307],[-39.78367,-9.94201],[-39.78474,-9.94179],[-39.7863,-9.94267],[-39.78721,-9.9427],[-39.78787,-9.94185],[-39.78859,-9.93941],[-39.78915,-9.93891],[-39.79047,-9.93944],[-39.79285,-9.93909],[-39.79385,-9.93916],[-39.79451,-9.93988],[-39.79476,-9.94091],[-39.79592,-9.94169],[-39.79718,-9.94194],[-39.7984,-9.94279],[-39.79968,-9.94414],[-39.80103,-9.94495],[-39.80203,-9.94455],[-39.80373,-9.94143],[-39.80537,-9.94],[-39.80741,-9.93984],[-39.80844,-9.94029],[-39.8103,-9.94182],[-39.81208,-9.94373],[-39.81218,-9.94435],[-39.8111,-9.94706],[-39.80925,-9.94735],[-39.80775,-9.94849],[-39.80751,-9.951],[-39.80621,-9.95272],[-39.80421,-9.95598],[-39.80256,-9.95708],[-39.80168,-9.95975],[-39.80099,-9.96231],[-39.79977,-9.96534],[-39.79938,-9.96671],[-39.79957,-9.96883],[-39.80008,-9.96997],[-39.80036,-9.97158],[-39.80024,-9.97304],[-39.79906,-9.97567],[-39.79812,-9.97869],[-39.79819,-9.97951],[-39.79946,-9.97948],[-39.80107,-9.97787],[-39.8024,-9.977],[-39.80429,-9.97677],[-39.80649,-9.97799],[-39.80802,-9.98007],[-39.81085,-9.98211],[-39.81171,-9.98415],[-39.81034,-9.98702],[-39.8103,-9.98804],[-39.81109,-9.99081],[-39.81038,-9.99574],[-39.80951,-9.99767],[-39.80735,-9.99956],[-39.80723,-10.00105],[-39.80904,-10.00207],[-39.81164,-10.00521],[-39.81266,-10.00549],[-39.81615,-10.00513],[-39.81702,-10.00561],[-39.82173,-10.00694],[-39.8226,-10.00765],[-39.82366,-10.00957],[-39.82499,-10.00971],[-39.82654,-10.01096],[-39.82641,-10.01327],[-39.82565,-10.01532],[-39.82596,-10.01734],[-39.82649,-10.01866],[-39.8267,-10.02126],[-39.82838,-10.02357],[-39.82873,-10.02471],[-39.82809,-10.0297],[-39.8277,-10.03109],[-39.82763,-10.03366],[-39.82733,-10.0355],[-39.82814,-10.03704],[-39.831,-10.03939],[-39.83416,-10.04078],[-39.8368,-10.04218],[-39.839,-10.04364],[-39.84084,-10.04548],[-39.84201,-10.04746],[-39.84362,-10.05245],[-39.84362,-10.05458],[-39.8434,-10.05733],[-39.84224,-10.05796],[-39.83917,-10.05754],[-39.83822,-10.05817],[-39.8379,-10.05923],[-39.83822,-10.06516],[-39.83822,-10.07076],[-39.83853,-10.07383],[-39.83927,-10.0751],[-39.84097,-10.07584],[-39.84298,-10.07605],[-39.84721,-10.07722],[-39.84805,-10.07827],[-39.84805,-10.08071],[-39.84964,-10.0842],[-39.85176,-10.08526],[-39.8544,-10.08716],[-39.85819,-10.08878],[-39.85897,-10.0925],[-39.85927,-10.0946],[-39.86165,-10.10139],[-39.86856,-10.11328],[-39.86806,-10.11642],[-39.86721,-10.1207],[-39.867,-10.12317],[-39.86821,-10.13056],[-39.86853,-10.13182],[-39.89991,-10.1397],[-39.89875,-10.14052],[-39.89682,-10.1409],[-39.89228,-10.14134],[-39.89042,-10.14082],[-39.88903,-10.14152],[-39.88745,-10.14366],[-39.88726,-10.14682],[-39.88726,-10.15119],[-39.888,-10.15462],[-39.88893,-10.15741],[-39.88996,-10.15936],[-39.89014,-10.1641],[-39.88949,-10.16652],[-39.88947,-10.17285],[-39.88991,-10.22715],[-39.88959,-10.27878],[-39.90032,-10.2856],[-39.95306,-10.31404],[-39.96843,-10.32073],[-39.96884,-10.32231],[-39.96783,-10.32372],[-39.96714,-10.32479],[-39.96677,-10.3273],[-39.96692,-10.32847],[-39.96774,-10.33104],[-39.96781,-10.33384],[-39.96766,-10.33658],[-39.96835,-10.3393],[-39.96855,-10.34218],[-39.96882,-10.34388],[-39.96772,-10.34616],[-39.96707,-10.34661],[-39.96687,-10.34777],[-39.96749,-10.3497],[-39.96516,-10.3502],[-39.96459,-10.35114],[-39.96433,-10.35262],[-39.96547,-10.35322],[-39.9654,-10.35435],[-39.96344,-10.35597],[-39.96359,-10.35677],[-39.96474,-10.35793],[-39.96405,-10.35843],[-39.96264,-10.35836],[-39.96162,-10.35885],[-39.96227,-10.36029],[-39.96135,-10.36128],[-39.95992,-10.36107],[-39.95851,-10.36232],[-39.95763,-10.36263],[-39.95599,-10.36411],[-39.95527,-10.36392],[-39.95396,-10.36423],[-39.95316,-10.36401],[-39.95209,-10.36246],[-39.95058,-10.36184],[-39.95005,-10.3629],[-39.95063,-10.36434],[-39.94835,-10.36477],[-39.94781,-10.36565],[-39.94791,-10.36699],[-39.94713,-10.36969],[-39.94845,-10.37269],[-39.94862,-10.37469],[-39.94805,-10.37598],[-39.94737,-10.37623],[-39.94713,-10.37848],[-39.94663,-10.37944],[-39.94698,-10.38218],[-39.94687,-10.38411],[-39.94648,-10.38481],[-39.9448,-10.38633],[-39.94486,-10.3876],[-39.94171,-10.38975],[-39.94142,-10.39013],[-39.94265,-10.39349],[-39.94277,-10.3955],[-39.94333,-10.39747],[-39.94299,-10.39788],[-39.94073,-10.39752],[-39.93851,-10.39806],[-39.93679,-10.39908],[-39.93582,-10.39999],[-39.93535,-10.40165],[-39.93535,-10.40497],[-39.9346,-10.40698],[-39.9338,-10.4077],[-39.93401,-10.40882],[-39.9338,-10.40988],[-39.93293,-10.41087],[-39.93324,-10.41255],[-39.93421,-10.41428],[-39.93453,-10.41805],[-39.93443,-10.41942],[-39.93552,-10.42108],[-39.93527,-10.42247],[-39.93577,-10.42384],[-39.93551,-10.42512],[-39.93464,-10.42557],[-39.93428,-10.4265],[-39.93475,-10.4282],[-39.93534,-10.42885],[-39.93508,-10.43103],[-39.93465,-10.43149],[-39.93495,-10.43324],[-39.93491,-10.43734],[-39.93531,-10.44088],[-39.93586,-10.44189],[-39.93588,-10.44426],[-39.93544,-10.44625],[-39.93562,-10.4473],[-39.9349,-10.44951],[-39.93376,-10.44927],[-39.93248,-10.4498],[-39.93113,-10.45074],[-39.93063,-10.45173],[-39.93122,-10.45387],[-39.93132,-10.4557],[-39.92984,-10.45701],[-39.9285,-10.45769],[-39.92847,-10.45842],[-39.92988,-10.45944],[-39.92922,-10.46078],[-39.92837,-10.46118],[-39.92784,-10.46223],[-39.92633,-10.4635],[-39.92536,-10.46361],[-39.9249,-10.46482],[-39.92595,-10.46554],[-39.92667,-10.46707],[-39.92646,-10.46849],[-39.92534,-10.46912],[-39.92554,-10.4703],[-39.9252,-10.47154],[-39.92598,-10.4737],[-39.9258,-10.47468],[-39.92507,-10.47535],[-39.9248,-10.47648],[-39.92398,-10.47708],[-39.9224,-10.47906],[-39.9223,-10.4799],[-39.92412,-10.48036],[-39.92434,-10.48119],[-39.92359,-10.48499],[-39.92425,-10.48665],[-39.92307,-10.48762],[-39.92424,-10.48899],[-39.92357,-10.48945],[-39.92421,-10.49123],[-39.923,-10.49272],[-39.92417,-10.493],[-39.9228,-10.49569],[-39.92259,-10.49535],[-39.91843,-10.49817],[-39.91516,-10.50019],[-39.91278,-10.50239],[-39.91218,-10.50501],[-39.912,-10.50715],[-39.91105,-10.50798],[-39.90933,-10.50751],[-39.90778,-10.50596],[-39.90683,-10.50358],[-39.90558,-10.50108],[-39.90302,-10.49692],[-39.90183,-10.49436],[-39.90165,-10.49198],[-39.90243,-10.48799],[-39.90225,-10.48544],[-39.89957,-10.48294],[-39.89909,-10.4814],[-39.89743,-10.47907],[-39.89535,-10.47782],[-39.89251,-10.47749],[-39.8664,-10.46431],[-39.84787,-10.45819],[-39.83641,-10.44788],[-39.83564,-10.45038],[-39.83416,-10.45373],[-39.83314,-10.45406],[-39.83126,-10.45367],[-39.82924,-10.45401],[-39.82675,-10.45552],[-39.82617,-10.45622],[-39.82585,-10.45755],[-39.82505,-10.45816],[-39.82377,-10.45826],[-39.82296,-10.45791],[-39.82242,-10.45898],[-39.8204,-10.45934],[-39.8198,-10.46025],[-39.82037,-10.46105],[-39.81953,-10.46176],[-39.81822,-10.46069],[-39.81707,-10.461],[-39.816,-10.46214],[-39.81479,-10.46211],[-39.81421,-10.45994],[-39.81367,-10.45967],[-39.8128,-10.46065],[-39.81102,-10.46033],[-39.81038,-10.46135],[-39.8087,-10.4617],[-39.80669,-10.45987],[-39.80513,-10.45944],[-39.80335,-10.45989],[-39.80277,-10.45972],[-39.80198,-10.45807],[-39.80243,-10.45741],[-39.80254,-10.45585],[-39.80236,-10.45293],[-39.80268,-10.45162],[-39.80445,-10.44991],[-39.80541,-10.44815],[-39.80512,-10.44659],[-39.80535,-10.44551],[-39.80486,-10.44415],[-39.80573,-10.44297],[-39.80492,-10.43968],[-39.80579,-10.43706],[-39.80586,-10.43609],[-39.80533,-10.43477],[-39.8055,-10.4335],[-39.80497,-10.43174],[-39.80448,-10.4314],[-39.80424,-10.42905],[-39.80374,-10.42791],[-39.80374,-10.42674],[-39.80182,-10.42589],[-39.80127,-10.42481],[-39.80095,-10.4233],[-39.79999,-10.42237],[-39.79872,-10.42247],[-39.79503,-10.42216],[-39.79308,-10.42161],[-39.79111,-10.42023],[-39.79109,-10.41993],[-39.7883,-10.42006],[-39.78775,-10.42068],[-39.78736,-10.42595],[-39.78732,-10.42809],[-39.78691,-10.42991],[-39.75585,-10.43304],[-39.75429,-10.43341],[-39.7522,-10.43337],[-39.75014,-10.43404],[-39.74966,-10.43465],[-39.75023,-10.43709],[-39.75166,-10.43787],[-39.75236,-10.43933]]]},"properties":{"codigo":"290135305","name":"Andorinha","population":13089,"households":7335,"areaKm2":909.4639,"density":14.4}},{"type":"Feature","geometry":{"type":"Polygon","coordinates":[[[-39.89991,-10.1397],[-39.90143,-10.13889],[-39.90381,-10.13874],[-39.90745,-10.13896],[-39.90969,-10.13881],[-39.91563,-10.13978],[-39.91995,-10.13963],[-39.92277,-10.13918],[-39.92545,-10.13956],[-39.92746,-10.14037],[-39.92969,-10.14037],[-39.9311,-10.13985],[-39.93274,-10.13978],[-39.93653,-10.14022],[-39.93876,-10.14112],[-39.94158,-10.14179],[-39.94612,-10.1432],[-39.95036,-10.14513],[-39.95274,-10.14669],[-39.95534,-10.14892],[-39.95846,-10.15279],[-39.96003,-10.1545],[-39.96174,-10.15539],[-39.96315,-10.15695],[-39.96411,-10.15985],[-39.96411,-10.16142],[-39.96345,-10.16357],[-39.96359,-10.16551],[-39.96404,-10.16692],[-39.96486,-10.16759],[-39.96969,-10.16974],[-39.97326,-10.1719],[-39.9746,-10.17324],[-39.97557,-10.17599],[-39.97661,-10.17725],[-39.9778,-10.17807],[-39.97913,-10.17815],[-39.98263,-10.17792],[-39.98493,-10.17837],[-39.98634,-10.17893],[-39.99896,-10.21992],[-40.03433,-10.2463],[-40.05736,-10.27466],[-40.02284,-10.3023],[-40.02727,-10.31825],[-40.05781,-10.32313],[-40.05701,-10.32661],[-40.05701,-10.32795],[-40.0565,-10.32876],[-40.0562,-10.33021],[-40.05612,-10.33245],[-40.05664,-10.33349],[-40.05678,-10.33588],[-40.05624,-10.33839],[-40.05563,-10.33985],[-40.05341,-10.34262],[-40.05097,-10.34454],[-40.0497,-10.34623],[-40.04936,-10.35072],[-40.0458,-10.35115],[-40.01637,-10.34128],[-39.96899,-10.32419],[-39.96783,-10.32372],[-39.96884,-10.32231],[-39.96843,-10.32073],[-39.95306,-10.31404],[-39.90032,-10.2856],[-39.88959,-10.27878],[-39.88991,-10.22715],[-39.88947,-10.17285],[-39.88949,-10.16652],[-39.89014,-10.1641],[-39.88996,-10.15936],[-39.88893,-10.15741],[-39.888,-10.15462],[-39.88726,-10.15119],[-39.88726,-10.14682],[-39.88745,-10.14366],[-39.88903,-10.14152],[-39.89042,-10.14082],[-39.89228,-10.14134],[-39.89682,-10.1409],[-39.89875,-10.14052],[-39.89991,-10.1397]]]},"properties":{"codigo":"290135310","name":"Sítio da Baraúna","population":836,"households":502,"areaKm2":261.005,"density":3.2}},{"type":"Feature","geometry":{"type":"Polygon","coordinates":[[[-39.96783,-10.32372],[-39.96899,-10.32419],[-40.01637,-10.34128],[-40.0458,-10.35115],[-40.04936,-10.35072],[-40.04995,-10.35384],[-40.05012,-10.35606],[-40.0482,-10.35745],[-40.04832,-10.35925],[-40.04889,-10.36032],[-40.04913,-10.36204],[-40.04916,-10.36521],[-40.04839,-10.36659],[-40.04827,-10.36768],[-40.04709,-10.36862],[-40.04718,-10.36931],[-40.04813,-10.37082],[-40.0486,-10.37261],[-40.04854,-10.37369],[-40.04736,-10.37576],[-40.04615,-10.37519],[-40.0448,-10.37501],[-40.0408,-10.37545],[-40.03855,-10.37493],[-40.03743,-10.37545],[-40.03747,-10.37789],[-40.03633,-10.37932],[-40.03603,-10.38044],[-40.03425,-10.38187],[-40.03064,-10.38373],[-40.02866,-10.38663],[-40.02588,-10.3893],[-40.02263,-10.3915],[-40.0212,-10.39225],[-40.0201,-10.39344],[-40.01853,-10.39659],[-40.01757,-10.39992],[-40.01713,-10.40257],[-40.01735,-10.40553],[-40.0186,-10.40887],[-40.02055,-10.41001],[-40.02147,-10.41083],[-40.02257,-10.41251],[-40.02316,-10.41415],[-40.02307,-10.41655],[-40.02366,-10.4184],[-40.02354,-10.42104],[-40.02424,-10.42327],[-40.02356,-10.42398],[-40.02233,-10.42377],[-40.0219,-10.42436],[-40.01922,-10.42415],[-40.01857,-10.42468],[-40.01861,-10.42651],[-40.0174,-10.42669],[-40.01659,-10.4274],[-40.01664,-10.42808],[-40.01541,-10.42915],[-40.0154,-10.42981],[-40.01437,-10.43065],[-40.0146,-10.43304],[-40.01449,-10.4342],[-40.01381,-10.43691],[-40.01422,-10.43752],[-40.0164,-10.43791],[-40.01733,-10.43904],[-40.02014,-10.43963],[-40.02166,-10.44012],[-40.02256,-10.43997],[-40.02423,-10.4415],[-40.02541,-10.44191],[-40.02518,-10.44323],[-40.02654,-10.44373],[-40.02691,-10.44457],[-40.02858,-10.44551],[-40.02897,-10.44659],[-40.02838,-10.44852],[-40.0274,-10.44986],[-40.0271,-10.45086],[-40.02725,-10.45242],[-40.02672,-10.4536],[-40.02551,-10.45362],[-40.02394,-10.45214],[-40.02315,-10.45208],[-40.02195,-10.45267],[-40.02157,-10.45352],[-40.02013,-10.45501],[-40.02085,-10.45659],[-40.01971,-10.45795],[-40.01784,-10.45838],[-40.01663,-10.45982],[-40.01587,-10.46142],[-40.01413,-10.4615],[-40.01332,-10.46185],[-40.01212,-10.46125],[-40.0098,-10.46212],[-40.00896,-10.46159],[-40.00686,-10.46202],[-40.00575,-10.46278],[-40.00551,-10.46611],[-40.0065,-10.46742],[-40.00758,-10.4675],[-40.00771,-10.46854],[-40.0083,-10.46913],[-40.0067,-10.47111],[-40.00518,-10.4707],[-40.00486,-10.47157],[-40.00513,-10.4725],[-40.00654,-10.47325],[-40.00722,-10.47407],[-40.00812,-10.47629],[-40.00751,-10.47931],[-40.008,-10.48054],[-40.00889,-10.48161],[-40.01079,-10.48316],[-40.0115,-10.48488],[-40.01079,-10.48844],[-40.00921,-10.48912],[-40.00686,-10.48995],[-40.00279,-10.49208],[-40.00195,-10.49308],[-40.00197,-10.49443],[-40.00068,-10.49489],[-39.9993,-10.49432],[-39.99779,-10.49488],[-39.99531,-10.49498],[-39.99378,-10.4955],[-39.99279,-10.49622],[-39.99154,-10.49729],[-39.99077,-10.49893],[-39.99069,-10.50045],[-39.99006,-10.5011],[-39.98909,-10.50136],[-39.98724,-10.50102],[-39.98597,-10.50128],[-39.98433,-10.50207],[-39.98294,-10.50329],[-39.98241,-10.50459],[-39.98129,-10.50556],[-39.97823,-10.50622],[-39.97741,-10.50747],[-39.97634,-10.50827],[-39.97444,-10.50859],[-39.97309,-10.51016],[-39.97252,-10.51155],[-39.97254,-10.51268],[-39.97189,-10.5136],[-39.9694,-10.51478],[-39.96866,-10.51592],[-39.96828,-10.5195],[-39.96822,-10.52169],[-39.96744,-10.52342],[-39.9663,-10.52429],[-39.9641,-10.52484],[-39.96351,-10.52755],[-39.96273,-10.52753],[-39.96213,-10.52832],[-39.9619,-10.52963],[-39.96123,-10.53048],[-39.95995,-10.53032],[-39.95822,-10.5322],[-39.95641,-10.533],[-39.95554,-10.53419],[-39.95571,-10.53526],[-39.95522,-10.5362],[-39.95427,-10.5366],[-39.95236,-10.53549],[-39.9517,-10.5362],[-39.95184,-10.53783],[-39.94967,-10.53967],[-39.94968,-10.54084],[-39.94892,-10.54197],[-39.94891,-10.54336],[-39.95016,-10.54669],[-39.94795,-10.54963],[-39.94621,-10.55121],[-39.94413,-10.55213],[-39.94343,-10.55282],[-39.94156,-10.55339],[-39.93908,-10.55481],[-39.93828,-10.55502],[-39.9377,-10.55442],[-39.9373,-10.5521],[-39.93667,-10.55273],[-39.93527,-10.55252],[-39.93403,-10.5533],[-39.9333,-10.55213],[-39.93265,-10.5518],[-39.93179,-10.55332],[-39.93277,-10.55503],[-39.93404,-10.55667],[-39.93408,-10.55772],[-39.93366,-10.55889],[-39.9342,-10.56066],[-39.93374,-10.56214],[-39.93294,-10.56301],[-39.93115,-10.56118],[-39.93075,-10.56246],[-39.92688,-10.56199],[-39.92601,-10.56019],[-39.9249,-10.55848],[-39.92392,-10.55835],[-39.92281,-10.559],[-39.92095,-10.55891],[-39.92138,-10.55776],[-39.9215,-10.55592],[-39.92127,-10.5542],[-39.92154,-10.55307],[-39.92229,-10.55184],[-39.92371,-10.55042],[-39.92538,-10.54998],[-39.9237,-10.54565],[-39.92278,-10.54447],[-39.92333,-10.54364],[-39.92465,-10.54288],[-39.92721,-10.54195],[-39.92821,-10.54132],[-39.92856,-10.54027],[-39.9296,-10.54003],[-39.92848,-10.53868],[-39.9287,-10.53695],[-39.92906,-10.53633],[-39.93042,-10.53566],[-39.92866,-10.53166],[-39.92801,-10.52731],[-39.92661,-10.52412],[-39.928,-10.5203],[-39.92706,-10.51927],[-39.92614,-10.51715],[-39.9261,-10.51607],[-39.92702,-10.51433],[-39.92629,-10.51321],[-39.92644,-10.51219],[-39.92521,-10.51078],[-39.92456,-10.50959],[-39.92406,-10.50754],[-39.9239,-10.50377],[-39.92463,-10.50194],[-39.92414,-10.5004],[-39.92302,-10.49923],[-39.92273,-10.49807],[-39.92311,-10.49671],[-39.9228,-10.49569],[-39.92417,-10.493],[-39.923,-10.49272],[-39.92421,-10.49123],[-39.92357,-10.48945],[-39.92424,-10.48899],[-39.92307,-10.48762],[-39.92425,-10.48665],[-39.92359,-10.48499],[-39.92434,-10.48119],[-39.92412,-10.48036],[-39.9223,-10.4799],[-39.9224,-10.47906],[-39.92398,-10.47708],[-39.9248,-10.47648],[-39.92507,-10.47535],[-39.9258,-10.47468],[-39.92598,-10.4737],[-39.9252,-10.47154],[-39.92554,-10.4703],[-39.92534,-10.46912],[-39.92646,-10.46849],[-39.92667,-10.46707],[-39.92595,-10.46554],[-39.9249,-10.46482],[-39.92536,-10.46361],[-39.92633,-10.4635],[-39.92784,-10.46223],[-39.92837,-10.46118],[-39.92922,-10.46078],[-39.92988,-10.45944],[-39.92847,-10.45842],[-39.9285,-10.45769],[-39.92984,-10.45701],[-39.93132,-10.4557],[-39.93122,-10.45387],[-39.93063,-10.45173],[-39.93113,-10.45074],[-39.93248,-10.4498],[-39.93376,-10.44927],[-39.9349,-10.44951],[-39.93562,-10.4473],[-39.93544,-10.44625],[-39.93588,-10.44426],[-39.93586,-10.44189],[-39.93531,-10.44088],[-39.93491,-10.43734],[-39.93495,-10.43324],[-39.93465,-10.43149],[-39.93508,-10.43103],[-39.93534,-10.42885],[-39.93475,-10.4282],[-39.93428,-10.4265],[-39.93464,-10.42557],[-39.93551,-10.42512],[-39.93577,-10.42384],[-39.93527,-10.42247],[-39.93552,-10.42108],[-39.93443,-10.41942],[-39.93453,-10.41805],[-39.93421,-10.41428],[-39.93324,-10.41255],[-39.93293,-10.41087],[-39.9338,-10.40988],[-39.93401,-10.40882],[-39.9338,-10.4077],[-39.9346,-10.40698],[-39.93535,-10.40497],[-39.93535,-10.40165],[-39.93582,-10.39999],[-39.93679,-10.39908],[-39.93851,-10.39806],[-39.94073,-10.39752],[-39.94299,-10.39788],[-39.94333,-10.39747],[-39.94277,-10.3955],[-39.94265,-10.39349],[-39.94142,-10.39013],[-39.94171,-10.38975],[-39.94486,-10.3876],[-39.9448,-10.38633],[-39.94648,-10.38481],[-39.94687,-10.38411],[-39.94698,-10.38218],[-39.94663,-10.37944],[-39.94713,-10.37848],[-39.94737,-10.37623],[-39.94805,-10.37598],[-39.94862,-10.37469],[-39.94845,-10.37269],[-39.94713,-10.36969],[-39.94791,-10.36699],[-39.94781,-10.36565],[-39.94835,-10.36477],[-39.95063,-10.36434],[-39.95005,-10.3629],[-39.95058,-10.36184],[-39.95209,-10.36246],[-39.95316,-10.36401],[-39.95396,-10.36423],[-39.95527,-10.36392],[-39.95599,-10.36411],[-39.95763,-10.36263],[-39.95851,-10.36232],[-39.95992,-10.36107],[-39.96135,-10.36128],[-39.96227,-10.36029],[-39.96162,-10.35885],[-39.96264,-10.35836],[-39.96405,-10.35843],[-39.96474,-10.35793],[-39.96359,-10.35677],[-39.96344,-10.35597],[-39.9654,-10.35435],[-39.96547,-10.35322],[-39.96433,-10.35262],[-39.96459,-10.35114],[-39.96516,-10.3502],[-39.96749,-10.3497],[-39.96687,-10.34777],[-39.96707,-10.34661],[-39.96772,-10.34616],[-39.96882,-10.34388],[-39.96855,-10.34218],[-39.96835,-10.3393],[-39.96766,-10.33658],[-39.96781,-10.33384],[-39.96774,-10.33104],[-39.96692,-10.32847],[-39.96677,-10.3273],[-39.96714,-10.32479],[-39.96783,-10.32372]]]},"properties":{"codigo":"290135315","name":"Tanquinho do Poço","population":1087,"households":645,"areaKm2":191.9172,"density":5.7}}]}