{"type":"FeatureCollection","features":[{"type":"Feature","geometry":{"type":"Polygon","coordinates":[[[-42.81354,-11.94105],[-42.81312,-11.94204],[-42.81175,-11.94353],[-42.80874,-11.94491],[-42.80674,-11.94653],[-42.80215,-11.95146],[-42.80164,-11.95247],[-42.80161,-11.95479],[-42.8005,-11.95842],[-42.79808,-11.96217],[-42.79603,-11.96298],[-42.79358,-11.96288],[-42.79102,-11.96358],[-42.78967,-11.96446],[-42.78792,-11.96516],[-42.78689,-11.96591],[-42.78477,-11.96813],[-42.78426,-11.96961],[-42.78344,-11.97082],[-42.78082,-11.97216],[-42.77882,-11.97293],[-42.77817,-11.97272],[-42.77578,-11.97021],[-42.77382,-11.96992],[-42.77249,-11.96849],[-42.7718,-11.96742],[-42.77099,-11.96691],[-42.76679,-11.96651],[-42.76602,-11.96561],[-42.76556,-11.96358],[-42.76606,-11.96196],[-42.76572,-11.96061],[-42.76499,-11.96004],[-42.76379,-11.96079],[-42.76292,-11.9643],[-42.76273,-11.9666],[-42.76201,-11.96875],[-42.76151,-11.96914],[-42.76141,-11.97041],[-42.7609,-11.97133],[-42.75886,-11.97338],[-42.76028,-11.97615],[-42.76016,-11.97689],[-42.7584,-11.97987],[-42.75714,-11.98322],[-42.75668,-11.98527],[-42.75725,-11.98688],[-42.76021,-11.98833],[-42.7628,-11.98903],[-42.76382,-11.98977],[-42.76593,-11.99289],[-42.76691,-11.99376],[-42.76781,-11.99402],[-42.771,-11.99409],[-42.77357,-11.99315],[-42.7749,-11.99476],[-42.77732,-11.99668],[-42.77732,-11.99847],[-42.77625,-11.9995],[-42.77401,-12.00111],[-42.77294,-12.00215],[-42.77208,-12.00422],[-42.77107,-12.00818],[-42.77142,-12.00926],[-42.77297,-12.011],[-42.77297,-12.01175],[-42.77229,-12.01471],[-42.77469,-12.02189],[-42.77501,-12.02328],[-42.77533,-12.02633],[-42.77465,-12.02849],[-42.77479,-12.02934],[-42.77661,-12.03181],[-42.77679,-12.03409],[-42.77636,-12.03548],[-42.77553,-12.03693],[-42.77386,-12.03914],[-42.77282,-12.04109],[-42.771,-12.04514],[-42.76901,-12.04646],[-42.76739,-12.04711],[-42.76653,-12.04789],[-42.76533,-12.05257],[-42.7649,-12.05381],[-42.76355,-12.05476],[-42.76281,-12.05576],[-42.76209,-12.05876],[-42.76145,-12.05957],[-42.75966,-12.06076],[-42.75874,-12.06189],[-42.75667,-12.06316],[-42.75604,-12.06457],[-42.75514,-12.06508],[-42.75324,-12.06788],[-42.75268,-12.07076],[-42.75354,-12.07386],[-42.75345,-12.07502],[-42.75202,-12.07796],[-42.75164,-12.07962],[-42.75191,-12.08038],[-42.75361,-12.08253],[-42.75369,-12.08449],[-42.75284,-12.08715],[-42.75238,-12.08785],[-42.75029,-12.08799],[-42.74868,-12.08745],[-42.74636,-12.08611],[-42.74588,-12.08454],[-42.74524,-12.08376],[-42.74328,-12.0834],[-42.74137,-12.0838],[-42.73985,-12.08501],[-42.73868,-12.08658],[-42.73711,-12.08802],[-42.73592,-12.08952],[-42.73538,-12.09099],[-42.73289,-12.09524],[-42.73238,-12.09857],[-42.73146,-12.09965],[-42.72869,-12.09941],[-42.7278,-12.09982],[-42.72619,-12.10137],[-42.72536,-12.10179],[-42.72307,-12.10232],[-42.72105,-12.10351],[-42.7198,-12.10521],[-42.71923,-12.10693],[-42.72027,-12.10946],[-42.72029,-12.11252],[-42.71998,-12.11505],[-42.71932,-12.11705],[-42.71825,-12.1169],[-42.71748,-12.11565],[-42.71519,-12.11279],[-42.71242,-12.11108],[-42.70847,-12.10759],[-42.70777,-12.10745],[-42.70452,-12.10852],[-42.7032,-12.10874],[-42.70222,-12.10845],[-42.70145,-12.10749],[-42.70002,-12.10477],[-42.69867,-12.10338],[-42.6972,-12.10317],[-42.69495,-12.10424],[-42.69392,-12.10599],[-42.69161,-12.10714],[-42.69064,-12.10594],[-42.68944,-12.10543],[-42.6879,-12.10543],[-42.68601,-12.10434],[-42.68579,-12.10348],[-42.68655,-12.10166],[-42.68805,-12.10027],[-42.68915,-12.0987],[-42.68965,-12.0968],[-42.68947,-12.09527],[-42.68862,-12.09391],[-42.68694,-12.09295],[-42.68456,-12.08983],[-42.68386,-12.08832],[-42.68414,-12.08667],[-42.68523,-12.08564],[-42.68586,-12.08427],[-42.68568,-12.0833],[-42.68494,-12.08267],[-42.68169,-12.08216],[-42.68017,-12.08173],[-42.67948,-12.08024],[-42.67914,-12.07813],[-42.67845,-12.07727],[-42.67611,-12.07653],[-42.67531,-12.07413],[-42.67309,-12.07076],[-42.67243,-12.06901],[-42.67281,-12.06611],[-42.67228,-12.06409],[-42.66991,-12.05993],[-42.66908,-12.06207],[-42.665,-12.0652],[-42.6632,-12.06605],[-42.66136,-12.0666],[-42.66038,-12.06812],[-42.6596,-12.07077],[-42.65823,-12.07086],[-42.65695,-12.06969],[-42.65567,-12.06976],[-42.65408,-12.07055],[-42.64976,-12.07169],[-42.64875,-12.07133],[-42.64741,-12.07028],[-42.64608,-12.0705],[-42.64537,-12.072],[-42.64457,-12.07274],[-42.64017,-12.07488],[-42.63699,-12.07618],[-42.63521,-12.0766],[-42.63387,-12.07834],[-42.63176,-12.07961],[-42.63015,-12.07984],[-42.6292,-12.08034],[-42.62706,-12.07957],[-42.62647,-12.08039],[-42.62709,-12.08178],[-42.62687,-12.08272],[-42.62481,-12.085],[-42.62301,-12.08638],[-42.62261,-12.08698],[-42.62297,-12.08897],[-42.62412,-12.09025],[-42.62432,-12.0912],[-42.6235,-12.09558],[-42.62249,-12.09698],[-42.61898,-12.09925],[-42.6181,-12.10036],[-42.61744,-12.10329],[-42.61735,-12.10525],[-42.61764,-12.10585],[-42.61977,-12.10743],[-42.62039,-12.1085],[-42.62073,-12.10998],[-42.6219,-12.1129],[-42.62182,-12.11528],[-42.62098,-12.11966],[-42.62043,-12.12059],[-42.6195,-12.1235],[-42.6198,-12.12546],[-42.61932,-12.12835],[-42.62036,-12.13203],[-42.62011,-12.13352],[-42.61949,-12.13491],[-42.61942,-12.1367],[-42.61852,-12.13869],[-42.61712,-12.14004],[-42.6157,-12.14206],[-42.61403,-12.14341],[-42.61241,-12.14433],[-42.61186,-12.14525],[-42.61103,-12.14836],[-42.61158,-12.14945],[-42.61362,-12.151],[-42.61389,-12.15235],[-42.61241,-12.15349],[-42.61203,-12.15601],[-42.61208,-12.15684],[-42.61323,-12.15943],[-42.61413,-12.16061],[-42.61472,-12.16221],[-42.61477,-12.16456],[-42.61376,-12.16772],[-42.61314,-12.1684],[-42.61189,-12.16821],[-42.61093,-12.16754],[-42.60889,-12.16541],[-42.60765,-12.16541],[-42.60382,-12.16805],[-42.6025,-12.16952],[-42.60154,-12.17226],[-42.59896,-12.17339],[-42.59769,-12.17352],[-42.59482,-12.17291],[-42.59285,-12.17132],[-42.59181,-12.17088],[-42.58998,-12.1708],[-42.58924,-12.17106],[-42.58775,-12.17409],[-42.58612,-12.1748],[-42.58448,-12.17495],[-42.58241,-12.17441],[-42.58048,-12.17239],[-42.57887,-12.1714],[-42.57614,-12.1706],[-42.57487,-12.1705],[-42.57371,-12.17087],[-42.57285,-12.17262],[-42.57225,-12.17436],[-42.57203,-12.17713],[-42.57252,-12.179],[-42.57186,-12.18055],[-42.56983,-12.18383],[-42.56973,-12.18452],[-42.57056,-12.18535],[-42.57166,-12.18539],[-42.57408,-12.18632],[-42.57477,-12.1876],[-42.57448,-12.1902],[-42.57482,-12.19252],[-42.57534,-12.19364],[-42.57774,-12.19563],[-42.57792,-12.19626],[-42.57666,-12.19916],[-42.57725,-12.20123],[-42.57721,-12.20362],[-42.57659,-12.20498],[-42.57554,-12.20596],[-42.57497,-12.20734],[-42.57476,-12.20897],[-42.57482,-12.21417],[-42.57462,-12.21591],[-42.57352,-12.21793],[-42.57076,-12.22058],[-42.57029,-12.22198],[-42.57112,-12.22716],[-42.57106,-12.22909],[-42.57003,-12.23137],[-42.56918,-12.23195],[-42.56782,-12.23366],[-42.56735,-12.23579],[-42.56542,-12.23981],[-42.56339,-12.24579],[-42.56323,-12.24833],[-42.56277,-12.24947],[-42.56158,-12.25096],[-42.56125,-12.25184],[-42.56106,-12.25405],[-42.56159,-12.25798],[-42.56136,-12.2584],[-42.52169,-12.25319],[-42.52216,-12.25257],[-42.52392,-12.25166],[-42.52472,-12.25087],[-42.52428,-12.24773],[-42.52314,-12.24624],[-42.52331,-12.24514],[-42.52466,-12.24486],[-42.52594,-12.24564],[-42.52755,-12.24496],[-42.52803,-12.24349],[-42.52938,-12.24276],[-42.52951,-12.24156],[-42.53031,-12.24107],[-42.53221,-12.24105],[-42.53311,-12.24078],[-42.53472,-12.24146],[-42.53544,-12.24092],[-42.53542,-12.23979],[-42.53626,-12.23964],[-42.53573,-12.2371],[-42.53628,-12.23542],[-42.53516,-12.23388],[-42.5352,-12.23282],[-42.53438,-12.23243],[-42.53444,-12.23171],[-42.536,-12.23035],[-42.53639,-12.22968],[-42.53594,-12.22879],[-42.53856,-12.2281],[-42.53864,-12.22768],[-42.53693,-12.22582],[-42.53607,-12.22524],[-42.53609,-12.22433],[-42.53508,-12.22307],[-42.53512,-12.22199],[-42.53406,-12.22113],[-42.53396,-12.22037],[-42.53314,-12.2195],[-42.53316,-12.21745],[-42.53381,-12.21703],[-42.53368,-12.21584],[-42.53316,-12.21476],[-42.53337,-12.21402],[-42.53331,-12.21065],[-42.53371,-12.20963],[-42.53461,-12.21032],[-42.53402,-12.21108],[-42.53516,-12.21158],[-42.53529,-12.21017],[-42.53611,-12.20937],[-42.53383,-12.20675],[-42.53177,-12.20558],[-42.53063,-12.20458],[-42.53152,-12.20186],[-42.53035,-12.20097],[-42.53082,-12.20001],[-42.52949,-12.19911],[-42.5295,-12.19832],[-42.53042,-12.19759],[-42.5296,-12.19328],[-42.52886,-12.19191],[-42.52877,-12.1906],[-42.52827,-12.18967],[-42.52871,-12.1882],[-42.52947,-12.18715],[-42.5281,-12.18568],[-42.52759,-12.18304],[-42.52642,-12.18209],[-42.52718,-12.18041],[-42.52588,-12.17709],[-42.52632,-12.17521],[-42.52709,-12.17312],[-42.52711,-12.17154],[-42.52606,-12.16985],[-42.5253,-12.16496],[-42.52552,-12.16432],[-42.52682,-12.16293],[-42.52758,-12.16176],[-42.52724,-12.15926],[-42.53018,-12.15066],[-42.53131,-12.144],[-42.53476,-12.13329],[-42.54602,-12.09515],[-42.555,-12.06154],[-42.56277,-12.03404],[-42.55603,-12.02846],[-42.52794,-12.00184],[-42.48655,-11.9626],[-42.48021,-11.95839],[-42.4794,-11.95767],[-42.51784,-11.93996],[-42.58442,-11.90927],[-42.66861,-11.86702],[-42.7003,-11.87605],[-42.77215,-11.80895],[-42.74763,-11.73077],[-42.74763,-11.73076],[-42.74887,-11.72928],[-42.75114,-11.72903],[-42.75264,-11.72947],[-42.75507,-11.73099],[-42.75574,-11.73189],[-42.75551,-11.73278],[-42.75414,-11.7339],[-42.75364,-11.73486],[-42.75495,-11.73656],[-42.75635,-11.73737],[-42.75995,-11.73894],[-42.76327,-11.73872],[-42.76395,-11.73823],[-42.76512,-11.73642],[-42.76681,-11.73619],[-42.77021,-11.73654],[-42.77187,-11.73749],[-42.77457,-11.73838],[-42.77726,-11.73898],[-42.78072,-11.7388],[-42.78545,-11.7387],[-42.78781,-11.7392],[-42.78878,-11.73996],[-42.78895,-11.74212],[-42.78793,-11.7433],[-42.78571,-11.74448],[-42.78399,-11.7451],[-42.78336,-11.74571],[-42.7835,-11.7467],[-42.78434,-11.74728],[-42.78805,-11.74815],[-42.78921,-11.74864],[-42.78998,-11.74978],[-42.79084,-11.7499],[-42.79285,-11.75214],[-42.79533,-11.75354],[-42.79685,-11.75618],[-42.79816,-11.75787],[-42.80158,-11.76055],[-42.80308,-11.76116],[-42.80539,-11.76151],[-42.80888,-11.76284],[-42.80953,-11.76504],[-42.81062,-11.76649],[-42.81339,-11.7687],[-42.81826,-11.77135],[-42.81891,-11.77204],[-42.81816,-11.77325],[-42.82056,-11.7762],[-42.82272,-11.7764],[-42.82331,-11.77682],[-42.82619,-11.77611],[-42.82703,-11.77532],[-42.83007,-11.77569],[-42.83063,-11.77632],[-42.83175,-11.77628],[-42.83319,-11.77756],[-42.83554,-11.77759],[-42.83641,-11.77678],[-42.83636,-11.77554],[-42.83685,-11.77319],[-42.83779,-11.77439],[-42.83965,-11.77511],[-42.84227,-11.77762],[-42.84201,-11.77901],[-42.84232,-11.78024],[-42.84158,-11.78115],[-42.84265,-11.78271],[-42.84602,-11.78601],[-42.84836,-11.78785],[-42.84975,-11.78796],[-42.85022,-11.78719],[-42.84923,-11.78598],[-42.85009,-11.78558],[-42.85181,-11.78604],[-42.85276,-11.78709],[-42.85382,-11.7871],[-42.85442,-11.78784],[-42.85601,-11.789],[-42.85695,-11.79128],[-42.85848,-11.79187],[-42.85904,-11.79293],[-42.85998,-11.79374],[-42.86119,-11.79396],[-42.84376,-11.84777],[-42.81354,-11.94105]]]},"properties":{"codigo":"290450605","name":"Brotas de Macaúbas","population":6790,"households":3957,"areaKm2":881.9702,"density":7.7}},{"type":"Feature","geometry":{"type":"Polygon","coordinates":[[[-42.52169,-12.25319],[-42.39535,-12.23662],[-42.37837,-12.23439],[-42.37776,-12.23669],[-42.37781,-12.23987],[-42.37754,-12.2419],[-42.37668,-12.2447],[-42.37645,-12.24775],[-42.37572,-12.25051],[-42.37523,-12.25302],[-42.37448,-12.25863],[-42.37455,-12.26222],[-42.37435,-12.26415],[-42.37369,-12.26576],[-42.37318,-12.26774],[-42.37318,-12.26947],[-42.37279,-12.27097],[-42.3718,-12.27307],[-42.37165,-12.27515],[-42.37199,-12.27651],[-42.3716,-12.27816],[-42.36961,-12.27995],[-42.36887,-12.28101],[-42.36712,-12.28516],[-42.36478,-12.28846],[-42.3645,-12.2906],[-42.36543,-12.29176],[-42.36577,-12.29287],[-42.36553,-12.29467],[-42.36446,-12.29693],[-42.36337,-12.29868],[-42.36228,-12.29999],[-42.3618,-12.30131],[-42.36076,-12.30262],[-42.35952,-12.30544],[-42.35821,-12.30715],[-42.35672,-12.30804],[-42.35624,-12.30877],[-42.35597,-12.31226],[-42.35274,-12.32037],[-42.35393,-12.31958],[-42.3548,-12.32041],[-42.35443,-12.32332],[-42.35366,-12.32568],[-42.35229,-12.32707],[-42.3523,-12.32853],[-42.35187,-12.32991],[-42.34992,-12.33417],[-42.34865,-12.33733],[-42.34656,-12.34111],[-42.34538,-12.34227],[-42.34391,-12.34235],[-42.34417,-12.34388],[-42.34415,-12.34557],[-42.34306,-12.34829],[-42.3421,-12.35159],[-42.34121,-12.35683],[-42.34036,-12.35961],[-42.33831,-12.36352],[-42.33742,-12.36583],[-42.33735,-12.36722],[-42.33764,-12.36871],[-42.33608,-12.37173],[-42.33626,-12.37427],[-42.33561,-12.37622],[-42.33411,-12.37838],[-42.33378,-12.37929],[-42.33352,-12.38185],[-42.33266,-12.3844],[-42.33168,-12.3859],[-42.33016,-12.38756],[-42.32724,-12.39026],[-42.32391,-12.39289],[-42.32201,-12.39468],[-42.32141,-12.39629],[-42.32318,-12.39942],[-42.32285,-12.40295],[-42.32221,-12.40437],[-42.32104,-12.40616],[-42.32164,-12.40742],[-42.32281,-12.40793],[-42.32542,-12.41044],[-42.32692,-12.41329],[-42.32768,-12.41348],[-42.33,-12.41241],[-42.33264,-12.41051],[-42.3346,-12.41048],[-42.33584,-12.41072],[-42.33652,-12.41021],[-42.33818,-12.41027],[-42.33956,-12.41151],[-42.34123,-12.41216],[-42.34213,-12.41282],[-42.34404,-12.41548],[-42.34537,-12.41613],[-42.34797,-12.41597],[-42.3489,-12.41542],[-42.34981,-12.41323],[-42.35053,-12.41267],[-42.35266,-12.41261],[-42.35377,-12.41284],[-42.3557,-12.41387],[-42.35762,-12.41699],[-42.35785,-12.41857],[-42.35832,-12.41886],[-42.36076,-12.41929],[-42.36174,-12.41974],[-42.36248,-12.42078],[-42.36123,-12.42293],[-42.35988,-12.42714],[-42.35901,-12.42924],[-42.35825,-12.43166],[-42.35812,-12.43422],[-42.35778,-12.43598],[-42.35723,-12.43726],[-42.35582,-12.44183],[-42.3557,-12.44442],[-42.3557,-12.4509],[-42.35544,-12.45264],[-42.35383,-12.45631],[-42.35311,-12.45752],[-42.35067,-12.45944],[-42.34942,-12.46072],[-42.34868,-12.46259],[-42.34767,-12.46408],[-42.34292,-12.46793],[-42.33786,-12.4715],[-42.33443,-12.475],[-42.3329,-12.47643],[-42.33207,-12.47778],[-42.3319,-12.48055],[-42.33092,-12.48219],[-42.32982,-12.48262],[-42.32942,-12.48158],[-42.32933,-12.47994],[-42.32878,-12.47828],[-42.3292,-12.47631],[-42.3303,-12.47444],[-42.3304,-12.47265],[-42.33011,-12.47156],[-42.32911,-12.46981],[-42.32913,-12.46885],[-42.33043,-12.46753],[-42.33072,-12.46633],[-42.3306,-12.46452],[-42.32992,-12.46323],[-42.32845,-12.46109],[-42.32695,-12.45953],[-42.3255,-12.45573],[-42.32561,-12.45415],[-42.32432,-12.453],[-42.32368,-12.45171],[-42.32385,-12.44979],[-42.32363,-12.449],[-42.32254,-12.44858],[-42.32127,-12.44734],[-42.32094,-12.44593],[-42.32132,-12.44337],[-42.32133,-12.44126],[-42.32171,-12.43898],[-42.32316,-12.43712],[-42.32353,-12.4346],[-42.32515,-12.43245],[-42.32567,-12.42945],[-42.32511,-12.4286],[-42.32191,-12.42582],[-42.32093,-12.42512],[-42.3201,-12.42406],[-42.3193,-12.42246],[-42.31841,-12.41951],[-42.31822,-12.41793],[-42.3166,-12.4163],[-42.31514,-12.4121],[-42.312,-12.40847],[-42.31063,-12.40745],[-42.30936,-12.40852],[-42.30849,-12.40863],[-42.30737,-12.40623],[-42.30586,-12.40389],[-42.30432,-12.40299],[-42.30078,-12.40352],[-42.29986,-12.40487],[-42.29783,-12.40377],[-42.29569,-12.40347],[-42.29428,-12.40419],[-42.29103,-12.40648],[-42.2879,-12.40915],[-42.28413,-12.40925],[-42.28209,-12.40799],[-42.28083,-12.40779],[-42.2798,-12.40818],[-42.27687,-12.41025],[-42.27258,-12.41224],[-42.27127,-12.41193],[-42.26834,-12.40971],[-42.26725,-12.40951],[-42.266,-12.40979],[-42.26399,-12.41138],[-42.26328,-12.41112],[-42.26305,-12.41015],[-42.26195,-12.40931],[-42.25975,-12.40863],[-42.25522,-12.40847],[-42.25379,-12.40806],[-42.25107,-12.40493],[-42.25029,-12.40322],[-42.25022,-12.40225],[-42.24959,-12.40022],[-42.24923,-12.397],[-42.24883,-12.39582],[-42.24892,-12.39426],[-42.2494,-12.39318],[-42.24911,-12.39195],[-42.24925,-12.38957],[-42.24965,-12.3885],[-42.25138,-12.38675],[-42.25211,-12.38528],[-42.25216,-12.38415],[-42.25291,-12.37908],[-42.2541,-12.37515],[-42.25347,-12.37258],[-42.25387,-12.37041],[-42.25479,-12.36259],[-42.25485,-12.36067],[-42.25525,-12.35926],[-42.25616,-12.35758],[-42.25738,-12.35299],[-42.25845,-12.35115],[-42.25911,-12.34956],[-42.25934,-12.34732],[-42.25896,-12.34416],[-42.26011,-12.34174],[-42.26154,-12.34072],[-42.26407,-12.34011],[-42.26663,-12.3382],[-42.27015,-12.33834],[-42.27099,-12.33797],[-42.27093,-12.33631],[-42.27022,-12.33464],[-42.26825,-12.3331],[-42.26788,-12.33227],[-42.26922,-12.3315],[-42.26972,-12.33085],[-42.26914,-12.32864],[-42.26804,-12.32568],[-42.26698,-12.32341],[-42.26679,-12.32143],[-42.26786,-12.31726],[-42.26925,-12.3139],[-42.27025,-12.31108],[-42.2036,-12.29584],[-42.12412,-12.27768],[-42.1259,-12.27669],[-42.12745,-12.27622],[-42.12875,-12.27541],[-42.12927,-12.27443],[-42.12938,-12.27205],[-42.13073,-12.27178],[-42.13295,-12.27324],[-42.13396,-12.27312],[-42.1353,-12.27206],[-42.13657,-12.27056],[-42.13821,-12.2691],[-42.13931,-12.26763],[-42.14117,-12.26416],[-42.14166,-12.26113],[-42.14335,-12.25666],[-42.14454,-12.2549],[-42.14743,-12.25252],[-42.14979,-12.25136],[-42.15043,-12.25019],[-42.15091,-12.24754],[-42.15172,-12.24702],[-42.15352,-12.24695],[-42.15648,-12.24734],[-42.15868,-12.24641],[-42.1604,-12.24486],[-42.16348,-12.24001],[-42.16477,-12.23824],[-42.18823,-12.21199],[-42.1887,-12.21057],[-42.22638,-12.18172],[-42.26568,-12.16108],[-42.36218,-12.11203],[-42.40624,-12.0941],[-42.41756,-12.08977],[-42.41983,-12.08717],[-42.42468,-12.07631],[-42.42737,-12.06857],[-42.436,-12.04626],[-42.44172,-12.04296],[-42.44454,-12.03909],[-42.44188,-12.02975],[-42.44358,-12.01271],[-42.45399,-11.98724],[-42.46188,-11.96631],[-42.46211,-11.96564],[-42.4794,-11.95767],[-42.48021,-11.95839],[-42.48655,-11.9626],[-42.52794,-12.00184],[-42.55603,-12.02846],[-42.56277,-12.03404],[-42.555,-12.06154],[-42.54602,-12.09515],[-42.53476,-12.13329],[-42.53131,-12.144],[-42.53018,-12.15066],[-42.52724,-12.15926],[-42.52758,-12.16176],[-42.52682,-12.16293],[-42.52552,-12.16432],[-42.5253,-12.16496],[-42.52606,-12.16985],[-42.52711,-12.17154],[-42.52709,-12.17312],[-42.52632,-12.17521],[-42.52588,-12.17709],[-42.52718,-12.18041],[-42.52642,-12.18209],[-42.52759,-12.18304],[-42.5281,-12.18568],[-42.52947,-12.18715],[-42.52871,-12.1882],[-42.52827,-12.18967],[-42.52877,-12.1906],[-42.52886,-12.19191],[-42.5296,-12.19328],[-42.53042,-12.19759],[-42.5295,-12.19832],[-42.52949,-12.19911],[-42.53082,-12.20001],[-42.53035,-12.20097],[-42.53152,-12.20186],[-42.53063,-12.20458],[-42.53177,-12.20558],[-42.53383,-12.20675],[-42.53611,-12.20937],[-42.53529,-12.21017],[-42.53516,-12.21158],[-42.53402,-12.21108],[-42.53461,-12.21032],[-42.53371,-12.20963],[-42.53331,-12.21065],[-42.53337,-12.21402],[-42.53316,-12.21476],[-42.53368,-12.21584],[-42.53381,-12.21703],[-42.53316,-12.21745],[-42.53314,-12.2195],[-42.53396,-12.22037],[-42.53406,-12.22113],[-42.53512,-12.22199],[-42.53508,-12.22307],[-42.53609,-12.22433],[-42.53607,-12.22524],[-42.53693,-12.22582],[-42.53864,-12.22768],[-42.53856,-12.2281],[-42.53594,-12.22879],[-42.53639,-12.22968],[-42.536,-12.23035],[-42.53444,-12.23171],[-42.53438,-12.23243],[-42.5352,-12.23282],[-42.53516,-12.23388],[-42.53628,-12.23542],[-42.53573,-12.2371],[-42.53626,-12.23964],[-42.53542,-12.23979],[-42.53544,-12.24092],[-42.53472,-12.24146],[-42.53311,-12.24078],[-42.53221,-12.24105],[-42.53031,-12.24107],[-42.52951,-12.24156],[-42.52938,-12.24276],[-42.52803,-12.24349],[-42.52755,-12.24496],[-42.52594,-12.24564],[-42.52466,-12.24486],[-42.52331,-12.24514],[-42.52314,-12.24624],[-42.52428,-12.24773],[-42.52472,-12.25087],[-42.52392,-12.25166],[-42.52216,-12.25257],[-42.52169,-12.25319]]]},"properties":{"codigo":"290450610","name":"Ouricuri do Ouro","population":3056,"households":1696,"areaKm2":924.2925,"density":3.3}},{"type":"Feature","geometry":{"type":"Polygon","coordinates":[[[-42.10698,-12.15885],[-42.12128,-12.137],[-42.1228,-12.13471],[-42.13815,-12.11127],[-42.16417,-12.07156],[-42.18929,-12.03332],[-42.21013,-12.0015],[-42.22587,-11.97748],[-42.24496,-11.94837],[-42.33767,-11.95595],[-42.4349,-11.9639],[-42.46116,-11.96605],[-42.46211,-11.96564],[-42.46188,-11.96631],[-42.45399,-11.98724],[-42.44358,-12.01271],[-42.44188,-12.02975],[-42.44454,-12.03909],[-42.44172,-12.04296],[-42.436,-12.04626],[-42.42737,-12.06857],[-42.42468,-12.07631],[-42.41983,-12.08717],[-42.41756,-12.08977],[-42.40624,-12.0941],[-42.36218,-12.11203],[-42.26568,-12.16108],[-42.22638,-12.18172],[-42.1887,-12.21057],[-42.18823,-12.21199],[-42.16477,-12.23824],[-42.16348,-12.24001],[-42.1604,-12.24486],[-42.15868,-12.24641],[-42.15648,-12.24734],[-42.15352,-12.24695],[-42.15172,-12.24702],[-42.15091,-12.24754],[-42.15043,-12.25019],[-42.14979,-12.25136],[-42.14743,-12.25252],[-42.14454,-12.2549],[-42.14335,-12.25666],[-42.14166,-12.26113],[-42.14117,-12.26416],[-42.13931,-12.26763],[-42.13821,-12.2691],[-42.13657,-12.27056],[-42.1353,-12.27206],[-42.13396,-12.27312],[-42.13295,-12.27324],[-42.13073,-12.27178],[-42.12938,-12.27205],[-42.12927,-12.27443],[-42.12875,-12.27541],[-42.12745,-12.27622],[-42.1259,-12.27669],[-42.12412,-12.27768],[-42.12416,-12.27919],[-42.12373,-12.28316],[-42.12496,-12.28657],[-42.12427,-12.28821],[-42.12089,-12.29004],[-42.12042,-12.29083],[-42.1206,-12.29285],[-42.12038,-12.29402],[-42.11928,-12.29512],[-42.11859,-12.29645],[-42.11822,-12.29911],[-42.1176,-12.30028],[-42.11651,-12.30146],[-42.11536,-12.30467],[-42.11419,-12.30655],[-42.11167,-12.3072],[-42.11037,-12.30798],[-42.10836,-12.30822],[-42.10646,-12.30727],[-42.1057,-12.30423],[-42.10443,-12.30133],[-42.10294,-12.29918],[-42.10122,-12.29785],[-42.09856,-12.29157],[-42.08891,-12.2915],[-42.08867,-12.26195],[-42.08846,-12.24236],[-42.08836,-12.23692],[-42.08833,-12.22798],[-42.08929,-12.22496],[-42.08966,-12.22253],[-42.09066,-12.22002],[-42.09141,-12.21714],[-42.09254,-12.21401],[-42.09428,-12.21018],[-42.09492,-12.20824],[-42.0958,-12.20323],[-42.09617,-12.20186],[-42.097,-12.20014],[-42.0979,-12.19714],[-42.09784,-12.1959],[-42.09671,-12.19441],[-42.09558,-12.19393],[-42.09123,-12.19137],[-42.08891,-12.18941],[-42.08784,-12.18709],[-42.08778,-12.18572],[-42.08832,-12.18358],[-42.09021,-12.17933],[-42.09106,-12.17811],[-42.09195,-12.17751],[-42.09451,-12.17787],[-42.09643,-12.17505],[-42.10698,-12.15885]]]},"properties":{"codigo":"290450615","name":"Saudável","population":1919,"households":907,"areaKm2":714.5539,"density":2.7}}]}