{"type":"FeatureCollection","features":[{"type":"Feature","geometry":{"type":"Polygon","coordinates":[[[-39.57876,-15.28759],[-39.5798,-15.28483],[-39.58145,-15.28157],[-39.58269,-15.27962],[-39.58547,-15.27727],[-39.58827,-15.27633],[-39.59144,-15.27492],[-39.59308,-15.27445],[-39.59356,-15.27314],[-39.59529,-15.27322],[-39.59722,-15.27445],[-39.59907,-15.27508],[-39.60228,-15.27571],[-39.60566,-15.27493],[-39.60822,-15.2743],[-39.60924,-15.27459],[-39.61076,-15.27587],[-39.61218,-15.27567],[-39.61289,-15.27458],[-39.61319,-15.2734],[-39.61461,-15.27162],[-39.61745,-15.27013],[-39.6209,-15.27012],[-39.62516,-15.26903],[-39.62648,-15.26882],[-39.62658,-15.2703],[-39.6275,-15.27148],[-39.62841,-15.27178],[-39.63004,-15.27167],[-39.63187,-15.27246],[-39.63319,-15.27373],[-39.63508,-15.27477],[-39.63809,-15.27589],[-39.63984,-15.2774],[-39.6415,-15.2774],[-39.64279,-15.27789],[-39.6433,-15.27876],[-39.64304,-15.28277],[-39.64208,-15.28768],[-39.64165,-15.29058],[-39.641,-15.29232],[-39.64026,-15.29363],[-39.63837,-15.2958],[-39.63823,-15.29797],[-39.63737,-15.29924],[-39.63161,-15.30086],[-39.6306,-15.30164],[-39.63053,-15.30283],[-39.63104,-15.30381],[-39.63075,-15.30556],[-39.63091,-15.30857],[-39.63178,-15.30962],[-39.63207,-15.31088],[-39.63135,-15.31284],[-39.63172,-15.31487],[-39.63122,-15.31683],[-39.62978,-15.31894],[-39.62827,-15.32006],[-39.62676,-15.32203],[-39.62685,-15.32679],[-39.62535,-15.33245],[-39.62478,-15.33527],[-39.62378,-15.33738],[-39.62357,-15.33857],[-39.62444,-15.34228],[-39.62481,-15.34501],[-39.62467,-15.34641],[-39.62511,-15.34914],[-39.6249,-15.35019],[-39.62317,-15.35223],[-39.62001,-15.35455],[-39.61842,-15.35518],[-39.61697,-15.35456],[-39.61561,-15.35624],[-39.61417,-15.3575],[-39.61215,-15.35863],[-39.61057,-15.35871],[-39.60862,-15.35822],[-39.60248,-15.35628],[-39.60074,-15.356],[-39.59938,-15.35663],[-39.59895,-15.36],[-39.59795,-15.36259],[-39.59831,-15.36336],[-39.59982,-15.36498],[-39.60076,-15.36872],[-39.60071,-15.3702],[-39.59935,-15.37442],[-39.59921,-15.37632],[-39.59972,-15.37758],[-39.60124,-15.37883],[-39.60161,-15.37953],[-39.60154,-15.38107],[-39.60046,-15.38185],[-39.59642,-15.38172],[-39.59461,-15.38228],[-39.5926,-15.38334],[-39.59209,-15.38494],[-39.58918,-15.38609],[-39.58515,-15.38874],[-39.58415,-15.3919],[-39.58426,-15.39644],[-39.58457,-15.39785],[-39.58401,-15.39951],[-39.58304,-15.40414],[-39.58311,-15.40586],[-39.5824,-15.40681],[-39.57868,-15.40785],[-39.57843,-15.40967],[-39.57852,-15.41118],[-39.57843,-15.4145],[-39.5776,-15.41742],[-39.5777,-15.42035],[-39.5772,-15.42162],[-39.57742,-15.42368],[-39.57676,-15.42521],[-39.57677,-15.42618],[-39.57933,-15.42868],[-39.58068,-15.42951],[-39.58222,-15.42997],[-39.58273,-15.43131],[-39.58343,-15.43609],[-39.58403,-15.43701],[-39.58453,-15.43868],[-39.58556,-15.43951],[-39.58676,-15.44282],[-39.58829,-15.44354],[-39.59001,-15.44618],[-39.59074,-15.44701],[-39.59185,-15.44951],[-39.5946,-15.45235],[-39.59525,-15.45384],[-39.59519,-15.45544],[-39.61364,-15.47053],[-39.61355,-15.47203],[-39.61439,-15.47358],[-39.61292,-15.47418],[-39.61196,-15.47596],[-39.61204,-15.47771],[-39.61181,-15.47874],[-39.61096,-15.47962],[-39.60982,-15.48013],[-39.61066,-15.4811],[-39.61022,-15.48245],[-39.60912,-15.48245],[-39.60899,-15.4838],[-39.60845,-15.48405],[-39.60822,-15.48645],[-39.60884,-15.48754],[-39.60863,-15.48857],[-39.6063,-15.49065],[-39.60609,-15.49118],[-39.60599,-15.49372],[-39.60561,-15.49462],[-39.60451,-15.49523],[-39.60227,-15.49444],[-39.60085,-15.49449],[-39.59997,-15.49562],[-39.5998,-15.49682],[-39.60007,-15.49954],[-39.59842,-15.49985],[-39.59561,-15.4976],[-39.59418,-15.49757],[-39.5919,-15.49838],[-39.59119,-15.49948],[-39.5911,-15.50118],[-39.59027,-15.50137],[-39.58872,-15.50101],[-39.58686,-15.50145],[-39.58542,-15.50081],[-39.58319,-15.50067],[-39.58173,-15.50095],[-39.57971,-15.50078],[-39.57929,-15.50186],[-39.58163,-15.50341],[-39.58097,-15.50519],[-39.57983,-15.50574],[-39.57526,-15.5059],[-39.57373,-15.50658],[-39.57324,-15.50732],[-39.57311,-15.5086],[-39.5736,-15.50971],[-39.5751,-15.51109],[-39.57556,-15.51299],[-39.57514,-15.51437],[-39.57392,-15.51451],[-39.57229,-15.51404],[-39.57173,-15.51354],[-39.57069,-15.51398],[-39.57068,-15.51547],[-39.57204,-15.51614],[-39.57236,-15.51702],[-39.57208,-15.51864],[-39.56965,-15.52003],[-39.56791,-15.52014],[-39.56551,-15.51981],[-39.56404,-15.52049],[-39.56249,-15.52265],[-39.56098,-15.5229],[-39.55927,-15.52266],[-39.55763,-15.52193],[-39.55564,-15.52011],[-39.55382,-15.51781],[-39.55214,-15.51742],[-39.5506,-15.51679],[-39.54963,-15.51694],[-39.54956,-15.51841],[-39.55004,-15.5192],[-39.54921,-15.51965],[-39.54867,-15.52081],[-39.54831,-15.52382],[-39.54782,-15.52553],[-39.5511,-15.52808],[-39.5541,-15.52984],[-39.55534,-15.53016],[-39.55631,-15.52989],[-39.55788,-15.52845],[-39.55924,-15.52824],[-39.56281,-15.52991],[-39.5643,-15.53141],[-39.56465,-15.53351],[-39.56459,-15.53636],[-39.56512,-15.53705],[-39.56726,-15.53831],[-39.56919,-15.54073],[-39.57075,-15.54402],[-39.57257,-15.54459],[-39.57439,-15.54422],[-39.5756,-15.5448],[-39.57651,-15.54436],[-39.57772,-15.54494],[-39.57969,-15.54413],[-39.58053,-15.54479],[-39.58186,-15.54512],[-39.58242,-15.54632],[-39.58621,-15.54624],[-39.58758,-15.5469],[-39.59049,-15.54866],[-39.59564,-15.54755],[-39.60193,-15.54592],[-39.60481,-15.54628],[-39.60809,-15.54802],[-39.61203,-15.54684],[-39.61362,-15.54706],[-39.61521,-15.5483],[-39.61635,-15.55028],[-39.61859,-15.55302],[-39.61537,-15.55748],[-39.61367,-15.55968],[-39.61165,-15.56192],[-39.61068,-15.56269],[-39.60959,-15.56446],[-39.60946,-15.56819],[-39.60887,-15.56999],[-39.6075,-15.57273],[-39.60733,-15.57397],[-39.60796,-15.57567],[-39.60753,-15.57607],[-39.6061,-15.57621],[-39.60451,-15.57603],[-39.60228,-15.57675],[-39.60168,-15.57805],[-39.60071,-15.57908],[-39.5989,-15.58306],[-39.5987,-15.58464],[-39.60014,-15.5864],[-39.59987,-15.58813],[-39.59834,-15.59071],[-39.59799,-15.59178],[-39.59654,-15.59302],[-39.59588,-15.59463],[-39.59574,-15.59573],[-39.59472,-15.59624],[-39.5938,-15.5975],[-39.59245,-15.59862],[-39.59257,-15.59994],[-39.59157,-15.60039],[-39.58957,-15.59998],[-39.58649,-15.59565],[-39.58493,-15.59376],[-39.58294,-15.59269],[-39.58037,-15.59289],[-39.57627,-15.5939],[-39.57456,-15.59454],[-39.57057,-15.59696],[-39.56909,-15.59768],[-39.5624,-15.6005],[-39.55739,-15.60229],[-39.55445,-15.60313],[-39.55173,-15.60346],[-39.54962,-15.6047],[-39.54815,-15.60715],[-39.54583,-15.60911],[-39.544,-15.61109],[-39.54169,-15.61258],[-39.53933,-15.6132],[-39.53437,-15.6134],[-39.53185,-15.61363],[-39.52909,-15.61408],[-39.52517,-15.61443],[-39.52264,-15.61409],[-39.52143,-15.61356],[-39.51981,-15.61212],[-39.51857,-15.60983],[-39.51749,-15.60691],[-39.51663,-15.60564],[-39.51441,-15.60403],[-39.51098,-15.60087],[-39.50959,-15.59865],[-39.50822,-15.59473],[-39.50607,-15.58922],[-39.50505,-15.58483],[-39.50057,-15.57618],[-39.49941,-15.57483],[-39.49942,-15.57274],[-39.50059,-15.57007],[-39.5007,-15.56833],[-39.49997,-15.56675],[-39.49762,-15.5652],[-39.49612,-15.5649],[-39.49431,-15.56494],[-39.4926,-15.56461],[-39.49172,-15.56382],[-39.491,-15.56174],[-39.49065,-15.55917],[-39.49015,-15.55796],[-39.48903,-15.55681],[-39.48743,-15.55609],[-39.48366,-15.55519],[-39.48116,-15.55399],[-39.47929,-15.55281],[-39.47726,-15.55116],[-39.47564,-15.55083],[-39.47417,-15.55137],[-39.47274,-15.55286],[-39.47169,-15.55446],[-39.47116,-15.55589],[-39.47172,-15.55758],[-39.47335,-15.55842],[-39.47612,-15.55953],[-39.47797,-15.56146],[-39.47837,-15.56243],[-39.47807,-15.56391],[-39.4767,-15.56688],[-39.47627,-15.56942],[-39.47453,-15.5716],[-39.47192,-15.57439],[-39.46986,-15.5763],[-39.46818,-15.57818],[-39.46684,-15.57903],[-39.46491,-15.57951],[-39.4627,-15.57934],[-39.45821,-15.57862],[-39.45646,-15.57769],[-39.4544,-15.57748],[-39.45137,-15.57849],[-39.4477,-15.58082],[-39.44577,-15.58155],[-39.44368,-15.58129],[-39.44208,-15.58017],[-39.44099,-15.57884],[-39.44086,-15.57742],[-39.44108,-15.57527],[-39.44076,-15.57425],[-39.43979,-15.57325],[-39.4382,-15.57235],[-39.43602,-15.57178],[-39.43483,-15.5712],[-39.4322,-15.56804],[-39.43092,-15.5671],[-39.42902,-15.56623],[-39.42487,-15.56512],[-39.42241,-15.56503],[-39.42094,-15.56534],[-39.4191,-15.56661],[-39.41795,-15.56656],[-39.41282,-15.56552],[-39.41101,-15.56552],[-39.40915,-15.56569],[-39.40812,-15.56319],[-39.40787,-15.5614],[-39.40671,-15.55965],[-39.40437,-15.55759],[-39.40387,-15.55669],[-39.40404,-15.55592],[-39.40631,-15.55347],[-39.40663,-15.55237],[-39.4073,-15.55172],[-39.40814,-15.55188],[-39.40996,-15.55298],[-39.41079,-15.55265],[-39.41226,-15.55036],[-39.41347,-15.54987],[-39.41518,-15.55036],[-39.41598,-15.55019],[-39.41593,-15.5493],[-39.41442,-15.54653],[-39.41504,-15.54442],[-39.41626,-15.54352],[-39.41709,-15.54193],[-39.4181,-15.54066],[-39.41885,-15.54046],[-39.42041,-15.54078],[-39.42187,-15.54004],[-39.42326,-15.54003],[-39.42383,-15.53817],[-39.42463,-15.53788],[-39.42691,-15.53903],[-39.42897,-15.53979],[-39.42955,-15.53965],[-39.43027,-15.5386],[-39.43014,-15.53631],[-39.42803,-15.53282],[-39.42782,-15.53067],[-39.42696,-15.52908],[-39.42732,-15.52779],[-39.42873,-15.52698],[-39.42985,-15.52593],[-39.4309,-15.52601],[-39.43196,-15.52695],[-39.43239,-15.52619],[-39.43221,-15.52445],[-39.43368,-15.52351],[-39.43583,-15.5235],[-39.4378,-15.5241],[-39.43934,-15.52552],[-39.44024,-15.52453],[-39.43936,-15.522],[-39.43784,-15.52001],[-39.4366,-15.51808],[-39.43367,-15.51573],[-39.4331,-15.51421],[-39.43456,-15.51396],[-39.43502,-15.51172],[-39.4363,-15.50867],[-39.43631,-15.50561],[-39.43453,-15.50275],[-39.43439,-15.50147],[-39.43467,-15.50031],[-39.43443,-15.49845],[-39.43468,-15.4915],[-39.43457,-15.48971],[-39.43643,-15.48925],[-39.43882,-15.48956],[-39.43976,-15.48808],[-39.44102,-15.48409],[-39.44076,-15.48091],[-39.44132,-15.47877],[-39.44172,-15.47855],[-39.44318,-15.47919],[-39.4438,-15.47986],[-39.44452,-15.47961],[-39.44408,-15.47774],[-39.4442,-15.47451],[-39.44353,-15.47364],[-39.44303,-15.47177],[-39.44118,-15.47178],[-39.44057,-15.47025],[-39.44075,-15.46943],[-39.44487,-15.46682],[-39.44823,-15.46556],[-39.44855,-15.46507],[-39.44798,-15.46361],[-39.44642,-15.46238],[-39.44623,-15.45955],[-39.44621,-15.45658],[-39.44709,-15.45614],[-39.44878,-15.45672],[-39.44936,-15.45581],[-39.44898,-15.45407],[-39.44677,-15.45176],[-39.44704,-15.44957],[-39.44662,-15.44821],[-39.44677,-15.44733],[-39.44747,-15.44696],[-39.44726,-15.44516],[-39.4477,-15.44371],[-39.44743,-15.44275],[-39.44829,-15.44018],[-39.4492,-15.43867],[-39.45006,-15.43809],[-39.44937,-15.43664],[-39.44965,-15.43545],[-39.44825,-15.43547],[-39.44675,-15.43462],[-39.44611,-15.43392],[-39.44608,-15.43264],[-39.44657,-15.43008],[-39.44754,-15.42882],[-39.4492,-15.42748],[-39.45011,-15.42541],[-39.45425,-15.42093],[-39.45515,-15.4197],[-39.45304,-15.41845],[-39.45409,-15.41487],[-39.45754,-15.41073],[-39.45895,-15.41158],[-39.45964,-15.41085],[-39.46318,-15.40779],[-39.46755,-15.40419],[-39.47034,-15.40169],[-39.47236,-15.3987],[-39.47388,-15.39598],[-39.47592,-15.3944],[-39.47673,-15.39341],[-39.47927,-15.38967],[-39.48041,-15.38854],[-39.48307,-15.38684],[-39.48371,-15.38664],[-39.48595,-15.38471],[-39.48769,-15.38356],[-39.48965,-15.38297],[-39.49262,-15.38276],[-39.49291,-15.38241],[-39.50341,-15.38221],[-39.54062,-15.38176],[-39.54097,-15.37794],[-39.53959,-15.37891],[-39.53785,-15.37937],[-39.5369,-15.3792],[-39.53564,-15.3777],[-39.53449,-15.37583],[-39.53467,-15.371],[-39.53463,-15.369],[-39.53399,-15.36587],[-39.53335,-15.36416],[-39.53398,-15.3635],[-39.53537,-15.36365],[-39.53658,-15.36289],[-39.53848,-15.36244],[-39.5384,-15.36092],[-39.53716,-15.35888],[-39.53724,-15.35649],[-39.53644,-15.35373],[-39.53641,-15.35271],[-39.53697,-15.35185],[-39.53696,-15.3501],[-39.53863,-15.35008],[-39.53904,-15.34784],[-39.5405,-15.34554],[-39.5409,-15.34407],[-39.54191,-15.34272],[-39.5415,-15.33896],[-39.5408,-15.33871],[-39.54076,-15.33693],[-39.54103,-15.33483],[-39.54089,-15.33211],[-39.54122,-15.33126],[-39.54047,-15.33037],[-39.53872,-15.3308],[-39.53745,-15.32932],[-39.53764,-15.32881],[-39.53939,-15.32808],[-39.53974,-15.32613],[-39.53968,-15.31858],[-39.53918,-15.31685],[-39.53927,-15.31569],[-39.53892,-15.31231],[-39.53895,-15.31023],[-39.53851,-15.30861],[-39.53851,-15.30687],[-39.5375,-15.2949],[-39.5399,-15.29535],[-39.5411,-15.2959],[-39.54238,-15.29822],[-39.5421,-15.29946],[-39.54118,-15.30007],[-39.54112,-15.30124],[-39.54303,-15.30315],[-39.54386,-15.3035],[-39.54482,-15.30324],[-39.54585,-15.30219],[-39.54613,-15.30082],[-39.54563,-15.29931],[-39.54605,-15.29643],[-39.54661,-15.29568],[-39.54788,-15.29574],[-39.54859,-15.29691],[-39.54944,-15.29958],[-39.55008,-15.29971],[-39.55162,-15.29656],[-39.55239,-15.29566],[-39.55697,-15.29202],[-39.56026,-15.29175],[-39.5619,-15.29137],[-39.56277,-15.29165],[-39.56403,-15.29361],[-39.5657,-15.29507],[-39.56699,-15.29715],[-39.56721,-15.2984],[-39.56732,-15.30266],[-39.56669,-15.30599],[-39.5667,-15.30776],[-39.56735,-15.31119],[-39.56882,-15.31157],[-39.57077,-15.30941],[-39.57323,-15.30889],[-39.5757,-15.30794],[-39.57687,-15.30701],[-39.57805,-15.30523],[-39.57858,-15.30367],[-39.57847,-15.30201],[-39.57771,-15.30035],[-39.57621,-15.299],[-39.57567,-15.29733],[-39.57352,-15.29443],[-39.5733,-15.29339],[-39.57362,-15.29183],[-39.57447,-15.29068],[-39.57543,-15.28995],[-39.57736,-15.28974],[-39.57854,-15.28869],[-39.57876,-15.28759]]]},"properties":{"codigo":"290560205","name":"Camacan","population":18282,"households":9405,"areaKm2":463.6351,"density":39.4}},{"type":"Feature","geometry":{"type":"Polygon","coordinates":[[[-39.5375,-15.2949],[-39.53851,-15.30687],[-39.53851,-15.30861],[-39.53895,-15.31023],[-39.53892,-15.31231],[-39.53927,-15.31569],[-39.53918,-15.31685],[-39.53968,-15.31858],[-39.53974,-15.32613],[-39.53939,-15.32808],[-39.53764,-15.32881],[-39.53745,-15.32932],[-39.53872,-15.3308],[-39.54047,-15.33037],[-39.54122,-15.33126],[-39.54089,-15.33211],[-39.54103,-15.33483],[-39.54076,-15.33693],[-39.5408,-15.33871],[-39.5415,-15.33896],[-39.54191,-15.34272],[-39.5409,-15.34407],[-39.5405,-15.34554],[-39.53904,-15.34784],[-39.53863,-15.35008],[-39.53696,-15.3501],[-39.53697,-15.35185],[-39.53641,-15.35271],[-39.53644,-15.35373],[-39.53724,-15.35649],[-39.53716,-15.35888],[-39.5384,-15.36092],[-39.53848,-15.36244],[-39.53658,-15.36289],[-39.53537,-15.36365],[-39.53398,-15.3635],[-39.53335,-15.36416],[-39.53399,-15.36587],[-39.53463,-15.369],[-39.53467,-15.371],[-39.53449,-15.37583],[-39.53564,-15.3777],[-39.5369,-15.3792],[-39.53785,-15.37937],[-39.53959,-15.37891],[-39.54097,-15.37794],[-39.54062,-15.38176],[-39.50341,-15.38221],[-39.49291,-15.38241],[-39.49262,-15.38276],[-39.48965,-15.38297],[-39.48769,-15.38356],[-39.48595,-15.38471],[-39.48371,-15.38664],[-39.48307,-15.38684],[-39.48041,-15.38854],[-39.47927,-15.38967],[-39.47673,-15.39341],[-39.47592,-15.3944],[-39.47388,-15.39598],[-39.47236,-15.3987],[-39.47034,-15.40169],[-39.46755,-15.40419],[-39.46318,-15.40779],[-39.45964,-15.41085],[-39.45895,-15.41158],[-39.45754,-15.41073],[-39.45409,-15.41487],[-39.45304,-15.41845],[-39.45515,-15.4197],[-39.45425,-15.42093],[-39.45011,-15.42541],[-39.4492,-15.42748],[-39.44754,-15.42882],[-39.44657,-15.43008],[-39.44608,-15.43264],[-39.44611,-15.43392],[-39.44675,-15.43462],[-39.44825,-15.43547],[-39.44965,-15.43545],[-39.44937,-15.43664],[-39.45006,-15.43809],[-39.4492,-15.43867],[-39.44829,-15.44018],[-39.44743,-15.44275],[-39.4477,-15.44371],[-39.44726,-15.44516],[-39.44747,-15.44696],[-39.44677,-15.44733],[-39.44662,-15.44821],[-39.44704,-15.44957],[-39.44677,-15.45176],[-39.44898,-15.45407],[-39.44936,-15.45581],[-39.44878,-15.45672],[-39.44709,-15.45614],[-39.44621,-15.45658],[-39.44623,-15.45955],[-39.44642,-15.46238],[-39.44798,-15.46361],[-39.44855,-15.46507],[-39.44823,-15.46556],[-39.44487,-15.46682],[-39.44075,-15.46943],[-39.44057,-15.47025],[-39.44118,-15.47178],[-39.44303,-15.47177],[-39.44353,-15.47364],[-39.4442,-15.47451],[-39.44408,-15.47774],[-39.44452,-15.47961],[-39.4438,-15.47986],[-39.44318,-15.47919],[-39.44172,-15.47855],[-39.44132,-15.47877],[-39.44076,-15.48091],[-39.44102,-15.48409],[-39.43976,-15.48808],[-39.43882,-15.48956],[-39.43643,-15.48925],[-39.43457,-15.48971],[-39.43501,-15.48817],[-39.43426,-15.48601],[-39.43263,-15.48398],[-39.43118,-15.48144],[-39.43078,-15.47936],[-39.42972,-15.47747],[-39.42718,-15.47577],[-39.42644,-15.47503],[-39.42469,-15.47244],[-39.42382,-15.47157],[-39.42216,-15.46907],[-39.42178,-15.46704],[-39.42124,-15.46566],[-39.41959,-15.46409],[-39.41815,-15.46368],[-39.4151,-15.46332],[-39.41022,-15.46464],[-39.40797,-15.46572],[-39.40653,-15.46678],[-39.40593,-15.47006],[-39.40543,-15.47151],[-39.40415,-15.47285],[-39.40283,-15.47201],[-39.39926,-15.47052],[-39.39653,-15.47035],[-39.39455,-15.46897],[-39.3939,-15.46915],[-39.39274,-15.46868],[-39.39127,-15.46868],[-39.39071,-15.46951],[-39.38818,-15.47118],[-39.38657,-15.47182],[-39.38475,-15.47127],[-39.38426,-15.46994],[-39.38421,-15.46868],[-39.38228,-15.46432],[-39.38202,-15.46144],[-39.38151,-15.4588],[-39.38044,-15.45819],[-39.37918,-15.45676],[-39.37766,-15.45618],[-39.37459,-15.45818],[-39.37342,-15.45966],[-39.3736,-15.46135],[-39.37343,-15.46387],[-39.3726,-15.46469],[-39.37175,-15.46617],[-39.37058,-15.46701],[-39.36928,-15.46942],[-39.36729,-15.4707],[-39.36438,-15.4722],[-39.36371,-15.47001],[-39.36396,-15.46878],[-39.36514,-15.46591],[-39.3654,-15.46225],[-39.36638,-15.45983],[-39.36583,-15.45667],[-39.36594,-15.45552],[-39.36648,-15.45457],[-39.36929,-15.45246],[-39.37027,-15.45141],[-39.37015,-15.44962],[-39.36874,-15.44731],[-39.36895,-15.44541],[-39.36971,-15.44457],[-39.37134,-15.44372],[-39.37361,-15.44309],[-39.37469,-15.44172],[-39.37458,-15.44046],[-39.37523,-15.43983],[-39.37621,-15.43982],[-39.37664,-15.43919],[-39.37653,-15.43803],[-39.37555,-15.43698],[-39.37512,-15.4353],[-39.37706,-15.43351],[-39.37771,-15.4313],[-39.37865,-15.42955],[-39.37998,-15.42572],[-39.38127,-15.42425],[-39.38344,-15.42256],[-39.38539,-15.42182],[-39.3868,-15.42234],[-39.39125,-15.42297],[-39.39331,-15.42275],[-39.39395,-15.42159],[-39.39558,-15.42043],[-39.39709,-15.41969],[-39.39847,-15.41784],[-39.39909,-15.41827],[-39.4053,-15.41943],[-39.40851,-15.42126],[-39.41163,-15.4224],[-39.41471,-15.4229],[-39.41724,-15.4228],[-39.41509,-15.42028],[-39.41452,-15.41872],[-39.41472,-15.41752],[-39.41674,-15.41545],[-39.41706,-15.4145],[-39.41699,-15.41309],[-39.41822,-15.41261],[-39.41963,-15.41166],[-39.42103,-15.41134],[-39.42201,-15.41007],[-39.42341,-15.40765],[-39.42536,-15.40565],[-39.42774,-15.40438],[-39.42806,-15.40365],[-39.42763,-15.40144],[-39.42794,-15.39818],[-39.42696,-15.39544],[-39.42533,-15.39292],[-39.42435,-15.39051],[-39.42457,-15.38977],[-39.42684,-15.3884],[-39.43128,-15.38723],[-39.4354,-15.38764],[-39.43659,-15.38754],[-39.43898,-15.38679],[-39.44071,-15.38721],[-39.44245,-15.389],[-39.44408,-15.39236],[-39.44409,-15.39583],[-39.44225,-15.39867],[-39.44258,-15.39994],[-39.44453,-15.40056],[-39.44616,-15.40046],[-39.44757,-15.40098],[-39.44866,-15.40171],[-39.44974,-15.40297],[-39.45076,-15.40485],[-39.45168,-15.40706],[-39.4527,-15.4086],[-39.45453,-15.40954],[-39.45624,-15.40948],[-39.45879,-15.40848],[-39.46525,-15.40357],[-39.46589,-15.40231],[-39.46491,-15.40073],[-39.46296,-15.39947],[-39.46263,-15.39863],[-39.46306,-15.39506],[-39.46219,-15.39359],[-39.46175,-15.39201],[-39.45979,-15.3898],[-39.45925,-15.38802],[-39.45897,-15.38594],[-39.45953,-15.38185],[-39.45985,-15.37036],[-39.45996,-15.3681],[-39.45989,-15.36467],[-39.46034,-15.36313],[-39.46148,-15.36163],[-39.4625,-15.3613],[-39.46461,-15.36129],[-39.46728,-15.36157],[-39.46819,-15.36145],[-39.46922,-15.36073],[-39.47063,-15.35692],[-39.47077,-15.35391],[-39.4712,-15.35265],[-39.47196,-15.35159],[-39.47564,-15.35032],[-39.47651,-15.3499],[-39.48004,-15.34925],[-39.48148,-15.34762],[-39.48193,-15.3464],[-39.48175,-15.34403],[-39.48088,-15.34177],[-39.48189,-15.34081],[-39.48315,-15.3391],[-39.48404,-15.33745],[-39.48572,-15.33339],[-39.48601,-15.33189],[-39.48596,-15.32689],[-39.4861,-15.32427],[-39.48674,-15.32141],[-39.48662,-15.31922],[-39.48541,-15.31491],[-39.48489,-15.31239],[-39.48523,-15.30739],[-39.48595,-15.30646],[-39.48882,-15.30495],[-39.49226,-15.29958],[-39.49406,-15.29553],[-39.49608,-15.29239],[-39.49823,-15.29076],[-39.49997,-15.29065],[-39.50163,-15.2918],[-39.5061,-15.29374],[-39.50734,-15.29569],[-39.50968,-15.29601],[-39.51114,-15.29709],[-39.51192,-15.2972],[-39.51359,-15.29557],[-39.51515,-15.29589],[-39.51683,-15.29719],[-39.51963,-15.29859],[-39.5213,-15.30043],[-39.5222,-15.30054],[-39.52677,-15.29977],[-39.528,-15.29922],[-39.52878,-15.29846],[-39.53023,-15.2977],[-39.53426,-15.29762],[-39.53574,-15.2957],[-39.5375,-15.2949]]]},"properties":{"codigo":"290560220","name":"São João do Panelinha","population":4297,"households":2341,"areaKm2":121.2126,"density":35.5}}]}