{"type":"FeatureCollection","features":[{"type":"Feature","geometry":{"type":"MultiPolygon","coordinates":[[[[-38.96785,-13.84875],[-38.9711,-13.85402],[-38.97459,-13.85853],[-38.983,-13.86633],[-38.99019,-13.87044],[-38.99655,-13.8731],[-39.00229,-13.87824],[-39.00599,-13.88378],[-39.00783,-13.89342],[-39.01071,-13.89794],[-39.01716,-13.90509],[-39.02274,-13.90715],[-39.02762,-13.90795],[-39.03133,-13.90903],[-39.03851,-13.91549],[-39.04305,-13.91776],[-39.0482,-13.91836],[-39.05411,-13.91841],[-39.06471,-13.91716],[-39.0701,-13.91501],[-39.07621,-13.90922],[-39.0773,-13.90767],[-39.07864,-13.90523],[-39.07984,-13.9026],[-39.08028,-13.89882],[-39.08126,-13.89536],[-39.0826,-13.8935],[-39.08411,-13.8924],[-39.08638,-13.8918],[-39.08923,-13.8917],[-39.09159,-13.89206],[-39.09451,-13.8936],[-39.09778,-13.89444],[-39.09988,-13.89419],[-39.10697,-13.89123],[-39.1091,-13.89027],[-39.11517,-13.88708],[-39.11665,-13.88668],[-39.11929,-13.88661],[-39.12062,-13.88691],[-39.12177,-13.88753],[-39.12266,-13.88757],[-39.12377,-13.88683],[-39.12676,-13.88532],[-39.12821,-13.88589],[-39.12877,-13.88689],[-39.12895,-13.88816],[-39.12882,-13.88984],[-39.12938,-13.89153],[-39.1311,-13.89193],[-39.13366,-13.89118],[-39.13508,-13.89195],[-39.13722,-13.89192],[-39.13884,-13.89161],[-39.14063,-13.89199],[-39.14187,-13.89177],[-39.14279,-13.89076],[-39.1429,-13.88995],[-39.1415,-13.88899],[-39.1412,-13.88818],[-39.14237,-13.88803],[-39.14428,-13.88859],[-39.1472,-13.88859],[-39.14834,-13.88931],[-39.1488,-13.89083],[-39.15004,-13.89146],[-39.15166,-13.89136],[-39.1536,-13.89232],[-39.15455,-13.89404],[-39.15601,-13.89502],[-39.15654,-13.895],[-39.15771,-13.894],[-39.15881,-13.89483],[-39.16009,-13.89497],[-39.16227,-13.89298],[-39.16302,-13.89274],[-39.16466,-13.89292],[-39.16695,-13.89355],[-39.16808,-13.89544],[-39.16983,-13.89644],[-39.17015,-13.89746],[-39.1715,-13.8973],[-39.17182,-13.8983],[-39.1726,-13.89893],[-39.17422,-13.8988],[-39.17576,-13.90026],[-39.17641,-13.90277],[-39.17697,-13.9041],[-39.17489,-13.90626],[-39.17433,-13.90815],[-39.17455,-13.90925],[-39.17564,-13.91004],[-39.17755,-13.91077],[-39.1788,-13.9129],[-39.1784,-13.91717],[-39.17925,-13.91842],[-39.18006,-13.91881],[-39.1815,-13.91866],[-39.18334,-13.91899],[-39.18415,-13.91884],[-39.18654,-13.91657],[-39.18909,-13.91643],[-39.19083,-13.91584],[-39.19196,-13.91413],[-39.19446,-13.91341],[-39.19563,-13.91262],[-39.19716,-13.91235],[-39.19798,-13.91132],[-39.2,-13.91199],[-39.20221,-13.91184],[-39.2028,-13.91298],[-39.20239,-13.91563],[-39.2031,-13.91653],[-39.20456,-13.91587],[-39.20561,-13.91587],[-39.20699,-13.9166],[-39.20774,-13.91913],[-39.20858,-13.92006],[-39.21651,-13.92952],[-39.21854,-13.93026],[-39.22089,-13.9294],[-39.22161,-13.92992],[-39.22314,-13.93281],[-39.22578,-13.93559],[-39.22799,-13.93653],[-39.23031,-13.93663],[-39.23183,-13.93704],[-39.23312,-13.93602],[-39.23486,-13.93509],[-39.23661,-13.93462],[-39.23685,-13.93287],[-39.23827,-13.93218],[-39.23982,-13.93272],[-39.24012,-13.93472],[-39.24137,-13.93526],[-39.24221,-13.93518],[-39.24336,-13.93617],[-39.24365,-13.939],[-39.24405,-13.93999],[-39.24548,-13.94072],[-39.24848,-13.94122],[-39.24998,-13.94125],[-39.2516,-13.94077],[-39.25278,-13.94133],[-39.25417,-13.94079],[-39.255,-13.94085],[-39.25619,-13.94209],[-39.25797,-13.942],[-39.25921,-13.9407],[-39.26023,-13.94019],[-39.26097,-13.94063],[-39.26168,-13.93997],[-39.26323,-13.93966],[-39.26515,-13.93863],[-39.2667,-13.93863],[-39.26786,-13.93798],[-39.26986,-13.93811],[-39.27123,-13.93858],[-39.27425,-13.94192],[-39.27567,-13.94235],[-39.27687,-13.94309],[-39.27882,-13.94514],[-39.28107,-13.94563],[-39.28197,-13.94664],[-39.28249,-13.94826],[-39.28326,-13.9486],[-39.28369,-13.94727],[-39.28332,-13.94605],[-39.28321,-13.94403],[-39.28288,-13.94194],[-39.28207,-13.93899],[-39.28112,-13.9367],[-39.28036,-13.9357],[-39.28126,-13.93411],[-39.28543,-13.93307],[-39.29035,-13.933],[-39.29158,-13.9327],[-39.29457,-13.93254],[-39.2958,-13.93279],[-39.29723,-13.93415],[-39.29867,-13.93817],[-39.29937,-13.94096],[-39.29965,-13.94407],[-39.30122,-13.94725],[-39.30189,-13.94925],[-39.30261,-13.94857],[-39.30368,-13.94823],[-39.30701,-13.94814],[-39.31093,-13.94693],[-39.3134,-13.94519],[-39.31547,-13.94269],[-39.31756,-13.94058],[-39.31958,-13.94032],[-39.32104,-13.9404],[-39.32357,-13.94089],[-39.32482,-13.94158],[-39.32664,-13.94197],[-39.32889,-13.94217],[-39.32918,-13.94338],[-39.33014,-13.94469],[-39.32998,-13.94651],[-39.33014,-13.94906],[-39.32926,-13.95083],[-39.32878,-13.95256],[-39.32687,-13.95345],[-39.32808,-13.95576],[-39.32794,-13.9569],[-39.32857,-13.95833],[-39.33112,-13.96156],[-39.33156,-13.9625],[-39.33117,-13.96447],[-39.32993,-13.96656],[-39.33017,-13.96761],[-39.33131,-13.97013],[-39.33284,-13.9718],[-39.33408,-13.9726],[-39.33762,-13.9729],[-39.33828,-13.9733],[-39.33874,-13.97503],[-39.33862,-13.97701],[-39.33966,-13.97832],[-39.3415,-13.98224],[-39.34191,-13.98341],[-39.34283,-13.98742],[-39.34302,-13.99033],[-39.34361,-13.99135],[-39.3438,-13.99272],[-39.34453,-13.99343],[-39.34457,-13.99518],[-39.34603,-13.99629],[-39.3461,-13.99722],[-39.34551,-13.99839],[-39.3453,-14.00034],[-39.3459,-14.00171],[-39.34581,-14.00347],[-39.34771,-14.00491],[-39.34873,-14.00643],[-39.34902,-14.00789],[-39.34936,-14.01327],[-39.34962,-14.01419],[-39.35034,-14.01497],[-39.35144,-14.01785],[-39.35203,-14.0202],[-39.35247,-14.02333],[-39.35365,-14.02865],[-39.35438,-14.03114],[-39.3552,-14.03214],[-39.35766,-14.03218],[-39.3585,-14.0326],[-39.35872,-14.03381],[-39.35748,-14.03457],[-39.35686,-14.03663],[-39.35666,-14.03949],[-39.35505,-14.04075],[-39.3556,-14.04185],[-39.35535,-14.04274],[-39.35589,-14.04479],[-39.35535,-14.04589],[-39.35415,-14.04648],[-39.2961,-14.01718],[-39.29716,-13.99458],[-39.25252,-13.99383],[-39.18707,-13.99272],[-39.16955,-13.99242],[-39.11896,-13.99155],[-39.07485,-13.99078],[-39.02417,-13.98989],[-39.00748,-13.98896],[-39.00913,-13.98797],[-39.00981,-13.98727],[-39.01103,-13.98501],[-39.01321,-13.98207],[-39.01443,-13.98133],[-39.01494,-13.98049],[-39.0156,-13.97765],[-39.01525,-13.9757],[-39.01403,-13.974],[-39.01236,-13.97281],[-39.0122,-13.97145],[-39.01302,-13.97105],[-39.01416,-13.97108],[-39.01413,-13.96884],[-39.0149,-13.96703],[-39.01457,-13.96578],[-39.01289,-13.96448],[-39.01231,-13.96508],[-39.01135,-13.96461],[-39.0097,-13.96648],[-39.00796,-13.96606],[-39.00653,-13.96613],[-39.0051,-13.96414],[-39.00341,-13.96454],[-39.00393,-13.96663],[-39.00299,-13.96781],[-38.98932,-13.96323],[-38.99068,-13.96067],[-38.99266,-13.95557],[-38.99567,-13.94922],[-38.9989,-13.94121],[-39.00057,-13.93569],[-39.00098,-13.9308],[-39.00046,-13.92685],[-38.99848,-13.92247],[-38.99633,-13.91933],[-38.99453,-13.91529],[-38.99328,-13.91113],[-38.99088,-13.90122],[-38.98835,-13.89446],[-38.9861,-13.89212],[-38.97861,-13.88968],[-38.97196,-13.89022],[-38.96677,-13.8875],[-38.96121,-13.88309],[-38.95377,-13.87425],[-38.95173,-13.87238],[-38.96785,-13.84875]]],[[[-38.94049,-13.83557],[-38.9424,-13.83568],[-38.94078,-13.83661],[-38.93955,-13.83793],[-38.93931,-13.83904],[-38.93801,-13.83875],[-38.93787,-13.83638],[-38.93861,-13.83579],[-38.93941,-13.83615],[-38.94049,-13.83557]]]]},"properties":{"codigo":"290580005","name":"Camamu","population":19030,"households":9847,"areaKm2":345.6486,"density":55.1}},{"type":"Feature","geometry":{"type":"Polygon","coordinates":[[[-39.2961,-14.01718],[-39.29598,-14.01711],[-39.29319,-14.02815],[-39.30041,-14.0308],[-39.30681,-14.03236],[-39.30602,-14.03706],[-39.31916,-14.03751],[-39.31924,-14.04259],[-39.26235,-14.03495],[-39.21067,-14.02801],[-39.18691,-14.02481],[-39.13569,-14.022],[-39.07323,-14.03389],[-39.07126,-14.03471],[-39.06902,-14.03635],[-39.06793,-14.03653],[-39.06644,-14.03632],[-39.06499,-14.03776],[-39.06499,-14.04036],[-39.06341,-14.04235],[-39.06209,-14.04216],[-39.06144,-14.04295],[-39.06135,-14.04424],[-39.0609,-14.04505],[-39.05878,-14.04735],[-39.05897,-14.04939],[-39.05849,-14.05034],[-39.05737,-14.0513],[-39.05765,-14.05179],[-39.0592,-14.0527],[-39.05887,-14.05388],[-39.05798,-14.05401],[-39.05737,-14.05514],[-39.05763,-14.05996],[-39.06002,-14.06506],[-39.06179,-14.06851],[-39.06214,-14.07197],[-39.06179,-14.07647],[-39.06312,-14.0801],[-39.06586,-14.08365],[-39.06798,-14.08676],[-39.07152,-14.08952],[-39.07285,-14.09281],[-39.07303,-14.09653],[-39.07038,-14.10215],[-39.06746,-14.1063],[-39.06608,-14.10921],[-39.06374,-14.10664],[-39.06096,-14.10439],[-39.05908,-14.10329],[-39.05759,-14.10329],[-39.05542,-14.10409],[-39.05354,-14.10726],[-39.05191,-14.1089],[-39.04998,-14.10894],[-39.0471,-14.10833],[-39.04247,-14.10504],[-39.03993,-14.10363],[-39.0371,-14.1028],[-39.03296,-14.10205],[-39.02909,-14.10176],[-39.02543,-14.10124],[-39.02082,-14.09981],[-39.01539,-14.09501],[-39.01084,-14.09061],[-39.00642,-14.08594],[-39.00334,-14.08401],[-38.99977,-14.08293],[-38.99736,-14.08314],[-38.99256,-14.08249],[-38.98824,-14.0806],[-38.9848,-14.07772],[-38.98247,-14.07394],[-38.98144,-14.069],[-38.98103,-14.06197],[-38.98193,-14.05007],[-38.98345,-14.04587],[-38.98578,-14.04194],[-38.98862,-14.03917],[-38.99359,-14.03631],[-39.00202,-14.03405],[-39.00474,-14.03215],[-39.0059,-14.02897],[-39.00618,-14.02561],[-39.0041,-14.01833],[-39.0015,-14.01313],[-39.00026,-14.00763],[-38.99963,-14.00293],[-38.99755,-13.99929],[-38.9939,-13.99564],[-38.98923,-13.99054],[-38.98783,-13.98691],[-38.98641,-13.97837],[-38.9862,-13.97295],[-38.98724,-13.96712],[-38.98932,-13.96323],[-39.00299,-13.96781],[-39.00393,-13.96663],[-39.00341,-13.96454],[-39.0051,-13.96414],[-39.00653,-13.96613],[-39.00796,-13.96606],[-39.0097,-13.96648],[-39.01135,-13.96461],[-39.01231,-13.96508],[-39.01289,-13.96448],[-39.01457,-13.96578],[-39.0149,-13.96703],[-39.01413,-13.96884],[-39.01416,-13.97108],[-39.01302,-13.97105],[-39.0122,-13.97145],[-39.01236,-13.97281],[-39.01403,-13.974],[-39.01525,-13.9757],[-39.0156,-13.97765],[-39.01494,-13.98049],[-39.01443,-13.98133],[-39.01321,-13.98207],[-39.01103,-13.98501],[-39.00981,-13.98727],[-39.00913,-13.98797],[-39.00748,-13.98896],[-39.02417,-13.98989],[-39.07485,-13.99078],[-39.11896,-13.99155],[-39.16955,-13.99242],[-39.18707,-13.99272],[-39.25252,-13.99383],[-39.29716,-13.99458],[-39.2961,-14.01718]]]},"properties":{"codigo":"290580010","name":"Barcelos do Sul","population":3826,"households":1879,"areaKm2":203.7967,"density":18.8}},{"type":"Feature","geometry":{"type":"Polygon","coordinates":[[[-39.35415,-14.04648],[-39.35219,-14.04785],[-39.35104,-14.04897],[-39.35015,-14.04916],[-39.34912,-14.0484],[-39.34804,-14.04898],[-39.34667,-14.05253],[-39.34742,-14.0533],[-39.34971,-14.05396],[-39.34975,-14.05491],[-39.34855,-14.05576],[-39.34731,-14.05701],[-39.34735,-14.05817],[-39.34869,-14.06113],[-39.34814,-14.06424],[-39.34769,-14.06457],[-39.34608,-14.064],[-39.34424,-14.06415],[-39.34228,-14.065],[-39.34225,-14.06712],[-39.34074,-14.06731],[-39.34153,-14.06841],[-39.34485,-14.06899],[-39.34407,-14.07007],[-39.34318,-14.07065],[-39.34181,-14.07083],[-39.34096,-14.07195],[-39.33993,-14.07275],[-39.33982,-14.07456],[-39.34023,-14.07575],[-39.34015,-14.07705],[-39.3412,-14.07919],[-39.34083,-14.08027],[-39.33972,-14.08082],[-39.33542,-14.08181],[-39.33542,-14.08354],[-39.33464,-14.08455],[-39.33346,-14.08524],[-39.33257,-14.08661],[-39.33035,-14.08924],[-39.33095,-14.09168],[-39.33066,-14.09349],[-39.3317,-14.09725],[-39.33315,-14.10093],[-39.33564,-14.1052],[-39.33611,-14.1063],[-39.33713,-14.10758],[-39.33746,-14.1063],[-39.33841,-14.10588],[-39.34074,-14.10578],[-39.34084,-14.10453],[-39.3418,-14.10396],[-39.3419,-14.10526],[-39.34335,-14.10895],[-39.3425,-14.11011],[-39.34235,-14.11101],[-39.34321,-14.11286],[-39.34425,-14.11383],[-39.34585,-14.1129],[-39.34833,-14.11393],[-39.34929,-14.11469],[-39.34955,-14.11556],[-39.34855,-14.11751],[-39.34786,-14.12056],[-39.34694,-14.11912],[-39.34634,-14.11915],[-39.34545,-14.12085],[-39.34352,-14.12187],[-39.34326,-14.12309],[-39.34475,-14.1253],[-39.34531,-14.12703],[-39.34616,-14.13094],[-39.34892,-14.14001],[-39.35033,-14.14202],[-39.34871,-14.14241],[-39.34902,-14.14405],[-39.34862,-14.14517],[-39.3466,-14.14676],[-39.3461,-14.14824],[-39.34442,-14.14713],[-39.34415,-14.14545],[-39.34278,-14.1451],[-39.34193,-14.1453],[-39.34013,-14.1475],[-39.33884,-14.1483],[-39.33722,-14.14893],[-39.33493,-14.1495],[-39.33389,-14.15014],[-39.33322,-14.15113],[-39.33131,-14.15514],[-39.32783,-14.15346],[-39.32583,-14.14539],[-39.31579,-14.14393],[-39.28489,-14.1384],[-39.28298,-14.13786],[-39.28085,-14.13695],[-39.27758,-14.13706],[-39.27636,-14.13767],[-39.27482,-14.13759],[-39.27541,-14.13611],[-39.27682,-14.13346],[-39.27511,-14.13207],[-39.27368,-14.13016],[-39.27218,-14.12974],[-39.27131,-14.13079],[-39.26979,-14.13111],[-39.26819,-14.13074],[-39.26693,-14.13096],[-39.26338,-14.13089],[-39.26186,-14.13035],[-39.26045,-14.1292],[-39.25919,-14.12768],[-39.25759,-14.12721],[-39.2567,-14.1266],[-39.25555,-14.12521],[-39.25423,-14.12469],[-39.25211,-14.11875],[-39.25087,-14.11742],[-39.24794,-14.11706],[-39.2458,-14.11598],[-39.24519,-14.1173],[-39.24586,-14.11837],[-39.24677,-14.12092],[-39.24661,-14.12181],[-39.24486,-14.12242],[-39.24321,-14.12151],[-39.24245,-14.1207],[-39.24146,-14.12068],[-39.24072,-14.12202],[-39.23959,-14.12238],[-39.23745,-14.12169],[-39.23629,-14.12063],[-39.23215,-14.11824],[-39.23089,-14.11692],[-39.22858,-14.11634],[-39.22733,-14.11548],[-39.22481,-14.11455],[-39.22165,-14.11255],[-39.22056,-14.1108],[-39.21857,-14.10989],[-39.21775,-14.10977],[-39.21668,-14.1103],[-39.21511,-14.11171],[-39.21387,-14.11159],[-39.21305,-14.1111],[-39.21259,-14.11014],[-39.21288,-14.10881],[-39.21193,-14.10789],[-39.2109,-14.10797],[-39.20934,-14.10878],[-39.20815,-14.10894],[-39.20732,-14.10797],[-39.20588,-14.10757],[-39.20501,-14.10657],[-39.20402,-14.10617],[-39.20054,-14.10546],[-39.19794,-14.10397],[-39.19561,-14.10354],[-39.19258,-14.10353],[-39.18858,-14.10217],[-39.18739,-14.10257],[-39.18607,-14.10394],[-39.18338,-14.10453],[-39.18182,-14.10417],[-39.17971,-14.10211],[-39.17797,-14.10193],[-39.17714,-14.10091],[-39.17566,-14.1014],[-39.17356,-14.10166],[-39.17199,-14.10168],[-39.17042,-14.10003],[-39.16777,-14.10186],[-39.16659,-14.1023],[-39.16548,-14.10219],[-39.16527,-14.10144],[-39.16589,-14.1006],[-39.16486,-14.10008],[-39.16341,-14.10044],[-39.16218,-14.09939],[-39.1604,-14.09928],[-39.15949,-14.09871],[-39.15912,-14.0969],[-39.15863,-14.09674],[-39.15694,-14.09719],[-39.15549,-14.09723],[-39.15475,-14.09679],[-39.15475,-14.09586],[-39.15352,-14.09493],[-39.14893,-14.0951],[-39.14724,-14.0949],[-39.14539,-14.09399],[-39.14468,-14.09241],[-39.14334,-14.09162],[-39.10516,-14.1058],[-39.10563,-14.10718],[-39.10543,-14.10789],[-39.10408,-14.10913],[-39.10156,-14.10946],[-39.09737,-14.11081],[-39.0957,-14.11096],[-39.0935,-14.11085],[-39.089,-14.11012],[-39.08703,-14.10928],[-39.08507,-14.10784],[-39.08299,-14.10694],[-39.08099,-14.10639],[-39.07925,-14.10766],[-39.0784,-14.1077],[-39.07714,-14.10696],[-39.07553,-14.10737],[-39.07441,-14.10871],[-39.07153,-14.11025],[-39.06962,-14.11064],[-39.06806,-14.11026],[-39.06608,-14.10921],[-39.06746,-14.1063],[-39.07038,-14.10215],[-39.07303,-14.09653],[-39.07285,-14.09281],[-39.07152,-14.08952],[-39.06798,-14.08676],[-39.06586,-14.08365],[-39.06312,-14.0801],[-39.06179,-14.07647],[-39.06214,-14.07197],[-39.06179,-14.06851],[-39.06002,-14.06506],[-39.05763,-14.05996],[-39.05737,-14.05514],[-39.05798,-14.05401],[-39.05887,-14.05388],[-39.0592,-14.0527],[-39.05765,-14.05179],[-39.05737,-14.0513],[-39.05849,-14.05034],[-39.05897,-14.04939],[-39.05878,-14.04735],[-39.0609,-14.04505],[-39.06135,-14.04424],[-39.06144,-14.04295],[-39.06209,-14.04216],[-39.06341,-14.04235],[-39.06499,-14.04036],[-39.06499,-14.03776],[-39.06644,-14.03632],[-39.06793,-14.03653],[-39.06902,-14.03635],[-39.07126,-14.03471],[-39.07323,-14.03389],[-39.13569,-14.022],[-39.18691,-14.02481],[-39.21067,-14.02801],[-39.26235,-14.03495],[-39.31924,-14.04259],[-39.31916,-14.03751],[-39.30602,-14.03706],[-39.30681,-14.03236],[-39.30041,-14.0308],[-39.29319,-14.02815],[-39.29598,-14.01711],[-39.2961,-14.01718],[-39.35415,-14.04648]]]},"properties":{"codigo":"290580020","name":"Tapuia","population":7613,"households":3841,"areaKm2":290.2564,"density":26.2}}]}