{"type":"FeatureCollection","features":[{"type":"Feature","geometry":{"type":"Polygon","coordinates":[[[-41.25634,-13.47034],[-41.23676,-13.46117],[-41.23697,-13.46023],[-41.23751,-13.4556],[-41.23751,-13.45219],[-41.2367,-13.44975],[-41.23692,-13.44864],[-41.23579,-13.44602],[-41.23608,-13.44467],[-41.23529,-13.44389],[-41.23602,-13.44079],[-41.23584,-13.44002],[-41.23428,-13.43843],[-41.23357,-13.43687],[-41.23251,-13.43524],[-41.23215,-13.43309],[-41.23343,-13.43129],[-41.23364,-13.42992],[-41.23308,-13.42896],[-41.23002,-13.4266],[-41.22914,-13.42639],[-41.22836,-13.42733],[-41.22676,-13.42789],[-41.22546,-13.42946],[-41.2229,-13.42921],[-41.22176,-13.42867],[-41.22018,-13.42883],[-41.21924,-13.42945],[-41.2183,-13.42935],[-41.21624,-13.42828],[-41.21386,-13.42638],[-41.21372,-13.42498],[-41.2151,-13.42287],[-41.21503,-13.42198],[-41.21285,-13.42182],[-41.21163,-13.42039],[-41.20927,-13.41964],[-41.20738,-13.41941],[-41.20618,-13.41959],[-41.20418,-13.41907],[-41.20087,-13.41863],[-41.19893,-13.41755],[-41.19805,-13.41679],[-41.19633,-13.41476],[-41.19347,-13.41041],[-41.19217,-13.41037],[-41.1914,-13.40948],[-41.1911,-13.40838],[-41.18983,-13.4079],[-41.18926,-13.40638],[-41.18818,-13.40618],[-41.18744,-13.40537],[-41.18614,-13.40523],[-41.18486,-13.40606],[-41.18373,-13.40622],[-41.18273,-13.40573],[-41.18219,-13.40467],[-41.18073,-13.40515],[-41.17979,-13.40454],[-41.17911,-13.40654],[-41.17789,-13.40752],[-41.17581,-13.40744],[-41.1747,-13.40685],[-41.17279,-13.40703],[-41.17106,-13.40684],[-41.16898,-13.40555],[-41.16815,-13.40436],[-41.16594,-13.40426],[-41.16334,-13.40369],[-41.16195,-13.40384],[-41.16061,-13.40328],[-41.16059,-13.40179],[-41.16138,-13.40058],[-41.16135,-13.39896],[-41.16051,-13.39761],[-41.15842,-13.39614],[-41.15788,-13.39499],[-41.15754,-13.39317],[-41.15616,-13.39189],[-41.15562,-13.38984],[-41.15592,-13.38739],[-41.1556,-13.38489],[-41.15679,-13.38312],[-41.1564,-13.3814],[-41.15639,-13.3802],[-41.15571,-13.37723],[-41.15512,-13.37661],[-41.15244,-13.37557],[-41.15053,-13.37345],[-41.1477,-13.3728],[-41.14563,-13.3706],[-41.14484,-13.37024],[-41.14239,-13.37054],[-41.14132,-13.36987],[-41.14015,-13.36974],[-41.13679,-13.36847],[-41.1349,-13.3664],[-41.13153,-13.36441],[-41.13079,-13.36272],[-41.12979,-13.36194],[-41.12977,-13.36114],[-41.13085,-13.36053],[-41.13098,-13.35933],[-41.13033,-13.35801],[-41.13028,-13.35681],[-41.12896,-13.35598],[-41.12884,-13.35518],[-41.12942,-13.35285],[-41.12916,-13.35233],[-41.12768,-13.35171],[-41.12742,-13.35075],[-41.12834,-13.34599],[-41.12912,-13.34324],[-41.12919,-13.34057],[-41.12834,-13.33881],[-41.12744,-13.33756],[-41.12761,-13.33547],[-41.12718,-13.33348],[-41.12662,-13.33256],[-41.12561,-13.33237],[-41.12486,-13.33293],[-41.1231,-13.3352],[-41.12087,-13.33708],[-41.11903,-13.33836],[-41.11762,-13.34015],[-41.11705,-13.34017],[-41.11685,-13.3385],[-41.11613,-13.33709],[-41.11718,-13.33496],[-41.11734,-13.33312],[-41.11707,-13.33205],[-41.11596,-13.33091],[-41.11568,-13.32915],[-41.11492,-13.32785],[-41.11555,-13.32482],[-41.11512,-13.32372],[-41.11426,-13.32319],[-41.11168,-13.32291],[-41.10998,-13.32214],[-41.10699,-13.31953],[-41.10478,-13.3189],[-41.10484,-13.31694],[-41.10526,-13.31583],[-41.10567,-13.31212],[-41.10676,-13.30908],[-41.10731,-13.30374],[-41.10731,-13.30259],[-41.10678,-13.29899],[-41.10675,-13.29668],[-41.10591,-13.29357],[-41.10752,-13.29394],[-41.10929,-13.29243],[-41.11211,-13.29096],[-41.11335,-13.2894],[-41.11403,-13.28894],[-41.11561,-13.2891],[-41.11812,-13.29002],[-41.11935,-13.28982],[-41.12262,-13.28856],[-41.12438,-13.28815],[-41.12594,-13.28721],[-41.127,-13.28794],[-41.12786,-13.28938],[-41.1298,-13.29104],[-41.13116,-13.29382],[-41.13412,-13.29593],[-41.13598,-13.29764],[-41.14021,-13.29921],[-41.14257,-13.29941],[-41.14322,-13.29904],[-41.14544,-13.29687],[-41.14669,-13.29502],[-41.14824,-13.29235],[-41.14997,-13.29063],[-41.15169,-13.28931],[-41.15314,-13.28651],[-41.15469,-13.28533],[-41.15679,-13.28432],[-41.15806,-13.28261],[-41.15877,-13.28062],[-41.15975,-13.27702],[-41.16183,-13.2744],[-41.16215,-13.27303],[-41.16348,-13.26946],[-41.16532,-13.26197],[-41.16638,-13.25814],[-41.16706,-13.2535],[-41.16794,-13.24993],[-41.16919,-13.24797],[-41.17135,-13.2459],[-41.17361,-13.24428],[-41.17687,-13.24274],[-41.18295,-13.24188],[-41.18403,-13.24125],[-41.18509,-13.23804],[-41.18535,-13.23563],[-41.18477,-13.23244],[-41.1851,-13.22995],[-41.19288,-13.23676],[-41.27362,-13.3076],[-41.29057,-13.32247],[-41.29287,-13.32134],[-41.29669,-13.31997],[-41.30172,-13.31909],[-41.30424,-13.318],[-41.30675,-13.31718],[-41.3077,-13.31604],[-41.30855,-13.31395],[-41.30952,-13.3124],[-41.31175,-13.31026],[-41.31623,-13.30731],[-41.31954,-13.30499],[-41.32022,-13.30422],[-41.32183,-13.3016],[-41.32303,-13.30068],[-41.32627,-13.30034],[-41.32822,-13.29981],[-41.3301,-13.29886],[-41.33183,-13.29869],[-41.33402,-13.29901],[-41.33491,-13.2989],[-41.33705,-13.29648],[-41.33815,-13.29474],[-41.33944,-13.29212],[-41.34053,-13.29106],[-41.34172,-13.29055],[-41.34145,-13.29126],[-41.3403,-13.29207],[-41.3405,-13.29389],[-41.34157,-13.29479],[-41.34135,-13.29605],[-41.34221,-13.29694],[-41.34346,-13.2973],[-41.34434,-13.29805],[-41.34456,-13.29998],[-41.34494,-13.30069],[-41.34491,-13.30271],[-41.34697,-13.30407],[-41.34747,-13.30416],[-41.34828,-13.30566],[-41.34835,-13.3068],[-41.3489,-13.30716],[-41.34894,-13.3088],[-41.35024,-13.30991],[-41.35073,-13.3108],[-41.35175,-13.31054],[-41.35261,-13.31191],[-41.3522,-13.31278],[-41.35418,-13.31422],[-41.35447,-13.31564],[-41.35363,-13.3166],[-41.35306,-13.31797],[-41.35165,-13.31888],[-41.35135,-13.32019],[-41.3506,-13.32111],[-41.35077,-13.32339],[-41.35007,-13.32516],[-41.35078,-13.32574],[-41.35035,-13.32727],[-41.35098,-13.32923],[-41.35107,-13.33125],[-41.35211,-13.33313],[-41.35196,-13.33427],[-41.35265,-13.33514],[-41.35179,-13.33679],[-41.35288,-13.33918],[-41.35463,-13.33955],[-41.35471,-13.34117],[-41.35558,-13.34207],[-41.3551,-13.3426],[-41.35546,-13.34353],[-41.35702,-13.34372],[-41.35717,-13.34559],[-41.35657,-13.34588],[-41.35706,-13.34704],[-41.3578,-13.34726],[-41.35724,-13.34898],[-41.35661,-13.34972],[-41.35594,-13.35237],[-41.35644,-13.35313],[-41.35673,-13.35461],[-41.35599,-13.35783],[-41.35705,-13.35893],[-41.35755,-13.36118],[-41.35843,-13.3616],[-41.35928,-13.36315],[-41.35889,-13.36517],[-41.35889,-13.3677],[-41.35942,-13.36913],[-41.35911,-13.37028],[-41.35992,-13.37129],[-41.36085,-13.37129],[-41.36056,-13.3744],[-41.36115,-13.37459],[-41.3615,-13.37637],[-41.36089,-13.37769],[-41.36122,-13.37881],[-41.36073,-13.38024],[-41.35924,-13.38147],[-41.35877,-13.38225],[-41.35915,-13.38303],[-41.3591,-13.38436],[-41.35609,-13.38746],[-41.35525,-13.38953],[-41.3555,-13.38992],[-41.35489,-13.39119],[-41.3547,-13.39378],[-41.35355,-13.39516],[-41.35412,-13.39589],[-41.35423,-13.39718],[-41.3532,-13.39883],[-41.35337,-13.40054],[-41.35392,-13.40132],[-41.35326,-13.4023],[-41.35281,-13.40392],[-41.35314,-13.4044],[-41.35264,-13.40559],[-41.35122,-13.40668],[-41.35114,-13.40785],[-41.35156,-13.40884],[-41.35124,-13.41063],[-41.35013,-13.41198],[-41.34971,-13.41427],[-41.34854,-13.41434],[-41.34835,-13.41562],[-41.34673,-13.41504],[-41.34548,-13.41567],[-41.34426,-13.41678],[-41.34335,-13.41647],[-41.34269,-13.41688],[-41.34288,-13.41827],[-41.3438,-13.41904],[-41.3443,-13.4201],[-41.34335,-13.42422],[-41.34348,-13.42559],[-41.34286,-13.42691],[-41.34247,-13.42916],[-41.34184,-13.43018],[-41.3421,-13.43088],[-41.34118,-13.43225],[-41.34121,-13.43376],[-41.33895,-13.43557],[-41.33799,-13.43772],[-41.33901,-13.43842],[-41.33944,-13.43974],[-41.34011,-13.44049],[-41.34135,-13.44032],[-41.34287,-13.44237],[-41.34299,-13.44315],[-41.34438,-13.44294],[-41.34607,-13.44346],[-41.34667,-13.44432],[-41.34806,-13.44437],[-41.34922,-13.44482],[-41.35042,-13.4463],[-41.3509,-13.44755],[-41.35047,-13.44838],[-41.35122,-13.44909],[-41.35159,-13.45075],[-41.35205,-13.45124],[-41.35258,-13.45357],[-41.35365,-13.45488],[-41.35298,-13.45749],[-41.35305,-13.45899],[-41.35352,-13.46153],[-41.35298,-13.46392],[-41.35425,-13.46579],[-41.35504,-13.46732],[-41.35456,-13.46863],[-41.35497,-13.46998],[-41.35452,-13.47114],[-41.35504,-13.47269],[-41.35454,-13.47552],[-41.35385,-13.47644],[-41.35391,-13.47712],[-41.3532,-13.47879],[-41.35346,-13.48072],[-41.3531,-13.48159],[-41.3527,-13.48492],[-41.35222,-13.4852],[-41.3522,-13.48798],[-41.35157,-13.48965],[-41.35256,-13.49013],[-41.31025,-13.49558],[-41.25634,-13.47034]]]},"properties":{"codigo":"291220205","name":"Ibicoara","population":9438,"households":4330,"areaKm2":441.9509,"density":21.4}},{"type":"Feature","geometry":{"type":"Polygon","coordinates":[[[-41.35256,-13.49013],[-41.35157,-13.48965],[-41.3522,-13.48798],[-41.35222,-13.4852],[-41.3527,-13.48492],[-41.3531,-13.48159],[-41.35346,-13.48072],[-41.3532,-13.47879],[-41.35391,-13.47712],[-41.35385,-13.47644],[-41.35454,-13.47552],[-41.35504,-13.47269],[-41.35452,-13.47114],[-41.35497,-13.46998],[-41.35456,-13.46863],[-41.35504,-13.46732],[-41.35425,-13.46579],[-41.35298,-13.46392],[-41.35352,-13.46153],[-41.35305,-13.45899],[-41.35298,-13.45749],[-41.35365,-13.45488],[-41.35258,-13.45357],[-41.35205,-13.45124],[-41.35159,-13.45075],[-41.35122,-13.44909],[-41.35047,-13.44838],[-41.3509,-13.44755],[-41.35042,-13.4463],[-41.34922,-13.44482],[-41.34806,-13.44437],[-41.34667,-13.44432],[-41.34607,-13.44346],[-41.34438,-13.44294],[-41.34299,-13.44315],[-41.34287,-13.44237],[-41.34135,-13.44032],[-41.34011,-13.44049],[-41.33944,-13.43974],[-41.33901,-13.43842],[-41.33799,-13.43772],[-41.33895,-13.43557],[-41.34121,-13.43376],[-41.34118,-13.43225],[-41.3421,-13.43088],[-41.34184,-13.43018],[-41.34247,-13.42916],[-41.34286,-13.42691],[-41.34348,-13.42559],[-41.34335,-13.42422],[-41.3443,-13.4201],[-41.3438,-13.41904],[-41.34288,-13.41827],[-41.34269,-13.41688],[-41.34335,-13.41647],[-41.34426,-13.41678],[-41.34548,-13.41567],[-41.34673,-13.41504],[-41.34835,-13.41562],[-41.34854,-13.41434],[-41.34971,-13.41427],[-41.35013,-13.41198],[-41.35124,-13.41063],[-41.35156,-13.40884],[-41.35114,-13.40785],[-41.35122,-13.40668],[-41.35264,-13.40559],[-41.35314,-13.4044],[-41.35281,-13.40392],[-41.35326,-13.4023],[-41.35392,-13.40132],[-41.35337,-13.40054],[-41.3532,-13.39883],[-41.35423,-13.39718],[-41.35412,-13.39589],[-41.35355,-13.39516],[-41.3547,-13.39378],[-41.35489,-13.39119],[-41.3555,-13.38992],[-41.35525,-13.38953],[-41.35609,-13.38746],[-41.3591,-13.38436],[-41.35915,-13.38303],[-41.35877,-13.38225],[-41.35924,-13.38147],[-41.36073,-13.38024],[-41.36122,-13.37881],[-41.36089,-13.37769],[-41.3615,-13.37637],[-41.36115,-13.37459],[-41.36056,-13.3744],[-41.36085,-13.37129],[-41.35992,-13.37129],[-41.35911,-13.37028],[-41.35942,-13.36913],[-41.35889,-13.3677],[-41.35889,-13.36517],[-41.35928,-13.36315],[-41.35843,-13.3616],[-41.35755,-13.36118],[-41.35705,-13.35893],[-41.35599,-13.35783],[-41.35673,-13.35461],[-41.35644,-13.35313],[-41.35594,-13.35237],[-41.35661,-13.34972],[-41.35724,-13.34898],[-41.3578,-13.34726],[-41.35706,-13.34704],[-41.35657,-13.34588],[-41.35717,-13.34559],[-41.35702,-13.34372],[-41.35546,-13.34353],[-41.3551,-13.3426],[-41.35558,-13.34207],[-41.35471,-13.34117],[-41.35463,-13.33955],[-41.35288,-13.33918],[-41.35179,-13.33679],[-41.35265,-13.33514],[-41.35196,-13.33427],[-41.35211,-13.33313],[-41.35107,-13.33125],[-41.35098,-13.32923],[-41.35035,-13.32727],[-41.35078,-13.32574],[-41.35007,-13.32516],[-41.35077,-13.32339],[-41.3506,-13.32111],[-41.35135,-13.32019],[-41.35165,-13.31888],[-41.35306,-13.31797],[-41.35363,-13.3166],[-41.35447,-13.31564],[-41.35418,-13.31422],[-41.3522,-13.31278],[-41.35261,-13.31191],[-41.35175,-13.31054],[-41.35073,-13.3108],[-41.35024,-13.30991],[-41.34894,-13.3088],[-41.3489,-13.30716],[-41.34835,-13.3068],[-41.34828,-13.30566],[-41.34747,-13.30416],[-41.34697,-13.30407],[-41.34491,-13.30271],[-41.34494,-13.30069],[-41.34456,-13.29998],[-41.34434,-13.29805],[-41.34346,-13.2973],[-41.34221,-13.29694],[-41.34135,-13.29605],[-41.34157,-13.29479],[-41.3405,-13.29389],[-41.3403,-13.29207],[-41.34145,-13.29126],[-41.34172,-13.29055],[-41.34388,-13.28924],[-41.34578,-13.28768],[-41.34684,-13.28612],[-41.34832,-13.28246],[-41.34927,-13.28126],[-41.34981,-13.28149],[-41.35206,-13.28151],[-41.35504,-13.2811],[-41.35828,-13.28123],[-41.36122,-13.28063],[-41.36387,-13.27934],[-41.36716,-13.27855],[-41.36907,-13.27757],[-41.37133,-13.27671],[-41.37275,-13.27591],[-41.37542,-13.27358],[-41.37612,-13.27326],[-41.37822,-13.27313],[-41.37974,-13.2728],[-41.38274,-13.27119],[-41.3844,-13.26871],[-41.3855,-13.2679],[-41.38887,-13.26464],[-41.39117,-13.26103],[-41.39228,-13.2581],[-41.39278,-13.2546],[-41.39288,-13.25087],[-41.39339,-13.24698],[-41.39374,-13.24271],[-41.39448,-13.23811],[-41.39504,-13.23553],[-41.39591,-13.23264],[-41.39882,-13.22509],[-41.39977,-13.22594],[-41.4027,-13.23063],[-41.40352,-13.23271],[-41.40489,-13.23396],[-41.40599,-13.2353],[-41.40615,-13.23649],[-41.4067,-13.23768],[-41.40861,-13.23931],[-41.40937,-13.24095],[-41.41028,-13.24205],[-41.41113,-13.2425],[-41.41281,-13.24406],[-41.41363,-13.24442],[-41.4151,-13.24584],[-41.41729,-13.24639],[-41.41942,-13.24659],[-41.4202,-13.24695],[-41.4221,-13.24721],[-41.4245,-13.24813],[-41.42684,-13.24835],[-41.42912,-13.24802],[-41.43214,-13.24821],[-41.43834,-13.2495],[-41.44153,-13.25033],[-41.44592,-13.2507],[-41.44738,-13.25171],[-41.44839,-13.25259],[-41.44975,-13.2545],[-41.4524,-13.25892],[-41.45398,-13.26308],[-41.45392,-13.26471],[-41.45347,-13.2684],[-41.45258,-13.27144],[-41.45275,-13.2754],[-41.4527,-13.28004],[-41.45238,-13.28449],[-41.45296,-13.2907],[-41.45366,-13.29355],[-41.45373,-13.29582],[-41.4522,-13.29794],[-41.4474,-13.30276],[-41.44511,-13.3048],[-41.44395,-13.30636],[-41.44132,-13.31306],[-41.44007,-13.31524],[-41.43947,-13.31738],[-41.43867,-13.31919],[-41.43804,-13.3234],[-41.43702,-13.32883],[-41.43702,-13.3329],[-41.43738,-13.33728],[-41.43748,-13.34014],[-41.43788,-13.34355],[-41.43804,-13.3478],[-41.43829,-13.35009],[-41.43886,-13.35345],[-41.43939,-13.35759],[-41.44109,-13.3627],[-41.442,-13.36406],[-41.44298,-13.36479],[-41.44401,-13.36609],[-41.44491,-13.36789],[-41.44525,-13.37025],[-41.4451,-13.37624],[-41.44514,-13.37786],[-41.44573,-13.38163],[-41.44588,-13.38358],[-41.51476,-13.41227],[-41.54741,-13.42587],[-41.54663,-13.4271],[-41.54563,-13.42745],[-41.54382,-13.42891],[-41.54294,-13.42991],[-41.54205,-13.43153],[-41.54016,-13.43239],[-41.5393,-13.43303],[-41.53773,-13.43603],[-41.53494,-13.43851],[-41.53386,-13.44038],[-41.5318,-13.44276],[-41.53116,-13.44446],[-41.53008,-13.44486],[-41.52873,-13.44607],[-41.52634,-13.44702],[-41.52372,-13.44703],[-41.51994,-13.44881],[-41.51923,-13.44892],[-41.51525,-13.4481],[-41.51402,-13.44829],[-41.51327,-13.44886],[-41.51269,-13.44994],[-41.51084,-13.44875],[-41.50958,-13.45136],[-41.5085,-13.4526],[-41.50923,-13.45372],[-41.50921,-13.45561],[-41.50879,-13.45704],[-41.50767,-13.4581],[-41.50659,-13.46008],[-41.5072,-13.46158],[-41.50666,-13.46227],[-41.50568,-13.46443],[-41.50437,-13.46568],[-41.50361,-13.46574],[-41.50286,-13.46663],[-41.5035,-13.46829],[-41.50423,-13.46888],[-41.50472,-13.47105],[-41.50594,-13.47164],[-41.50598,-13.47301],[-41.50794,-13.47299],[-41.50794,-13.47449],[-41.50731,-13.47735],[-41.50701,-13.47792],[-41.50495,-13.47878],[-41.50444,-13.47822],[-41.50354,-13.47847],[-41.50248,-13.47994],[-41.50145,-13.47996],[-41.49918,-13.48118],[-41.49908,-13.48208],[-41.4995,-13.48335],[-41.50135,-13.48406],[-41.50137,-13.486],[-41.50247,-13.48786],[-41.50359,-13.48933],[-41.50399,-13.49125],[-41.50489,-13.4942],[-41.50481,-13.49504],[-41.50313,-13.49754],[-41.50162,-13.49766],[-41.50015,-13.4985],[-41.49936,-13.4993],[-41.49903,-13.50031],[-41.50037,-13.50068],[-41.50069,-13.50169],[-41.50166,-13.50221],[-41.5026,-13.50327],[-41.50251,-13.50421],[-41.50283,-13.50795],[-41.50119,-13.51204],[-41.50349,-13.51372],[-41.50338,-13.515],[-41.5019,-13.51498],[-41.50019,-13.51622],[-41.49941,-13.51634],[-41.49955,-13.51756],[-41.50101,-13.51846],[-41.50128,-13.51955],[-41.48728,-13.52369],[-41.44969,-13.51433],[-41.35256,-13.49013]]]},"properties":{"codigo":"291220215","name":"Cascavel","population":11347,"households":4369,"areaKm2":375.4042,"density":30.2}}]}