{"type":"FeatureCollection","features":[{"type":"Feature","geometry":{"type":"Polygon","coordinates":[[[-41.94956,-11.65221],[-41.94086,-11.6459],[-41.91403,-11.62738],[-41.90035,-11.62067],[-41.89094,-11.61807],[-41.87793,-11.61941],[-41.87256,-11.61976],[-41.87077,-11.61921],[-41.87045,-11.61875],[-41.86725,-11.62424],[-41.86195,-11.63174],[-41.86039,-11.63195],[-41.85683,-11.63204],[-41.85519,-11.63158],[-41.85337,-11.63052],[-41.8526,-11.63057],[-41.84982,-11.62951],[-41.84649,-11.6295],[-41.84388,-11.63045],[-41.84167,-11.63161],[-41.84098,-11.6339],[-41.83754,-11.63443],[-41.83606,-11.63562],[-41.83531,-11.63662],[-41.83387,-11.63714],[-41.83438,-11.63874],[-41.83419,-11.63977],[-41.83123,-11.6406],[-41.83048,-11.64138],[-41.83061,-11.64241],[-41.83252,-11.64266],[-41.83341,-11.64373],[-41.83162,-11.6443],[-41.83143,-11.64472],[-41.83209,-11.64632],[-41.83148,-11.64762],[-41.83006,-11.64736],[-41.82941,-11.65088],[-41.81527,-11.65023],[-41.81169,-11.65074],[-41.81098,-11.65118],[-41.7761,-11.65246],[-41.78721,-11.62461],[-41.80948,-11.59194],[-41.842,-11.54426],[-41.86953,-11.4986],[-41.87281,-11.49255],[-41.91929,-11.45061],[-41.93889,-11.47479],[-41.97138,-11.51488],[-41.98283,-11.529],[-42.04387,-11.54981],[-42.04439,-11.55199],[-42.04359,-11.57137],[-42.01258,-11.59683],[-41.99636,-11.61016],[-41.97848,-11.62522],[-41.94956,-11.65221]]]},"properties":{"codigo":"291310105","name":"Ibititá","population":11419,"households":5167,"areaKm2":325.2261,"density":35.1}},{"type":"Feature","geometry":{"type":"Polygon","coordinates":[[[-41.91929,-11.45061],[-41.92167,-11.44846],[-41.94152,-11.4153],[-41.94262,-11.38125],[-41.96789,-11.418],[-41.97825,-11.42775],[-42.00778,-11.45705],[-42.00885,-11.46882],[-42.02221,-11.48682],[-42.03617,-11.51755],[-42.04387,-11.54981],[-41.98283,-11.529],[-41.97138,-11.51488],[-41.93889,-11.47479],[-41.91929,-11.45061]]]},"properties":{"codigo":"291310120","name":"Canoão","population":2988,"households":1575,"areaKm2":101.6805,"density":29.4}},{"type":"Feature","geometry":{"type":"Polygon","coordinates":[[[-41.88681,-11.74543],[-41.88547,-11.74466],[-41.88509,-11.74249],[-41.88524,-11.73887],[-41.88442,-11.73766],[-41.88217,-11.73642],[-41.88062,-11.73501],[-41.87976,-11.73289],[-41.87831,-11.73296],[-41.8772,-11.73506],[-41.87618,-11.73542],[-41.87503,-11.73448],[-41.87428,-11.73268],[-41.87251,-11.73076],[-41.87207,-11.7296],[-41.87257,-11.72817],[-41.87386,-11.72562],[-41.87377,-11.72466],[-41.87194,-11.72447],[-41.8712,-11.72381],[-41.86968,-11.72003],[-41.86939,-11.71828],[-41.86986,-11.71716],[-41.87111,-11.71578],[-41.87112,-11.71395],[-41.87009,-11.71317],[-41.86859,-11.71347],[-41.86637,-11.71429],[-41.86531,-11.71433],[-41.86474,-11.71383],[-41.86681,-11.71148],[-41.86697,-11.71044],[-41.86615,-11.70966],[-41.86491,-11.70956],[-41.86369,-11.7087],[-41.86228,-11.70966],[-41.86102,-11.7097],[-41.86101,-11.70969],[-41.86039,-11.70883],[-41.86046,-11.70782],[-41.86123,-11.70678],[-41.86133,-11.70567],[-41.86043,-11.70456],[-41.85931,-11.70389],[-41.85838,-11.70221],[-41.85762,-11.70147],[-41.85668,-11.70175],[-41.85563,-11.70149],[-41.8552,-11.69956],[-41.85309,-11.69888],[-41.85222,-11.69828],[-41.85133,-11.69842],[-41.85057,-11.69962],[-41.8497,-11.69944],[-41.84969,-11.69799],[-41.84925,-11.69767],[-41.84827,-11.6993],[-41.8472,-11.69992],[-41.84594,-11.69961],[-41.84446,-11.69886],[-41.84416,-11.69807],[-41.84425,-11.69634],[-41.84177,-11.69618],[-41.8407,-11.69715],[-41.8398,-11.69546],[-41.83918,-11.69531],[-41.83646,-11.69661],[-41.8359,-11.69706],[-41.83479,-11.69705],[-41.83409,-11.69647],[-41.83383,-11.69502],[-41.83451,-11.69257],[-41.83452,-11.69131],[-41.8341,-11.69014],[-41.83332,-11.68957],[-41.83248,-11.6896],[-41.82932,-11.69229],[-41.82803,-11.69212],[-41.82691,-11.69067],[-41.82569,-11.68984],[-41.82483,-11.69003],[-41.82376,-11.69118],[-41.82272,-11.69167],[-41.82177,-11.69088],[-41.82119,-11.68932],[-41.81973,-11.68707],[-41.81603,-11.68361],[-41.81401,-11.68248],[-41.81289,-11.68242],[-41.81131,-11.68466],[-41.80965,-11.68494],[-41.80576,-11.68365],[-41.8042,-11.68348],[-41.80367,-11.68404],[-41.80352,-11.68621],[-41.80224,-11.68692],[-41.80115,-11.68645],[-41.79884,-11.68436],[-41.79782,-11.6848],[-41.79799,-11.68567],[-41.79892,-11.68725],[-41.79913,-11.68873],[-41.79785,-11.69098],[-41.79707,-11.69155],[-41.79608,-11.69153],[-41.79466,-11.69022],[-41.79361,-11.68959],[-41.79178,-11.68958],[-41.79072,-11.68853],[-41.78965,-11.68516],[-41.78897,-11.68408],[-41.78778,-11.68369],[-41.7873,-11.68423],[-41.78718,-11.68548],[-41.78652,-11.68702],[-41.78572,-11.6874],[-41.78453,-11.68699],[-41.78409,-11.6862],[-41.78266,-11.68666],[-41.78209,-11.68624],[-41.78006,-11.68057],[-41.77938,-11.67986],[-41.77852,-11.68],[-41.77684,-11.68172],[-41.7755,-11.68259],[-41.77402,-11.68263],[-41.77294,-11.68219],[-41.77384,-11.67731],[-41.77138,-11.6643],[-41.7761,-11.65246],[-41.81098,-11.65118],[-41.81169,-11.65074],[-41.81527,-11.65023],[-41.82941,-11.65088],[-41.83006,-11.64736],[-41.83148,-11.64762],[-41.83209,-11.64632],[-41.83143,-11.64472],[-41.83162,-11.6443],[-41.83341,-11.64373],[-41.83252,-11.64266],[-41.83061,-11.64241],[-41.83048,-11.64138],[-41.83123,-11.6406],[-41.83419,-11.63977],[-41.83438,-11.63874],[-41.83387,-11.63714],[-41.83531,-11.63662],[-41.83606,-11.63562],[-41.83754,-11.63443],[-41.84098,-11.6339],[-41.84167,-11.63161],[-41.84388,-11.63045],[-41.84649,-11.6295],[-41.84982,-11.62951],[-41.8526,-11.63057],[-41.85337,-11.63052],[-41.85519,-11.63158],[-41.85683,-11.63204],[-41.86039,-11.63195],[-41.86195,-11.63174],[-41.86725,-11.62424],[-41.87045,-11.61875],[-41.87077,-11.61921],[-41.87256,-11.61976],[-41.87793,-11.61941],[-41.89094,-11.61807],[-41.90035,-11.62067],[-41.91403,-11.62738],[-41.94086,-11.6459],[-41.94956,-11.65221],[-41.9341,-11.66665],[-41.92918,-11.67292],[-41.92349,-11.73873],[-41.92201,-11.74108],[-41.92136,-11.74335],[-41.92001,-11.7467],[-41.91826,-11.74887],[-41.91638,-11.75171],[-41.91427,-11.75323],[-41.91298,-11.75499],[-41.91208,-11.75672],[-41.91219,-11.75767],[-41.91159,-11.75841],[-41.91143,-11.75975],[-41.91038,-11.75792],[-41.90822,-11.75744],[-41.90737,-11.75676],[-41.90614,-11.75497],[-41.90512,-11.75477],[-41.90333,-11.75643],[-41.90241,-11.757],[-41.90079,-11.75709],[-41.89982,-11.75652],[-41.89888,-11.75653],[-41.89775,-11.75712],[-41.89654,-11.75711],[-41.89569,-11.7555],[-41.89394,-11.75563],[-41.89366,-11.75457],[-41.894,-11.75195],[-41.8946,-11.74999],[-41.89438,-11.74956],[-41.89196,-11.74967],[-41.89085,-11.74941],[-41.88974,-11.7486],[-41.88965,-11.74749],[-41.89126,-11.745],[-41.89146,-11.74378],[-41.89092,-11.74315],[-41.88803,-11.74514],[-41.88681,-11.74543]]]},"properties":{"codigo":"291310130","name":"Feira Nova","population":2562,"households":1232,"areaKm2":146.1269,"density":17.5}}]}