{"type":"FeatureCollection","features":[{"type":"Feature","geometry":{"type":"Polygon","coordinates":[[[-39.91005,-12.51677],[-39.91006,-12.51491],[-39.91081,-12.51418],[-39.91191,-12.51232],[-39.91455,-12.5097],[-39.91529,-12.50836],[-39.90452,-12.50207],[-39.80739,-12.44538],[-39.78142,-12.42509],[-39.77058,-12.4303],[-39.73895,-12.41005],[-39.68668,-12.40847],[-39.66666,-12.40787],[-39.66649,-12.40659],[-39.66495,-12.40524],[-39.66141,-12.40334],[-39.65759,-12.4024],[-39.65475,-12.40189],[-39.64691,-12.40008],[-39.64298,-12.39936],[-39.64131,-12.39936],[-39.63094,-12.40236],[-39.62956,-12.4029],[-39.628,-12.40309],[-39.62642,-12.40384],[-39.62577,-12.39804],[-39.62548,-12.39675],[-39.6273,-12.39376],[-39.62575,-12.39321],[-39.60835,-12.38518],[-39.59092,-12.37714],[-39.56099,-12.35321],[-39.53733,-12.34109],[-39.53533,-12.34225],[-39.5329,-12.34236],[-39.53202,-12.34273],[-39.52991,-12.34254],[-39.52993,-12.34081],[-39.52903,-12.33927],[-39.52699,-12.33799],[-39.52533,-12.33883],[-39.52198,-12.33883],[-39.52054,-12.33932],[-39.51804,-12.33964],[-39.51509,-12.33897],[-39.51393,-12.33852],[-39.50847,-12.33575],[-39.50661,-12.33351],[-39.50532,-12.33428],[-39.50243,-12.33478],[-39.49771,-12.33611],[-39.49708,-12.33675],[-39.49709,-12.33824],[-39.49581,-12.33939],[-39.49264,-12.33891],[-39.48278,-12.34135],[-39.47839,-12.3426],[-39.4715,-12.34475],[-39.47027,-12.34586],[-39.46831,-12.34652],[-39.46297,-12.34621],[-39.46037,-12.34481],[-39.45798,-12.34281],[-39.45666,-12.34102],[-39.4554,-12.33992],[-39.45178,-12.33763],[-39.45015,-12.33727],[-39.44829,-12.33747],[-39.44406,-12.33719],[-39.44332,-12.33658],[-39.43657,-12.33582],[-39.43349,-12.33503],[-39.43207,-12.33221],[-39.43197,-12.33124],[-39.43108,-12.3299],[-39.43096,-12.3282],[-39.43449,-12.32598],[-39.43642,-12.32526],[-39.437,-12.32333],[-39.4383,-12.32149],[-39.4384,-12.32067],[-39.43795,-12.31962],[-39.43779,-12.31751],[-39.43703,-12.31659],[-39.43405,-12.31569],[-39.43376,-12.31519],[-39.43449,-12.31384],[-39.43453,-12.31237],[-39.4333,-12.30972],[-39.43213,-12.30766],[-39.43112,-12.3071],[-39.42915,-12.30692],[-39.42752,-12.30623],[-39.4255,-12.30577],[-39.42307,-12.30399],[-39.42232,-12.30316],[-39.42128,-12.3013],[-39.41935,-12.29832],[-39.41893,-12.29731],[-39.41776,-12.29585],[-39.41697,-12.29539],[-39.4143,-12.29255],[-39.41285,-12.29218],[-39.41042,-12.29242],[-39.40859,-12.29168],[-39.40619,-12.28889],[-39.40506,-12.286],[-39.4046,-12.28531],[-39.40277,-12.28435],[-39.40188,-12.28316],[-39.4009,-12.28091],[-39.3987,-12.27775],[-39.39739,-12.27666],[-39.39976,-12.27363],[-39.40211,-12.27335],[-39.40449,-12.27369],[-39.40768,-12.27079],[-39.40873,-12.2702],[-39.41257,-12.26932],[-39.4105,-12.26862],[-39.40882,-12.26654],[-39.40819,-12.26605],[-39.42626,-12.22969],[-39.45065,-12.18061],[-39.46389,-12.15396],[-39.49116,-12.09908],[-39.51669,-12.04772],[-39.52208,-12.03692],[-39.56906,-12.05277],[-39.59382,-12.06112],[-39.59538,-12.05777],[-39.5973,-12.05499],[-39.59873,-12.05235],[-39.59927,-12.05171],[-39.5988,-12.05254],[-39.59957,-12.0536],[-39.60224,-12.05429],[-39.60171,-12.05726],[-39.60081,-12.05821],[-39.60032,-12.05963],[-39.59961,-12.06036],[-39.60106,-12.06087],[-39.6016,-12.06143],[-39.60512,-12.06053],[-39.60636,-12.05995],[-39.60945,-12.05905],[-39.6106,-12.05806],[-39.61218,-12.05833],[-39.61482,-12.05745],[-39.61643,-12.05767],[-39.61755,-12.05752],[-39.6239,-12.0555],[-39.62457,-12.05507],[-39.62752,-12.05422],[-39.62894,-12.05361],[-39.63439,-12.05195],[-39.6359,-12.05102],[-39.63908,-12.05036],[-39.64146,-12.04962],[-39.64287,-12.04958],[-39.64463,-12.04888],[-39.645,-12.04847],[-39.64929,-12.047],[-39.65587,-12.04492],[-39.65832,-12.04401],[-39.67906,-12.03721],[-39.69268,-12.03286],[-39.69473,-12.03213],[-39.70147,-12.03002],[-39.70939,-12.02737],[-39.71105,-12.02693],[-39.71724,-12.02486],[-39.71645,-12.03346],[-39.72053,-12.03482],[-39.72567,-12.03817],[-39.72739,-12.0401],[-39.72995,-12.04427],[-39.73488,-12.05144],[-39.7386,-12.05634],[-39.7411,-12.06251],[-39.74298,-12.06881],[-39.74399,-12.0754],[-39.74436,-12.08016],[-39.74453,-12.08703],[-39.74774,-12.09165],[-39.75314,-12.09051],[-39.75828,-12.0905],[-39.75987,-12.08987],[-39.76081,-12.09033],[-39.76091,-12.09168],[-39.76901,-12.09147],[-39.76892,-12.09424],[-39.77441,-12.09167],[-39.77639,-12.09145],[-39.77676,-12.09562],[-39.7775,-12.10556],[-39.7823,-12.10269],[-39.79008,-12.0982],[-39.79719,-12.09398],[-39.79918,-12.09298],[-39.80095,-12.0918],[-39.80145,-12.09317],[-39.80302,-12.09581],[-39.80303,-12.09694],[-39.80217,-12.10005],[-39.80318,-12.10106],[-39.80311,-12.10451],[-39.80332,-12.1059],[-39.80385,-12.1069],[-39.80564,-12.10784],[-39.80827,-12.10826],[-39.80876,-12.1094],[-39.80893,-12.11147],[-39.81002,-12.11312],[-39.81204,-12.11348],[-39.813,-12.11308],[-39.81495,-12.11421],[-39.81604,-12.11529],[-39.81651,-12.11709],[-39.81508,-12.11886],[-39.81444,-12.12044],[-39.81484,-12.1215],[-39.81439,-12.1221],[-39.81486,-12.12398],[-39.81308,-12.12829],[-39.81296,-12.13052],[-39.81327,-12.13245],[-39.81303,-12.13486],[-39.81178,-12.13801],[-39.81115,-12.14036],[-39.81106,-12.14177],[-39.81128,-12.14452],[-39.81192,-12.14675],[-39.81289,-12.14769],[-39.8135,-12.14924],[-39.81737,-12.15368],[-39.81743,-12.15534],[-39.81828,-12.157],[-39.81998,-12.15854],[-39.82191,-12.15925],[-39.82396,-12.16055],[-39.82559,-12.16233],[-39.82735,-12.16589],[-39.8276,-12.16802],[-39.82954,-12.17218],[-39.83075,-12.17437],[-39.83227,-12.17775],[-39.83331,-12.18292],[-39.83367,-12.18428],[-39.83405,-12.18808],[-39.83431,-12.19361],[-39.83407,-12.19664],[-39.83305,-12.20127],[-39.833,-12.20329],[-39.83449,-12.20834],[-39.83446,-12.21045],[-39.83419,-12.21336],[-39.83502,-12.21523],[-39.8349,-12.21658],[-39.83431,-12.21792],[-39.83341,-12.21871],[-39.83395,-12.22025],[-39.83378,-12.22162],[-39.83462,-12.22322],[-39.83463,-12.22411],[-39.83713,-12.22903],[-39.83725,-12.23081],[-39.83822,-12.23206],[-39.83841,-12.23375],[-39.8376,-12.23503],[-39.83773,-12.23797],[-39.83573,-12.24225],[-39.83691,-12.2454],[-39.83679,-12.24638],[-39.83511,-12.24938],[-39.83578,-12.25045],[-39.8372,-12.2508],[-39.83732,-12.25223],[-39.83597,-12.25253],[-39.83347,-12.25349],[-39.83118,-12.25489],[-39.82889,-12.25561],[-39.82769,-12.25707],[-39.82813,-12.2587],[-39.82962,-12.2599],[-39.83045,-12.26005],[-39.83333,-12.25977],[-39.8349,-12.25911],[-39.83565,-12.25942],[-39.83537,-12.26045],[-39.83375,-12.2621],[-39.83325,-12.26302],[-39.83506,-12.26377],[-39.83713,-12.26539],[-39.83797,-12.26645],[-39.83798,-12.26732],[-39.83931,-12.2693],[-39.84087,-12.27],[-39.84179,-12.27133],[-39.84462,-12.27063],[-39.84674,-12.27106],[-39.84837,-12.27224],[-39.85538,-12.27773],[-39.86877,-12.28344],[-39.87006,-12.28484],[-39.87086,-12.28709],[-39.872,-12.28877],[-39.87445,-12.29052],[-39.87574,-12.29105],[-39.87884,-12.2911],[-39.88103,-12.2922],[-39.88718,-12.29654],[-39.89327,-12.30074],[-39.8981,-12.30422],[-39.90295,-12.30657],[-39.90819,-12.31013],[-39.92743,-12.3235],[-39.93837,-12.33105],[-39.93926,-12.33155],[-39.94522,-12.3332],[-39.94401,-12.33546],[-39.94805,-12.33741],[-39.95237,-12.33864],[-39.95312,-12.33541],[-39.95375,-12.33652],[-39.95341,-12.33763],[-39.95722,-12.33876],[-39.95755,-12.33663],[-39.98038,-12.34293],[-39.98754,-12.34488],[-40.00456,-12.34944],[-40.02325,-12.3544],[-40.0266,-12.35516],[-40.03097,-12.35508],[-40.03768,-12.35689],[-40.03857,-12.3579],[-40.0386,-12.35987],[-40.03608,-12.36009],[-40.03544,-12.3606],[-40.03563,-12.36244],[-40.03614,-12.36303],[-40.04041,-12.36611],[-40.04033,-12.3672],[-40.03936,-12.36874],[-40.03808,-12.36987],[-40.03749,-12.371],[-40.03541,-12.37257],[-40.0341,-12.37409],[-40.03418,-12.37519],[-40.0337,-12.37658],[-40.031,-12.37812],[-40.02935,-12.37931],[-40.02699,-12.38176],[-40.02641,-12.38452],[-40.02652,-12.38613],[-40.02625,-12.38803],[-40.02636,-12.38919],[-40.02811,-12.39349],[-40.02805,-12.39486],[-40.02725,-12.39554],[-40.0245,-12.39593],[-40.02384,-12.39572],[-40.02193,-12.39333],[-40.02051,-12.39489],[-40.01983,-12.39612],[-40.02033,-12.39739],[-40.02168,-12.39777],[-40.02273,-12.39875],[-40.02309,-12.40005],[-40.02289,-12.40141],[-40.02146,-12.40331],[-40.01908,-12.40451],[-40.0156,-12.40664],[-40.01333,-12.40655],[-40.01035,-12.4077],[-40.00985,-12.40823],[-40.00998,-12.41035],[-40.00985,-12.41168],[-40.00688,-12.41388],[-40.00491,-12.41585],[-40.00146,-12.41803],[-40.00002,-12.41872],[-39.9987,-12.41883],[-39.99807,-12.41935],[-39.99776,-12.42044],[-39.99846,-12.42197],[-39.99831,-12.42296],[-39.99745,-12.42384],[-39.99451,-12.42604],[-39.99302,-12.42644],[-39.99058,-12.4287],[-39.98876,-12.42842],[-39.98688,-12.42962],[-39.98682,-12.43125],[-39.98749,-12.43196],[-39.98783,-12.43303],[-39.98727,-12.43413],[-39.98706,-12.43547],[-39.98506,-12.43566],[-39.98405,-12.43634],[-39.9835,-12.4394],[-39.98201,-12.44091],[-39.98184,-12.4421],[-39.9821,-12.44339],[-39.98181,-12.44429],[-39.98104,-12.44428],[-39.98035,-12.44499],[-39.97879,-12.44539],[-39.97864,-12.44595],[-39.9799,-12.44929],[-39.97942,-12.45083],[-39.9798,-12.45219],[-39.97876,-12.45285],[-39.97773,-12.45402],[-39.97825,-12.45508],[-39.97773,-12.45622],[-39.978,-12.45724],[-39.97707,-12.45732],[-39.97609,-12.45824],[-39.97444,-12.45774],[-39.97293,-12.4557],[-39.97079,-12.45605],[-39.97037,-12.45728],[-39.97092,-12.45893],[-39.97228,-12.45912],[-39.9732,-12.45989],[-39.97333,-12.4616],[-39.97447,-12.4621],[-39.97524,-12.46286],[-39.97532,-12.46438],[-39.9751,-12.46662],[-39.97629,-12.46748],[-39.97803,-12.46749],[-39.9796,-12.46832],[-39.97961,-12.4691],[-39.97822,-12.47107],[-39.97829,-12.4732],[-39.97708,-12.47407],[-39.97413,-12.47381],[-39.97041,-12.47306],[-39.96955,-12.47417],[-39.96936,-12.47634],[-39.96898,-12.47701],[-39.96779,-12.4773],[-39.96596,-12.47641],[-39.9654,-12.47578],[-39.96429,-12.47319],[-39.96348,-12.47306],[-39.96279,-12.47159],[-39.96191,-12.47136],[-39.96076,-12.4703],[-39.96036,-12.46914],[-39.95961,-12.46906],[-39.95768,-12.47049],[-39.95722,-12.47205],[-39.95573,-12.47376],[-39.95526,-12.47522],[-39.95362,-12.47717],[-39.9523,-12.47755],[-39.9518,-12.47819],[-39.94887,-12.47904],[-39.94703,-12.48001],[-39.94565,-12.47917],[-39.94459,-12.47918],[-39.94361,-12.48027],[-39.94297,-12.48194],[-39.93956,-12.48375],[-39.93835,-12.484],[-39.93678,-12.48388],[-39.93643,-12.48534],[-39.93689,-12.48637],[-39.93823,-12.48724],[-39.94026,-12.48729],[-39.94154,-12.48827],[-39.94125,-12.48958],[-39.94007,-12.49058],[-39.94012,-12.4922],[-39.93857,-12.49312],[-39.93831,-12.49473],[-39.93866,-12.49595],[-39.93747,-12.49774],[-39.93723,-12.50026],[-39.93642,-12.50175],[-39.93659,-12.50339],[-39.93811,-12.50442],[-39.94014,-12.50444],[-39.94045,-12.50536],[-39.93978,-12.50697],[-39.93966,-12.50856],[-39.9385,-12.50958],[-39.93617,-12.51079],[-39.93525,-12.51193],[-39.93389,-12.51485],[-39.93331,-12.51539],[-39.9314,-12.51622],[-39.9296,-12.51775],[-39.9284,-12.52039],[-39.92718,-12.52122],[-39.92569,-12.5216],[-39.9235,-12.5209],[-39.92001,-12.52028],[-39.91642,-12.51902],[-39.91304,-12.51734],[-39.91005,-12.51677]]]},"properties":{"codigo":"291400005","name":"Ipirá","population":47653,"households":23980,"areaKm2":1862.7322,"density":25.6}},{"type":"Feature","geometry":{"type":"Polygon","coordinates":[[[-39.59927,-12.05171],[-39.60144,-12.04944],[-39.60181,-12.04826],[-39.60177,-12.04684],[-39.60066,-12.04538],[-39.59998,-12.04343],[-39.60022,-12.04209],[-39.60172,-12.03928],[-39.60254,-12.03723],[-39.60354,-12.03614],[-39.6048,-12.03556],[-39.60606,-12.03431],[-39.60754,-12.03152],[-39.6067,-12.02889],[-39.60675,-12.02724],[-39.60783,-12.0262],[-39.6089,-12.02577],[-39.6097,-12.02498],[-39.61071,-12.02305],[-39.6125,-12.02151],[-39.61493,-12.02044],[-39.61797,-12.02064],[-39.62242,-12.01944],[-39.6238,-12.01936],[-39.62475,-12.018],[-39.62459,-12.01604],[-39.62411,-12.01481],[-39.62567,-12.01319],[-39.62867,-12.00773],[-39.63043,-12.00523],[-39.63088,-12.00273],[-39.63184,-12.00181],[-39.63406,-12.0002],[-39.63438,-11.9994],[-39.63639,-11.99726],[-39.6365,-11.99633],[-39.63628,-11.99241],[-39.63669,-11.98706],[-39.63801,-11.98414],[-39.63959,-11.98142],[-39.64017,-11.97975],[-39.64042,-11.97742],[-39.64102,-11.97606],[-39.64285,-11.97324],[-39.64409,-11.97039],[-39.64497,-11.96572],[-39.64511,-11.9621],[-39.64213,-11.95626],[-39.64167,-11.95409],[-39.64239,-11.95252],[-39.6434,-11.95098],[-39.64558,-11.94824],[-39.64828,-11.94769],[-39.65151,-11.94599],[-39.65241,-11.94593],[-39.65828,-11.94737],[-39.6594,-11.94716],[-39.66057,-11.94626],[-39.66229,-11.94398],[-39.66305,-11.94233],[-39.66321,-11.9375],[-39.66408,-11.93634],[-39.66514,-11.93385],[-39.66751,-11.93216],[-39.66943,-11.93128],[-39.67064,-11.92991],[-39.67295,-11.92906],[-39.67394,-11.92794],[-39.67521,-11.92577],[-39.67601,-11.92484],[-39.67776,-11.92365],[-39.67991,-11.92328],[-39.68245,-11.92324],[-39.68553,-11.92269],[-39.68686,-11.92294],[-39.68923,-11.92436],[-39.69144,-11.92458],[-39.69275,-11.92383],[-39.69523,-11.92174],[-39.6971,-11.91993],[-39.69899,-11.91874],[-39.70313,-11.91828],[-39.70453,-11.91771],[-39.7057,-11.9167],[-39.70823,-11.91393],[-39.71029,-11.9107],[-39.71168,-11.90926],[-39.71522,-11.90816],[-39.71781,-11.90665],[-39.71911,-11.90551],[-39.7216,-11.9061],[-39.72321,-11.90673],[-39.72445,-11.90646],[-39.72953,-11.90592],[-39.77412,-11.9154],[-39.77473,-11.91408],[-39.77488,-11.91202],[-39.77449,-11.90943],[-39.77501,-11.90697],[-39.77596,-11.90531],[-39.77813,-11.90081],[-39.77909,-11.89948],[-39.78082,-11.89835],[-39.7826,-11.89852],[-39.78583,-11.90088],[-39.78722,-11.90156],[-39.78859,-11.90259],[-39.7917,-11.90362],[-39.79274,-11.90898],[-39.79358,-11.91095],[-39.79503,-11.91327],[-39.79743,-11.91661],[-39.79804,-11.91787],[-39.79879,-11.91846],[-39.80148,-11.91985],[-39.80291,-11.92195],[-39.80471,-11.92359],[-39.8059,-11.92578],[-39.80731,-11.92736],[-39.80747,-11.92922],[-39.80804,-11.93092],[-39.80951,-11.93271],[-39.81147,-11.93452],[-39.81238,-11.9371],[-39.81304,-11.93798],[-39.81363,-11.93958],[-39.8139,-11.94249],[-39.81494,-11.94387],[-39.81692,-11.94605],[-39.82116,-11.95146],[-39.82384,-11.95413],[-39.82511,-11.95624],[-39.82701,-11.96023],[-39.83274,-11.96729],[-39.83395,-11.9704],[-39.83472,-11.97172],[-39.8366,-11.97324],[-39.83785,-11.97344],[-39.84136,-11.97312],[-39.84274,-11.9717],[-39.84427,-11.97535],[-39.84584,-11.97843],[-39.84737,-11.98079],[-39.84847,-11.98511],[-39.84843,-11.98708],[-39.84941,-11.98911],[-39.84991,-11.99129],[-39.84982,-11.99444],[-39.90486,-12.02883],[-39.90519,-12.02871],[-39.90486,-12.02892],[-39.90428,-12.02902],[-39.90347,-12.03089],[-39.90372,-12.03142],[-39.90244,-12.03317],[-39.90181,-12.03344],[-39.89981,-12.0354],[-39.8978,-12.0356],[-39.89649,-12.03546],[-39.89506,-12.03719],[-39.89282,-12.03873],[-39.89132,-12.03951],[-39.8912,-12.04238],[-39.89155,-12.04451],[-39.89087,-12.04523],[-39.88965,-12.04566],[-39.88421,-12.04609],[-39.88179,-12.04795],[-39.88105,-12.04918],[-39.88097,-12.05136],[-39.87986,-12.0523],[-39.87754,-12.05346],[-39.87637,-12.0549],[-39.87507,-12.05546],[-39.87562,-12.05673],[-39.87507,-12.05748],[-39.87538,-12.05835],[-39.87503,-12.05941],[-39.87253,-12.05909],[-39.8716,-12.05999],[-39.86922,-12.0601],[-39.86766,-12.06069],[-39.86513,-12.05842],[-39.86164,-12.05742],[-39.85978,-12.05714],[-39.85881,-12.05621],[-39.85814,-12.0562],[-39.8568,-12.05525],[-39.85539,-12.05545],[-39.85399,-12.05484],[-39.8527,-12.05594],[-39.85217,-12.05566],[-39.85064,-12.0558],[-39.84937,-12.05552],[-39.84863,-12.05578],[-39.84443,-12.05473],[-39.84416,-12.05423],[-39.84277,-12.05424],[-39.84243,-12.05484],[-39.84038,-12.05522],[-39.83961,-12.05615],[-39.83708,-12.05722],[-39.83695,-12.05819],[-39.8356,-12.05874],[-39.83476,-12.05856],[-39.83333,-12.05984],[-39.83157,-12.05989],[-39.8308,-12.06099],[-39.82928,-12.06069],[-39.82917,-12.06218],[-39.82734,-12.06284],[-39.82651,-12.06238],[-39.82594,-12.06299],[-39.82518,-12.06228],[-39.82328,-12.0627],[-39.82118,-12.06043],[-39.81986,-12.06051],[-39.81172,-12.07528],[-39.80295,-12.09024],[-39.80095,-12.0918],[-39.79918,-12.09298],[-39.79719,-12.09398],[-39.79008,-12.0982],[-39.7823,-12.10269],[-39.7775,-12.10556],[-39.77676,-12.09562],[-39.77639,-12.09145],[-39.77441,-12.09167],[-39.76892,-12.09424],[-39.76901,-12.09147],[-39.76091,-12.09168],[-39.76081,-12.09033],[-39.75987,-12.08987],[-39.75828,-12.0905],[-39.75314,-12.09051],[-39.74774,-12.09165],[-39.74453,-12.08703],[-39.74436,-12.08016],[-39.74399,-12.0754],[-39.74298,-12.06881],[-39.7411,-12.06251],[-39.7386,-12.05634],[-39.73488,-12.05144],[-39.72995,-12.04427],[-39.72739,-12.0401],[-39.72567,-12.03817],[-39.72053,-12.03482],[-39.71645,-12.03346],[-39.71724,-12.02486],[-39.71105,-12.02693],[-39.70939,-12.02737],[-39.70147,-12.03002],[-39.69473,-12.03213],[-39.69268,-12.03286],[-39.67906,-12.03721],[-39.65832,-12.04401],[-39.65587,-12.04492],[-39.64929,-12.047],[-39.645,-12.04847],[-39.64463,-12.04888],[-39.64287,-12.04958],[-39.64146,-12.04962],[-39.63908,-12.05036],[-39.6359,-12.05102],[-39.63439,-12.05195],[-39.62894,-12.05361],[-39.62752,-12.05422],[-39.62457,-12.05507],[-39.6239,-12.0555],[-39.61755,-12.05752],[-39.61643,-12.05767],[-39.61482,-12.05745],[-39.61218,-12.05833],[-39.6106,-12.05806],[-39.60945,-12.05905],[-39.60636,-12.05995],[-39.60512,-12.06053],[-39.6016,-12.06143],[-39.60106,-12.06087],[-39.59961,-12.06036],[-39.60032,-12.05963],[-39.60081,-12.05821],[-39.60171,-12.05726],[-39.60224,-12.05429],[-39.59957,-12.0536],[-39.5988,-12.05254],[-39.59927,-12.05171]]]},"properties":{"codigo":"291400015","name":"Bonfim de Ipirá","population":3643,"households":2215,"areaKm2":381.0831,"density":9.6}},{"type":"Feature","geometry":{"type":"Polygon","coordinates":[[[-40.03762,-12.15354],[-40.03789,-12.15455],[-40.0393,-12.15503],[-40.03907,-12.15654],[-40.03776,-12.15867],[-40.03734,-12.15989],[-40.03773,-12.16078],[-40.03883,-12.16164],[-40.03813,-12.16326],[-40.03521,-12.16501],[-40.03373,-12.16632],[-40.03335,-12.16959],[-40.03278,-12.17124],[-40.03459,-12.17409],[-40.03507,-12.17578],[-40.03562,-12.17642],[-40.03793,-12.17758],[-40.04026,-12.17851],[-40.04364,-12.17947],[-40.04529,-12.18052],[-40.04582,-12.1825],[-40.04483,-12.1841],[-40.04436,-12.18588],[-40.04375,-12.18705],[-40.0451,-12.18861],[-40.04664,-12.18886],[-40.04694,-12.18965],[-40.04613,-12.19058],[-40.04752,-12.19181],[-40.04757,-12.19332],[-40.04824,-12.19445],[-40.04934,-12.19474],[-40.05046,-12.19602],[-40.05242,-12.19556],[-40.05489,-12.19526],[-40.05744,-12.19573],[-40.05792,-12.19619],[-40.05831,-12.19812],[-40.05924,-12.19819],[-40.06102,-12.19736],[-40.06353,-12.19694],[-40.06454,-12.19797],[-40.06572,-12.19868],[-40.06895,-12.19878],[-40.06987,-12.19773],[-40.06946,-12.19527],[-40.0698,-12.19394],[-40.07148,-12.19391],[-40.07302,-12.19251],[-40.07419,-12.1928],[-40.07585,-12.19424],[-40.07876,-12.1959],[-40.07962,-12.19607],[-40.08069,-12.19907],[-40.08169,-12.20003],[-40.08574,-12.2007],[-40.08785,-12.20147],[-40.09037,-12.20281],[-40.14048,-12.24673],[-40.14101,-12.246],[-40.14062,-12.24657],[-40.13979,-12.2476],[-40.13909,-12.24842],[-40.13819,-12.24929],[-40.13638,-12.25179],[-40.1357,-12.25402],[-40.13607,-12.25512],[-40.13695,-12.25651],[-40.13731,-12.25832],[-40.13711,-12.26059],[-40.13688,-12.26612],[-40.13619,-12.26882],[-40.13495,-12.27181],[-40.1339,-12.27293],[-40.13081,-12.27345],[-40.13029,-12.27519],[-40.13056,-12.27682],[-40.13159,-12.27846],[-40.13304,-12.27919],[-40.13316,-12.28068],[-40.13201,-12.28304],[-40.13224,-12.28559],[-40.13207,-12.28809],[-40.13227,-12.29031],[-40.13357,-12.29327],[-40.13397,-12.2951],[-40.13235,-12.29686],[-40.13327,-12.2991],[-40.1329,-12.30013],[-40.1289,-12.30378],[-40.12782,-12.30399],[-40.12715,-12.30295],[-40.12486,-12.30278],[-40.12407,-12.30327],[-40.12365,-12.30483],[-40.12379,-12.30735],[-40.12509,-12.3083],[-40.12532,-12.3091],[-40.12495,-12.31163],[-40.12452,-12.31318],[-40.12368,-12.31416],[-40.12304,-12.31427],[-40.12167,-12.31366],[-40.12081,-12.3142],[-40.12086,-12.31629],[-40.11917,-12.3183],[-40.11626,-12.31986],[-40.11442,-12.32037],[-40.11457,-12.32097],[-40.11583,-12.32104],[-40.11664,-12.32159],[-40.1173,-12.32359],[-40.11634,-12.325],[-40.11614,-12.32719],[-40.11551,-12.32885],[-40.11483,-12.32948],[-40.11363,-12.32969],[-40.11225,-12.32945],[-40.11079,-12.32729],[-40.10966,-12.32624],[-40.10854,-12.32579],[-40.10623,-12.32549],[-40.10407,-12.32567],[-40.10224,-12.32681],[-40.10123,-12.32695],[-40.1001,-12.32643],[-40.09833,-12.32661],[-40.09699,-12.32753],[-40.09641,-12.3275],[-40.09532,-12.32535],[-40.09432,-12.32483],[-40.09281,-12.3254],[-40.09103,-12.32721],[-40.08984,-12.3296],[-40.08944,-12.32987],[-40.08747,-12.32918],[-40.0863,-12.3291],[-40.08484,-12.32939],[-40.08345,-12.331],[-40.08264,-12.33294],[-40.08169,-12.33423],[-40.08036,-12.33499],[-40.07738,-12.3352],[-40.07175,-12.33451],[-40.07141,-12.33508],[-40.07167,-12.33645],[-40.07119,-12.33845],[-40.07189,-12.33945],[-40.07207,-12.34062],[-40.07302,-12.34161],[-40.07384,-12.34314],[-40.07314,-12.34416],[-40.07126,-12.34551],[-40.0679,-12.34696],[-40.06624,-12.3468],[-40.0656,-12.34614],[-40.06472,-12.34441],[-40.06312,-12.34365],[-40.06136,-12.34216],[-40.06062,-12.34108],[-40.05976,-12.34125],[-40.05806,-12.34318],[-40.05584,-12.34403],[-40.05338,-12.34669],[-40.0528,-12.3504],[-40.05199,-12.3516],[-40.05159,-12.35283],[-40.0513,-12.35524],[-40.05014,-12.35551],[-40.0481,-12.35497],[-40.04458,-12.35535],[-40.04258,-12.35606],[-40.04059,-12.35931],[-40.0386,-12.35987],[-40.03857,-12.3579],[-40.03768,-12.35689],[-40.03097,-12.35508],[-40.0266,-12.35516],[-40.02325,-12.3544],[-40.00456,-12.34944],[-39.98754,-12.34488],[-39.98038,-12.34293],[-39.95755,-12.33663],[-39.95722,-12.33876],[-39.95341,-12.33763],[-39.95375,-12.33652],[-39.95312,-12.33541],[-39.95237,-12.33864],[-39.94805,-12.33741],[-39.94401,-12.33546],[-39.94522,-12.3332],[-39.93926,-12.33155],[-39.93837,-12.33105],[-39.92743,-12.3235],[-39.90819,-12.31013],[-39.90295,-12.30657],[-39.8981,-12.30422],[-39.89327,-12.30074],[-39.88718,-12.29654],[-39.88103,-12.2922],[-39.87884,-12.2911],[-39.87574,-12.29105],[-39.87445,-12.29052],[-39.872,-12.28877],[-39.87086,-12.28709],[-39.87006,-12.28484],[-39.86877,-12.28344],[-39.85538,-12.27773],[-39.84837,-12.27224],[-39.84674,-12.27106],[-39.84462,-12.27063],[-39.84179,-12.27133],[-39.84087,-12.27],[-39.83931,-12.2693],[-39.83798,-12.26732],[-39.83797,-12.26645],[-39.83713,-12.26539],[-39.83506,-12.26377],[-39.83325,-12.26302],[-39.83375,-12.2621],[-39.83537,-12.26045],[-39.83565,-12.25942],[-39.8349,-12.25911],[-39.83333,-12.25977],[-39.83045,-12.26005],[-39.82962,-12.2599],[-39.82813,-12.2587],[-39.82769,-12.25707],[-39.82889,-12.25561],[-39.83118,-12.25489],[-39.83347,-12.25349],[-39.83597,-12.25253],[-39.83732,-12.25223],[-39.8372,-12.2508],[-39.83578,-12.25045],[-39.83511,-12.24938],[-39.83679,-12.24638],[-39.83691,-12.2454],[-39.83573,-12.24225],[-39.83773,-12.23797],[-39.8376,-12.23503],[-39.83841,-12.23375],[-39.83822,-12.23206],[-39.83725,-12.23081],[-39.83713,-12.22903],[-39.83463,-12.22411],[-39.83462,-12.22322],[-39.83378,-12.22162],[-39.83395,-12.22025],[-39.83341,-12.21871],[-39.83431,-12.21792],[-39.8349,-12.21658],[-39.83502,-12.21523],[-39.83419,-12.21336],[-39.83446,-12.21045],[-39.83449,-12.20834],[-39.833,-12.20329],[-39.83305,-12.20127],[-39.83407,-12.19664],[-39.83431,-12.19361],[-39.83405,-12.18808],[-39.83367,-12.18428],[-39.83331,-12.18292],[-39.83227,-12.17775],[-39.83075,-12.17437],[-39.82954,-12.17218],[-39.8276,-12.16802],[-39.82735,-12.16589],[-39.82559,-12.16233],[-39.82396,-12.16055],[-39.82191,-12.15925],[-39.81998,-12.15854],[-39.81828,-12.157],[-39.81743,-12.15534],[-39.81737,-12.15368],[-39.8135,-12.14924],[-39.81289,-12.14769],[-39.81192,-12.14675],[-39.81128,-12.14452],[-39.81106,-12.14177],[-39.81115,-12.14036],[-39.81178,-12.13801],[-39.81303,-12.13486],[-39.81327,-12.13245],[-39.81296,-12.13052],[-39.81308,-12.12829],[-39.81486,-12.12398],[-39.81439,-12.1221],[-39.81484,-12.1215],[-39.81444,-12.12044],[-39.81508,-12.11886],[-39.81651,-12.11709],[-39.81604,-12.11529],[-39.81495,-12.11421],[-39.813,-12.11308],[-39.81204,-12.11348],[-39.81002,-12.11312],[-39.80893,-12.11147],[-39.80876,-12.1094],[-39.80827,-12.10826],[-39.80564,-12.10784],[-39.80385,-12.1069],[-39.80332,-12.1059],[-39.80311,-12.10451],[-39.80318,-12.10106],[-39.80217,-12.10005],[-39.80303,-12.09694],[-39.80302,-12.09581],[-39.80145,-12.09317],[-39.80095,-12.0918],[-39.80295,-12.09024],[-39.81172,-12.07528],[-39.81986,-12.06051],[-39.82118,-12.06043],[-39.82328,-12.0627],[-39.82518,-12.06228],[-39.82594,-12.06299],[-39.82651,-12.06238],[-39.82734,-12.06284],[-39.82917,-12.06218],[-39.82928,-12.06069],[-39.8308,-12.06099],[-39.83157,-12.05989],[-39.83333,-12.05984],[-39.83476,-12.05856],[-39.8356,-12.05874],[-39.83695,-12.05819],[-39.83708,-12.05722],[-39.83961,-12.05615],[-39.84038,-12.05522],[-39.84243,-12.05484],[-39.84277,-12.05424],[-39.84416,-12.05423],[-39.84443,-12.05473],[-39.84863,-12.05578],[-39.84937,-12.05552],[-39.85064,-12.0558],[-39.85217,-12.05566],[-39.8527,-12.05594],[-39.85399,-12.05484],[-39.85539,-12.05545],[-39.8568,-12.05525],[-39.85814,-12.0562],[-39.85881,-12.05621],[-39.85978,-12.05714],[-39.86164,-12.05742],[-39.86513,-12.05842],[-39.86766,-12.06069],[-39.86922,-12.0601],[-39.8716,-12.05999],[-39.87253,-12.05909],[-39.87503,-12.05941],[-39.87538,-12.05835],[-39.87507,-12.05748],[-39.87562,-12.05673],[-39.87507,-12.05546],[-39.87637,-12.0549],[-39.87754,-12.05346],[-39.87986,-12.0523],[-39.88097,-12.05136],[-39.88105,-12.04918],[-39.88179,-12.04795],[-39.88421,-12.04609],[-39.88965,-12.04566],[-39.89087,-12.04523],[-39.89155,-12.04451],[-39.8912,-12.04238],[-39.89132,-12.03951],[-39.89282,-12.03873],[-39.89506,-12.03719],[-39.89649,-12.03546],[-39.8978,-12.0356],[-39.89981,-12.0354],[-39.90181,-12.03344],[-39.90244,-12.03317],[-39.90372,-12.03142],[-39.90347,-12.03089],[-39.90428,-12.02902],[-39.90486,-12.02892],[-39.90519,-12.02871],[-39.90783,-12.02723],[-39.90959,-12.02647],[-39.9103,-12.02521],[-39.9112,-12.02512],[-39.91187,-12.0238],[-39.91274,-12.02468],[-39.91375,-12.02453],[-39.91425,-12.02307],[-39.91582,-12.02144],[-39.91682,-12.02078],[-39.91666,-12.01913],[-39.91765,-12.01791],[-39.91926,-12.01659],[-39.91989,-12.01572],[-39.92048,-12.01272],[-39.92206,-12.01142],[-39.92201,-12.01053],[-39.92099,-12.00902],[-39.92094,-12.00802],[-39.92138,-12.00698],[-39.92076,-12.00485],[-39.92105,-12.0019],[-39.9221,-12.00026],[-39.92211,-11.99966],[-39.92318,-11.99722],[-39.92418,-11.99671],[-39.92582,-11.99708],[-39.92688,-11.99665],[-39.92779,-11.99731],[-39.92868,-11.99722],[-39.92984,-11.99621],[-39.9307,-11.99477],[-39.93129,-11.99436],[-39.93435,-11.99405],[-39.93581,-11.9933],[-39.93874,-11.99289],[-39.94015,-11.99286],[-39.94086,-11.99326],[-39.94211,-11.99284],[-39.94315,-11.99334],[-39.94505,-11.99325],[-39.94699,-11.99198],[-39.94773,-11.9909],[-39.94783,-11.98932],[-39.9473,-11.98686],[-39.94963,-11.98579],[-39.95035,-11.98568],[-39.95205,-11.98619],[-39.95414,-11.98536],[-39.95521,-11.98392],[-39.95636,-11.98183],[-39.9581,-11.97966],[-39.95836,-11.97899],[-39.95839,-11.97668],[-39.95908,-11.97546],[-39.95991,-11.97472],[-39.95909,-11.97546],[-39.9584,-11.97668],[-39.95969,-11.97783],[-39.95989,-11.97917],[-39.96051,-11.97979],[-39.96343,-11.98083],[-39.96445,-11.98202],[-39.96481,-11.98321],[-39.96575,-11.98439],[-39.96703,-11.98484],[-39.9705,-11.98658],[-39.96924,-11.98811],[-39.96631,-11.99041],[-39.96521,-11.99246],[-39.96518,-11.99389],[-39.96459,-11.99726],[-39.96434,-11.99982],[-39.96465,-12.00315],[-39.96514,-12.00477],[-39.96527,-12.00634],[-39.96482,-12.00861],[-39.96112,-12.01222],[-39.96157,-12.0132],[-39.96175,-12.01582],[-39.96238,-12.0181],[-39.962,-12.02238],[-39.96297,-12.02373],[-39.96424,-12.02424],[-39.96654,-12.02701],[-39.96722,-12.02761],[-39.96912,-12.02825],[-39.96991,-12.02883],[-39.97123,-12.03049],[-39.97233,-12.0325],[-39.97229,-12.03457],[-39.97375,-12.03689],[-39.97394,-12.03919],[-39.9734,-12.04297],[-39.9736,-12.04833],[-39.97186,-12.04984],[-39.9713,-12.05068],[-39.97186,-12.05382],[-39.97125,-12.05452],[-40.02852,-12.05517],[-40.02687,-12.05694],[-40.02555,-12.05939],[-40.0259,-12.06368],[-40.02582,-12.06735],[-40.02514,-12.06961],[-40.02522,-12.071],[-40.0263,-12.07479],[-40.02784,-12.07817],[-40.02779,-12.0805],[-40.02729,-12.082],[-40.02721,-12.08387],[-40.02847,-12.0884],[-40.03069,-12.09348],[-40.03108,-12.09605],[-40.0309,-12.09822],[-40.0302,-12.10108],[-40.02991,-12.10429],[-40.0292,-12.10652],[-40.02847,-12.10979],[-40.02851,-12.11283],[-40.0293,-12.11482],[-40.03161,-12.11781],[-40.03364,-12.12125],[-40.03422,-12.12303],[-40.03374,-12.12366],[-40.03226,-12.12458],[-40.03188,-12.12537],[-40.03128,-12.12963],[-40.03162,-12.13049],[-40.0329,-12.13111],[-40.03289,-12.1334],[-40.03205,-12.13832],[-40.03218,-12.13933],[-40.03299,-12.14152],[-40.03295,-12.14242],[-40.03183,-12.14587],[-40.03176,-12.14763],[-40.0321,-12.15],[-40.03266,-12.15086],[-40.03379,-12.15106],[-40.03511,-12.15432],[-40.0363,-12.15446],[-40.03678,-12.15343],[-40.03762,-12.15354]]]},"properties":{"codigo":"291400025","name":"Malhador","population":5580,"households":3262,"areaKm2":861.4651,"density":6.5}}]}