{"type":"FeatureCollection","features":[{"type":"Feature","geometry":{"type":"Polygon","coordinates":[[[-39.98827,-13.64221],[-39.99129,-13.64146],[-39.99281,-13.64128],[-39.99413,-13.64169],[-39.99631,-13.64157],[-39.99776,-13.64187],[-39.99858,-13.64163],[-40.0005,-13.64242],[-40.00043,-13.643],[-40.00235,-13.64288],[-40.00272,-13.64311],[-40.00388,-13.64532],[-40.0041,-13.64855],[-40.00518,-13.64974],[-40.0062,-13.65037],[-40.0057,-13.65325],[-40.00488,-13.65422],[-40.00323,-13.65499],[-40.00264,-13.65686],[-40.00299,-13.65715],[-40.00261,-13.65923],[-40.00293,-13.66176],[-40.00416,-13.66474],[-40.00419,-13.66568],[-40.00282,-13.67187],[-40.00205,-13.67329],[-40.00201,-13.67445],[-40.00301,-13.6749],[-40.00347,-13.67564],[-40.00413,-13.67866],[-40.0046,-13.67956],[-40.00704,-13.68212],[-40.01157,-13.68335],[-40.01256,-13.68456],[-40.01352,-13.68433],[-40.01417,-13.6853],[-40.01541,-13.68841],[-40.01587,-13.68899],[-40.01596,-13.69122],[-40.0177,-13.69353],[-40.01907,-13.69429],[-40.01931,-13.69597],[-40.02305,-13.69929],[-40.02337,-13.70032],[-40.025,-13.70191],[-40.02574,-13.70229],[-40.02609,-13.70357],[-40.02794,-13.70474],[-40.02913,-13.70493],[-40.03004,-13.70583],[-40.03169,-13.70589],[-40.03293,-13.70474],[-40.03412,-13.70411],[-40.03588,-13.70379],[-40.04662,-13.69854],[-40.0498,-13.69681],[-40.05081,-13.69589],[-40.05227,-13.69505],[-40.05566,-13.69492],[-40.05908,-13.694],[-40.06011,-13.69352],[-40.06108,-13.69244],[-40.06301,-13.69137],[-40.06529,-13.69106],[-40.06555,-13.69203],[-40.06624,-13.6926],[-40.06611,-13.69373],[-40.06751,-13.69498],[-40.06899,-13.69519],[-40.07022,-13.69666],[-40.07047,-13.69864],[-40.07093,-13.69999],[-40.071,-13.70261],[-40.07183,-13.70384],[-40.07289,-13.70418],[-40.07235,-13.70645],[-40.07262,-13.70768],[-40.07513,-13.70947],[-40.0757,-13.7105],[-40.07548,-13.71248],[-40.07664,-13.71289],[-40.07772,-13.7137],[-40.07701,-13.7152],[-40.07755,-13.71597],[-40.07877,-13.71615],[-40.07958,-13.71783],[-40.08032,-13.71864],[-40.08085,-13.72071],[-40.08206,-13.72182],[-40.08433,-13.72649],[-40.08528,-13.72722],[-40.08663,-13.72728],[-40.08856,-13.72854],[-40.08843,-13.72944],[-40.09048,-13.73061],[-40.09039,-13.73241],[-40.09147,-13.7336],[-40.09135,-13.73465],[-40.08914,-13.73421],[-40.08888,-13.73575],[-40.08759,-13.7366],[-40.08739,-13.73783],[-40.08681,-13.73845],[-40.08659,-13.74088],[-40.08703,-13.74217],[-40.08822,-13.74304],[-40.08909,-13.74429],[-40.09056,-13.74475],[-40.0909,-13.74563],[-40.09052,-13.74664],[-40.09195,-13.74738],[-40.09353,-13.74759],[-40.09428,-13.74816],[-40.09421,-13.75003],[-40.09353,-13.75026],[-40.09281,-13.75139],[-40.09283,-13.75309],[-40.09367,-13.75368],[-40.09328,-13.75447],[-40.09415,-13.7555],[-40.09488,-13.75749],[-40.09711,-13.75806],[-40.09752,-13.75913],[-40.09723,-13.76111],[-40.09678,-13.7615],[-40.0947,-13.76185],[-40.09348,-13.76452],[-40.09301,-13.76501],[-40.10139,-13.76537],[-40.16859,-13.7689],[-40.16969,-13.76785],[-40.16999,-13.76668],[-40.16989,-13.76453],[-40.1718,-13.76366],[-40.17362,-13.76245],[-40.17414,-13.76137],[-40.176,-13.75909],[-40.17693,-13.75931],[-40.17847,-13.75888],[-40.17906,-13.75755],[-40.18064,-13.7569],[-40.18095,-13.75615],[-40.18301,-13.75626],[-40.18405,-13.75607],[-40.18563,-13.75512],[-40.18575,-13.7542],[-40.18656,-13.75356],[-40.18863,-13.75299],[-40.18949,-13.75356],[-40.19056,-13.75318],[-40.19,-13.75122],[-40.19071,-13.74988],[-40.19219,-13.7503],[-40.19341,-13.7493],[-40.19288,-13.74776],[-40.19477,-13.74723],[-40.19483,-13.74615],[-40.19533,-13.74539],[-40.19618,-13.74548],[-40.19601,-13.74431],[-40.19716,-13.74435],[-40.19883,-13.74303],[-40.19938,-13.74105],[-40.20115,-13.73916],[-40.20297,-13.73823],[-40.20425,-13.73791],[-40.20492,-13.73658],[-40.20585,-13.73559],[-40.20666,-13.73391],[-40.20786,-13.73249],[-40.20943,-13.73339],[-40.21053,-13.73227],[-40.21047,-13.73131],[-40.21347,-13.7301],[-40.21446,-13.73108],[-40.21545,-13.73074],[-40.21667,-13.73203],[-40.21839,-13.73259],[-40.21854,-13.73353],[-40.21977,-13.73422],[-40.22171,-13.73373],[-40.22311,-13.73379],[-40.22429,-13.73501],[-40.22835,-13.736],[-40.22903,-13.73637],[-40.23086,-13.73642],[-40.23261,-13.73736],[-40.23589,-13.73773],[-40.23762,-13.73925],[-40.23982,-13.7394],[-40.24099,-13.73998],[-40.24171,-13.73988],[-40.24248,-13.74116],[-40.24439,-13.74216],[-40.24532,-13.74308],[-40.24633,-13.74315],[-40.24739,-13.74412],[-40.24898,-13.74363],[-40.25155,-13.74441],[-40.25422,-13.74461],[-40.2571,-13.74549],[-40.25961,-13.74679],[-40.26245,-13.74722],[-40.26303,-13.74771],[-40.26532,-13.74768],[-40.2667,-13.74805],[-40.27038,-13.74861],[-40.28654,-13.75356],[-40.33011,-13.76983],[-40.32864,-13.76961],[-40.32523,-13.76954],[-40.32314,-13.77015],[-40.32095,-13.77111],[-40.31818,-13.77088],[-40.31705,-13.77012],[-40.31527,-13.76989],[-40.3142,-13.7693],[-40.31258,-13.76936],[-40.31046,-13.76986],[-40.3086,-13.76997],[-40.30756,-13.77057],[-40.30655,-13.77066],[-40.30629,-13.77184],[-40.30543,-13.77193],[-40.30474,-13.77296],[-40.3036,-13.77284],[-40.30269,-13.77373],[-40.30291,-13.7756],[-40.30255,-13.77665],[-40.30103,-13.77679],[-40.29992,-13.77916],[-40.29862,-13.77944],[-40.29712,-13.78107],[-40.29704,-13.78361],[-40.29767,-13.7843],[-40.29623,-13.78754],[-40.2938,-13.78851],[-40.29327,-13.78947],[-40.29162,-13.78961],[-40.28975,-13.79024],[-40.2875,-13.79037],[-40.2872,-13.79126],[-40.28737,-13.79278],[-40.28674,-13.794],[-40.28569,-13.79453],[-40.28524,-13.79533],[-40.28572,-13.79725],[-40.28453,-13.79798],[-40.28308,-13.79956],[-40.28124,-13.80095],[-40.28059,-13.80216],[-40.2793,-13.80282],[-40.27854,-13.80447],[-40.27753,-13.80516],[-40.27702,-13.80681],[-40.27538,-13.80876],[-40.27497,-13.8107],[-40.27387,-13.81158],[-40.27285,-13.81186],[-40.27229,-13.81293],[-40.27102,-13.814],[-40.27087,-13.81511],[-40.27,-13.81579],[-40.26787,-13.81651],[-40.26773,-13.81725],[-40.26657,-13.81803],[-40.26662,-13.82017],[-40.26439,-13.82159],[-40.26354,-13.82264],[-40.26324,-13.82455],[-40.26001,-13.82699],[-40.25974,-13.82876],[-40.25986,-13.83013],[-40.25899,-13.83165],[-40.2575,-13.83235],[-40.25674,-13.83364],[-40.25701,-13.83506],[-40.25473,-13.83603],[-40.25401,-13.83666],[-40.25381,-13.83771],[-40.25291,-13.83821],[-40.25209,-13.83798],[-40.25155,-13.83907],[-40.24893,-13.84069],[-40.24631,-13.84109],[-40.24505,-13.84156],[-40.24396,-13.84387],[-40.24465,-13.84611],[-40.24465,-13.84839],[-40.24415,-13.85015],[-40.24295,-13.85289],[-40.24085,-13.8548],[-40.23946,-13.85654],[-40.23938,-13.85756],[-40.24064,-13.85986],[-40.24135,-13.86185],[-40.24273,-13.86379],[-40.24449,-13.86549],[-40.24712,-13.86757],[-40.24203,-13.86762],[-40.23801,-13.86804],[-40.23256,-13.86941],[-40.23096,-13.86958],[-40.22714,-13.86968],[-40.22229,-13.87028],[-40.21919,-13.8703],[-40.21775,-13.87064],[-40.21549,-13.87084],[-40.21276,-13.87175],[-40.20764,-13.87272],[-40.20387,-13.87358],[-40.20045,-13.87367],[-40.19701,-13.87416],[-40.19405,-13.87396],[-40.1915,-13.87405],[-40.19062,-13.87317],[-40.18623,-13.87081],[-40.18428,-13.87021],[-40.18174,-13.86998],[-40.17875,-13.86949],[-40.17539,-13.86878],[-40.1733,-13.86806],[-40.17052,-13.86677],[-40.167,-13.86536],[-40.1661,-13.8652],[-40.16216,-13.86579],[-40.15696,-13.86709],[-40.15489,-13.86706],[-40.15337,-13.86743],[-40.15057,-13.86774],[-40.14862,-13.86756],[-40.14456,-13.86769],[-40.14287,-13.86755],[-40.14,-13.86762],[-40.13736,-13.87916],[-40.1369,-13.8817],[-40.13639,-13.88079],[-40.12005,-13.87875],[-40.11496,-13.87958],[-40.11042,-13.88091],[-40.10553,-13.8822],[-40.09197,-13.88817],[-40.06346,-13.90354],[-40.02994,-13.9211],[-40.02845,-13.92271],[-40.02673,-13.92325],[-40.02502,-13.92467],[-40.02442,-13.92596],[-40.0244,-13.92783],[-40.02471,-13.92922],[-40.02641,-13.93447],[-40.02629,-13.93624],[-40.02417,-13.94196],[-40.02404,-13.94317],[-40.02531,-13.94491],[-40.02586,-13.94606],[-40.02616,-13.9479],[-40.02741,-13.95098],[-40.02773,-13.95328],[-40.02894,-13.95746],[-40.02941,-13.95838],[-40.03105,-13.96039],[-40.03041,-13.96106],[-40.02898,-13.96004],[-40.02664,-13.95931],[-40.02622,-13.95863],[-40.02393,-13.95771],[-40.02237,-13.95763],[-40.02052,-13.95785],[-40.01904,-13.95746],[-40.01627,-13.95726],[-40.01349,-13.9555],[-40.01175,-13.95549],[-40.01031,-13.9549],[-40.00915,-13.95553],[-40.00864,-13.95631],[-40.00781,-13.95624],[-40.00709,-13.95684],[-40.00599,-13.9571],[-40.00523,-13.95815],[-40.00355,-13.9583],[-40.00293,-13.95926],[-40.00209,-13.96179],[-40.00234,-13.96271],[-40.00365,-13.96368],[-40.00465,-13.9651],[-39.9932,-13.96421],[-39.99155,-13.96364],[-39.9897,-13.96271],[-39.98903,-13.96196],[-39.9879,-13.96206],[-39.98643,-13.96154],[-39.98472,-13.95963],[-39.98391,-13.9573],[-39.98423,-13.95598],[-39.98371,-13.95521],[-39.98235,-13.95437],[-39.98209,-13.95255],[-39.98166,-13.95159],[-39.97993,-13.95098],[-39.97867,-13.94969],[-39.9774,-13.94798],[-39.9779,-13.94526],[-39.97777,-13.94451],[-39.97405,-13.945],[-39.97536,-13.9434],[-39.97533,-13.94283],[-39.97441,-13.94123],[-39.97411,-13.93921],[-39.9729,-13.93743],[-39.97091,-13.93585],[-39.96826,-13.93303],[-39.96482,-13.92874],[-39.96302,-13.92565],[-39.96099,-13.92342],[-39.95838,-13.91945],[-39.95736,-13.91697],[-39.95659,-13.91415],[-39.95609,-13.913],[-39.95291,-13.90871],[-39.94898,-13.90562],[-39.94331,-13.90003],[-39.94216,-13.8996],[-39.94057,-13.89962],[-39.93995,-13.89861],[-39.93829,-13.89703],[-39.93838,-13.89639],[-39.93952,-13.89567],[-39.93964,-13.89412],[-39.93225,-13.89216],[-39.91292,-13.89179],[-39.91159,-13.89192],[-39.91006,-13.89299],[-39.90814,-13.89348],[-39.9075,-13.89283],[-39.90584,-13.89296],[-39.90329,-13.89238],[-39.89785,-13.89423],[-39.89638,-13.89273],[-39.89457,-13.89228],[-39.89513,-13.89096],[-39.89549,-13.88815],[-39.89472,-13.88562],[-39.89399,-13.88496],[-39.89406,-13.88394],[-39.89676,-13.88121],[-39.89669,-13.88023],[-39.8986,-13.88005],[-39.89862,-13.87888],[-39.89941,-13.87722],[-39.90037,-13.87626],[-39.90076,-13.87457],[-39.89997,-13.8739],[-39.89962,-13.87137],[-39.90012,-13.87071],[-39.90006,-13.86799],[-39.90114,-13.86733],[-39.90189,-13.86487],[-39.90242,-13.86448],[-39.90344,-13.86165],[-39.90355,-13.86074],[-39.90443,-13.86015],[-39.90423,-13.85914],[-39.90488,-13.85848],[-39.90419,-13.85721],[-39.90409,-13.85613],[-39.90303,-13.8549],[-39.90376,-13.85349],[-39.90465,-13.85297],[-39.90523,-13.85199],[-39.90605,-13.85198],[-39.90689,-13.85124],[-39.90695,-13.84999],[-39.9065,-13.84876],[-39.90672,-13.84697],[-39.90868,-13.84598],[-39.90942,-13.84509],[-39.90946,-13.84261],[-39.90987,-13.84186],[-39.91069,-13.83665],[-39.91132,-13.83542],[-39.9114,-13.83425],[-39.91239,-13.83388],[-39.91265,-13.83196],[-39.91077,-13.83139],[-39.91102,-13.83025],[-39.91169,-13.82931],[-39.9118,-13.82823],[-39.91248,-13.82768],[-39.91271,-13.82673],[-39.91398,-13.82508],[-39.91582,-13.82128],[-39.91642,-13.81968],[-39.91937,-13.81707],[-39.91967,-13.81595],[-39.92251,-13.81487],[-39.92329,-13.81398],[-39.92346,-13.81044],[-39.92417,-13.80797],[-39.9255,-13.80714],[-39.92706,-13.8043],[-39.92739,-13.80176],[-39.92734,-13.80003],[-39.92827,-13.79775],[-39.93027,-13.79623],[-39.93161,-13.7946],[-39.93387,-13.79405],[-39.9358,-13.79211],[-39.93747,-13.7909],[-39.93784,-13.79029],[-39.93777,-13.78899],[-39.93729,-13.78733],[-39.9373,-13.78531],[-39.93804,-13.78291],[-39.93916,-13.78191],[-39.94227,-13.78073],[-39.94231,-13.78004],[-39.9404,-13.77833],[-39.94031,-13.77716],[-39.94074,-13.77588],[-39.94021,-13.77445],[-39.94047,-13.77357],[-39.94129,-13.77314],[-39.94152,-13.77112],[-39.94123,-13.77026],[-39.94198,-13.7691],[-39.94281,-13.76843],[-39.94247,-13.76655],[-39.94195,-13.76588],[-39.94221,-13.76373],[-39.9426,-13.76257],[-39.94329,-13.76204],[-39.94288,-13.76107],[-39.94476,-13.75851],[-39.94534,-13.75684],[-39.94475,-13.75551],[-39.94504,-13.75458],[-39.94432,-13.75408],[-39.94738,-13.75146],[-39.94697,-13.75024],[-39.9461,-13.74978],[-39.94625,-13.74898],[-39.94492,-13.74568],[-39.94393,-13.74543],[-39.94355,-13.74395],[-39.94279,-13.74325],[-39.94278,-13.74229],[-39.94197,-13.74195],[-39.94267,-13.74076],[-39.94271,-13.73935],[-39.94155,-13.73849],[-39.94191,-13.73683],[-39.94115,-13.73589],[-39.94184,-13.73482],[-39.94168,-13.73288],[-39.94094,-13.7319],[-39.94085,-13.73104],[-39.94132,-13.72994],[-39.94119,-13.72791],[-39.94175,-13.72779],[-39.94116,-13.72477],[-39.94199,-13.72463],[-39.94223,-13.72185],[-39.94324,-13.72143],[-39.94326,-13.71926],[-39.94361,-13.71832],[-39.94447,-13.71769],[-39.94566,-13.71795],[-39.94661,-13.71733],[-39.94704,-13.71598],[-39.94789,-13.71554],[-39.94733,-13.71421],[-39.94833,-13.7141],[-39.94769,-13.71213],[-39.94658,-13.71118],[-39.94564,-13.71126],[-39.94423,-13.71001],[-39.94496,-13.70947],[-39.94523,-13.7076],[-39.94417,-13.70594],[-39.94541,-13.70507],[-39.9457,-13.70362],[-39.94522,-13.70124],[-39.9454,-13.70069],[-39.94455,-13.6993],[-39.94214,-13.69946],[-39.94093,-13.69892],[-39.93991,-13.69906],[-39.93867,-13.69871],[-39.93772,-13.69802],[-39.93796,-13.69727],[-39.93878,-13.69684],[-39.93931,-13.69539],[-39.93867,-13.69461],[-39.93883,-13.69394],[-39.93994,-13.6934],[-39.93999,-13.69248],[-39.94106,-13.69232],[-39.94136,-13.69137],[-39.94097,-13.69078],[-39.94093,-13.68839],[-39.94007,-13.68825],[-39.93964,-13.68745],[-39.93813,-13.68743],[-39.93713,-13.68629],[-39.93562,-13.68507],[-39.93446,-13.68536],[-39.93317,-13.68508],[-39.93137,-13.68264],[-39.93126,-13.68005],[-39.93052,-13.68035],[-39.92948,-13.67967],[-39.92825,-13.68006],[-39.92732,-13.67976],[-39.92655,-13.67899],[-39.92548,-13.67679],[-39.9255,-13.67478],[-39.92762,-13.67578],[-39.92879,-13.6759],[-39.93207,-13.67416],[-39.93386,-13.6739],[-39.935,-13.67321],[-39.93676,-13.67142],[-39.93701,-13.67087],[-39.93694,-13.66855],[-39.94064,-13.666],[-39.94268,-13.66537],[-39.94509,-13.66512],[-39.94629,-13.66546],[-39.94704,-13.6662],[-39.94909,-13.66653],[-39.94944,-13.66687],[-39.94971,-13.66875],[-39.95055,-13.6693],[-39.95478,-13.66923],[-39.95526,-13.66948],[-39.95633,-13.67171],[-39.95741,-13.67303],[-39.95841,-13.67248],[-39.9599,-13.67065],[-39.96281,-13.66928],[-39.96389,-13.66743],[-39.96841,-13.66494],[-39.96933,-13.66356],[-39.96938,-13.66189],[-39.96889,-13.65976],[-39.9682,-13.65895],[-39.96826,-13.65816],[-39.9701,-13.65771],[-39.97096,-13.65715],[-39.97146,-13.65574],[-39.97156,-13.65389],[-39.97245,-13.65285],[-39.97329,-13.65256],[-39.97619,-13.65031],[-39.97964,-13.64981],[-39.98086,-13.64917],[-39.98191,-13.64888],[-39.98359,-13.64899],[-39.98454,-13.64759],[-39.98539,-13.64713],[-39.9859,-13.64616],[-39.98715,-13.64516],[-39.98781,-13.64399],[-39.98827,-13.64221]]]},"properties":{"codigo":"291800105","name":"Jequié","population":146628,"households":65488,"areaKm2":736.1569,"density":199.2}},{"type":"Feature","geometry":{"type":"Polygon","coordinates":[[[-40.09685,-13.66868],[-40.09653,-13.6766],[-40.09641,-13.67771],[-40.09478,-13.68432],[-40.1067,-13.68303],[-40.1089,-13.68575],[-40.11244,-13.68706],[-40.11506,-13.68782],[-40.12367,-13.68741],[-40.12695,-13.68645],[-40.12951,-13.68669],[-40.13391,-13.68728],[-40.13504,-13.68776],[-40.13647,-13.68907],[-40.13808,-13.68966],[-40.13849,-13.69032],[-40.13679,-13.69404],[-40.13701,-13.69597],[-40.13825,-13.6981],[-40.13939,-13.69882],[-40.14071,-13.69902],[-40.14327,-13.69796],[-40.14628,-13.6963],[-40.14809,-13.69479],[-40.15141,-13.69314],[-40.15714,-13.69163],[-40.16015,-13.68922],[-40.16369,-13.6872],[-40.16675,-13.68728],[-40.17038,-13.68604],[-40.1724,-13.6849],[-40.17329,-13.68473],[-40.17567,-13.68553],[-40.17855,-13.6856],[-40.18019,-13.68526],[-40.18217,-13.6856],[-40.18644,-13.6874],[-40.189,-13.68806],[-40.19031,-13.68925],[-40.19016,-13.69314],[-40.18864,-13.69561],[-40.18839,-13.69684],[-40.18889,-13.69752],[-40.19054,-13.69789],[-40.19203,-13.69752],[-40.19393,-13.69766],[-40.19468,-13.69871],[-40.19408,-13.70233],[-40.19197,-13.70595],[-40.19269,-13.70799],[-40.19558,-13.71017],[-40.19996,-13.71062],[-40.21058,-13.713],[-40.21352,-13.71376],[-40.21555,-13.71387],[-40.21733,-13.71314],[-40.21915,-13.71097],[-40.22081,-13.71026],[-40.22343,-13.71038],[-40.22652,-13.71145],[-40.23145,-13.71237],[-40.23565,-13.71383],[-40.23415,-13.71435],[-40.23319,-13.71534],[-40.23301,-13.71616],[-40.2316,-13.71641],[-40.23049,-13.71724],[-40.22892,-13.71934],[-40.22868,-13.71881],[-40.22694,-13.71926],[-40.22714,-13.7213],[-40.22455,-13.7222],[-40.22309,-13.72351],[-40.22231,-13.72376],[-40.21953,-13.72526],[-40.21714,-13.72557],[-40.21625,-13.72695],[-40.21495,-13.72805],[-40.21436,-13.7292],[-40.21347,-13.7301],[-40.21047,-13.73131],[-40.21053,-13.73227],[-40.20943,-13.73339],[-40.20786,-13.73249],[-40.20666,-13.73391],[-40.20585,-13.73559],[-40.20492,-13.73658],[-40.20425,-13.73791],[-40.20297,-13.73823],[-40.20115,-13.73916],[-40.19938,-13.74105],[-40.19883,-13.74303],[-40.19716,-13.74435],[-40.19601,-13.74431],[-40.19618,-13.74548],[-40.19533,-13.74539],[-40.19483,-13.74615],[-40.19477,-13.74723],[-40.19288,-13.74776],[-40.19341,-13.7493],[-40.19219,-13.7503],[-40.19071,-13.74988],[-40.19,-13.75122],[-40.19056,-13.75318],[-40.18949,-13.75356],[-40.18863,-13.75299],[-40.18656,-13.75356],[-40.18575,-13.7542],[-40.18563,-13.75512],[-40.18405,-13.75607],[-40.18301,-13.75626],[-40.18095,-13.75615],[-40.18064,-13.7569],[-40.17906,-13.75755],[-40.17847,-13.75888],[-40.17693,-13.75931],[-40.176,-13.75909],[-40.17414,-13.76137],[-40.17362,-13.76245],[-40.1718,-13.76366],[-40.16989,-13.76453],[-40.16999,-13.76668],[-40.16969,-13.76785],[-40.16859,-13.7689],[-40.10139,-13.76537],[-40.09301,-13.76501],[-40.09348,-13.76452],[-40.0947,-13.76185],[-40.09678,-13.7615],[-40.09723,-13.76111],[-40.09752,-13.75913],[-40.09711,-13.75806],[-40.09488,-13.75749],[-40.09415,-13.7555],[-40.09328,-13.75447],[-40.09367,-13.75368],[-40.09283,-13.75309],[-40.09281,-13.75139],[-40.09353,-13.75026],[-40.09421,-13.75003],[-40.09428,-13.74816],[-40.09353,-13.74759],[-40.09195,-13.74738],[-40.09052,-13.74664],[-40.0909,-13.74563],[-40.09056,-13.74475],[-40.08909,-13.74429],[-40.08822,-13.74304],[-40.08703,-13.74217],[-40.08659,-13.74088],[-40.08681,-13.73845],[-40.08739,-13.73783],[-40.08759,-13.7366],[-40.08888,-13.73575],[-40.08914,-13.73421],[-40.09135,-13.73465],[-40.09147,-13.7336],[-40.09039,-13.73241],[-40.09048,-13.73061],[-40.08843,-13.72944],[-40.08856,-13.72854],[-40.08663,-13.72728],[-40.08528,-13.72722],[-40.08433,-13.72649],[-40.08206,-13.72182],[-40.08085,-13.72071],[-40.08032,-13.71864],[-40.07958,-13.71783],[-40.07877,-13.71615],[-40.07755,-13.71597],[-40.07701,-13.7152],[-40.07772,-13.7137],[-40.07664,-13.71289],[-40.07548,-13.71248],[-40.0757,-13.7105],[-40.07513,-13.70947],[-40.07262,-13.70768],[-40.07235,-13.70645],[-40.07289,-13.70418],[-40.07183,-13.70384],[-40.071,-13.70261],[-40.07093,-13.69999],[-40.07047,-13.69864],[-40.07022,-13.69666],[-40.06899,-13.69519],[-40.06751,-13.69498],[-40.06611,-13.69373],[-40.06624,-13.6926],[-40.06555,-13.69203],[-40.06529,-13.69106],[-40.06301,-13.69137],[-40.06108,-13.69244],[-40.06011,-13.69352],[-40.05908,-13.694],[-40.05566,-13.69492],[-40.05227,-13.69505],[-40.05081,-13.69589],[-40.0498,-13.69681],[-40.04662,-13.69854],[-40.03588,-13.70379],[-40.03412,-13.70411],[-40.03293,-13.70474],[-40.03169,-13.70589],[-40.03004,-13.70583],[-40.02913,-13.70493],[-40.02794,-13.70474],[-40.02609,-13.70357],[-40.02574,-13.70229],[-40.025,-13.70191],[-40.02337,-13.70032],[-40.02305,-13.69929],[-40.01931,-13.69597],[-40.01907,-13.69429],[-40.0177,-13.69353],[-40.01596,-13.69122],[-40.01587,-13.68899],[-40.01541,-13.68841],[-40.01417,-13.6853],[-40.01352,-13.68433],[-40.01256,-13.68456],[-40.01157,-13.68335],[-40.00704,-13.68212],[-40.0046,-13.67956],[-40.00413,-13.67866],[-40.00347,-13.67564],[-40.00301,-13.6749],[-40.00201,-13.67445],[-40.00205,-13.67329],[-40.00282,-13.67187],[-40.00419,-13.66568],[-40.00416,-13.66474],[-40.00293,-13.66176],[-40.00261,-13.65923],[-40.00299,-13.65715],[-40.00264,-13.65686],[-40.00323,-13.65499],[-40.00488,-13.65422],[-40.0057,-13.65325],[-40.0062,-13.65037],[-40.00518,-13.64974],[-40.0041,-13.64855],[-40.00388,-13.64532],[-40.00272,-13.64311],[-40.00235,-13.64288],[-40.00043,-13.643],[-40.0005,-13.64242],[-39.99858,-13.64163],[-39.99776,-13.64187],[-39.99631,-13.64157],[-39.99413,-13.64169],[-39.99281,-13.64128],[-39.99129,-13.64146],[-39.98827,-13.64221],[-39.98891,-13.64148],[-39.9918,-13.64011],[-39.99628,-13.63694],[-39.99768,-13.63693],[-39.99888,-13.63637],[-40.00091,-13.63496],[-40.00133,-13.63383],[-40.00363,-13.63192],[-40.00388,-13.63038],[-40.00449,-13.63],[-40.00566,-13.63057],[-40.0055,-13.63195],[-40.0061,-13.63374],[-40.01184,-13.63596],[-40.0127,-13.63616],[-40.01526,-13.63612],[-40.01589,-13.63788],[-40.01725,-13.63916],[-40.01869,-13.64012],[-40.02036,-13.64089],[-40.02104,-13.6406],[-40.02867,-13.63893],[-40.0306,-13.63835],[-40.03273,-13.63732],[-40.03408,-13.63574],[-40.03506,-13.63499],[-40.03732,-13.63406],[-40.04,-13.6337],[-40.04098,-13.63376],[-40.04239,-13.63447],[-40.04389,-13.63576],[-40.04546,-13.63679],[-40.04652,-13.63696],[-40.04859,-13.63631],[-40.05106,-13.63725],[-40.05195,-13.63653],[-40.05426,-13.63672],[-40.05647,-13.63544],[-40.05758,-13.63503],[-40.05858,-13.6352],[-40.06198,-13.63504],[-40.06467,-13.63563],[-40.06735,-13.63702],[-40.07019,-13.63784],[-40.0728,-13.63928],[-40.0742,-13.63986],[-40.07621,-13.63967],[-40.0772,-13.63898],[-40.07878,-13.63905],[-40.07978,-13.64003],[-40.08131,-13.63934],[-40.08223,-13.63935],[-40.08302,-13.64003],[-40.08477,-13.6409],[-40.08606,-13.63987],[-40.08739,-13.64018],[-40.08889,-13.6421],[-40.09029,-13.64359],[-40.09113,-13.64413],[-40.0932,-13.64434],[-40.095,-13.64578],[-40.09533,-13.6471],[-40.09513,-13.64992],[-40.09534,-13.65274],[-40.09476,-13.65813],[-40.09418,-13.66063],[-40.09307,-13.66244],[-40.09287,-13.66349],[-40.0937,-13.66458],[-40.09509,-13.66496],[-40.09515,-13.66606],[-40.09666,-13.6669],[-40.09685,-13.66868]]]},"properties":{"codigo":"291800110","name":"Baixão","population":478,"households":351,"areaKm2":171.2582,"density":2.8}},{"type":"Feature","geometry":{"type":"Polygon","coordinates":[[[-40.24712,-13.86757],[-40.25293,-13.86782],[-40.25664,-13.86736],[-40.26154,-13.86574],[-40.26425,-13.86385],[-40.26696,-13.86085],[-40.26962,-13.85891],[-40.27261,-13.85739],[-40.27651,-13.85573],[-40.28155,-13.85476],[-40.28763,-13.85407],[-40.29434,-13.853],[-40.2989,-13.85236],[-40.30332,-13.85153],[-40.31511,-13.8483],[-40.31815,-13.84696],[-40.32162,-13.8446],[-40.32471,-13.84354],[-40.32794,-13.84336],[-40.33303,-13.84442],[-40.33707,-13.84497],[-40.34216,-13.84663],[-40.34568,-13.84737],[-40.35048,-13.84816],[-40.35661,-13.84894],[-40.37006,-13.85093],[-40.37924,-13.85323],[-40.38394,-13.85337],[-40.3867,-13.8537],[-40.38974,-13.85457],[-40.39212,-13.85559],[-40.39668,-13.85679],[-40.40167,-13.85762],[-40.40643,-13.85808],[-40.41146,-13.85785],[-40.41769,-13.85785],[-40.42492,-13.85836],[-40.42863,-13.85923],[-40.43105,-13.86048],[-40.43447,-13.86177],[-40.43973,-13.86463],[-40.44102,-13.86533],[-40.44389,-13.86769],[-40.44585,-13.86834],[-40.45033,-13.86876],[-40.452,-13.86923],[-40.45559,-13.87087],[-40.45927,-13.87225],[-40.46726,-13.8735],[-40.47188,-13.87499],[-40.47472,-13.8762],[-40.48058,-13.87953],[-40.4839,-13.88045],[-40.4897,-13.88032],[-40.4918,-13.88008],[-40.49515,-13.87894],[-40.49729,-13.87947],[-40.5,-13.88063],[-40.50231,-13.88228],[-40.5041,-13.88417],[-40.50542,-13.88669],[-40.50565,-13.88814],[-40.50509,-13.89262],[-40.50674,-13.89585],[-40.50692,-13.897],[-40.50649,-13.90067],[-40.50726,-13.90187],[-40.50924,-13.90195],[-40.51052,-13.90273],[-40.51085,-13.90386],[-40.51006,-13.90574],[-40.51022,-13.90669],[-40.50978,-13.90747],[-40.51041,-13.9108],[-40.51206,-13.91132],[-40.51377,-13.91278],[-40.51424,-13.91372],[-40.51404,-13.91507],[-40.51456,-13.91613],[-40.51702,-13.91753],[-40.51932,-13.91789],[-40.52194,-13.91974],[-40.52169,-13.92045],[-40.51953,-13.92203],[-40.51643,-13.92176],[-40.51547,-13.92237],[-40.51504,-13.92391],[-40.51577,-13.92797],[-40.51567,-13.9349],[-40.51594,-13.93568],[-40.51734,-13.93735],[-40.5174,-13.93928],[-40.51678,-13.94122],[-40.51588,-13.94217],[-40.51507,-13.94235],[-40.51371,-13.94137],[-40.51219,-13.9423],[-40.51191,-13.94339],[-40.51309,-13.94604],[-40.51282,-13.94791],[-40.51206,-13.94841],[-40.51024,-13.9487],[-40.50989,-13.94982],[-40.34932,-14.0329],[-40.34869,-14.03146],[-40.34668,-14.02962],[-40.34636,-14.02872],[-40.34684,-14.02701],[-40.34672,-14.02527],[-40.34632,-14.02442],[-40.34516,-14.02319],[-40.34191,-14.02175],[-40.33993,-14.01985],[-40.33712,-14.01817],[-40.33658,-14.01719],[-40.33689,-14.01615],[-40.33638,-14.01414],[-40.33388,-14.01409],[-40.33254,-14.01442],[-40.33048,-14.01545],[-40.32855,-14.01544],[-40.32817,-14.01403],[-40.32695,-14.01319],[-40.32677,-14.01117],[-40.32629,-14.00994],[-40.32519,-14.00884],[-40.32416,-14.00871],[-40.32275,-14.00912],[-40.32074,-14.01079],[-40.31948,-14.0107],[-40.31923,-14.00849],[-40.31859,-14.00757],[-40.3186,-14.00626],[-40.3174,-14.00586],[-40.31553,-14.00622],[-40.31446,-14.00732],[-40.31343,-14.00771],[-40.30848,-14.00835],[-40.30712,-14.00887],[-40.3054,-14.01067],[-40.3044,-14.01142],[-40.30211,-14.01222],[-40.29997,-14.0122],[-40.29597,-14.01525],[-40.29417,-14.01725],[-40.29126,-14.01837],[-40.28889,-14.01873],[-40.28496,-14.02023],[-40.28125,-14.02273],[-40.27958,-14.02314],[-40.27579,-14.02515],[-40.27378,-14.02636],[-40.26798,-14.03041],[-40.26445,-14.03211],[-40.26201,-14.03551],[-40.26055,-14.0366],[-40.25903,-14.03735],[-40.25586,-14.0385],[-40.25317,-14.03905],[-40.25133,-14.03926],[-40.24978,-14.04004],[-40.24958,-14.04133],[-40.24897,-14.04204],[-40.24718,-14.04231],[-40.24633,-14.04157],[-40.24559,-14.03947],[-40.24372,-14.03584],[-40.24248,-14.0343],[-40.24022,-14.03255],[-40.23562,-14.03132],[-40.23345,-14.03139],[-40.23209,-14.03096],[-40.22855,-14.03172],[-40.22722,-14.03187],[-40.22658,-14.03067],[-40.22551,-14.03098],[-40.22328,-14.03365],[-40.22202,-14.03428],[-40.22053,-14.03437],[-40.21918,-14.03577],[-40.21822,-14.03601],[-40.21586,-14.03611],[-40.21211,-14.0389],[-40.2111,-14.03916],[-40.20865,-14.04243],[-40.20839,-14.04357],[-40.20859,-14.04683],[-40.20755,-14.05017],[-40.20585,-14.05183],[-40.20513,-14.05305],[-40.20527,-14.05386],[-40.20703,-14.05491],[-40.20582,-14.05661],[-40.2061,-14.05803],[-40.20608,-14.05956],[-40.2077,-14.06008],[-40.20804,-14.06086],[-40.20724,-14.06199],[-40.2078,-14.06285],[-40.20722,-14.06431],[-40.20793,-14.06617],[-40.20728,-14.06686],[-40.20767,-14.06858],[-40.20729,-14.06926],[-40.20752,-14.07064],[-40.20874,-14.07124],[-40.21068,-14.07152],[-40.21195,-14.07112],[-40.214,-14.0696],[-40.21535,-14.06949],[-40.21687,-14.07012],[-40.21739,-14.07134],[-40.21929,-14.07173],[-40.21989,-14.07212],[-40.21941,-14.07452],[-40.21952,-14.07536],[-40.22037,-14.07641],[-40.22064,-14.07771],[-40.21965,-14.07877],[-40.21786,-14.07901],[-40.21619,-14.08113],[-40.2158,-14.08359],[-40.21504,-14.08444],[-40.21475,-14.08563],[-40.21484,-14.08698],[-40.21531,-14.08806],[-40.21777,-14.08884],[-40.21813,-14.08968],[-40.2183,-14.09145],[-40.21904,-14.09293],[-40.21926,-14.09401],[-40.22053,-14.0943],[-40.22146,-14.09561],[-40.22128,-14.09694],[-40.21949,-14.0976],[-40.21955,-14.09819],[-40.22061,-14.09852],[-40.2203,-14.10082],[-40.22174,-14.10174],[-40.22228,-14.10475],[-40.2216,-14.10554],[-40.2199,-14.10642],[-40.21914,-14.10762],[-40.21924,-14.10924],[-40.21743,-14.11208],[-40.21778,-14.11296],[-40.21696,-14.11415],[-40.21644,-14.11707],[-40.21544,-14.11958],[-40.21406,-14.12066],[-40.21365,-14.12241],[-40.21313,-14.12327],[-40.21229,-14.12373],[-40.2109,-14.12574],[-40.20955,-14.12555],[-40.20848,-14.12587],[-40.20399,-14.12575],[-40.20122,-14.12585],[-40.19975,-14.12615],[-40.19758,-14.12715],[-40.196,-14.12701],[-40.19395,-14.12766],[-40.19309,-14.12733],[-40.18995,-14.1249],[-40.1891,-14.12339],[-40.18779,-14.12197],[-40.18665,-14.12159],[-40.1849,-14.12174],[-40.18276,-14.12242],[-40.1816,-14.12313],[-40.18095,-14.12451],[-40.18043,-14.12725],[-40.17943,-14.1305],[-40.17842,-14.13199],[-40.17605,-14.1334],[-40.1754,-14.13491],[-40.17613,-14.13666],[-40.17611,-14.13927],[-40.17526,-14.14158],[-40.17596,-14.14381],[-40.17624,-14.14546],[-40.17615,-14.15106],[-40.17634,-14.15266],[-40.17742,-14.15536],[-40.17798,-14.15833],[-40.17841,-14.15974],[-40.16163,-14.13735],[-40.15522,-14.12538],[-40.14976,-14.11031],[-40.13945,-14.09998],[-40.13419,-14.07465],[-40.12994,-14.06856],[-40.11217,-14.03992],[-40.07974,-13.99672],[-40.06837,-13.98599],[-40.06231,-13.9835],[-40.05735,-13.98495],[-40.05444,-13.98924],[-40.0506,-13.99477],[-40.04797,-13.99732],[-40.04766,-13.99654],[-40.04845,-13.9934],[-40.04815,-13.99187],[-40.04743,-13.99096],[-40.04521,-13.98991],[-40.04384,-13.98849],[-40.04061,-13.98612],[-40.03931,-13.98411],[-40.03817,-13.98103],[-40.0361,-13.97923],[-40.03509,-13.97809],[-40.03417,-13.97544],[-40.03329,-13.97426],[-40.0326,-13.97257],[-40.03262,-13.97078],[-40.03319,-13.96949],[-40.03354,-13.9661],[-40.03276,-13.96341],[-40.03181,-13.96141],[-40.03105,-13.96039],[-40.02941,-13.95838],[-40.02894,-13.95746],[-40.02773,-13.95328],[-40.02741,-13.95098],[-40.02616,-13.9479],[-40.02586,-13.94606],[-40.02531,-13.94491],[-40.02404,-13.94317],[-40.02417,-13.94196],[-40.02629,-13.93624],[-40.02641,-13.93447],[-40.02471,-13.92922],[-40.0244,-13.92783],[-40.02442,-13.92596],[-40.02502,-13.92467],[-40.02673,-13.92325],[-40.02845,-13.92271],[-40.02994,-13.9211],[-40.06346,-13.90354],[-40.09197,-13.88817],[-40.10553,-13.8822],[-40.11042,-13.88091],[-40.11496,-13.87958],[-40.12005,-13.87875],[-40.13639,-13.88079],[-40.1369,-13.8817],[-40.13736,-13.87916],[-40.14,-13.86762],[-40.14287,-13.86755],[-40.14456,-13.86769],[-40.14862,-13.86756],[-40.15057,-13.86774],[-40.15337,-13.86743],[-40.15489,-13.86706],[-40.15696,-13.86709],[-40.16216,-13.86579],[-40.1661,-13.8652],[-40.167,-13.86536],[-40.17052,-13.86677],[-40.1733,-13.86806],[-40.17539,-13.86878],[-40.17875,-13.86949],[-40.18174,-13.86998],[-40.18428,-13.87021],[-40.18623,-13.87081],[-40.19062,-13.87317],[-40.1915,-13.87405],[-40.19405,-13.87396],[-40.19701,-13.87416],[-40.20045,-13.87367],[-40.20387,-13.87358],[-40.20764,-13.87272],[-40.21276,-13.87175],[-40.21549,-13.87084],[-40.21775,-13.87064],[-40.21919,-13.8703],[-40.22229,-13.87028],[-40.22714,-13.86968],[-40.23096,-13.86958],[-40.23256,-13.86941],[-40.23801,-13.86804],[-40.24203,-13.86762],[-40.24712,-13.86757]]]},"properties":{"codigo":"291800115","name":"Boaçu","population":2163,"households":1575,"areaKm2":904.3071,"density":2.4}},{"type":"Feature","geometry":{"type":"Polygon","coordinates":[[[-39.84977,-13.71118],[-39.85206,-13.65647],[-39.85399,-13.65517],[-39.85648,-13.65517],[-39.85832,-13.65429],[-39.85957,-13.65405],[-39.86129,-13.65442],[-39.86459,-13.65601],[-39.88702,-13.65977],[-39.89488,-13.68283],[-39.89542,-13.69524],[-39.89722,-13.69496],[-39.8985,-13.69529],[-39.89889,-13.69581],[-39.90056,-13.69672],[-39.90183,-13.69686],[-39.90276,-13.69652],[-39.90519,-13.69421],[-39.90685,-13.6921],[-39.90881,-13.69229],[-39.90979,-13.69348],[-39.91175,-13.69381],[-39.91347,-13.69452],[-39.9141,-13.69394],[-39.91713,-13.69264],[-39.91806,-13.69206],[-39.91912,-13.68809],[-39.91925,-13.68512],[-39.9188,-13.68206],[-39.91946,-13.68017],[-39.92167,-13.68008],[-39.92243,-13.67792],[-39.92361,-13.67681],[-39.92412,-13.67547],[-39.9255,-13.67478],[-39.92548,-13.67679],[-39.92655,-13.67899],[-39.92732,-13.67976],[-39.92825,-13.68006],[-39.92948,-13.67967],[-39.93052,-13.68035],[-39.93126,-13.68005],[-39.93137,-13.68264],[-39.93317,-13.68508],[-39.93446,-13.68536],[-39.93562,-13.68507],[-39.93713,-13.68629],[-39.93813,-13.68743],[-39.93964,-13.68745],[-39.94007,-13.68825],[-39.94093,-13.68839],[-39.94097,-13.69078],[-39.94136,-13.69137],[-39.94106,-13.69232],[-39.93999,-13.69248],[-39.93994,-13.6934],[-39.93883,-13.69394],[-39.93867,-13.69461],[-39.93931,-13.69539],[-39.93878,-13.69684],[-39.93796,-13.69727],[-39.93772,-13.69802],[-39.93867,-13.69871],[-39.93991,-13.69906],[-39.94093,-13.69892],[-39.94214,-13.69946],[-39.94455,-13.6993],[-39.9454,-13.70069],[-39.94522,-13.70124],[-39.9457,-13.70362],[-39.94541,-13.70507],[-39.94417,-13.70594],[-39.94523,-13.7076],[-39.94496,-13.70947],[-39.94423,-13.71001],[-39.94564,-13.71126],[-39.94658,-13.71118],[-39.94769,-13.71213],[-39.94833,-13.7141],[-39.94733,-13.71421],[-39.94789,-13.71554],[-39.94704,-13.71598],[-39.94661,-13.71733],[-39.94566,-13.71795],[-39.94447,-13.71769],[-39.94361,-13.71832],[-39.94326,-13.71926],[-39.94324,-13.72143],[-39.94223,-13.72185],[-39.94199,-13.72463],[-39.94116,-13.72477],[-39.94175,-13.72779],[-39.94119,-13.72791],[-39.94132,-13.72994],[-39.94085,-13.73104],[-39.94094,-13.7319],[-39.94168,-13.73288],[-39.94184,-13.73482],[-39.94115,-13.73589],[-39.94191,-13.73683],[-39.94155,-13.73849],[-39.94271,-13.73935],[-39.94267,-13.74076],[-39.94197,-13.74195],[-39.94278,-13.74229],[-39.94279,-13.74325],[-39.94355,-13.74395],[-39.94393,-13.74543],[-39.94492,-13.74568],[-39.94625,-13.74898],[-39.9461,-13.74978],[-39.94697,-13.75024],[-39.94738,-13.75146],[-39.94432,-13.75408],[-39.94504,-13.75458],[-39.94475,-13.75551],[-39.94534,-13.75684],[-39.94476,-13.75851],[-39.94288,-13.76107],[-39.94329,-13.76204],[-39.9426,-13.76257],[-39.94221,-13.76373],[-39.94195,-13.76588],[-39.94247,-13.76655],[-39.94281,-13.76843],[-39.94198,-13.7691],[-39.94123,-13.77026],[-39.94152,-13.77112],[-39.94129,-13.77314],[-39.94047,-13.77357],[-39.94021,-13.77445],[-39.94074,-13.77588],[-39.94031,-13.77716],[-39.9404,-13.77833],[-39.94231,-13.78004],[-39.94227,-13.78073],[-39.93916,-13.78191],[-39.93804,-13.78291],[-39.9373,-13.78531],[-39.93729,-13.78733],[-39.93777,-13.78899],[-39.93784,-13.79029],[-39.93747,-13.7909],[-39.9358,-13.79211],[-39.93387,-13.79405],[-39.93161,-13.7946],[-39.93027,-13.79623],[-39.92827,-13.79775],[-39.92734,-13.80003],[-39.92739,-13.80176],[-39.92706,-13.8043],[-39.9255,-13.80714],[-39.92417,-13.80797],[-39.92346,-13.81044],[-39.92329,-13.81398],[-39.92251,-13.81487],[-39.91967,-13.81595],[-39.91937,-13.81707],[-39.91642,-13.81968],[-39.91582,-13.82128],[-39.91398,-13.82508],[-39.91271,-13.82673],[-39.91248,-13.82768],[-39.9118,-13.82823],[-39.91169,-13.82931],[-39.91102,-13.83025],[-39.91077,-13.83139],[-39.91265,-13.83196],[-39.91239,-13.83388],[-39.9114,-13.83425],[-39.91132,-13.83542],[-39.91069,-13.83665],[-39.90987,-13.84186],[-39.90946,-13.84261],[-39.90942,-13.84509],[-39.90868,-13.84598],[-39.90672,-13.84697],[-39.9065,-13.84876],[-39.90695,-13.84999],[-39.90689,-13.85124],[-39.90605,-13.85198],[-39.90523,-13.85199],[-39.90465,-13.85297],[-39.90376,-13.85349],[-39.90303,-13.8549],[-39.90409,-13.85613],[-39.90419,-13.85721],[-39.90488,-13.85848],[-39.90423,-13.85914],[-39.90443,-13.86015],[-39.90355,-13.86074],[-39.90344,-13.86165],[-39.90242,-13.86448],[-39.90189,-13.86487],[-39.90114,-13.86733],[-39.90006,-13.86799],[-39.90012,-13.87071],[-39.89962,-13.87137],[-39.89997,-13.8739],[-39.90076,-13.87457],[-39.90037,-13.87626],[-39.89941,-13.87722],[-39.89862,-13.87888],[-39.8986,-13.88005],[-39.89669,-13.88023],[-39.89676,-13.88121],[-39.89406,-13.88394],[-39.89399,-13.88496],[-39.89472,-13.88562],[-39.89549,-13.88815],[-39.89033,-13.88946],[-39.87011,-13.89073],[-39.86913,-13.88937],[-39.8686,-13.88812],[-39.86898,-13.88578],[-39.86875,-13.88426],[-39.86719,-13.88355],[-39.86497,-13.88312],[-39.86384,-13.88166],[-39.86322,-13.87947],[-39.86315,-13.87698],[-39.86272,-13.8753],[-39.86228,-13.87485],[-39.86035,-13.87434],[-39.85879,-13.87309],[-39.85552,-13.87124],[-39.8551,-13.87077],[-39.85128,-13.87226],[-39.85064,-13.87169],[-39.84986,-13.86992],[-39.84837,-13.86519],[-39.84849,-13.86408],[-39.84931,-13.86192],[-39.84941,-13.86016],[-39.84918,-13.85837],[-39.84876,-13.85753],[-39.84847,-13.85575],[-39.84732,-13.85346],[-39.84701,-13.85131],[-39.84476,-13.8476],[-39.83205,-13.85231],[-39.83275,-13.85045],[-39.83102,-13.84971],[-39.83127,-13.84864],[-39.8304,-13.84706],[-39.82884,-13.84698],[-39.82762,-13.84545],[-39.82813,-13.84494],[-39.82825,-13.84365],[-39.82931,-13.8427],[-39.82931,-13.8415],[-39.82851,-13.84084],[-39.82723,-13.8391],[-39.82613,-13.83854],[-39.82544,-13.83767],[-39.82588,-13.83698],[-39.82426,-13.83509],[-39.82359,-13.83311],[-39.82271,-13.83269],[-39.82213,-13.83064],[-39.8206,-13.82854],[-39.82049,-13.82769],[-39.81905,-13.82702],[-39.81921,-13.82555],[-39.81847,-13.82469],[-39.81793,-13.82341],[-39.81797,-13.82193],[-39.8173,-13.82129],[-39.81698,-13.81871],[-39.81656,-13.81796],[-39.81663,-13.81691],[-39.81468,-13.81485],[-39.81436,-13.8138],[-39.81312,-13.81197],[-39.81291,-13.81059],[-39.81227,-13.80987],[-39.81234,-13.80882],[-39.81147,-13.80739],[-39.81047,-13.8072],[-39.80965,-13.80771],[-39.8087,-13.8077],[-39.80936,-13.8058],[-39.81051,-13.8044],[-39.81292,-13.80321],[-39.81329,-13.80229],[-39.81291,-13.8],[-39.81205,-13.79843],[-39.81125,-13.79778],[-39.81117,-13.79536],[-39.81051,-13.79378],[-39.81086,-13.79185],[-39.80973,-13.78924],[-39.80958,-13.7882],[-39.80999,-13.7869],[-39.81161,-13.78551],[-39.81212,-13.78457],[-39.81261,-13.78232],[-39.8128,-13.78012],[-39.81261,-13.77955],[-39.81107,-13.77845],[-39.81064,-13.77747],[-39.81112,-13.77446],[-39.81248,-13.77247],[-39.81249,-13.7704],[-39.8122,-13.76924],[-39.81229,-13.76714],[-39.81312,-13.76485],[-39.81829,-13.76343],[-39.81787,-13.76267],[-39.81665,-13.76212],[-39.81646,-13.76153],[-39.81665,-13.75956],[-39.81737,-13.75695],[-39.8178,-13.75637],[-39.82001,-13.75586],[-39.82124,-13.75459],[-39.82381,-13.75363],[-39.82434,-13.75234],[-39.82374,-13.75058],[-39.82422,-13.74912],[-39.82581,-13.74778],[-39.82712,-13.74726],[-39.8283,-13.74752],[-39.8292,-13.7491],[-39.83216,-13.75076],[-39.83372,-13.75053],[-39.83538,-13.75189],[-39.83595,-13.75197],[-39.83753,-13.75096],[-39.84117,-13.75002],[-39.84238,-13.74857],[-39.84336,-13.74813],[-39.84596,-13.74585],[-39.84643,-13.74524],[-39.84736,-13.74208],[-39.8472,-13.73989],[-39.84728,-13.73812],[-39.8478,-13.7366],[-39.8477,-13.73308],[-39.84858,-13.73076],[-39.85031,-13.72817],[-39.8506,-13.72481],[-39.85147,-13.72299],[-39.85073,-13.72146],[-39.85047,-13.71997],[-39.84877,-13.71879],[-39.84871,-13.71788],[-39.84951,-13.71642],[-39.84925,-13.71364],[-39.85073,-13.71112],[-39.84977,-13.71118]]]},"properties":{"codigo":"291800118","name":"Florestal","population":3325,"households":2000,"areaKm2":238.6438,"density":13.9}},{"type":"Feature","geometry":{"type":"Polygon","coordinates":[[[-39.8087,-13.8077],[-39.80965,-13.80771],[-39.81047,-13.8072],[-39.81147,-13.80739],[-39.81234,-13.80882],[-39.81227,-13.80987],[-39.81291,-13.81059],[-39.81312,-13.81197],[-39.81436,-13.8138],[-39.81468,-13.81485],[-39.81663,-13.81691],[-39.81656,-13.81796],[-39.81698,-13.81871],[-39.8173,-13.82129],[-39.81797,-13.82193],[-39.81793,-13.82341],[-39.81847,-13.82469],[-39.81921,-13.82555],[-39.81905,-13.82702],[-39.82049,-13.82769],[-39.8206,-13.82854],[-39.82213,-13.83064],[-39.82271,-13.83269],[-39.82359,-13.83311],[-39.82426,-13.83509],[-39.82588,-13.83698],[-39.82544,-13.83767],[-39.82613,-13.83854],[-39.82723,-13.8391],[-39.82851,-13.84084],[-39.82931,-13.8415],[-39.82931,-13.8427],[-39.82825,-13.84365],[-39.82813,-13.84494],[-39.82762,-13.84545],[-39.82884,-13.84698],[-39.8304,-13.84706],[-39.83127,-13.84864],[-39.83102,-13.84971],[-39.83275,-13.85045],[-39.83205,-13.85231],[-39.83102,-13.85269],[-39.82824,-13.85265],[-39.82685,-13.85376],[-39.82674,-13.85574],[-39.82914,-13.85783],[-39.82969,-13.85918],[-39.83024,-13.86147],[-39.83062,-13.86417],[-39.83125,-13.8653],[-39.83367,-13.86726],[-39.83424,-13.86794],[-39.83487,-13.86998],[-39.83495,-13.87166],[-39.83583,-13.87355],[-39.83738,-13.87561],[-39.83723,-13.87722],[-39.83656,-13.87889],[-39.83742,-13.88029],[-39.83938,-13.8811],[-39.84005,-13.88403],[-39.84135,-13.88528],[-39.83071,-13.89111],[-39.82896,-13.89216],[-39.82656,-13.8946],[-39.82485,-13.89507],[-39.82427,-13.89563],[-39.82541,-13.89667],[-39.82576,-13.89809],[-39.82685,-13.89942],[-39.82677,-13.90066],[-39.8254,-13.90268],[-39.82443,-13.90362],[-39.82585,-13.90381],[-39.82714,-13.90535],[-39.82766,-13.90652],[-39.82964,-13.90887],[-39.83065,-13.91159],[-39.83066,-13.91275],[-39.83108,-13.91409],[-39.8308,-13.91582],[-39.83001,-13.91746],[-39.82909,-13.91867],[-39.82692,-13.91998],[-39.82752,-13.92104],[-39.82761,-13.92342],[-39.82736,-13.92431],[-39.80453,-13.93577],[-39.80322,-13.94263],[-39.80059,-13.94382],[-39.79964,-13.94393],[-39.79627,-13.94346],[-39.79224,-13.94184],[-39.79114,-13.94084],[-39.78949,-13.93986],[-39.78661,-13.93886],[-39.78442,-13.93898],[-39.78278,-13.94024],[-39.77797,-13.94493],[-39.7755,-13.947],[-39.77455,-13.9486],[-39.77355,-13.94923],[-39.77308,-13.95009],[-39.775,-13.95175],[-39.77714,-13.95274],[-39.77911,-13.95311],[-39.781,-13.95493],[-39.78124,-13.95635],[-39.78043,-13.95794],[-39.77948,-13.95846],[-39.7775,-13.95879],[-39.7769,-13.95927],[-39.77555,-13.96292],[-39.77566,-13.96363],[-39.77678,-13.96504],[-39.77784,-13.96721],[-39.77902,-13.96813],[-39.77746,-13.97011],[-39.77665,-13.97054],[-39.77411,-13.97074],[-39.77268,-13.97342],[-39.77113,-13.97528],[-39.7705,-13.97674],[-39.77046,-13.97816],[-39.76989,-13.97937],[-39.76782,-13.97923],[-39.76523,-13.97879],[-39.76265,-13.97899],[-39.75942,-13.98008],[-39.75918,-13.98059],[-39.76133,-13.98311],[-39.76257,-13.98535],[-39.76506,-13.99133],[-39.7613,-13.99146],[-39.75947,-13.98956],[-39.75667,-13.98853],[-39.75511,-13.98733],[-39.75441,-13.98641],[-39.75462,-13.98491],[-39.75405,-13.9822],[-39.75258,-13.97947],[-39.75264,-13.97878],[-39.75365,-13.97767],[-39.75378,-13.97579],[-39.75357,-13.97473],[-39.75403,-13.97225],[-39.7522,-13.97047],[-39.7485,-13.96616],[-39.74836,-13.96527],[-39.74905,-13.96342],[-39.74852,-13.96012],[-39.74705,-13.95717],[-39.74637,-13.95513],[-39.74549,-13.95136],[-39.74409,-13.9481],[-39.74299,-13.9452],[-39.7422,-13.94428],[-39.73945,-13.94291],[-39.73804,-13.94166],[-39.73761,-13.93993],[-39.73676,-13.93784],[-39.73714,-13.93579],[-39.73598,-13.93354],[-39.73573,-13.93221],[-39.73488,-13.93185],[-39.73336,-13.93207],[-39.73229,-13.93184],[-39.73059,-13.93055],[-39.72814,-13.93067],[-39.7276,-13.92985],[-39.72707,-13.92813],[-39.7256,-13.9273],[-39.72185,-13.92785],[-39.72049,-13.92704],[-39.72079,-13.92519],[-39.71972,-13.92307],[-39.71748,-13.92157],[-39.71573,-13.92079],[-39.71477,-13.91837],[-39.714,-13.91728],[-39.71263,-13.9161],[-39.70963,-13.91409],[-39.7091,-13.91391],[-39.7071,-13.9122],[-39.70524,-13.91027],[-39.70505,-13.90955],[-39.70846,-13.90822],[-39.70979,-13.90818],[-39.71193,-13.90902],[-39.71448,-13.90964],[-39.71672,-13.90939],[-39.71771,-13.90885],[-39.71836,-13.9074],[-39.71897,-13.90691],[-39.72105,-13.90662],[-39.72322,-13.90588],[-39.72623,-13.90584],[-39.72785,-13.9067],[-39.72898,-13.90763],[-39.73056,-13.90807],[-39.73209,-13.90789],[-39.73332,-13.90622],[-39.73439,-13.90593],[-39.73462,-13.90738],[-39.73513,-13.90855],[-39.73723,-13.90994],[-39.73863,-13.91168],[-39.73939,-13.91222],[-39.74102,-13.91266],[-39.74207,-13.91213],[-39.74275,-13.91062],[-39.74331,-13.91019],[-39.74547,-13.90943],[-39.74647,-13.90806],[-39.74666,-13.90629],[-39.74591,-13.9043],[-39.74677,-13.90292],[-39.74671,-13.90071],[-39.74616,-13.89962],[-39.74484,-13.89859],[-39.74136,-13.89778],[-39.74096,-13.89708],[-39.74039,-13.8942],[-39.74071,-13.89338],[-39.74329,-13.893],[-39.74412,-13.89193],[-39.74635,-13.8904],[-39.74867,-13.89028],[-39.75089,-13.89138],[-39.75367,-13.89195],[-39.75508,-13.8911],[-39.75513,-13.89017],[-39.75467,-13.88819],[-39.75516,-13.88653],[-39.75755,-13.88524],[-39.7576,-13.88401],[-39.7559,-13.88208],[-39.75495,-13.88023],[-39.75464,-13.87772],[-39.75281,-13.87435],[-39.75039,-13.87189],[-39.74882,-13.86918],[-39.74735,-13.86749],[-39.74725,-13.86656],[-39.74867,-13.86412],[-39.75,-13.86339],[-39.75168,-13.86309],[-39.75506,-13.86358],[-39.75728,-13.86489],[-39.75936,-13.86449],[-39.76063,-13.86297],[-39.76182,-13.86059],[-39.76331,-13.85857],[-39.764,-13.85832],[-39.76507,-13.85871],[-39.76671,-13.86272],[-39.76979,-13.86636],[-39.77146,-13.86708],[-39.77411,-13.86614],[-39.7759,-13.86616],[-39.77949,-13.86104],[-39.7797,-13.85957],[-39.77898,-13.85821],[-39.77749,-13.857],[-39.77741,-13.85645],[-39.77834,-13.85561],[-39.7817,-13.8547],[-39.78334,-13.85379],[-39.78423,-13.85169],[-39.7838,-13.84925],[-39.7804,-13.84794],[-39.77974,-13.84729],[-39.77935,-13.84558],[-39.77953,-13.84481],[-39.7818,-13.84439],[-39.78226,-13.8438],[-39.78137,-13.84238],[-39.77958,-13.84102],[-39.77818,-13.84041],[-39.77638,-13.84],[-39.7746,-13.83891],[-39.77351,-13.83634],[-39.77283,-13.83562],[-39.77093,-13.83491],[-39.76794,-13.83474],[-39.76597,-13.8336],[-39.76604,-13.83183],[-39.76657,-13.83137],[-39.76919,-13.83044],[-39.77008,-13.82965],[-39.76795,-13.82541],[-39.76836,-13.82421],[-39.76934,-13.8234],[-39.77064,-13.82302],[-39.77416,-13.82253],[-39.7754,-13.82169],[-39.77786,-13.81897],[-39.78091,-13.81718],[-39.78187,-13.81588],[-39.78321,-13.81548],[-39.78377,-13.81657],[-39.78394,-13.81803],[-39.78481,-13.81923],[-39.78768,-13.82062],[-39.78784,-13.82175],[-39.78577,-13.82342],[-39.78524,-13.8243],[-39.7854,-13.8251],[-39.78753,-13.8259],[-39.7889,-13.82693],[-39.79273,-13.8251],[-39.79327,-13.82439],[-39.79375,-13.82255],[-39.793,-13.8194],[-39.79303,-13.81827],[-39.79377,-13.81615],[-39.79435,-13.81552],[-39.79606,-13.81502],[-39.79863,-13.81519],[-39.79945,-13.81505],[-39.80196,-13.81573],[-39.80345,-13.81508],[-39.80388,-13.81422],[-39.80379,-13.81278],[-39.80498,-13.8096],[-39.8067,-13.80934],[-39.80811,-13.80942],[-39.8087,-13.8077]]]},"properties":{"codigo":"291800120","name":"Itaibó","population":1564,"households":1127,"areaKm2":124.516,"density":12.6}},{"type":"Feature","geometry":{"type":"Polygon","coordinates":[[[-39.90042,-14.02732],[-39.90099,-14.02693],[-39.90349,-14.02718],[-39.90525,-14.02682],[-39.90701,-14.02616],[-39.90587,-14.02458],[-39.90584,-14.02379],[-39.90668,-14.0234],[-39.90678,-14.02248],[-39.90783,-14.02107],[-39.90839,-14.02168],[-39.90973,-14.02134],[-39.91049,-14.02047],[-39.91188,-14.02031],[-39.91188,-14.01946],[-39.91288,-14.01916],[-39.91328,-14.01803],[-39.91407,-14.01787],[-39.91416,-14.01696],[-39.91539,-14.01717],[-39.91625,-14.01565],[-39.91632,-14.01426],[-39.91771,-14.01387],[-39.91846,-14.01031],[-39.91904,-14.00951],[-39.92141,-14.00856],[-39.92211,-14.00735],[-39.92277,-14.00719],[-39.92332,-14.00556],[-39.92517,-14.00287],[-39.92801,-14.00029],[-39.92948,-13.99695],[-39.93054,-13.9952],[-39.93259,-13.99261],[-39.93434,-13.99112],[-39.93736,-13.98778],[-39.93818,-13.98616],[-39.94029,-13.98425],[-39.94137,-13.9836],[-39.94451,-13.98112],[-39.9456,-13.97972],[-39.94961,-13.97642],[-39.95133,-13.976],[-39.95279,-13.97464],[-39.95325,-13.97368],[-39.9548,-13.97383],[-39.95593,-13.97303],[-39.95666,-13.9703],[-39.95636,-13.96857],[-39.95705,-13.96628],[-39.95723,-13.96475],[-39.95781,-13.96324],[-39.9604,-13.96218],[-39.96199,-13.96002],[-39.96434,-13.95749],[-39.96573,-13.95557],[-39.96744,-13.95364],[-39.96822,-13.95165],[-39.96936,-13.94955],[-39.97177,-13.94735],[-39.97405,-13.945],[-39.97777,-13.94451],[-39.9779,-13.94526],[-39.9774,-13.94798],[-39.97867,-13.94969],[-39.97993,-13.95098],[-39.98166,-13.95159],[-39.98209,-13.95255],[-39.98235,-13.95437],[-39.98371,-13.95521],[-39.98423,-13.95598],[-39.98391,-13.9573],[-39.98472,-13.95963],[-39.98643,-13.96154],[-39.9879,-13.96206],[-39.98903,-13.96196],[-39.9897,-13.96271],[-39.99155,-13.96364],[-39.9932,-13.96421],[-40.00465,-13.9651],[-40.00365,-13.96368],[-40.00234,-13.96271],[-40.00209,-13.96179],[-40.00293,-13.95926],[-40.00355,-13.9583],[-40.00523,-13.95815],[-40.00599,-13.9571],[-40.00709,-13.95684],[-40.00781,-13.95624],[-40.00864,-13.95631],[-40.00915,-13.95553],[-40.01031,-13.9549],[-40.01175,-13.95549],[-40.01349,-13.9555],[-40.01627,-13.95726],[-40.01904,-13.95746],[-40.02052,-13.95785],[-40.02237,-13.95763],[-40.02393,-13.95771],[-40.02622,-13.95863],[-40.02664,-13.95931],[-40.02898,-13.96004],[-40.03041,-13.96106],[-40.03105,-13.96039],[-40.03181,-13.96141],[-40.03276,-13.96341],[-40.03354,-13.9661],[-40.03319,-13.96949],[-40.03262,-13.97078],[-40.0326,-13.97257],[-40.03329,-13.97426],[-40.03417,-13.97544],[-40.03509,-13.97809],[-40.0361,-13.97923],[-40.03817,-13.98103],[-40.03931,-13.98411],[-40.04061,-13.98612],[-40.04384,-13.98849],[-40.04521,-13.98991],[-40.04743,-13.99096],[-40.04815,-13.99187],[-40.04845,-13.9934],[-40.04766,-13.99654],[-40.04711,-13.99753],[-40.04565,-13.99835],[-40.04237,-13.99929],[-40.04087,-14.00006],[-40.04005,-14.00087],[-40.04015,-14.00283],[-40.03981,-14.00524],[-40.03929,-14.00671],[-40.03922,-14.00812],[-40.03969,-14.00979],[-40.03974,-14.01177],[-40.04023,-14.01361],[-40.04032,-14.01642],[-40.03944,-14.01852],[-40.03771,-14.01938],[-40.03666,-14.01858],[-40.03361,-14.01835],[-40.03213,-14.01854],[-40.03016,-14.01825],[-40.02819,-14.01884],[-40.026,-14.0187],[-40.02299,-14.01921],[-40.02163,-14.0199],[-40.01772,-14.02395],[-40.01674,-14.02577],[-40.01453,-14.02877],[-40.01289,-14.03283],[-40.01203,-14.03378],[-40.01129,-14.03526],[-40.01027,-14.03546],[-40.00909,-14.03491],[-40.00823,-14.03493],[-40.00602,-14.03585],[-40.00393,-14.03601],[-40.00242,-14.03664],[-39.99984,-14.03851],[-39.99694,-14.0403],[-39.99277,-14.04227],[-39.99156,-14.04321],[-39.99079,-14.04479],[-39.98917,-14.04602],[-39.98845,-14.04824],[-39.98733,-14.05011],[-39.98568,-14.05148],[-39.98332,-14.05321],[-39.98012,-14.05396],[-39.97659,-14.05521],[-39.97511,-14.05605],[-39.97303,-14.05991],[-39.97172,-14.06129],[-39.96992,-14.0627],[-39.96861,-14.06309],[-39.96572,-14.06454],[-39.96222,-14.06514],[-39.95909,-14.06457],[-39.9584,-14.0646],[-39.9539,-14.06611],[-39.95041,-14.06671],[-39.94673,-14.0677],[-39.94567,-14.06865],[-39.94401,-14.07093],[-39.94352,-14.07246],[-39.94273,-14.07323],[-39.94094,-14.07573],[-39.93833,-14.07804],[-39.93717,-14.07866],[-39.93523,-14.0796],[-39.93046,-14.08152],[-39.92748,-14.08248],[-39.92645,-14.08255],[-39.9248,-14.08197],[-39.92393,-14.08058],[-39.92384,-14.07952],[-39.92468,-14.07545],[-39.9247,-14.07167],[-39.92312,-14.06928],[-39.9217,-14.06772],[-39.92039,-14.06692],[-39.91494,-14.06501],[-39.91333,-14.06344],[-39.91134,-14.0598],[-39.90999,-14.05669],[-39.90902,-14.05501],[-39.90716,-14.0526],[-39.90426,-14.04996],[-39.90242,-14.04798],[-39.9013,-14.04587],[-39.90083,-14.04354],[-39.90081,-14.04096],[-39.90168,-14.03724],[-39.90227,-14.03238],[-39.90229,-14.02917],[-39.90162,-14.0281],[-39.90042,-14.02732]]]},"properties":{"codigo":"291800125","name":"Itajuru","population":3604,"households":2227,"areaKm2":127.7525,"density":28.2}},{"type":"Feature","geometry":{"type":"Polygon","coordinates":[[[-40.21347,-13.7301],[-40.21436,-13.7292],[-40.21495,-13.72805],[-40.21625,-13.72695],[-40.21714,-13.72557],[-40.21953,-13.72526],[-40.22231,-13.72376],[-40.22309,-13.72351],[-40.22455,-13.7222],[-40.22714,-13.7213],[-40.22694,-13.71926],[-40.22868,-13.71881],[-40.22892,-13.71934],[-40.23049,-13.71724],[-40.2316,-13.71641],[-40.23301,-13.71616],[-40.23319,-13.71534],[-40.23415,-13.71435],[-40.23565,-13.71383],[-40.23684,-13.71467],[-40.23861,-13.71541],[-40.24128,-13.71526],[-40.24626,-13.71336],[-40.25055,-13.7122],[-40.25508,-13.71014],[-40.26055,-13.70776],[-40.2709,-13.70396],[-40.27483,-13.70288],[-40.27768,-13.70288],[-40.28101,-13.70372],[-40.28387,-13.70348],[-40.2866,-13.70288],[-40.28932,-13.70113],[-40.29113,-13.70086],[-40.29624,-13.70407],[-40.30029,-13.70562],[-40.3041,-13.70776],[-40.30659,-13.70783],[-40.31128,-13.70629],[-40.31362,-13.70418],[-40.31596,-13.70252],[-40.31847,-13.70172],[-40.32161,-13.70149],[-40.3243,-13.70115],[-40.32761,-13.70132],[-40.32989,-13.70172],[-40.33201,-13.70258],[-40.33423,-13.70475],[-40.33618,-13.70635],[-40.33857,-13.70698],[-40.34406,-13.70566],[-40.34788,-13.70441],[-40.3488,-13.70355],[-40.34948,-13.69995],[-40.35,-13.69807],[-40.35112,-13.69692],[-40.35373,-13.69524],[-40.35446,-13.69623],[-40.35587,-13.69624],[-40.35909,-13.69665],[-40.3607,-13.69626],[-40.36266,-13.69623],[-40.36529,-13.69691],[-40.37423,-13.701],[-40.37335,-13.702],[-40.37071,-13.70323],[-40.3691,-13.70465],[-40.36862,-13.70619],[-40.36874,-13.7081],[-40.36977,-13.70971],[-40.41694,-13.70944],[-40.43217,-13.72144],[-40.43546,-13.72141],[-40.43772,-13.72189],[-40.44141,-13.72439],[-40.44224,-13.72525],[-40.44231,-13.7267],[-40.44276,-13.72774],[-40.44393,-13.7281],[-40.44474,-13.7276],[-40.44669,-13.7281],[-40.4476,-13.72777],[-40.44969,-13.7246],[-40.45066,-13.72387],[-40.45262,-13.72351],[-40.45388,-13.7241],[-40.45458,-13.7239],[-40.458,-13.72171],[-40.45961,-13.72099],[-40.46286,-13.72048],[-40.46356,-13.7202],[-40.46513,-13.71865],[-40.46606,-13.71831],[-40.46734,-13.71732],[-40.46746,-13.71666],[-40.46711,-13.71439],[-40.46806,-13.71023],[-40.46913,-13.70856],[-40.46937,-13.70763],[-40.4689,-13.70666],[-40.46677,-13.70453],[-40.46616,-13.70297],[-40.46617,-13.70157],[-40.46675,-13.70011],[-40.46997,-13.69744],[-40.47165,-13.69416],[-40.47219,-13.69216],[-40.47165,-13.69062],[-40.47072,-13.68898],[-40.47035,-13.68713],[-40.47112,-13.68302],[-40.47282,-13.67941],[-40.47411,-13.67851],[-40.47449,-13.68011],[-40.47571,-13.68315],[-40.47645,-13.68435],[-40.47834,-13.68643],[-40.47908,-13.68866],[-40.47919,-13.6905],[-40.48024,-13.69423],[-40.48054,-13.69644],[-40.48125,-13.69797],[-40.48146,-13.69989],[-40.48232,-13.70118],[-40.48446,-13.70268],[-40.48677,-13.70482],[-40.48885,-13.70753],[-40.49133,-13.71006],[-40.49311,-13.71087],[-40.49465,-13.71183],[-40.49653,-13.71232],[-40.49711,-13.71284],[-40.49822,-13.7159],[-40.49877,-13.71644],[-40.50004,-13.71611],[-40.50176,-13.71511],[-40.50481,-13.71463],[-40.50709,-13.71545],[-40.50936,-13.71477],[-40.51166,-13.71436],[-40.51418,-13.71421],[-40.51531,-13.71457],[-40.5187,-13.71657],[-40.52094,-13.7175],[-40.52223,-13.71781],[-40.52555,-13.71809],[-40.52989,-13.71792],[-40.53178,-13.7189],[-40.53369,-13.72105],[-40.5348,-13.72446],[-40.5376,-13.72879],[-40.53811,-13.73142],[-40.53711,-13.73361],[-40.53748,-13.7357],[-40.53644,-13.73737],[-40.53546,-13.73721],[-40.53465,-13.73806],[-40.53231,-13.73984],[-40.53162,-13.74141],[-40.53093,-13.74384],[-40.53103,-13.74504],[-40.53027,-13.74705],[-40.52993,-13.7516],[-40.52842,-13.75221],[-40.52807,-13.75288],[-40.52799,-13.75489],[-40.52861,-13.75584],[-40.52789,-13.75738],[-40.52798,-13.75939],[-40.52864,-13.76099],[-40.528,-13.7622],[-40.52823,-13.76464],[-40.52743,-13.76577],[-40.5273,-13.76695],[-40.52557,-13.77021],[-40.5257,-13.77146],[-40.52359,-13.77451],[-40.52225,-13.77588],[-40.52217,-13.7778],[-40.52141,-13.77914],[-40.52105,-13.78127],[-40.52111,-13.7833],[-40.52084,-13.78502],[-40.51995,-13.78663],[-40.51982,-13.78806],[-40.51917,-13.78896],[-40.51771,-13.7892],[-40.51536,-13.78927],[-40.51394,-13.79115],[-40.51139,-13.79203],[-40.51047,-13.79348],[-40.50954,-13.79653],[-40.50791,-13.79931],[-40.50732,-13.80143],[-40.50533,-13.80216],[-40.50372,-13.80474],[-40.50321,-13.80608],[-40.50128,-13.80657],[-40.50004,-13.80806],[-40.49823,-13.80913],[-40.49654,-13.81077],[-40.49646,-13.81199],[-40.4951,-13.81292],[-40.49408,-13.81455],[-40.49365,-13.81686],[-40.49307,-13.81788],[-40.4905,-13.8188],[-40.48784,-13.82116],[-40.48638,-13.82199],[-40.48501,-13.8232],[-40.48365,-13.82605],[-40.48121,-13.827],[-40.48029,-13.8279],[-40.47943,-13.82818],[-40.47826,-13.82923],[-40.47691,-13.82978],[-40.47487,-13.83108],[-40.47344,-13.8314],[-40.4725,-13.83202],[-40.46959,-13.83514],[-40.4678,-13.83663],[-40.46601,-13.83731],[-40.46434,-13.83875],[-40.46333,-13.83917],[-40.46304,-13.84133],[-40.46132,-13.84146],[-40.46059,-13.84264],[-40.45926,-13.84244],[-40.45828,-13.8437],[-40.45827,-13.84526],[-40.4579,-13.84611],[-40.45623,-13.84595],[-40.4552,-13.84961],[-40.45414,-13.85098],[-40.45209,-13.85172],[-40.45048,-13.85435],[-40.44766,-13.85646],[-40.44652,-13.85748],[-40.44502,-13.85952],[-40.44151,-13.86237],[-40.43973,-13.86463],[-40.43447,-13.86177],[-40.43105,-13.86048],[-40.42863,-13.85923],[-40.42492,-13.85836],[-40.41769,-13.85785],[-40.41146,-13.85785],[-40.40643,-13.85808],[-40.40167,-13.85762],[-40.39668,-13.85679],[-40.39212,-13.85559],[-40.38974,-13.85457],[-40.3867,-13.8537],[-40.38394,-13.85337],[-40.37924,-13.85323],[-40.37006,-13.85093],[-40.35661,-13.84894],[-40.35048,-13.84816],[-40.34568,-13.84737],[-40.34216,-13.84663],[-40.33707,-13.84497],[-40.33303,-13.84442],[-40.32794,-13.84336],[-40.32471,-13.84354],[-40.32162,-13.8446],[-40.31815,-13.84696],[-40.31511,-13.8483],[-40.30332,-13.85153],[-40.2989,-13.85236],[-40.29434,-13.853],[-40.28763,-13.85407],[-40.28155,-13.85476],[-40.27651,-13.85573],[-40.27261,-13.85739],[-40.26962,-13.85891],[-40.26696,-13.86085],[-40.26425,-13.86385],[-40.26154,-13.86574],[-40.25664,-13.86736],[-40.25293,-13.86782],[-40.24712,-13.86757],[-40.24449,-13.86549],[-40.24273,-13.86379],[-40.24135,-13.86185],[-40.24064,-13.85986],[-40.23938,-13.85756],[-40.23946,-13.85654],[-40.24085,-13.8548],[-40.24295,-13.85289],[-40.24415,-13.85015],[-40.24465,-13.84839],[-40.24465,-13.84611],[-40.24396,-13.84387],[-40.24505,-13.84156],[-40.24631,-13.84109],[-40.24893,-13.84069],[-40.25155,-13.83907],[-40.25209,-13.83798],[-40.25291,-13.83821],[-40.25381,-13.83771],[-40.25401,-13.83666],[-40.25473,-13.83603],[-40.25701,-13.83506],[-40.25674,-13.83364],[-40.2575,-13.83235],[-40.25899,-13.83165],[-40.25986,-13.83013],[-40.25974,-13.82876],[-40.26001,-13.82699],[-40.26324,-13.82455],[-40.26354,-13.82264],[-40.26439,-13.82159],[-40.26662,-13.82017],[-40.26657,-13.81803],[-40.26773,-13.81725],[-40.26787,-13.81651],[-40.27,-13.81579],[-40.27087,-13.81511],[-40.27102,-13.814],[-40.27229,-13.81293],[-40.27285,-13.81186],[-40.27387,-13.81158],[-40.27497,-13.8107],[-40.27538,-13.80876],[-40.27702,-13.80681],[-40.27753,-13.80516],[-40.27854,-13.80447],[-40.2793,-13.80282],[-40.28059,-13.80216],[-40.28124,-13.80095],[-40.28308,-13.79956],[-40.28453,-13.79798],[-40.28572,-13.79725],[-40.28524,-13.79533],[-40.28569,-13.79453],[-40.28674,-13.794],[-40.28737,-13.79278],[-40.2872,-13.79126],[-40.2875,-13.79037],[-40.28975,-13.79024],[-40.29162,-13.78961],[-40.29327,-13.78947],[-40.2938,-13.78851],[-40.29623,-13.78754],[-40.29767,-13.7843],[-40.29704,-13.78361],[-40.29712,-13.78107],[-40.29862,-13.77944],[-40.29992,-13.77916],[-40.30103,-13.77679],[-40.30255,-13.77665],[-40.30291,-13.7756],[-40.30269,-13.77373],[-40.3036,-13.77284],[-40.30474,-13.77296],[-40.30543,-13.77193],[-40.30629,-13.77184],[-40.30655,-13.77066],[-40.30756,-13.77057],[-40.3086,-13.76997],[-40.31046,-13.76986],[-40.31258,-13.76936],[-40.3142,-13.7693],[-40.31527,-13.76989],[-40.31705,-13.77012],[-40.31818,-13.77088],[-40.32095,-13.77111],[-40.32314,-13.77015],[-40.32523,-13.76954],[-40.32864,-13.76961],[-40.33011,-13.76983],[-40.28654,-13.75356],[-40.27038,-13.74861],[-40.2667,-13.74805],[-40.26532,-13.74768],[-40.26303,-13.74771],[-40.26245,-13.74722],[-40.25961,-13.74679],[-40.2571,-13.74549],[-40.25422,-13.74461],[-40.25155,-13.74441],[-40.24898,-13.74363],[-40.24739,-13.74412],[-40.24633,-13.74315],[-40.24532,-13.74308],[-40.24439,-13.74216],[-40.24248,-13.74116],[-40.24171,-13.73988],[-40.24099,-13.73998],[-40.23982,-13.7394],[-40.23762,-13.73925],[-40.23589,-13.73773],[-40.23261,-13.73736],[-40.23086,-13.73642],[-40.22903,-13.73637],[-40.22835,-13.736],[-40.22429,-13.73501],[-40.22311,-13.73379],[-40.22171,-13.73373],[-40.21977,-13.73422],[-40.21854,-13.73353],[-40.21839,-13.73259],[-40.21667,-13.73203],[-40.21545,-13.73074],[-40.21446,-13.73108],[-40.21347,-13.7301]]]},"properties":{"codigo":"291800128","name":"Monte Branco","population":509,"households":501,"areaKm2":424.6689,"density":1.2}},{"type":"Feature","geometry":{"type":"Polygon","coordinates":[[[-40.09765,-14.26693],[-40.09719,-14.26455],[-40.09802,-14.2625],[-40.09854,-14.25949],[-40.0991,-14.25842],[-40.0991,-14.25744],[-40.0976,-14.25408],[-40.09703,-14.25143],[-40.09712,-14.24981],[-40.0975,-14.24822],[-40.09846,-14.246],[-40.09872,-14.24396],[-40.09813,-14.2418],[-40.09661,-14.23979],[-40.09528,-14.23887],[-40.09468,-14.23781],[-40.09472,-14.23608],[-40.09433,-14.23516],[-40.09243,-14.23384],[-40.09258,-14.23249],[-40.09171,-14.23137],[-40.09091,-14.22944],[-40.08926,-14.22779],[-40.08908,-14.22673],[-40.08801,-14.22598],[-40.08681,-14.22414],[-40.0866,-14.22334],[-40.08548,-14.22294],[-40.08565,-14.22193],[-40.08534,-14.22016],[-40.08417,-14.21809],[-40.08351,-14.21743],[-40.08225,-14.21462],[-40.08216,-14.21378],[-40.0833,-14.21073],[-40.08313,-14.20754],[-40.0825,-14.20668],[-40.08402,-14.20289],[-40.08565,-14.20213],[-40.08523,-14.20113],[-40.0859,-14.20003],[-40.08771,-14.19916],[-40.08794,-14.19801],[-40.08873,-14.19648],[-40.08961,-14.19593],[-40.09035,-14.19455],[-40.09128,-14.19158],[-40.09086,-14.19075],[-40.09262,-14.18988],[-40.09347,-14.18844],[-40.09527,-14.18766],[-40.09653,-14.18532],[-40.09804,-14.18447],[-40.0986,-14.18343],[-40.09866,-14.18226],[-40.09928,-14.18177],[-40.09934,-14.18079],[-40.10039,-14.1792],[-40.10447,-14.17867],[-40.10613,-14.17898],[-40.10829,-14.17842],[-40.10946,-14.17729],[-40.10981,-14.17559],[-40.11027,-14.17469],[-40.11195,-14.17341],[-40.11278,-14.17215],[-40.11292,-14.17027],[-40.11172,-14.16809],[-40.11145,-14.1661],[-40.11049,-14.16417],[-40.10982,-14.16182],[-40.10863,-14.16021],[-40.10809,-14.15903],[-40.10711,-14.15802],[-40.10468,-14.15645],[-40.10482,-14.1549],[-40.10463,-14.15343],[-40.10308,-14.15102],[-40.10307,-14.14878],[-40.10454,-14.14541],[-40.10503,-14.14235],[-40.10473,-14.1412],[-40.10348,-14.13939],[-40.10303,-14.13824],[-40.10226,-14.13489],[-40.10161,-14.1342],[-40.10025,-14.13403],[-40.09789,-14.13474],[-40.09668,-14.13486],[-40.09419,-14.13452],[-40.09226,-14.13228],[-40.09146,-14.13188],[-40.09062,-14.13039],[-40.0898,-14.12973],[-40.08694,-14.12865],[-40.0857,-14.12765],[-40.08516,-14.12598],[-40.08409,-14.1251],[-40.08351,-14.12361],[-40.08043,-14.12196],[-40.07894,-14.11951],[-40.07772,-14.11912],[-40.07719,-14.11814],[-40.07778,-14.11744],[-40.0772,-14.11569],[-40.07527,-14.11443],[-40.07339,-14.11175],[-40.07336,-14.11092],[-40.07448,-14.10938],[-40.07356,-14.10872],[-40.07258,-14.10901],[-40.07133,-14.1084],[-40.06927,-14.10561],[-40.06985,-14.10367],[-40.0689,-14.10258],[-40.06853,-14.10074],[-40.0693,-14.09958],[-40.0682,-14.0988],[-40.06745,-14.09762],[-40.06641,-14.09691],[-40.06572,-14.09555],[-40.06395,-14.09361],[-40.06195,-14.0924],[-40.06158,-14.08949],[-40.06056,-14.0886],[-40.06038,-14.08657],[-40.05988,-14.08456],[-40.05914,-14.08381],[-40.05931,-14.08283],[-40.05775,-14.08047],[-40.05703,-14.07865],[-40.05645,-14.07592],[-40.05543,-14.07333],[-40.05539,-14.07136],[-40.05624,-14.07009],[-40.0581,-14.06809],[-40.05786,-14.0667],[-40.05512,-14.06487],[-40.05469,-14.06383],[-40.05531,-14.06221],[-40.05501,-14.06137],[-40.05364,-14.06016],[-40.05307,-14.0593],[-40.05172,-14.05957],[-40.04971,-14.06105],[-40.04933,-14.06212],[-40.05011,-14.06489],[-40.04928,-14.06536],[-40.04607,-14.06456],[-40.04437,-14.06319],[-40.04241,-14.06265],[-40.03983,-14.06131],[-40.03679,-14.06009],[-40.03482,-14.05955],[-40.03381,-14.05865],[-40.03243,-14.05586],[-40.02995,-14.05377],[-40.02917,-14.05294],[-40.02773,-14.0493],[-40.02618,-14.04934],[-40.0263,-14.05087],[-40.02473,-14.05154],[-40.02402,-14.05247],[-40.02422,-14.0539],[-40.02363,-14.0554],[-40.02214,-14.05766],[-40.02089,-14.05885],[-40.01961,-14.05883],[-40.01711,-14.05826],[-40.01592,-14.05879],[-40.01511,-14.05954],[-40.01373,-14.0615],[-40.01168,-14.06408],[-40.01001,-14.06548],[-40.00858,-14.0656],[-40.00772,-14.06474],[-40.00696,-14.06241],[-40.00221,-14.06092],[-40.00135,-14.06003],[-40.00138,-14.05919],[-40.00221,-14.05768],[-40.00097,-14.05608],[-40.00003,-14.05433],[-39.99899,-14.05435],[-39.99737,-14.05285],[-39.99632,-14.05269],[-39.99372,-14.05455],[-39.99191,-14.05417],[-39.99173,-14.0521],[-39.99089,-14.05132],[-39.99077,-14.05027],[-39.98899,-14.05069],[-39.98825,-14.05132],[-39.98591,-14.05177],[-39.98568,-14.05148],[-39.98733,-14.05011],[-39.98845,-14.04824],[-39.98917,-14.04602],[-39.99079,-14.04479],[-39.99156,-14.04321],[-39.99277,-14.04227],[-39.99694,-14.0403],[-39.99984,-14.03851],[-40.00242,-14.03664],[-40.00393,-14.03601],[-40.00602,-14.03585],[-40.00823,-14.03493],[-40.00909,-14.03491],[-40.01027,-14.03546],[-40.01129,-14.03526],[-40.01203,-14.03378],[-40.01289,-14.03283],[-40.01453,-14.02877],[-40.01674,-14.02577],[-40.01772,-14.02395],[-40.02163,-14.0199],[-40.02299,-14.01921],[-40.026,-14.0187],[-40.02819,-14.01884],[-40.03016,-14.01825],[-40.03213,-14.01854],[-40.03361,-14.01835],[-40.03666,-14.01858],[-40.03771,-14.01938],[-40.03944,-14.01852],[-40.04032,-14.01642],[-40.04023,-14.01361],[-40.03974,-14.01177],[-40.03969,-14.00979],[-40.03922,-14.00812],[-40.03929,-14.00671],[-40.03981,-14.00524],[-40.04015,-14.00283],[-40.04005,-14.00087],[-40.04087,-14.00006],[-40.04237,-13.99929],[-40.04565,-13.99835],[-40.04711,-13.99753],[-40.04766,-13.99654],[-40.04797,-13.99732],[-40.0506,-13.99477],[-40.05444,-13.98924],[-40.05735,-13.98495],[-40.06231,-13.9835],[-40.06837,-13.98599],[-40.07974,-13.99672],[-40.11217,-14.03992],[-40.12994,-14.06856],[-40.13419,-14.07465],[-40.13945,-14.09998],[-40.14976,-14.11031],[-40.15522,-14.12538],[-40.16163,-14.13735],[-40.17841,-14.15974],[-40.1793,-14.16056],[-40.17988,-14.1632],[-40.18075,-14.1643],[-40.18162,-14.16717],[-40.18142,-14.16909],[-40.17986,-14.17125],[-40.1793,-14.17309],[-40.17973,-14.17536],[-40.1817,-14.1761],[-40.18255,-14.17781],[-40.18338,-14.17807],[-40.18407,-14.17967],[-40.18453,-14.1831],[-40.18439,-14.18507],[-40.18375,-14.18732],[-40.18358,-14.18909],[-40.18403,-14.19005],[-40.18597,-14.19156],[-40.18651,-14.19228],[-40.18657,-14.19423],[-40.18731,-14.19519],[-40.18692,-14.19714],[-40.18719,-14.19813],[-40.18877,-14.20004],[-40.18885,-14.20136],[-40.18707,-14.20286],[-40.1862,-14.20323],[-40.18529,-14.20428],[-40.18549,-14.20545],[-40.18744,-14.20655],[-40.18844,-14.20825],[-40.18885,-14.21082],[-40.18703,-14.21248],[-40.18644,-14.21552],[-40.1865,-14.21701],[-40.18725,-14.21852],[-40.18859,-14.21935],[-40.19007,-14.21991],[-40.19107,-14.22063],[-40.19226,-14.22245],[-40.19234,-14.22311],[-40.19165,-14.22402],[-40.19003,-14.22468],[-40.18797,-14.22469],[-40.18614,-14.22368],[-40.18242,-14.22298],[-40.18139,-14.22346],[-40.18115,-14.22411],[-40.18043,-14.22388],[-40.17921,-14.22429],[-40.17737,-14.22616],[-40.17565,-14.22866],[-40.17445,-14.22947],[-40.17137,-14.22984],[-40.16992,-14.23128],[-40.17016,-14.23273],[-40.17143,-14.23424],[-40.17143,-14.23632],[-40.16974,-14.24054],[-40.16965,-14.24356],[-40.16992,-14.24447],[-40.1701,-14.24694],[-40.17065,-14.24802],[-40.17032,-14.24941],[-40.16814,-14.25104],[-40.16564,-14.2514],[-40.1635,-14.25303],[-40.16205,-14.25336],[-40.16042,-14.25282],[-40.15846,-14.25074],[-40.15632,-14.25029],[-40.15481,-14.2495],[-40.15173,-14.24905],[-40.1498,-14.24911],[-40.1479,-14.24881],[-40.1454,-14.24694],[-40.14407,-14.24567],[-40.14136,-14.2457],[-40.13873,-14.24594],[-40.13605,-14.24664],[-40.13357,-14.24775],[-40.13186,-14.24899],[-40.13011,-14.24932],[-40.12971,-14.24845],[-40.13125,-14.24609],[-40.1327,-14.24495],[-40.13303,-14.24413],[-40.13243,-14.24163],[-40.13098,-14.241],[-40.12935,-14.24133],[-40.12724,-14.24085],[-40.1267,-14.24033],[-40.12603,-14.23876],[-40.12594,-14.23777],[-40.12649,-14.23692],[-40.12612,-14.23578],[-40.12546,-14.23545],[-40.1235,-14.23523],[-40.12109,-14.23421],[-40.1197,-14.23195],[-40.11729,-14.23098],[-40.11599,-14.23011],[-40.11424,-14.22818],[-40.11297,-14.22797],[-40.10987,-14.22938],[-40.10628,-14.2321],[-40.10643,-14.23394],[-40.10446,-14.23669],[-40.10505,-14.23825],[-40.10466,-14.23925],[-40.10605,-14.24546],[-40.1061,-14.24642],[-40.10558,-14.24855],[-40.10487,-14.24928],[-40.10444,-14.2504],[-40.10369,-14.2543],[-40.10203,-14.25658],[-40.10193,-14.2576],[-40.10226,-14.25923],[-40.10099,-14.26121],[-40.10066,-14.26274],[-40.09952,-14.26481],[-40.09906,-14.26627],[-40.09765,-14.26693]]]},"properties":{"codigo":"291800130","name":"Oriente Novo","population":542,"households":332,"areaKm2":241.7353,"density":2.2}}]}