{"type":"FeatureCollection","features":[{"type":"Feature","geometry":{"type":"Polygon","coordinates":[[[-38.06848,-12.4675],[-38.06444,-12.46415],[-38.06502,-12.46247],[-38.06388,-12.46105],[-38.06002,-12.45906],[-38.05967,-12.45854],[-38.06015,-12.45666],[-38.06182,-12.45632],[-38.06288,-12.45484],[-38.06296,-12.454],[-38.06419,-12.45404],[-38.06428,-12.45222],[-38.06561,-12.4513],[-38.06713,-12.452],[-38.06787,-12.45154],[-38.06941,-12.45126],[-38.07038,-12.45167],[-38.07048,-12.45391],[-38.0717,-12.45576],[-38.07284,-12.45566],[-38.07302,-12.45661],[-38.07449,-12.45618],[-38.07577,-12.4566],[-38.07704,-12.45479],[-38.07859,-12.45482],[-38.07934,-12.45536],[-38.07991,-12.4547],[-38.07871,-12.45335],[-38.07741,-12.45286],[-38.07866,-12.45213],[-38.08021,-12.45222],[-38.08008,-12.45081],[-38.08156,-12.44979],[-38.08255,-12.44782],[-38.08411,-12.44719],[-38.08656,-12.44537],[-38.08733,-12.44424],[-38.08757,-12.44319],[-38.08872,-12.4413],[-38.09043,-12.44093],[-38.09229,-12.44094],[-38.09293,-12.44033],[-38.09281,-12.43853],[-38.09368,-12.4383],[-38.09477,-12.43868],[-38.09691,-12.43748],[-38.09792,-12.43583],[-38.0972,-12.43446],[-38.09621,-12.43463],[-38.09491,-12.43391],[-38.09447,-12.43192],[-38.09408,-12.43127],[-38.09204,-12.43],[-38.09101,-12.4298],[-38.08891,-12.42807],[-38.08845,-12.42633],[-38.0891,-12.42378],[-38.08964,-12.42299],[-38.09134,-12.42225],[-38.09197,-12.42113],[-38.09143,-12.4201],[-38.0921,-12.41886],[-38.09412,-12.41715],[-38.09536,-12.41666],[-38.09731,-12.41647],[-38.10026,-12.41595],[-38.10164,-12.415],[-38.10368,-12.41448],[-38.10464,-12.41282],[-38.10497,-12.41155],[-38.10422,-12.41008],[-38.10479,-12.40662],[-38.10579,-12.40519],[-38.10557,-12.40314],[-38.10496,-12.40169],[-38.10323,-12.3984],[-38.10319,-12.39752],[-38.10382,-12.39656],[-38.1039,-12.39542],[-38.10501,-12.39623],[-38.10763,-12.39592],[-38.10839,-12.39617],[-38.10927,-12.39724],[-38.11087,-12.397],[-38.11196,-12.39612],[-38.11277,-12.39408],[-38.11489,-12.39408],[-38.11765,-12.39508],[-38.11867,-12.39593],[-38.12057,-12.39661],[-38.12153,-12.39616],[-38.12118,-12.39434],[-38.12013,-12.39337],[-38.11935,-12.39066],[-38.11984,-12.38988],[-38.12182,-12.38897],[-38.12269,-12.38811],[-38.12419,-12.38803],[-38.12398,-12.38648],[-38.12461,-12.38587],[-38.12488,-12.3843],[-38.12562,-12.38341],[-38.12529,-12.38235],[-38.1262,-12.38014],[-38.12779,-12.37923],[-38.12857,-12.37797],[-38.13013,-12.37731],[-38.13093,-12.37667],[-38.13192,-12.37691],[-38.13423,-12.37631],[-38.13529,-12.37686],[-38.13599,-12.37673],[-38.13679,-12.37588],[-38.13781,-12.37553],[-38.13938,-12.37348],[-38.14082,-12.37347],[-38.14177,-12.37211],[-38.1426,-12.37201],[-38.1439,-12.37323],[-38.14535,-12.37361],[-38.14987,-12.3778],[-38.15185,-12.38015],[-38.15576,-12.38257],[-38.15852,-12.38385],[-38.15897,-12.38461],[-38.1585,-12.38539],[-38.15886,-12.38673],[-38.15873,-12.38796],[-38.15898,-12.38997],[-38.15947,-12.39034],[-38.15941,-12.39229],[-38.16004,-12.39321],[-38.16256,-12.39517],[-38.16363,-12.39557],[-38.16417,-12.39468],[-38.16509,-12.39474],[-38.16686,-12.39597],[-38.16834,-12.39839],[-38.16964,-12.3986],[-38.1708,-12.39978],[-38.17239,-12.40059],[-38.17414,-12.40028],[-38.17647,-12.40068],[-38.1774,-12.40184],[-38.17788,-12.4031],[-38.17772,-12.40399],[-38.17667,-12.40572],[-38.17736,-12.40724],[-38.17749,-12.40845],[-38.17912,-12.40894],[-38.17916,-12.40986],[-38.17987,-12.41112],[-38.1818,-12.41093],[-38.18343,-12.41261],[-38.18422,-12.41169],[-38.18511,-12.41156],[-38.187,-12.41231],[-38.18758,-12.41095],[-38.18708,-12.40941],[-38.1873,-12.40795],[-38.18906,-12.40619],[-38.19005,-12.40339],[-38.19124,-12.40346],[-38.19206,-12.40409],[-38.19299,-12.403],[-38.19472,-12.40332],[-38.19595,-12.40322],[-38.19653,-12.40379],[-38.19777,-12.40362],[-38.19988,-12.40435],[-38.20108,-12.40519],[-38.20278,-12.40554],[-38.20253,-12.40633],[-38.20308,-12.40703],[-38.20405,-12.40684],[-38.20435,-12.40783],[-38.20392,-12.40901],[-38.20595,-12.41056],[-38.20721,-12.41089],[-38.20795,-12.41035],[-38.20893,-12.41113],[-38.20996,-12.41082],[-38.21112,-12.41192],[-38.21266,-12.41116],[-38.21325,-12.41185],[-38.21428,-12.4118],[-38.21594,-12.41091],[-38.21579,-12.40997],[-38.217,-12.40995],[-38.21788,-12.41083],[-38.21855,-12.41024],[-38.2197,-12.41069],[-38.22035,-12.40953],[-38.22086,-12.40943],[-38.22216,-12.41075],[-38.2232,-12.41002],[-38.22379,-12.41009],[-38.22651,-12.41182],[-38.22539,-12.41223],[-38.22461,-12.41303],[-38.2261,-12.41472],[-38.22766,-12.41595],[-38.22934,-12.41647],[-38.22949,-12.41566],[-38.23041,-12.41542],[-38.23096,-12.41592],[-38.23213,-12.41573],[-38.23382,-12.41677],[-38.23705,-12.41711],[-38.2384,-12.41674],[-38.23884,-12.416],[-38.24128,-12.4147],[-38.24366,-12.41485],[-38.24435,-12.41602],[-38.24542,-12.41672],[-38.24723,-12.41633],[-38.249,-12.41697],[-38.25052,-12.41573],[-38.25184,-12.41601],[-38.25286,-12.41519],[-38.25393,-12.41515],[-38.25446,-12.41623],[-38.2563,-12.41578],[-38.25802,-12.41601],[-38.25885,-12.41525],[-38.25976,-12.41691],[-38.26079,-12.41723],[-38.26232,-12.41692],[-38.28781,-12.44666],[-38.32237,-12.45729],[-38.31472,-12.44099],[-38.31504,-12.43885],[-38.31601,-12.43664],[-38.31727,-12.43484],[-38.33745,-12.45114],[-38.38483,-12.48261],[-38.38365,-12.48376],[-38.38218,-12.4864],[-38.38159,-12.48706],[-38.38007,-12.49016],[-38.37902,-12.4915],[-38.37713,-12.49318],[-38.37675,-12.49497],[-38.37692,-12.49693],[-38.37633,-12.49886],[-38.37521,-12.49932],[-38.37431,-12.50017],[-38.37338,-12.50262],[-38.37303,-12.50544],[-38.37358,-12.50596],[-38.37354,-12.50687],[-38.37335,-12.5078],[-38.37369,-12.50873],[-38.37329,-12.50944],[-38.37209,-12.50835],[-38.37097,-12.50802],[-38.36856,-12.50827],[-38.36678,-12.50933],[-38.36799,-12.51029],[-38.36841,-12.51105],[-38.36953,-12.51186],[-38.36967,-12.51287],[-38.36721,-12.51551],[-38.36718,-12.51698],[-38.36853,-12.51883],[-38.3681,-12.52275],[-38.3684,-12.52365],[-38.36931,-12.52453],[-38.37843,-12.53867],[-38.37819,-12.53863],[-38.36973,-12.52783],[-38.31096,-12.54464],[-38.29883,-12.54695],[-38.29978,-12.54744],[-38.30014,-12.54866],[-38.29935,-12.5493],[-38.30248,-12.56342],[-38.29764,-12.56337],[-38.29713,-12.56061],[-38.29536,-12.55543],[-38.29252,-12.5499],[-38.29226,-12.54908],[-38.29109,-12.54912],[-38.29076,-12.54807],[-38.28992,-12.5483],[-38.28903,-12.54701],[-38.289,-12.54529],[-38.24026,-12.50639],[-38.23979,-12.50607],[-38.23969,-12.50501],[-38.2402,-12.50437],[-38.24202,-12.50349],[-38.24297,-12.50228],[-38.24346,-12.50081],[-38.24784,-12.4977],[-38.24695,-12.49626],[-38.24651,-12.49349],[-38.24458,-12.48948],[-38.24212,-12.48715],[-38.24233,-12.48497],[-38.2431,-12.4835],[-38.24365,-12.48132],[-38.24377,-12.47956],[-38.2436,-12.47725],[-38.24369,-12.47523],[-38.24429,-12.47338],[-38.24445,-12.47171],[-38.24415,-12.47098],[-38.24282,-12.46975],[-38.24096,-12.47015],[-38.2389,-12.47013],[-38.23783,-12.47134],[-38.23659,-12.47201],[-38.23612,-12.47275],[-38.23488,-12.47359],[-38.23253,-12.4741],[-38.2308,-12.47398],[-38.22956,-12.47464],[-38.22703,-12.47654],[-38.22482,-12.4767],[-38.22309,-12.47439],[-38.22222,-12.47286],[-38.2209,-12.47173],[-38.21858,-12.47056],[-38.21727,-12.47047],[-38.21491,-12.46839],[-38.21326,-12.46733],[-38.21288,-12.46665],[-38.21304,-12.46483],[-38.21269,-12.46344],[-38.21381,-12.4622],[-38.21393,-12.46139],[-38.213,-12.45966],[-38.21203,-12.45905],[-38.20932,-12.45924],[-38.20756,-12.45886],[-38.20521,-12.45874],[-38.20272,-12.45772],[-38.20063,-12.45795],[-38.19951,-12.4576],[-38.19869,-12.45609],[-38.19786,-12.45521],[-38.19534,-12.45343],[-38.19403,-12.45306],[-38.19222,-12.45436],[-38.1906,-12.45481],[-38.18806,-12.45817],[-38.18689,-12.46142],[-38.18548,-12.46137],[-38.18357,-12.46204],[-38.18169,-12.46167],[-38.17934,-12.46175],[-38.17829,-12.46136],[-38.17602,-12.46151],[-38.17361,-12.46234],[-38.17267,-12.46289],[-38.17352,-12.46422],[-38.17235,-12.46814],[-38.17364,-12.47062],[-38.17491,-12.47212],[-38.17759,-12.47469],[-38.17972,-12.47607],[-38.18063,-12.4778],[-38.18181,-12.47903],[-38.18185,-12.4797],[-38.18078,-12.48124],[-38.18048,-12.48237],[-38.17914,-12.48293],[-38.17771,-12.4849],[-38.17734,-12.48651],[-38.17739,-12.48789],[-38.17698,-12.48826],[-38.17532,-12.48841],[-38.17367,-12.48887],[-38.17141,-12.49005],[-38.17015,-12.48979],[-38.16931,-12.49103],[-38.16861,-12.49127],[-38.16783,-12.49074],[-38.16717,-12.48852],[-38.1655,-12.48824],[-38.16448,-12.4887],[-38.16279,-12.48871],[-38.16129,-12.48973],[-38.16066,-12.49071],[-38.16065,-12.4926],[-38.16166,-12.4936],[-38.1616,-12.4944],[-38.1605,-12.49563],[-38.15935,-12.49642],[-38.15859,-12.49638],[-38.15744,-12.4955],[-38.1557,-12.4949],[-38.15509,-12.49502],[-38.15433,-12.49619],[-38.15402,-12.49756],[-38.15447,-12.49889],[-38.15595,-12.50053],[-38.15572,-12.50303],[-38.15259,-12.50274],[-38.14949,-12.50226],[-38.14859,-12.50182],[-38.14806,-12.50034],[-38.14615,-12.49931],[-38.14418,-12.499],[-38.14089,-12.49766],[-38.13474,-12.50053],[-38.13304,-12.5007],[-38.13142,-12.50159],[-38.13035,-12.50305],[-38.12847,-12.50503],[-38.12584,-12.5066],[-38.12406,-12.50742],[-38.12315,-12.50841],[-38.12258,-12.50845],[-38.12137,-12.50755],[-38.12027,-12.50824],[-38.11917,-12.50957],[-38.11739,-12.50913],[-38.11583,-12.50692],[-38.11567,-12.50563],[-38.11373,-12.50555],[-38.11248,-12.50612],[-38.11177,-12.50888],[-38.11245,-12.50978],[-38.11205,-12.51097],[-38.11099,-12.51113],[-38.10955,-12.51016],[-38.10835,-12.50997],[-38.10731,-12.50923],[-38.10707,-12.50841],[-38.10736,-12.50716],[-38.10586,-12.507],[-38.10509,-12.50545],[-38.10386,-12.504],[-38.10297,-12.50386],[-38.10092,-12.50254],[-38.09802,-12.50214],[-38.09664,-12.50159],[-38.09666,-12.50029],[-38.09548,-12.49789],[-38.09557,-12.49579],[-38.09602,-12.49448],[-38.09505,-12.49372],[-38.09609,-12.49183],[-38.09706,-12.49081],[-38.09837,-12.49008],[-38.09869,-12.48945],[-38.09847,-12.48726],[-38.09995,-12.48678],[-38.10043,-12.48545],[-38.10036,-12.48456],[-38.10088,-12.48352],[-38.10025,-12.48173],[-38.09967,-12.48114],[-38.09938,-12.47967],[-38.09849,-12.47885],[-38.09624,-12.47839],[-38.09578,-12.47871],[-38.09575,-12.47993],[-38.0945,-12.48056],[-38.09376,-12.48017],[-38.09308,-12.47911],[-38.09276,-12.47768],[-38.09147,-12.4775],[-38.09054,-12.47826],[-38.08964,-12.47796],[-38.08825,-12.47801],[-38.08741,-12.47662],[-38.08745,-12.4746],[-38.08624,-12.47422],[-38.08472,-12.47292],[-38.08434,-12.47213],[-38.08349,-12.47207],[-38.08279,-12.47272],[-38.08125,-12.4727],[-38.07995,-12.47107],[-38.07922,-12.46979],[-38.07852,-12.46936],[-38.07645,-12.46942],[-38.07519,-12.4692],[-38.07493,-12.47001],[-38.0734,-12.46932],[-38.0721,-12.46791],[-38.07113,-12.46744],[-38.07058,-12.46648],[-38.06962,-12.46652],[-38.06941,-12.46725],[-38.06848,-12.4675]]]},"properties":{"codigo":"292100505","name":"Mata de São João","population":20060,"households":9962,"areaKm2":302.8109,"density":66.2}},{"type":"Feature","geometry":{"type":"Polygon","coordinates":[[[-38.03022,-12.5972],[-38.02935,-12.59645],[-38.02552,-12.59162],[-38.02299,-12.58916],[-38.02173,-12.58846],[-38.01815,-12.58568],[-38.01585,-12.58449],[-38.01238,-12.58201],[-38.01097,-12.58166],[-38.00888,-12.58206],[-38.00789,-12.58202],[-38.00529,-12.58016],[-38.00395,-12.57851],[-38.0029,-12.57804],[-38.00146,-12.57801],[-38.00054,-12.57593],[-37.99851,-12.57244],[-37.99834,-12.57134],[-37.99748,-12.57004],[-37.99516,-12.56804],[-37.99428,-12.56661],[-37.99336,-12.56437],[-37.99339,-12.56297],[-37.99211,-12.55948],[-37.98706,-12.55409],[-37.9865,-12.55292],[-37.98604,-12.55049],[-37.98518,-12.54914],[-37.98354,-12.5473],[-37.98281,-12.54566],[-37.98272,-12.54415],[-37.9822,-12.54094],[-37.9816,-12.53851],[-37.98048,-12.5363],[-37.97837,-12.53147],[-37.97716,-12.5297],[-37.97617,-12.52709],[-37.97391,-12.52314],[-37.97301,-12.52108],[-37.97006,-12.51632],[-37.96695,-12.51224],[-37.96604,-12.5115],[-37.96334,-12.50812],[-37.96157,-12.50555],[-37.96023,-12.50304],[-37.9598,-12.50121],[-37.95885,-12.49908],[-37.95767,-12.49735],[-37.95687,-12.49578],[-37.95569,-12.49426],[-37.95432,-12.49208],[-37.95281,-12.48935],[-37.94997,-12.48558],[-37.94879,-12.48433],[-37.94745,-12.48208],[-37.94445,-12.47808],[-37.94288,-12.47565],[-37.9403,-12.47118],[-37.9392,-12.46965],[-37.93727,-12.46741],[-37.93385,-12.46305],[-37.93266,-12.46222],[-37.93194,-12.46021],[-37.93127,-12.45926],[-37.92971,-12.45604],[-37.92859,-12.45434],[-37.92678,-12.45218],[-37.92307,-12.4473],[-37.92157,-12.44455],[-37.92037,-12.44296],[-37.91952,-12.44324],[-37.91884,-12.44186],[-37.91623,-12.44132],[-37.9158,-12.43985],[-37.91474,-12.43848],[-37.9149,-12.43784],[-37.9129,-12.43353],[-37.91133,-12.43077],[-37.90936,-12.42785],[-37.90823,-12.42644],[-37.90743,-12.42639],[-37.90621,-12.42433],[-37.90354,-12.42082],[-37.90107,-12.41717],[-37.90001,-12.41658],[-37.8984,-12.41448],[-37.89714,-12.41322],[-37.89409,-12.40917],[-37.89328,-12.40824],[-37.89306,-12.40653],[-37.89464,-12.40605],[-37.89551,-12.40411],[-37.89595,-12.40244],[-37.89602,-12.39916],[-37.89561,-12.396],[-37.89474,-12.39454],[-37.89354,-12.39373],[-37.89168,-12.3917],[-37.89307,-12.39045],[-37.89314,-12.38968],[-37.89196,-12.38945],[-37.89206,-12.38852],[-37.89326,-12.38768],[-37.89214,-12.38705],[-37.89198,-12.3857],[-37.89319,-12.3847],[-37.89286,-12.38373],[-37.89344,-12.3829],[-37.89493,-12.38279],[-37.89518,-12.38162],[-37.89482,-12.38037],[-37.89664,-12.38033],[-37.8976,-12.38065],[-37.89807,-12.38015],[-37.89954,-12.38016],[-37.90067,-12.38137],[-37.9006,-12.38241],[-37.90199,-12.38358],[-37.90292,-12.38363],[-37.90375,-12.38552],[-37.90456,-12.38533],[-37.90529,-12.38585],[-37.90598,-12.38503],[-37.907,-12.38519],[-37.9094,-12.38478],[-37.9101,-12.38512],[-37.91193,-12.38351],[-37.9145,-12.38253],[-37.91542,-12.383],[-37.91716,-12.3823],[-37.91833,-12.38284],[-37.91958,-12.38234],[-37.92151,-12.38269],[-37.92112,-12.38374],[-37.92252,-12.38332],[-37.92266,-12.38222],[-37.92418,-12.38218],[-37.9237,-12.38305],[-37.92404,-12.38363],[-37.92576,-12.38203],[-37.92745,-12.38092],[-37.92692,-12.37792],[-37.92576,-12.37638],[-37.92755,-12.37389],[-37.928,-12.37465],[-37.92968,-12.37287],[-37.93064,-12.37255],[-37.93143,-12.37151],[-37.93366,-12.37207],[-37.93512,-12.37276],[-37.93608,-12.37201],[-37.93741,-12.37191],[-37.93888,-12.37336],[-37.94045,-12.3745],[-37.94223,-12.37446],[-37.94345,-12.37415],[-37.94378,-12.37642],[-37.94431,-12.37673],[-37.94569,-12.37877],[-37.94516,-12.37986],[-37.94473,-12.38256],[-37.94513,-12.38352],[-37.94447,-12.38464],[-37.94444,-12.38592],[-37.9461,-12.38697],[-37.94638,-12.38785],[-37.9452,-12.39137],[-37.94505,-12.39247],[-37.94527,-12.39428],[-37.94601,-12.3963],[-37.94759,-12.39655],[-37.94947,-12.39859],[-37.95038,-12.40107],[-37.95135,-12.40299],[-37.98675,-12.41371],[-38.01703,-12.4411],[-38.04059,-12.46241],[-38.04147,-12.46015],[-38.043,-12.45919],[-38.04442,-12.45776],[-38.04742,-12.45571],[-38.04962,-12.45468],[-38.05132,-12.45433],[-38.06002,-12.45906],[-38.06388,-12.46105],[-38.06502,-12.46247],[-38.06444,-12.46415],[-38.06848,-12.4675],[-38.06798,-12.46737],[-38.06698,-12.46843],[-38.06868,-12.47116],[-38.07097,-12.47215],[-38.07036,-12.47351],[-38.06931,-12.47483],[-38.07018,-12.47636],[-38.06889,-12.47684],[-38.06836,-12.47835],[-38.06703,-12.47979],[-38.06618,-12.47961],[-38.06533,-12.4803],[-38.06417,-12.48347],[-38.06409,-12.48459],[-38.06563,-12.4868],[-38.06565,-12.4877],[-38.06419,-12.48909],[-38.064,-12.49012],[-38.06513,-12.49338],[-38.06507,-12.4967],[-38.06574,-12.49746],[-38.06703,-12.49807],[-38.06902,-12.49857],[-38.07193,-12.49973],[-38.073,-12.5015],[-38.07318,-12.50227],[-38.07272,-12.50368],[-38.07142,-12.50491],[-38.06797,-12.51035],[-38.06704,-12.51321],[-38.06652,-12.51557],[-38.06696,-12.51781],[-38.06592,-12.51964],[-38.06585,-12.52045],[-38.0669,-12.52235],[-38.06638,-12.52354],[-38.06507,-12.52481],[-38.06401,-12.52661],[-38.06331,-12.5283],[-38.0635,-12.53313],[-38.06491,-12.53359],[-38.06618,-12.53461],[-38.06809,-12.53455],[-38.06934,-12.53524],[-38.06936,-12.53616],[-38.06819,-12.53675],[-38.06807,-12.53926],[-38.06715,-12.54018],[-38.0671,-12.54192],[-38.06505,-12.54238],[-38.06413,-12.54321],[-38.06469,-12.54392],[-38.06469,-12.54482],[-38.06262,-12.54699],[-38.0619,-12.54816],[-38.06299,-12.54889],[-38.06294,-12.54955],[-38.06209,-12.55069],[-38.0628,-12.55188],[-38.06262,-12.55265],[-38.06085,-12.55302],[-38.05937,-12.55277],[-38.05874,-12.55462],[-38.05705,-12.55662],[-38.05657,-12.55882],[-38.05513,-12.5613],[-38.05391,-12.56294],[-38.05288,-12.56321],[-38.05003,-12.56295],[-38.04678,-12.56237],[-38.04421,-12.56232],[-38.0436,-12.5635],[-38.0452,-12.56589],[-38.0454,-12.56653],[-38.04734,-12.56942],[-38.04711,-12.57076],[-38.04561,-12.57084],[-38.042,-12.57061],[-38.04124,-12.57173],[-38.04164,-12.57274],[-38.04433,-12.57784],[-38.04547,-12.57921],[-38.04636,-12.58079],[-38.04713,-12.58342],[-38.04668,-12.58458],[-38.04441,-12.58504],[-38.04172,-12.58672],[-38.03981,-12.58757],[-38.03828,-12.58871],[-38.03581,-12.58989],[-38.03359,-12.59002],[-38.03319,-12.59072],[-38.03392,-12.59143],[-38.03385,-12.59259],[-38.03163,-12.59347],[-38.03194,-12.59525],[-38.03153,-12.59657],[-38.03022,-12.5972]]]},"properties":{"codigo":"292100510","name":"Açu da Torre","population":17544,"households":16218,"areaKm2":216.9993,"density":80.8}},{"type":"Feature","geometry":{"type":"Polygon","coordinates":[[[-38.23979,-12.50607],[-38.24026,-12.50639],[-38.289,-12.54529],[-38.28903,-12.54701],[-38.28992,-12.5483],[-38.29076,-12.54807],[-38.29109,-12.54912],[-38.29226,-12.54908],[-38.29252,-12.5499],[-38.29536,-12.55543],[-38.29713,-12.56061],[-38.29764,-12.56337],[-38.30248,-12.56342],[-38.29935,-12.5493],[-38.30014,-12.54866],[-38.29978,-12.54744],[-38.29883,-12.54695],[-38.31096,-12.54464],[-38.36973,-12.52783],[-38.37819,-12.53863],[-38.3759,-12.53817],[-38.37431,-12.53726],[-38.3733,-12.53702],[-38.37245,-12.53762],[-38.37101,-12.53734],[-38.37074,-12.53659],[-38.36835,-12.53712],[-38.36695,-12.53704],[-38.36472,-12.5377],[-38.36399,-12.53609],[-38.36295,-12.53576],[-38.3621,-12.53642],[-38.36153,-12.53579],[-38.35897,-12.53665],[-38.35814,-12.53632],[-38.35642,-12.53648],[-38.35489,-12.53577],[-38.3539,-12.53655],[-38.35175,-12.53666],[-38.35043,-12.53764],[-38.3481,-12.5387],[-38.346,-12.53999],[-38.34561,-12.54124],[-38.34427,-12.54148],[-38.34295,-12.54324],[-38.3423,-12.54372],[-38.34225,-12.54575],[-38.34197,-12.54689],[-38.34341,-12.55008],[-38.34466,-12.54994],[-38.34539,-12.55047],[-38.345,-12.55158],[-38.3474,-12.55309],[-38.34991,-12.55638],[-38.34972,-12.55786],[-38.34884,-12.55909],[-38.34868,-12.56113],[-38.34699,-12.56364],[-38.34662,-12.56544],[-38.34669,-12.56728],[-38.34735,-12.56829],[-38.34781,-12.56993],[-38.34891,-12.57144],[-38.34736,-12.57185],[-38.3477,-12.57288],[-38.34635,-12.57436],[-38.34488,-12.57494],[-38.34387,-12.57481],[-38.34222,-12.57532],[-38.34097,-12.57463],[-38.33974,-12.5746],[-38.33941,-12.57512],[-38.33897,-12.57773],[-38.33699,-12.5782],[-38.33736,-12.5792],[-38.33585,-12.5801],[-38.3347,-12.57983],[-38.33196,-12.58002],[-38.32967,-12.5783],[-38.32787,-12.57762],[-38.32668,-12.57684],[-38.32382,-12.57666],[-38.32194,-12.57728],[-38.32043,-12.57715],[-38.32032,-12.57852],[-38.31815,-12.57925],[-38.31665,-12.58004],[-38.31612,-12.58075],[-38.31563,-12.58304],[-38.31497,-12.58363],[-38.31362,-12.58364],[-38.31315,-12.58547],[-38.31328,-12.58717],[-38.31149,-12.58808],[-38.30985,-12.5877],[-38.309,-12.58903],[-38.30913,-12.59068],[-38.30878,-12.59228],[-38.30719,-12.59249],[-38.30635,-12.59327],[-38.30588,-12.59489],[-38.30449,-12.59634],[-38.30289,-12.59614],[-38.30126,-12.59675],[-38.30057,-12.59747],[-38.2995,-12.59772],[-38.29809,-12.59863],[-38.29752,-12.59962],[-38.2965,-12.59921],[-38.29439,-12.60076],[-38.29412,-12.60172],[-38.29147,-12.6019],[-38.28976,-12.60028],[-38.28916,-12.60095],[-38.28824,-12.60059],[-38.28765,-12.60122],[-38.2876,-12.60409],[-38.28626,-12.60501],[-38.28556,-12.60491],[-38.28308,-12.6065],[-38.28276,-12.60694],[-38.28158,-12.60675],[-38.28211,-12.60834],[-38.28099,-12.60967],[-38.28036,-12.60982],[-38.27899,-12.61114],[-38.27764,-12.61067],[-38.27649,-12.61142],[-38.27494,-12.61169],[-38.27444,-12.61109],[-38.27305,-12.61118],[-38.27225,-12.61046],[-38.27123,-12.61041],[-38.27077,-12.60964],[-38.27083,-12.60842],[-38.26917,-12.6068],[-38.26725,-12.60662],[-38.26527,-12.60616],[-38.26399,-12.60651],[-38.2634,-12.60584],[-38.2618,-12.60623],[-38.26075,-12.60577],[-38.26009,-12.60438],[-38.26027,-12.60209],[-38.25981,-12.60163],[-38.25714,-12.60145],[-38.25649,-12.59979],[-38.25469,-12.59957],[-38.25325,-12.60018],[-38.25239,-12.59962],[-38.25224,-12.59871],[-38.25305,-12.59744],[-38.25279,-12.59657],[-38.25494,-12.59688],[-38.25579,-12.59607],[-38.25523,-12.59544],[-38.25554,-12.59385],[-38.25486,-12.59315],[-38.2548,-12.59202],[-38.2537,-12.58965],[-38.25283,-12.58937],[-38.25276,-12.58715],[-38.25331,-12.58557],[-38.25278,-12.58496],[-38.25315,-12.58421],[-38.25211,-12.5831],[-38.25183,-12.58143],[-38.25229,-12.57926],[-38.25144,-12.57711],[-38.25054,-12.57672],[-38.24962,-12.5757],[-38.24885,-12.57573],[-38.24843,-12.57649],[-38.24728,-12.57649],[-38.24482,-12.57586],[-38.24366,-12.575],[-38.243,-12.57384],[-38.2419,-12.5736],[-38.241,-12.57389],[-38.23913,-12.57352],[-38.23828,-12.57292],[-38.23793,-12.57136],[-38.237,-12.57227],[-38.23521,-12.57238],[-38.23389,-12.57171],[-38.23331,-12.56992],[-38.23354,-12.56891],[-38.23305,-12.5679],[-38.23191,-12.5666],[-38.23072,-12.56638],[-38.23032,-12.56726],[-38.22852,-12.5685],[-38.22501,-12.56838],[-38.22266,-12.56731],[-38.22175,-12.56666],[-38.21986,-12.56693],[-38.21975,-12.56855],[-38.21922,-12.56915],[-38.21843,-12.56888],[-38.21816,-12.56983],[-38.21661,-12.57073],[-38.21523,-12.56889],[-38.21576,-12.56812],[-38.21503,-12.56677],[-38.21577,-12.56467],[-38.21739,-12.56385],[-38.21728,-12.56275],[-38.21582,-12.56104],[-38.21554,-12.55951],[-38.21498,-12.55887],[-38.21495,-12.5575],[-38.21427,-12.55588],[-38.21467,-12.55442],[-38.21554,-12.55379],[-38.21682,-12.55122],[-38.21887,-12.55001],[-38.2199,-12.54891],[-38.22122,-12.54799],[-38.22242,-12.54653],[-38.22295,-12.54537],[-38.22289,-12.54432],[-38.22227,-12.54292],[-38.22149,-12.54236],[-38.22209,-12.54157],[-38.22309,-12.54195],[-38.22356,-12.54153],[-38.22309,-12.53953],[-38.22415,-12.53988],[-38.22461,-12.53944],[-38.22375,-12.5383],[-38.22352,-12.53681],[-38.22588,-12.53216],[-38.22561,-12.53072],[-38.22563,-12.52839],[-38.22505,-12.52818],[-38.22449,-12.5264],[-38.22364,-12.52473],[-38.22403,-12.52286],[-38.22379,-12.5218],[-38.22456,-12.52017],[-38.2262,-12.5205],[-38.22768,-12.51964],[-38.22806,-12.51886],[-38.23014,-12.51799],[-38.23192,-12.51856],[-38.2346,-12.51822],[-38.23617,-12.51773],[-38.23913,-12.51561],[-38.23918,-12.51399],[-38.23971,-12.50985],[-38.23894,-12.50804],[-38.23979,-12.50607]]]},"properties":{"codigo":"292100515","name":"Amado Bahia","population":4962,"households":3122,"areaKm2":85.3576,"density":58.1}}]}