{"type":"FeatureCollection","features":[{"type":"Feature","geometry":{"type":"Polygon","coordinates":[[[-41.37425,-12.8809],[-41.37434,-12.88216],[-41.37328,-12.88475],[-41.37372,-12.88702],[-41.37361,-12.89031],[-41.37206,-12.89696],[-41.37133,-12.90129],[-41.37128,-12.90281],[-41.37026,-12.90652],[-41.37037,-12.90913],[-41.36933,-12.91176],[-41.36848,-12.91331],[-41.36759,-12.91593],[-41.3674,-12.9184],[-41.36763,-12.92005],[-41.36864,-12.92359],[-41.3681,-12.92559],[-41.36747,-12.92628],[-41.36567,-12.92726],[-41.36526,-12.92864],[-41.36536,-12.93131],[-41.36508,-12.93242],[-41.36384,-12.93374],[-41.36239,-12.93636],[-41.36233,-12.9378],[-41.3627,-12.93966],[-41.36283,-12.94196],[-41.36257,-12.94326],[-41.36091,-12.94628],[-41.36031,-12.94944],[-41.36041,-12.95267],[-41.36014,-12.95377],[-41.36107,-12.95589],[-41.36088,-12.9574],[-41.36116,-12.95851],[-41.36229,-12.95973],[-41.3632,-12.95999],[-41.36413,-12.96129],[-41.36504,-12.96163],[-41.36799,-12.96174],[-41.37,-12.96356],[-41.37196,-12.96402],[-41.37595,-12.96357],[-41.37735,-12.96397],[-41.38003,-12.96539],[-41.38194,-12.9677],[-41.38351,-12.97091],[-41.38519,-12.97152],[-41.38702,-12.9715],[-41.38871,-12.9723],[-41.38999,-12.97491],[-41.39102,-12.97631],[-41.39239,-12.97766],[-41.47869,-12.94956],[-41.5696,-12.9199],[-41.64032,-12.89679],[-41.64033,-12.89807],[-41.67858,-12.96071],[-41.68935,-12.97806],[-41.69966,-12.99486],[-41.69589,-12.99715],[-41.69453,-12.99854],[-41.69372,-13.00049],[-41.69347,-13.00204],[-41.69286,-13.00239],[-41.69265,-13.0036],[-41.69202,-13.00424],[-41.69189,-13.00536],[-41.69124,-13.00553],[-41.69105,-13.00678],[-41.69049,-13.00709],[-41.69029,-13.00818],[-41.68969,-13.00879],[-41.68942,-13.01042],[-41.68847,-13.01185],[-41.68702,-13.01212],[-41.68613,-13.01135],[-41.68461,-13.01161],[-41.68435,-13.01356],[-41.68445,-13.0155],[-41.6837,-13.01656],[-41.68355,-13.01778],[-41.68213,-13.01876],[-41.682,-13.02102],[-41.68309,-13.02159],[-41.68453,-13.02308],[-41.68443,-13.02451],[-41.68373,-13.02491],[-41.68353,-13.02623],[-41.6829,-13.02669],[-41.68268,-13.02778],[-41.68124,-13.02876],[-41.68106,-13.03024],[-41.68108,-13.03267],[-41.68042,-13.03304],[-41.68006,-13.03459],[-41.6786,-13.0348],[-41.6778,-13.03621],[-41.67771,-13.03763],[-41.67693,-13.03891],[-41.67541,-13.04043],[-41.67514,-13.04196],[-41.67463,-13.04226],[-41.67433,-13.04391],[-41.67378,-13.04416],[-41.67365,-13.04695],[-41.67282,-13.04761],[-41.67281,-13.04881],[-41.67132,-13.05007],[-41.67086,-13.05104],[-41.67023,-13.05503],[-41.66964,-13.05562],[-41.66935,-13.0569],[-41.66872,-13.05743],[-41.66849,-13.0586],[-41.66783,-13.05913],[-41.66766,-13.06038],[-41.66706,-13.06077],[-41.66679,-13.06286],[-41.66628,-13.06332],[-41.66525,-13.0664],[-41.66465,-13.06747],[-41.66444,-13.06929],[-41.66382,-13.06969],[-41.66359,-13.07116],[-41.66194,-13.07284],[-41.65839,-13.07304],[-41.65663,-13.07271],[-41.65527,-13.07301],[-41.6546,-13.07405],[-41.65443,-13.0752],[-41.65279,-13.07633],[-41.65056,-13.07881],[-41.64952,-13.08045],[-41.64866,-13.08116],[-41.64857,-13.08204],[-41.64782,-13.08275],[-41.64773,-13.08539],[-41.64711,-13.08569],[-41.64685,-13.0876],[-41.64619,-13.08827],[-41.64605,-13.08957],[-41.64433,-13.09177],[-41.64367,-13.09207],[-41.64355,-13.09723],[-41.64285,-13.09846],[-41.64277,-13.09934],[-41.6421,-13.09983],[-41.64175,-13.10105],[-41.64109,-13.10182],[-41.64105,-13.1051],[-41.6404,-13.10566],[-41.64012,-13.10696],[-41.63959,-13.10742],[-41.63863,-13.1095],[-41.63845,-13.11198],[-41.63691,-13.11367],[-41.63616,-13.11411],[-41.6337,-13.11641],[-41.63293,-13.11744],[-41.63195,-13.11785],[-41.63141,-13.11859],[-41.63008,-13.12283],[-41.62907,-13.12433],[-41.62699,-13.1286],[-41.62623,-13.12972],[-41.62718,-13.13136],[-41.62937,-13.13217],[-41.63012,-13.13468],[-41.63044,-13.13804],[-41.63084,-13.13925],[-41.63173,-13.14025],[-41.63319,-13.14118],[-41.63462,-13.14296],[-41.63548,-13.14471],[-41.6363,-13.14567],[-41.63908,-13.14835],[-41.5888,-13.18905],[-41.52776,-13.23838],[-41.52487,-13.24236],[-41.52271,-13.2436],[-41.51822,-13.24501],[-41.51557,-13.24534],[-41.5134,-13.24537],[-41.51012,-13.24448],[-41.50933,-13.24373],[-41.50915,-13.24023],[-41.50804,-13.23841],[-41.50632,-13.23721],[-41.50336,-13.23678],[-41.50172,-13.23593],[-41.50032,-13.2364],[-41.49894,-13.23793],[-41.49585,-13.24071],[-41.49415,-13.24073],[-41.49041,-13.23985],[-41.489,-13.2391],[-41.48682,-13.23851],[-41.48433,-13.23853],[-41.47838,-13.23494],[-41.47501,-13.23184],[-41.47344,-13.23079],[-41.4697,-13.23021],[-41.46662,-13.23238],[-41.464,-13.23469],[-41.46215,-13.23685],[-41.45568,-13.24255],[-41.4506,-13.24778],[-41.44738,-13.25171],[-41.44592,-13.2507],[-41.44153,-13.25033],[-41.43834,-13.2495],[-41.43214,-13.24821],[-41.42912,-13.24802],[-41.42684,-13.24835],[-41.4245,-13.24813],[-41.4221,-13.24721],[-41.4202,-13.24695],[-41.41942,-13.24659],[-41.41729,-13.24639],[-41.4151,-13.24584],[-41.41363,-13.24442],[-41.41281,-13.24406],[-41.41113,-13.2425],[-41.41028,-13.24205],[-41.40937,-13.24095],[-41.40861,-13.23931],[-41.4067,-13.23768],[-41.40615,-13.23649],[-41.40599,-13.2353],[-41.40489,-13.23396],[-41.40352,-13.23271],[-41.4027,-13.23063],[-41.39977,-13.22594],[-41.39882,-13.22509],[-41.39591,-13.23264],[-41.39504,-13.23553],[-41.39448,-13.23811],[-41.39374,-13.24271],[-41.39339,-13.24698],[-41.39288,-13.25087],[-41.39278,-13.2546],[-41.39228,-13.2581],[-41.39117,-13.26103],[-41.38887,-13.26464],[-41.3855,-13.2679],[-41.3844,-13.26871],[-41.38274,-13.27119],[-41.37974,-13.2728],[-41.37822,-13.27313],[-41.37612,-13.27326],[-41.37542,-13.27358],[-41.37275,-13.27591],[-41.37133,-13.27671],[-41.36907,-13.27757],[-41.36716,-13.27855],[-41.36387,-13.27934],[-41.36122,-13.28063],[-41.35828,-13.28123],[-41.35504,-13.2811],[-41.35206,-13.28151],[-41.34981,-13.28149],[-41.34927,-13.28126],[-41.34832,-13.28246],[-41.34684,-13.28612],[-41.34578,-13.28768],[-41.34388,-13.28924],[-41.34172,-13.29055],[-41.34053,-13.29106],[-41.33944,-13.29212],[-41.33815,-13.29474],[-41.33705,-13.29648],[-41.33491,-13.2989],[-41.33402,-13.29901],[-41.33183,-13.29869],[-41.3301,-13.29886],[-41.32822,-13.29981],[-41.32627,-13.30034],[-41.32303,-13.30068],[-41.32183,-13.3016],[-41.32022,-13.30422],[-41.31954,-13.30499],[-41.31623,-13.30731],[-41.31175,-13.31026],[-41.30952,-13.3124],[-41.30855,-13.31395],[-41.3077,-13.31604],[-41.30675,-13.31718],[-41.30424,-13.318],[-41.30172,-13.31909],[-41.29669,-13.31997],[-41.29287,-13.32134],[-41.29057,-13.32247],[-41.27362,-13.3076],[-41.19288,-13.23676],[-41.1851,-13.22995],[-41.18491,-13.22807],[-41.18662,-13.22566],[-41.18696,-13.22369],[-41.18731,-13.21957],[-41.18831,-13.21649],[-41.19131,-13.21124],[-41.19301,-13.20914],[-41.19527,-13.20699],[-41.19579,-13.20448],[-41.19658,-13.20181],[-41.19736,-13.19815],[-41.19788,-13.19441],[-41.19841,-13.19262],[-41.19922,-13.19191],[-41.20356,-13.19035],[-41.20491,-13.18919],[-41.20763,-13.18765],[-41.21034,-13.18683],[-41.21208,-13.1852],[-41.21238,-13.18362],[-41.21401,-13.18181],[-41.2161,-13.1807],[-41.21784,-13.18024],[-41.21908,-13.17909],[-41.22203,-13.17859],[-41.2239,-13.17787],[-41.22483,-13.17716],[-41.22709,-13.17465],[-41.22775,-13.17324],[-41.23008,-13.16989],[-41.23064,-13.1677],[-41.23117,-13.16647],[-41.23311,-13.164],[-41.23511,-13.16297],[-41.23869,-13.16268],[-41.24575,-13.15837],[-41.24727,-13.15871],[-41.24773,-13.1601],[-41.2473,-13.16116],[-41.24482,-13.16411],[-41.24484,-13.16569],[-41.24708,-13.1662],[-41.24788,-13.16667],[-41.25308,-13.16815],[-41.256,-13.1677],[-41.25878,-13.16674],[-41.26107,-13.16573],[-41.26458,-13.16683],[-41.26611,-13.16602],[-41.2686,-13.16581],[-41.26903,-13.16505],[-41.26987,-13.16246],[-41.27111,-13.16165],[-41.27241,-13.16192],[-41.27533,-13.16123],[-41.27666,-13.16019],[-41.27894,-13.15758],[-41.28003,-13.15668],[-41.28092,-13.15455],[-41.28096,-13.15361],[-41.2822,-13.15205],[-41.28309,-13.14979],[-41.28308,-13.14899],[-41.28141,-13.14449],[-41.28118,-13.14096],[-41.28141,-13.13922],[-41.28101,-13.138],[-41.27899,-13.13727],[-41.27439,-13.13731],[-41.27294,-13.13714],[-41.26953,-13.13576],[-41.26534,-13.13448],[-41.26237,-13.13455],[-41.26072,-13.13325],[-41.2582,-13.12965],[-41.25804,-13.12796],[-41.2585,-13.12617],[-41.25714,-13.12532],[-41.25607,-13.12557],[-41.25444,-13.12676],[-41.25201,-13.1282],[-41.25093,-13.12759],[-41.25203,-13.12419],[-41.25197,-13.12114],[-41.25168,-13.12031],[-41.25186,-13.11914],[-41.25316,-13.11635],[-41.25351,-13.11401],[-41.25318,-13.11271],[-41.2531,-13.10994],[-41.25462,-13.10512],[-41.25511,-13.10308],[-41.25516,-13.10136],[-41.25574,-13.09685],[-41.25649,-13.09543],[-41.25841,-13.09239],[-41.26234,-13.08933],[-41.26502,-13.08666],[-41.26601,-13.0853],[-41.26674,-13.08208],[-41.26755,-13.08103],[-41.27105,-13.07847],[-41.27437,-13.07746],[-41.27606,-13.07633],[-41.27749,-13.07509],[-41.27842,-13.07391],[-41.27841,-13.07249],[-41.27776,-13.07009],[-41.278,-13.0691],[-41.28049,-13.06594],[-41.28104,-13.06445],[-41.28191,-13.06334],[-41.28447,-13.06196],[-41.2881,-13.0594],[-41.28935,-13.05914],[-41.29117,-13.05808],[-41.29337,-13.05793],[-41.29557,-13.05841],[-41.29807,-13.05715],[-41.29957,-13.05554],[-41.30173,-13.05145],[-41.30259,-13.04935],[-41.30258,-13.04787],[-41.30175,-13.04689],[-41.30168,-13.04566],[-41.3027,-13.04072],[-41.30355,-13.03787],[-41.3046,-13.03577],[-41.3049,-13.03373],[-41.30606,-13.03039],[-41.30941,-13.02555],[-41.31164,-13.02165],[-41.31273,-13.01782],[-41.31222,-13.01665],[-41.31127,-13.01561],[-41.31024,-13.01297],[-41.31003,-13.01137],[-41.31126,-13.0084],[-41.31307,-13.00678],[-41.3135,-13.00561],[-41.3138,-13.0037],[-41.31502,-12.99986],[-41.31517,-12.99231],[-41.31553,-12.99108],[-41.31683,-12.98862],[-41.31687,-12.98684],[-41.31654,-12.9853],[-41.31554,-12.98445],[-41.31603,-12.98341],[-41.31784,-12.98345],[-41.3189,-12.98283],[-41.32076,-12.98054],[-41.32203,-12.97642],[-41.32277,-12.97531],[-41.32451,-12.97382],[-41.32488,-12.97296],[-41.3246,-12.97008],[-41.32362,-12.9661],[-41.32305,-12.96475],[-41.3221,-12.96347],[-41.3197,-12.96159],[-41.31945,-12.96073],[-41.32047,-12.95789],[-41.32119,-12.95366],[-41.32218,-12.95249],[-41.32298,-12.95107],[-41.3226,-12.94972],[-41.32252,-12.94813],[-41.32344,-12.94658],[-41.32468,-12.94504],[-41.32853,-12.94132],[-41.32926,-12.93972],[-41.32924,-12.93751],[-41.32953,-12.93518],[-41.32952,-12.93346],[-41.32981,-12.93143],[-41.33155,-12.93074],[-41.33487,-12.93108],[-41.34096,-12.93155],[-41.343,-12.93161],[-41.34455,-12.93076],[-41.34587,-12.92959],[-41.3468,-12.92836],[-41.34686,-12.92667],[-41.3463,-12.92568],[-41.34512,-12.925],[-41.3434,-12.92486],[-41.34246,-12.92448],[-41.34112,-12.92319],[-41.34142,-12.92181],[-41.3438,-12.91726],[-41.34542,-12.91518],[-41.3475,-12.91194],[-41.34936,-12.9097],[-41.35026,-12.90539],[-41.35156,-12.90285],[-41.35286,-12.89977],[-41.35425,-12.89776],[-41.35525,-12.89538],[-41.35546,-12.89307],[-41.35606,-12.89046],[-41.35668,-12.88969],[-41.35754,-12.88945],[-41.35965,-12.88951],[-41.36239,-12.8901],[-41.36364,-12.8897],[-41.36503,-12.88785],[-41.36548,-12.88608],[-41.36655,-12.88377],[-41.3687,-12.88196],[-41.37063,-12.88119],[-41.37306,-12.88067],[-41.37425,-12.8809]]]},"properties":{"codigo":"292190605","name":"Mucugê","population":7611,"households":3840,"areaKm2":1465.6216,"density":5.2}},{"type":"Feature","geometry":{"type":"Polygon","coordinates":[[[-41.43915,-12.71064],[-41.43937,-12.71003],[-41.53074,-12.71211],[-41.5493,-12.71254],[-41.57294,-12.7128],[-41.57482,-12.71328],[-41.57557,-12.71259],[-41.5771,-12.71232],[-41.58079,-12.71119],[-41.58652,-12.70916],[-41.59067,-12.70893],[-41.59237,-12.70846],[-41.59501,-12.70833],[-41.59879,-12.70995],[-41.6008,-12.71051],[-41.60414,-12.71229],[-41.60513,-12.71219],[-41.60539,-12.71154],[-41.60514,-12.71304],[-41.60534,-12.71454],[-41.60496,-12.71568],[-41.60484,-12.71765],[-41.60416,-12.71945],[-41.60382,-12.72238],[-41.60478,-12.72638],[-41.60599,-12.72843],[-41.60627,-12.73001],[-41.60795,-12.73288],[-41.60876,-12.73369],[-41.60987,-12.73549],[-41.61106,-12.73872],[-41.61298,-12.74042],[-41.61337,-12.74127],[-41.61436,-12.74611],[-41.61469,-12.74886],[-41.61561,-12.75251],[-41.61565,-12.75351],[-41.61498,-12.75695],[-41.61536,-12.75866],[-41.61596,-12.75986],[-41.61773,-12.76214],[-41.62207,-12.76869],[-41.62392,-12.76922],[-41.62549,-12.76921],[-41.62816,-12.76998],[-41.62998,-12.77126],[-41.63467,-12.77785],[-41.63655,-12.78137],[-41.63718,-12.7834],[-41.63711,-12.78564],[-41.63385,-12.79087],[-41.63347,-12.79189],[-41.63356,-12.79613],[-41.63344,-12.79772],[-41.63276,-12.80019],[-41.63174,-12.80481],[-41.63134,-12.80596],[-41.62861,-12.80971],[-41.6264,-12.81316],[-41.62532,-12.81446],[-41.62293,-12.82037],[-41.62246,-12.8236],[-41.62167,-12.82504],[-41.62101,-12.82705],[-41.6212,-12.82868],[-41.62266,-12.83162],[-41.62385,-12.83477],[-41.62465,-12.8361],[-41.62649,-12.83856],[-41.62774,-12.84153],[-41.628,-12.84297],[-41.62724,-12.84711],[-41.62777,-12.85261],[-41.62824,-12.85581],[-41.62903,-12.85908],[-41.62917,-12.86173],[-41.62892,-12.86334],[-41.62996,-12.86631],[-41.63079,-12.86725],[-41.63284,-12.86884],[-41.63479,-12.87008],[-41.63606,-12.87213],[-41.63829,-12.87438],[-41.63975,-12.87639],[-41.64176,-12.87837],[-41.64362,-12.88183],[-41.64349,-12.88477],[-41.64184,-12.89134],[-41.64063,-12.89434],[-41.64032,-12.89679],[-41.5696,-12.9199],[-41.47869,-12.94956],[-41.39239,-12.97766],[-41.39102,-12.97631],[-41.38999,-12.97491],[-41.38871,-12.9723],[-41.38702,-12.9715],[-41.38519,-12.97152],[-41.38351,-12.97091],[-41.38194,-12.9677],[-41.38003,-12.96539],[-41.37735,-12.96397],[-41.37595,-12.96357],[-41.37196,-12.96402],[-41.37,-12.96356],[-41.36799,-12.96174],[-41.36504,-12.96163],[-41.36413,-12.96129],[-41.3632,-12.95999],[-41.36229,-12.95973],[-41.36116,-12.95851],[-41.36088,-12.9574],[-41.36107,-12.95589],[-41.36014,-12.95377],[-41.36041,-12.95267],[-41.36031,-12.94944],[-41.36091,-12.94628],[-41.36257,-12.94326],[-41.36283,-12.94196],[-41.3627,-12.93966],[-41.36233,-12.9378],[-41.36239,-12.93636],[-41.36384,-12.93374],[-41.36508,-12.93242],[-41.36536,-12.93131],[-41.36526,-12.92864],[-41.36567,-12.92726],[-41.36747,-12.92628],[-41.3681,-12.92559],[-41.36864,-12.92359],[-41.36763,-12.92005],[-41.3674,-12.9184],[-41.36759,-12.91593],[-41.36848,-12.91331],[-41.36933,-12.91176],[-41.37037,-12.90913],[-41.37026,-12.90652],[-41.37128,-12.90281],[-41.37133,-12.90129],[-41.37206,-12.89696],[-41.37361,-12.89031],[-41.37372,-12.88702],[-41.37328,-12.88475],[-41.37434,-12.88216],[-41.37425,-12.8809],[-41.37654,-12.88072],[-41.37877,-12.88005],[-41.38054,-12.88018],[-41.3904,-12.85544],[-41.41079,-12.80349],[-41.42684,-12.74867],[-41.43797,-12.7107],[-41.43915,-12.71064]]]},"properties":{"codigo":"292190610","name":"Guiné","population":2373,"households":1250,"areaKm2":627.2279,"density":3.8}},{"type":"Feature","geometry":{"type":"Polygon","coordinates":[[[-41.6052,-13.42485],[-41.60332,-13.42355],[-41.60194,-13.42441],[-41.60026,-13.42431],[-41.59847,-13.42337],[-41.59664,-13.42413],[-41.59614,-13.42394],[-41.59547,-13.42221],[-41.59317,-13.41934],[-41.59153,-13.4181],[-41.58984,-13.41774],[-41.5878,-13.41763],[-41.58701,-13.41727],[-41.5853,-13.41575],[-41.58149,-13.41467],[-41.57987,-13.41306],[-41.57817,-13.41323],[-41.576,-13.41274],[-41.57431,-13.41174],[-41.57243,-13.41215],[-41.5708,-13.4112],[-41.56943,-13.41082],[-41.56684,-13.41175],[-41.56442,-13.41168],[-41.56303,-13.41222],[-41.56103,-13.41201],[-41.55928,-13.41098],[-41.55637,-13.40974],[-41.55315,-13.4093],[-41.55118,-13.40955],[-41.55061,-13.41041],[-41.55021,-13.41317],[-41.55004,-13.41605],[-41.5506,-13.41828],[-41.55058,-13.41973],[-41.54969,-13.42215],[-41.54741,-13.42587],[-41.51476,-13.41227],[-41.44588,-13.38358],[-41.44573,-13.38163],[-41.44514,-13.37786],[-41.4451,-13.37624],[-41.44525,-13.37025],[-41.44491,-13.36789],[-41.44401,-13.36609],[-41.44298,-13.36479],[-41.442,-13.36406],[-41.44109,-13.3627],[-41.43939,-13.35759],[-41.43886,-13.35345],[-41.43829,-13.35009],[-41.43804,-13.3478],[-41.43788,-13.34355],[-41.43748,-13.34014],[-41.43738,-13.33728],[-41.43702,-13.3329],[-41.43702,-13.32883],[-41.43804,-13.3234],[-41.43867,-13.31919],[-41.43947,-13.31738],[-41.44007,-13.31524],[-41.44132,-13.31306],[-41.44395,-13.30636],[-41.44511,-13.3048],[-41.4474,-13.30276],[-41.4522,-13.29794],[-41.45373,-13.29582],[-41.45366,-13.29355],[-41.45296,-13.2907],[-41.45238,-13.28449],[-41.4527,-13.28004],[-41.45275,-13.2754],[-41.45258,-13.27144],[-41.45347,-13.2684],[-41.45392,-13.26471],[-41.45398,-13.26308],[-41.4524,-13.25892],[-41.44975,-13.2545],[-41.44839,-13.25259],[-41.44738,-13.25171],[-41.4506,-13.24778],[-41.45568,-13.24255],[-41.46215,-13.23685],[-41.464,-13.23469],[-41.46662,-13.23238],[-41.4697,-13.23021],[-41.47344,-13.23079],[-41.47501,-13.23184],[-41.47838,-13.23494],[-41.48433,-13.23853],[-41.48682,-13.23851],[-41.489,-13.2391],[-41.49041,-13.23985],[-41.49415,-13.24073],[-41.49585,-13.24071],[-41.49894,-13.23793],[-41.50032,-13.2364],[-41.50172,-13.23593],[-41.50336,-13.23678],[-41.50632,-13.23721],[-41.50804,-13.23841],[-41.50915,-13.24023],[-41.50933,-13.24373],[-41.51012,-13.24448],[-41.5134,-13.24537],[-41.51557,-13.24534],[-41.51822,-13.24501],[-41.52271,-13.2436],[-41.52487,-13.24236],[-41.52776,-13.23838],[-41.5888,-13.18905],[-41.63908,-13.14835],[-41.64019,-13.15035],[-41.64044,-13.15146],[-41.64008,-13.1526],[-41.63837,-13.15367],[-41.63662,-13.15506],[-41.63565,-13.15642],[-41.63477,-13.15844],[-41.63589,-13.15897],[-41.63997,-13.16238],[-41.64084,-13.16329],[-41.64245,-13.16424],[-41.64393,-13.16449],[-41.64486,-13.16375],[-41.64729,-13.16413],[-41.64835,-13.16469],[-41.64918,-13.16563],[-41.6517,-13.16709],[-41.65307,-13.16752],[-41.65357,-13.16837],[-41.65149,-13.17318],[-41.65002,-13.17601],[-41.64769,-13.17868],[-41.64679,-13.17895],[-41.64448,-13.17832],[-41.64339,-13.17885],[-41.64218,-13.18056],[-41.64202,-13.18138],[-41.6429,-13.18235],[-41.64284,-13.18323],[-41.64346,-13.18427],[-41.64331,-13.18682],[-41.64177,-13.18905],[-41.63976,-13.19084],[-41.63839,-13.19088],[-41.63719,-13.18995],[-41.63659,-13.18995],[-41.6359,-13.19133],[-41.63472,-13.19294],[-41.6347,-13.19445],[-41.63333,-13.19582],[-41.63074,-13.197],[-41.6296,-13.19714],[-41.62802,-13.19866],[-41.62731,-13.20046],[-41.62327,-13.20435],[-41.62114,-13.20627],[-41.61899,-13.20929],[-41.61612,-13.21299],[-41.6146,-13.21454],[-41.61337,-13.21478],[-41.61093,-13.2134],[-41.61016,-13.21318],[-41.60916,-13.21365],[-41.60833,-13.21692],[-41.60765,-13.21862],[-41.60663,-13.21916],[-41.60529,-13.2192],[-41.6047,-13.21963],[-41.60471,-13.22073],[-41.60359,-13.22192],[-41.60377,-13.22401],[-41.60313,-13.22527],[-41.60139,-13.22785],[-41.6005,-13.22885],[-41.59894,-13.22962],[-41.59889,-13.23102],[-41.59815,-13.23348],[-41.5986,-13.23546],[-41.59852,-13.23625],[-41.59728,-13.23929],[-41.5969,-13.24129],[-41.59689,-13.24315],[-41.59658,-13.24547],[-41.59601,-13.24666],[-41.59468,-13.2483],[-41.59255,-13.25224],[-41.59201,-13.25469],[-41.59171,-13.25698],[-41.59181,-13.26026],[-41.5913,-13.26293],[-41.59017,-13.26689],[-41.59015,-13.26833],[-41.59107,-13.2692],[-41.59319,-13.26971],[-41.59593,-13.27011],[-41.59939,-13.26974],[-41.60048,-13.26982],[-41.60202,-13.27059],[-41.60246,-13.27174],[-41.60233,-13.27376],[-41.60253,-13.27504],[-41.60233,-13.27755],[-41.6007,-13.27916],[-41.6007,-13.2804],[-41.6022,-13.28182],[-41.60249,-13.28265],[-41.6025,-13.28475],[-41.60335,-13.28658],[-41.60291,-13.28755],[-41.60104,-13.28941],[-41.60047,-13.29071],[-41.60015,-13.29286],[-41.59872,-13.29504],[-41.59812,-13.29532],[-41.5965,-13.29502],[-41.59535,-13.29512],[-41.59497,-13.2961],[-41.5961,-13.29775],[-41.59793,-13.29764],[-41.5983,-13.2989],[-41.59715,-13.30051],[-41.59724,-13.3015],[-41.59885,-13.3029],[-41.6003,-13.30445],[-41.60025,-13.3051],[-41.59871,-13.30627],[-41.59839,-13.30693],[-41.59873,-13.30795],[-41.60028,-13.30876],[-41.60291,-13.30868],[-41.60428,-13.30933],[-41.6043,-13.31034],[-41.60327,-13.31137],[-41.60172,-13.31237],[-41.6012,-13.31345],[-41.60124,-13.31466],[-41.60268,-13.31761],[-41.60407,-13.31875],[-41.60397,-13.31989],[-41.60437,-13.32077],[-41.60831,-13.32215],[-41.60869,-13.32333],[-41.6081,-13.32488],[-41.60843,-13.32575],[-41.60938,-13.32652],[-41.60959,-13.32805],[-41.60921,-13.32874],[-41.60736,-13.32849],[-41.60739,-13.32972],[-41.60841,-13.33121],[-41.60867,-13.33263],[-41.60862,-13.33425],[-41.60716,-13.33705],[-41.60729,-13.33823],[-41.60887,-13.33921],[-41.60908,-13.33992],[-41.61115,-13.34031],[-41.61247,-13.34197],[-41.6122,-13.3426],[-41.61044,-13.34354],[-41.61001,-13.34409],[-41.60961,-13.34569],[-41.60935,-13.34816],[-41.60938,-13.35057],[-41.61024,-13.35278],[-41.61031,-13.35417],[-41.60997,-13.35456],[-41.60846,-13.35422],[-41.6078,-13.3548],[-41.60775,-13.35634],[-41.60807,-13.35739],[-41.60983,-13.35937],[-41.60981,-13.36038],[-41.6088,-13.3621],[-41.60892,-13.36486],[-41.6085,-13.36651],[-41.60901,-13.36792],[-41.60908,-13.36977],[-41.60889,-13.3717],[-41.60814,-13.37241],[-41.60815,-13.37424],[-41.60769,-13.37627],[-41.60902,-13.37692],[-41.60906,-13.37796],[-41.60815,-13.3792],[-41.60905,-13.38035],[-41.60993,-13.38237],[-41.60986,-13.38389],[-41.60909,-13.38539],[-41.6073,-13.38614],[-41.60731,-13.38726],[-41.60813,-13.38942],[-41.60821,-13.39211],[-41.60682,-13.39392],[-41.60662,-13.39459],[-41.60649,-13.39728],[-41.60657,-13.39998],[-41.60568,-13.40232],[-41.6058,-13.40332],[-41.60546,-13.40446],[-41.60465,-13.40533],[-41.60487,-13.40612],[-41.60605,-13.40653],[-41.60637,-13.4082],[-41.60507,-13.41184],[-41.60475,-13.4134],[-41.60308,-13.41427],[-41.60257,-13.41484],[-41.60237,-13.41609],[-41.6027,-13.41701],[-41.6035,-13.41723],[-41.6043,-13.41657],[-41.60584,-13.41688],[-41.60613,-13.41809],[-41.60501,-13.42151],[-41.60491,-13.42366],[-41.6052,-13.42485]]]},"properties":{"codigo":"292190615","name":"João Correia","population":2153,"households":1075,"areaKm2":369.3037,"density":5.8}}]}