{"type":"FeatureCollection","features":[{"type":"Feature","geometry":{"type":"Polygon","coordinates":[[[-39.71083,-12.97613],[-39.71142,-12.97542],[-39.71304,-12.97465],[-39.71447,-12.97325],[-39.71426,-12.97198],[-39.71632,-12.97043],[-39.71909,-12.96647],[-39.72047,-12.96633],[-39.77365,-12.89519],[-39.79152,-12.87066],[-39.80831,-12.83613],[-39.80938,-12.83626],[-39.81176,-12.83505],[-39.81312,-12.83404],[-39.81485,-12.83357],[-39.8156,-12.83298],[-39.81604,-12.83193],[-39.81785,-12.82996],[-39.81867,-12.82773],[-39.81959,-12.82627],[-39.82184,-12.82527],[-39.82411,-12.8249],[-39.82612,-12.82391],[-39.82876,-12.82348],[-39.83165,-12.82145],[-39.8341,-12.82069],[-39.83502,-12.82],[-39.83576,-12.81873],[-39.83578,-12.81736],[-39.8362,-12.81681],[-39.83761,-12.81638],[-39.8397,-12.81623],[-39.84023,-12.81547],[-39.84006,-12.81309],[-39.84211,-12.81122],[-39.84229,-12.80962],[-39.84405,-12.80927],[-39.84401,-12.80843],[-39.84195,-12.80698],[-39.84174,-12.80602],[-39.84376,-12.80515],[-39.84451,-12.80426],[-39.84487,-12.80256],[-39.84442,-12.80129],[-39.84507,-12.80037],[-39.84723,-12.80048],[-39.84764,-12.7992],[-39.84607,-12.79917],[-39.84595,-12.7983],[-39.84668,-12.79643],[-39.84828,-12.7952],[-39.85024,-12.79471],[-39.85171,-12.79379],[-39.85287,-12.79374],[-39.85419,-12.79527],[-39.8557,-12.7956],[-39.8942,-12.75339],[-39.91304,-12.78876],[-39.92812,-12.81708],[-39.8998,-12.87464],[-39.90042,-12.87614],[-39.901,-12.87923],[-39.90193,-12.87998],[-39.90329,-12.88218],[-39.90359,-12.88395],[-39.90327,-12.88932],[-39.90288,-12.89347],[-39.90293,-12.89479],[-39.90381,-12.89684],[-39.90363,-12.89953],[-39.90415,-12.90038],[-39.90304,-12.90434],[-39.90246,-12.90595],[-39.90263,-12.90849],[-39.9024,-12.91006],[-39.90307,-12.9114],[-39.90164,-12.91374],[-39.90092,-12.91577],[-39.90088,-12.91715],[-39.90151,-12.91791],[-39.90313,-12.92311],[-39.90309,-12.92465],[-39.90214,-12.9259],[-39.9019,-12.92837],[-39.89945,-12.93345],[-39.89842,-12.93536],[-39.89735,-12.93608],[-39.895,-12.93846],[-39.8927,-12.93963],[-39.89148,-12.93989],[-39.89012,-12.94065],[-39.88854,-12.93956],[-39.88689,-12.94038],[-39.88675,-12.94109],[-39.88712,-12.94277],[-39.88601,-12.94305],[-39.88415,-12.94247],[-39.88412,-12.94076],[-39.88367,-12.94018],[-39.88102,-12.93994],[-39.87999,-12.93813],[-39.87831,-12.93675],[-39.87684,-12.93655],[-39.87555,-12.93862],[-39.8736,-12.93981],[-39.87129,-12.94079],[-39.87015,-12.94212],[-39.86897,-12.94425],[-39.86812,-12.945],[-39.86685,-12.94674],[-39.86521,-12.9476],[-39.86327,-12.94809],[-39.86253,-12.94875],[-39.86157,-12.95095],[-39.86097,-12.95319],[-39.85991,-12.95375],[-39.85868,-12.95373],[-39.85696,-12.95513],[-39.8556,-12.95696],[-39.85347,-12.95872],[-39.85338,-12.96013],[-39.85257,-12.96099],[-39.85081,-12.96218],[-39.84962,-12.96407],[-39.848,-12.96408],[-39.84512,-12.96343],[-39.84421,-12.96343],[-39.84118,-12.96437],[-39.84039,-12.965],[-39.8395,-12.96684],[-39.83671,-12.96641],[-39.83186,-12.96655],[-39.8307,-12.96777],[-39.82873,-12.96807],[-39.82625,-12.96908],[-39.82422,-12.97049],[-39.82245,-12.97128],[-39.82121,-12.97153],[-39.81838,-12.9717],[-39.81682,-12.97213],[-39.81607,-12.97322],[-39.81608,-12.97531],[-39.81576,-12.97736],[-39.81577,-12.97968],[-39.81455,-12.98003],[-39.81259,-12.97908],[-39.81024,-12.97908],[-39.80862,-12.97868],[-39.8067,-12.97767],[-39.80587,-12.97812],[-39.8056,-12.98018],[-39.80442,-12.98153],[-39.80233,-12.9834],[-39.80131,-12.98397],[-39.79983,-12.98462],[-39.79621,-12.98557],[-39.79389,-12.98662],[-39.79304,-12.98667],[-39.79189,-12.98589],[-39.79016,-12.98358],[-39.78932,-12.98287],[-39.78726,-12.98184],[-39.78615,-12.98167],[-39.78334,-12.98248],[-39.78307,-12.9833],[-39.78423,-12.98566],[-39.78465,-12.98847],[-39.78413,-12.99059],[-39.7833,-12.99188],[-39.78142,-12.99343],[-39.77995,-12.99527],[-39.77811,-12.99588],[-39.77658,-12.99673],[-39.77421,-12.99768],[-39.77261,-12.99758],[-39.77083,-12.99653],[-39.76959,-12.99649],[-39.76553,-12.9975],[-39.76249,-12.99764],[-39.76032,-12.99797],[-39.75801,-12.99896],[-39.75538,-12.99981],[-39.75585,-13.00104],[-39.75543,-13.00164],[-39.75615,-13.00265],[-39.75666,-13.00424],[-39.75683,-13.00597],[-39.75643,-13.00732],[-39.75442,-13.00781],[-39.7529,-13.00911],[-39.75211,-13.01053],[-39.75068,-13.01142],[-39.74738,-13.01282],[-39.74634,-13.01296],[-39.74496,-13.01184],[-39.74571,-13.0101],[-39.7453,-13.00844],[-39.74381,-13.00723],[-39.74261,-13.00678],[-39.74162,-13.0068],[-39.74085,-13.00738],[-39.74044,-13.009],[-39.7395,-13.01026],[-39.71083,-12.97613]]]},"properties":{"codigo":"292130205","name":"Milagres","population":9208,"households":4392,"areaKm2":292.6831,"density":31.5}},{"type":"Feature","geometry":{"type":"Polygon","coordinates":[[[-39.68827,-12.99991],[-39.68787,-12.9986],[-39.68656,-12.99695],[-39.6849,-12.99548],[-39.68281,-12.99312],[-39.6814,-12.99064],[-39.68041,-12.98989],[-39.67539,-12.9873],[-39.67239,-12.98309],[-39.67135,-12.982],[-39.66789,-12.97921],[-39.66662,-12.97778],[-39.66557,-12.97548],[-39.66519,-12.97333],[-39.66542,-12.9728],[-39.66686,-12.97149],[-39.66885,-12.971],[-39.67007,-12.96894],[-39.67289,-12.96598],[-39.6726,-12.96453],[-39.67157,-12.96389],[-39.67171,-12.963],[-39.67248,-12.96156],[-39.67266,-12.96031],[-39.67226,-12.95938],[-39.67002,-12.95765],[-39.66936,-12.95601],[-39.66864,-12.95572],[-39.66877,-12.95376],[-39.66805,-12.95341],[-39.66701,-12.95121],[-39.6654,-12.94984],[-39.66501,-12.94866],[-39.66278,-12.94721],[-39.6606,-12.94515],[-39.66052,-12.94279],[-39.66012,-12.94233],[-39.65785,-12.94191],[-39.65605,-12.94179],[-39.655,-12.94066],[-39.65421,-12.94077],[-39.6515,-12.93942],[-39.65073,-12.93812],[-39.65073,-12.93657],[-39.65001,-12.93538],[-39.64763,-12.93416],[-39.64574,-12.93526],[-39.64445,-12.93542],[-39.64259,-12.93515],[-39.64102,-12.93575],[-39.63989,-12.93503],[-39.63979,-12.93278],[-39.63767,-12.93015],[-39.64047,-12.93054],[-39.64199,-12.92978],[-39.64308,-12.9296],[-39.64462,-12.92999],[-39.64539,-12.92901],[-39.64679,-12.92811],[-39.64807,-12.92825],[-39.64969,-12.92785],[-39.6495,-12.92695],[-39.64574,-12.92557],[-39.64524,-12.92395],[-39.64421,-12.9237],[-39.64305,-12.92253],[-39.64336,-12.92122],[-39.64486,-12.92035],[-39.64552,-12.91908],[-39.64662,-12.91883],[-39.6475,-12.91804],[-39.64982,-12.918],[-39.65022,-12.91843],[-39.65089,-12.92059],[-39.65311,-12.92175],[-39.65444,-12.92439],[-39.654,-12.92541],[-39.65445,-12.92755],[-39.65504,-12.92794],[-39.65702,-12.92768],[-39.6589,-12.9268],[-39.65989,-12.92691],[-39.66059,-12.92587],[-39.66159,-12.92252],[-39.66239,-12.92177],[-39.66131,-12.92082],[-39.6597,-12.92073],[-39.6595,-12.91974],[-39.65744,-12.92025],[-39.65619,-12.9196],[-39.65575,-12.91809],[-39.65693,-12.91587],[-39.65794,-12.91471],[-39.65791,-12.91397],[-39.65651,-12.91258],[-39.65699,-12.9105],[-39.65783,-12.90964],[-39.66041,-12.91015],[-39.66128,-12.91079],[-39.66265,-12.91052],[-39.66413,-12.91265],[-39.66325,-12.91376],[-39.66321,-12.91456],[-39.66442,-12.91565],[-39.66611,-12.91546],[-39.67875,-12.88726],[-39.71268,-12.86214],[-39.72747,-12.87699],[-39.72881,-12.87468],[-39.731,-12.87201],[-39.73252,-12.87107],[-39.73418,-12.87058],[-39.73775,-12.87063],[-39.73997,-12.87041],[-39.74265,-12.86826],[-39.74401,-12.86692],[-39.74628,-12.86574],[-39.74849,-12.86439],[-39.75049,-12.86342],[-39.75244,-12.86198],[-39.75523,-12.86022],[-39.75855,-12.85941],[-39.76007,-12.85849],[-39.76144,-12.85843],[-39.76239,-12.85769],[-39.76591,-12.85645],[-39.76806,-12.85464],[-39.76932,-12.85531],[-39.77027,-12.8551],[-39.77157,-12.85428],[-39.7739,-12.85138],[-39.7749,-12.84972],[-39.77659,-12.84841],[-39.77801,-12.84837],[-39.77868,-12.84769],[-39.77854,-12.84641],[-39.77899,-12.84438],[-39.78228,-12.84012],[-39.78399,-12.83973],[-39.78506,-12.83823],[-39.78471,-12.83609],[-39.78481,-12.83506],[-39.78593,-12.8335],[-39.78743,-12.83229],[-39.78912,-12.8317],[-39.78994,-12.82942],[-39.7903,-12.82699],[-39.79917,-12.84124],[-39.80078,-12.84055],[-39.80255,-12.83833],[-39.80387,-12.83788],[-39.80578,-12.83641],[-39.80767,-12.83594],[-39.80831,-12.83613],[-39.79152,-12.87066],[-39.77365,-12.89519],[-39.72047,-12.96633],[-39.71909,-12.96647],[-39.71632,-12.97043],[-39.71426,-12.97198],[-39.71447,-12.97325],[-39.71304,-12.97465],[-39.71142,-12.97542],[-39.71083,-12.97613],[-39.70974,-12.97637],[-39.70795,-12.97752],[-39.705,-12.97911],[-39.70356,-12.98029],[-39.70216,-12.98247],[-39.70214,-12.98344],[-39.70104,-12.9846],[-39.70055,-12.98579],[-39.6994,-12.98684],[-39.69749,-12.98769],[-39.69559,-12.9875],[-39.69404,-12.98867],[-39.69248,-12.99173],[-39.69094,-12.99349],[-39.68985,-12.99611],[-39.68994,-12.99854],[-39.68888,-12.99974],[-39.68827,-12.99991]]]},"properties":{"codigo":"292130210","name":"Tartaruga","population":1863,"households":957,"areaKm2":127.6744,"density":14.6}}]}