{"type":"FeatureCollection","features":[{"type":"Feature","geometry":{"type":"Polygon","coordinates":[[[-41.68113,-11.9912],[-41.65892,-12.00598],[-41.65794,-12.00703],[-41.65173,-12.01369],[-41.63049,-12.0125],[-41.60505,-12.02499],[-41.56259,-12.04582],[-41.4862,-12.08332],[-41.4539,-12.09904],[-41.46887,-12.10805],[-41.43784,-12.1303],[-41.41727,-12.14504],[-41.41309,-12.14667],[-41.35487,-12.1684],[-41.37166,-12.15648],[-41.3986,-12.12968],[-41.41164,-12.11316],[-41.41765,-12.10609],[-41.42026,-12.10395],[-41.42871,-12.1008],[-41.4336,-12.09833],[-41.4359,-12.09801],[-41.43796,-12.09728],[-41.4402,-12.0955],[-41.44313,-12.09264],[-41.44397,-12.08808],[-41.4457,-12.0812],[-41.4488,-12.0803],[-41.4512,-12.0816],[-41.45547,-12.08032],[-41.45749,-12.07903],[-41.46021,-12.07699],[-41.46215,-12.06873],[-41.46226,-12.06721],[-41.47162,-12.03866],[-41.47207,-12.03497],[-41.47246,-12.0289],[-41.47252,-12.02315],[-41.47224,-12.01668],[-41.4854,-12.01318],[-41.5068,-12.01091],[-41.51886,-12.00962],[-41.52021,-12.01009],[-41.52229,-12.01048],[-41.52563,-12.0103],[-41.53382,-12.00912],[-41.53873,-12.00866],[-41.54266,-12.00782],[-41.54505,-12.00669],[-41.54749,-12.0051],[-41.55064,-12.00184],[-41.58026,-11.97988],[-41.58536,-11.97589],[-41.58797,-11.97466],[-41.59071,-11.97494],[-41.59311,-11.97482],[-41.59492,-11.97495],[-41.62528,-11.95946],[-41.62061,-11.95178],[-41.64573,-11.94333],[-41.64659,-11.94101],[-41.65501,-11.93309],[-41.66838,-11.92537],[-41.67992,-11.92165],[-41.68922,-11.96773],[-41.68113,-11.9912]]]},"properties":{"codigo":"292205205","name":"Mulungu do Morro","population":7385,"households":3683,"areaKm2":194.5709,"density":38}},{"type":"Feature","geometry":{"type":"Polygon","coordinates":[[[-41.42067,-11.86827],[-41.45258,-11.86586],[-41.52136,-11.86067],[-41.55384,-11.85875],[-41.58823,-11.85673],[-41.62234,-11.83241],[-41.6282,-11.84427],[-41.64261,-11.875],[-41.64857,-11.88547],[-41.64859,-11.88697],[-41.65549,-11.88912],[-41.67992,-11.92165],[-41.66838,-11.92537],[-41.65501,-11.93309],[-41.64659,-11.94101],[-41.64573,-11.94333],[-41.62061,-11.95178],[-41.62528,-11.95946],[-41.59492,-11.97495],[-41.59311,-11.97482],[-41.59071,-11.97494],[-41.58797,-11.97466],[-41.58536,-11.97589],[-41.58026,-11.97988],[-41.55064,-12.00184],[-41.54749,-12.0051],[-41.54505,-12.00669],[-41.54266,-12.00782],[-41.53873,-12.00866],[-41.53382,-12.00912],[-41.52563,-12.0103],[-41.52229,-12.01048],[-41.52021,-12.01009],[-41.51886,-12.00962],[-41.5068,-12.01091],[-41.4854,-12.01318],[-41.47224,-12.01668],[-41.47136,-12.00938],[-41.47085,-12.00262],[-41.46972,-11.99798],[-41.46949,-11.99067],[-41.46857,-11.98623],[-41.46653,-11.97828],[-41.46176,-11.96524],[-41.46032,-11.96243],[-41.45971,-11.96187],[-41.45424,-11.95905],[-41.4541,-11.9577],[-41.45358,-11.95637],[-41.44995,-11.95176],[-41.44897,-11.94974],[-41.44816,-11.94697],[-41.44672,-11.94542],[-41.44499,-11.94472],[-41.44274,-11.94478],[-41.44078,-11.94518],[-41.43985,-11.94501],[-41.43429,-11.94171],[-41.43212,-11.94018],[-41.43014,-11.93748],[-41.42825,-11.93603],[-41.42663,-11.93522],[-41.42555,-11.93414],[-41.42528,-11.93261],[-41.42546,-11.93153],[-41.42663,-11.93063],[-41.42906,-11.92946],[-41.43014,-11.9281],[-41.43059,-11.92666],[-41.43059,-11.92531],[-41.42977,-11.92345],[-41.42735,-11.92035],[-41.42681,-11.9163],[-41.42501,-11.91468],[-41.42383,-11.91333],[-41.42194,-11.91071],[-41.42101,-11.90896],[-41.42134,-11.90033],[-41.4223,-11.89819],[-41.4232,-11.89692],[-41.42356,-11.89503],[-41.42318,-11.8898],[-41.42239,-11.88728],[-41.42221,-11.88566],[-41.42266,-11.88407],[-41.42216,-11.88125],[-41.42232,-11.88017],[-41.42207,-11.87882],[-41.42253,-11.87478],[-41.42262,-11.87166],[-41.42146,-11.86938],[-41.42067,-11.86827]]]},"properties":{"codigo":"292205210","name":"Canudos","population":4075,"households":2125,"areaKm2":340.7511,"density":12}},{"type":"Feature","geometry":{"type":"Polygon","coordinates":[[[-41.45424,-11.95905],[-41.45971,-11.96187],[-41.46032,-11.96243],[-41.46176,-11.96524],[-41.46653,-11.97828],[-41.46857,-11.98623],[-41.46949,-11.99067],[-41.46972,-11.99798],[-41.47085,-12.00262],[-41.47136,-12.00938],[-41.47224,-12.01668],[-41.47252,-12.02315],[-41.47246,-12.0289],[-41.47207,-12.03497],[-41.47162,-12.03866],[-41.46226,-12.06721],[-41.46215,-12.06873],[-41.46021,-12.07699],[-41.45749,-12.07903],[-41.45547,-12.08032],[-41.4512,-12.0816],[-41.4488,-12.0803],[-41.4457,-12.0812],[-41.44397,-12.08808],[-41.44313,-12.09264],[-41.4402,-12.0955],[-41.43796,-12.09728],[-41.4359,-12.09801],[-41.4336,-12.09833],[-41.42871,-12.1008],[-41.42026,-12.10395],[-41.41765,-12.10609],[-41.41164,-12.11316],[-41.3986,-12.12968],[-41.37166,-12.15648],[-41.35487,-12.1684],[-41.35602,-12.16721],[-41.35691,-12.16553],[-41.35723,-12.16361],[-41.35701,-12.16131],[-41.35698,-12.15889],[-41.35652,-12.15544],[-41.35705,-12.153],[-41.35821,-12.15154],[-41.36041,-12.15017],[-41.36374,-12.14851],[-41.36507,-12.1471],[-41.36639,-12.14384],[-41.36684,-12.14225],[-41.36686,-12.14077],[-41.36748,-12.13862],[-41.36745,-12.13546],[-41.36682,-12.13252],[-41.36745,-12.12706],[-41.36857,-12.12522],[-41.36932,-12.12279],[-41.37042,-12.12139],[-41.3716,-12.11874],[-41.37187,-12.11539],[-41.37085,-12.11346],[-41.37074,-12.11211],[-41.37133,-12.11017],[-41.3707,-12.1078],[-41.37135,-12.10559],[-41.37135,-12.10476],[-41.37036,-12.10296],[-41.37022,-12.10191],[-41.37127,-12.09948],[-41.37116,-12.09797],[-41.36934,-12.0945],[-41.36828,-12.09161],[-41.36805,-12.08838],[-41.36802,-12.08593],[-41.36823,-12.08296],[-41.37143,-12.07919],[-41.37545,-12.07823],[-41.3772,-12.07853],[-41.37842,-12.07813],[-41.37936,-12.07741],[-41.38102,-12.07696],[-41.38357,-12.07688],[-41.38591,-12.0762],[-41.38824,-12.07648],[-41.39345,-12.0764],[-41.39482,-12.07596],[-41.39618,-12.07499],[-41.39765,-12.07325],[-41.39844,-12.07186],[-41.39988,-12.06792],[-41.40098,-12.06689],[-41.40239,-12.06385],[-41.40361,-12.05766],[-41.40489,-12.05352],[-41.40567,-12.05153],[-41.40764,-12.0489],[-41.40773,-12.04781],[-41.40623,-12.04565],[-41.40416,-12.0437],[-41.4031,-12.0421],[-41.40236,-12.03967],[-41.40246,-12.03775],[-41.40485,-12.03442],[-41.40741,-12.0313],[-41.40904,-12.02889],[-41.41039,-12.02614],[-41.4114,-12.02468],[-41.41275,-12.02378],[-41.41475,-12.02304],[-41.41578,-12.02185],[-41.41601,-12.02096],[-41.41573,-12.0199],[-41.41269,-12.01741],[-41.41214,-12.01636],[-41.41186,-12.01488],[-41.41211,-12.0124],[-41.41302,-12.00904],[-41.4137,-12.00742],[-41.41519,-12.00477],[-41.41617,-12.00206],[-41.41626,-12.00114],[-41.41692,-11.99978],[-41.41661,-11.99802],[-41.44471,-11.98611],[-41.44523,-11.98544],[-41.44467,-11.98249],[-41.44463,-11.98097],[-41.44491,-11.97991],[-41.44712,-11.9776],[-41.45007,-11.97557],[-41.45353,-11.97345],[-41.45543,-11.9711],[-41.45566,-11.96964],[-41.45537,-11.96785],[-41.45485,-11.96629],[-41.4541,-11.96226],[-41.45424,-11.95905]]]},"properties":{"codigo":"292205215","name":"Várzea do Cerco","population":1692,"households":828,"areaKm2":111.2986,"density":15.2}}]}