{"type":"FeatureCollection","features":[{"type":"Feature","geometry":{"type":"Polygon","coordinates":[[[-38.38827,-12.42304],[-38.3884,-12.42439],[-38.38933,-12.42612],[-38.38932,-12.42804],[-38.38843,-12.42945],[-38.38694,-12.43063],[-38.38453,-12.43301],[-38.38327,-12.43366],[-38.38303,-12.43436],[-38.38193,-12.43544],[-38.38112,-12.43515],[-38.37944,-12.43619],[-38.37872,-12.43723],[-38.37822,-12.436],[-38.37749,-12.43658],[-38.3763,-12.43583],[-38.37558,-12.43602],[-38.37493,-12.43491],[-38.37346,-12.43574],[-38.37302,-12.43669],[-38.37074,-12.43777],[-38.37132,-12.43886],[-38.36947,-12.43985],[-38.36885,-12.44055],[-38.36885,-12.44304],[-38.36845,-12.44418],[-38.36702,-12.44328],[-38.36645,-12.44443],[-38.36483,-12.44366],[-38.36454,-12.44505],[-38.36345,-12.44701],[-38.33745,-12.45114],[-38.31727,-12.43484],[-38.31601,-12.43664],[-38.31504,-12.43885],[-38.31472,-12.44099],[-38.32237,-12.45729],[-38.28781,-12.44666],[-38.26232,-12.41692],[-38.26079,-12.41723],[-38.25976,-12.41691],[-38.25885,-12.41525],[-38.25802,-12.41601],[-38.2563,-12.41578],[-38.25446,-12.41623],[-38.25393,-12.41515],[-38.25286,-12.41519],[-38.25184,-12.41601],[-38.25052,-12.41573],[-38.249,-12.41697],[-38.24723,-12.41633],[-38.24542,-12.41672],[-38.24435,-12.41602],[-38.24366,-12.41485],[-38.24128,-12.4147],[-38.23884,-12.416],[-38.2384,-12.41674],[-38.23705,-12.41711],[-38.23382,-12.41677],[-38.23213,-12.41573],[-38.23096,-12.41592],[-38.23041,-12.41542],[-38.22949,-12.41566],[-38.22934,-12.41647],[-38.22766,-12.41595],[-38.2261,-12.41472],[-38.22461,-12.41303],[-38.22539,-12.41223],[-38.22651,-12.41182],[-38.22379,-12.41009],[-38.2232,-12.41002],[-38.22216,-12.41075],[-38.22086,-12.40943],[-38.22035,-12.40953],[-38.2197,-12.41069],[-38.21855,-12.41024],[-38.21788,-12.41083],[-38.217,-12.40995],[-38.21579,-12.40997],[-38.21594,-12.41091],[-38.21428,-12.4118],[-38.21325,-12.41185],[-38.21266,-12.41116],[-38.21112,-12.41192],[-38.20996,-12.41082],[-38.20893,-12.41113],[-38.20795,-12.41035],[-38.20721,-12.41089],[-38.20595,-12.41056],[-38.20392,-12.40901],[-38.20435,-12.40783],[-38.20405,-12.40684],[-38.20308,-12.40703],[-38.20253,-12.40633],[-38.20278,-12.40554],[-38.20108,-12.40519],[-38.19988,-12.40435],[-38.19991,-12.40353],[-38.20074,-12.4031],[-38.20178,-12.40314],[-38.20373,-12.40423],[-38.20692,-12.4029],[-38.20825,-12.40266],[-38.20969,-12.40196],[-38.21046,-12.40209],[-38.21182,-12.40147],[-38.21374,-12.40012],[-38.21375,-12.3996],[-38.21491,-12.39864],[-38.21675,-12.39905],[-38.21785,-12.39737],[-38.21798,-12.39655],[-38.21766,-12.39464],[-38.21702,-12.39361],[-38.2176,-12.39255],[-38.2185,-12.39197],[-38.21955,-12.39202],[-38.21981,-12.39281],[-38.22084,-12.39244],[-38.22203,-12.38924],[-38.22306,-12.38866],[-38.22499,-12.38959],[-38.22613,-12.38981],[-38.22859,-12.38916],[-38.23007,-12.38966],[-38.23085,-12.39054],[-38.23256,-12.38977],[-38.23404,-12.38993],[-38.2346,-12.39211],[-38.23427,-12.39357],[-38.23525,-12.39346],[-38.23672,-12.3944],[-38.2377,-12.39575],[-38.23823,-12.39563],[-38.24024,-12.39424],[-38.24032,-12.39163],[-38.24141,-12.38997],[-38.24102,-12.38966],[-38.24223,-12.38834],[-38.24355,-12.38745],[-38.24559,-12.387],[-38.24541,-12.38451],[-38.24483,-12.38394],[-38.24446,-12.38236],[-38.24504,-12.38162],[-38.24614,-12.38124],[-38.24615,-12.3798],[-38.24739,-12.37927],[-38.24784,-12.37958],[-38.24924,-12.37856],[-38.25008,-12.37846],[-38.25062,-12.37534],[-38.25171,-12.37437],[-38.25052,-12.37389],[-38.25043,-12.37219],[-38.25105,-12.3718],[-38.25179,-12.37051],[-38.25114,-12.3686],[-38.25164,-12.36771],[-38.25114,-12.36677],[-38.25163,-12.36476],[-38.2525,-12.36345],[-38.25276,-12.36232],[-38.2522,-12.36112],[-38.25219,-12.35905],[-38.25246,-12.35799],[-38.25458,-12.35568],[-38.25505,-12.35445],[-38.25586,-12.35472],[-38.25771,-12.35275],[-38.25749,-12.35174],[-38.25777,-12.35066],[-38.25847,-12.35045],[-38.25869,-12.34755],[-38.25945,-12.34693],[-38.25975,-12.34587],[-38.26123,-12.34536],[-38.26227,-12.3457],[-38.26322,-12.3448],[-38.26471,-12.34433],[-38.2652,-12.34213],[-38.26579,-12.34225],[-38.267,-12.34012],[-38.26768,-12.33967],[-38.2683,-12.3383],[-38.26787,-12.33734],[-38.26771,-12.33467],[-38.26869,-12.33352],[-38.26891,-12.3325],[-38.27116,-12.33133],[-38.271,-12.33003],[-38.27193,-12.32896],[-38.27168,-12.32699],[-38.27302,-12.32319],[-38.27555,-12.32245],[-38.27669,-12.32497],[-38.27801,-12.32566],[-38.27863,-12.32636],[-38.2802,-12.33002],[-38.28014,-12.33139],[-38.27973,-12.33244],[-38.28,-12.33446],[-38.28092,-12.33675],[-38.28021,-12.33793],[-38.281,-12.33845],[-38.28221,-12.34142],[-38.28308,-12.34241],[-38.28522,-12.34294],[-38.28575,-12.34385],[-38.28671,-12.34371],[-38.28766,-12.34431],[-38.29006,-12.34477],[-38.29173,-12.34579],[-38.29383,-12.34576],[-38.29476,-12.346],[-38.2975,-12.34526],[-38.29877,-12.3444],[-38.29971,-12.34436],[-38.30089,-12.34379],[-38.30186,-12.34382],[-38.30443,-12.34316],[-38.3055,-12.34226],[-38.30722,-12.34339],[-38.30928,-12.34368],[-38.31256,-12.34183],[-38.31362,-12.34028],[-38.31449,-12.33961],[-38.31385,-12.33758],[-38.35454,-12.37833],[-38.35613,-12.37934],[-38.37039,-12.38932],[-38.38995,-12.40286],[-38.38011,-12.40612],[-38.37796,-12.40621],[-38.37682,-12.40688],[-38.37531,-12.40834],[-38.37533,-12.40899],[-38.37714,-12.4109],[-38.37758,-12.41294],[-38.37765,-12.41598],[-38.37819,-12.4162],[-38.37976,-12.41784],[-38.3822,-12.41807],[-38.38271,-12.41924],[-38.38456,-12.42014],[-38.38488,-12.42102],[-38.38614,-12.42145],[-38.38667,-12.42221],[-38.38827,-12.42304]]]},"properties":{"codigo":"292520405","name":"Pojuca","population":30230,"households":15191,"areaKm2":145.7634,"density":207.4}},{"type":"Feature","geometry":{"type":"Polygon","coordinates":[[[-38.27306,-12.27837],[-38.27347,-12.27984],[-38.27513,-12.28003],[-38.27665,-12.28114],[-38.27657,-12.28315],[-38.27695,-12.28388],[-38.27635,-12.28556],[-38.27561,-12.28622],[-38.27514,-12.28886],[-38.2748,-12.29187],[-38.27323,-12.29353],[-38.27241,-12.29567],[-38.27341,-12.29908],[-38.27412,-12.29973],[-38.27524,-12.30154],[-38.27609,-12.30094],[-38.27678,-12.30305],[-38.27782,-12.30371],[-38.27759,-12.30431],[-38.27568,-12.30732],[-38.27515,-12.30911],[-38.27308,-12.31077],[-38.27466,-12.31156],[-38.27274,-12.31372],[-38.27218,-12.31616],[-38.27289,-12.31779],[-38.27249,-12.31905],[-38.2724,-12.32197],[-38.27302,-12.32319],[-38.27168,-12.32699],[-38.27193,-12.32896],[-38.271,-12.33003],[-38.27116,-12.33133],[-38.26891,-12.3325],[-38.26869,-12.33352],[-38.26771,-12.33467],[-38.26787,-12.33734],[-38.2683,-12.3383],[-38.26768,-12.33967],[-38.267,-12.34012],[-38.26579,-12.34225],[-38.2652,-12.34213],[-38.26471,-12.34433],[-38.26322,-12.3448],[-38.26227,-12.3457],[-38.26123,-12.34536],[-38.25975,-12.34587],[-38.25945,-12.34693],[-38.25869,-12.34755],[-38.25847,-12.35045],[-38.25777,-12.35066],[-38.25749,-12.35174],[-38.25771,-12.35275],[-38.25586,-12.35472],[-38.25505,-12.35445],[-38.25458,-12.35568],[-38.25246,-12.35799],[-38.25219,-12.35905],[-38.2522,-12.36112],[-38.25276,-12.36232],[-38.2525,-12.36345],[-38.25163,-12.36476],[-38.25114,-12.36677],[-38.25164,-12.36771],[-38.25114,-12.3686],[-38.25179,-12.37051],[-38.25105,-12.3718],[-38.25043,-12.37219],[-38.25052,-12.37389],[-38.25171,-12.37437],[-38.25062,-12.37534],[-38.25008,-12.37846],[-38.24924,-12.37856],[-38.24784,-12.37958],[-38.24739,-12.37927],[-38.24615,-12.3798],[-38.24614,-12.38124],[-38.24504,-12.38162],[-38.24446,-12.38236],[-38.24483,-12.38394],[-38.24541,-12.38451],[-38.24559,-12.387],[-38.24355,-12.38745],[-38.24223,-12.38834],[-38.24102,-12.38966],[-38.24141,-12.38997],[-38.24032,-12.39163],[-38.24024,-12.39424],[-38.23823,-12.39563],[-38.2377,-12.39575],[-38.23672,-12.3944],[-38.23525,-12.39346],[-38.23427,-12.39357],[-38.2346,-12.39211],[-38.23404,-12.38993],[-38.23256,-12.38977],[-38.23085,-12.39054],[-38.23007,-12.38966],[-38.22859,-12.38916],[-38.22613,-12.38981],[-38.22499,-12.38959],[-38.22306,-12.38866],[-38.22203,-12.38924],[-38.22084,-12.39244],[-38.21981,-12.39281],[-38.21955,-12.39202],[-38.2185,-12.39197],[-38.2176,-12.39255],[-38.21702,-12.39361],[-38.21766,-12.39464],[-38.21798,-12.39655],[-38.21785,-12.39737],[-38.21675,-12.39905],[-38.21491,-12.39864],[-38.21375,-12.3996],[-38.21374,-12.40012],[-38.21182,-12.40147],[-38.21046,-12.40209],[-38.20969,-12.40196],[-38.20825,-12.40266],[-38.20692,-12.4029],[-38.20373,-12.40423],[-38.20178,-12.40314],[-38.20074,-12.4031],[-38.19991,-12.40353],[-38.19988,-12.40435],[-38.19777,-12.40362],[-38.19653,-12.40379],[-38.19595,-12.40322],[-38.19472,-12.40332],[-38.19299,-12.403],[-38.19206,-12.40409],[-38.19124,-12.40346],[-38.19005,-12.40339],[-38.18906,-12.40619],[-38.1873,-12.40795],[-38.18708,-12.40941],[-38.18758,-12.41095],[-38.187,-12.41231],[-38.18511,-12.41156],[-38.18422,-12.41169],[-38.18343,-12.41261],[-38.1818,-12.41093],[-38.17987,-12.41112],[-38.17916,-12.40986],[-38.17912,-12.40894],[-38.17749,-12.40845],[-38.17736,-12.40724],[-38.17667,-12.40572],[-38.17772,-12.40399],[-38.17788,-12.4031],[-38.1774,-12.40184],[-38.17647,-12.40068],[-38.17414,-12.40028],[-38.17239,-12.40059],[-38.1708,-12.39978],[-38.16964,-12.3986],[-38.16834,-12.39839],[-38.16686,-12.39597],[-38.16509,-12.39474],[-38.16417,-12.39468],[-38.16363,-12.39557],[-38.16256,-12.39517],[-38.16004,-12.39321],[-38.15941,-12.39229],[-38.15947,-12.39034],[-38.15898,-12.38997],[-38.15873,-12.38796],[-38.15886,-12.38673],[-38.1585,-12.38539],[-38.15897,-12.38461],[-38.15852,-12.38385],[-38.15576,-12.38257],[-38.15185,-12.38015],[-38.14987,-12.3778],[-38.14535,-12.37361],[-38.1439,-12.37323],[-38.1426,-12.37201],[-38.14343,-12.37103],[-38.14425,-12.37161],[-38.14494,-12.37054],[-38.14563,-12.37059],[-38.14621,-12.36957],[-38.14605,-12.36867],[-38.1446,-12.36688],[-38.14358,-12.36607],[-38.14411,-12.36492],[-38.14401,-12.36417],[-38.14641,-12.36109],[-38.14717,-12.3605],[-38.14803,-12.3613],[-38.15088,-12.36195],[-38.15147,-12.36098],[-38.15273,-12.36004],[-38.15321,-12.35871],[-38.15424,-12.35831],[-38.15361,-12.35633],[-38.15383,-12.35532],[-38.15485,-12.35533],[-38.15493,-12.35372],[-38.15449,-12.35325],[-38.15455,-12.35152],[-38.1549,-12.35052],[-38.15567,-12.35046],[-38.15575,-12.34925],[-38.15633,-12.34856],[-38.15582,-12.34655],[-38.1567,-12.34641],[-38.15636,-12.34464],[-38.15709,-12.34275],[-38.15708,-12.34123],[-38.15841,-12.34033],[-38.1602,-12.34069],[-38.16123,-12.33961],[-38.16178,-12.33853],[-38.16051,-12.33775],[-38.16079,-12.33603],[-38.15969,-12.33616],[-38.15941,-12.33427],[-38.15825,-12.3335],[-38.15808,-12.33277],[-38.16045,-12.33108],[-38.16082,-12.32969],[-38.16297,-12.32767],[-38.16225,-12.32732],[-38.16281,-12.32621],[-38.16145,-12.32425],[-38.16144,-12.32367],[-38.15939,-12.32161],[-38.15847,-12.32153],[-38.15878,-12.31982],[-38.1583,-12.31805],[-38.15699,-12.31788],[-38.15568,-12.3192],[-38.15433,-12.31971],[-38.15388,-12.31925],[-38.1546,-12.31744],[-38.15567,-12.31682],[-38.15777,-12.31426],[-38.15829,-12.31178],[-38.15651,-12.31018],[-38.15478,-12.30806],[-38.15388,-12.30783],[-38.15043,-12.30832],[-38.15007,-12.3069],[-38.15104,-12.30589],[-38.15214,-12.30547],[-38.1522,-12.3046],[-38.15381,-12.30414],[-38.15591,-12.30477],[-38.15718,-12.30409],[-38.15856,-12.30247],[-38.15827,-12.30149],[-38.15662,-12.30063],[-38.15494,-12.29922],[-38.15512,-12.29848],[-38.15408,-12.29801],[-38.15195,-12.29781],[-38.14805,-12.29482],[-38.14709,-12.29446],[-38.14536,-12.29499],[-38.14436,-12.29636],[-38.14409,-12.29814],[-38.14258,-12.29943],[-38.14159,-12.29961],[-38.13949,-12.29888],[-38.13975,-12.29797],[-38.13882,-12.29731],[-38.13723,-12.29694],[-38.13712,-12.29547],[-38.13749,-12.29496],[-38.13717,-12.29277],[-38.13799,-12.29114],[-38.13889,-12.29008],[-38.14033,-12.28966],[-38.1414,-12.28981],[-38.14235,-12.29061],[-38.14377,-12.29067],[-38.14439,-12.28991],[-38.14442,-12.2871],[-38.1449,-12.28581],[-38.14655,-12.28473],[-38.14793,-12.28466],[-38.15007,-12.28419],[-38.15124,-12.28334],[-38.15358,-12.28271],[-38.15488,-12.28302],[-38.15724,-12.28293],[-38.15892,-12.28248],[-38.16024,-12.28177],[-38.16197,-12.28162],[-38.16288,-12.28019],[-38.16366,-12.27832],[-38.165,-12.27682],[-38.16497,-12.27605],[-38.16154,-12.27286],[-38.16093,-12.27076],[-38.16149,-12.26936],[-38.16255,-12.2688],[-38.16512,-12.26619],[-38.16804,-12.26418],[-38.16888,-12.26307],[-38.16973,-12.26268],[-38.17232,-12.26352],[-38.17302,-12.26225],[-38.17415,-12.26119],[-38.21175,-12.26883],[-38.27306,-12.27837]]]},"properties":{"codigo":"292520410","name":"Miranga","population":1906,"households":1048,"areaKm2":169.1691,"density":11.3}}]}