{"type":"FeatureCollection","features":[{"type":"Feature","geometry":{"type":"Polygon","coordinates":[[[-41.94174,-11.22823],[-41.93011,-11.23542],[-41.90019,-11.25402],[-41.87589,-11.26912],[-41.87576,-11.2687],[-41.87793,-11.26103],[-41.83024,-11.25064],[-41.76663,-11.22727],[-41.74002,-11.22334],[-41.73985,-11.22328],[-41.73517,-11.22117],[-41.73313,-11.21938],[-41.73164,-11.21362],[-41.72992,-11.20978],[-41.72797,-11.20764],[-41.72257,-11.20264],[-41.72095,-11.20055],[-41.71887,-11.19928],[-41.71698,-11.19752],[-41.71612,-11.19587],[-41.71508,-11.19505],[-41.71234,-11.19404],[-41.71054,-11.19377],[-41.70761,-11.19434],[-41.70508,-11.19407],[-41.6666,-11.17676],[-41.72377,-11.085],[-41.78275,-10.98972],[-41.78668,-10.98463],[-41.81346,-11.0202],[-41.81585,-11.02582],[-41.81717,-11.0299],[-41.8189,-11.0344],[-41.82273,-11.04339],[-41.82407,-11.0464],[-41.82496,-11.04801],[-41.82657,-11.05019],[-41.82923,-11.05483],[-41.83043,-11.05925],[-41.83168,-11.06312],[-41.83137,-11.06398],[-41.85603,-11.11586],[-41.89836,-11.12854],[-41.89844,-11.13127],[-41.9081,-11.14878],[-41.92627,-11.18171],[-41.94174,-11.22823]]]},"properties":{"codigo":"292925505","name":"São Gabriel","population":13752,"households":6488,"areaKm2":461.0357,"density":29.8}},{"type":"Feature","geometry":{"type":"Polygon","coordinates":[[[-41.43496,-11.00661],[-41.43457,-11.00583],[-41.43069,-11.00293],[-41.42993,-11.00183],[-41.43036,-11.00011],[-41.42997,-10.99755],[-41.42931,-10.99602],[-41.42734,-10.99411],[-41.4277,-10.9928],[-41.42937,-10.99055],[-41.43014,-10.98918],[-41.43036,-10.98683],[-41.4297,-10.98528],[-41.43066,-10.985],[-41.43208,-10.98528],[-41.43294,-10.98452],[-41.43479,-10.98476],[-41.4351,-10.98441],[-41.43509,-10.98275],[-41.43641,-10.97994],[-41.43657,-10.97881],[-41.43766,-10.97771],[-41.43841,-10.9774],[-41.44038,-10.9778],[-41.44146,-10.97688],[-41.44259,-10.97687],[-41.44416,-10.9764],[-41.44525,-10.97657],[-41.44651,-10.97629],[-41.44849,-10.97404],[-41.44936,-10.9742],[-41.45045,-10.97565],[-41.45221,-10.97655],[-41.45505,-10.97691],[-41.45719,-10.97639],[-41.46129,-10.97617],[-41.46279,-10.97764],[-41.46349,-10.97889],[-41.46526,-10.97903],[-41.46726,-10.97805],[-41.46824,-10.97806],[-41.46953,-10.97997],[-41.47098,-10.98112],[-41.47349,-10.98222],[-41.47426,-10.9832],[-41.47463,-10.985],[-41.4761,-10.98607],[-41.47806,-10.9856],[-41.47935,-10.98559],[-41.48184,-10.98769],[-41.48297,-10.98823],[-41.48372,-10.98771],[-41.48356,-10.98622],[-41.48389,-10.98576],[-41.48637,-10.98542],[-41.48651,-10.98422],[-41.48558,-10.98319],[-41.48752,-10.98146],[-41.48947,-10.98063],[-41.49077,-10.97984],[-41.49269,-10.9798],[-41.49428,-10.98079],[-41.49508,-10.98062],[-41.49643,-10.97969],[-41.49667,-10.97823],[-41.49793,-10.97764],[-41.4992,-10.97912],[-41.50009,-10.97889],[-41.5015,-10.97763],[-41.5022,-10.97843],[-41.50222,-10.9803],[-41.50359,-10.98061],[-41.50403,-10.97977],[-41.50445,-10.97754],[-41.50431,-10.97496],[-41.50631,-10.97338],[-41.50675,-10.97138],[-41.50842,-10.96898],[-41.51007,-10.96852],[-41.51222,-10.97034],[-41.51327,-10.97055],[-41.51483,-10.96976],[-41.51668,-10.9681],[-41.51916,-10.96698],[-41.52037,-10.96689],[-41.52134,-10.96743],[-41.52204,-10.96846],[-41.52386,-10.97004],[-41.52438,-10.9702],[-41.52718,-10.96982],[-41.52891,-10.97012],[-41.52984,-10.97002],[-41.53098,-10.96886],[-41.53238,-10.96881],[-41.53348,-10.96762],[-41.5353,-10.96749],[-41.53889,-10.96809],[-41.53983,-10.96788],[-41.54038,-10.9662],[-41.54028,-10.96488],[-41.53892,-10.96379],[-41.53959,-10.96267],[-41.54092,-10.9628],[-41.54195,-10.96231],[-41.54223,-10.96151],[-41.54249,-10.95845],[-41.54352,-10.95733],[-41.54544,-10.95717],[-41.54596,-10.95683],[-41.54644,-10.95551],[-41.54753,-10.95528],[-41.54912,-10.95643],[-41.55265,-10.95607],[-41.55325,-10.95515],[-41.5532,-10.95283],[-41.55391,-10.95149],[-41.55536,-10.95031],[-41.55544,-10.94878],[-41.55616,-10.94774],[-41.55792,-10.94698],[-41.5588,-10.9463],[-41.55915,-10.94539],[-41.55892,-10.94347],[-41.55963,-10.9425],[-41.56089,-10.94196],[-41.56154,-10.94081],[-41.56136,-10.93973],[-41.56063,-10.93888],[-41.56062,-10.93809],[-41.56212,-10.93718],[-41.56228,-10.93601],[-41.561,-10.93421],[-41.56092,-10.9333],[-41.56198,-10.93139],[-41.56285,-10.92685],[-41.56263,-10.92352],[-41.56262,-10.92063],[-41.56296,-10.91965],[-41.56402,-10.91859],[-41.56511,-10.91706],[-41.56537,-10.91536],[-41.56626,-10.91448],[-41.56653,-10.91338],[-41.56546,-10.91077],[-41.56575,-10.9098],[-41.56709,-10.90827],[-41.56717,-10.90544],[-41.56738,-10.90371],[-41.56989,-10.90189],[-41.57253,-10.90021],[-41.5732,-10.89911],[-41.57331,-10.89783],[-41.57427,-10.89691],[-41.57509,-10.89562],[-41.57658,-10.89503],[-41.57851,-10.89387],[-41.58042,-10.89388],[-41.58165,-10.89318],[-41.58405,-10.89063],[-41.58679,-10.88854],[-41.58802,-10.88683],[-41.58873,-10.88501],[-41.58918,-10.88454],[-41.59144,-10.88375],[-41.59345,-10.88415],[-41.59431,-10.88376],[-41.59727,-10.88004],[-41.5984,-10.87936],[-41.60023,-10.87894],[-41.60208,-10.87827],[-41.60547,-10.87744],[-41.60764,-10.87638],[-41.60946,-10.87497],[-41.61088,-10.87306],[-41.61155,-10.87252],[-41.61401,-10.87129],[-41.61512,-10.87048],[-41.6178,-10.86978],[-41.61943,-10.86883],[-41.62212,-10.86763],[-41.62262,-10.8668],[-41.6234,-10.8645],[-41.62465,-10.86342],[-41.62764,-10.86252],[-41.63179,-10.86054],[-41.63336,-10.85881],[-41.63648,-10.8579],[-41.64074,-10.85645],[-41.64141,-10.8556],[-41.64229,-10.85285],[-41.64307,-10.85228],[-41.64469,-10.85254],[-41.64616,-10.85235],[-41.64697,-10.85166],[-41.64719,-10.8497],[-41.64707,-10.84752],[-41.64749,-10.8461],[-41.64927,-10.84439],[-41.65031,-10.84293],[-41.65434,-10.84012],[-41.65655,-10.83881],[-41.65737,-10.83801],[-41.65771,-10.83602],[-41.65545,-10.83478],[-41.65489,-10.83396],[-41.65505,-10.83121],[-41.65558,-10.82888],[-41.6557,-10.82588],[-41.65549,-10.82352],[-41.65666,-10.82042],[-41.65693,-10.81898],[-41.65779,-10.8172],[-41.65984,-10.8145],[-41.66094,-10.81243],[-41.66276,-10.8112],[-41.69737,-10.86325],[-41.69835,-10.89585],[-41.69449,-10.88912],[-41.69154,-10.88657],[-41.6868,-10.88221],[-41.68634,-10.88154],[-41.68439,-10.877],[-41.68096,-10.87399],[-41.67988,-10.87246],[-41.67839,-10.87151],[-41.67368,-10.87061],[-41.67185,-10.86918],[-41.66574,-10.87513],[-41.65758,-10.88353],[-41.65599,-10.88523],[-41.65473,-10.88555],[-41.65299,-10.88558],[-41.64487,-10.91261],[-41.64928,-10.91218],[-41.65171,-10.91262],[-41.65364,-10.91268],[-41.65606,-10.9116],[-41.65802,-10.91178],[-41.66217,-10.91296],[-41.66308,-10.91403],[-41.66328,-10.9155],[-41.66311,-10.91657],[-41.66366,-10.91736],[-41.66508,-10.91823],[-41.66803,-10.91914],[-41.67032,-10.9202],[-41.67331,-10.92207],[-41.67612,-10.92348],[-41.68003,-10.92568],[-41.6854,-10.92686],[-41.69036,-10.92844],[-41.69243,-10.92934],[-41.69483,-10.93069],[-41.69837,-10.9323],[-41.70672,-10.93505],[-41.71299,-10.93765],[-41.71531,-10.93799],[-41.7173,-10.93783],[-41.72042,-10.93687],[-41.72245,-10.93705],[-41.72431,-10.93762],[-41.72619,-10.9386],[-41.72963,-10.93943],[-41.73171,-10.94039],[-41.73349,-10.94095],[-41.73504,-10.94103],[-41.73849,-10.94088],[-41.73964,-10.94121],[-41.74201,-10.94121],[-41.74327,-10.94142],[-41.74463,-10.9421],[-41.74567,-10.94194],[-41.74717,-10.94097],[-41.74989,-10.94041],[-41.7531,-10.94003],[-41.78668,-10.98463],[-41.78275,-10.98972],[-41.72377,-11.085],[-41.6666,-11.17676],[-41.66216,-11.17482],[-41.64797,-11.16844],[-41.64648,-11.16589],[-41.64659,-11.16458],[-41.64711,-11.16252],[-41.64665,-11.16089],[-41.64683,-11.15957],[-41.64562,-11.15757],[-41.64556,-11.15643],[-41.64481,-11.15406],[-41.64418,-11.15093],[-41.64338,-11.14909],[-41.6425,-11.14817],[-41.64117,-11.14763],[-41.63963,-11.14637],[-41.63645,-11.14317],[-41.63318,-11.13963],[-41.62837,-11.14278],[-41.62209,-11.1442],[-41.6199,-11.14458],[-41.61537,-11.14495],[-41.61458,-11.14533],[-41.61278,-11.14493],[-41.60689,-11.14507],[-41.6059,-11.14308],[-41.60386,-11.14188],[-41.60003,-11.13864],[-41.59909,-11.13765],[-41.59421,-11.13136],[-41.59401,-11.13072],[-41.5955,-11.12914],[-41.59596,-11.12829],[-41.59751,-11.12223],[-41.58628,-11.11596],[-41.57032,-11.10591],[-41.56635,-11.09724],[-41.5654,-11.09674],[-41.52549,-11.09197],[-41.50392,-11.06638],[-41.49775,-11.0585],[-41.43496,-11.00661]]]},"properties":{"codigo":"292925515","name":"Gameleira do Jacaré","population":4848,"households":2359,"areaKm2":685.0187,"density":7.1}}]}