{"type":"FeatureCollection","features":[{"type":"Feature","geometry":{"type":"Polygon","coordinates":[[[-38.5324,-12.34286],[-38.53495,-12.3414],[-38.55333,-12.34803],[-38.6183,-12.37146],[-38.64177,-12.37992],[-38.65291,-12.40924],[-38.65327,-12.40968],[-38.60413,-12.44053],[-38.60255,-12.43774],[-38.60029,-12.43626],[-38.59965,-12.43673],[-38.60079,-12.43778],[-38.60177,-12.43938],[-38.60172,-12.4425],[-38.6009,-12.44347],[-38.58243,-12.45414],[-38.58037,-12.45151],[-38.5622,-12.42247],[-38.55955,-12.42267],[-38.55901,-12.42211],[-38.55686,-12.4221],[-38.55501,-12.42094],[-38.55334,-12.41957],[-38.55397,-12.41883],[-38.55298,-12.4183],[-38.55216,-12.41729],[-38.5515,-12.41736],[-38.54978,-12.41838],[-38.54921,-12.41768],[-38.54751,-12.41714],[-38.54761,-12.41523],[-38.54661,-12.41423],[-38.54531,-12.41384],[-38.54411,-12.41472],[-38.54224,-12.41297],[-38.5406,-12.41173],[-38.54003,-12.41345],[-38.53999,-12.41729],[-38.54032,-12.41862],[-38.53897,-12.41991],[-38.53836,-12.4213],[-38.536,-12.42148],[-38.53415,-12.42086],[-38.53428,-12.42009],[-38.53297,-12.41968],[-38.53229,-12.41856],[-38.52896,-12.41684],[-38.52634,-12.41705],[-38.52583,-12.4157],[-38.52631,-12.41493],[-38.52794,-12.41391],[-38.52854,-12.41299],[-38.53046,-12.4111],[-38.53028,-12.41066],[-38.53241,-12.40888],[-38.53401,-12.40932],[-38.53499,-12.40879],[-38.53523,-12.40559],[-38.5341,-12.40477],[-38.53427,-12.40326],[-38.53495,-12.40254],[-38.53564,-12.4027],[-38.53686,-12.40217],[-38.53698,-12.40153],[-38.53642,-12.40023],[-38.53777,-12.39679],[-38.53885,-12.39578],[-38.53873,-12.39355],[-38.53895,-12.39203],[-38.53749,-12.39041],[-38.53786,-12.38998],[-38.53782,-12.38783],[-38.5383,-12.38648],[-38.53726,-12.38561],[-38.5374,-12.38393],[-38.53653,-12.38275],[-38.5382,-12.37868],[-38.5371,-12.3781],[-38.53679,-12.37697],[-38.53598,-12.37549],[-38.53794,-12.37461],[-38.53741,-12.37268],[-38.5379,-12.37165],[-38.53616,-12.36931],[-38.53667,-12.36784],[-38.53554,-12.36692],[-38.53621,-12.36521],[-38.53632,-12.36303],[-38.53448,-12.36271],[-38.53297,-12.35997],[-38.53171,-12.35895],[-38.53069,-12.35722],[-38.53083,-12.35577],[-38.53015,-12.35494],[-38.53022,-12.35409],[-38.5309,-12.35285],[-38.53016,-12.35219],[-38.53103,-12.35125],[-38.53128,-12.3504],[-38.53001,-12.3488],[-38.52974,-12.34783],[-38.52994,-12.34671],[-38.52935,-12.34518],[-38.52913,-12.3437],[-38.52938,-12.34246],[-38.53005,-12.34216],[-38.53115,-12.34285],[-38.5324,-12.34286]]]},"properties":{"codigo":"293170705","name":"Terra Nova","population":8674,"households":4202,"areaKm2":94.4808,"density":91.8}},{"type":"Feature","geometry":{"type":"Polygon","coordinates":[[[-38.65629,-12.37311],[-38.63987,-12.37361],[-38.64089,-12.37442],[-38.64218,-12.37462],[-38.64381,-12.37644],[-38.64368,-12.37779],[-38.64269,-12.37931],[-38.64177,-12.37992],[-38.6183,-12.37146],[-38.55333,-12.34803],[-38.53495,-12.3414],[-38.53702,-12.33986],[-38.53884,-12.34038],[-38.54031,-12.33964],[-38.54145,-12.33754],[-38.54387,-12.33795],[-38.54516,-12.3378],[-38.54642,-12.3382],[-38.54701,-12.33767],[-38.54983,-12.33786],[-38.55231,-12.33758],[-38.55557,-12.33628],[-38.55746,-12.33525],[-38.55782,-12.33375],[-38.55879,-12.33357],[-38.56029,-12.33193],[-38.5615,-12.33225],[-38.56262,-12.33196],[-38.56328,-12.33133],[-38.56484,-12.32881],[-38.56499,-12.32798],[-38.56459,-12.32646],[-38.56532,-12.32391],[-38.56592,-12.32351],[-38.56639,-12.32095],[-38.56848,-12.32013],[-38.56931,-12.31862],[-38.56923,-12.31679],[-38.56842,-12.31469],[-38.5686,-12.31346],[-38.56921,-12.31175],[-38.56911,-12.30906],[-38.56859,-12.30833],[-38.57033,-12.30792],[-38.57099,-12.30828],[-38.57449,-12.31168],[-38.5796,-12.3142],[-38.58004,-12.31428],[-38.58607,-12.31273],[-38.5887,-12.31248],[-38.58964,-12.31279],[-38.595,-12.31591],[-38.5983,-12.31773],[-38.59976,-12.32025],[-38.60141,-12.32419],[-38.60295,-12.32389],[-38.60462,-12.32397],[-38.60675,-12.32305],[-38.6073,-12.32223],[-38.60871,-12.32127],[-38.61017,-12.32137],[-38.61094,-12.3222],[-38.61405,-12.32191],[-38.61461,-12.32162],[-38.61721,-12.31911],[-38.61949,-12.31884],[-38.62112,-12.3194],[-38.62323,-12.32097],[-38.62336,-12.32229],[-38.62428,-12.32307],[-38.62439,-12.32414],[-38.62628,-12.32651],[-38.62648,-12.32782],[-38.62791,-12.32892],[-38.62916,-12.33023],[-38.62933,-12.33106],[-38.62833,-12.33179],[-38.62786,-12.33317],[-38.62779,-12.33503],[-38.62948,-12.33586],[-38.62976,-12.33738],[-38.62961,-12.33824],[-38.63024,-12.33904],[-38.63212,-12.33936],[-38.6324,-12.34033],[-38.63363,-12.3417],[-38.63454,-12.3415],[-38.6362,-12.34187],[-38.63724,-12.34255],[-38.637,-12.34512],[-38.63728,-12.34631],[-38.63924,-12.34814],[-38.6401,-12.34846],[-38.64042,-12.35087],[-38.63978,-12.35302],[-38.64047,-12.35617],[-38.64101,-12.35681],[-38.6417,-12.35896],[-38.64228,-12.36],[-38.64227,-12.36123],[-38.64378,-12.3589],[-38.64445,-12.35956],[-38.64919,-12.35892],[-38.65014,-12.35933],[-38.65109,-12.36033],[-38.65278,-12.3613],[-38.65388,-12.36108],[-38.65501,-12.36132],[-38.65713,-12.36133],[-38.65725,-12.36212],[-38.65808,-12.36289],[-38.65747,-12.36465],[-38.65667,-12.36547],[-38.65647,-12.36629],[-38.65533,-12.3676],[-38.65547,-12.36933],[-38.65619,-12.37005],[-38.65629,-12.37311]]]},"properties":{"codigo":"293170710","name":"Jacu","population":1012,"households":574,"areaKm2":46.4945,"density":21.8}},{"type":"Feature","geometry":{"type":"Polygon","coordinates":[[[-38.66484,-12.44117],[-38.66485,-12.44359],[-38.66385,-12.44424],[-38.66163,-12.44411],[-38.66058,-12.44453],[-38.65996,-12.44652],[-38.65803,-12.44796],[-38.65812,-12.44883],[-38.65765,-12.44992],[-38.65677,-12.44994],[-38.65631,-12.45096],[-38.65482,-12.45193],[-38.65476,-12.45329],[-38.65368,-12.45399],[-38.65302,-12.45501],[-38.65161,-12.45591],[-38.65077,-12.45908],[-38.65146,-12.4598],[-38.65074,-12.46159],[-38.64963,-12.46231],[-38.6474,-12.46281],[-38.64516,-12.46472],[-38.64362,-12.46517],[-38.64209,-12.4662],[-38.64098,-12.46741],[-38.63985,-12.46925],[-38.63975,-12.47167],[-38.6384,-12.47332],[-38.6379,-12.47477],[-38.63795,-12.47676],[-38.6361,-12.47844],[-38.63505,-12.47855],[-38.63467,-12.47991],[-38.6335,-12.4801],[-38.6327,-12.48101],[-38.62983,-12.48163],[-38.62927,-12.48318],[-38.62723,-12.48386],[-38.62664,-12.48494],[-38.62551,-12.48568],[-38.62513,-12.4869],[-38.62397,-12.48762],[-38.62368,-12.48846],[-38.62251,-12.49008],[-38.62212,-12.49126],[-38.62127,-12.49189],[-38.61947,-12.49196],[-38.61791,-12.49308],[-38.61577,-12.4938],[-38.6146,-12.49345],[-38.61299,-12.49357],[-38.61203,-12.49481],[-38.61151,-12.49679],[-38.59302,-12.46769],[-38.58243,-12.45414],[-38.6009,-12.44347],[-38.60172,-12.4425],[-38.60177,-12.43938],[-38.60079,-12.43778],[-38.59965,-12.43673],[-38.60029,-12.43626],[-38.60255,-12.43774],[-38.60413,-12.44053],[-38.65327,-12.40968],[-38.65291,-12.40924],[-38.64177,-12.37992],[-38.64269,-12.37931],[-38.64368,-12.37779],[-38.64381,-12.37644],[-38.64218,-12.37462],[-38.64089,-12.37442],[-38.63987,-12.37361],[-38.65629,-12.37311],[-38.65637,-12.37705],[-38.65707,-12.37949],[-38.65694,-12.38107],[-38.65588,-12.38408],[-38.6543,-12.38566],[-38.6545,-12.38899],[-38.65416,-12.38942],[-38.6708,-12.40238],[-38.67079,-12.40366],[-38.67024,-12.40518],[-38.67128,-12.40635],[-38.67243,-12.4072],[-38.6739,-12.41054],[-38.67647,-12.41386],[-38.67589,-12.41637],[-38.67584,-12.41861],[-38.67645,-12.42043],[-38.67542,-12.42221],[-38.67398,-12.42235],[-38.67238,-12.42393],[-38.6716,-12.42426],[-38.6706,-12.42394],[-38.66886,-12.42557],[-38.66853,-12.4269],[-38.66718,-12.42966],[-38.6671,-12.43099],[-38.66573,-12.43357],[-38.66477,-12.43463],[-38.66471,-12.43656],[-38.66522,-12.43806],[-38.6647,-12.44056],[-38.66484,-12.44117]]]},"properties":{"codigo":"293170715","name":"Rio Fundo","population":1112,"households":534,"areaKm2":52.2658,"density":21.3}}]}