{"type":"FeatureCollection","features":[{"type":"Feature","geometry":{"type":"Polygon","coordinates":[[[-41.23336,-18.10006],[-41.23238,-18.10148],[-41.23152,-18.10585],[-41.23091,-18.10713],[-41.22998,-18.10794],[-41.22849,-18.10869],[-41.22362,-18.10979],[-41.22088,-18.11096],[-41.21848,-18.11262],[-41.21628,-18.11505],[-41.21545,-18.11562],[-41.21389,-18.11607],[-41.21203,-18.11569],[-41.2108,-18.11487],[-41.20917,-18.11336],[-41.20653,-18.11169],[-41.20495,-18.1111],[-41.20377,-18.11104],[-41.20221,-18.11147],[-41.20099,-18.11267],[-41.1998,-18.11451],[-41.19902,-18.11518],[-41.19523,-18.11674],[-41.19409,-18.11743],[-41.19318,-18.11865],[-41.19283,-18.12027],[-41.19329,-18.1213],[-41.19451,-18.12298],[-41.19425,-18.12418],[-41.19314,-18.12494],[-41.19108,-18.12568],[-41.18426,-18.12765],[-41.18176,-18.12879],[-41.17696,-18.13164],[-41.17595,-18.13189],[-41.17256,-18.13222],[-41.16952,-18.13185],[-41.16745,-18.13206],[-41.16623,-18.13257],[-41.16548,-18.13335],[-41.16372,-18.13641],[-41.16252,-18.13943],[-41.1612,-18.14174],[-41.15915,-18.14372],[-41.15696,-18.14393],[-41.15414,-18.14501],[-41.15258,-18.1461],[-41.15169,-18.14734],[-41.15002,-18.15208],[-41.14906,-18.15397],[-41.14672,-18.15591],[-41.13993,-18.15724],[-41.13792,-18.15795],[-41.13277,-18.16223],[-41.13118,-18.16266],[-41.12921,-18.16275],[-41.12793,-18.1625],[-41.12501,-18.16263],[-41.1241,-18.163],[-41.12234,-18.1649],[-41.12201,-18.16618],[-41.12245,-18.16854],[-41.12139,-18.17039],[-41.11961,-18.17061],[-41.11788,-18.16987],[-41.1159,-18.16982],[-41.11566,-18.17091],[-41.11628,-18.17271],[-41.11756,-18.17568],[-41.11846,-18.17704],[-41.11995,-18.17872],[-41.12323,-18.18164],[-41.12454,-18.18313],[-41.12375,-18.18428],[-41.12144,-18.18472],[-41.11988,-18.18572],[-41.11814,-18.18885],[-41.1161,-18.18929],[-41.11298,-18.18866],[-41.11021,-18.18907],[-41.10723,-18.1904],[-41.10505,-18.19202],[-41.10273,-18.19265],[-41.09962,-18.19274],[-41.09622,-18.19357],[-41.09496,-18.19435],[-41.09351,-18.19569],[-41.09284,-18.19634],[-41.09273,-18.1954],[-41.08931,-18.19312],[-41.08478,-18.19152],[-41.07272,-18.18433],[-41.07161,-18.18404],[-41.07078,-18.1846],[-41.06781,-18.1815],[-41.06655,-18.18091],[-41.06565,-18.18148],[-41.06348,-18.18176],[-41.06269,-18.18208],[-41.05908,-18.17919],[-41.05818,-18.17937],[-41.05645,-18.17884],[-41.05589,-18.1773],[-41.05487,-18.17663],[-41.05344,-18.17267],[-41.0537,-18.16988],[-41.0561,-18.16759],[-41.05471,-18.167],[-41.05193,-18.16511],[-41.04907,-18.16553],[-41.04626,-18.16432],[-41.04437,-18.16473],[-41.0395,-18.16451],[-41.03628,-18.16285],[-41.03533,-18.1628],[-41.03419,-18.16353],[-41.03467,-18.16442],[-41.0372,-18.16636],[-41.03814,-18.17109],[-41.0372,-18.17223],[-41.03381,-18.17211],[-41.03234,-18.16969],[-41.03225,-18.16682],[-41.03138,-18.16564],[-41.03078,-18.16351],[-41.02901,-18.16115],[-41.0291,-18.1586],[-41.0281,-18.15767],[-41.02286,-18.15853],[-41.01895,-18.15849],[-41.01634,-18.15756],[-41.01459,-18.15758],[-41.01431,-18.15841],[-41.01461,-18.16134],[-41.01126,-18.16606],[-41.01059,-18.1674],[-41.01009,-18.16763],[-41.00556,-18.1676],[-41.00454,-18.16569],[-41.0001,-18.16648],[-40.99322,-18.16623],[-40.99131,-18.16737],[-40.99092,-18.1701],[-40.98948,-18.17065],[-40.98839,-18.1698],[-40.98758,-18.16716],[-40.98739,-18.16485],[-40.98671,-18.16242],[-40.98689,-18.16044],[-40.98926,-18.15591],[-40.98881,-18.15294],[-40.98688,-18.1493],[-40.98703,-18.14677],[-40.98484,-18.14562],[-40.98091,-18.14467],[-40.98072,-18.1419],[-40.98032,-18.14136],[-40.97783,-18.14108],[-40.97419,-18.1421],[-40.97292,-18.14368],[-40.97072,-18.1449],[-40.96752,-18.14521],[-40.96588,-18.14705],[-40.96367,-18.15251],[-40.96217,-18.15417],[-40.95662,-18.15475],[-40.95454,-18.15449],[-40.95372,-18.15058],[-40.95307,-18.14944],[-40.94886,-18.1457],[-40.94892,-18.14407],[-40.95155,-18.14245],[-40.95125,-18.13852],[-40.95161,-18.13409],[-40.95,-18.12929],[-40.94911,-18.12864],[-40.9449,-18.12967],[-40.94405,-18.13036],[-40.94155,-18.13565],[-40.94051,-18.13645],[-40.93664,-18.13616],[-40.93221,-18.13648],[-40.92891,-18.13464],[-40.92703,-18.13298],[-40.92547,-18.12812],[-40.92477,-18.12713],[-40.9173,-18.12074],[-40.91369,-18.11833],[-40.90928,-18.11483],[-40.90854,-18.11464],[-40.90593,-18.11584],[-40.90455,-18.11593],[-40.90425,-18.11458],[-40.90483,-18.11301],[-40.90487,-18.11117],[-40.90423,-18.11018],[-40.90296,-18.11008],[-40.89971,-18.11228],[-40.899,-18.11251],[-40.89531,-18.10865],[-40.89311,-18.10788],[-40.89171,-18.10893],[-40.89138,-18.11001],[-40.89154,-18.11273],[-40.89268,-18.11461],[-40.89321,-18.11764],[-40.89391,-18.11889],[-40.89304,-18.11965],[-40.89009,-18.12093],[-40.88959,-18.12173],[-40.88901,-18.12402],[-40.88725,-18.1242],[-40.88399,-18.1232],[-40.88069,-18.12414],[-40.87947,-18.12296],[-40.8785,-18.11997],[-40.87756,-18.11943],[-40.87677,-18.11999],[-40.87546,-18.12295],[-40.87404,-18.12392],[-40.87262,-18.12401],[-40.87013,-18.12702],[-40.86643,-18.12992],[-40.86452,-18.13381],[-40.86418,-18.13719],[-40.8633,-18.13913],[-40.86238,-18.13986],[-40.86063,-18.14038],[-40.85709,-18.13947],[-40.85603,-18.13982],[-40.85533,-18.14062],[-40.85475,-18.14273],[-40.85331,-18.14407],[-40.85227,-18.14624],[-40.84954,-18.14675],[-40.84508,-18.14981],[-40.84424,-18.14931],[-40.84479,-18.14794],[-40.8439,-18.14657],[-40.84158,-18.14762],[-40.84011,-18.14729],[-40.83788,-18.14754],[-40.83663,-18.14861],[-40.83314,-18.15094],[-40.8325,-18.15115],[-40.82925,-18.15074],[-40.82419,-18.14929],[-40.8143,-18.15165],[-40.80522,-18.15297],[-40.8033,-18.15374],[-40.80028,-18.15537],[-40.79474,-18.16005],[-40.79371,-18.16015],[-40.78646,-18.15853],[-40.78317,-18.15709],[-40.77639,-18.15857],[-40.77541,-18.1584],[-40.7715,-18.15594],[-40.77097,-18.15381],[-40.77103,-18.14633],[-40.77138,-18.14543],[-40.77289,-18.14412],[-40.77207,-18.14086],[-40.77221,-18.13886],[-40.77106,-18.13729],[-40.77023,-18.13528],[-40.77251,-18.12885],[-40.77279,-18.11461],[-40.77353,-18.10922],[-40.7733,-18.10756],[-40.88699,-18.00064],[-40.90282,-17.98771],[-40.90244,-17.98621],[-40.90482,-17.98522],[-40.90632,-17.98556],[-40.9085,-17.98767],[-40.91007,-17.98797],[-40.91262,-17.98756],[-40.91371,-17.98641],[-40.91538,-17.98255],[-40.91649,-17.98143],[-40.91933,-17.97986],[-40.92158,-17.97756],[-40.92165,-17.97609],[-40.92056,-17.97308],[-40.9199,-17.96825],[-40.91885,-17.96651],[-40.92167,-17.96213],[-40.92407,-17.96027],[-40.92559,-17.96034],[-40.92861,-17.96197],[-40.93032,-17.9619],[-40.93221,-17.96099],[-40.9338,-17.96097],[-40.93597,-17.96139],[-40.93727,-17.96227],[-40.93903,-17.96508],[-40.94159,-17.96561],[-40.94285,-17.96622],[-40.943,-17.96783],[-40.94482,-17.96941],[-40.94663,-17.96994],[-40.94755,-17.96983],[-40.94915,-17.96671],[-40.95173,-17.96395],[-40.95387,-17.96239],[-40.95883,-17.9591],[-40.96138,-17.95791],[-40.9632,-17.95587],[-40.966,-17.95172],[-40.96681,-17.95115],[-40.96864,-17.95124],[-40.96933,-17.95194],[-40.97173,-17.95315],[-40.97361,-17.95307],[-40.97569,-17.95361],[-40.97715,-17.95523],[-40.97917,-17.95522],[-40.98217,-17.95457],[-40.98324,-17.95487],[-40.98638,-17.9583],[-40.98687,-17.95855],[-40.9885,-17.95822],[-40.99022,-17.95699],[-40.99127,-17.95684],[-40.99545,-17.9573],[-40.99663,-17.95721],[-40.99828,-17.95663],[-41.00097,-17.95302],[-41.00191,-17.95267],[-41.00271,-17.95134],[-41.00369,-17.95075],[-41.00627,-17.95031],[-41.00871,-17.95093],[-41.01023,-17.95239],[-41.01082,-17.95393],[-41.01099,-17.95543],[-41.01268,-17.95784],[-41.01286,-17.95901],[-41.01142,-17.96369],[-41.01028,-17.96495],[-41.00895,-17.967],[-41.00808,-17.96897],[-41.00839,-17.97105],[-41.00942,-17.97228],[-41.01046,-17.97241],[-41.01138,-17.97305],[-41.01222,-17.97433],[-41.013,-17.9749],[-41.01471,-17.97511],[-41.01852,-17.97669],[-41.02016,-17.97651],[-41.02048,-17.97547],[-41.02043,-17.97126],[-41.02214,-17.9688],[-41.02394,-17.96774],[-41.02613,-17.96751],[-41.02816,-17.96786],[-41.02924,-17.96935],[-41.029,-17.97127],[-41.02931,-17.97484],[-41.02999,-17.97767],[-41.03179,-17.97876],[-41.03282,-17.97991],[-41.03278,-17.98092],[-41.03152,-17.98449],[-41.03173,-17.98581],[-41.03275,-17.9866],[-41.03474,-17.98757],[-41.03677,-17.98998],[-41.03922,-17.99111],[-41.04354,-17.99124],[-41.04632,-17.99177],[-41.04836,-17.99232],[-41.05013,-17.99533],[-41.0507,-17.99862],[-41.05068,-18.00121],[-41.05045,-18.00378],[-41.051,-18.00525],[-41.05369,-18.00471],[-41.05464,-18.00348],[-41.05722,-18.00317],[-41.05904,-18.00204],[-41.06062,-17.99916],[-41.06226,-17.99857],[-41.0632,-17.9986],[-41.06482,-17.99928],[-41.06588,-18.00084],[-41.06586,-18.00301],[-41.06497,-18.00549],[-41.06506,-18.00676],[-41.06651,-18.00697],[-41.06768,-18.00592],[-41.06965,-18.00539],[-41.07107,-18.00459],[-41.07309,-18.00418],[-41.07383,-18.00354],[-41.07463,-18.0022],[-41.07502,-18.00007],[-41.07599,-17.99865],[-41.0769,-17.99825],[-41.07852,-17.99848],[-41.08017,-17.99953],[-41.08353,-17.99963],[-41.08537,-17.99783],[-41.08572,-17.9954],[-41.08572,-17.99288],[-41.08683,-17.98904],[-41.08766,-17.98573],[-41.08775,-17.98316],[-41.08899,-17.98029],[-41.09152,-17.97945],[-41.09607,-17.97894],[-41.09809,-17.9782],[-41.10062,-17.976],[-41.1019,-17.97421],[-41.10252,-17.97206],[-41.10262,-17.96795],[-41.10311,-17.9663],[-41.10284,-17.96416],[-41.10339,-17.95999],[-41.10275,-17.95718],[-41.10162,-17.95484],[-41.10151,-17.95383],[-41.1019,-17.95228],[-41.10349,-17.9505],[-41.10534,-17.94963],[-41.10701,-17.94827],[-41.10929,-17.94695],[-41.11279,-17.94564],[-41.11487,-17.94606],[-41.11534,-17.94647],[-41.11653,-17.94918],[-41.11797,-17.95057],[-41.12003,-17.95314],[-41.1209,-17.95373],[-41.12311,-17.9546],[-41.12574,-17.9546],[-41.12744,-17.95398],[-41.12908,-17.95368],[-41.13053,-17.9517],[-41.13092,-17.95057],[-41.13174,-17.94996],[-41.13315,-17.94966],[-41.13704,-17.95138],[-41.13855,-17.95122],[-41.1412,-17.95034],[-41.142,-17.94943],[-41.14225,-17.94774],[-41.14169,-17.94537],[-41.14235,-17.94448],[-41.14403,-17.9434],[-41.14711,-17.94297],[-41.14929,-17.94357],[-41.15121,-17.94457],[-41.15259,-17.94501],[-41.15344,-17.94563],[-41.15635,-17.94707],[-41.15849,-17.94855],[-41.15955,-17.94835],[-41.16125,-17.94688],[-41.16355,-17.94616],[-41.16765,-17.94595],[-41.17145,-17.94681],[-41.17427,-17.94696],[-41.17564,-17.94641],[-41.17717,-17.94501],[-41.17909,-17.94434],[-41.1819,-17.94514],[-41.18337,-17.94482],[-41.18462,-17.94312],[-41.18525,-17.94088],[-41.18511,-17.93986],[-41.1839,-17.93752],[-41.18113,-17.93568],[-41.18351,-17.93302],[-41.18535,-17.92991],[-41.18681,-17.92924],[-41.19051,-17.92989],[-41.19298,-17.93063],[-41.1964,-17.93054],[-41.19777,-17.93002],[-41.19884,-17.93019],[-41.20013,-17.93117],[-41.20104,-17.93287],[-41.2016,-17.93325],[-41.20321,-17.93296],[-41.20554,-17.9318],[-41.2065,-17.93162],[-41.20858,-17.93195],[-41.21079,-17.93125],[-41.21209,-17.93119],[-41.21552,-17.9318],[-41.21805,-17.93345],[-41.22003,-17.93514],[-41.22204,-17.93779],[-41.22333,-17.93866],[-41.22507,-17.93942],[-41.22696,-17.93995],[-41.22901,-17.94136],[-41.23031,-17.94308],[-41.23236,-17.94691],[-41.23324,-17.94787],[-41.23759,-17.94876],[-41.24011,-17.94906],[-41.24346,-17.94892],[-41.24505,-17.94916],[-41.24692,-17.94992],[-41.24896,-17.95135],[-41.25048,-17.9529],[-41.25207,-17.95419],[-41.24982,-17.95612],[-41.24914,-17.95747],[-41.24896,-17.95856],[-41.24995,-17.9606],[-41.25043,-17.96207],[-41.25243,-17.96606],[-41.2531,-17.96709],[-41.25373,-17.96903],[-41.25361,-17.97104],[-41.25572,-17.97415],[-41.25642,-17.97569],[-41.25655,-17.97807],[-41.25616,-17.98324],[-41.25563,-17.98526],[-41.2555,-17.98694],[-41.25574,-17.9886],[-41.25683,-17.99035],[-41.25665,-17.99339],[-41.25493,-17.99632],[-41.25419,-17.99712],[-41.25353,-17.99849],[-41.25351,-18.0004],[-41.25394,-18.00113],[-41.2556,-18.00208],[-41.25844,-18.00303],[-41.2602,-18.00404],[-41.26264,-18.00687],[-41.26371,-18.00843],[-41.26319,-18.0114],[-41.26203,-18.01244],[-41.26019,-18.01306],[-41.25816,-18.01559],[-41.25674,-18.01659],[-41.25518,-18.01935],[-41.25522,-18.02099],[-41.25558,-18.02185],[-41.25521,-18.02329],[-41.25379,-18.02554],[-41.25044,-18.02833],[-41.24772,-18.02835],[-41.24393,-18.0268],[-41.24235,-18.02643],[-41.24069,-18.02646],[-41.23759,-18.02859],[-41.23545,-18.03062],[-41.23198,-18.03439],[-41.23058,-18.03638],[-41.22989,-18.03842],[-41.23026,-18.04077],[-41.22981,-18.04267],[-41.22719,-18.04508],[-41.22589,-18.04605],[-41.22459,-18.0477],[-41.22334,-18.04879],[-41.22056,-18.05058],[-41.21921,-18.05229],[-41.21935,-18.05324],[-41.22192,-18.05668],[-41.22207,-18.0576],[-41.22367,-18.06205],[-41.22472,-18.06417],[-41.22574,-18.06555],[-41.22754,-18.06911],[-41.22735,-18.07013],[-41.22533,-18.07393],[-41.2244,-18.07439],[-41.22279,-18.07463],[-41.22001,-18.07424],[-41.21752,-18.07471],[-41.21675,-18.07595],[-41.21695,-18.07703],[-41.22015,-18.08149],[-41.22199,-18.0838],[-41.22318,-18.085],[-41.22531,-18.08665],[-41.22634,-18.087],[-41.22939,-18.08856],[-41.23134,-18.08858],[-41.23224,-18.08815],[-41.23331,-18.08824],[-41.23413,-18.08946],[-41.23465,-18.0918],[-41.23454,-18.09319],[-41.23395,-18.09456],[-41.23148,-18.09794],[-41.23236,-18.09921],[-41.23336,-18.10006]]]},"properties":{"codigo":"310470005","name":"Ataléia","population":8206,"households":3870,"areaKm2":892.2987,"density":9.2}},{"type":"Feature","geometry":{"type":"Polygon","coordinates":[[[-41.23336,-18.10006],[-41.23547,-18.10107],[-41.23759,-18.10114],[-41.23997,-18.1009],[-41.243,-18.0997],[-41.24441,-18.09934],[-41.24717,-18.09902],[-41.24999,-18.09711],[-41.25103,-18.09702],[-41.25179,-18.0976],[-41.25239,-18.09947],[-41.25276,-18.10154],[-41.25424,-18.10374],[-41.25657,-18.10553],[-41.25752,-18.10599],[-41.25951,-18.10643],[-41.26067,-18.10746],[-41.2614,-18.10869],[-41.26249,-18.10986],[-41.2631,-18.11003],[-41.26622,-18.10885],[-41.27185,-18.10828],[-41.27339,-18.10824],[-41.27446,-18.10859],[-41.27856,-18.11137],[-41.27968,-18.11178],[-41.28439,-18.11123],[-41.28687,-18.11041],[-41.28841,-18.11015],[-41.2905,-18.11109],[-41.29162,-18.11129],[-41.29359,-18.11221],[-41.29731,-18.11339],[-41.29856,-18.11435],[-41.29962,-18.11433],[-41.30047,-18.11246],[-41.30051,-18.11138],[-41.30126,-18.11039],[-41.30216,-18.11003],[-41.30423,-18.10982],[-41.30878,-18.10869],[-41.31012,-18.10816],[-41.31157,-18.10691],[-41.31243,-18.10773],[-41.31593,-18.11011],[-41.31869,-18.11177],[-41.32244,-18.11772],[-41.32319,-18.12009],[-41.32269,-18.122],[-41.32119,-18.12413],[-41.31794,-18.12509],[-41.31618,-18.12722],[-41.31468,-18.13031],[-41.31343,-18.13459],[-41.31243,-18.13744],[-41.31218,-18.14077],[-41.31218,-18.14362],[-41.31299,-18.14496],[-41.3132,-18.14598],[-41.31501,-18.14653],[-41.31654,-18.1467],[-41.31755,-18.14765],[-41.31785,-18.14993],[-41.31766,-18.1507],[-41.31929,-18.15348],[-41.32152,-18.1553],[-41.32777,-18.15712],[-41.32955,-18.15704],[-41.33134,-18.15645],[-41.33259,-18.15567],[-41.33405,-18.15572],[-41.33557,-18.15525],[-41.3381,-18.15624],[-41.33965,-18.1578],[-41.34273,-18.16055],[-41.34328,-18.16196],[-41.34465,-18.16317],[-41.34559,-18.16354],[-41.3456,-18.16476],[-41.34821,-18.16382],[-41.34928,-18.1638],[-41.35069,-18.16493],[-41.35119,-18.16576],[-41.35246,-18.16617],[-41.35568,-18.16544],[-41.35707,-18.16691],[-41.35952,-18.16741],[-41.36092,-18.16958],[-41.36166,-18.17029],[-41.36138,-18.17162],[-41.36198,-18.17206],[-41.36153,-18.1731],[-41.36169,-18.17427],[-41.36358,-18.17531],[-41.36493,-18.17579],[-41.36575,-18.17515],[-41.36814,-18.174],[-41.36888,-18.17444],[-41.3699,-18.17681],[-41.37264,-18.17704],[-41.37535,-18.178],[-41.37713,-18.17795],[-41.37912,-18.18107],[-41.37846,-18.18241],[-41.37847,-18.18356],[-41.37986,-18.18468],[-41.3814,-18.18627],[-41.38229,-18.18787],[-41.3835,-18.18927],[-41.3855,-18.1901],[-41.38847,-18.18997],[-41.39018,-18.19065],[-41.39113,-18.19178],[-41.39315,-18.19276],[-41.39398,-18.19377],[-41.39534,-18.19394],[-41.39561,-18.19568],[-41.39631,-18.19711],[-41.39797,-18.19836],[-41.39849,-18.19912],[-41.39851,-18.20026],[-41.39762,-18.2017],[-41.39758,-18.20266],[-41.39665,-18.20485],[-41.39829,-18.20655],[-41.39825,-18.20904],[-41.39683,-18.21112],[-41.39576,-18.21156],[-41.39481,-18.21257],[-41.39385,-18.21574],[-41.39379,-18.21712],[-41.39307,-18.21887],[-41.39141,-18.21932],[-41.39097,-18.22039],[-41.39002,-18.22111],[-41.38897,-18.22371],[-41.38766,-18.22511],[-41.38568,-18.22471],[-41.38303,-18.22554],[-41.38348,-18.22703],[-41.38334,-18.22767],[-41.38222,-18.22924],[-41.38023,-18.23017],[-41.37952,-18.23082],[-41.37989,-18.233],[-41.38156,-18.23339],[-41.38444,-18.23347],[-41.38221,-18.23625],[-41.38122,-18.23971],[-41.37912,-18.24414],[-41.37793,-18.24571],[-41.37696,-18.24617],[-41.37317,-18.2461],[-41.37185,-18.24648],[-41.36957,-18.24776],[-41.3693,-18.24924],[-41.36934,-18.25094],[-41.36903,-18.25201],[-41.36805,-18.2533],[-41.36731,-18.25521],[-41.36732,-18.25768],[-41.36706,-18.25939],[-41.36701,-18.26139],[-41.36623,-18.26286],[-41.36499,-18.26338],[-41.36547,-18.26496],[-41.36668,-18.26619],[-41.36699,-18.2678],[-41.3667,-18.26873],[-41.36557,-18.2697],[-41.36508,-18.27054],[-41.3636,-18.27191],[-41.3627,-18.27141],[-41.36079,-18.27154],[-41.35928,-18.27073],[-41.35824,-18.27179],[-41.35713,-18.27168],[-41.35657,-18.26973],[-41.35567,-18.26918],[-41.3542,-18.26926],[-41.35267,-18.26824],[-41.35192,-18.26876],[-41.35135,-18.2682],[-41.35168,-18.26732],[-41.34899,-18.26754],[-41.34763,-18.26822],[-41.3459,-18.26743],[-41.34498,-18.26628],[-41.34364,-18.26689],[-41.33849,-18.2681],[-41.33703,-18.26937],[-41.33639,-18.27181],[-41.33591,-18.27461],[-41.33532,-18.27598],[-41.33441,-18.27644],[-41.33335,-18.27622],[-41.33245,-18.27502],[-41.33061,-18.27478],[-41.32902,-18.27501],[-41.32797,-18.27545],[-41.32579,-18.27771],[-41.3247,-18.27942],[-41.32271,-18.28193],[-41.32097,-18.28449],[-41.32035,-18.28662],[-41.31902,-18.28909],[-41.31804,-18.29027],[-41.31524,-18.29409],[-41.31301,-18.2979],[-41.31056,-18.29467],[-41.30936,-18.29387],[-41.30766,-18.29324],[-41.30492,-18.29268],[-41.30188,-18.29282],[-41.29755,-18.29349],[-41.2941,-18.29237],[-41.29075,-18.2907],[-41.28866,-18.2901],[-41.28682,-18.28869],[-41.28597,-18.28751],[-41.28479,-18.28652],[-41.28108,-18.2858],[-41.27855,-18.28404],[-41.2764,-18.28303],[-41.27293,-18.28223],[-41.2716,-18.28212],[-41.26817,-18.2828],[-41.26528,-18.28289],[-41.26346,-18.28341],[-41.26223,-18.28342],[-41.26033,-18.28286],[-41.25997,-18.28087],[-41.26029,-18.27932],[-41.26312,-18.27775],[-41.26446,-18.27533],[-41.26387,-18.274],[-41.26395,-18.27306],[-41.26301,-18.27116],[-41.26249,-18.27083],[-41.25957,-18.26991],[-41.25611,-18.26849],[-41.25534,-18.26749],[-41.2558,-18.26543],[-41.25752,-18.26394],[-41.26012,-18.26291],[-41.26075,-18.26184],[-41.25904,-18.26105],[-41.25559,-18.25999],[-41.25311,-18.25825],[-41.25059,-18.257],[-41.24922,-18.25707],[-41.24743,-18.2587],[-41.2454,-18.25983],[-41.24396,-18.26088],[-41.24177,-18.26107],[-41.23927,-18.26345],[-41.23772,-18.26427],[-41.23654,-18.26437],[-41.23448,-18.26384],[-41.23229,-18.26287],[-41.23036,-18.26121],[-41.2296,-18.25971],[-41.2268,-18.25774],[-41.22485,-18.25597],[-41.22307,-18.25296],[-41.22178,-18.25046],[-41.22054,-18.25014],[-41.21896,-18.2508],[-41.21748,-18.25055],[-41.21628,-18.24975],[-41.21543,-18.24664],[-41.21456,-18.24449],[-41.21315,-18.24318],[-41.21192,-18.24284],[-41.2086,-18.24342],[-41.20757,-18.24384],[-41.20606,-18.24387],[-41.2038,-18.24443],[-41.20222,-18.24398],[-41.20058,-18.24291],[-41.19881,-18.2406],[-41.19737,-18.23794],[-41.19477,-18.23604],[-41.19331,-18.23455],[-41.19179,-18.23345],[-41.19074,-18.23308],[-41.18893,-18.2331],[-41.18692,-18.23361],[-41.18574,-18.23352],[-41.18328,-18.23288],[-41.18198,-18.23492],[-41.18092,-18.23478],[-41.17968,-18.23557],[-41.17917,-18.23537],[-41.17732,-18.23643],[-41.17722,-18.23523],[-41.17822,-18.2341],[-41.17837,-18.23313],[-41.17693,-18.23125],[-41.17527,-18.23071],[-41.1729,-18.23143],[-41.17176,-18.23125],[-41.17023,-18.23147],[-41.16989,-18.23235],[-41.16992,-18.23373],[-41.16873,-18.23454],[-41.16707,-18.23361],[-41.16485,-18.23341],[-41.16314,-18.23282],[-41.16211,-18.23303],[-41.16035,-18.23293],[-41.15954,-18.23233],[-41.15859,-18.22995],[-41.15713,-18.2286],[-41.15526,-18.22781],[-41.15325,-18.22776],[-41.1516,-18.2281],[-41.1495,-18.22799],[-41.14671,-18.22731],[-41.14266,-18.22549],[-41.14026,-18.22519],[-41.13808,-18.22455],[-41.13832,-18.22365],[-41.14006,-18.22264],[-41.14052,-18.22187],[-41.14003,-18.22045],[-41.1385,-18.21894],[-41.13739,-18.21714],[-41.13647,-18.21682],[-41.13551,-18.21716],[-41.13376,-18.21847],[-41.13229,-18.21756],[-41.13003,-18.21779],[-41.12887,-18.21768],[-41.12875,-18.21671],[-41.12976,-18.21556],[-41.12993,-18.21358],[-41.12974,-18.2118],[-41.13112,-18.21104],[-41.13173,-18.21017],[-41.13156,-18.20914],[-41.1285,-18.20831],[-41.12681,-18.2092],[-41.12577,-18.20809],[-41.12477,-18.20781],[-41.12278,-18.20825],[-41.12118,-18.20801],[-41.12053,-18.20899],[-41.11901,-18.20981],[-41.11818,-18.20936],[-41.11765,-18.20848],[-41.11526,-18.2074],[-41.11348,-18.20746],[-41.11128,-18.20716],[-41.10964,-18.20529],[-41.10935,-18.20428],[-41.10842,-18.20381],[-41.10459,-18.20394],[-41.10422,-18.20358],[-41.10508,-18.20108],[-41.10515,-18.19893],[-41.10453,-18.19821],[-41.10203,-18.19773],[-41.10047,-18.19707],[-41.09782,-18.19727],[-41.09686,-18.19612],[-41.09534,-18.19574],[-41.09351,-18.19569],[-41.09496,-18.19435],[-41.09622,-18.19357],[-41.09962,-18.19274],[-41.10273,-18.19265],[-41.10505,-18.19202],[-41.10723,-18.1904],[-41.11021,-18.18907],[-41.11298,-18.18866],[-41.1161,-18.18929],[-41.11814,-18.18885],[-41.11988,-18.18572],[-41.12144,-18.18472],[-41.12375,-18.18428],[-41.12454,-18.18313],[-41.12323,-18.18164],[-41.11995,-18.17872],[-41.11846,-18.17704],[-41.11756,-18.17568],[-41.11628,-18.17271],[-41.11566,-18.17091],[-41.1159,-18.16982],[-41.11788,-18.16987],[-41.11961,-18.17061],[-41.12139,-18.17039],[-41.12245,-18.16854],[-41.12201,-18.16618],[-41.12234,-18.1649],[-41.1241,-18.163],[-41.12501,-18.16263],[-41.12793,-18.1625],[-41.12921,-18.16275],[-41.13118,-18.16266],[-41.13277,-18.16223],[-41.13792,-18.15795],[-41.13993,-18.15724],[-41.14672,-18.15591],[-41.14906,-18.15397],[-41.15002,-18.15208],[-41.15169,-18.14734],[-41.15258,-18.1461],[-41.15414,-18.14501],[-41.15696,-18.14393],[-41.15915,-18.14372],[-41.1612,-18.14174],[-41.16252,-18.13943],[-41.16372,-18.13641],[-41.16548,-18.13335],[-41.16623,-18.13257],[-41.16745,-18.13206],[-41.16952,-18.13185],[-41.17256,-18.13222],[-41.17595,-18.13189],[-41.17696,-18.13164],[-41.18176,-18.12879],[-41.18426,-18.12765],[-41.19108,-18.12568],[-41.19314,-18.12494],[-41.19425,-18.12418],[-41.19451,-18.12298],[-41.19329,-18.1213],[-41.19283,-18.12027],[-41.19318,-18.11865],[-41.19409,-18.11743],[-41.19523,-18.11674],[-41.19902,-18.11518],[-41.1998,-18.11451],[-41.20099,-18.11267],[-41.20221,-18.11147],[-41.20377,-18.11104],[-41.20495,-18.1111],[-41.20653,-18.11169],[-41.20917,-18.11336],[-41.2108,-18.11487],[-41.21203,-18.11569],[-41.21389,-18.11607],[-41.21545,-18.11562],[-41.21628,-18.11505],[-41.21848,-18.11262],[-41.22088,-18.11096],[-41.22362,-18.10979],[-41.22849,-18.10869],[-41.22998,-18.10794],[-41.23091,-18.10713],[-41.23152,-18.10585],[-41.23238,-18.10148],[-41.23336,-18.10006]]]},"properties":{"codigo":"310470010","name":"Fidelândia","population":2642,"households":1267,"areaKm2":388.1489,"density":6.8}},{"type":"Feature","geometry":{"type":"Polygon","coordinates":[[[-41.09351,-18.19569],[-41.09534,-18.19574],[-41.09686,-18.19612],[-41.09782,-18.19727],[-41.10047,-18.19707],[-41.10203,-18.19773],[-41.10453,-18.19821],[-41.10515,-18.19893],[-41.10508,-18.20108],[-41.10422,-18.20358],[-41.10459,-18.20394],[-41.10842,-18.20381],[-41.10935,-18.20428],[-41.10964,-18.20529],[-41.11128,-18.20716],[-41.11348,-18.20746],[-41.11526,-18.2074],[-41.11765,-18.20848],[-41.11818,-18.20936],[-41.11901,-18.20981],[-41.12053,-18.20899],[-41.12118,-18.20801],[-41.12278,-18.20825],[-41.12477,-18.20781],[-41.12577,-18.20809],[-41.12681,-18.2092],[-41.1285,-18.20831],[-41.13156,-18.20914],[-41.13173,-18.21017],[-41.13112,-18.21104],[-41.12974,-18.2118],[-41.12993,-18.21358],[-41.12976,-18.21556],[-41.12875,-18.21671],[-41.12887,-18.21768],[-41.13003,-18.21779],[-41.13229,-18.21756],[-41.13376,-18.21847],[-41.13551,-18.21716],[-41.13647,-18.21682],[-41.13739,-18.21714],[-41.1385,-18.21894],[-41.14003,-18.22045],[-41.14052,-18.22187],[-41.14006,-18.22264],[-41.13832,-18.22365],[-41.13808,-18.22455],[-41.14026,-18.22519],[-41.14266,-18.22549],[-41.14671,-18.22731],[-41.1495,-18.22799],[-41.1516,-18.2281],[-41.15325,-18.22776],[-41.15526,-18.22781],[-41.15713,-18.2286],[-41.15859,-18.22995],[-41.15954,-18.23233],[-41.16035,-18.23293],[-41.16211,-18.23303],[-41.16314,-18.23282],[-41.16485,-18.23341],[-41.16707,-18.23361],[-41.16873,-18.23454],[-41.16992,-18.23373],[-41.16989,-18.23235],[-41.17023,-18.23147],[-41.17176,-18.23125],[-41.1729,-18.23143],[-41.17527,-18.23071],[-41.17693,-18.23125],[-41.17837,-18.23313],[-41.17822,-18.2341],[-41.17722,-18.23523],[-41.17732,-18.23643],[-41.17917,-18.23537],[-41.17968,-18.23557],[-41.18092,-18.23478],[-41.18198,-18.23492],[-41.18328,-18.23288],[-41.18574,-18.23352],[-41.18692,-18.23361],[-41.18893,-18.2331],[-41.19074,-18.23308],[-41.19179,-18.23345],[-41.19331,-18.23455],[-41.19477,-18.23604],[-41.19737,-18.23794],[-41.19881,-18.2406],[-41.20058,-18.24291],[-41.20222,-18.24398],[-41.2038,-18.24443],[-41.20606,-18.24387],[-41.20757,-18.24384],[-41.2086,-18.24342],[-41.21192,-18.24284],[-41.21315,-18.24318],[-41.21456,-18.24449],[-41.21543,-18.24664],[-41.21628,-18.24975],[-41.21748,-18.25055],[-41.21896,-18.2508],[-41.22054,-18.25014],[-41.22178,-18.25046],[-41.22307,-18.25296],[-41.22485,-18.25597],[-41.2268,-18.25774],[-41.2296,-18.25971],[-41.23036,-18.26121],[-41.23229,-18.26287],[-41.23448,-18.26384],[-41.23654,-18.26437],[-41.23772,-18.26427],[-41.23927,-18.26345],[-41.24177,-18.26107],[-41.24396,-18.26088],[-41.2454,-18.25983],[-41.24743,-18.2587],[-41.24922,-18.25707],[-41.25059,-18.257],[-41.25311,-18.25825],[-41.25559,-18.25999],[-41.25904,-18.26105],[-41.26075,-18.26184],[-41.26012,-18.26291],[-41.25752,-18.26394],[-41.2558,-18.26543],[-41.25534,-18.26749],[-41.25611,-18.26849],[-41.25957,-18.26991],[-41.26249,-18.27083],[-41.26301,-18.27116],[-41.26395,-18.27306],[-41.26387,-18.274],[-41.26446,-18.27533],[-41.26312,-18.27775],[-41.26029,-18.27932],[-41.25997,-18.28087],[-41.26033,-18.28286],[-41.26223,-18.28342],[-41.26346,-18.28341],[-41.26528,-18.28289],[-41.26817,-18.2828],[-41.2716,-18.28212],[-41.27293,-18.28223],[-41.2764,-18.28303],[-41.27855,-18.28404],[-41.28108,-18.2858],[-41.28479,-18.28652],[-41.28597,-18.28751],[-41.28682,-18.28869],[-41.28866,-18.2901],[-41.29075,-18.2907],[-41.2941,-18.29237],[-41.29755,-18.29349],[-41.30188,-18.29282],[-41.30492,-18.29268],[-41.30766,-18.29324],[-41.30936,-18.29387],[-41.31056,-18.29467],[-41.31301,-18.2979],[-41.31177,-18.29888],[-41.30981,-18.29945],[-41.30672,-18.29951],[-41.30544,-18.30046],[-41.3044,-18.3029],[-41.30244,-18.30558],[-41.30154,-18.30781],[-41.30015,-18.30999],[-41.29768,-18.31085],[-41.29354,-18.31033],[-41.29064,-18.31077],[-41.28832,-18.31177],[-41.2875,-18.31372],[-41.28735,-18.31628],[-41.28786,-18.31832],[-41.28932,-18.32119],[-41.28957,-18.32268],[-41.28942,-18.32409],[-41.28838,-18.32584],[-41.28797,-18.32784],[-41.28818,-18.32871],[-41.28902,-18.32933],[-41.29053,-18.32969],[-41.29264,-18.3295],[-41.29468,-18.32874],[-41.29648,-18.32766],[-41.29751,-18.32736],[-41.29908,-18.32748],[-41.30104,-18.32861],[-41.30212,-18.32835],[-41.30375,-18.32691],[-41.30633,-18.32602],[-41.30801,-18.32487],[-41.30956,-18.32492],[-41.31196,-18.32731],[-41.31245,-18.3276],[-41.31416,-18.32746],[-41.31673,-18.32696],[-41.31789,-18.32793],[-41.3183,-18.32988],[-41.31685,-18.33249],[-41.31739,-18.33384],[-41.31926,-18.33513],[-41.32144,-18.33552],[-41.3228,-18.33677],[-41.32381,-18.33912],[-41.3249,-18.34101],[-41.32514,-18.34195],[-41.32444,-18.3431],[-41.32164,-18.34378],[-41.31903,-18.34546],[-41.31648,-18.34596],[-41.31546,-18.34599],[-41.31404,-18.34693],[-41.31328,-18.3481],[-41.30944,-18.35156],[-41.30702,-18.35312],[-41.30588,-18.35365],[-41.30389,-18.35533],[-41.30309,-18.35659],[-41.30267,-18.35786],[-41.30282,-18.35953],[-41.30267,-18.36199],[-41.30227,-18.36297],[-41.30137,-18.36395],[-41.30017,-18.36596],[-41.29843,-18.36649],[-41.29511,-18.36611],[-41.29388,-18.36389],[-41.29355,-18.36015],[-41.29069,-18.3589],[-41.28746,-18.35681],[-41.28651,-18.35668],[-41.28385,-18.35767],[-41.28154,-18.35816],[-41.27904,-18.35835],[-41.27766,-18.35776],[-41.2773,-18.35676],[-41.27743,-18.35551],[-41.27656,-18.35382],[-41.27502,-18.35241],[-41.27403,-18.35185],[-41.27294,-18.35181],[-41.26923,-18.35313],[-41.26742,-18.35309],[-41.26409,-18.3504],[-41.26375,-18.34937],[-41.26419,-18.3471],[-41.26222,-18.34872],[-41.25818,-18.35049],[-41.25716,-18.35064],[-41.25451,-18.35],[-41.24968,-18.34819],[-41.24749,-18.3475],[-41.2411,-18.34649],[-41.23872,-18.34582],[-41.23787,-18.34659],[-41.23765,-18.34911],[-41.23645,-18.35044],[-41.23691,-18.35167],[-41.23716,-18.35383],[-41.23681,-18.3558],[-41.23683,-18.35809],[-41.23652,-18.36034],[-41.23523,-18.36189],[-41.23333,-18.36467],[-41.23296,-18.36574],[-41.23191,-18.36617],[-41.2293,-18.36578],[-41.22771,-18.3648],[-41.22483,-18.3641],[-41.22357,-18.36295],[-41.22233,-18.36399],[-41.22085,-18.36401],[-41.2187,-18.36335],[-41.21697,-18.36533],[-41.21625,-18.36738],[-41.21665,-18.36868],[-41.21677,-18.37059],[-41.21563,-18.37339],[-41.21304,-18.37605],[-41.21285,-18.37729],[-41.2131,-18.37936],[-41.21285,-18.38074],[-41.21226,-18.38158],[-41.21078,-18.38247],[-41.20826,-18.38301],[-41.20244,-18.38109],[-41.19963,-18.3808],[-41.19741,-18.38075],[-41.19622,-18.38035],[-41.19123,-18.38124],[-41.18995,-18.38163],[-41.18901,-18.38287],[-41.18842,-18.38607],[-41.18729,-18.38725],[-41.18339,-18.38942],[-41.17949,-18.39204],[-41.17717,-18.39244],[-41.17701,-18.39116],[-41.17731,-18.38894],[-41.17602,-18.38436],[-41.17484,-18.38224],[-41.17346,-18.38026],[-41.17093,-18.37957],[-41.16709,-18.3777],[-41.16413,-18.37588],[-41.16167,-18.37346],[-41.15919,-18.37138],[-41.15861,-18.37006],[-41.15865,-18.36719],[-41.15799,-18.36463],[-41.15704,-18.36359],[-41.15578,-18.36304],[-41.15229,-18.36196],[-41.14931,-18.36128],[-41.1495,-18.35923],[-41.1475,-18.35338],[-41.14776,-18.35142],[-41.15033,-18.34729],[-41.14976,-18.3429],[-41.15062,-18.34148],[-41.15018,-18.33862],[-41.15072,-18.33783],[-41.15016,-18.33635],[-41.15064,-18.33573],[-41.15418,-18.33524],[-41.15466,-18.3347],[-41.15511,-18.33247],[-41.15404,-18.32959],[-41.1555,-18.3248],[-41.15579,-18.31995],[-41.15739,-18.31608],[-41.15712,-18.31263],[-41.15832,-18.31076],[-41.15892,-18.30824],[-41.1581,-18.30735],[-41.15602,-18.30675],[-41.15435,-18.30457],[-41.15267,-18.30437],[-41.15054,-18.30341],[-41.14974,-18.30148],[-41.14737,-18.30021],[-41.14643,-18.29946],[-41.14272,-18.29811],[-41.14131,-18.29552],[-41.14111,-18.29129],[-41.14032,-18.29027],[-41.13459,-18.28581],[-41.13207,-18.28463],[-41.13151,-18.28312],[-41.13026,-18.28267],[-41.13,-18.28155],[-41.12898,-18.28089],[-41.12842,-18.27972],[-41.12836,-18.27788],[-41.1275,-18.27692],[-41.12537,-18.27684],[-41.12459,-18.27575],[-41.12032,-18.2744],[-41.11858,-18.27246],[-41.11344,-18.26874],[-41.11171,-18.26669],[-41.10789,-18.2647],[-41.10381,-18.26052],[-41.10077,-18.25978],[-41.10056,-18.25896],[-41.09719,-18.25658],[-41.09647,-18.25558],[-41.09587,-18.25236],[-41.09597,-18.25099],[-41.09703,-18.25011],[-41.09787,-18.2482],[-41.09899,-18.24769],[-41.1008,-18.24374],[-41.09908,-18.23974],[-41.09947,-18.23837],[-41.10185,-18.23778],[-41.10274,-18.23697],[-41.10144,-18.23459],[-41.10087,-18.23441],[-41.09924,-18.23237],[-41.0966,-18.23223],[-41.09505,-18.23297],[-41.09419,-18.23189],[-41.092,-18.2313],[-41.09135,-18.23026],[-41.09172,-18.22805],[-41.09258,-18.22718],[-41.09519,-18.22689],[-41.09581,-18.22581],[-41.09658,-18.22228],[-41.09831,-18.22193],[-41.10039,-18.21993],[-41.1022,-18.2192],[-41.10301,-18.21812],[-41.10339,-18.21484],[-41.10445,-18.21328],[-41.10386,-18.2125],[-41.1018,-18.2124],[-41.09891,-18.21099],[-41.09598,-18.2102],[-41.09411,-18.20868],[-41.09266,-18.20584],[-41.09244,-18.20476],[-41.09267,-18.20218],[-41.09331,-18.20033],[-41.09284,-18.19634],[-41.09351,-18.19569]]]},"properties":{"codigo":"310470015","name":"Novo Horizonte","population":1008,"households":520,"areaKm2":237.32,"density":4.2}},{"type":"Feature","geometry":{"type":"Polygon","coordinates":[[[-41.31648,-18.34596],[-41.31576,-18.34708],[-41.31667,-18.34867],[-41.31829,-18.35052],[-41.31851,-18.35144],[-41.31725,-18.35308],[-41.31478,-18.35448],[-41.31394,-18.35568],[-41.31275,-18.35902],[-41.31088,-18.36142],[-41.30967,-18.36405],[-41.30824,-18.36662],[-41.30814,-18.36754],[-41.30834,-18.37134],[-41.30797,-18.37294],[-41.30733,-18.37425],[-41.30709,-18.37612],[-41.30765,-18.37719],[-41.30877,-18.37845],[-41.31014,-18.37929],[-41.31298,-18.38153],[-41.3138,-18.38338],[-41.31357,-18.38564],[-41.3127,-18.38734],[-41.31122,-18.38904],[-41.30851,-18.39079],[-41.30861,-18.39184],[-41.31176,-18.3929],[-41.31342,-18.39284],[-41.31803,-18.3918],[-41.31889,-18.39174],[-41.32351,-18.39453],[-41.32662,-18.39627],[-41.32736,-18.39798],[-41.32703,-18.40009],[-41.32632,-18.40149],[-41.32632,-18.4043],[-41.32759,-18.40738],[-41.32771,-18.40837],[-41.32667,-18.41121],[-41.32871,-18.41524],[-41.32848,-18.41925],[-41.32894,-18.42041],[-41.33054,-18.42243],[-41.33251,-18.42388],[-41.3342,-18.42662],[-41.33496,-18.42951],[-41.33486,-18.43048],[-41.3339,-18.43166],[-41.3309,-18.43396],[-41.32864,-18.43535],[-41.32711,-18.43673],[-41.32438,-18.43866],[-41.3237,-18.43937],[-41.32291,-18.44153],[-41.32273,-18.44271],[-41.32155,-18.44497],[-41.3216,-18.44661],[-41.32211,-18.4486],[-41.32363,-18.45156],[-41.324,-18.4536],[-41.3238,-18.45605],[-41.32338,-18.45753],[-41.32372,-18.46043],[-41.32477,-18.46342],[-41.32789,-18.46715],[-41.32896,-18.46752],[-41.32958,-18.46826],[-41.32881,-18.46906],[-41.32713,-18.4697],[-41.32262,-18.47179],[-41.32017,-18.47386],[-41.31856,-18.47445],[-41.31697,-18.47437],[-41.31345,-18.47376],[-41.31211,-18.47516],[-41.31177,-18.47667],[-41.31004,-18.47438],[-41.30929,-18.47147],[-41.30933,-18.47029],[-41.31023,-18.46806],[-41.30952,-18.46579],[-41.30873,-18.46505],[-41.30569,-18.46524],[-41.30455,-18.46494],[-41.30323,-18.46334],[-41.30149,-18.46165],[-41.30027,-18.45924],[-41.29987,-18.45683],[-41.30048,-18.45541],[-41.30072,-18.45229],[-41.30052,-18.45048],[-41.29903,-18.4489],[-41.2969,-18.44861],[-41.2955,-18.4494],[-41.29398,-18.44962],[-41.29206,-18.44911],[-41.28934,-18.44745],[-41.28719,-18.44681],[-41.2845,-18.44701],[-41.28332,-18.44748],[-41.28177,-18.44894],[-41.28092,-18.45062],[-41.28117,-18.45262],[-41.2833,-18.45467],[-41.28354,-18.45554],[-41.28172,-18.45703],[-41.28187,-18.45839],[-41.28437,-18.4605],[-41.28501,-18.46126],[-41.28562,-18.46404],[-41.2865,-18.46455],[-41.28821,-18.46455],[-41.29069,-18.46703],[-41.2904,-18.46786],[-41.28872,-18.46896],[-41.28823,-18.46981],[-41.28841,-18.47123],[-41.28967,-18.4739],[-41.29115,-18.47506],[-41.29316,-18.47623],[-41.29356,-18.4777],[-41.29236,-18.4798],[-41.29197,-18.48334],[-41.29185,-18.48627],[-41.29007,-18.48741],[-41.28896,-18.4891],[-41.28863,-18.49047],[-41.28905,-18.49175],[-41.28914,-18.4932],[-41.28836,-18.49384],[-41.28679,-18.4939],[-41.2846,-18.49335],[-41.28197,-18.49337],[-41.2804,-18.49426],[-41.2803,-18.49521],[-41.28173,-18.49833],[-41.28245,-18.4993],[-41.28263,-18.50082],[-41.28231,-18.50145],[-41.27868,-18.50114],[-41.27557,-18.50121],[-41.27125,-18.50206],[-41.26959,-18.50248],[-41.26773,-18.50196],[-41.2667,-18.50082],[-41.26555,-18.50012],[-41.26397,-18.49866],[-41.2619,-18.49827],[-41.26127,-18.49792],[-41.25829,-18.49508],[-41.25632,-18.49336],[-41.25573,-18.49203],[-41.25546,-18.48904],[-41.2552,-18.48857],[-41.25379,-18.48802],[-41.24979,-18.48759],[-41.24766,-18.48752],[-41.24414,-18.48768],[-41.24259,-18.48748],[-41.24108,-18.48786],[-41.24002,-18.48879],[-41.23903,-18.4889],[-41.23715,-18.4881],[-41.2354,-18.48673],[-41.23208,-18.48536],[-41.22947,-18.48341],[-41.22707,-18.48218],[-41.22683,-18.48129],[-41.22804,-18.47603],[-41.22683,-18.47488],[-41.22549,-18.47434],[-41.2241,-18.47467],[-41.22329,-18.47526],[-41.2216,-18.47523],[-41.22016,-18.47485],[-41.21724,-18.47462],[-41.21468,-18.4739],[-41.21413,-18.47311],[-41.21439,-18.47119],[-41.21545,-18.46923],[-41.21533,-18.46808],[-41.21188,-18.4656],[-41.20992,-18.4635],[-41.20901,-18.46108],[-41.20881,-18.45894],[-41.20934,-18.45702],[-41.20948,-18.45563],[-41.20791,-18.45486],[-41.20555,-18.45312],[-41.20414,-18.45089],[-41.20264,-18.44913],[-41.20087,-18.44768],[-41.19634,-18.44605],[-41.19375,-18.44607],[-41.19178,-18.44556],[-41.1901,-18.44585],[-41.18925,-18.4464],[-41.1869,-18.44641],[-41.18568,-18.44596],[-41.18339,-18.44317],[-41.18312,-18.44241],[-41.18184,-18.43958],[-41.18209,-18.43925],[-41.1808,-18.43631],[-41.1808,-18.43268],[-41.17883,-18.43062],[-41.17681,-18.4295],[-41.17548,-18.42752],[-41.17464,-18.42423],[-41.17053,-18.42032],[-41.16667,-18.41522],[-41.16378,-18.41402],[-41.16103,-18.41624],[-41.15475,-18.41442],[-41.14979,-18.41196],[-41.14723,-18.41145],[-41.14489,-18.40948],[-41.14375,-18.40646],[-41.14422,-18.40533],[-41.14425,-18.40524],[-41.15335,-18.40518],[-41.1589,-18.40402],[-41.16045,-18.4028],[-41.15934,-18.39752],[-41.16006,-18.39575],[-41.1619,-18.39318],[-41.16254,-18.39076],[-41.16222,-18.3893],[-41.16049,-18.38629],[-41.16027,-18.38354],[-41.1596,-18.38146],[-41.15848,-18.38071],[-41.15399,-18.38081],[-41.15059,-18.38001],[-41.1481,-18.37915],[-41.14618,-18.37604],[-41.14589,-18.37386],[-41.14701,-18.369],[-41.14806,-18.36736],[-41.14974,-18.36599],[-41.14989,-18.36511],[-41.14931,-18.36128],[-41.15229,-18.36196],[-41.15578,-18.36304],[-41.15704,-18.36359],[-41.15799,-18.36463],[-41.15865,-18.36719],[-41.15861,-18.37006],[-41.15919,-18.37138],[-41.16167,-18.37346],[-41.16413,-18.37588],[-41.16709,-18.3777],[-41.17093,-18.37957],[-41.17346,-18.38026],[-41.17484,-18.38224],[-41.17602,-18.38436],[-41.17731,-18.38894],[-41.17701,-18.39116],[-41.17717,-18.39244],[-41.17949,-18.39204],[-41.18339,-18.38942],[-41.18729,-18.38725],[-41.18842,-18.38607],[-41.18901,-18.38287],[-41.18995,-18.38163],[-41.19123,-18.38124],[-41.19622,-18.38035],[-41.19741,-18.38075],[-41.19963,-18.3808],[-41.20244,-18.38109],[-41.20826,-18.38301],[-41.21078,-18.38247],[-41.21226,-18.38158],[-41.21285,-18.38074],[-41.2131,-18.37936],[-41.21285,-18.37729],[-41.21304,-18.37605],[-41.21563,-18.37339],[-41.21677,-18.37059],[-41.21665,-18.36868],[-41.21625,-18.36738],[-41.21697,-18.36533],[-41.2187,-18.36335],[-41.22085,-18.36401],[-41.22233,-18.36399],[-41.22357,-18.36295],[-41.22483,-18.3641],[-41.22771,-18.3648],[-41.2293,-18.36578],[-41.23191,-18.36617],[-41.23296,-18.36574],[-41.23333,-18.36467],[-41.23523,-18.36189],[-41.23652,-18.36034],[-41.23683,-18.35809],[-41.23681,-18.3558],[-41.23716,-18.35383],[-41.23691,-18.35167],[-41.23645,-18.35044],[-41.23765,-18.34911],[-41.23787,-18.34659],[-41.23872,-18.34582],[-41.2411,-18.34649],[-41.24749,-18.3475],[-41.24968,-18.34819],[-41.25451,-18.35],[-41.25716,-18.35064],[-41.25818,-18.35049],[-41.26222,-18.34872],[-41.26419,-18.3471],[-41.26375,-18.34937],[-41.26409,-18.3504],[-41.26742,-18.35309],[-41.26923,-18.35313],[-41.27294,-18.35181],[-41.27403,-18.35185],[-41.27502,-18.35241],[-41.27656,-18.35382],[-41.27743,-18.35551],[-41.2773,-18.35676],[-41.27766,-18.35776],[-41.27904,-18.35835],[-41.28154,-18.35816],[-41.28385,-18.35767],[-41.28651,-18.35668],[-41.28746,-18.35681],[-41.29069,-18.3589],[-41.29355,-18.36015],[-41.29388,-18.36389],[-41.29511,-18.36611],[-41.29843,-18.36649],[-41.30017,-18.36596],[-41.30137,-18.36395],[-41.30227,-18.36297],[-41.30267,-18.36199],[-41.30282,-18.35953],[-41.30267,-18.35786],[-41.30309,-18.35659],[-41.30389,-18.35533],[-41.30588,-18.35365],[-41.30702,-18.35312],[-41.30944,-18.35156],[-41.31328,-18.3481],[-41.31404,-18.34693],[-41.31546,-18.34599],[-41.31648,-18.34596]]]},"properties":{"codigo":"310470030","name":"Tipiti","population":1037,"households":546,"areaKm2":196.7014,"density":5.3}},{"type":"Feature","geometry":{"type":"Polygon","coordinates":[[[-41.31157,-18.10691],[-41.31283,-18.10507],[-41.31368,-18.10335],[-41.3152,-18.10184],[-41.31608,-18.10138],[-41.3181,-18.10126],[-41.32005,-18.10027],[-41.32271,-18.09767],[-41.32503,-18.09598],[-41.32721,-18.09392],[-41.32978,-18.09176],[-41.33153,-18.09126],[-41.33897,-18.09085],[-41.34253,-18.09183],[-41.34471,-18.09399],[-41.34556,-18.0968],[-41.34693,-18.0987],[-41.34804,-18.09893],[-41.34909,-18.09833],[-41.35192,-18.09522],[-41.35351,-18.09497],[-41.35414,-18.09689],[-41.35596,-18.09936],[-41.35612,-18.10083],[-41.35716,-18.10205],[-41.3587,-18.10257],[-41.36226,-18.10511],[-41.36383,-18.10546],[-41.36548,-18.1051],[-41.36935,-18.10346],[-41.37174,-18.10276],[-41.37335,-18.10261],[-41.37462,-18.10138],[-41.37389,-18.09957],[-41.37423,-18.095],[-41.37547,-18.09267],[-41.37694,-18.09091],[-41.37867,-18.08683],[-41.3788,-18.08445],[-41.37931,-18.08218],[-41.37893,-18.08123],[-41.37716,-18.07919],[-41.37608,-18.07652],[-41.37522,-18.07595],[-41.37228,-18.07574],[-41.37017,-18.07517],[-41.36866,-18.07387],[-41.36787,-18.07204],[-41.36776,-18.06979],[-41.36792,-18.06845],[-41.36871,-18.06746],[-41.37111,-18.06637],[-41.37172,-18.06561],[-41.37156,-18.06199],[-41.3733,-18.06244],[-41.37503,-18.06245],[-41.37827,-18.06292],[-41.37984,-18.06279],[-41.38114,-18.06304],[-41.38242,-18.06372],[-41.38553,-18.0639],[-41.38797,-18.06322],[-41.38906,-18.0634],[-41.38992,-18.06414],[-41.39386,-18.06637],[-41.39568,-18.06702],[-41.39849,-18.06842],[-41.39945,-18.07027],[-41.39957,-18.07282],[-41.40047,-18.07328],[-41.40275,-18.07268],[-41.40445,-18.0725],[-41.40552,-18.07268],[-41.40737,-18.07344],[-41.40875,-18.07483],[-41.40953,-18.07783],[-41.40958,-18.07977],[-41.40995,-18.08193],[-41.41123,-18.08544],[-41.41297,-18.0884],[-41.41365,-18.09038],[-41.41379,-18.09197],[-41.41348,-18.09295],[-41.41228,-18.09505],[-41.41222,-18.09627],[-41.41254,-18.09774],[-41.41421,-18.09963],[-41.41434,-18.10018],[-41.41405,-18.10369],[-41.41514,-18.1048],[-41.41821,-18.10585],[-41.4218,-18.10853],[-41.42409,-18.10941],[-41.42649,-18.10938],[-41.42965,-18.10841],[-41.43119,-18.10844],[-41.4323,-18.11025],[-41.43354,-18.11511],[-41.43351,-18.11762],[-41.43256,-18.11919],[-41.43134,-18.12032],[-41.43053,-18.12265],[-41.42981,-18.12333],[-41.42771,-18.12332],[-41.42466,-18.12304],[-41.42276,-18.12378],[-41.42211,-18.12569],[-41.42263,-18.12717],[-41.42412,-18.12886],[-41.42654,-18.13088],[-41.42798,-18.1316],[-41.43004,-18.13208],[-41.43261,-18.13347],[-41.43355,-18.13435],[-41.43825,-18.13545],[-41.43972,-18.1362],[-41.44041,-18.13701],[-41.44051,-18.13796],[-41.43952,-18.13966],[-41.43969,-18.14067],[-41.43971,-18.14385],[-41.43945,-18.14522],[-41.43845,-18.14808],[-41.4371,-18.15016],[-41.4357,-18.1516],[-41.43449,-18.15251],[-41.43148,-18.15523],[-41.42868,-18.15887],[-41.42593,-18.1603],[-41.42371,-18.16111],[-41.42119,-18.1615],[-41.41971,-18.1622],[-41.41899,-18.16337],[-41.41878,-18.16524],[-41.41961,-18.16658],[-41.42154,-18.16769],[-41.42231,-18.1684],[-41.42275,-18.16945],[-41.42246,-18.1705],[-41.42115,-18.1729],[-41.42096,-18.17381],[-41.42129,-18.17891],[-41.42238,-18.17995],[-41.42293,-18.18162],[-41.42376,-18.18302],[-41.42418,-18.18504],[-41.42396,-18.18602],[-41.42425,-18.18852],[-41.42376,-18.1921],[-41.42388,-18.19371],[-41.42478,-18.19583],[-41.42653,-18.19767],[-41.42679,-18.19894],[-41.42596,-18.20122],[-41.42521,-18.20182],[-41.42323,-18.20186],[-41.41664,-18.20249],[-41.41304,-18.20322],[-41.40922,-18.20347],[-41.40796,-18.20431],[-41.40564,-18.20953],[-41.40545,-18.21138],[-41.40588,-18.21296],[-41.40581,-18.21485],[-41.40753,-18.21621],[-41.40809,-18.21629],[-41.40966,-18.21752],[-41.41024,-18.21843],[-41.4103,-18.2196],[-41.40977,-18.22067],[-41.40708,-18.22184],[-41.40512,-18.22355],[-41.40406,-18.22362],[-41.40216,-18.2227],[-41.39973,-18.22202],[-41.39698,-18.22198],[-41.39538,-18.22252],[-41.39458,-18.22323],[-41.39368,-18.22494],[-41.39215,-18.22712],[-41.3882,-18.22841],[-41.38542,-18.23173],[-41.38444,-18.23347],[-41.38156,-18.23339],[-41.37989,-18.233],[-41.37952,-18.23082],[-41.38023,-18.23017],[-41.38222,-18.22924],[-41.38334,-18.22767],[-41.38348,-18.22703],[-41.38303,-18.22554],[-41.38568,-18.22471],[-41.38766,-18.22511],[-41.38897,-18.22371],[-41.39002,-18.22111],[-41.39097,-18.22039],[-41.39141,-18.21932],[-41.39307,-18.21887],[-41.39379,-18.21712],[-41.39385,-18.21574],[-41.39481,-18.21257],[-41.39576,-18.21156],[-41.39683,-18.21112],[-41.39825,-18.20904],[-41.39829,-18.20655],[-41.39665,-18.20485],[-41.39758,-18.20266],[-41.39762,-18.2017],[-41.39851,-18.20026],[-41.39849,-18.19912],[-41.39797,-18.19836],[-41.39631,-18.19711],[-41.39561,-18.19568],[-41.39534,-18.19394],[-41.39398,-18.19377],[-41.39315,-18.19276],[-41.39113,-18.19178],[-41.39018,-18.19065],[-41.38847,-18.18997],[-41.3855,-18.1901],[-41.3835,-18.18927],[-41.38229,-18.18787],[-41.3814,-18.18627],[-41.37986,-18.18468],[-41.37847,-18.18356],[-41.37846,-18.18241],[-41.37912,-18.18107],[-41.37713,-18.17795],[-41.37535,-18.178],[-41.37264,-18.17704],[-41.3699,-18.17681],[-41.36888,-18.17444],[-41.36814,-18.174],[-41.36575,-18.17515],[-41.36493,-18.17579],[-41.36358,-18.17531],[-41.36169,-18.17427],[-41.36153,-18.1731],[-41.36198,-18.17206],[-41.36138,-18.17162],[-41.36166,-18.17029],[-41.36092,-18.16958],[-41.35952,-18.16741],[-41.35707,-18.16691],[-41.35568,-18.16544],[-41.35246,-18.16617],[-41.35119,-18.16576],[-41.35069,-18.16493],[-41.34928,-18.1638],[-41.34821,-18.16382],[-41.3456,-18.16476],[-41.34559,-18.16354],[-41.34465,-18.16317],[-41.34328,-18.16196],[-41.34273,-18.16055],[-41.33965,-18.1578],[-41.3381,-18.15624],[-41.33557,-18.15525],[-41.33405,-18.15572],[-41.33259,-18.15567],[-41.33134,-18.15645],[-41.32955,-18.15704],[-41.32777,-18.15712],[-41.32152,-18.1553],[-41.31929,-18.15348],[-41.31766,-18.1507],[-41.31785,-18.14993],[-41.31755,-18.14765],[-41.31654,-18.1467],[-41.31501,-18.14653],[-41.3132,-18.14598],[-41.31299,-18.14496],[-41.31218,-18.14362],[-41.31218,-18.14077],[-41.31243,-18.13744],[-41.31343,-18.13459],[-41.31468,-18.13031],[-41.31618,-18.12722],[-41.31794,-18.12509],[-41.32119,-18.12413],[-41.32269,-18.122],[-41.32319,-18.12009],[-41.32244,-18.11772],[-41.31869,-18.11177],[-41.31593,-18.11011],[-41.31243,-18.10773],[-41.31157,-18.10691]]]},"properties":{"codigo":"310470035","name":"São Miguel","population":843,"households":387,"areaKm2":122.4562,"density":6.9}}]}