{"type":"FeatureCollection","features":[{"type":"Feature","geometry":{"type":"Polygon","coordinates":[[[-43.02387,-20.41022],[-43.02515,-20.40782],[-43.02543,-20.40642],[-43.02496,-20.40517],[-43.02543,-20.40156],[-43.02501,-20.40002],[-43.02277,-20.39878],[-43.02258,-20.39808],[-43.02407,-20.39529],[-43.02405,-20.39409],[-43.02283,-20.39259],[-43.0228,-20.39191],[-43.024,-20.39028],[-43.02398,-20.38905],[-43.02246,-20.3878],[-43.02024,-20.38728],[-43.01968,-20.38637],[-43.01968,-20.38476],[-43.01844,-20.38293],[-43.01769,-20.38052],[-43.01766,-20.37874],[-43.01695,-20.37764],[-43.01611,-20.37523],[-43.01479,-20.37355],[-43.01494,-20.37278],[-43.01599,-20.37195],[-43.01814,-20.37075],[-43.02051,-20.36975],[-43.02243,-20.36832],[-43.02403,-20.36762],[-43.02552,-20.36641],[-43.02478,-20.36495],[-43.02272,-20.36348],[-43.02267,-20.36265],[-43.02382,-20.36204],[-43.02618,-20.36207],[-43.02801,-20.36181],[-43.03083,-20.36188],[-43.03288,-20.35806],[-43.03252,-20.35631],[-43.03172,-20.3554],[-43.02991,-20.35402],[-43.03017,-20.35111],[-43.03133,-20.34906],[-43.03239,-20.34834],[-43.03344,-20.34811],[-43.03605,-20.34807],[-43.03701,-20.34765],[-43.04046,-20.34555],[-43.03881,-20.34416],[-43.03776,-20.3442],[-43.03547,-20.34374],[-43.0336,-20.34316],[-43.03251,-20.34193],[-43.03213,-20.34045],[-43.03115,-20.34049],[-43.02876,-20.33934],[-43.02568,-20.33685],[-43.02375,-20.33553],[-43.02323,-20.33408],[-43.02183,-20.33244],[-43.01963,-20.33112],[-43.01744,-20.33076],[-43.01516,-20.33062],[-43.01514,-20.32856],[-43.01355,-20.32687],[-43.01297,-20.32575],[-43.01131,-20.3249],[-43.00745,-20.32523],[-43.00402,-20.32639],[-43.00255,-20.3272],[-43.00039,-20.32793],[-42.99993,-20.32838],[-42.99692,-20.32966],[-42.99321,-20.33003],[-42.99176,-20.33061],[-42.99012,-20.33299],[-42.9886,-20.33442],[-42.98632,-20.33566],[-42.98578,-20.33624],[-42.98577,-20.34067],[-42.9845,-20.34212],[-42.9838,-20.34382],[-42.98315,-20.3443],[-42.98206,-20.34431],[-42.98054,-20.34387],[-42.97874,-20.34211],[-42.97744,-20.34177],[-42.97574,-20.34226],[-42.97417,-20.34206],[-42.96852,-20.33893],[-42.96738,-20.33735],[-42.96737,-20.333],[-42.96585,-20.32905],[-42.96549,-20.32651],[-42.96487,-20.32597],[-42.96101,-20.32459],[-42.96027,-20.32383],[-42.95939,-20.32188],[-42.95635,-20.32056],[-42.95435,-20.32029],[-42.95366,-20.31991],[-42.95371,-20.31844],[-42.95635,-20.31706],[-42.95725,-20.31637],[-42.95733,-20.31567],[-42.95652,-20.3148],[-42.95358,-20.31351],[-42.95298,-20.31299],[-42.95154,-20.30956],[-42.95093,-20.30897],[-42.9508,-20.3072],[-42.95178,-20.30627],[-42.95205,-20.30433],[-42.95129,-20.3021],[-42.95124,-20.29859],[-42.95267,-20.29485],[-42.95267,-20.29322],[-42.95226,-20.29238],[-42.95031,-20.29134],[-42.94882,-20.28965],[-42.94858,-20.2882],[-42.94966,-20.28638],[-42.95233,-20.28449],[-42.95289,-20.28357],[-42.9522,-20.28169],[-42.95078,-20.28042],[-42.94932,-20.27842],[-42.94981,-20.27711],[-42.95224,-20.27499],[-42.95299,-20.27295],[-42.95375,-20.27317],[-42.95461,-20.27409],[-42.95642,-20.27404],[-42.95881,-20.27297],[-42.96056,-20.27302],[-42.96143,-20.27359],[-42.96339,-20.27321],[-42.96573,-20.27236],[-42.9673,-20.27219],[-42.96929,-20.27245],[-42.97,-20.27025],[-42.97088,-20.26969],[-42.97189,-20.26462],[-42.97351,-20.26284],[-42.97388,-20.26138],[-42.97609,-20.25848],[-42.97609,-20.25714],[-42.97573,-20.25598],[-42.97631,-20.25587],[-42.97987,-20.25758],[-42.98116,-20.25726],[-42.98315,-20.2545],[-42.98429,-20.25432],[-42.98564,-20.25454],[-42.98655,-20.25403],[-42.98678,-20.25305],[-42.98794,-20.25215],[-42.98893,-20.25211],[-42.99043,-20.25277],[-42.99104,-20.2535],[-42.9918,-20.25522],[-42.99017,-20.2582],[-42.99004,-20.2596],[-42.98944,-20.25997],[-42.98747,-20.26],[-42.98652,-20.26038],[-42.9855,-20.26148],[-42.98547,-20.2623],[-42.98626,-20.26313],[-42.98607,-20.26403],[-42.9849,-20.26476],[-42.98426,-20.26585],[-42.98481,-20.26721],[-42.98678,-20.26855],[-42.98808,-20.26845],[-42.98978,-20.26711],[-42.99041,-20.26693],[-42.99212,-20.26719],[-42.99358,-20.26676],[-42.99368,-20.26596],[-42.99273,-20.26435],[-42.99234,-20.26267],[-42.99274,-20.26201],[-42.995,-20.2625],[-42.99664,-20.26401],[-42.9965,-20.26528],[-42.99382,-20.26889],[-42.99389,-20.26975],[-42.99513,-20.27202],[-42.99642,-20.27234],[-42.99793,-20.27175],[-42.9993,-20.27173],[-43.00104,-20.27239],[-43.00279,-20.27243],[-43.0039,-20.27183],[-43.00675,-20.27163],[-43.00744,-20.27104],[-43.00917,-20.2714],[-43.01206,-20.27305],[-43.01435,-20.27461],[-43.01483,-20.27534],[-43.01578,-20.27453],[-43.01657,-20.27469],[-43.01744,-20.27614],[-43.0173,-20.27865],[-43.01776,-20.27972],[-43.02103,-20.27914],[-43.02238,-20.27958],[-43.02344,-20.27908],[-43.02433,-20.27953],[-43.02491,-20.28107],[-43.02593,-20.28162],[-43.03023,-20.28283],[-43.03045,-20.28356],[-43.03196,-20.28332],[-43.03368,-20.28109],[-43.03347,-20.27844],[-43.03423,-20.27692],[-43.03541,-20.2763],[-43.03613,-20.27441],[-43.03414,-20.27304],[-43.03309,-20.27083],[-43.03371,-20.26988],[-43.03486,-20.27028],[-43.03599,-20.2701],[-43.03797,-20.26855],[-43.03805,-20.26811],[-43.0395,-20.26725],[-43.04171,-20.26629],[-43.04184,-20.26564],[-43.04311,-20.26599],[-43.04353,-20.26534],[-43.04506,-20.26538],[-43.04647,-20.2646],[-43.04868,-20.26221],[-43.04854,-20.26125],[-43.04962,-20.25974],[-43.04963,-20.25855],[-43.05029,-20.25811],[-43.05056,-20.25651],[-43.05023,-20.25547],[-43.05122,-20.25432],[-43.05175,-20.25304],[-43.05244,-20.25226],[-43.05246,-20.25148],[-43.05341,-20.25053],[-43.05528,-20.2507],[-43.05649,-20.25147],[-43.05774,-20.25095],[-43.05938,-20.25179],[-43.06086,-20.25164],[-43.06254,-20.25185],[-43.0652,-20.25305],[-43.06713,-20.25338],[-43.06832,-20.25319],[-43.06888,-20.25251],[-43.06989,-20.25232],[-43.07211,-20.2531],[-43.07228,-20.25386],[-43.07513,-20.25494],[-43.07998,-20.25567],[-43.08216,-20.25662],[-43.0925,-20.26274],[-43.0928,-20.26459],[-43.09477,-20.26489],[-43.09731,-20.26713],[-43.0982,-20.26829],[-43.0997,-20.26782],[-43.10366,-20.26803],[-43.10528,-20.26763],[-43.10624,-20.26659],[-43.10708,-20.26642],[-43.10806,-20.26482],[-43.11061,-20.26495],[-43.11169,-20.2656],[-43.11358,-20.2643],[-43.11504,-20.26498],[-43.11609,-20.26513],[-43.11712,-20.26585],[-43.11794,-20.26457],[-43.11926,-20.26393],[-43.11854,-20.26145],[-43.11848,-20.26046],[-43.11967,-20.25934],[-43.11881,-20.2583],[-43.1193,-20.25745],[-43.12492,-20.25874],[-43.12599,-20.25789],[-43.12784,-20.25748],[-43.12909,-20.25835],[-43.1302,-20.25846],[-43.13137,-20.25681],[-43.132,-20.25712],[-43.13457,-20.25652],[-43.13548,-20.25484],[-43.13641,-20.25483],[-43.13698,-20.25552],[-43.13817,-20.25466],[-43.1396,-20.25504],[-43.14005,-20.25401],[-43.13969,-20.25312],[-43.14084,-20.25224],[-43.13966,-20.25172],[-43.13916,-20.25067],[-43.13946,-20.24986],[-43.14124,-20.25038],[-43.1423,-20.25109],[-43.14324,-20.24994],[-43.14454,-20.24938],[-43.14581,-20.24968],[-43.1467,-20.2494],[-43.14707,-20.2501],[-43.14664,-20.25087],[-43.14819,-20.25204],[-43.14939,-20.24985],[-43.15018,-20.25014],[-43.15052,-20.25138],[-43.15112,-20.25132],[-43.15397,-20.25315],[-43.15576,-20.25338],[-43.15765,-20.25452],[-43.15807,-20.25564],[-43.15924,-20.25665],[-43.16046,-20.25829],[-43.16231,-20.26164],[-43.16205,-20.26356],[-43.1626,-20.26503],[-43.16235,-20.2666],[-43.16076,-20.26851],[-43.15956,-20.26914],[-43.15792,-20.26953],[-43.15696,-20.27038],[-43.15654,-20.27228],[-43.15802,-20.27481],[-43.15958,-20.27541],[-43.16008,-20.2741],[-43.15996,-20.27291],[-43.16223,-20.273],[-43.16365,-20.27353],[-43.16568,-20.27484],[-43.16651,-20.2749],[-43.16773,-20.27302],[-43.16934,-20.27163],[-43.16967,-20.26933],[-43.17012,-20.26853],[-43.17105,-20.26825],[-43.17248,-20.26845],[-43.17377,-20.26932],[-43.17484,-20.27097],[-43.17686,-20.27146],[-43.17691,-20.27257],[-43.17621,-20.27336],[-43.1759,-20.27519],[-43.17708,-20.27768],[-43.17895,-20.27987],[-43.18091,-20.28004],[-43.18262,-20.2798],[-43.18272,-20.28089],[-43.18105,-20.28145],[-43.18052,-20.28235],[-43.18051,-20.28415],[-43.18127,-20.28606],[-43.18118,-20.28739],[-43.18209,-20.28882],[-43.18006,-20.28893],[-43.17946,-20.29036],[-43.1793,-20.29161],[-43.1783,-20.29327],[-43.1757,-20.29496],[-43.17448,-20.29652],[-43.17464,-20.29996],[-43.17396,-20.30044],[-43.17217,-20.30096],[-43.17151,-20.30184],[-43.17213,-20.304],[-43.1737,-20.30708],[-43.17295,-20.30791],[-43.17281,-20.30933],[-43.17372,-20.31068],[-43.17487,-20.31124],[-43.17762,-20.3137],[-43.17779,-20.31443],[-43.17677,-20.31492],[-43.17477,-20.3142],[-43.17212,-20.31423],[-43.17012,-20.31454],[-43.16672,-20.31431],[-43.16548,-20.31249],[-43.16461,-20.3117],[-43.16064,-20.31036],[-43.15952,-20.31117],[-43.15715,-20.31182],[-43.15464,-20.3123],[-43.15335,-20.31193],[-43.15248,-20.31206],[-43.15081,-20.31306],[-43.14966,-20.31416],[-43.14853,-20.31451],[-43.14691,-20.31448],[-43.14657,-20.31551],[-43.14666,-20.31912],[-43.14612,-20.32058],[-43.14465,-20.32149],[-43.14367,-20.32333],[-43.14372,-20.32585],[-43.14191,-20.32789],[-43.14055,-20.33013],[-43.14021,-20.332],[-43.1403,-20.33331],[-43.13966,-20.33414],[-43.1378,-20.33416],[-43.13637,-20.33522],[-43.13527,-20.33746],[-43.13321,-20.33926],[-43.13289,-20.34066],[-43.13089,-20.34335],[-43.13069,-20.34483],[-43.1309,-20.34739],[-43.13012,-20.348],[-43.1273,-20.34828],[-43.12596,-20.34894],[-43.12464,-20.35004],[-43.12286,-20.35079],[-43.12224,-20.35142],[-43.12162,-20.35393],[-43.12027,-20.35491],[-43.11726,-20.35477],[-43.1156,-20.35608],[-43.11458,-20.35735],[-43.11385,-20.35732],[-43.11381,-20.35614],[-43.11229,-20.35666],[-43.11123,-20.35742],[-43.11031,-20.35893],[-43.10988,-20.3624],[-43.10879,-20.36388],[-43.10788,-20.36387],[-43.10404,-20.36313],[-43.1018,-20.36204],[-43.09905,-20.35953],[-43.09497,-20.35845],[-43.09294,-20.36001],[-43.09105,-20.36043],[-43.08926,-20.36117],[-43.08774,-20.36125],[-43.08636,-20.36272],[-43.08381,-20.36299],[-43.0822,-20.36345],[-43.08105,-20.36417],[-43.07945,-20.36453],[-43.0769,-20.36629],[-43.07594,-20.36756],[-43.07601,-20.36862],[-43.07473,-20.36993],[-43.07326,-20.37088],[-43.07231,-20.37224],[-43.07177,-20.37497],[-43.07097,-20.3771],[-43.06931,-20.37881],[-43.06721,-20.3801],[-43.06625,-20.38122],[-43.06511,-20.38436],[-43.06359,-20.38589],[-43.06198,-20.38619],[-43.06082,-20.38701],[-43.06091,-20.3903],[-43.05991,-20.39197],[-43.05871,-20.39282],[-43.05605,-20.39395],[-43.05447,-20.39565],[-43.0542,-20.3966],[-43.05512,-20.39848],[-43.05491,-20.39948],[-43.05345,-20.4009],[-43.05194,-20.40316],[-43.04885,-20.4046],[-43.04622,-20.40499],[-43.0445,-20.40607],[-43.04375,-20.40695],[-43.04155,-20.40733],[-43.03985,-20.40719],[-43.03915,-20.40745],[-43.03778,-20.40921],[-43.03658,-20.41116],[-43.03441,-20.41306],[-43.03132,-20.41268],[-43.02986,-20.41229],[-43.02873,-20.41292],[-43.02677,-20.41139],[-43.02556,-20.4107],[-43.02387,-20.41022]]]},"properties":{"codigo":"310570705","name":"Barra Longa","population":4538,"households":2293,"areaKm2":225.1918,"density":20.2}},{"type":"Feature","geometry":{"type":"Polygon","coordinates":[[[-43.15153,-20.16689],[-43.15306,-20.16805],[-43.15481,-20.16827],[-43.15548,-20.16964],[-43.15803,-20.17196],[-43.1589,-20.17391],[-43.16008,-20.17509],[-43.16125,-20.17568],[-43.16277,-20.17723],[-43.16193,-20.17912],[-43.16213,-20.18032],[-43.16398,-20.18142],[-43.16462,-20.18252],[-43.16513,-20.18456],[-43.1643,-20.18631],[-43.16166,-20.1867],[-43.16038,-20.18717],[-43.15971,-20.18792],[-43.15963,-20.19013],[-43.16129,-20.19335],[-43.1616,-20.19527],[-43.16118,-20.19759],[-43.15971,-20.20046],[-43.15914,-20.20075],[-43.15822,-20.20218],[-43.15822,-20.20395],[-43.15989,-20.20497],[-43.15989,-20.2058],[-43.15744,-20.20729],[-43.1571,-20.20775],[-43.15465,-20.20966],[-43.15447,-20.21007],[-43.15208,-20.21192],[-43.15185,-20.21274],[-43.15239,-20.21434],[-43.15395,-20.21651],[-43.15398,-20.21729],[-43.15205,-20.21745],[-43.15164,-20.22017],[-43.15121,-20.2211],[-43.15001,-20.22211],[-43.14923,-20.22469],[-43.14918,-20.2257],[-43.15016,-20.22687],[-43.1506,-20.22834],[-43.15036,-20.22956],[-43.14904,-20.23118],[-43.14613,-20.23259],[-43.14576,-20.23331],[-43.14629,-20.23498],[-43.14714,-20.23606],[-43.14942,-20.23728],[-43.15048,-20.23871],[-43.1501,-20.24149],[-43.15123,-20.24423],[-43.15121,-20.24551],[-43.15042,-20.24865],[-43.15075,-20.25068],[-43.15112,-20.25132],[-43.15052,-20.25138],[-43.15018,-20.25014],[-43.14939,-20.24985],[-43.14819,-20.25204],[-43.14664,-20.25087],[-43.14707,-20.2501],[-43.1467,-20.2494],[-43.14581,-20.24968],[-43.14454,-20.24938],[-43.14324,-20.24994],[-43.1423,-20.25109],[-43.14124,-20.25038],[-43.13946,-20.24986],[-43.13916,-20.25067],[-43.13966,-20.25172],[-43.14084,-20.25224],[-43.13969,-20.25312],[-43.14005,-20.25401],[-43.1396,-20.25504],[-43.13817,-20.25466],[-43.13698,-20.25552],[-43.13641,-20.25483],[-43.13548,-20.25484],[-43.13457,-20.25652],[-43.132,-20.25712],[-43.13137,-20.25681],[-43.1302,-20.25846],[-43.12909,-20.25835],[-43.12784,-20.25748],[-43.12599,-20.25789],[-43.12492,-20.25874],[-43.1193,-20.25745],[-43.11881,-20.2583],[-43.11967,-20.25934],[-43.11848,-20.26046],[-43.11854,-20.26145],[-43.11926,-20.26393],[-43.11794,-20.26457],[-43.11712,-20.26585],[-43.11609,-20.26513],[-43.11504,-20.26498],[-43.11358,-20.2643],[-43.11169,-20.2656],[-43.11061,-20.26495],[-43.10806,-20.26482],[-43.10708,-20.26642],[-43.10624,-20.26659],[-43.10528,-20.26763],[-43.10366,-20.26803],[-43.0997,-20.26782],[-43.0982,-20.26829],[-43.09731,-20.26713],[-43.09477,-20.26489],[-43.0928,-20.26459],[-43.0925,-20.26274],[-43.08216,-20.25662],[-43.07998,-20.25567],[-43.07513,-20.25494],[-43.07228,-20.25386],[-43.07211,-20.2531],[-43.06989,-20.25232],[-43.06888,-20.25251],[-43.06832,-20.25319],[-43.06713,-20.25338],[-43.0652,-20.25305],[-43.06254,-20.25185],[-43.06086,-20.25164],[-43.05938,-20.25179],[-43.05774,-20.25095],[-43.05649,-20.25147],[-43.05528,-20.2507],[-43.05341,-20.25053],[-43.05246,-20.25148],[-43.05244,-20.25226],[-43.05175,-20.25304],[-43.05122,-20.25432],[-43.05023,-20.25547],[-43.05056,-20.25651],[-43.05029,-20.25811],[-43.04963,-20.25855],[-43.04962,-20.25974],[-43.04854,-20.26125],[-43.04868,-20.26221],[-43.04647,-20.2646],[-43.04506,-20.26538],[-43.04353,-20.26534],[-43.04311,-20.26599],[-43.04184,-20.26564],[-43.04171,-20.26629],[-43.0395,-20.26725],[-43.03805,-20.26811],[-43.03797,-20.26855],[-43.03599,-20.2701],[-43.03486,-20.27028],[-43.03371,-20.26988],[-43.03309,-20.27083],[-43.03414,-20.27304],[-43.03613,-20.27441],[-43.03541,-20.2763],[-43.03423,-20.27692],[-43.03347,-20.27844],[-43.03368,-20.28109],[-43.03196,-20.28332],[-43.03045,-20.28356],[-43.03023,-20.28283],[-43.02593,-20.28162],[-43.02491,-20.28107],[-43.02433,-20.27953],[-43.02344,-20.27908],[-43.02238,-20.27958],[-43.02103,-20.27914],[-43.01776,-20.27972],[-43.0173,-20.27865],[-43.01744,-20.27614],[-43.01657,-20.27469],[-43.01578,-20.27453],[-43.01483,-20.27534],[-43.01435,-20.27461],[-43.01206,-20.27305],[-43.00917,-20.2714],[-43.00744,-20.27104],[-43.00675,-20.27163],[-43.0039,-20.27183],[-43.00279,-20.27243],[-43.00104,-20.27239],[-42.9993,-20.27173],[-42.99793,-20.27175],[-42.99642,-20.27234],[-42.99513,-20.27202],[-42.99389,-20.26975],[-42.99382,-20.26889],[-42.9965,-20.26528],[-42.99664,-20.26401],[-42.995,-20.2625],[-42.99274,-20.26201],[-42.99234,-20.26267],[-42.99273,-20.26435],[-42.99368,-20.26596],[-42.99358,-20.26676],[-42.99212,-20.26719],[-42.99041,-20.26693],[-42.98978,-20.26711],[-42.98808,-20.26845],[-42.98678,-20.26855],[-42.98481,-20.26721],[-42.98426,-20.26585],[-42.9849,-20.26476],[-42.98607,-20.26403],[-42.98626,-20.26313],[-42.98547,-20.2623],[-42.9855,-20.26148],[-42.98652,-20.26038],[-42.98747,-20.26],[-42.98944,-20.25997],[-42.99004,-20.2596],[-42.99017,-20.2582],[-42.9918,-20.25522],[-42.99104,-20.2535],[-42.99043,-20.25277],[-42.98893,-20.25211],[-42.98794,-20.25215],[-42.98678,-20.25305],[-42.98655,-20.25403],[-42.98564,-20.25454],[-42.98429,-20.25432],[-42.98315,-20.2545],[-42.98116,-20.25726],[-42.97987,-20.25758],[-42.97631,-20.25587],[-42.97573,-20.25598],[-42.97542,-20.25506],[-42.97403,-20.25435],[-42.9731,-20.25352],[-42.97276,-20.25223],[-42.97298,-20.25153],[-42.9741,-20.25114],[-42.97553,-20.24989],[-42.97574,-20.24689],[-42.97625,-20.24608],[-42.97642,-20.24436],[-42.97547,-20.24381],[-42.97459,-20.24194],[-42.97476,-20.24077],[-42.97452,-20.23727],[-42.97493,-20.23565],[-42.97503,-20.23215],[-42.9744,-20.23066],[-42.9736,-20.23018],[-42.97306,-20.22909],[-42.97344,-20.22696],[-42.97344,-20.22459],[-42.97498,-20.22203],[-42.9748,-20.2201],[-42.97393,-20.21899],[-42.97225,-20.21604],[-42.97239,-20.2135],[-42.97124,-20.21161],[-42.97106,-20.20957],[-42.97036,-20.20803],[-42.96943,-20.20689],[-42.9668,-20.20585],[-42.96487,-20.20594],[-42.96313,-20.20548],[-42.9612,-20.20583],[-42.96,-20.20577],[-42.95833,-20.20508],[-42.95717,-20.20411],[-42.95852,-20.20355],[-42.96074,-20.20312],[-42.96182,-20.20234],[-42.9633,-20.20194],[-42.96593,-20.20199],[-42.96785,-20.20152],[-42.96998,-20.20053],[-42.97425,-20.2008],[-42.97644,-20.20052],[-42.97849,-20.19945],[-42.97954,-20.19926],[-42.98227,-20.19969],[-42.98556,-20.19963],[-42.98777,-20.19877],[-42.9896,-20.19865],[-42.99144,-20.19931],[-42.99511,-20.19958],[-42.99849,-20.19935],[-42.99978,-20.19943],[-43.0006,-20.19991],[-43.00307,-20.20273],[-43.0047,-20.20274],[-43.00697,-20.20329],[-43.00857,-20.20261],[-43.00997,-20.20274],[-43.01142,-20.20375],[-43.01286,-20.20425],[-43.01409,-20.20431],[-43.01567,-20.20507],[-43.01604,-20.20572],[-43.01797,-20.2073],[-43.02247,-20.20786],[-43.02758,-20.20575],[-43.02895,-20.20443],[-43.02917,-20.20307],[-43.02741,-20.20032],[-43.02837,-20.19853],[-43.02901,-20.19788],[-43.0312,-20.1966],[-43.03182,-20.19444],[-43.03247,-20.19337],[-43.03442,-20.19258],[-43.03574,-20.19238],[-43.04106,-20.19343],[-43.04479,-20.19317],[-43.047,-20.19206],[-43.04924,-20.19159],[-43.05116,-20.19241],[-43.05247,-20.19252],[-43.05505,-20.19181],[-43.05844,-20.19012],[-43.05971,-20.18932],[-43.06211,-20.1915],[-43.06482,-20.19223],[-43.06578,-20.19087],[-43.06968,-20.1888],[-43.07121,-20.18736],[-43.07252,-20.1866],[-43.07464,-20.18632],[-43.07508,-20.18581],[-43.07499,-20.1835],[-43.07473,-20.18267],[-43.07538,-20.1819],[-43.07816,-20.18058],[-43.08015,-20.17998],[-43.08132,-20.17922],[-43.08152,-20.17824],[-43.08223,-20.1772],[-43.0844,-20.17751],[-43.09009,-20.17762],[-43.09162,-20.17691],[-43.09227,-20.17613],[-43.09346,-20.17566],[-43.09475,-20.17467],[-43.09567,-20.17318],[-43.09737,-20.17316],[-43.09924,-20.17418],[-43.09994,-20.1741],[-43.1004,-20.17322],[-43.10199,-20.17316],[-43.10432,-20.17359],[-43.10609,-20.17426],[-43.10777,-20.17631],[-43.10953,-20.17774],[-43.11092,-20.17852],[-43.11372,-20.17918],[-43.11503,-20.17828],[-43.11834,-20.17703],[-43.12185,-20.1772],[-43.12229,-20.17554],[-43.12238,-20.17386],[-43.12308,-20.17318],[-43.12548,-20.17345],[-43.12806,-20.17455],[-43.13095,-20.17675],[-43.13202,-20.17772],[-43.13255,-20.17719],[-43.13278,-20.17592],[-43.13413,-20.17476],[-43.13703,-20.1746],[-43.1393,-20.17522],[-43.14023,-20.17459],[-43.1397,-20.17321],[-43.13957,-20.17142],[-43.14054,-20.16882],[-43.14155,-20.16803],[-43.14312,-20.16734],[-43.14545,-20.16789],[-43.1466,-20.1678],[-43.14894,-20.16678],[-43.15094,-20.16642],[-43.15153,-20.16689]]]},"properties":{"codigo":"310570715","name":"Bonfim da Barra","population":1128,"households":640,"areaKm2":158.4362,"density":7.1}}]}