{"type":"FeatureCollection","features":[{"type":"Feature","geometry":{"type":"Polygon","coordinates":[[[-43.76447,-21.21075],[-43.76387,-21.21069],[-43.76212,-21.211],[-43.76197,-21.20947],[-43.76152,-21.20825],[-43.76102,-21.20801],[-43.76249,-21.20499],[-43.76261,-21.20438],[-43.76315,-21.20359],[-43.7646,-21.20227],[-43.76508,-21.20208],[-43.76525,-21.20162],[-43.76589,-21.20125],[-43.76636,-21.20021],[-43.76666,-21.19997],[-43.76715,-21.20101],[-43.76668,-21.2016],[-43.76655,-21.20239],[-43.76726,-21.20484],[-43.76751,-21.20531],[-43.76797,-21.2059],[-43.76803,-21.20662],[-43.76779,-21.20809],[-43.76716,-21.20874],[-43.76772,-21.20994],[-43.76769,-21.21056],[-43.76817,-21.21099],[-43.76719,-21.21118],[-43.76447,-21.21075]]]},"properties":{"codigo":"3105608012","name":"Santa Efigênia","population":2874,"households":1139,"areaKm2":0.5457,"density":5266.9}},{"type":"Feature","geometry":{"type":"Polygon","coordinates":[[[-43.75183,-21.2217],[-43.75154,-21.22179],[-43.75111,-21.22347],[-43.75162,-21.22406],[-43.74964,-21.22437],[-43.749,-21.22467],[-43.74744,-21.22586],[-43.74698,-21.22501],[-43.74713,-21.22322],[-43.74728,-21.22262],[-43.7467,-21.22185],[-43.7464,-21.22111],[-43.74413,-21.2187],[-43.74486,-21.21814],[-43.74745,-21.21562],[-43.74837,-21.21655],[-43.75023,-21.21898],[-43.75081,-21.2193],[-43.7514,-21.21926],[-43.75182,-21.21889],[-43.75209,-21.2213],[-43.75183,-21.2217]]]},"properties":{"codigo":"3105608007","name":"Nossa Senhora da Penha","population":1685,"households":726,"areaKm2":0.4673,"density":3606.2}},{"type":"Feature","geometry":{"type":"Polygon","coordinates":[[[-43.77979,-21.21733],[-43.77924,-21.21814],[-43.77931,-21.21891],[-43.77864,-21.2197],[-43.77789,-21.22026],[-43.77784,-21.22016],[-43.77511,-21.21917],[-43.77524,-21.21781],[-43.77611,-21.21803],[-43.77691,-21.21603],[-43.77979,-21.21733]]]},"properties":{"codigo":"3105608009","name":"Padre Cunha","population":617,"households":283,"areaKm2":0.1329,"density":4643.8}},{"type":"Feature","geometry":{"type":"Polygon","coordinates":[[[-43.76783,-21.21813],[-43.76781,-21.21992],[-43.76746,-21.21863],[-43.76714,-21.21813],[-43.76515,-21.21675],[-43.76496,-21.2166],[-43.76786,-21.21485],[-43.7682,-21.21417],[-43.76858,-21.21554],[-43.76855,-21.21641],[-43.76804,-21.21727],[-43.76783,-21.21813]]]},"properties":{"codigo":"3105608021","name":"Andaraí","population":790,"households":380,"areaKm2":0.0858,"density":9208.2}},{"type":"Feature","geometry":{"type":"Polygon","coordinates":[[[-43.74745,-21.21562],[-43.7486,-21.21447],[-43.74926,-21.21354],[-43.74948,-21.21227],[-43.75172,-21.21415],[-43.75275,-21.21474],[-43.75506,-21.21568],[-43.75434,-21.21655],[-43.75296,-21.21754],[-43.75174,-21.21798],[-43.75182,-21.21889],[-43.7514,-21.21926],[-43.75081,-21.2193],[-43.75023,-21.21898],[-43.74837,-21.21655],[-43.74745,-21.21562]]]},"properties":{"codigo":"3105608025","name":"Caiçaras","population":2150,"households":877,"areaKm2":0.2839,"density":7572.1}},{"type":"Feature","geometry":{"type":"Polygon","coordinates":[[[-43.75183,-21.2217],[-43.75399,-21.22157],[-43.75635,-21.22078],[-43.7577,-21.22013],[-43.75863,-21.21981],[-43.75923,-21.21987],[-43.75952,-21.22051],[-43.76096,-21.22004],[-43.76175,-21.21959],[-43.76342,-21.21838],[-43.76407,-21.21809],[-43.76427,-21.21732],[-43.76515,-21.21675],[-43.76714,-21.21813],[-43.76746,-21.21863],[-43.76781,-21.21992],[-43.76797,-21.22083],[-43.76901,-21.22419],[-43.76934,-21.22487],[-43.77043,-21.22645],[-43.77053,-21.22774],[-43.77019,-21.22836],[-43.76869,-21.22968],[-43.76749,-21.23007],[-43.76655,-21.2298],[-43.76549,-21.22907],[-43.76457,-21.22882],[-43.764,-21.22889],[-43.76288,-21.22929],[-43.76226,-21.22929],[-43.761,-21.22894],[-43.76045,-21.229],[-43.76,-21.22897],[-43.75897,-21.2296],[-43.75662,-21.22915],[-43.75532,-21.22823],[-43.75461,-21.22687],[-43.75162,-21.22406],[-43.75111,-21.22347],[-43.75154,-21.22179],[-43.75183,-21.2217]]]},"properties":{"codigo":"3105608015","name":"São José","population":4031,"households":1913,"areaKm2":1.7931,"density":2248.1}},{"type":"Feature","geometry":{"type":"Polygon","coordinates":[[[-43.77416,-21.23568],[-43.77419,-21.23624],[-43.77533,-21.23777],[-43.77535,-21.23858],[-43.77576,-21.23916],[-43.77694,-21.23962],[-43.77669,-21.24015],[-43.77563,-21.24063],[-43.77472,-21.2412],[-43.77323,-21.24267],[-43.77278,-21.24208],[-43.77225,-21.24101],[-43.77223,-21.24057],[-43.77182,-21.2402],[-43.77197,-21.23862],[-43.77219,-21.2374],[-43.77224,-21.23544],[-43.77319,-21.23526],[-43.77416,-21.23568]]]},"properties":{"codigo":"3105608036","name":"Nossa Senhora de Fátima","population":613,"households":251,"areaKm2":0.2359,"density":2598.4}},{"type":"Feature","geometry":{"type":"Polygon","coordinates":[[[-43.76102,-21.20801],[-43.75935,-21.20664],[-43.75892,-21.2065],[-43.75894,-21.20592],[-43.75856,-21.20549],[-43.7582,-21.20575],[-43.75785,-21.20656],[-43.75684,-21.20685],[-43.7565,-21.20699],[-43.75495,-21.20657],[-43.75526,-21.20562],[-43.75595,-21.20442],[-43.75613,-21.20346],[-43.75528,-21.20247],[-43.7546,-21.20213],[-43.75479,-21.20167],[-43.7563,-21.20089],[-43.75594,-21.20029],[-43.7541,-21.1989],[-43.75242,-21.19771],[-43.75159,-21.19759],[-43.7517,-21.19627],[-43.74976,-21.19657],[-43.75,-21.19623],[-43.75131,-21.19582],[-43.75122,-21.19519],[-43.75233,-21.19444],[-43.75285,-21.19427],[-43.7533,-21.19332],[-43.75406,-21.19267],[-43.75542,-21.19179],[-43.75654,-21.19175],[-43.75742,-21.19137],[-43.75836,-21.19191],[-43.75898,-21.19202],[-43.76062,-21.19279],[-43.76228,-21.19224],[-43.7627,-21.19239],[-43.76346,-21.19224],[-43.76387,-21.19245],[-43.76506,-21.19243],[-43.76665,-21.19385],[-43.76807,-21.19485],[-43.76914,-21.19455],[-43.76986,-21.19407],[-43.77039,-21.19422],[-43.77149,-21.19422],[-43.77171,-21.19437],[-43.77103,-21.19501],[-43.7699,-21.1965],[-43.76834,-21.1988],[-43.76805,-21.1998],[-43.76716,-21.20099],[-43.76715,-21.20101],[-43.76666,-21.19997],[-43.76636,-21.20021],[-43.76589,-21.20125],[-43.76525,-21.20162],[-43.76508,-21.20208],[-43.7646,-21.20227],[-43.76315,-21.20359],[-43.76261,-21.20438],[-43.76249,-21.20499],[-43.76102,-21.20801]]]},"properties":{"codigo":"3105608043","name":"Santo Antônio","population":5140,"households":2122,"areaKm2":2.0734,"density":2479}},{"type":"Feature","geometry":{"type":"Polygon","coordinates":[[[-43.80399,-21.19253],[-43.80347,-21.19327],[-43.80205,-21.19488],[-43.80194,-21.19525],[-43.80029,-21.19565],[-43.79947,-21.19617],[-43.7991,-21.19678],[-43.79819,-21.19745],[-43.79616,-21.19793],[-43.79509,-21.19797],[-43.79464,-21.19855],[-43.79321,-21.1989],[-43.79203,-21.19823],[-43.7916,-21.19837],[-43.79075,-21.19919],[-43.79006,-21.1996],[-43.78919,-21.19984],[-43.78903,-21.20026],[-43.7884,-21.20044],[-43.78772,-21.20026],[-43.78682,-21.19924],[-43.78649,-21.19857],[-43.7863,-21.19763],[-43.7858,-21.19633],[-43.7852,-21.19541],[-43.78437,-21.19529],[-43.78442,-21.19475],[-43.78484,-21.19428],[-43.78513,-21.19331],[-43.78599,-21.19306],[-43.78888,-21.19303],[-43.7908,-21.19218],[-43.79157,-21.19091],[-43.79205,-21.19081],[-43.79244,-21.19112],[-43.79281,-21.19086],[-43.79396,-21.19054],[-43.79432,-21.19119],[-43.79646,-21.19178],[-43.7971,-21.1927],[-43.79762,-21.1932],[-43.79757,-21.19392],[-43.79858,-21.19426],[-43.79923,-21.19373],[-43.80095,-21.19419],[-43.80155,-21.19416],[-43.80334,-21.1927],[-43.80399,-21.19253]]]},"properties":{"codigo":"3105608004","name":"João Paulo II","population":3267,"households":1341,"areaKm2":1.0809,"density":3022.6}},{"type":"Feature","geometry":{"type":"Polygon","coordinates":[[[-43.78555,-21.20981],[-43.78487,-21.20945],[-43.78596,-21.20812],[-43.78602,-21.20694],[-43.78541,-21.20639],[-43.78475,-21.2065],[-43.78456,-21.20571],[-43.78509,-21.20471],[-43.78493,-21.20397],[-43.78596,-21.20376],[-43.78594,-21.20345],[-43.78617,-21.20344],[-43.78745,-21.20328],[-43.78812,-21.20307],[-43.79253,-21.20099],[-43.7944,-21.20016],[-43.79745,-21.19868],[-43.79768,-21.19956],[-43.79762,-21.20015],[-43.79862,-21.20086],[-43.79869,-21.20115],[-43.79962,-21.20158],[-43.79971,-21.20201],[-43.80072,-21.20258],[-43.80185,-21.20407],[-43.80319,-21.20391],[-43.80359,-21.20331],[-43.80463,-21.2052],[-43.80336,-21.20636],[-43.80252,-21.20675],[-43.80001,-21.20702],[-43.79901,-21.20669],[-43.79641,-21.20497],[-43.79632,-21.20574],[-43.79659,-21.2067],[-43.79654,-21.20785],[-43.79752,-21.20788],[-43.79784,-21.20825],[-43.79808,-21.20991],[-43.79731,-21.21047],[-43.79463,-21.21209],[-43.79386,-21.21264],[-43.7927,-21.21284],[-43.79212,-21.2127],[-43.78884,-21.21068],[-43.78864,-21.20988],[-43.78727,-21.20988],[-43.78615,-21.20973],[-43.78555,-21.20981]]]},"properties":{"codigo":"3105608031","name":"Floresta","population":894,"households":353,"areaKm2":1.6635,"density":537.4}},{"type":"Feature","geometry":{"type":"Polygon","coordinates":[[[-43.79221,-21.22175],[-43.79278,-21.22218],[-43.79496,-21.22281],[-43.79554,-21.22234],[-43.7961,-21.22339],[-43.79694,-21.22343],[-43.79652,-21.22376],[-43.79556,-21.22412],[-43.79395,-21.22451],[-43.79345,-21.22479],[-43.79269,-21.22452],[-43.79217,-21.22474],[-43.79197,-21.22416],[-43.79038,-21.22355],[-43.78985,-21.22353],[-43.78832,-21.22387],[-43.78778,-21.22373],[-43.78727,-21.22323],[-43.78645,-21.22332],[-43.78448,-21.22209],[-43.78359,-21.22189],[-43.78351,-21.2215],[-43.78287,-21.21937],[-43.78536,-21.22031],[-43.78733,-21.2225],[-43.78797,-21.22285],[-43.78838,-21.22257],[-43.78973,-21.22266],[-43.79171,-21.2223],[-43.79221,-21.22175]]]},"properties":{"codigo":"3105608011","name":"Santa Cecília","population":1922,"households":813,"areaKm2":0.2546,"density":7549.4}},{"type":"Feature","geometry":{"type":"Polygon","coordinates":[[[-43.76447,-21.21075],[-43.76511,-21.213],[-43.76387,-21.21334],[-43.7627,-21.2134],[-43.76018,-21.21311],[-43.75896,-21.2131],[-43.75592,-21.21165],[-43.75566,-21.21131],[-43.75594,-21.2109],[-43.75566,-21.21034],[-43.75626,-21.2098],[-43.75684,-21.20685],[-43.75785,-21.20656],[-43.7582,-21.20575],[-43.75856,-21.20549],[-43.75894,-21.20592],[-43.75892,-21.2065],[-43.75935,-21.20664],[-43.76102,-21.20801],[-43.76152,-21.20825],[-43.76197,-21.20947],[-43.76212,-21.211],[-43.76387,-21.21069],[-43.76447,-21.21075]]]},"properties":{"codigo":"3105608026","name":"Caminho Novo","population":2761,"households":1279,"areaKm2":0.4627,"density":5967.3}},{"type":"Feature","geometry":{"type":"Polygon","coordinates":[[[-43.74744,-21.22586],[-43.74719,-21.22771],[-43.74755,-21.22827],[-43.74755,-21.22956],[-43.74774,-21.23011],[-43.74666,-21.23191],[-43.74495,-21.23254],[-43.7442,-21.23224],[-43.7438,-21.2319],[-43.74424,-21.23133],[-43.74415,-21.22938],[-43.74362,-21.22834],[-43.74273,-21.2272],[-43.74231,-21.22585],[-43.74201,-21.22523],[-43.74079,-21.22472],[-43.73946,-21.22465],[-43.73917,-21.22404],[-43.74007,-21.22072],[-43.73973,-21.21907],[-43.74204,-21.21926],[-43.74291,-21.21919],[-43.74413,-21.2187],[-43.7464,-21.22111],[-43.7467,-21.22185],[-43.74728,-21.22262],[-43.74713,-21.22322],[-43.74698,-21.22501],[-43.74744,-21.22586]]]},"properties":{"codigo":"3105608002","name":"Deputado José Bonifácio (Ipanema)","population":1516,"households":619,"areaKm2":0.7794,"density":1945.2}},{"type":"Feature","geometry":{"type":"Polygon","coordinates":[[[-43.77323,-21.24267],[-43.77375,-21.24343],[-43.77413,-21.24465],[-43.77429,-21.24576],[-43.77489,-21.24735],[-43.7748,-21.24785],[-43.77415,-21.24867],[-43.77376,-21.24943],[-43.77357,-21.2502],[-43.77375,-21.25125],[-43.7729,-21.25293],[-43.77288,-21.25332],[-43.7723,-21.25423],[-43.77244,-21.25525],[-43.77053,-21.2548],[-43.76974,-21.25481],[-43.76908,-21.25443],[-43.76814,-21.25423],[-43.76767,-21.25391],[-43.76719,-21.25376],[-43.76585,-21.25461],[-43.7646,-21.25464],[-43.76438,-21.25362],[-43.76362,-21.2526],[-43.76179,-21.2512],[-43.7614,-21.25015],[-43.76168,-21.24912],[-43.76259,-21.24792],[-43.76288,-21.24703],[-43.76274,-21.24614],[-43.76194,-21.24484],[-43.76176,-21.24391],[-43.7632,-21.24397],[-43.76395,-21.24416],[-43.76506,-21.24393],[-43.76607,-21.2432],[-43.76678,-21.24306],[-43.76848,-21.24243],[-43.76952,-21.24279],[-43.77173,-21.24261],[-43.77237,-21.24205],[-43.77278,-21.24208],[-43.77323,-21.24267]]]},"properties":{"codigo":"3105608030","name":"Dom Bosco","population":695,"households":264,"areaKm2":1.4836,"density":468.4}},{"type":"Feature","geometry":{"type":"Polygon","coordinates":[[[-43.77789,-21.22026],[-43.77697,-21.22151],[-43.77623,-21.22228],[-43.77614,-21.22398],[-43.77579,-21.22535],[-43.77652,-21.22551],[-43.77643,-21.22688],[-43.77711,-21.22686],[-43.77749,-21.22817],[-43.77785,-21.22977],[-43.77857,-21.2299],[-43.7783,-21.23181],[-43.77722,-21.23168],[-43.77707,-21.23192],[-43.77618,-21.23194],[-43.77557,-21.22939],[-43.77421,-21.22968],[-43.77353,-21.22952],[-43.77246,-21.23014],[-43.77179,-21.22999],[-43.77164,-21.22958],[-43.77188,-21.22801],[-43.77176,-21.22749],[-43.77053,-21.22774],[-43.77043,-21.22645],[-43.76934,-21.22487],[-43.76901,-21.22419],[-43.76797,-21.22083],[-43.76781,-21.21992],[-43.76783,-21.21813],[-43.76894,-21.21795],[-43.76893,-21.2175],[-43.76961,-21.21574],[-43.77221,-21.21536],[-43.77221,-21.21638],[-43.77241,-21.21704],[-43.77312,-21.21785],[-43.77354,-21.21792],[-43.77385,-21.21745],[-43.77524,-21.21781],[-43.77511,-21.21917],[-43.77784,-21.22016],[-43.77789,-21.22026]]]},"properties":{"codigo":"3105608027","name":"Centro","population":6036,"households":3607,"areaKm2":1.137,"density":5308.6}},{"type":"Feature","geometry":{"type":"Polygon","coordinates":[[[-43.76817,-21.21099],[-43.76902,-21.21108],[-43.76904,-21.21067],[-43.77038,-21.21031],[-43.77129,-21.20982],[-43.77153,-21.21076],[-43.77258,-21.21037],[-43.77426,-21.2106],[-43.77444,-21.21062],[-43.77502,-21.21238],[-43.77397,-21.2124],[-43.77251,-21.21262],[-43.77269,-21.21379],[-43.77204,-21.21397],[-43.77221,-21.21536],[-43.76961,-21.21574],[-43.76893,-21.2175],[-43.76894,-21.21795],[-43.76783,-21.21813],[-43.76804,-21.21727],[-43.76855,-21.21641],[-43.76858,-21.21554],[-43.7682,-21.21417],[-43.76786,-21.21485],[-43.76496,-21.2166],[-43.76404,-21.21587],[-43.76287,-21.21524],[-43.76135,-21.21507],[-43.75974,-21.21549],[-43.75947,-21.21434],[-43.75982,-21.21419],[-43.76018,-21.21311],[-43.7627,-21.2134],[-43.76387,-21.21334],[-43.76511,-21.213],[-43.76447,-21.21075],[-43.76719,-21.21118],[-43.76817,-21.21099]]]},"properties":{"codigo":"3105608040","name":"Pontilhão","population":2751,"households":1368,"areaKm2":0.6216,"density":4425.7}},{"type":"Feature","geometry":{"type":"Polygon","coordinates":[[[-43.77707,-21.23192],[-43.77689,-21.23252],[-43.77551,-21.23264],[-43.77453,-21.23213],[-43.77324,-21.23235],[-43.77241,-21.23236],[-43.7718,-21.23134],[-43.77159,-21.23071],[-43.77179,-21.22999],[-43.77246,-21.23014],[-43.77353,-21.22952],[-43.77421,-21.22968],[-43.77557,-21.22939],[-43.77618,-21.23194],[-43.77707,-21.23192]]]},"properties":{"codigo":"3105608045","name":"São Geraldo","population":834,"households":455,"areaKm2":0.1314,"density":6348.7}},{"type":"Feature","geometry":{"type":"Polygon","coordinates":[[[-43.79514,-21.22613],[-43.79606,-21.22676],[-43.79661,-21.22755],[-43.79698,-21.22774],[-43.79711,-21.22945],[-43.79672,-21.22994],[-43.79551,-21.23],[-43.79362,-21.23089],[-43.79433,-21.23179],[-43.79671,-21.23425],[-43.79648,-21.23455],[-43.79622,-21.2362],[-43.79578,-21.23692],[-43.79441,-21.23878],[-43.7939,-21.2398],[-43.79297,-21.2408],[-43.79262,-21.24189],[-43.79286,-21.23893],[-43.79292,-21.2366],[-43.79248,-21.23489],[-43.79153,-21.2333],[-43.79033,-21.2319],[-43.78894,-21.23116],[-43.7882,-21.23129],[-43.78663,-21.23239],[-43.78635,-21.2327],[-43.78551,-21.23174],[-43.78523,-21.23104],[-43.78591,-21.23081],[-43.78649,-21.23065],[-43.78802,-21.22871],[-43.78929,-21.2273],[-43.79025,-21.22645],[-43.79294,-21.22668],[-43.79372,-21.22641],[-43.79514,-21.22613]]]},"properties":{"codigo":"3105608003","name":"Doutor Geraldo Xavier","population":1721,"households":775,"areaKm2":0.8046,"density":2138.9}},{"type":"Feature","geometry":{"type":"Polygon","coordinates":[[[-43.79262,-21.24189],[-43.79242,-21.24476],[-43.79247,-21.24581],[-43.79281,-21.24645],[-43.79423,-21.24744],[-43.79426,-21.24817],[-43.79251,-21.24921],[-43.7916,-21.2499],[-43.79095,-21.24914],[-43.79014,-21.2489],[-43.78908,-21.2494],[-43.78815,-21.24913],[-43.78759,-21.24807],[-43.78683,-21.24771],[-43.78585,-21.24803],[-43.78511,-21.24809],[-43.78438,-21.24736],[-43.7841,-21.24609],[-43.78476,-21.24589],[-43.78504,-21.24517],[-43.78474,-21.2447],[-43.78378,-21.24431],[-43.78317,-21.24365],[-43.78288,-21.24301],[-43.78226,-21.24252],[-43.78193,-21.24185],[-43.78031,-21.24149],[-43.78076,-21.2411],[-43.7773,-21.23762],[-43.77713,-21.2374],[-43.77973,-21.23694],[-43.78145,-21.23647],[-43.78136,-21.236],[-43.78237,-21.23527],[-43.78383,-21.23506],[-43.78502,-21.23408],[-43.78553,-21.23385],[-43.78635,-21.2327],[-43.78663,-21.23239],[-43.7882,-21.23129],[-43.78894,-21.23116],[-43.79033,-21.2319],[-43.79153,-21.2333],[-43.79248,-21.23489],[-43.79292,-21.2366],[-43.79286,-21.23893],[-43.79262,-21.24189]]]},"properties":{"codigo":"3105608010","name":"Roman","population":356,"households":168,"areaKm2":1.9556,"density":182}},{"type":"Feature","geometry":{"type":"Polygon","coordinates":[[[-43.76749,-21.23007],[-43.76823,-21.23154],[-43.76914,-21.23234],[-43.77023,-21.23246],[-43.77092,-21.233],[-43.77195,-21.23323],[-43.77255,-21.23367],[-43.77001,-21.23697],[-43.7692,-21.23676],[-43.76887,-21.23846],[-43.76891,-21.23882],[-43.7679,-21.23896],[-43.76064,-21.23824],[-43.76063,-21.23724],[-43.76045,-21.23676],[-43.75961,-21.23585],[-43.75929,-21.23531],[-43.75924,-21.23455],[-43.75975,-21.233],[-43.75969,-21.23208],[-43.75926,-21.23108],[-43.7593,-21.23004],[-43.75972,-21.2294],[-43.76045,-21.229],[-43.761,-21.22894],[-43.76226,-21.22929],[-43.76288,-21.22929],[-43.764,-21.22889],[-43.76457,-21.22882],[-43.76549,-21.22907],[-43.76655,-21.2298],[-43.76749,-21.23007]]]},"properties":{"codigo":"3105608024","name":"Bom Pastor","population":1150,"households":525,"areaKm2":1.0835,"density":1061.4}},{"type":"Feature","geometry":{"type":"Polygon","coordinates":[[[-43.76715,-21.20101],[-43.76716,-21.20099],[-43.7679,-21.20174],[-43.76857,-21.20197],[-43.77036,-21.20185],[-43.77111,-21.20197],[-43.77163,-21.20084],[-43.77207,-21.20054],[-43.77274,-21.20043],[-43.77445,-21.20066],[-43.775,-21.20064],[-43.77633,-21.19988],[-43.7772,-21.2003],[-43.77635,-21.20117],[-43.77607,-21.20221],[-43.77513,-21.20443],[-43.77529,-21.2048],[-43.77389,-21.206],[-43.7731,-21.20583],[-43.77215,-21.20502],[-43.77167,-21.2051],[-43.77,-21.20507],[-43.77001,-21.20563],[-43.76901,-21.2061],[-43.76798,-21.20572],[-43.76751,-21.20531],[-43.76726,-21.20484],[-43.76655,-21.20239],[-43.76668,-21.2016],[-43.76715,-21.20101]]]},"properties":{"codigo":"3105608018","name":"Vista Alegre","population":1969,"households":781,"areaKm2":0.4491,"density":4384.4}},{"type":"Feature","geometry":{"type":"Polygon","coordinates":[[[-43.77053,-21.22774],[-43.77176,-21.22749],[-43.77188,-21.22801],[-43.77164,-21.22958],[-43.77179,-21.22999],[-43.77159,-21.23071],[-43.7718,-21.23134],[-43.77241,-21.23236],[-43.77249,-21.23298],[-43.77195,-21.23323],[-43.77092,-21.233],[-43.77023,-21.23246],[-43.76914,-21.23234],[-43.76823,-21.23154],[-43.76749,-21.23007],[-43.76869,-21.22968],[-43.77019,-21.22836],[-43.77053,-21.22774]]]},"properties":{"codigo":"3105608034","name":"Jardim","population":1218,"households":655,"areaKm2":0.1747,"density":6970}},{"type":"Feature","geometry":{"type":"Polygon","coordinates":[[[-43.79694,-21.22343],[-43.79775,-21.22246],[-43.79843,-21.22184],[-43.79959,-21.22109],[-43.79906,-21.22012],[-43.79914,-21.21922],[-43.79952,-21.21846],[-43.79943,-21.21807],[-43.80039,-21.21749],[-43.80081,-21.21627],[-43.80183,-21.21536],[-43.8019,-21.21463],[-43.80272,-21.21437],[-43.80367,-21.2134],[-43.80631,-21.21385],[-43.80655,-21.21407],[-43.80659,-21.21542],[-43.80802,-21.21701],[-43.80859,-21.21864],[-43.80856,-21.21933],[-43.80821,-21.22034],[-43.80919,-21.22197],[-43.80966,-21.22332],[-43.80987,-21.22434],[-43.81059,-21.22616],[-43.81047,-21.22699],[-43.81018,-21.22737],[-43.80891,-21.22789],[-43.80789,-21.22881],[-43.80702,-21.23035],[-43.80657,-21.23094],[-43.80514,-21.23096],[-43.80447,-21.23047],[-43.80457,-21.22926],[-43.80385,-21.22928],[-43.80285,-21.22956],[-43.80143,-21.23016],[-43.80037,-21.23046],[-43.79995,-21.23106],[-43.79982,-21.23219],[-43.7992,-21.23302],[-43.79854,-21.23345],[-43.7972,-21.23395],[-43.79671,-21.23425],[-43.79433,-21.23179],[-43.79362,-21.23089],[-43.79551,-21.23],[-43.79672,-21.22994],[-43.79711,-21.22945],[-43.79698,-21.22774],[-43.79661,-21.22755],[-43.79606,-21.22676],[-43.79514,-21.22613],[-43.79536,-21.22594],[-43.79477,-21.22525],[-43.79556,-21.22412],[-43.79652,-21.22376],[-43.79694,-21.22343]]]},"properties":{"codigo":"3105608035","name":"Monte Mário","population":3104,"households":1229,"areaKm2":2.1484,"density":1444.8}},{"type":"Feature","geometry":{"type":"Polygon","coordinates":[[[-43.78591,-21.23081],[-43.78518,-21.23066],[-43.78463,-21.22963],[-43.78443,-21.22894],[-43.78363,-21.22764],[-43.78235,-21.22672],[-43.78193,-21.22659],[-43.78236,-21.22599],[-43.78168,-21.22557],[-43.78177,-21.22479],[-43.78221,-21.22427],[-43.78171,-21.22387],[-43.7822,-21.22335],[-43.78157,-21.22264],[-43.78169,-21.22255],[-43.78281,-21.22374],[-43.78468,-21.22515],[-43.7858,-21.22535],[-43.78645,-21.22565],[-43.78811,-21.22597],[-43.78907,-21.22604],[-43.79025,-21.22645],[-43.78929,-21.2273],[-43.78802,-21.22871],[-43.78649,-21.23065],[-43.78591,-21.23081]]]},"properties":{"codigo":"3105608042","name":"Santa Tereza","population":1522,"households":696,"areaKm2":0.3256,"density":4674.1}},{"type":"Feature","geometry":{"type":"Polygon","coordinates":[[[-43.76751,-21.20531],[-43.76798,-21.20572],[-43.76901,-21.2061],[-43.76962,-21.20651],[-43.77001,-21.20721],[-43.77013,-21.20826],[-43.77039,-21.20875],[-43.77129,-21.20982],[-43.77038,-21.21031],[-43.76904,-21.21067],[-43.76902,-21.21108],[-43.76817,-21.21099],[-43.76769,-21.21056],[-43.76772,-21.20994],[-43.76716,-21.20874],[-43.76779,-21.20809],[-43.76803,-21.20662],[-43.76797,-21.2059],[-43.76751,-21.20531]]]},"properties":{"codigo":"3105608039","name":"Novo Horizonte","population":1580,"households":632,"areaKm2":0.1381,"density":11440.1}},{"type":"Feature","geometry":{"type":"Polygon","coordinates":[[[-43.77129,-21.20982],[-43.77039,-21.20875],[-43.77013,-21.20826],[-43.77001,-21.20721],[-43.76962,-21.20651],[-43.76901,-21.2061],[-43.77001,-21.20563],[-43.77,-21.20507],[-43.77167,-21.2051],[-43.77215,-21.20502],[-43.7731,-21.20583],[-43.77389,-21.206],[-43.77349,-21.20655],[-43.77351,-21.20782],[-43.77402,-21.2086],[-43.77427,-21.2098],[-43.77464,-21.20995],[-43.77426,-21.2106],[-43.77258,-21.21037],[-43.77153,-21.21076],[-43.77129,-21.20982]]]},"properties":{"codigo":"3105608041","name":"Santa Luzia","population":1953,"households":795,"areaKm2":0.2149,"density":9087.9}},{"type":"Feature","geometry":{"type":"Polygon","coordinates":[[[-43.74231,-21.22585],[-43.74138,-21.22644],[-43.7405,-21.22732],[-43.74004,-21.2276],[-43.73802,-21.22827],[-43.73723,-21.22843],[-43.73447,-21.22862],[-43.73389,-21.22967],[-43.73335,-21.22901],[-43.73174,-21.22859],[-43.73043,-21.2279],[-43.72945,-21.22772],[-43.72939,-21.22737],[-43.72843,-21.22703],[-43.72984,-21.22346],[-43.73045,-21.22257],[-43.73162,-21.22169],[-43.73491,-21.22023],[-43.73601,-21.21969],[-43.73752,-21.21915],[-43.73839,-21.21903],[-43.73973,-21.21907],[-43.74007,-21.22072],[-43.73917,-21.22404],[-43.73946,-21.22465],[-43.74079,-21.22472],[-43.74201,-21.22523],[-43.74231,-21.22585]]]},"properties":{"codigo":"3105608008","name":"Nova Suíça","population":1822,"households":724,"areaKm2":0.9983,"density":1825.1}},{"type":"Feature","geometry":{"type":"Polygon","coordinates":[[[-43.77278,-21.24208],[-43.77237,-21.24205],[-43.77173,-21.24261],[-43.76952,-21.24279],[-43.76848,-21.24243],[-43.76678,-21.24306],[-43.76607,-21.2432],[-43.76506,-21.24393],[-43.76395,-21.24416],[-43.7632,-21.24397],[-43.76176,-21.24391],[-43.76224,-21.24244],[-43.76207,-21.24147],[-43.76072,-21.23876],[-43.76064,-21.23824],[-43.7679,-21.23896],[-43.76891,-21.23882],[-43.76887,-21.23846],[-43.7692,-21.23676],[-43.77001,-21.23697],[-43.77255,-21.23367],[-43.77363,-21.23404],[-43.77416,-21.2347],[-43.77416,-21.23568],[-43.77319,-21.23526],[-43.77224,-21.23544],[-43.77219,-21.2374],[-43.77197,-21.23862],[-43.77182,-21.2402],[-43.77223,-21.24057],[-43.77225,-21.24101],[-43.77278,-21.24208]]]},"properties":{"codigo":"3105608037","name":"Nossa Senhora do Carmo","population":1856,"households":743,"areaKm2":0.6822,"density":2720.6}},{"type":"Feature","geometry":{"type":"Polygon","coordinates":[[[-43.77524,-21.21781],[-43.77385,-21.21745],[-43.77354,-21.21792],[-43.77312,-21.21785],[-43.77241,-21.21704],[-43.77221,-21.21638],[-43.77221,-21.21536],[-43.77204,-21.21397],[-43.77269,-21.21379],[-43.77251,-21.21262],[-43.77397,-21.2124],[-43.77502,-21.21238],[-43.77755,-21.21252],[-43.77927,-21.21274],[-43.77997,-21.21303],[-43.78104,-21.21406],[-43.78172,-21.21436],[-43.77979,-21.21733],[-43.77691,-21.21603],[-43.77611,-21.21803],[-43.77524,-21.21781]]]},"properties":{"codigo":"3105608047","name":"São Sebastião","population":2471,"households":1223,"areaKm2":0.4481,"density":5513.9}},{"type":"Feature","geometry":{"type":"Polygon","coordinates":[[[-43.7442,-21.23224],[-43.74332,-21.23295],[-43.74213,-21.23356],[-43.74135,-21.23422],[-43.74161,-21.2352],[-43.74114,-21.23652],[-43.74105,-21.23709],[-43.74053,-21.23804],[-43.73923,-21.23807],[-43.73799,-21.23835],[-43.73755,-21.23831],[-43.73574,-21.23771],[-43.73429,-21.23629],[-43.73343,-21.23579],[-43.7309,-21.23474],[-43.72925,-21.2344],[-43.72817,-21.2343],[-43.72693,-21.2344],[-43.72526,-21.23519],[-43.72664,-21.23152],[-43.72843,-21.22703],[-43.72939,-21.22737],[-43.72945,-21.22772],[-43.73043,-21.2279],[-43.73174,-21.22859],[-43.73335,-21.22901],[-43.73389,-21.22967],[-43.73447,-21.22862],[-43.73723,-21.22843],[-43.73802,-21.22827],[-43.74004,-21.2276],[-43.7405,-21.22732],[-43.74138,-21.22644],[-43.74231,-21.22585],[-43.74273,-21.2272],[-43.74362,-21.22834],[-43.74415,-21.22938],[-43.74424,-21.23133],[-43.7438,-21.2319],[-43.7442,-21.23224]]]},"properties":{"codigo":"3105608038","name":"Nova Cidade","population":3823,"households":1518,"areaKm2":1.5617,"density":2448}},{"type":"Feature","geometry":{"type":"Polygon","coordinates":[[[-43.77171,-21.19437],[-43.77268,-21.19452],[-43.7733,-21.19432],[-43.77396,-21.19443],[-43.77546,-21.19437],[-43.77701,-21.1935],[-43.7781,-21.19405],[-43.77878,-21.19486],[-43.77963,-21.19503],[-43.78022,-21.19576],[-43.77994,-21.1965],[-43.77966,-21.19657],[-43.77887,-21.19736],[-43.77872,-21.19814],[-43.77754,-21.19918],[-43.77737,-21.19901],[-43.77633,-21.19988],[-43.775,-21.20064],[-43.77445,-21.20066],[-43.77274,-21.20043],[-43.77207,-21.20054],[-43.77163,-21.20084],[-43.77111,-21.20197],[-43.77036,-21.20185],[-43.76857,-21.20197],[-43.7679,-21.20174],[-43.76716,-21.20099],[-43.76805,-21.1998],[-43.76834,-21.1988],[-43.7699,-21.1965],[-43.77103,-21.19501],[-43.77171,-21.19437]]]},"properties":{"codigo":"3105608044","name":"São Francisco","population":630,"households":254,"areaKm2":0.7255,"density":868.4}},{"type":"Feature","geometry":{"type":"Polygon","coordinates":[[[-43.79221,-21.22175],[-43.7915,-21.21952],[-43.79252,-21.21963],[-43.79299,-21.21952],[-43.79443,-21.21659],[-43.79761,-21.21758],[-43.80081,-21.21627],[-43.80039,-21.21749],[-43.79943,-21.21807],[-43.79952,-21.21846],[-43.79914,-21.21922],[-43.79906,-21.22012],[-43.79959,-21.22109],[-43.79843,-21.22184],[-43.79775,-21.22246],[-43.79694,-21.22343],[-43.7961,-21.22339],[-43.79554,-21.22234],[-43.79496,-21.22281],[-43.79278,-21.22218],[-43.79221,-21.22175]]]},"properties":{"codigo":"3105608048","name":"Valentim Prenassi","population":1273,"households":511,"areaKm2":0.4248,"density":2996.4}},{"type":"Feature","geometry":{"type":"Polygon","coordinates":[[[-43.78536,-21.22031],[-43.78535,-21.21855],[-43.78624,-21.21831],[-43.78683,-21.21565],[-43.78766,-21.21587],[-43.78908,-21.21598],[-43.78977,-21.21652],[-43.79013,-21.21641],[-43.79061,-21.21583],[-43.79443,-21.21659],[-43.79299,-21.21952],[-43.79252,-21.21963],[-43.7915,-21.21952],[-43.79221,-21.22175],[-43.79171,-21.2223],[-43.78973,-21.22266],[-43.78838,-21.22257],[-43.78797,-21.22285],[-43.78733,-21.2225],[-43.78536,-21.22031]]]},"properties":{"codigo":"3105608014","name":"São Cristóvão","population":2485,"households":1132,"areaKm2":0.5031,"density":4939.3}},{"type":"Feature","geometry":{"type":"Polygon","coordinates":[[[-43.77416,-21.23568],[-43.77416,-21.2347],[-43.77363,-21.23404],[-43.77255,-21.23367],[-43.77195,-21.23323],[-43.77249,-21.23298],[-43.77241,-21.23236],[-43.77324,-21.23235],[-43.77453,-21.23213],[-43.77551,-21.23264],[-43.77689,-21.23252],[-43.77707,-21.23192],[-43.77722,-21.23168],[-43.7783,-21.23181],[-43.77872,-21.23273],[-43.77946,-21.23352],[-43.78069,-21.23415],[-43.78067,-21.23515],[-43.78136,-21.236],[-43.78145,-21.23647],[-43.77973,-21.23694],[-43.77713,-21.2374],[-43.7773,-21.23762],[-43.78076,-21.2411],[-43.78031,-21.24149],[-43.78193,-21.24185],[-43.78226,-21.24252],[-43.78288,-21.24301],[-43.78317,-21.24365],[-43.78378,-21.24431],[-43.78474,-21.2447],[-43.78504,-21.24517],[-43.78476,-21.24589],[-43.7841,-21.24609],[-43.78349,-21.24752],[-43.78294,-21.24908],[-43.78269,-21.24855],[-43.78157,-21.24767],[-43.78056,-21.24715],[-43.78014,-21.24653],[-43.7785,-21.2462],[-43.77825,-21.24642],[-43.77489,-21.24735],[-43.77429,-21.24576],[-43.77413,-21.24465],[-43.77375,-21.24343],[-43.77323,-21.24267],[-43.77472,-21.2412],[-43.77563,-21.24063],[-43.77669,-21.24015],[-43.77694,-21.23962],[-43.77576,-21.23916],[-43.77535,-21.23858],[-43.77533,-21.23777],[-43.77419,-21.23624],[-43.77416,-21.23568]]]},"properties":{"codigo":"3105608029","name":"Do Campo","population":2479,"households":1169,"areaKm2":1.1515,"density":2152.8}},{"type":"Feature","geometry":{"type":"Polygon","coordinates":[[[-43.78555,-21.20981],[-43.78498,-21.21111],[-43.78492,-21.21223],[-43.78444,-21.21318],[-43.78365,-21.21387],[-43.78172,-21.21436],[-43.78104,-21.21406],[-43.77997,-21.21303],[-43.77927,-21.21274],[-43.77755,-21.21252],[-43.77502,-21.21238],[-43.77444,-21.21062],[-43.77552,-21.2102],[-43.7757,-21.20939],[-43.77612,-21.20903],[-43.77612,-21.20817],[-43.77647,-21.20752],[-43.77772,-21.20725],[-43.77802,-21.20771],[-43.77917,-21.20735],[-43.7794,-21.20637],[-43.77936,-21.20357],[-43.77987,-21.20324],[-43.78594,-21.20345],[-43.78596,-21.20376],[-43.78493,-21.20397],[-43.78509,-21.20471],[-43.78456,-21.20571],[-43.78475,-21.2065],[-43.78541,-21.20639],[-43.78602,-21.20694],[-43.78596,-21.20812],[-43.78487,-21.20945],[-43.78555,-21.20981]]]},"properties":{"codigo":"3105608028","name":"Diniz","population":3555,"households":1421,"areaKm2":0.9257,"density":3840.5}},{"type":"Feature","geometry":{"type":"Polygon","coordinates":[[[-43.79556,-21.22412],[-43.79477,-21.22525],[-43.79536,-21.22594],[-43.79514,-21.22613],[-43.79372,-21.22641],[-43.79294,-21.22668],[-43.79025,-21.22645],[-43.78907,-21.22604],[-43.78811,-21.22597],[-43.78645,-21.22565],[-43.7858,-21.22535],[-43.78468,-21.22515],[-43.78281,-21.22374],[-43.78169,-21.22255],[-43.78232,-21.22185],[-43.78351,-21.2215],[-43.78359,-21.22189],[-43.78448,-21.22209],[-43.78645,-21.22332],[-43.78727,-21.22323],[-43.78778,-21.22373],[-43.78832,-21.22387],[-43.78985,-21.22353],[-43.79038,-21.22355],[-43.79197,-21.22416],[-43.79217,-21.22474],[-43.79269,-21.22452],[-43.79345,-21.22479],[-43.79395,-21.22451],[-43.79556,-21.22412]]]},"properties":{"codigo":"3105608005","name":"Monsenhor Mário Quintão","population":1771,"households":780,"areaKm2":0.3499,"density":5062}},{"type":"Feature","geometry":{"type":"Polygon","coordinates":[[[-43.77979,-21.21733],[-43.78172,-21.21436],[-43.78365,-21.21387],[-43.78444,-21.21318],[-43.78529,-21.21449],[-43.7861,-21.21531],[-43.78683,-21.21565],[-43.78624,-21.21831],[-43.78535,-21.21855],[-43.78536,-21.22031],[-43.78287,-21.21937],[-43.78263,-21.21959],[-43.7816,-21.2196],[-43.78002,-21.22001],[-43.77931,-21.21891],[-43.77924,-21.21814],[-43.77979,-21.21733]]]},"properties":{"codigo":"3105608032","name":"Funcionários","population":3201,"households":1405,"areaKm2":0.384,"density":8335.7}},{"type":"Feature","geometry":{"type":"Polygon","coordinates":[[[-43.78772,-21.20026],[-43.78611,-21.20091],[-43.78658,-21.20261],[-43.78617,-21.20344],[-43.78594,-21.20345],[-43.77987,-21.20324],[-43.77936,-21.20357],[-43.7794,-21.20637],[-43.77917,-21.20735],[-43.77802,-21.20771],[-43.77772,-21.20725],[-43.77647,-21.20752],[-43.77612,-21.20817],[-43.77612,-21.20903],[-43.7757,-21.20939],[-43.77552,-21.2102],[-43.77444,-21.21062],[-43.77426,-21.2106],[-43.77464,-21.20995],[-43.77427,-21.2098],[-43.77402,-21.2086],[-43.77351,-21.20782],[-43.77349,-21.20655],[-43.77389,-21.206],[-43.77529,-21.2048],[-43.77513,-21.20443],[-43.77607,-21.20221],[-43.77635,-21.20117],[-43.7772,-21.2003],[-43.77633,-21.19988],[-43.77737,-21.19901],[-43.77754,-21.19918],[-43.77872,-21.19814],[-43.77887,-21.19736],[-43.77966,-21.19657],[-43.77994,-21.1965],[-43.78022,-21.19576],[-43.77963,-21.19503],[-43.78157,-21.19304],[-43.78246,-21.19288],[-43.7849,-21.19312],[-43.78513,-21.19331],[-43.78484,-21.19428],[-43.78442,-21.19475],[-43.78437,-21.19529],[-43.7852,-21.19541],[-43.7858,-21.19633],[-43.7863,-21.19763],[-43.78649,-21.19857],[-43.78682,-21.19924],[-43.78772,-21.20026]]]},"properties":{"codigo":"3105608033","name":"Grogotó","population":5252,"households":2261,"areaKm2":1.2103,"density":4339.3}},{"type":"Feature","geometry":{"type":"Polygon","coordinates":[[[-43.75182,-21.21889],[-43.75174,-21.21798],[-43.75296,-21.21754],[-43.75434,-21.21655],[-43.75506,-21.21568],[-43.75623,-21.21601],[-43.7571,-21.21606],[-43.75806,-21.21592],[-43.75973,-21.21549],[-43.75988,-21.21707],[-43.76017,-21.21785],[-43.76021,-21.21864],[-43.75998,-21.21906],[-43.75863,-21.21981],[-43.7577,-21.22013],[-43.75635,-21.22078],[-43.75399,-21.22157],[-43.75183,-21.2217],[-43.75209,-21.2213],[-43.75182,-21.21889]]]},"properties":{"codigo":"3105608017","name":"Vilela","population":3555,"households":1596,"areaKm2":0.4103,"density":8663.5}},{"type":"Feature","geometry":{"type":"Polygon","coordinates":[[[-43.80399,-21.19253],[-43.80479,-21.19362],[-43.80452,-21.19463],[-43.80425,-21.1951],[-43.80312,-21.19506],[-43.80229,-21.19544],[-43.80021,-21.19669],[-43.79905,-21.19774],[-43.79745,-21.19868],[-43.7944,-21.20016],[-43.79253,-21.20099],[-43.78812,-21.20307],[-43.78745,-21.20328],[-43.78617,-21.20344],[-43.78658,-21.20261],[-43.78611,-21.20091],[-43.78772,-21.20026],[-43.7884,-21.20044],[-43.78903,-21.20026],[-43.78919,-21.19984],[-43.79006,-21.1996],[-43.79075,-21.19919],[-43.7916,-21.19837],[-43.79203,-21.19823],[-43.79321,-21.1989],[-43.79464,-21.19855],[-43.79509,-21.19797],[-43.79616,-21.19793],[-43.79819,-21.19745],[-43.7991,-21.19678],[-43.79947,-21.19617],[-43.80029,-21.19565],[-43.80194,-21.19525],[-43.80205,-21.19488],[-43.80347,-21.19327],[-43.80399,-21.19253]]]},"properties":{"codigo":"3105608013","name":"Santa Maria","population":500,"households":194,"areaKm2":0.3731,"density":1340.2}},{"type":"Feature","geometry":{"type":"Polygon","coordinates":[[[-43.76515,-21.21675],[-43.76427,-21.21732],[-43.76407,-21.21809],[-43.76342,-21.21838],[-43.76175,-21.21959],[-43.76096,-21.22004],[-43.75952,-21.22051],[-43.75923,-21.21987],[-43.75863,-21.21981],[-43.75998,-21.21906],[-43.76021,-21.21864],[-43.76017,-21.21785],[-43.75988,-21.21707],[-43.75973,-21.21549],[-43.75974,-21.21549],[-43.76135,-21.21507],[-43.76287,-21.21524],[-43.76404,-21.21587],[-43.76496,-21.2166],[-43.76515,-21.21675]]]},"properties":{"codigo":"3105608023","name":"Boa Vista","population":1885,"households":890,"areaKm2":0.2123,"density":8880.9}},{"type":"Feature","geometry":{"type":"Polygon","coordinates":[[[-43.79745,-21.19868],[-43.79905,-21.19774],[-43.80021,-21.19669],[-43.80229,-21.19544],[-43.80312,-21.19506],[-43.80425,-21.1951],[-43.80378,-21.1955],[-43.80189,-21.19656],[-43.80129,-21.19709],[-43.80073,-21.19826],[-43.80106,-21.19903],[-43.8026,-21.19975],[-43.80318,-21.20034],[-43.80306,-21.20184],[-43.80359,-21.20331],[-43.80319,-21.20391],[-43.80185,-21.20407],[-43.80072,-21.20258],[-43.79971,-21.20201],[-43.79962,-21.20158],[-43.79869,-21.20115],[-43.79862,-21.20086],[-43.79762,-21.20015],[-43.79768,-21.19956],[-43.79745,-21.19868]]]},"properties":{"codigo":"3105608001","name":"9 de Março","population":1649,"households":627,"areaKm2":0.2944,"density":5601.1}},{"type":"Feature","geometry":{"type":"Polygon","coordinates":[[[-43.79808,-21.20991],[-43.79863,-21.2116],[-43.79816,-21.21272],[-43.79815,-21.21411],[-43.79774,-21.21604],[-43.79775,-21.21717],[-43.79761,-21.21758],[-43.79443,-21.21659],[-43.79061,-21.21583],[-43.79013,-21.21641],[-43.78977,-21.21652],[-43.78908,-21.21598],[-43.78766,-21.21587],[-43.78683,-21.21565],[-43.7861,-21.21531],[-43.78529,-21.21449],[-43.78444,-21.21318],[-43.78492,-21.21223],[-43.78498,-21.21111],[-43.78555,-21.20981],[-43.78615,-21.20973],[-43.78727,-21.20988],[-43.78864,-21.20988],[-43.78884,-21.21068],[-43.79212,-21.2127],[-43.7927,-21.21284],[-43.79386,-21.21264],[-43.79463,-21.21209],[-43.79731,-21.21047],[-43.79808,-21.20991]]]},"properties":{"codigo":"3105608006","name":"Nossa Senhora Aparecida","population":2324,"households":921,"areaKm2":0.7737,"density":3003.9}},{"type":"Feature","geometry":{"type":"Polygon","coordinates":[[[-43.77931,-21.21891],[-43.78002,-21.22001],[-43.7816,-21.2196],[-43.78263,-21.21959],[-43.78287,-21.21937],[-43.78351,-21.2215],[-43.78232,-21.22185],[-43.78169,-21.22255],[-43.78157,-21.22264],[-43.78119,-21.22197],[-43.78029,-21.2228],[-43.77968,-21.22295],[-43.77825,-21.22271],[-43.77775,-21.22243],[-43.77697,-21.22151],[-43.77789,-21.22026],[-43.77864,-21.2197],[-43.77931,-21.21891]]]},"properties":{"codigo":"3105608016","name":"Urias Barbosa de Castro","population":392,"households":208,"areaKm2":0.1832,"density":2140.1}},{"type":"Feature","geometry":{"type":"Polygon","coordinates":[[[-43.75495,-21.20657],[-43.75469,-21.20718],[-43.75379,-21.20764],[-43.75347,-21.20842],[-43.7529,-21.20826],[-43.75297,-21.2076],[-43.752,-21.20612],[-43.75154,-21.20639],[-43.75179,-21.20682],[-43.75009,-21.20782],[-43.74968,-21.2077],[-43.74964,-21.20706],[-43.74915,-21.20517],[-43.74916,-21.20427],[-43.74942,-21.20295],[-43.74939,-21.20203],[-43.74917,-21.20105],[-43.74904,-21.19784],[-43.7492,-21.19699],[-43.74976,-21.19657],[-43.7517,-21.19627],[-43.75159,-21.19759],[-43.75242,-21.19771],[-43.7541,-21.1989],[-43.75594,-21.20029],[-43.7563,-21.20089],[-43.75479,-21.20167],[-43.7546,-21.20213],[-43.75528,-21.20247],[-43.75613,-21.20346],[-43.75595,-21.20442],[-43.75526,-21.20562],[-43.75495,-21.20657]]]},"properties":{"codigo":"3105608020","name":"Água Santa","population":4322,"households":1776,"areaKm2":0.6879,"density":6283.3}},{"type":"Feature","geometry":{"type":"Polygon","coordinates":[[[-43.77697,-21.22151],[-43.77775,-21.22243],[-43.77825,-21.22271],[-43.77968,-21.22295],[-43.78029,-21.2228],[-43.78119,-21.22197],[-43.78157,-21.22264],[-43.7822,-21.22335],[-43.78171,-21.22387],[-43.78221,-21.22427],[-43.78177,-21.22479],[-43.78168,-21.22557],[-43.78236,-21.22599],[-43.78193,-21.22659],[-43.78235,-21.22672],[-43.78363,-21.22764],[-43.78443,-21.22894],[-43.78463,-21.22963],[-43.78518,-21.23066],[-43.78591,-21.23081],[-43.78523,-21.23104],[-43.78551,-21.23174],[-43.78635,-21.2327],[-43.78553,-21.23385],[-43.78502,-21.23408],[-43.78383,-21.23506],[-43.78237,-21.23527],[-43.78136,-21.236],[-43.78067,-21.23515],[-43.78069,-21.23415],[-43.77946,-21.23352],[-43.77872,-21.23273],[-43.7783,-21.23181],[-43.77857,-21.2299],[-43.77785,-21.22977],[-43.77749,-21.22817],[-43.77711,-21.22686],[-43.77643,-21.22688],[-43.77652,-21.22551],[-43.77579,-21.22535],[-43.77614,-21.22398],[-43.77623,-21.22228],[-43.77697,-21.22151]]]},"properties":{"codigo":"3105608022","name":"Boa Morte","population":3697,"households":1791,"areaKm2":0.897,"density":4121.3}},{"type":"Feature","geometry":{"type":"Polygon","coordinates":[[[-43.74948,-21.21227],[-43.74949,-21.21198],[-43.74435,-21.20724],[-43.7409,-21.2046],[-43.7394,-21.20362],[-43.7379,-21.20316],[-43.73776,-21.20266],[-43.73911,-21.2004],[-43.73955,-21.19855],[-43.74016,-21.197],[-43.74071,-21.19644],[-43.74123,-21.19676],[-43.74307,-21.19633],[-43.74465,-21.19688],[-43.74916,-21.19666],[-43.7492,-21.19699],[-43.74904,-21.19784],[-43.74917,-21.20105],[-43.74939,-21.20203],[-43.74942,-21.20295],[-43.74916,-21.20427],[-43.74915,-21.20517],[-43.74964,-21.20706],[-43.74968,-21.2077],[-43.75009,-21.20782],[-43.75179,-21.20682],[-43.75154,-21.20639],[-43.752,-21.20612],[-43.75297,-21.2076],[-43.7529,-21.20826],[-43.75347,-21.20842],[-43.75379,-21.20764],[-43.75469,-21.20718],[-43.75495,-21.20657],[-43.7565,-21.20699],[-43.75684,-21.20685],[-43.75626,-21.2098],[-43.75566,-21.21034],[-43.75594,-21.2109],[-43.75566,-21.21131],[-43.75592,-21.21165],[-43.75896,-21.2131],[-43.76018,-21.21311],[-43.75982,-21.21419],[-43.75947,-21.21434],[-43.75974,-21.21549],[-43.75973,-21.21549],[-43.75806,-21.21592],[-43.7571,-21.21606],[-43.75623,-21.21601],[-43.75506,-21.21568],[-43.75275,-21.21474],[-43.75172,-21.21415],[-43.74948,-21.21227]]]},"properties":{"codigo":"3105608046","name":"São Pedro","population":4075,"households":1815,"areaKm2":1.9591,"density":2080.1}},{"type":"Feature","geometry":{"type":"Polygon","coordinates":[[[-43.77244,-21.25525],[-43.77291,-21.25559],[-43.77323,-21.25631],[-43.77228,-21.2573],[-43.77177,-21.25828],[-43.77153,-21.25903],[-43.77087,-21.2599],[-43.77049,-21.26069],[-43.77029,-21.26223],[-43.76947,-21.26298],[-43.76785,-21.26362],[-43.76671,-21.26385],[-43.76483,-21.26392],[-43.76553,-21.2632],[-43.76575,-21.26247],[-43.76565,-21.26192],[-43.76488,-21.26063],[-43.7646,-21.25952],[-43.76475,-21.25866],[-43.76549,-21.25735],[-43.76767,-21.25391],[-43.76814,-21.25423],[-43.76908,-21.25443],[-43.76974,-21.25481],[-43.77053,-21.2548],[-43.77244,-21.25525]]]},"properties":{"codigo":"3105608019","name":"Aeroporto","population":372,"households":140,"areaKm2":0.6046,"density":615.2}}]}