{"type":"FeatureCollection","features":[{"type":"Feature","geometry":{"type":"Polygon","coordinates":[[[-43.85017,-19.14398],[-43.84962,-19.14501],[-43.84957,-19.1479],[-43.84911,-19.14976],[-43.84802,-19.15135],[-43.8463,-19.15226],[-43.8449,-19.15362],[-43.84334,-19.156],[-43.84264,-19.15667],[-43.84037,-19.15788],[-43.83892,-19.15916],[-43.8385,-19.16054],[-43.83881,-19.16268],[-43.83874,-19.16408],[-43.83828,-19.16548],[-43.83675,-19.168],[-43.83677,-19.1689],[-43.83795,-19.17042],[-43.83834,-19.17184],[-43.83783,-19.17361],[-43.8371,-19.1749],[-43.83726,-19.1768],[-43.8367,-19.17862],[-43.83634,-19.18096],[-43.83665,-19.1825],[-43.83735,-19.18367],[-43.83957,-19.18577],[-43.84014,-19.18749],[-43.83888,-19.18907],[-43.83796,-19.19224],[-43.83561,-19.19401],[-43.83553,-19.19904],[-43.83519,-19.20142],[-43.83699,-19.2062],[-43.83902,-19.20883],[-43.84191,-19.21111],[-43.84281,-19.21223],[-43.84304,-19.2152],[-43.84374,-19.21589],[-43.84466,-19.21607],[-43.84655,-19.21442],[-43.84902,-19.21332],[-43.85151,-19.21257],[-43.85357,-19.2128],[-43.85603,-19.21269],[-43.85753,-19.21318],[-43.85876,-19.214],[-43.86011,-19.21552],[-43.86241,-19.21679],[-43.86548,-19.21707],[-43.86632,-19.21762],[-43.86838,-19.21838],[-43.8705,-19.21993],[-43.87142,-19.22023],[-43.87283,-19.22009],[-43.87525,-19.21892],[-43.8767,-19.21881],[-43.87836,-19.21968],[-43.87931,-19.21966],[-43.88105,-19.21868],[-43.88241,-19.21739],[-43.88516,-19.21696],[-43.88784,-19.21844],[-43.88888,-19.21853],[-43.88978,-19.218],[-43.89104,-19.21614],[-43.89312,-19.21456],[-43.89668,-19.2131],[-43.89902,-19.21393],[-43.90141,-19.21772],[-43.90197,-19.2191],[-43.90307,-19.22358],[-43.90372,-19.22498],[-43.90442,-19.2256],[-43.90628,-19.22645],[-43.90986,-19.22703],[-43.91322,-19.22858],[-43.9166,-19.22948],[-43.92074,-19.23111],[-43.92284,-19.23254],[-43.92852,-19.23556],[-43.93026,-19.23671],[-43.93101,-19.23749],[-43.93333,-19.23855],[-43.93637,-19.23929],[-43.93773,-19.24007],[-43.93867,-19.24184],[-43.93866,-19.2443],[-43.93837,-19.24526],[-43.9388,-19.24818],[-43.94069,-19.24997],[-43.94398,-19.25154],[-43.94685,-19.25138],[-43.95121,-19.25297],[-43.95389,-19.25504],[-43.95527,-19.25543],[-43.95655,-19.25619],[-43.958,-19.25638],[-43.95986,-19.25583],[-43.96156,-19.25468],[-43.96279,-19.25537],[-43.96467,-19.25586],[-43.96608,-19.2557],[-43.96765,-19.25678],[-43.9682,-19.25758],[-43.97053,-19.25841],[-43.97275,-19.25738],[-43.97367,-19.25632],[-43.975,-19.25718],[-43.9764,-19.25731],[-43.9774,-19.25624],[-43.97829,-19.25612],[-43.97863,-19.25695],[-43.97667,-19.25954],[-43.97681,-19.26058],[-43.97742,-19.26138],[-43.98092,-19.26325],[-43.9829,-19.2652],[-43.98484,-19.2664],[-43.98655,-19.26656],[-43.98784,-19.26509],[-43.98871,-19.26458],[-43.99064,-19.26426],[-43.99183,-19.26445],[-43.99309,-19.26551],[-43.99492,-19.26845],[-43.9954,-19.27082],[-43.99562,-19.2736],[-43.99661,-19.27495],[-43.99758,-19.27537],[-43.99963,-19.27514],[-44.00248,-19.27385],[-44.00403,-19.27378],[-44.00724,-19.27455],[-44.00806,-19.27512],[-44.00837,-19.27602],[-44.00791,-19.27689],[-44.00329,-19.28058],[-44.00309,-19.28117],[-44.00359,-19.28312],[-44.00359,-19.28528],[-44.00238,-19.28617],[-44.00074,-19.28644],[-43.99747,-19.28625],[-43.99478,-19.2865],[-43.99336,-19.28699],[-43.99227,-19.28802],[-43.99195,-19.28965],[-43.99306,-19.29151],[-43.99454,-19.29307],[-43.99482,-19.29496],[-43.99528,-19.29574],[-43.99473,-19.29707],[-43.99388,-19.29744],[-43.99088,-19.29633],[-43.98914,-19.29635],[-43.988,-19.29679],[-43.98737,-19.29748],[-43.98645,-19.30046],[-43.98502,-19.30191],[-43.98357,-19.30207],[-43.98255,-19.30168],[-43.98062,-19.30021],[-43.97871,-19.29974],[-43.97512,-19.30073],[-43.97389,-19.30142],[-43.97321,-19.30293],[-43.9728,-19.305],[-43.97282,-19.30897],[-43.97359,-19.30987],[-43.97591,-19.31091],[-43.97908,-19.31056],[-43.98157,-19.31068],[-43.98382,-19.30983],[-43.98435,-19.31266],[-43.98406,-19.31399],[-43.98442,-19.31491],[-43.98331,-19.31571],[-43.98138,-19.31564],[-43.97847,-19.31771],[-43.97801,-19.3195],[-43.97619,-19.31982],[-43.97619,-19.32193],[-43.97539,-19.32308],[-43.97413,-19.32276],[-43.97443,-19.32129],[-43.97406,-19.32096],[-43.97241,-19.3245],[-43.9736,-19.32519],[-43.97323,-19.32703],[-43.97125,-19.32592],[-43.97084,-19.32455],[-43.96997,-19.32438],[-43.9691,-19.32493],[-43.96755,-19.32461],[-43.96569,-19.32348],[-43.96431,-19.32215],[-43.96249,-19.32286],[-43.95998,-19.32302],[-43.95879,-19.32258],[-43.95795,-19.32136],[-43.9564,-19.32115],[-43.95335,-19.31979],[-43.95132,-19.32011],[-43.94805,-19.31986],[-43.94883,-19.31609],[-43.94975,-19.31453],[-43.94983,-19.31345],[-43.94908,-19.31255],[-43.94567,-19.3111],[-43.94379,-19.30955],[-43.94381,-19.3066],[-43.94328,-19.30554],[-43.94132,-19.30336],[-43.94024,-19.30115],[-43.93975,-19.30081],[-43.93736,-19.30101],[-43.93518,-19.30144],[-43.93361,-19.30137],[-43.93143,-19.3008],[-43.93043,-19.30153],[-43.92793,-19.30201],[-43.9257,-19.30141],[-43.92531,-19.30062],[-43.92364,-19.29944],[-43.92235,-19.29967],[-43.92125,-19.29915],[-43.9199,-19.29802],[-43.91758,-19.29439],[-43.91613,-19.29402],[-43.91509,-19.29437],[-43.91361,-19.29567],[-43.91305,-19.2965],[-43.91295,-19.29841],[-43.91261,-19.30027],[-43.91203,-19.30206],[-43.91086,-19.30385],[-43.90958,-19.30506],[-43.9073,-19.30575],[-43.90723,-19.30708],[-43.90624,-19.30731],[-43.90456,-19.30903],[-43.90374,-19.30944],[-43.90347,-19.31027],[-43.90205,-19.31025],[-43.89987,-19.31086],[-43.89653,-19.31044],[-43.89554,-19.31063],[-43.89401,-19.31168],[-43.8942,-19.31315],[-43.89469,-19.31405],[-43.89437,-19.3149],[-43.89483,-19.31589],[-43.89345,-19.31731],[-43.89337,-19.31972],[-43.89189,-19.32162],[-43.89099,-19.32197],[-43.88928,-19.32192],[-43.88828,-19.32245],[-43.88528,-19.32249],[-43.88253,-19.32156],[-43.88095,-19.32163],[-43.88025,-19.32227],[-43.87928,-19.32232],[-43.87863,-19.32294],[-43.8772,-19.32287],[-43.87572,-19.3233],[-43.87077,-19.32272],[-43.86726,-19.32108],[-43.8656,-19.32105],[-43.86561,-19.31978],[-43.86404,-19.31988],[-43.86277,-19.3196],[-43.86143,-19.32225],[-43.85875,-19.32231],[-43.85907,-19.31999],[-43.85812,-19.31903],[-43.85865,-19.31774],[-43.85745,-19.31594],[-43.85728,-19.31503],[-43.85641,-19.31459],[-43.85392,-19.31433],[-43.85215,-19.31343],[-43.85022,-19.31198],[-43.84886,-19.31147],[-43.84708,-19.30973],[-43.845,-19.30841],[-43.84302,-19.3077],[-43.84004,-19.30783],[-43.83658,-19.30686],[-43.83468,-19.30683],[-43.8337,-19.30727],[-43.83211,-19.30752],[-43.83005,-19.30708],[-43.82802,-19.30604],[-43.82561,-19.30296],[-43.82283,-19.30022],[-43.82315,-19.2982],[-43.82364,-19.29668],[-43.82386,-19.29446],[-43.82317,-19.29136],[-43.8229,-19.28878],[-43.82298,-19.28745],[-43.82344,-19.28637],[-43.82443,-19.28617],[-43.82571,-19.28683],[-43.82842,-19.287],[-43.8307,-19.28627],[-43.83241,-19.28604],[-43.83309,-19.28517],[-43.83409,-19.28297],[-43.83402,-19.28129],[-43.83364,-19.2795],[-43.83214,-19.27685],[-43.8321,-19.27322],[-43.83097,-19.2718],[-43.82954,-19.27179],[-43.82813,-19.27227],[-43.82722,-19.27207],[-43.82538,-19.27059],[-43.82526,-19.26917],[-43.82459,-19.268],[-43.8228,-19.26652],[-43.82259,-19.26464],[-43.82273,-19.26361],[-43.82232,-19.2623],[-43.82148,-19.26275],[-43.8194,-19.2628],[-43.81824,-19.2619],[-43.81594,-19.26123],[-43.81529,-19.26008],[-43.81415,-19.25994],[-43.81382,-19.25874],[-43.81283,-19.25853],[-43.81082,-19.25862],[-43.81009,-19.25805],[-43.80763,-19.258],[-43.80567,-19.25751],[-43.80424,-19.25751],[-43.80279,-19.25693],[-43.80267,-19.25606],[-43.80178,-19.25383],[-43.80108,-19.25307],[-43.80181,-19.25107],[-43.80261,-19.25048],[-43.80378,-19.24894],[-43.80284,-19.24772],[-43.80354,-19.24616],[-43.80294,-19.24545],[-43.80299,-19.244],[-43.80171,-19.24177],[-43.80102,-19.23954],[-43.79928,-19.23848],[-43.79863,-19.23708],[-43.79768,-19.23694],[-43.79699,-19.23565],[-43.79573,-19.23487],[-43.79387,-19.23445],[-43.7909,-19.23254],[-43.79105,-19.2307],[-43.79148,-19.22987],[-43.79115,-19.22895],[-43.78989,-19.22826],[-43.7889,-19.22833],[-43.78767,-19.22741],[-43.78634,-19.22529],[-43.7856,-19.22465],[-43.7849,-19.22288],[-43.78376,-19.22205],[-43.78372,-19.22113],[-43.78304,-19.22],[-43.78297,-19.21906],[-43.78034,-19.21641],[-43.77909,-19.21572],[-43.77718,-19.21533],[-43.7751,-19.21521],[-43.77372,-19.21452],[-43.77212,-19.21463],[-43.76971,-19.2137],[-43.76949,-19.21322],[-43.76766,-19.21228],[-43.76756,-19.21136],[-43.76694,-19.21062],[-43.76684,-19.20871],[-43.76573,-19.20892],[-43.76508,-19.20814],[-43.76409,-19.20793],[-43.76296,-19.2062],[-43.76211,-19.20609],[-43.76146,-19.2067],[-43.75971,-19.2073],[-43.75829,-19.20668],[-43.75897,-19.20613],[-43.76081,-19.20314],[-43.76057,-19.20174],[-43.75963,-19.20011],[-43.75954,-19.19917],[-43.76005,-19.19841],[-43.76314,-19.19966],[-43.76394,-19.19911],[-43.76387,-19.19773],[-43.76337,-19.19589],[-43.76516,-19.19573],[-43.76692,-19.19647],[-43.7676,-19.19585],[-43.76806,-19.19443],[-43.76925,-19.19351],[-43.77377,-19.19357],[-43.77495,-19.19284],[-43.77568,-19.191],[-43.7747,-19.18985],[-43.77158,-19.18867],[-43.77059,-19.18718],[-43.77195,-19.18541],[-43.7712,-19.18415],[-43.77026,-19.18394],[-43.76871,-19.18426],[-43.76574,-19.18535],[-43.76421,-19.18503],[-43.76224,-19.18351],[-43.7611,-19.18197],[-43.75929,-19.18088],[-43.75716,-19.18104],[-43.75632,-19.1806],[-43.75427,-19.18018],[-43.75349,-19.1791],[-43.75381,-19.1777],[-43.75268,-19.17692],[-43.75253,-19.17609],[-43.75336,-19.17547],[-43.75372,-19.17409],[-43.75496,-19.17442],[-43.75689,-19.17399],[-43.75786,-19.17413],[-43.76022,-19.17585],[-43.76104,-19.17551],[-43.76074,-19.1728],[-43.76105,-19.17131],[-43.75922,-19.16965],[-43.7583,-19.16949],[-43.7569,-19.1699],[-43.7554,-19.16983],[-43.75289,-19.1683],[-43.75088,-19.16848],[-43.74948,-19.16798],[-43.74782,-19.16701],[-43.74705,-19.16533],[-43.74734,-19.16446],[-43.74826,-19.164],[-43.7528,-19.16548],[-43.75421,-19.1647],[-43.75525,-19.16369],[-43.75597,-19.16248],[-43.75576,-19.16112],[-43.75489,-19.15999],[-43.75301,-19.15838],[-43.7518,-19.15762],[-43.7515,-19.15525],[-43.75208,-19.15459],[-43.75346,-19.15468],[-43.75573,-19.15276],[-43.75629,-19.15143],[-43.75632,-19.15051],[-43.75569,-19.14867],[-43.75384,-19.14694],[-43.74983,-19.14602],[-43.74949,-19.14526],[-43.75002,-19.14446],[-43.75147,-19.14462],[-43.75394,-19.14458],[-43.75648,-19.14497],[-43.75841,-19.14447],[-43.75911,-19.14381],[-43.75902,-19.14287],[-43.75786,-19.14139],[-43.75651,-19.14063],[-43.75455,-19.14063],[-43.75303,-19.14007],[-43.75156,-19.14019],[-43.7497,-19.13988],[-43.74888,-19.13931],[-43.74931,-19.13798],[-43.74932,-19.13644],[-43.75033,-19.13534],[-43.75137,-19.13539],[-43.75299,-19.13638],[-43.755,-19.13638],[-43.7563,-19.137],[-43.75775,-19.13726],[-43.75968,-19.13674],[-43.76116,-19.13706],[-43.76208,-19.13683],[-43.7638,-19.13578],[-43.76525,-19.13576],[-43.76909,-19.13685],[-43.77013,-19.13666],[-43.77054,-19.13582],[-43.77064,-19.13441],[-43.76979,-19.13333],[-43.76808,-19.1323],[-43.76697,-19.13135],[-43.76407,-19.13077],[-43.76267,-19.13033],[-43.76125,-19.12911],[-43.76101,-19.12693],[-43.75976,-19.12658],[-43.75867,-19.12812],[-43.7576,-19.12908],[-43.75559,-19.12905],[-43.75188,-19.12652],[-43.74944,-19.12654],[-43.74658,-19.12724],[-43.74571,-19.12766],[-43.74431,-19.12898],[-43.74291,-19.12866],[-43.74276,-19.1282],[-43.74347,-19.12646],[-43.74432,-19.12572],[-43.74531,-19.124],[-43.74568,-19.12219],[-43.74537,-19.1203],[-43.74479,-19.11897],[-43.74347,-19.1175],[-43.74241,-19.11417],[-43.74058,-19.11262],[-43.73821,-19.11262],[-43.73676,-19.1122],[-43.73635,-19.1113],[-43.73676,-19.11045],[-43.73802,-19.10915],[-43.73861,-19.10745],[-43.73835,-19.10635],[-43.739,-19.10442],[-43.7399,-19.10396],[-43.74089,-19.10431],[-43.74229,-19.10553],[-43.74328,-19.10565],[-43.74545,-19.10443],[-43.74635,-19.10455],[-43.7469,-19.10524],[-43.74649,-19.10767],[-43.74759,-19.10855],[-43.74791,-19.10945],[-43.74882,-19.1097],[-43.75076,-19.10945],[-43.75279,-19.11072],[-43.75394,-19.11173],[-43.75578,-19.11245],[-43.75872,-19.11312],[-43.76025,-19.11193],[-43.76066,-19.11099],[-43.76021,-19.10956],[-43.75934,-19.10832],[-43.75789,-19.10784],[-43.75434,-19.10723],[-43.75309,-19.10638],[-43.75265,-19.10493],[-43.75283,-19.10392],[-43.75379,-19.1027],[-43.75471,-19.10232],[-43.75621,-19.10232],[-43.75771,-19.10271],[-43.75863,-19.1026],[-43.75938,-19.10141],[-43.7588,-19.09964],[-43.75825,-19.09876],[-43.75663,-19.09738],[-43.75666,-19.09637],[-43.75736,-19.09513],[-43.75841,-19.09396],[-43.7593,-19.09362],[-43.76164,-19.0942],[-43.76295,-19.09475],[-43.76541,-19.09531],[-43.7672,-19.09607],[-43.77109,-19.09619],[-43.77401,-19.09602],[-43.77584,-19.09685],[-43.77649,-19.09974],[-43.77753,-19.09947],[-43.77809,-19.09798],[-43.77797,-19.09504],[-43.77914,-19.09355],[-43.77928,-19.09267],[-43.77863,-19.09207],[-43.77677,-19.09258],[-43.77479,-19.09285],[-43.77201,-19.09238],[-43.771,-19.09146],[-43.77088,-19.0891],[-43.77041,-19.08723],[-43.77082,-19.08636],[-43.7721,-19.0857],[-43.77215,-19.08489],[-43.77044,-19.08397],[-43.76945,-19.08399],[-43.76758,-19.08452],[-43.76642,-19.08527],[-43.76538,-19.0852],[-43.76464,-19.08458],[-43.76532,-19.08272],[-43.76539,-19.08134],[-43.76626,-19.08029],[-43.76813,-19.0797],[-43.76996,-19.07885],[-43.77205,-19.07667],[-43.77287,-19.07702],[-43.7739,-19.07932],[-43.7752,-19.08008],[-43.77726,-19.08017],[-43.78122,-19.07954],[-43.78241,-19.07846],[-43.78395,-19.07814],[-43.78569,-19.07899],[-43.7876,-19.07886],[-43.78857,-19.07792],[-43.78901,-19.077],[-43.78894,-19.07599],[-43.78795,-19.07429],[-43.78667,-19.07358],[-43.7857,-19.07378],[-43.78466,-19.07474],[-43.7828,-19.07541],[-43.7813,-19.0752],[-43.77952,-19.07434],[-43.77788,-19.07317],[-43.77392,-19.07215],[-43.7737,-19.07139],[-43.77607,-19.07043],[-43.77866,-19.06885],[-43.78059,-19.06899],[-43.78141,-19.0684],[-43.78144,-19.06695],[-43.78065,-19.06513],[-43.77993,-19.06451],[-43.77872,-19.06506],[-43.77847,-19.06701],[-43.77767,-19.06733],[-43.77676,-19.06706],[-43.77323,-19.0654],[-43.77178,-19.06562],[-43.77002,-19.06633],[-43.76903,-19.06617],[-43.76884,-19.06523],[-43.76925,-19.06424],[-43.77125,-19.06385],[-43.77295,-19.06206],[-43.77316,-19.06127],[-43.7744,-19.06152],[-43.77532,-19.06126],[-43.7758,-19.06003],[-43.77721,-19.05968],[-43.77781,-19.05897],[-43.77863,-19.0595],[-43.77953,-19.05909],[-43.78025,-19.05969],[-43.7816,-19.05955],[-43.78262,-19.06045],[-43.78286,-19.05935],[-43.78648,-19.05989],[-43.78612,-19.06119],[-43.7874,-19.06193],[-43.78882,-19.06166],[-43.79005,-19.06226],[-43.79078,-19.06109],[-43.79136,-19.06233],[-43.79208,-19.06293],[-43.79179,-19.06371],[-43.7927,-19.06527],[-43.7941,-19.06548],[-43.79439,-19.06635],[-43.79408,-19.0672],[-43.79253,-19.06821],[-43.79436,-19.06962],[-43.79583,-19.06967],[-43.79653,-19.07098],[-43.79796,-19.07008],[-43.79902,-19.07027],[-43.8004,-19.06983],[-43.80113,-19.06919],[-43.80214,-19.0691],[-43.80391,-19.06761],[-43.80598,-19.06794],[-43.80683,-19.06849],[-43.80874,-19.06826],[-43.81026,-19.06845],[-43.81123,-19.06825],[-43.81238,-19.06894],[-43.8127,-19.06986],[-43.81465,-19.07112],[-43.81714,-19.07097],[-43.81794,-19.07221],[-43.81786,-19.07306],[-43.82008,-19.0732],[-43.82088,-19.07368],[-43.82221,-19.07304],[-43.82438,-19.07364],[-43.82605,-19.07571],[-43.82846,-19.07553],[-43.82892,-19.07473],[-43.82979,-19.07437],[-43.8295,-19.07349],[-43.83064,-19.07281],[-43.83098,-19.07198],[-43.83255,-19.07099],[-43.834,-19.07104],[-43.83485,-19.07155],[-43.83608,-19.07017],[-43.8369,-19.07061],[-43.83881,-19.07077],[-43.83975,-19.07112],[-43.84132,-19.07234],[-43.84127,-19.07328],[-43.84233,-19.07418],[-43.84416,-19.07754],[-43.84549,-19.0783],[-43.84626,-19.07947],[-43.84693,-19.08209],[-43.84913,-19.0834],[-43.85014,-19.08359],[-43.85125,-19.08506],[-43.8526,-19.08577],[-43.85342,-19.08692],[-43.85475,-19.08759],[-43.8561,-19.08886],[-43.85813,-19.08909],[-43.86014,-19.08907],[-43.86239,-19.08841],[-43.86299,-19.08912],[-43.86318,-19.09139],[-43.86223,-19.09436],[-43.86136,-19.09603],[-43.86022,-19.09752],[-43.86051,-19.09895],[-43.86019,-19.10166],[-43.86052,-19.10258],[-43.8625,-19.10469],[-43.86315,-19.10605],[-43.86267,-19.10839],[-43.86114,-19.11009],[-43.85971,-19.11068],[-43.85648,-19.10937],[-43.85583,-19.10861],[-43.85476,-19.10868],[-43.85375,-19.10978],[-43.85188,-19.11074],[-43.85159,-19.11161],[-43.85302,-19.11299],[-43.85396,-19.11472],[-43.85378,-19.11612],[-43.85402,-19.11764],[-43.85377,-19.12207],[-43.8536,-19.1226],[-43.85365,-19.12547],[-43.85391,-19.12783],[-43.85386,-19.12986],[-43.85412,-19.13231],[-43.85361,-19.13555],[-43.85387,-19.13744],[-43.85346,-19.1384],[-43.85198,-19.13966],[-43.85017,-19.14398]]]},"properties":{"codigo":"310500405","name":"Baldim","population":4066,"households":2429,"areaKm2":318.3946,"density":12.8}},{"type":"Feature","geometry":{"type":"Polygon","coordinates":[[[-43.90958,-19.30506],[-43.90933,-19.30711],[-43.90962,-19.3097],[-43.90949,-19.31264],[-43.90842,-19.31639],[-43.90736,-19.31859],[-43.90389,-19.32072],[-43.90116,-19.32219],[-43.8992,-19.32292],[-43.89588,-19.32487],[-43.89336,-19.32721],[-43.8911,-19.33113],[-43.89146,-19.3327],[-43.89209,-19.33343],[-43.89223,-19.33571],[-43.89085,-19.33853],[-43.88876,-19.34131],[-43.88772,-19.34372],[-43.88788,-19.34521],[-43.88895,-19.34668],[-43.88895,-19.34771],[-43.88996,-19.34944],[-43.89008,-19.35043],[-43.891,-19.35098],[-43.89153,-19.35227],[-43.89184,-19.35408],[-43.89176,-19.35636],[-43.89241,-19.35757],[-43.89261,-19.35955],[-43.89219,-19.36109],[-43.89163,-19.36196],[-43.88962,-19.3635],[-43.88777,-19.36417],[-43.88182,-19.36527],[-43.87802,-19.36632],[-43.8755,-19.3664],[-43.87339,-19.36625],[-43.87155,-19.36743],[-43.87006,-19.36936],[-43.86746,-19.36931],[-43.84915,-19.36783],[-43.85013,-19.36627],[-43.84979,-19.36394],[-43.84992,-19.3628],[-43.85063,-19.36145],[-43.85192,-19.36052],[-43.85369,-19.3598],[-43.85528,-19.35878],[-43.85656,-19.35737],[-43.85687,-19.35658],[-43.85698,-19.3535],[-43.85747,-19.35255],[-43.85814,-19.34948],[-43.86031,-19.3473],[-43.86179,-19.34532],[-43.86282,-19.34439],[-43.86244,-19.33724],[-43.86018,-19.33489],[-43.85983,-19.33383],[-43.86038,-19.33025],[-43.86086,-19.3286],[-43.86006,-19.32795],[-43.86028,-19.32681],[-43.85991,-19.32568],[-43.85744,-19.32231],[-43.85379,-19.31847],[-43.8505,-19.31634],[-43.84622,-19.31384],[-43.84262,-19.31375],[-43.83905,-19.31439],[-43.83766,-19.3123],[-43.83513,-19.30967],[-43.8318,-19.30945],[-43.8337,-19.30727],[-43.83468,-19.30683],[-43.83658,-19.30686],[-43.84004,-19.30783],[-43.84302,-19.3077],[-43.845,-19.30841],[-43.84708,-19.30973],[-43.84886,-19.31147],[-43.85022,-19.31198],[-43.85215,-19.31343],[-43.85392,-19.31433],[-43.85641,-19.31459],[-43.85728,-19.31503],[-43.85745,-19.31594],[-43.85865,-19.31774],[-43.85812,-19.31903],[-43.85907,-19.31999],[-43.85875,-19.32231],[-43.86143,-19.32225],[-43.86277,-19.3196],[-43.86404,-19.31988],[-43.86561,-19.31978],[-43.8656,-19.32105],[-43.86726,-19.32108],[-43.87077,-19.32272],[-43.87572,-19.3233],[-43.8772,-19.32287],[-43.87863,-19.32294],[-43.87928,-19.32232],[-43.88025,-19.32227],[-43.88095,-19.32163],[-43.88253,-19.32156],[-43.88528,-19.32249],[-43.88828,-19.32245],[-43.88928,-19.32192],[-43.89099,-19.32197],[-43.89189,-19.32162],[-43.89337,-19.31972],[-43.89345,-19.31731],[-43.89483,-19.31589],[-43.89437,-19.3149],[-43.89469,-19.31405],[-43.8942,-19.31315],[-43.89401,-19.31168],[-43.89554,-19.31063],[-43.89653,-19.31044],[-43.89987,-19.31086],[-43.90205,-19.31025],[-43.90347,-19.31027],[-43.90374,-19.30944],[-43.90456,-19.30903],[-43.90624,-19.30731],[-43.90723,-19.30708],[-43.9073,-19.30575],[-43.90958,-19.30506]]]},"properties":{"codigo":"310500410","name":"Amanda","population":574,"households":363,"areaKm2":21.046,"density":27.3}},{"type":"Feature","geometry":{"type":"Polygon","coordinates":[[[-43.98382,-19.30983],[-43.98521,-19.30813],[-43.98589,-19.30568],[-43.98727,-19.3043],[-43.98872,-19.30428],[-43.98969,-19.30476],[-43.99155,-19.30708],[-43.99159,-19.30796],[-43.99244,-19.30989],[-43.992,-19.31221],[-43.98984,-19.31717],[-43.99011,-19.31951],[-43.99209,-19.32422],[-43.99477,-19.32631],[-43.99586,-19.32629],[-43.99668,-19.32581],[-43.99809,-19.32586],[-43.99825,-19.32684],[-43.99724,-19.3279],[-43.99138,-19.3298],[-43.99014,-19.33063],[-43.98855,-19.33226],[-43.98767,-19.33409],[-43.98777,-19.33504],[-43.98864,-19.33632],[-43.98965,-19.33658],[-43.99183,-19.3358],[-43.99471,-19.33516],[-43.99716,-19.33511],[-43.99901,-19.33529],[-44.00247,-19.33346],[-44.00421,-19.33197],[-44.00523,-19.33195],[-44.00634,-19.33336],[-44.00679,-19.33519],[-44.0073,-19.33602],[-44.00826,-19.33662],[-44.00971,-19.3368],[-44.01078,-19.33733],[-44.0134,-19.34032],[-44.0165,-19.34166],[-44.0171,-19.3417],[-44.01925,-19.34267],[-44.02014,-19.34384],[-44.01997,-19.34517],[-44.01784,-19.3465],[-44.0169,-19.34687],[-44.01515,-19.34691],[-44.01392,-19.34652],[-44.01132,-19.34513],[-44.01023,-19.34428],[-44.00854,-19.34398],[-44.00467,-19.34365],[-44.00358,-19.34377],[-44.00196,-19.34461],[-44.00046,-19.34589],[-43.99891,-19.34628],[-43.99814,-19.34763],[-43.9984,-19.34986],[-43.99997,-19.35248],[-44.00033,-19.35377],[-43.99958,-19.35439],[-43.99803,-19.35425],[-43.99537,-19.35312],[-43.9938,-19.35351],[-43.99249,-19.35617],[-43.99157,-19.35744],[-43.99017,-19.35812],[-43.98738,-19.35883],[-43.98317,-19.35952],[-43.98058,-19.35972],[-43.97845,-19.35958],[-43.97736,-19.35979],[-43.97625,-19.36071],[-43.97576,-19.36156],[-43.97566,-19.3639],[-43.9752,-19.36668],[-43.97554,-19.36769],[-43.97675,-19.3687],[-43.97766,-19.36997],[-43.97919,-19.37151],[-43.98057,-19.37252],[-43.98149,-19.37282],[-43.98408,-19.37298],[-43.98604,-19.37335],[-43.98737,-19.37404],[-43.98908,-19.37602],[-43.99002,-19.37765],[-43.99,-19.37857],[-43.98886,-19.37944],[-43.98596,-19.37992],[-43.98271,-19.38267],[-43.98218,-19.38355],[-43.98074,-19.38729],[-43.98186,-19.38897],[-43.98556,-19.39147],[-43.98744,-19.39313],[-43.98914,-19.39501],[-43.9902,-19.39667],[-43.99121,-19.39881],[-43.99148,-19.4012],[-43.99114,-19.40319],[-43.98961,-19.40432],[-43.98864,-19.40439],[-43.98675,-19.40367],[-43.98567,-19.40248],[-43.98494,-19.4011],[-43.98352,-19.39731],[-43.98238,-19.39613],[-43.9809,-19.39629],[-43.97846,-19.3987],[-43.9769,-19.40052],[-43.97649,-19.40134],[-43.97671,-19.40327],[-43.97649,-19.40476],[-43.9753,-19.40637],[-43.97406,-19.40899],[-43.97297,-19.40993],[-43.97154,-19.41036],[-43.96951,-19.41029],[-43.96808,-19.40976],[-43.96399,-19.40923],[-43.96152,-19.40989],[-43.95878,-19.41159],[-43.95653,-19.41448],[-43.95629,-19.41549],[-43.9572,-19.41802],[-43.95856,-19.42032],[-43.95872,-19.42193],[-43.95862,-19.42413],[-43.95758,-19.42788],[-43.95704,-19.43079],[-43.95622,-19.43194],[-43.9552,-19.43201],[-43.95264,-19.43042],[-43.95135,-19.42893],[-43.94988,-19.42826],[-43.94879,-19.42828],[-43.94794,-19.42881],[-43.94707,-19.43016],[-43.9469,-19.43151],[-43.94551,-19.43209],[-43.94457,-19.43195],[-43.94452,-19.43105],[-43.94237,-19.43068],[-43.94251,-19.43156],[-43.9412,-19.4328],[-43.93876,-19.43337],[-43.93656,-19.43256],[-43.93585,-19.43348],[-43.93501,-19.43231],[-43.93401,-19.4321],[-43.93319,-19.43251],[-43.93278,-19.43164],[-43.93111,-19.43083],[-43.93026,-19.43163],[-43.92971,-19.42987],[-43.92881,-19.4295],[-43.93063,-19.4283],[-43.92998,-19.42704],[-43.92802,-19.42453],[-43.92528,-19.4243],[-43.92449,-19.42315],[-43.9232,-19.42264],[-43.92284,-19.42179],[-43.9219,-19.42218],[-43.92105,-19.42172],[-43.922,-19.42064],[-43.92311,-19.42012],[-43.92055,-19.41678],[-43.92089,-19.41596],[-43.92041,-19.41428],[-43.92186,-19.41417],[-43.92198,-19.41306],[-43.92101,-19.41283],[-43.92223,-19.41061],[-43.92131,-19.41031],[-43.91993,-19.41053],[-43.91935,-19.40984],[-43.91974,-19.40897],[-43.91698,-19.40814],[-43.91635,-19.40734],[-43.91458,-19.40621],[-43.91357,-19.40635],[-43.91195,-19.40545],[-43.91139,-19.40315],[-43.90946,-19.40294],[-43.90944,-19.40161],[-43.90999,-19.40108],[-43.90961,-19.40018],[-43.90881,-19.39984],[-43.9092,-19.39899],[-43.90804,-19.39811],[-43.90867,-19.39626],[-43.90734,-19.3955],[-43.90686,-19.39462],[-43.90553,-19.39333],[-43.90415,-19.39294],[-43.90342,-19.39237],[-43.90265,-19.39106],[-43.90163,-19.3911],[-43.90066,-19.39059],[-43.89939,-19.388],[-43.8976,-19.38724],[-43.89675,-19.38744],[-43.89501,-19.38507],[-43.89404,-19.38473],[-43.89257,-19.38355],[-43.89211,-19.38279],[-43.88814,-19.38293],[-43.88635,-19.38368],[-43.88499,-19.38508],[-43.88356,-19.3871],[-43.88075,-19.38611],[-43.88024,-19.3853],[-43.87795,-19.3844],[-43.87719,-19.38521],[-43.87581,-19.38587],[-43.87492,-19.38693],[-43.87392,-19.38594],[-43.87245,-19.38603],[-43.87112,-19.3866],[-43.8701,-19.3866],[-43.8694,-19.38735],[-43.86797,-19.38701],[-43.86603,-19.38896],[-43.86566,-19.38981],[-43.86433,-19.39065],[-43.86339,-19.3907],[-43.86213,-19.39134],[-43.86075,-19.39095],[-43.85934,-19.39124],[-43.85842,-19.39104],[-43.85797,-19.39021],[-43.85656,-19.39004],[-43.85586,-19.38926],[-43.85451,-19.38873],[-43.85666,-19.38758],[-43.8586,-19.38172],[-43.85919,-19.3807],[-43.86277,-19.37786],[-43.8679,-19.37218],[-43.87006,-19.36936],[-43.87155,-19.36743],[-43.87339,-19.36625],[-43.8755,-19.3664],[-43.87802,-19.36632],[-43.88182,-19.36527],[-43.88777,-19.36417],[-43.88962,-19.3635],[-43.89163,-19.36196],[-43.89219,-19.36109],[-43.89261,-19.35955],[-43.89241,-19.35757],[-43.89176,-19.35636],[-43.89184,-19.35408],[-43.89153,-19.35227],[-43.891,-19.35098],[-43.89008,-19.35043],[-43.88996,-19.34944],[-43.88895,-19.34771],[-43.88895,-19.34668],[-43.88788,-19.34521],[-43.88772,-19.34372],[-43.88876,-19.34131],[-43.89085,-19.33853],[-43.89223,-19.33571],[-43.89209,-19.33343],[-43.89146,-19.3327],[-43.8911,-19.33113],[-43.89336,-19.32721],[-43.89588,-19.32487],[-43.8992,-19.32292],[-43.90116,-19.32219],[-43.90389,-19.32072],[-43.90736,-19.31859],[-43.90842,-19.31639],[-43.90949,-19.31264],[-43.90962,-19.3097],[-43.90933,-19.30711],[-43.90958,-19.30506],[-43.91086,-19.30385],[-43.91203,-19.30206],[-43.91261,-19.30027],[-43.91295,-19.29841],[-43.91305,-19.2965],[-43.91361,-19.29567],[-43.91509,-19.29437],[-43.91613,-19.29402],[-43.91758,-19.29439],[-43.9199,-19.29802],[-43.92125,-19.29915],[-43.92235,-19.29967],[-43.92364,-19.29944],[-43.92531,-19.30062],[-43.9257,-19.30141],[-43.92793,-19.30201],[-43.93043,-19.30153],[-43.93143,-19.3008],[-43.93361,-19.30137],[-43.93518,-19.30144],[-43.93736,-19.30101],[-43.93975,-19.30081],[-43.94024,-19.30115],[-43.94132,-19.30336],[-43.94328,-19.30554],[-43.94381,-19.3066],[-43.94379,-19.30955],[-43.94567,-19.3111],[-43.94908,-19.31255],[-43.94983,-19.31345],[-43.94975,-19.31453],[-43.94883,-19.31609],[-43.94805,-19.31986],[-43.95132,-19.32011],[-43.95335,-19.31979],[-43.9564,-19.32115],[-43.95795,-19.32136],[-43.95879,-19.32258],[-43.95998,-19.32302],[-43.96249,-19.32286],[-43.96431,-19.32215],[-43.96569,-19.32348],[-43.96755,-19.32461],[-43.9691,-19.32493],[-43.96997,-19.32438],[-43.97084,-19.32455],[-43.97125,-19.32592],[-43.97323,-19.32703],[-43.9736,-19.32519],[-43.97241,-19.3245],[-43.97406,-19.32096],[-43.97443,-19.32129],[-43.97413,-19.32276],[-43.97539,-19.32308],[-43.97619,-19.32193],[-43.97619,-19.31982],[-43.97801,-19.3195],[-43.97847,-19.31771],[-43.98138,-19.31564],[-43.98331,-19.31571],[-43.98442,-19.31491],[-43.98406,-19.31399],[-43.98435,-19.31266],[-43.98382,-19.30983]]]},"properties":{"codigo":"310500415","name":"São Vicente","population":1914,"households":1452,"areaKm2":121.8425,"density":15.7}},{"type":"Feature","geometry":{"type":"Polygon","coordinates":[[[-43.8337,-19.30727],[-43.8318,-19.30945],[-43.83513,-19.30967],[-43.83766,-19.3123],[-43.83905,-19.31439],[-43.84262,-19.31375],[-43.84622,-19.31384],[-43.8505,-19.31634],[-43.85379,-19.31847],[-43.85744,-19.32231],[-43.85991,-19.32568],[-43.86028,-19.32681],[-43.86006,-19.32795],[-43.86086,-19.3286],[-43.86038,-19.33025],[-43.85983,-19.33383],[-43.86018,-19.33489],[-43.86244,-19.33724],[-43.86282,-19.34439],[-43.86179,-19.34532],[-43.86031,-19.3473],[-43.85814,-19.34948],[-43.85747,-19.35255],[-43.85698,-19.3535],[-43.85687,-19.35658],[-43.85656,-19.35737],[-43.85528,-19.35878],[-43.85369,-19.3598],[-43.85192,-19.36052],[-43.85063,-19.36145],[-43.84992,-19.3628],[-43.84979,-19.36394],[-43.85013,-19.36627],[-43.84915,-19.36783],[-43.86746,-19.36931],[-43.87006,-19.36936],[-43.8679,-19.37218],[-43.86277,-19.37786],[-43.85919,-19.3807],[-43.8586,-19.38172],[-43.85666,-19.38758],[-43.85451,-19.38873],[-43.85376,-19.3876],[-43.85274,-19.38733],[-43.85097,-19.38801],[-43.84587,-19.38628],[-43.8449,-19.38525],[-43.84258,-19.38485],[-43.84067,-19.38627],[-43.83926,-19.38682],[-43.8388,-19.38763],[-43.83727,-19.38811],[-43.83468,-19.3876],[-43.83316,-19.38785],[-43.83074,-19.3878],[-43.82854,-19.3874],[-43.82757,-19.38747],[-43.8258,-19.38836],[-43.82483,-19.38836],[-43.82345,-19.38783],[-43.82057,-19.38759],[-43.81898,-19.38642],[-43.81852,-19.38557],[-43.8193,-19.38201],[-43.81972,-19.37951],[-43.81961,-19.37512],[-43.81891,-19.3739],[-43.81666,-19.37277],[-43.81525,-19.37254],[-43.81257,-19.37276],[-43.8116,-19.37311],[-43.80957,-19.37315],[-43.80669,-19.37192],[-43.80536,-19.37107],[-43.80352,-19.36861],[-43.80261,-19.36673],[-43.80208,-19.36466],[-43.80025,-19.36266],[-43.79967,-19.3607],[-43.79904,-19.35983],[-43.79687,-19.35838],[-43.79472,-19.3567],[-43.79407,-19.35559],[-43.79388,-19.35288],[-43.79422,-19.3507],[-43.79352,-19.34884],[-43.79196,-19.34596],[-43.79332,-19.34459],[-43.79439,-19.34179],[-43.79514,-19.34121],[-43.79749,-19.34012],[-43.8001,-19.33815],[-43.80175,-19.33762],[-43.80473,-19.33799],[-43.80652,-19.33735],[-43.80761,-19.33632],[-43.80906,-19.33555],[-43.80962,-19.33477],[-43.80943,-19.33387],[-43.80871,-19.33334],[-43.80735,-19.33138],[-43.80755,-19.33044],[-43.80852,-19.32918],[-43.80824,-19.3261],[-43.80902,-19.32388],[-43.80912,-19.32206],[-43.80893,-19.31694],[-43.80852,-19.31558],[-43.80874,-19.31464],[-43.80863,-19.3128],[-43.80762,-19.31051],[-43.80684,-19.30981],[-43.80668,-19.30832],[-43.80537,-19.30788],[-43.80414,-19.30434],[-43.80482,-19.30313],[-43.80485,-19.30221],[-43.80381,-19.30074],[-43.80299,-19.30129],[-43.80224,-19.30078],[-43.80229,-19.29942],[-43.80135,-19.29912],[-43.80123,-19.29719],[-43.80005,-19.29639],[-43.79921,-19.29425],[-43.79691,-19.29128],[-43.79563,-19.2913],[-43.7943,-19.29305],[-43.79309,-19.29231],[-43.79205,-19.29233],[-43.78966,-19.29069],[-43.78828,-19.29012],[-43.78688,-19.29055],[-43.7855,-19.29064],[-43.78478,-19.28931],[-43.78487,-19.2883],[-43.78413,-19.2874],[-43.78333,-19.28763],[-43.78299,-19.28668],[-43.78168,-19.28723],[-43.78106,-19.28654],[-43.78009,-19.28633],[-43.7777,-19.285],[-43.77664,-19.28405],[-43.77654,-19.28316],[-43.77574,-19.28247],[-43.77541,-19.28054],[-43.77469,-19.27922],[-43.77319,-19.27913],[-43.77051,-19.27719],[-43.77049,-19.27428],[-43.76902,-19.27039],[-43.76828,-19.26704],[-43.76753,-19.26658],[-43.76865,-19.26573],[-43.76954,-19.26557],[-43.77028,-19.2621],[-43.76881,-19.25973],[-43.76893,-19.25836],[-43.76801,-19.2567],[-43.76714,-19.25631],[-43.76594,-19.25431],[-43.76681,-19.25328],[-43.76592,-19.25059],[-43.76525,-19.25003],[-43.76351,-19.25047],[-43.76174,-19.25264],[-43.7607,-19.25244],[-43.76007,-19.25168],[-43.75823,-19.2511],[-43.75809,-19.25016],[-43.75741,-19.24944],[-43.75722,-19.24848],[-43.75647,-19.2479],[-43.75551,-19.2465],[-43.75679,-19.24567],[-43.75643,-19.24476],[-43.75467,-19.24381],[-43.75482,-19.24262],[-43.75376,-19.24179],[-43.7539,-19.24091],[-43.75255,-19.23956],[-43.75304,-19.23781],[-43.75178,-19.23781],[-43.75036,-19.23739],[-43.74859,-19.23637],[-43.74751,-19.23468],[-43.74718,-19.23265],[-43.74728,-19.23121],[-43.74793,-19.22994],[-43.75033,-19.22924],[-43.75045,-19.22836],[-43.74924,-19.22763],[-43.74946,-19.22636],[-43.74756,-19.2259],[-43.74572,-19.22417],[-43.74444,-19.22341],[-43.74512,-19.22169],[-43.74513,-19.22073],[-43.74436,-19.21946],[-43.74433,-19.21802],[-43.74564,-19.21657],[-43.74731,-19.21547],[-43.74891,-19.21575],[-43.7499,-19.21562],[-43.75065,-19.21486],[-43.75082,-19.21396],[-43.75017,-19.21325],[-43.75022,-19.21185],[-43.74866,-19.21019],[-43.74943,-19.20962],[-43.75086,-19.20937],[-43.75171,-19.20783],[-43.7506,-19.2062],[-43.75097,-19.20487],[-43.75329,-19.20588],[-43.75488,-19.20575],[-43.75773,-19.20679],[-43.75829,-19.20668],[-43.75971,-19.2073],[-43.76146,-19.2067],[-43.76211,-19.20609],[-43.76296,-19.2062],[-43.76409,-19.20793],[-43.76508,-19.20814],[-43.76573,-19.20892],[-43.76684,-19.20871],[-43.76694,-19.21062],[-43.76756,-19.21136],[-43.76766,-19.21228],[-43.76949,-19.21322],[-43.76971,-19.2137],[-43.77212,-19.21463],[-43.77372,-19.21452],[-43.7751,-19.21521],[-43.77718,-19.21533],[-43.77909,-19.21572],[-43.78034,-19.21641],[-43.78297,-19.21906],[-43.78304,-19.22],[-43.78372,-19.22113],[-43.78376,-19.22205],[-43.7849,-19.22288],[-43.7856,-19.22465],[-43.78634,-19.22529],[-43.78767,-19.22741],[-43.7889,-19.22833],[-43.78989,-19.22826],[-43.79115,-19.22895],[-43.79148,-19.22987],[-43.79105,-19.2307],[-43.7909,-19.23254],[-43.79387,-19.23445],[-43.79573,-19.23487],[-43.79699,-19.23565],[-43.79768,-19.23694],[-43.79863,-19.23708],[-43.79928,-19.23848],[-43.80102,-19.23954],[-43.80171,-19.24177],[-43.80299,-19.244],[-43.80294,-19.24545],[-43.80354,-19.24616],[-43.80284,-19.24772],[-43.80378,-19.24894],[-43.80261,-19.25048],[-43.80181,-19.25107],[-43.80108,-19.25307],[-43.80178,-19.25383],[-43.80267,-19.25606],[-43.80279,-19.25693],[-43.80424,-19.25751],[-43.80567,-19.25751],[-43.80763,-19.258],[-43.81009,-19.25805],[-43.81082,-19.25862],[-43.81283,-19.25853],[-43.81382,-19.25874],[-43.81415,-19.25994],[-43.81529,-19.26008],[-43.81594,-19.26123],[-43.81824,-19.2619],[-43.8194,-19.2628],[-43.82148,-19.26275],[-43.82232,-19.2623],[-43.82273,-19.26361],[-43.82259,-19.26464],[-43.8228,-19.26652],[-43.82459,-19.268],[-43.82526,-19.26917],[-43.82538,-19.27059],[-43.82722,-19.27207],[-43.82813,-19.27227],[-43.82954,-19.27179],[-43.83097,-19.2718],[-43.8321,-19.27322],[-43.83214,-19.27685],[-43.83364,-19.2795],[-43.83402,-19.28129],[-43.83409,-19.28297],[-43.83309,-19.28517],[-43.83241,-19.28604],[-43.8307,-19.28627],[-43.82842,-19.287],[-43.82571,-19.28683],[-43.82443,-19.28617],[-43.82344,-19.28637],[-43.82298,-19.28745],[-43.8229,-19.28878],[-43.82317,-19.29136],[-43.82386,-19.29446],[-43.82364,-19.29668],[-43.82315,-19.2982],[-43.82283,-19.30022],[-43.82561,-19.30296],[-43.82802,-19.30604],[-43.83005,-19.30708],[-43.83211,-19.30752],[-43.8337,-19.30727]]]},"properties":{"codigo":"310500420","name":"Vargem Grande da Serra","population":938,"households":679,"areaKm2":94.9833,"density":9.9}}]}