{"type":"FeatureCollection","features":[{"type":"Feature","geometry":{"type":"Polygon","coordinates":[[[-44.17444,-21.82761],[-44.17563,-21.82876],[-44.17635,-21.83031],[-44.17616,-21.83213],[-44.175,-21.83392],[-44.1748,-21.83624],[-44.17369,-21.83839],[-44.17308,-21.83892],[-44.17132,-21.84157],[-44.16568,-21.84818],[-44.16484,-21.85012],[-44.16381,-21.85163],[-44.1632,-21.8533],[-44.16342,-21.85522],[-44.16451,-21.85667],[-44.16581,-21.85689],[-44.16656,-21.85755],[-44.16674,-21.8588],[-44.16678,-21.86167],[-44.1666,-21.86266],[-44.168,-21.86405],[-44.16892,-21.8667],[-44.16906,-21.86929],[-44.16813,-21.87176],[-44.16695,-21.87314],[-44.1666,-21.87638],[-44.16692,-21.87734],[-44.16906,-21.87996],[-44.16983,-21.88156],[-44.17023,-21.88316],[-44.17086,-21.88428],[-44.17307,-21.88479],[-44.17478,-21.88238],[-44.17609,-21.88233],[-44.1783,-21.88294],[-44.18093,-21.88286],[-44.18343,-21.88141],[-44.18417,-21.88155],[-44.1864,-21.88293],[-44.18814,-21.88596],[-44.18887,-21.88663],[-44.19147,-21.88808],[-44.19256,-21.89019],[-44.19349,-21.89129],[-44.19426,-21.89122],[-44.19604,-21.88993],[-44.19679,-21.89093],[-44.19662,-21.89558],[-44.19704,-21.89696],[-44.20031,-21.89873],[-44.20166,-21.90169],[-44.20297,-21.90319],[-44.20396,-21.90328],[-44.20431,-21.90412],[-44.20428,-21.9062],[-44.20477,-21.907],[-44.20701,-21.9077],[-44.20964,-21.911],[-44.2102,-21.91302],[-44.21027,-21.91521],[-44.21189,-21.91627],[-44.21153,-21.91746],[-44.21267,-21.91863],[-44.21417,-21.91849],[-44.21527,-21.9179],[-44.21673,-21.91768],[-44.21842,-21.91785],[-44.22098,-21.91714],[-44.22305,-21.91834],[-44.22378,-21.91948],[-44.22582,-21.92076],[-44.22656,-21.92209],[-44.22711,-21.92433],[-44.229,-21.92616],[-44.22926,-21.92702],[-44.22741,-21.92752],[-44.22601,-21.92911],[-44.22571,-21.93087],[-44.22613,-21.93204],[-44.22737,-21.93285],[-44.22979,-21.93376],[-44.23051,-21.93563],[-44.23075,-21.93761],[-44.23041,-21.93845],[-44.2276,-21.93953],[-44.22669,-21.94096],[-44.22639,-21.94274],[-44.22545,-21.94591],[-44.22661,-21.94696],[-44.22697,-21.94935],[-44.2274,-21.95023],[-44.23011,-21.95161],[-44.23124,-21.95272],[-44.23185,-21.95489],[-44.23258,-21.95595],[-44.23493,-21.95735],[-44.23816,-21.95848],[-44.24057,-21.95866],[-44.24378,-21.95856],[-44.24483,-21.95937],[-44.24513,-21.96035],[-44.24401,-21.96317],[-44.2446,-21.96387],[-44.24607,-21.96434],[-44.24671,-21.965],[-44.24653,-21.96721],[-44.24686,-21.96877],[-44.24779,-21.96972],[-44.24924,-21.9704],[-44.2521,-21.9704],[-44.25459,-21.97088],[-44.25512,-21.97236],[-44.25658,-21.97544],[-44.25497,-21.97567],[-44.25332,-21.97649],[-44.25095,-21.97916],[-44.24768,-21.98015],[-44.24642,-21.97997],[-44.24359,-21.97882],[-44.24113,-21.97861],[-44.23964,-21.9792],[-44.23701,-21.97952],[-44.23663,-21.98078],[-44.23708,-21.98201],[-44.23691,-21.9837],[-44.23737,-21.98647],[-44.2379,-21.98757],[-44.23871,-21.98816],[-44.23814,-21.98903],[-44.23837,-21.9897],[-44.23733,-21.9907],[-44.23758,-21.99295],[-44.23698,-21.99456],[-44.23582,-21.99563],[-44.23539,-21.9965],[-44.23671,-21.99827],[-44.23694,-21.9992],[-44.23679,-22.00099],[-44.23812,-22.00348],[-44.23807,-22.0065],[-44.23906,-22.00902],[-44.23973,-22.01019],[-44.23997,-22.01147],[-44.23943,-22.01289],[-44.23905,-22.01545],[-44.23909,-22.01995],[-44.23894,-22.02063],[-44.23743,-22.02211],[-44.23585,-22.0233],[-44.23539,-22.02448],[-44.23522,-22.02612],[-44.23438,-22.02835],[-44.23363,-22.02972],[-44.23361,-22.03168],[-44.23291,-22.03368],[-44.2329,-22.03504],[-44.23185,-22.03712],[-44.22913,-22.03954],[-44.22801,-22.04128],[-44.22804,-22.04344],[-44.2278,-22.04761],[-44.22915,-22.04933],[-44.22911,-22.05152],[-44.22861,-22.05406],[-44.22839,-22.05641],[-44.22865,-22.05681],[-44.22877,-22.05939],[-44.22943,-22.06094],[-44.22867,-22.06241],[-44.22884,-22.06307],[-44.23104,-22.06429],[-44.23103,-22.06595],[-44.23148,-22.06736],[-44.2303,-22.06826],[-44.22972,-22.06964],[-44.22855,-22.07356],[-44.22834,-22.07548],[-44.22735,-22.07541],[-44.22607,-22.07461],[-44.22471,-22.07331],[-44.2225,-22.0736],[-44.22117,-22.07337],[-44.22042,-22.07231],[-44.22025,-22.07132],[-44.21946,-22.07014],[-44.21725,-22.0695],[-44.21562,-22.07002],[-44.21365,-22.07032],[-44.21148,-22.07004],[-44.20727,-22.0704],[-44.20537,-22.07043],[-44.20383,-22.07143],[-44.20234,-22.07107],[-44.19898,-22.06908],[-44.19845,-22.06834],[-44.19628,-22.06641],[-44.19457,-22.06585],[-44.19345,-22.06466],[-44.19159,-22.06363],[-44.18993,-22.06208],[-44.18899,-22.06166],[-44.18669,-22.0614],[-44.18519,-22.061],[-44.18315,-22.06137],[-44.18211,-22.06116],[-44.18123,-22.06007],[-44.18055,-22.05864],[-44.17944,-22.05833],[-44.17687,-22.05807],[-44.17544,-22.05654],[-44.17474,-22.0546],[-44.17384,-22.05332],[-44.17292,-22.05288],[-44.17109,-22.05094],[-44.17,-22.05031],[-44.16904,-22.04919],[-44.16817,-22.04599],[-44.16628,-22.04407],[-44.16333,-22.04316],[-44.16138,-22.04344],[-44.16064,-22.04328],[-44.15845,-22.04044],[-44.15763,-22.03665],[-44.15663,-22.03492],[-44.15427,-22.03356],[-44.152,-22.03346],[-44.15122,-22.03378],[-44.14918,-22.0338],[-44.14686,-22.0342],[-44.14683,-22.03066],[-44.1466,-22.03024],[-44.14467,-22.02939],[-44.14336,-22.02848],[-44.14217,-22.02807],[-44.14123,-22.02727],[-44.14172,-22.02621],[-44.14312,-22.02624],[-44.14398,-22.02569],[-44.14538,-22.0237],[-44.14433,-22.02112],[-44.14402,-22.01935],[-44.14433,-22.01811],[-44.14544,-22.01716],[-44.1454,-22.01611],[-44.14451,-22.01568],[-44.14215,-22.0157],[-44.1393,-22.0155],[-44.13647,-22.01637],[-44.13491,-22.01623],[-44.13414,-22.01586],[-44.13347,-22.01473],[-44.13301,-22.01248],[-44.13226,-22.01181],[-44.13242,-22.01044],[-44.13161,-22.00939],[-44.12945,-22.00766],[-44.12682,-22.00591],[-44.12538,-22.00419],[-44.12547,-22.00147],[-44.12493,-21.99946],[-44.125,-21.9983],[-44.12408,-21.99648],[-44.12327,-21.99588],[-44.12168,-21.99599],[-44.11977,-21.9967],[-44.11824,-21.9966],[-44.11724,-21.99686],[-44.11317,-21.99889],[-44.11241,-21.99875],[-44.11104,-21.99702],[-44.10574,-21.99607],[-44.10608,-21.99376],[-44.10692,-21.9922],[-44.10699,-21.99093],[-44.10604,-21.98898],[-44.10663,-21.98726],[-44.10679,-21.98551],[-44.10651,-21.98507],[-44.10428,-21.98449],[-44.10331,-21.98376],[-44.10208,-21.98225],[-44.10096,-21.97834],[-44.09994,-21.97651],[-44.09896,-21.97572],[-44.09748,-21.9733],[-44.09674,-21.96971],[-44.09603,-21.96826],[-44.09529,-21.96584],[-44.09557,-21.96255],[-44.09608,-21.96159],[-44.09785,-21.96003],[-44.10274,-21.95784],[-44.10504,-21.95638],[-44.10674,-21.9546],[-44.1086,-21.95103],[-44.1105,-21.94955],[-44.11162,-21.94814],[-44.11126,-21.94696],[-44.10903,-21.94591],[-44.10824,-21.94457],[-44.10893,-21.94326],[-44.11003,-21.94232],[-44.11184,-21.94027],[-44.11196,-21.939],[-44.11162,-21.93709],[-44.11245,-21.93609],[-44.11469,-21.93455],[-44.11559,-21.93339],[-44.11543,-21.93229],[-44.11436,-21.93044],[-44.11073,-21.92736],[-44.1097,-21.92582],[-44.10979,-21.92228],[-44.108,-21.9197],[-44.10671,-21.91911],[-44.10392,-21.91856],[-44.10304,-21.91802],[-44.10157,-21.9165],[-44.10061,-21.91322],[-44.10007,-21.9124],[-44.09632,-21.91552],[-44.09226,-21.91742],[-44.08998,-21.91748],[-44.08856,-21.91693],[-44.08712,-21.91515],[-44.08627,-21.91272],[-44.0838,-21.91006],[-44.08314,-21.90734],[-44.08276,-21.90701],[-44.07887,-21.90653],[-44.07806,-21.90548],[-44.07798,-21.90271],[-44.07718,-21.90155],[-44.07622,-21.90169],[-44.07536,-21.9024],[-44.07609,-21.90082],[-44.07774,-21.89615],[-44.07787,-21.89382],[-44.0787,-21.8927],[-44.08042,-21.89217],[-44.08229,-21.89205],[-44.08296,-21.89174],[-44.08578,-21.89143],[-44.08813,-21.89018],[-44.08885,-21.8889],[-44.08947,-21.88699],[-44.08892,-21.88599],[-44.08691,-21.88519],[-44.08726,-21.88366],[-44.08793,-21.88259],[-44.08959,-21.88094],[-44.0931,-21.87924],[-44.09698,-21.87854],[-44.09844,-21.87743],[-44.09886,-21.87605],[-44.09863,-21.87164],[-44.09773,-21.86783],[-44.0975,-21.86569],[-44.09829,-21.86259],[-44.09859,-21.85708],[-44.09783,-21.85491],[-44.09576,-21.85225],[-44.09525,-21.8505],[-44.09399,-21.84915],[-44.09334,-21.84716],[-44.09331,-21.8456],[-44.09251,-21.84244],[-44.0934,-21.84096],[-44.09283,-21.83793],[-44.09316,-21.83705],[-44.09151,-21.83623],[-44.0908,-21.83511],[-44.08977,-21.83531],[-44.08801,-21.83479],[-44.08693,-21.83366],[-44.08575,-21.83355],[-44.08472,-21.83218],[-44.0849,-21.83094],[-44.08666,-21.83026],[-44.08789,-21.83068],[-44.08925,-21.83218],[-44.08975,-21.83217],[-44.09208,-21.83004],[-44.09203,-21.82934],[-44.09107,-21.82841],[-44.09358,-21.82764],[-44.094,-21.82816],[-44.09292,-21.82923],[-44.0947,-21.83092],[-44.09549,-21.83054],[-44.09634,-21.82859],[-44.09715,-21.82762],[-44.09997,-21.82643],[-44.10042,-21.82555],[-44.09947,-21.82518],[-44.09989,-21.82436],[-44.10121,-21.82367],[-44.10091,-21.82239],[-44.10138,-21.82046],[-44.0983,-21.81969],[-44.09673,-21.81866],[-44.09583,-21.81766],[-44.09435,-21.81692],[-44.09371,-21.81617],[-44.09418,-21.81517],[-44.09655,-21.81465],[-44.09793,-21.81398],[-44.09778,-21.81349],[-44.09616,-21.81192],[-44.09471,-21.81206],[-44.0945,-21.81109],[-44.09557,-21.80988],[-44.09709,-21.81011],[-44.09746,-21.80939],[-44.09519,-21.80823],[-44.09394,-21.80785],[-44.09436,-21.80697],[-44.09585,-21.80578],[-44.0977,-21.80673],[-44.09843,-21.80619],[-44.09863,-21.80469],[-44.09974,-21.80342],[-44.09922,-21.80256],[-44.0971,-21.80297],[-44.09664,-21.8018],[-44.09505,-21.80184],[-44.09488,-21.80276],[-44.09338,-21.80253],[-44.09192,-21.80282],[-44.09087,-21.79688],[-44.09237,-21.79697],[-44.09339,-21.79777],[-44.09717,-21.79933],[-44.10225,-21.79919],[-44.10472,-21.80003],[-44.10523,-21.79993],[-44.10768,-21.80132],[-44.11084,-21.80156],[-44.11244,-21.80226],[-44.11377,-21.8025],[-44.11591,-21.80248],[-44.11814,-21.8031],[-44.1196,-21.80311],[-44.12089,-21.80369],[-44.1214,-21.80553],[-44.12146,-21.80699],[-44.12083,-21.80885],[-44.12087,-21.81016],[-44.12206,-21.8141],[-44.12326,-21.81581],[-44.1249,-21.81746],[-44.12667,-21.81838],[-44.12749,-21.81933],[-44.12875,-21.82186],[-44.13022,-21.82294],[-44.13144,-21.8252],[-44.13163,-21.82694],[-44.13115,-21.82857],[-44.13143,-21.82942],[-44.13245,-21.82952],[-44.13437,-21.82889],[-44.13648,-21.82852],[-44.13889,-21.82903],[-44.14136,-21.8285],[-44.14326,-21.82848],[-44.14616,-21.82892],[-44.14901,-21.82904],[-44.15013,-21.82935],[-44.15272,-21.8288],[-44.15554,-21.82773],[-44.15809,-21.82565],[-44.15941,-21.82527],[-44.16334,-21.82566],[-44.16465,-21.82532],[-44.16853,-21.82535],[-44.17005,-21.82556],[-44.17176,-21.82686],[-44.17378,-21.82718],[-44.17444,-21.82761]]]},"properties":{"codigo":"310750505","name":"Bom Jardim de Minas","population":6327,"households":3717,"areaKm2":285.6777,"density":22.1}},{"type":"Feature","geometry":{"type":"Polygon","coordinates":[[[-44.10574,-21.99607],[-44.10366,-21.99682],[-44.10211,-21.99679],[-44.10061,-21.99715],[-44.09744,-21.99715],[-44.09654,-21.99675],[-44.09567,-21.99548],[-44.09479,-21.99509],[-44.09249,-21.99509],[-44.09035,-21.99618],[-44.08899,-21.9957],[-44.08784,-21.99312],[-44.08722,-21.99233],[-44.08594,-21.99254],[-44.08462,-21.99365],[-44.08279,-21.99481],[-44.08131,-21.99482],[-44.0796,-21.99536],[-44.079,-21.99609],[-44.07876,-21.99752],[-44.07748,-22.00009],[-44.07743,-22.0022],[-44.07545,-22.00358],[-44.07377,-22.00519],[-44.07359,-22.00732],[-44.0725,-22.00819],[-44.07321,-22.00987],[-44.07287,-22.01076],[-44.07092,-22.01208],[-44.06903,-22.011],[-44.06719,-22.01122],[-44.06537,-22.01219],[-44.06402,-22.01191],[-44.06223,-22.00982],[-44.06113,-22.00997],[-44.05982,-22.01191],[-44.05821,-22.01365],[-44.05855,-22.01627],[-44.05795,-22.01825],[-44.05811,-22.01933],[-44.05888,-22.02119],[-44.05951,-22.02379],[-44.06041,-22.0264],[-44.06002,-22.02772],[-44.0586,-22.02879],[-44.05671,-22.02963],[-44.05441,-22.02991],[-44.05327,-22.03122],[-44.05141,-22.03236],[-44.04946,-22.03225],[-44.04668,-22.03129],[-44.04257,-22.02968],[-44.04057,-22.02873],[-44.03856,-22.02748],[-44.03622,-22.02568],[-44.03467,-22.02482],[-44.03335,-22.02456],[-44.03101,-22.02354],[-44.03021,-22.02277],[-44.02801,-22.02259],[-44.02631,-22.02201],[-44.02392,-22.02201],[-44.02168,-22.02144],[-44.01908,-22.0212],[-44.0159,-22.02163],[-44.01336,-22.02231],[-44.012,-22.02202],[-44.0087,-22.02097],[-44.00719,-22.02114],[-44.0048,-22.02185],[-44.00174,-22.02245],[-44.00012,-22.02214],[-44.0001,-22.02182],[-44.00168,-22.02003],[-44.00249,-22.01867],[-44.00293,-22.01652],[-44.00291,-22.01505],[-44.00199,-22.01267],[-44.0012,-22.01152],[-44.00097,-22.00799],[-44.00184,-22.00692],[-44.00209,-22.00594],[-44.00345,-22.00435],[-44.0041,-22.0031],[-44.00404,-22.0013],[-44.00321,-22.00009],[-44.00291,-21.9989],[-44.00201,-21.99747],[-44.00195,-21.99675],[-44.00333,-21.99524],[-44.00289,-21.99423],[-44.00114,-21.99319],[-44.0007,-21.99174],[-44.00128,-21.9907],[-44.00305,-21.98944],[-44.00355,-21.98843],[-44.00209,-21.98765],[-43.99971,-21.98839],[-43.99732,-21.98807],[-43.99608,-21.98707],[-43.99661,-21.98361],[-43.99649,-21.98239],[-43.99591,-21.9807],[-43.99455,-21.97941],[-43.9918,-21.97873],[-43.9922,-21.97665],[-43.99219,-21.97497],[-43.99183,-21.97305],[-43.99089,-21.97188],[-43.98882,-21.97154],[-43.98892,-21.97051],[-43.98995,-21.96833],[-43.98958,-21.96723],[-43.9888,-21.96658],[-43.98755,-21.96616],[-43.98571,-21.96506],[-43.98488,-21.964],[-43.98102,-21.96016],[-43.97841,-21.95777],[-43.97693,-21.95666],[-43.98032,-21.95364],[-43.98073,-21.95292],[-43.98303,-21.95068],[-43.98588,-21.94893],[-43.98561,-21.94732],[-43.98564,-21.94474],[-43.98514,-21.94203],[-43.98643,-21.9406],[-43.98701,-21.93732],[-43.98903,-21.93561],[-43.99056,-21.93391],[-43.99141,-21.93405],[-43.99191,-21.93512],[-43.99341,-21.93499],[-43.99571,-21.9335],[-43.99702,-21.93094],[-43.99962,-21.93031],[-44.00062,-21.92769],[-43.99957,-21.92633],[-43.99704,-21.92496],[-43.99718,-21.92383],[-43.99819,-21.92195],[-43.99802,-21.92022],[-43.99843,-21.91885],[-44.00056,-21.91719],[-44.0008,-21.9157],[-44.00007,-21.91423],[-44.0002,-21.91338],[-43.99956,-21.91271],[-43.99989,-21.91184],[-44.00118,-21.90978],[-44.00251,-21.90874],[-44.00396,-21.90839],[-44.00638,-21.90678],[-44.00876,-21.90645],[-44.00988,-21.90689],[-44.01059,-21.90802],[-44.01111,-21.91034],[-44.0118,-21.91118],[-44.0136,-21.91157],[-44.01648,-21.91111],[-44.01824,-21.91204],[-44.01923,-21.91214],[-44.02094,-21.91068],[-44.02368,-21.90998],[-44.0244,-21.91023],[-44.02597,-21.91175],[-44.027,-21.91173],[-44.02827,-21.91094],[-44.03106,-21.91026],[-44.03201,-21.91068],[-44.03347,-21.91233],[-44.03375,-21.91304],[-44.03549,-21.91554],[-44.03637,-21.91622],[-44.03772,-21.91781],[-44.03862,-21.91836],[-44.04049,-21.91897],[-44.04186,-21.92081],[-44.04333,-21.92199],[-44.04682,-21.92319],[-44.04791,-21.92414],[-44.04903,-21.92622],[-44.05062,-21.92707],[-44.05285,-21.92708],[-44.05517,-21.92574],[-44.05694,-21.92573],[-44.06,-21.92649],[-44.06174,-21.92632],[-44.06516,-21.92564],[-44.06812,-21.92531],[-44.06989,-21.92609],[-44.07067,-21.92571],[-44.07079,-21.92389],[-44.07154,-21.92193],[-44.07302,-21.92053],[-44.07529,-21.9194],[-44.07562,-21.91899],[-44.07542,-21.91761],[-44.07456,-21.91465],[-44.07423,-21.91168],[-44.07313,-21.90982],[-44.07295,-21.9081],[-44.07397,-21.90577],[-44.07446,-21.90418],[-44.07536,-21.9024],[-44.07622,-21.90169],[-44.07718,-21.90155],[-44.07798,-21.90271],[-44.07806,-21.90548],[-44.07887,-21.90653],[-44.08276,-21.90701],[-44.08314,-21.90734],[-44.0838,-21.91006],[-44.08627,-21.91272],[-44.08712,-21.91515],[-44.08856,-21.91693],[-44.08998,-21.91748],[-44.09226,-21.91742],[-44.09632,-21.91552],[-44.10007,-21.9124],[-44.10061,-21.91322],[-44.10157,-21.9165],[-44.10304,-21.91802],[-44.10392,-21.91856],[-44.10671,-21.91911],[-44.108,-21.9197],[-44.10979,-21.92228],[-44.1097,-21.92582],[-44.11073,-21.92736],[-44.11436,-21.93044],[-44.11543,-21.93229],[-44.11559,-21.93339],[-44.11469,-21.93455],[-44.11245,-21.93609],[-44.11162,-21.93709],[-44.11196,-21.939],[-44.11184,-21.94027],[-44.11003,-21.94232],[-44.10893,-21.94326],[-44.10824,-21.94457],[-44.10903,-21.94591],[-44.11126,-21.94696],[-44.11162,-21.94814],[-44.1105,-21.94955],[-44.1086,-21.95103],[-44.10674,-21.9546],[-44.10504,-21.95638],[-44.10274,-21.95784],[-44.09785,-21.96003],[-44.09608,-21.96159],[-44.09557,-21.96255],[-44.09529,-21.96584],[-44.09603,-21.96826],[-44.09674,-21.96971],[-44.09748,-21.9733],[-44.09896,-21.97572],[-44.09994,-21.97651],[-44.10096,-21.97834],[-44.10208,-21.98225],[-44.10331,-21.98376],[-44.10428,-21.98449],[-44.10651,-21.98507],[-44.10679,-21.98551],[-44.10663,-21.98726],[-44.10604,-21.98898],[-44.10699,-21.99093],[-44.10692,-21.9922],[-44.10608,-21.99376],[-44.10574,-21.99607]]]},"properties":{"codigo":"310750510","name":"Tabuão","population":456,"households":495,"areaKm2":126.3431,"density":3.6}}]}