{"type":"FeatureCollection","features":[{"type":"Feature","geometry":{"type":"Polygon","coordinates":[[[-46.99841,-20.63903],[-46.99856,-20.6375],[-46.99725,-20.63735],[-46.99564,-20.63544],[-46.99825,-20.6338],[-46.99947,-20.63167],[-47.00019,-20.62996],[-47.00017,-20.62878],[-47.00069,-20.62823],[-47.00116,-20.62672],[-47.00244,-20.62653],[-47.0028,-20.62559],[-47.00384,-20.62462],[-47.00402,-20.6234],[-47.00334,-20.62268],[-47.00408,-20.62088],[-47.00272,-20.61946],[-47.00382,-20.61833],[-47.0064,-20.61858],[-47.00804,-20.61531],[-47.00806,-20.61328],[-47.01143,-20.61145],[-47.01218,-20.61081],[-47.01311,-20.60845],[-47.01365,-20.60757],[-47.01397,-20.60499],[-47.01613,-20.60241],[-47.01685,-20.60206],[-47.0179,-20.60251],[-47.01887,-20.60356],[-47.01999,-20.60313],[-47.01983,-20.6022],[-47.0191,-20.60099],[-47.02083,-20.59903],[-47.02075,-20.59661],[-47.02184,-20.59574],[-47.02185,-20.59406],[-47.02141,-20.5931],[-47.02114,-20.59133],[-47.02041,-20.5903],[-47.02032,-20.58949],[-47.02133,-20.58875],[-47.02241,-20.58851],[-47.0231,-20.58743],[-47.02322,-20.58599],[-47.02383,-20.58476],[-47.02628,-20.58395],[-47.02803,-20.58372],[-47.02914,-20.58319],[-47.03046,-20.58335],[-47.03043,-20.58219],[-47.03091,-20.58023],[-47.03056,-20.5779],[-47.03069,-20.57599],[-47.03139,-20.57461],[-47.03174,-20.57318],[-47.03193,-20.57025],[-47.03225,-20.56882],[-47.03465,-20.56586],[-47.03522,-20.56462],[-47.03712,-20.56209],[-47.03709,-20.5593],[-47.03812,-20.55597],[-47.0383,-20.55433],[-47.03905,-20.55173],[-47.04009,-20.54987],[-47.04102,-20.54871],[-47.04281,-20.54724],[-47.04274,-20.54607],[-47.04308,-20.54424],[-47.04406,-20.54298],[-47.04655,-20.54081],[-47.04779,-20.54072],[-47.04893,-20.53969],[-47.04991,-20.53935],[-47.05083,-20.53813],[-47.05301,-20.53664],[-47.05558,-20.53426],[-47.05885,-20.53315],[-47.06032,-20.532],[-47.06219,-20.53014],[-47.06478,-20.52873],[-47.06671,-20.5281],[-47.06764,-20.52805],[-47.06768,-20.53096],[-47.06835,-20.53342],[-47.06908,-20.53456],[-47.0726,-20.53775],[-47.07413,-20.53933],[-47.07985,-20.5432],[-47.08066,-20.54199],[-47.08227,-20.54123],[-47.08426,-20.53952],[-47.08554,-20.5389],[-47.0886,-20.53916],[-47.09047,-20.53838],[-47.09299,-20.53848],[-47.09494,-20.53954],[-47.09677,-20.53951],[-47.09806,-20.53895],[-47.10017,-20.53929],[-47.10289,-20.53918],[-47.1045,-20.53894],[-47.10567,-20.5393],[-47.10746,-20.53933],[-47.10947,-20.53865],[-47.1103,-20.53864],[-47.11304,-20.53799],[-47.11386,-20.53841],[-47.11458,-20.54195],[-47.11547,-20.54334],[-47.11626,-20.54531],[-47.11766,-20.54768],[-47.11928,-20.54791],[-47.12153,-20.54773],[-47.12253,-20.54794],[-47.12382,-20.54924],[-47.12399,-20.55072],[-47.12509,-20.55178],[-47.12712,-20.55193],[-47.12886,-20.55237],[-47.12951,-20.55362],[-47.13069,-20.55427],[-47.13167,-20.55671],[-47.13166,-20.55825],[-47.13281,-20.55962],[-47.1348,-20.55958],[-47.13595,-20.56058],[-47.13765,-20.56111],[-47.13835,-20.56253],[-47.13851,-20.56385],[-47.13999,-20.56383],[-47.14275,-20.56559],[-47.14176,-20.56723],[-47.14051,-20.56827],[-47.14001,-20.57012],[-47.13871,-20.57127],[-47.13662,-20.57655],[-47.13555,-20.57884],[-47.1343,-20.58338],[-47.13376,-20.5868],[-47.13307,-20.58816],[-47.13299,-20.58958],[-47.1324,-20.59078],[-47.13132,-20.59086],[-47.12635,-20.59018],[-47.12529,-20.59043],[-47.12448,-20.59151],[-47.12376,-20.59314],[-47.12276,-20.59468],[-47.12299,-20.59592],[-47.12429,-20.59849],[-47.12573,-20.60301],[-47.12585,-20.60569],[-47.12529,-20.60879],[-47.12388,-20.60983],[-47.12334,-20.61062],[-47.12332,-20.61272],[-47.11823,-20.61471],[-47.1159,-20.61528],[-47.11071,-20.61962],[-47.10965,-20.62],[-47.10873,-20.6208],[-47.10851,-20.62189],[-47.11051,-20.62451],[-47.11171,-20.62817],[-47.11202,-20.63432],[-47.11268,-20.63808],[-47.11182,-20.63899],[-47.10863,-20.63811],[-47.10657,-20.63889],[-47.10415,-20.64065],[-47.10154,-20.6422],[-47.09851,-20.64358],[-47.09746,-20.64388],[-47.0969,-20.64528],[-47.09818,-20.64716],[-47.09793,-20.64865],[-47.09592,-20.65223],[-47.09607,-20.65577],[-47.09582,-20.65777],[-47.09679,-20.66178],[-47.09924,-20.66582],[-47.10101,-20.66731],[-47.10271,-20.66989],[-47.10282,-20.67086],[-47.10249,-20.67248],[-47.10279,-20.6733],[-47.10237,-20.67466],[-47.1009,-20.67744],[-47.10032,-20.67911],[-47.10098,-20.68202],[-47.09908,-20.6815],[-47.09794,-20.6808],[-47.09666,-20.67954],[-47.09489,-20.67697],[-47.09355,-20.67586],[-47.09086,-20.67537],[-47.08783,-20.67545],[-47.08658,-20.67651],[-47.0859,-20.6785],[-47.08493,-20.6787],[-47.08319,-20.67764],[-47.08203,-20.6773],[-47.07944,-20.67792],[-47.07845,-20.67729],[-47.0782,-20.67629],[-47.07628,-20.67477],[-47.07538,-20.6748],[-47.07437,-20.67652],[-47.07371,-20.67895],[-47.07267,-20.67992],[-47.07272,-20.68087],[-47.07212,-20.68246],[-47.07075,-20.68397],[-47.07009,-20.68433],[-47.06831,-20.68451],[-47.06705,-20.68528],[-47.06555,-20.68515],[-47.0633,-20.68548],[-47.06234,-20.68584],[-47.05785,-20.68589],[-47.05588,-20.68538],[-47.05571,-20.68464],[-47.05484,-20.68446],[-47.05407,-20.68547],[-47.05265,-20.68466],[-47.05179,-20.68472],[-47.05149,-20.68387],[-47.04957,-20.6839],[-47.04881,-20.68446],[-47.04729,-20.68354],[-47.04609,-20.68334],[-47.04423,-20.684],[-47.04125,-20.68441],[-47.04075,-20.68332],[-47.03991,-20.68333],[-47.0388,-20.68172],[-47.03786,-20.68125],[-47.03767,-20.67987],[-47.03643,-20.67934],[-47.03541,-20.67772],[-47.03519,-20.67525],[-47.03582,-20.67345],[-47.03471,-20.67349],[-47.03337,-20.67289],[-47.03328,-20.67219],[-47.03209,-20.67127],[-47.03173,-20.66987],[-47.0291,-20.66823],[-47.02889,-20.6674],[-47.02717,-20.66778],[-47.02695,-20.66699],[-47.02568,-20.6658],[-47.02563,-20.66486],[-47.02505,-20.66377],[-47.02474,-20.66176],[-47.02476,-20.66032],[-47.02324,-20.65931],[-47.0229,-20.6581],[-47.02362,-20.65716],[-47.02365,-20.65627],[-47.02303,-20.6536],[-47.02336,-20.65223],[-47.02262,-20.65119],[-47.02264,-20.64985],[-47.02199,-20.64908],[-47.0212,-20.65022],[-47.01983,-20.64959],[-47.01829,-20.64929],[-47.01793,-20.64779],[-47.01709,-20.64721],[-47.01635,-20.64609],[-47.0153,-20.64773],[-47.01289,-20.6481],[-47.01169,-20.64651],[-47.00955,-20.64605],[-47.00955,-20.64516],[-47.00891,-20.64438],[-47.00716,-20.64364],[-47.00575,-20.64477],[-47.00363,-20.64236],[-47.00294,-20.6411],[-47.0003,-20.64094],[-46.99841,-20.63903]]]},"properties":{"codigo":"311240605","name":"Capetinga","population":5694,"households":2715,"areaKm2":156.5095,"density":36.4}},{"type":"Feature","geometry":{"type":"Polygon","coordinates":[[[-47.10098,-20.68202],[-47.10098,-20.68204],[-47.09925,-20.68354],[-47.09773,-20.6853],[-47.09567,-20.68635],[-47.0944,-20.68794],[-47.09317,-20.69013],[-47.09176,-20.69357],[-47.09195,-20.69688],[-47.09103,-20.69768],[-47.08852,-20.69805],[-47.08633,-20.69888],[-47.08343,-20.70166],[-47.08142,-20.70423],[-47.07959,-20.70877],[-47.07757,-20.71196],[-47.07644,-20.71331],[-47.07249,-20.71594],[-47.06856,-20.7163],[-47.06451,-20.71635],[-47.0616,-20.71731],[-47.0604,-20.71877],[-47.05948,-20.72041],[-47.05667,-20.72316],[-47.05554,-20.72339],[-47.05295,-20.72343],[-47.04941,-20.72197],[-47.04832,-20.72133],[-47.04623,-20.72118],[-47.04225,-20.72203],[-47.03972,-20.72352],[-47.03752,-20.72501],[-47.0354,-20.72668],[-47.03035,-20.72891],[-47.02913,-20.72983],[-47.02851,-20.73133],[-47.02736,-20.73214],[-47.02278,-20.73264],[-47.0197,-20.73367],[-47.01801,-20.73447],[-47.01722,-20.73572],[-47.01578,-20.73992],[-47.01524,-20.7443],[-47.01441,-20.74677],[-47.01312,-20.74836],[-47.01152,-20.7491],[-47.0108,-20.74975],[-47.00778,-20.74988],[-47.00479,-20.7513],[-47.00311,-20.7528],[-47.0023,-20.75427],[-47.00126,-20.75501],[-46.99952,-20.75557],[-46.9957,-20.75558],[-46.9949,-20.75576],[-46.99142,-20.75583],[-46.9906,-20.75617],[-46.98765,-20.75831],[-46.98502,-20.75966],[-46.98327,-20.76165],[-46.98228,-20.76346],[-46.98173,-20.7661],[-46.98059,-20.76901],[-46.97617,-20.77487],[-46.97307,-20.77929],[-46.96914,-20.78336],[-46.96864,-20.78506],[-46.96704,-20.78753],[-46.96492,-20.79003],[-46.96305,-20.79319],[-46.96188,-20.79244],[-46.95962,-20.79259],[-46.95651,-20.79365],[-46.95502,-20.79351],[-46.9536,-20.79238],[-46.95348,-20.79086],[-46.95222,-20.78692],[-46.95029,-20.7857],[-46.94957,-20.78485],[-46.94934,-20.78259],[-46.94867,-20.77977],[-46.94683,-20.7758],[-46.94512,-20.77242],[-46.94403,-20.7695],[-46.94403,-20.76807],[-46.94471,-20.76727],[-46.94583,-20.76676],[-46.9466,-20.76593],[-46.94649,-20.7637],[-46.94552,-20.76164],[-46.94378,-20.75963],[-46.94196,-20.75865],[-46.94059,-20.75827],[-46.93725,-20.75777],[-46.93753,-20.75658],[-46.93745,-20.75456],[-46.93824,-20.75088],[-46.93719,-20.74767],[-46.93641,-20.74662],[-46.93331,-20.7449],[-46.93029,-20.74407],[-46.92881,-20.74337],[-46.9285,-20.74218],[-46.9284,-20.74],[-46.92797,-20.73717],[-46.92719,-20.73423],[-46.9267,-20.73351],[-46.92384,-20.73336],[-46.92189,-20.73367],[-46.92078,-20.73341],[-46.92004,-20.73267],[-46.92001,-20.7319],[-46.92128,-20.7297],[-46.92099,-20.72875],[-46.91895,-20.72755],[-46.91659,-20.72684],[-46.91578,-20.72595],[-46.91543,-20.72048],[-46.91608,-20.71612],[-46.91606,-20.71388],[-46.91521,-20.7097],[-46.91412,-20.70769],[-46.91308,-20.70413],[-46.91139,-20.70266],[-46.91023,-20.7027],[-46.90626,-20.70337],[-46.90534,-20.70301],[-46.9049,-20.70151],[-46.90482,-20.69767],[-46.90559,-20.69474],[-46.90551,-20.69212],[-46.90245,-20.69101],[-46.90154,-20.69042],[-46.90084,-20.68904],[-46.90092,-20.68728],[-46.90148,-20.68612],[-46.90218,-20.68602],[-46.9026,-20.68711],[-46.90345,-20.6875],[-46.90546,-20.68718],[-46.90768,-20.68582],[-46.91048,-20.68574],[-46.91368,-20.68517],[-46.91493,-20.68462],[-46.9163,-20.68481],[-46.91752,-20.68354],[-46.91735,-20.68164],[-46.91684,-20.68027],[-46.91718,-20.67906],[-46.91877,-20.67759],[-46.91984,-20.67697],[-46.92274,-20.67591],[-46.92481,-20.67539],[-46.92597,-20.67538],[-46.92951,-20.67717],[-46.9318,-20.67947],[-46.93307,-20.68048],[-46.9347,-20.68266],[-46.93622,-20.68342],[-46.93788,-20.6839],[-46.94064,-20.68379],[-46.94293,-20.68412],[-46.94438,-20.6852],[-46.94623,-20.6861],[-46.94893,-20.68641],[-46.95267,-20.68652],[-46.9542,-20.68674],[-46.95661,-20.6864],[-46.96108,-20.68656],[-46.96245,-20.68596],[-46.96393,-20.68203],[-46.96323,-20.68057],[-46.96339,-20.67934],[-46.96413,-20.67927],[-46.96486,-20.6783],[-46.96631,-20.67753],[-46.96656,-20.67608],[-46.96927,-20.67635],[-46.97129,-20.67584],[-46.97233,-20.67631],[-46.97457,-20.67643],[-46.97658,-20.67763],[-46.97805,-20.67779],[-46.9796,-20.67843],[-46.98158,-20.67777],[-46.98292,-20.67796],[-46.98501,-20.68043],[-46.98657,-20.68099],[-46.98861,-20.68223],[-46.99055,-20.68296],[-46.99353,-20.68298],[-46.9945,-20.68259],[-46.99563,-20.6815],[-46.99608,-20.68041],[-46.99804,-20.67718],[-46.99813,-20.67553],[-46.99747,-20.67445],[-46.99718,-20.67277],[-46.99796,-20.67084],[-46.99791,-20.66736],[-46.99819,-20.66564],[-46.99937,-20.66222],[-47.00016,-20.66071],[-47.00098,-20.66009],[-47.00173,-20.65851],[-47.00105,-20.655],[-47.00041,-20.65344],[-47.00012,-20.65149],[-46.99917,-20.65034],[-46.99922,-20.64919],[-47.0009,-20.64707],[-47.00057,-20.64623],[-46.99923,-20.64532],[-46.99799,-20.64503],[-46.99592,-20.64374],[-46.99574,-20.64187],[-46.99841,-20.63903],[-47.0003,-20.64094],[-47.00294,-20.6411],[-47.00363,-20.64236],[-47.00575,-20.64477],[-47.00716,-20.64364],[-47.00891,-20.64438],[-47.00955,-20.64516],[-47.00955,-20.64605],[-47.01169,-20.64651],[-47.01289,-20.6481],[-47.0153,-20.64773],[-47.01635,-20.64609],[-47.01709,-20.64721],[-47.01793,-20.64779],[-47.01829,-20.64929],[-47.01983,-20.64959],[-47.0212,-20.65022],[-47.02199,-20.64908],[-47.02264,-20.64985],[-47.02262,-20.65119],[-47.02336,-20.65223],[-47.02303,-20.6536],[-47.02365,-20.65627],[-47.02362,-20.65716],[-47.0229,-20.6581],[-47.02324,-20.65931],[-47.02476,-20.66032],[-47.02474,-20.66176],[-47.02505,-20.66377],[-47.02563,-20.66486],[-47.02568,-20.6658],[-47.02695,-20.66699],[-47.02717,-20.66778],[-47.02889,-20.6674],[-47.0291,-20.66823],[-47.03173,-20.66987],[-47.03209,-20.67127],[-47.03328,-20.67219],[-47.03337,-20.67289],[-47.03471,-20.67349],[-47.03582,-20.67345],[-47.03519,-20.67525],[-47.03541,-20.67772],[-47.03643,-20.67934],[-47.03767,-20.67987],[-47.03786,-20.68125],[-47.0388,-20.68172],[-47.03991,-20.68333],[-47.04075,-20.68332],[-47.04125,-20.68441],[-47.04423,-20.684],[-47.04609,-20.68334],[-47.04729,-20.68354],[-47.04881,-20.68446],[-47.04957,-20.6839],[-47.05149,-20.68387],[-47.05179,-20.68472],[-47.05265,-20.68466],[-47.05407,-20.68547],[-47.05484,-20.68446],[-47.05571,-20.68464],[-47.05588,-20.68538],[-47.05785,-20.68589],[-47.06234,-20.68584],[-47.0633,-20.68548],[-47.06555,-20.68515],[-47.06705,-20.68528],[-47.06831,-20.68451],[-47.07009,-20.68433],[-47.07075,-20.68397],[-47.07212,-20.68246],[-47.07272,-20.68087],[-47.07267,-20.67992],[-47.07371,-20.67895],[-47.07437,-20.67652],[-47.07538,-20.6748],[-47.07628,-20.67477],[-47.0782,-20.67629],[-47.07845,-20.67729],[-47.07944,-20.67792],[-47.08203,-20.6773],[-47.08319,-20.67764],[-47.08493,-20.6787],[-47.0859,-20.6785],[-47.08658,-20.67651],[-47.08783,-20.67545],[-47.09086,-20.67537],[-47.09355,-20.67586],[-47.09489,-20.67697],[-47.09666,-20.67954],[-47.09794,-20.6808],[-47.09908,-20.6815],[-47.10098,-20.68202]]]},"properties":{"codigo":"311240610","name":"Goianases","population":868,"households":701,"areaKm2":141.4276,"density":6.1}}]}