{"type":"FeatureCollection","features":[{"type":"Feature","geometry":{"type":"Polygon","coordinates":[[[-50.80882,-19.78749],[-50.80625,-19.78952],[-50.80332,-19.79219],[-50.80243,-19.79275],[-50.79937,-19.79563],[-50.79845,-19.79617],[-50.79458,-19.79744],[-50.78651,-19.79804],[-50.78483,-19.79774],[-50.78268,-19.79708],[-50.78166,-19.79703],[-50.77968,-19.7962],[-50.7782,-19.79496],[-50.7768,-19.79431],[-50.77564,-19.79299],[-50.77434,-19.79227],[-50.77219,-19.79184],[-50.76917,-19.79158],[-50.76581,-19.79276],[-50.76451,-19.79402],[-50.76278,-19.79519],[-50.76094,-19.79582],[-50.75954,-19.79655],[-50.75767,-19.7983],[-50.75656,-19.80013],[-50.75651,-19.80163],[-50.75515,-19.80354],[-50.75329,-19.80441],[-50.7504,-19.80478],[-50.74893,-19.80519],[-50.74758,-19.80615],[-50.74523,-19.80869],[-50.74412,-19.81064],[-50.74392,-19.81168],[-50.74168,-19.81037],[-50.74069,-19.8091],[-50.73951,-19.80815],[-50.73887,-19.80585],[-50.73692,-19.80436],[-50.73559,-19.80288],[-50.73446,-19.80037],[-50.73271,-19.79735],[-50.73028,-19.79458],[-50.72823,-19.79111],[-50.72702,-19.78928],[-50.72705,-19.78677],[-50.72818,-19.78452],[-50.72863,-19.78318],[-50.72798,-19.78038],[-50.72705,-19.77862],[-50.72547,-19.77708],[-50.72447,-19.77695],[-50.72268,-19.77891],[-50.72171,-19.78072],[-50.7201,-19.78229],[-50.7186,-19.78424],[-50.71695,-19.78785],[-50.71531,-19.79018],[-50.71465,-19.79161],[-50.71258,-19.79346],[-50.7081,-19.79953],[-50.70538,-19.80265],[-50.70406,-19.80393],[-50.70304,-19.80542],[-50.70107,-19.80595],[-50.69676,-19.8053],[-50.69359,-19.8046],[-50.69146,-19.80523],[-50.6899,-19.80668],[-50.68927,-19.80887],[-50.68804,-19.81091],[-50.68792,-19.81464],[-50.6884,-19.81846],[-50.68809,-19.82097],[-50.68824,-19.82449],[-50.68858,-19.82592],[-50.68841,-19.82928],[-50.69,-19.83165],[-50.69182,-19.83259],[-50.69453,-19.83502],[-50.69624,-19.83693],[-50.69625,-19.83792],[-50.69457,-19.84075],[-50.69431,-19.8417],[-50.69268,-19.84464],[-50.69136,-19.84618],[-50.69077,-19.84752],[-50.69103,-19.84844],[-50.69038,-19.85024],[-50.68957,-19.85145],[-50.68961,-19.85431],[-50.68941,-19.85562],[-50.68844,-19.85748],[-50.68782,-19.85817],[-50.68549,-19.85991],[-50.68382,-19.86242],[-50.68276,-19.86455],[-50.68196,-19.86691],[-50.68089,-19.86853],[-50.67924,-19.87014],[-50.67765,-19.87129],[-50.67474,-19.87379],[-50.67215,-19.87634],[-50.6712,-19.87805],[-50.67048,-19.87986],[-50.67016,-19.88134],[-50.67025,-19.88568],[-50.67096,-19.88795],[-50.67195,-19.88888],[-50.67268,-19.8906],[-50.67377,-19.89171],[-50.6739,-19.89261],[-50.67295,-19.89419],[-50.67348,-19.89554],[-50.67347,-19.89648],[-50.67275,-19.89882],[-50.67345,-19.90014],[-50.67406,-19.90294],[-50.67489,-19.90473],[-50.67597,-19.90582],[-50.67599,-19.90697],[-50.67671,-19.90832],[-50.67733,-19.9105],[-50.6762,-19.91294],[-50.66509,-19.91038],[-50.66132,-19.909],[-50.6581,-19.90715],[-50.6521,-19.90145],[-50.64741,-19.89532],[-50.63979,-19.88049],[-50.63618,-19.87506],[-50.63194,-19.87092],[-50.62551,-19.86659],[-50.62181,-19.86439],[-50.61936,-19.86377],[-50.61652,-19.86173],[-50.61418,-19.86104],[-50.60977,-19.85974],[-50.60735,-19.85797],[-50.60555,-19.85609],[-50.59921,-19.84473],[-50.59586,-19.84126],[-50.58636,-19.82681],[-50.57795,-19.81637],[-50.57454,-19.8145],[-50.57275,-19.81377],[-50.56921,-19.81279],[-50.56204,-19.81357],[-50.56157,-19.81062],[-50.56061,-19.80813],[-50.55954,-19.80706],[-50.5582,-19.80641],[-50.55551,-19.80409],[-50.55508,-19.8024],[-50.55576,-19.79944],[-50.55884,-19.79669],[-50.56131,-19.79583],[-50.56416,-19.79452],[-50.56587,-19.79351],[-50.56738,-19.79218],[-50.56866,-19.78991],[-50.56858,-19.7842],[-50.56946,-19.78281],[-50.57012,-19.78082],[-50.56973,-19.77772],[-50.56868,-19.77578],[-50.56874,-19.7743],[-50.56998,-19.77318],[-50.57141,-19.77112],[-50.57152,-19.76971],[-50.57107,-19.76718],[-50.57146,-19.76573],[-50.57144,-19.76426],[-50.57195,-19.76291],[-50.57265,-19.76224],[-50.57262,-19.7598],[-50.57302,-19.75896],[-50.57532,-19.75656],[-50.57712,-19.75378],[-50.57842,-19.7528],[-50.57915,-19.75088],[-50.58138,-19.74857],[-50.58299,-19.74417],[-50.58392,-19.74264],[-50.58598,-19.74022],[-50.58627,-19.73847],[-50.58912,-19.73408],[-50.59088,-19.73273],[-50.59257,-19.73075],[-50.59334,-19.73023],[-50.59381,-19.72891],[-50.59491,-19.7277],[-50.59807,-19.72745],[-50.59988,-19.72665],[-50.60144,-19.72552],[-50.6035,-19.72338],[-50.60549,-19.72275],[-50.6064,-19.7221],[-50.60684,-19.72069],[-50.60744,-19.71992],[-50.60808,-19.71724],[-50.6092,-19.71575],[-50.60961,-19.71377],[-50.61086,-19.71124],[-50.61202,-19.71012],[-50.61417,-19.70637],[-50.61414,-19.70057],[-50.61391,-19.69967],[-50.6141,-19.69767],[-50.61392,-19.69576],[-50.61427,-19.69451],[-50.61565,-19.69235],[-50.61653,-19.69135],[-50.61643,-19.68942],[-50.61608,-19.68834],[-50.61449,-19.68625],[-50.61222,-19.68411],[-50.60931,-19.68228],[-50.60833,-19.68204],[-50.60648,-19.68027],[-50.60576,-19.67931],[-50.60439,-19.67648],[-50.60312,-19.6727],[-50.60379,-19.67032],[-50.60156,-19.66556],[-50.60097,-19.66368],[-50.60045,-19.65761],[-50.59991,-19.65568],[-50.6001,-19.65379],[-50.60078,-19.6524],[-50.60249,-19.651],[-50.60439,-19.65003],[-50.60776,-19.6492],[-50.61275,-19.6499],[-50.61418,-19.64983],[-50.61822,-19.65031],[-50.62181,-19.64937],[-50.62417,-19.64653],[-50.62631,-19.645],[-50.62873,-19.6429],[-50.63003,-19.64205],[-50.63339,-19.64065],[-50.63594,-19.64037],[-50.63787,-19.63935],[-50.64134,-19.63634],[-50.64484,-19.6342],[-50.64694,-19.63371],[-50.64833,-19.63364],[-50.65091,-19.63246],[-50.65367,-19.63166],[-50.65481,-19.63156],[-50.65661,-19.63066],[-50.65815,-19.62946],[-50.65919,-19.62926],[-50.66153,-19.62769],[-50.66321,-19.62622],[-50.66358,-19.62529],[-50.66513,-19.62322],[-50.66766,-19.61856],[-50.66778,-19.61709],[-50.66725,-19.61521],[-50.66597,-19.61262],[-50.66467,-19.61041],[-50.665,-19.60769],[-50.66499,-19.60569],[-50.66578,-19.6034],[-50.66652,-19.60251],[-50.66797,-19.59998],[-50.66907,-19.59882],[-50.66953,-19.59722],[-50.67024,-19.59597],[-50.67074,-19.59332],[-50.67142,-19.59165],[-50.67301,-19.58924],[-50.67384,-19.5884],[-50.67746,-19.58664],[-50.68141,-19.5841],[-50.68318,-19.58256],[-50.68389,-19.58129],[-50.68538,-19.58035],[-50.68761,-19.57838],[-50.68902,-19.57645],[-50.69038,-19.57503],[-50.69216,-19.57415],[-50.69448,-19.57343],[-50.6962,-19.57313],[-50.69878,-19.57305],[-50.70013,-19.57405],[-50.7008,-19.57544],[-50.70194,-19.57697],[-50.70322,-19.57792],[-50.70549,-19.57828],[-50.70665,-19.5782],[-50.70786,-19.57765],[-50.7107,-19.57289],[-50.71108,-19.57093],[-50.71177,-19.57005],[-50.71319,-19.56908],[-50.71641,-19.5686],[-50.71674,-19.56775],[-50.71883,-19.5662],[-50.72024,-19.56459],[-50.72059,-19.56196],[-50.72039,-19.56141],[-50.71823,-19.55999],[-50.7177,-19.55862],[-50.71961,-19.55809],[-50.72069,-19.55745],[-50.7208,-19.55648],[-50.7204,-19.55444],[-50.71937,-19.55206],[-50.71928,-19.55093],[-50.71982,-19.54784],[-50.71832,-19.54533],[-50.71819,-19.54462],[-50.71938,-19.54172],[-50.72084,-19.53981],[-50.72268,-19.5379],[-50.72357,-19.53727],[-50.72369,-19.53568],[-50.72294,-19.53415],[-50.72294,-19.53304],[-50.72363,-19.53179],[-50.72366,-19.53052],[-50.72433,-19.52964],[-50.72771,-19.52886],[-50.72903,-19.52736],[-50.72908,-19.52628],[-50.72998,-19.52484],[-50.73156,-19.52346],[-50.73305,-19.52045],[-50.73412,-19.51919],[-50.73515,-19.51849],[-50.73656,-19.51695],[-50.73841,-19.51398],[-50.73863,-19.51218],[-50.73942,-19.51139],[-50.743,-19.50933],[-50.74398,-19.50805],[-50.74479,-19.50528],[-50.7464,-19.50155],[-50.74652,-19.49963],[-50.74809,-19.49915],[-50.74885,-19.49858],[-50.75025,-19.49912],[-50.75242,-19.49849],[-50.75428,-19.49627],[-50.75581,-19.49579],[-50.75674,-19.49603],[-50.76067,-19.49592],[-50.76136,-19.49427],[-50.76229,-19.49398],[-50.76247,-19.49294],[-50.76332,-19.49219],[-50.76328,-19.49111],[-50.76387,-19.4904],[-50.76679,-19.49035],[-50.76825,-19.48994],[-50.76845,-19.48893],[-50.76977,-19.48809],[-50.76963,-19.48708],[-50.76852,-19.48615],[-50.76969,-19.48539],[-50.77074,-19.4854],[-50.77205,-19.48477],[-50.77392,-19.48524],[-50.77533,-19.48451],[-50.77681,-19.48436],[-50.77699,-19.48386],[-50.77576,-19.48291],[-50.77581,-19.48242],[-50.7747,-19.48089],[-50.77486,-19.48],[-50.77411,-19.47946],[-50.77487,-19.47588],[-50.776,-19.4733],[-50.77735,-19.47182],[-50.77883,-19.47201],[-50.7831,-19.47566],[-50.78356,-19.47561],[-50.78588,-19.47381],[-50.78706,-19.4726],[-50.78813,-19.47229],[-50.78964,-19.47117],[-50.79178,-19.47123],[-50.79476,-19.47212],[-50.79677,-19.47196],[-50.79831,-19.47148],[-50.79913,-19.47222],[-50.79972,-19.47359],[-50.80059,-19.47405],[-50.80261,-19.4737],[-50.80506,-19.47132],[-50.80643,-19.46933],[-50.80758,-19.46867],[-50.80785,-19.46777],[-50.80903,-19.46674],[-50.81065,-19.46708],[-50.81206,-19.46637],[-50.81354,-19.46685],[-50.81507,-19.46644],[-50.81612,-19.46661],[-50.81693,-19.46837],[-50.81792,-19.46844],[-50.81803,-19.47051],[-50.82011,-19.4709],[-50.82105,-19.47215],[-50.82304,-19.47237],[-50.82559,-19.47334],[-50.82494,-19.47504],[-50.82447,-19.48021],[-50.82497,-19.48357],[-50.82669,-19.48747],[-50.83045,-19.49228],[-50.83221,-19.49392],[-50.83551,-19.4961],[-50.83895,-19.49727],[-50.84397,-19.49836],[-50.84939,-19.49814],[-50.85667,-19.49567],[-50.87348,-19.48844],[-50.88947,-19.4809],[-50.90573,-19.47806],[-50.90957,-19.47661],[-50.91883,-19.47158],[-50.92149,-19.47071],[-50.93433,-19.4681],[-50.935,-19.46748],[-50.9392,-19.46786],[-50.94944,-19.47105],[-50.95692,-19.47602],[-50.96238,-19.4819],[-50.96327,-19.48364],[-50.96386,-19.48635],[-50.96295,-19.50058],[-50.96036,-19.50492],[-50.95416,-19.51243],[-50.94476,-19.52567],[-50.93589,-19.53622],[-50.93344,-19.53848],[-50.93088,-19.54224],[-50.92667,-19.55141],[-50.92417,-19.55862],[-50.92291,-19.57162],[-50.92313,-19.57606],[-50.92439,-19.58088],[-50.92523,-19.58277],[-50.928,-19.5878],[-50.93056,-19.59028],[-50.93424,-19.59178],[-50.93758,-19.59227],[-50.94312,-19.59221],[-50.94654,-19.59169],[-50.94975,-19.59004],[-50.952,-19.58668],[-50.95555,-19.58401],[-50.9618,-19.58174],[-50.97124,-19.58142],[-50.9745,-19.58165],[-50.97791,-19.58251],[-50.98169,-19.58428],[-50.98424,-19.58602],[-50.98755,-19.58951],[-50.9886,-19.59282],[-50.99047,-19.6054],[-50.9926,-19.61041],[-50.99674,-19.61637],[-50.99873,-19.6222],[-51.00211,-19.62795],[-51.00355,-19.62971],[-51.00458,-19.63249],[-51.0059,-19.63819],[-51.00823,-19.64079],[-51.01077,-19.64453],[-51.01158,-19.64669],[-51.01211,-19.65233],[-51.01318,-19.65436],[-51.0208,-19.65905],[-51.02125,-19.65958],[-50.99636,-19.6646],[-50.99424,-19.66533],[-50.99205,-19.66645],[-50.95731,-19.68904],[-50.94483,-19.69711],[-50.94193,-19.69868],[-50.93942,-19.69928],[-50.93732,-19.69915],[-50.93384,-19.69844],[-50.9244,-19.69621],[-50.91553,-19.69435],[-50.90949,-19.69299],[-50.90707,-19.69298],[-50.89492,-19.69477],[-50.89273,-19.6949],[-50.8905,-19.69462],[-50.88007,-19.69252],[-50.85771,-19.69173],[-50.85584,-19.69139],[-50.8359,-19.68587],[-50.83329,-19.68535],[-50.83183,-19.68532],[-50.82346,-19.68561],[-50.80273,-19.68438],[-50.79448,-19.68395],[-50.79364,-19.68512],[-50.79262,-19.68597],[-50.78807,-19.68854],[-50.78692,-19.68945],[-50.78614,-19.69105],[-50.78428,-19.69313],[-50.78224,-19.69488],[-50.78214,-19.69652],[-50.78303,-19.69892],[-50.78441,-19.70153],[-50.78547,-19.70266],[-50.78712,-19.70386],[-50.79104,-19.70413],[-50.79281,-19.70546],[-50.79479,-19.70942],[-50.79536,-19.7121],[-50.79723,-19.71452],[-50.79815,-19.71614],[-50.79998,-19.71795],[-50.80048,-19.72066],[-50.80133,-19.72187],[-50.8032,-19.72348],[-50.80379,-19.72575],[-50.80333,-19.72863],[-50.80354,-19.73132],[-50.80405,-19.7327],[-50.80684,-19.73554],[-50.80762,-19.73695],[-50.80778,-19.73838],[-50.80672,-19.74062],[-50.80631,-19.7422],[-50.8064,-19.74332],[-50.80732,-19.74582],[-50.80959,-19.74972],[-50.81093,-19.75141],[-50.81266,-19.75467],[-50.81308,-19.75686],[-50.81321,-19.75895],[-50.8133,-19.76468],[-50.81295,-19.76735],[-50.81233,-19.76932],[-50.81328,-19.77124],[-50.81319,-19.77327],[-50.8124,-19.77569],[-50.81235,-19.77673],[-50.81264,-19.77972],[-50.81262,-19.78186],[-50.81196,-19.78436],[-50.81139,-19.78535],[-50.80882,-19.78749]]]},"properties":{"codigo":"311455005","name":"Carneirinho","population":5986,"households":2976,"areaKm2":1061.429,"density":5.6}},{"type":"Feature","geometry":{"type":"Polygon","coordinates":[[[-50.80882,-19.78749],[-50.81257,-19.79112],[-50.81434,-19.79245],[-50.8163,-19.79302],[-50.81711,-19.79372],[-50.8189,-19.79724],[-50.81911,-19.79904],[-50.82065,-19.80101],[-50.82147,-19.80269],[-50.82118,-19.80357],[-50.82208,-19.8058],[-50.82166,-19.80675],[-50.82025,-19.80835],[-50.81959,-19.81252],[-50.82013,-19.81386],[-50.81901,-19.81671],[-50.82049,-19.82155],[-50.82225,-19.82356],[-50.82212,-19.82528],[-50.82306,-19.82933],[-50.82349,-19.83172],[-50.82475,-19.83421],[-50.82522,-19.83638],[-50.82491,-19.83739],[-50.82526,-19.83929],[-50.82446,-19.8418],[-50.82678,-19.84561],[-50.80448,-19.8674],[-50.79874,-19.87297],[-50.79871,-19.87356],[-50.80052,-19.8756],[-50.8038,-19.87894],[-50.80485,-19.88031],[-50.80596,-19.88308],[-50.80675,-19.88689],[-50.80674,-19.88949],[-50.80585,-19.89473],[-50.80468,-19.89631],[-50.80302,-19.89741],[-50.80042,-19.90198],[-50.79927,-19.90361],[-50.79858,-19.90562],[-50.79837,-19.9082],[-50.79781,-19.91141],[-50.79664,-19.91546],[-50.79571,-19.91694],[-50.79409,-19.91897],[-50.79376,-19.92139],[-50.79424,-19.92394],[-50.79513,-19.92519],[-50.7957,-19.927],[-50.79574,-19.92843],[-50.79627,-19.93075],[-50.79644,-19.93242],[-50.79634,-19.93429],[-50.79313,-19.93576],[-50.7918,-19.93661],[-50.7908,-19.93784],[-50.79024,-19.93959],[-50.7836,-19.93723],[-50.73541,-19.93019],[-50.72512,-19.92682],[-50.71635,-19.92321],[-50.7131,-19.92164],[-50.709,-19.92022],[-50.68848,-19.91663],[-50.68641,-19.91616],[-50.68055,-19.91481],[-50.6762,-19.91294],[-50.67733,-19.9105],[-50.67671,-19.90832],[-50.67599,-19.90697],[-50.67597,-19.90582],[-50.67489,-19.90473],[-50.67406,-19.90294],[-50.67345,-19.90014],[-50.67275,-19.89882],[-50.67347,-19.89648],[-50.67348,-19.89554],[-50.67295,-19.89419],[-50.6739,-19.89261],[-50.67377,-19.89171],[-50.67268,-19.8906],[-50.67195,-19.88888],[-50.67096,-19.88795],[-50.67025,-19.88568],[-50.67016,-19.88134],[-50.67048,-19.87986],[-50.6712,-19.87805],[-50.67215,-19.87634],[-50.67474,-19.87379],[-50.67765,-19.87129],[-50.67924,-19.87014],[-50.68089,-19.86853],[-50.68196,-19.86691],[-50.68276,-19.86455],[-50.68382,-19.86242],[-50.68549,-19.85991],[-50.68782,-19.85817],[-50.68844,-19.85748],[-50.68941,-19.85562],[-50.68961,-19.85431],[-50.68957,-19.85145],[-50.69038,-19.85024],[-50.69103,-19.84844],[-50.69077,-19.84752],[-50.69136,-19.84618],[-50.69268,-19.84464],[-50.69431,-19.8417],[-50.69457,-19.84075],[-50.69625,-19.83792],[-50.69624,-19.83693],[-50.69453,-19.83502],[-50.69182,-19.83259],[-50.69,-19.83165],[-50.68841,-19.82928],[-50.68858,-19.82592],[-50.68824,-19.82449],[-50.68809,-19.82097],[-50.6884,-19.81846],[-50.68792,-19.81464],[-50.68804,-19.81091],[-50.68927,-19.80887],[-50.6899,-19.80668],[-50.69146,-19.80523],[-50.69359,-19.8046],[-50.69676,-19.8053],[-50.70107,-19.80595],[-50.70304,-19.80542],[-50.70406,-19.80393],[-50.70538,-19.80265],[-50.7081,-19.79953],[-50.71258,-19.79346],[-50.71465,-19.79161],[-50.71531,-19.79018],[-50.71695,-19.78785],[-50.7186,-19.78424],[-50.7201,-19.78229],[-50.72171,-19.78072],[-50.72268,-19.77891],[-50.72447,-19.77695],[-50.72547,-19.77708],[-50.72705,-19.77862],[-50.72798,-19.78038],[-50.72863,-19.78318],[-50.72818,-19.78452],[-50.72705,-19.78677],[-50.72702,-19.78928],[-50.72823,-19.79111],[-50.73028,-19.79458],[-50.73271,-19.79735],[-50.73446,-19.80037],[-50.73559,-19.80288],[-50.73692,-19.80436],[-50.73887,-19.80585],[-50.73951,-19.80815],[-50.74069,-19.8091],[-50.74168,-19.81037],[-50.74392,-19.81168],[-50.74412,-19.81064],[-50.74523,-19.80869],[-50.74758,-19.80615],[-50.74893,-19.80519],[-50.7504,-19.80478],[-50.75329,-19.80441],[-50.75515,-19.80354],[-50.75651,-19.80163],[-50.75656,-19.80013],[-50.75767,-19.7983],[-50.75954,-19.79655],[-50.76094,-19.79582],[-50.76278,-19.79519],[-50.76451,-19.79402],[-50.76581,-19.79276],[-50.76917,-19.79158],[-50.77219,-19.79184],[-50.77434,-19.79227],[-50.77564,-19.79299],[-50.7768,-19.79431],[-50.7782,-19.79496],[-50.77968,-19.7962],[-50.78166,-19.79703],[-50.78268,-19.79708],[-50.78483,-19.79774],[-50.78651,-19.79804],[-50.79458,-19.79744],[-50.79845,-19.79617],[-50.79937,-19.79563],[-50.80243,-19.79275],[-50.80332,-19.79219],[-50.80625,-19.78952],[-50.80882,-19.78749]]]},"properties":{"codigo":"311455010","name":"Estrela da Barra","population":842,"households":529,"areaKm2":195.4242,"density":4.3}},{"type":"Feature","geometry":{"type":"Polygon","coordinates":[[[-50.82678,-19.84561],[-50.83513,-19.85191],[-50.83723,-19.85416],[-50.83814,-19.85583],[-50.83978,-19.85804],[-50.8431,-19.86193],[-50.84505,-19.86381],[-50.84645,-19.86485],[-50.84837,-19.8659],[-50.85416,-19.87199],[-50.85566,-19.87333],[-50.85898,-19.87498],[-50.86168,-19.87534],[-50.86379,-19.87618],[-50.86694,-19.87722],[-50.87112,-19.87815],[-50.87556,-19.87898],[-50.87735,-19.87949],[-50.88025,-19.87993],[-50.88496,-19.87965],[-50.88693,-19.87932],[-50.88853,-19.87879],[-50.8906,-19.87904],[-50.89242,-19.88037],[-50.89502,-19.88291],[-50.89669,-19.88404],[-50.89842,-19.88549],[-50.89972,-19.88627],[-50.90163,-19.88705],[-50.90443,-19.8872],[-50.91267,-19.88652],[-50.91369,-19.88667],[-50.91507,-19.88589],[-50.91793,-19.8853],[-50.92052,-19.88418],[-50.92301,-19.88373],[-50.92819,-19.88178],[-50.93024,-19.88042],[-50.93405,-19.87875],[-50.93987,-19.87733],[-50.94142,-19.87687],[-50.94624,-19.87675],[-50.95064,-19.87807],[-50.95521,-19.8807],[-50.95645,-19.88111],[-50.9603,-19.88129],[-50.96368,-19.88234],[-50.9675,-19.88528],[-50.97174,-19.89012],[-50.97397,-19.89227],[-50.97856,-19.89648],[-50.98078,-19.89829],[-50.98279,-19.89872],[-50.98495,-19.89733],[-50.98782,-19.89591],[-50.98889,-19.89557],[-50.99084,-19.89559],[-50.99238,-19.89635],[-50.99479,-19.89912],[-50.99569,-19.90042],[-50.9969,-19.90132],[-51.00182,-19.90283],[-50.99947,-19.90638],[-50.9995,-19.91172],[-50.99977,-19.9163],[-51.0002,-19.91812],[-51.0025,-19.92479],[-51.01029,-19.93525],[-51.01164,-19.93793],[-51.01392,-19.94448],[-51.01716,-19.95161],[-51.02003,-19.95631],[-51.02091,-19.95909],[-51.02115,-19.96403],[-51.02082,-19.96787],[-51.01866,-19.97363],[-51.01535,-19.98068],[-51.0085,-19.98974],[-51.00788,-19.99081],[-51.00549,-19.99606],[-51.00481,-19.99922],[-51.00533,-20.00331],[-51.00487,-20.01779],[-51.00604,-20.0253],[-51.01045,-20.03397],[-51.01686,-20.04159],[-51.01797,-20.04626],[-51.01789,-20.04839],[-51.01596,-20.0529],[-51.01375,-20.06112],[-51.00976,-20.07203],[-51.00533,-20.07923],[-51.00414,-20.08093],[-51.00047,-20.08538],[-50.99653,-20.07731],[-50.99423,-20.07409],[-50.99,-20.0694],[-50.98084,-20.05786],[-50.97605,-20.04766],[-50.97172,-20.04047],[-50.96913,-20.03645],[-50.96583,-20.03359],[-50.9619,-20.03193],[-50.96061,-20.032],[-50.95555,-20.0334],[-50.95318,-20.03388],[-50.94948,-20.0327],[-50.94705,-20.03125],[-50.94552,-20.02973],[-50.94083,-20.02296],[-50.93722,-20.01968],[-50.93366,-20.01493],[-50.93181,-20.01385],[-50.92746,-20.01276],[-50.92472,-20.01135],[-50.9119,-20.00308],[-50.91169,-20.00077],[-50.91085,-19.99745],[-50.90813,-19.99426],[-50.89883,-19.9905],[-50.8972,-19.99016],[-50.89229,-19.99021],[-50.88894,-19.99055],[-50.886,-19.99039],[-50.88446,-19.9903],[-50.88153,-19.99066],[-50.87618,-19.99082],[-50.87287,-19.9896],[-50.86797,-19.98664],[-50.86305,-19.98223],[-50.85469,-19.97199],[-50.85158,-19.96977],[-50.84597,-19.96806],[-50.84408,-19.96765],[-50.83655,-19.966],[-50.82561,-19.96118],[-50.81734,-19.95833],[-50.80464,-19.95028],[-50.796,-19.94292],[-50.79024,-19.93959],[-50.7908,-19.93784],[-50.7918,-19.93661],[-50.79313,-19.93576],[-50.79634,-19.93429],[-50.79644,-19.93242],[-50.79627,-19.93075],[-50.79574,-19.92843],[-50.7957,-19.927],[-50.79513,-19.92519],[-50.79424,-19.92394],[-50.79376,-19.92139],[-50.79409,-19.91897],[-50.79571,-19.91694],[-50.79664,-19.91546],[-50.79781,-19.91141],[-50.79837,-19.9082],[-50.79858,-19.90562],[-50.79927,-19.90361],[-50.80042,-19.90198],[-50.80302,-19.89741],[-50.80468,-19.89631],[-50.80585,-19.89473],[-50.80674,-19.88949],[-50.80675,-19.88689],[-50.80596,-19.88308],[-50.80485,-19.88031],[-50.8038,-19.87894],[-50.80052,-19.8756],[-50.79871,-19.87356],[-50.79874,-19.87297],[-50.80448,-19.8674],[-50.82678,-19.84561]]]},"properties":{"codigo":"311455017","name":"Fátima do Pontal","population":417,"households":249,"areaKm2":311.1168,"density":1.3}},{"type":"Feature","geometry":{"type":"Polygon","coordinates":[[[-51.02125,-19.65958],[-51.02213,-19.66063],[-51.02682,-19.67141],[-51.0319,-19.68111],[-51.03657,-19.68701],[-51.03818,-19.69177],[-51.03932,-19.70472],[-51.03958,-19.70542],[-51.0398,-19.71349],[-51.0385,-19.71953],[-51.03926,-19.72125],[-51.0414,-19.72379],[-51.04541,-19.7274],[-51.04594,-19.72905],[-51.04608,-19.73558],[-51.04543,-19.73756],[-51.04261,-19.74091],[-51.03485,-19.74669],[-51.03031,-19.75144],[-51.0279,-19.75658],[-51.02817,-19.75911],[-51.02914,-19.76127],[-51.03125,-19.76477],[-51.03658,-19.7707],[-51.03994,-19.77712],[-51.04008,-19.78225],[-51.03885,-19.78523],[-51.03727,-19.78784],[-51.0335,-19.79068],[-51.03272,-19.79126],[-51.0267,-19.7983],[-51.02363,-19.80395],[-51.02269,-19.8075],[-51.02219,-19.81539],[-51.02063,-19.82848],[-51.01897,-19.83297],[-51.0182,-19.83728],[-51.01979,-19.85198],[-51.02019,-19.85708],[-51.02028,-19.8648],[-51.01931,-19.87045],[-51.01311,-19.88293],[-51.01057,-19.88703],[-51.00888,-19.88881],[-51.00291,-19.90007],[-51.00182,-19.90283],[-50.9969,-19.90132],[-50.99569,-19.90042],[-50.99479,-19.89912],[-50.99238,-19.89635],[-50.99084,-19.89559],[-50.98889,-19.89557],[-50.98782,-19.89591],[-50.98495,-19.89733],[-50.98279,-19.89872],[-50.98078,-19.89829],[-50.97856,-19.89648],[-50.97397,-19.89227],[-50.97174,-19.89012],[-50.9675,-19.88528],[-50.96368,-19.88234],[-50.9603,-19.88129],[-50.95645,-19.88111],[-50.95521,-19.8807],[-50.95064,-19.87807],[-50.94624,-19.87675],[-50.94142,-19.87687],[-50.93987,-19.87733],[-50.93405,-19.87875],[-50.93024,-19.88042],[-50.92819,-19.88178],[-50.92301,-19.88373],[-50.92052,-19.88418],[-50.91793,-19.8853],[-50.91507,-19.88589],[-50.91369,-19.88667],[-50.91267,-19.88652],[-50.90443,-19.8872],[-50.90163,-19.88705],[-50.89972,-19.88627],[-50.89842,-19.88549],[-50.89669,-19.88404],[-50.89502,-19.88291],[-50.89242,-19.88037],[-50.8906,-19.87904],[-50.88853,-19.87879],[-50.88693,-19.87932],[-50.88496,-19.87965],[-50.88025,-19.87993],[-50.87735,-19.87949],[-50.87556,-19.87898],[-50.87112,-19.87815],[-50.86694,-19.87722],[-50.86379,-19.87618],[-50.86168,-19.87534],[-50.85898,-19.87498],[-50.85566,-19.87333],[-50.85416,-19.87199],[-50.84837,-19.8659],[-50.84645,-19.86485],[-50.84505,-19.86381],[-50.8431,-19.86193],[-50.83978,-19.85804],[-50.83814,-19.85583],[-50.83723,-19.85416],[-50.83513,-19.85191],[-50.82678,-19.84561],[-50.82446,-19.8418],[-50.82526,-19.83929],[-50.82491,-19.83739],[-50.82522,-19.83638],[-50.82475,-19.83421],[-50.82349,-19.83172],[-50.82306,-19.82933],[-50.82212,-19.82528],[-50.82225,-19.82356],[-50.82049,-19.82155],[-50.81901,-19.81671],[-50.82013,-19.81386],[-50.81959,-19.81252],[-50.82025,-19.80835],[-50.82166,-19.80675],[-50.82208,-19.8058],[-50.82118,-19.80357],[-50.82147,-19.80269],[-50.82065,-19.80101],[-50.81911,-19.79904],[-50.8189,-19.79724],[-50.81711,-19.79372],[-50.8163,-19.79302],[-50.81434,-19.79245],[-50.81257,-19.79112],[-50.80882,-19.78749],[-50.81139,-19.78535],[-50.81196,-19.78436],[-50.81262,-19.78186],[-50.81264,-19.77972],[-50.81235,-19.77673],[-50.8124,-19.77569],[-50.81319,-19.77327],[-50.81328,-19.77124],[-50.81233,-19.76932],[-50.81295,-19.76735],[-50.8133,-19.76468],[-50.81321,-19.75895],[-50.81308,-19.75686],[-50.81266,-19.75467],[-50.81093,-19.75141],[-50.80959,-19.74972],[-50.80732,-19.74582],[-50.8064,-19.74332],[-50.80631,-19.7422],[-50.80672,-19.74062],[-50.80778,-19.73838],[-50.80762,-19.73695],[-50.80684,-19.73554],[-50.80405,-19.7327],[-50.80354,-19.73132],[-50.80333,-19.72863],[-50.80379,-19.72575],[-50.8032,-19.72348],[-50.80133,-19.72187],[-50.80048,-19.72066],[-50.79998,-19.71795],[-50.79815,-19.71614],[-50.79723,-19.71452],[-50.79536,-19.7121],[-50.79479,-19.70942],[-50.79281,-19.70546],[-50.79104,-19.70413],[-50.78712,-19.70386],[-50.78547,-19.70266],[-50.78441,-19.70153],[-50.78303,-19.69892],[-50.78214,-19.69652],[-50.78224,-19.69488],[-50.78428,-19.69313],[-50.78614,-19.69105],[-50.78692,-19.68945],[-50.78807,-19.68854],[-50.79262,-19.68597],[-50.79364,-19.68512],[-50.79448,-19.68395],[-50.80273,-19.68438],[-50.82346,-19.68561],[-50.83183,-19.68532],[-50.83329,-19.68535],[-50.8359,-19.68587],[-50.85584,-19.69139],[-50.85771,-19.69173],[-50.88007,-19.69252],[-50.8905,-19.69462],[-50.89273,-19.6949],[-50.89492,-19.69477],[-50.90707,-19.69298],[-50.90949,-19.69299],[-50.91553,-19.69435],[-50.9244,-19.69621],[-50.93384,-19.69844],[-50.93732,-19.69915],[-50.93942,-19.69928],[-50.94193,-19.69868],[-50.94483,-19.69711],[-50.95731,-19.68904],[-50.99205,-19.66645],[-50.99424,-19.66533],[-50.99636,-19.6646],[-51.02125,-19.65958]]]},"properties":{"codigo":"311455020","name":"São Sebastião do Pontal","population":2177,"households":1194,"areaKm2":495.4924,"density":4.4}}]}