{"type":"FeatureCollection","features":[{"type":"Feature","geometry":{"type":"Polygon","coordinates":[[[-48.36841,-19.92077],[-48.36831,-19.92103],[-48.36506,-19.92039],[-48.36468,-19.91903],[-48.36792,-19.92056],[-48.36841,-19.92077]]]},"properties":{"codigo":"3117306006","name":"Conjunto Habitacional João Stacciarini","population":310,"households":124,"areaKm2":0.0305,"density":10166.9}},{"type":"Feature","geometry":{"type":"Polygon","coordinates":[[[-48.38289,-19.92509],[-48.38591,-19.92145],[-48.38801,-19.91902],[-48.38856,-19.91926],[-48.38939,-19.91921],[-48.39086,-19.91914],[-48.3912,-19.91933],[-48.39168,-19.92008],[-48.39003,-19.9221],[-48.39246,-19.92428],[-48.39113,-19.92569],[-48.3887,-19.92719],[-48.38733,-19.92563],[-48.38649,-19.92452],[-48.38606,-19.92431],[-48.38453,-19.92627],[-48.38423,-19.92642],[-48.38372,-19.92552],[-48.38289,-19.92509]]]},"properties":{"codigo":"3117306001","name":"Jardim Acapulco","population":1220,"households":455,"areaKm2":0.4744,"density":2571.8}},{"type":"Feature","geometry":{"type":"Polygon","coordinates":[[[-48.37032,-19.9241],[-48.36996,-19.92302],[-48.36963,-19.92136],[-48.37103,-19.92154],[-48.37344,-19.92269],[-48.37313,-19.9229],[-48.37032,-19.9241]]]},"properties":{"codigo":"3117306013","name":"Vila Santa Isabel","population":501,"households":241,"areaKm2":0.0658,"density":7615.6}},{"type":"Feature","geometry":{"type":"Polygon","coordinates":[[[-48.38423,-19.92642],[-48.38474,-19.92664],[-48.3855,-19.9279],[-48.3828,-19.92913],[-48.38131,-19.92728],[-48.3826,-19.92495],[-48.38289,-19.92509],[-48.38372,-19.92552],[-48.38423,-19.92642]]]},"properties":{"codigo":"3117306002","name":"Jardim Alvorada","population":507,"households":182,"areaKm2":0.1109,"density":4569.9}},{"type":"Feature","geometry":{"type":"Polygon","coordinates":[[[-48.37746,-19.9147],[-48.37775,-19.91525],[-48.37721,-19.9166],[-48.37478,-19.92122],[-48.37091,-19.91943],[-48.37226,-19.91688],[-48.37288,-19.9171],[-48.37318,-19.91488],[-48.37746,-19.9147]]]},"properties":{"codigo":"3117306012","name":"Vila Santo Amaro","population":1981,"households":713,"areaKm2":0.2992,"density":6622.1}},{"type":"Feature","geometry":{"type":"Polygon","coordinates":[[[-48.38842,-19.91704],[-48.38477,-19.91538],[-48.38383,-19.91505],[-48.38365,-19.91442],[-48.38384,-19.91365],[-48.3837,-19.91304],[-48.38293,-19.91204],[-48.38291,-19.91157],[-48.38419,-19.91178],[-48.38461,-19.91169],[-48.38508,-19.9108],[-48.3857,-19.90917],[-48.38657,-19.9081],[-48.38769,-19.90782],[-48.38889,-19.90679],[-48.39005,-19.90662],[-48.39117,-19.90802],[-48.39183,-19.90928],[-48.39111,-19.90957],[-48.39096,-19.91117],[-48.39153,-19.91126],[-48.39096,-19.91334],[-48.38983,-19.91311],[-48.38842,-19.91704]]]},"properties":{"codigo":"3117306010","name":"Aziz Mansur","population":1736,"households":708,"areaKm2":0.6064,"density":2862.7}},{"type":"Feature","geometry":{"type":"Polygon","coordinates":[[[-48.3784,-19.93054],[-48.38045,-19.92675],[-48.38111,-19.9271],[-48.37903,-19.93085],[-48.3784,-19.93054]]]},"properties":{"codigo":"3117306008","name":"Residencial Jardins","population":140,"households":46,"areaKm2":0.0355,"density":3949.1}},{"type":"Feature","geometry":{"type":"Polygon","coordinates":[[[-48.37119,-19.9268],[-48.37018,-19.92732],[-48.36997,-19.92693],[-48.36737,-19.92896],[-48.36613,-19.92722],[-48.36601,-19.92683],[-48.36646,-19.92642],[-48.37017,-19.92481],[-48.37064,-19.92587],[-48.37119,-19.9268]]]},"properties":{"codigo":"3117306015","name":"Jardim São Francisco de Assis","population":1241,"households":440,"areaKm2":0.1196,"density":10374.3}},{"type":"Feature","geometry":{"type":"Polygon","coordinates":[[[-48.37091,-19.91943],[-48.36898,-19.91849],[-48.3698,-19.9169],[-48.37157,-19.91697],[-48.37226,-19.91688],[-48.37091,-19.91943]]]},"properties":{"codigo":"3117306005","name":"Conjunto Habitacional Antonio N. Miziara","population":489,"households":179,"areaKm2":0.057,"density":8583.4}},{"type":"Feature","geometry":{"type":"Polygon","coordinates":[[[-48.3784,-19.93054],[-48.37706,-19.93296],[-48.37486,-19.93238],[-48.37358,-19.93164],[-48.37467,-19.93046],[-48.37503,-19.92895],[-48.37492,-19.92843],[-48.37409,-19.92802],[-48.376,-19.92449],[-48.37673,-19.92496],[-48.38045,-19.92675],[-48.3784,-19.93054]]]},"properties":{"codigo":"3117306011","name":"D. Maruca","population":1567,"households":598,"areaKm2":0.3671,"density":4268.6}},{"type":"Feature","geometry":{"type":"Polygon","coordinates":[[[-48.36601,-19.92683],[-48.36386,-19.92774],[-48.36357,-19.92718],[-48.36227,-19.92771],[-48.36205,-19.92702],[-48.36262,-19.92679],[-48.36505,-19.92395],[-48.36894,-19.92232],[-48.36989,-19.92428],[-48.3697,-19.92437],[-48.36572,-19.92611],[-48.36601,-19.92683]]]},"properties":{"codigo":"3117306016","name":"Portal D'Leste","population":67,"households":22,"areaKm2":0.192,"density":348.9}},{"type":"Feature","geometry":{"type":"Polygon","coordinates":[[[-48.37344,-19.92269],[-48.3736,-19.9226],[-48.37394,-19.92309],[-48.376,-19.92449],[-48.37409,-19.92802],[-48.37332,-19.9277],[-48.37269,-19.92854],[-48.37215,-19.92872],[-48.37119,-19.9268],[-48.37064,-19.92587],[-48.37017,-19.92481],[-48.3697,-19.92437],[-48.36989,-19.92428],[-48.37032,-19.9241],[-48.37313,-19.9229],[-48.37344,-19.92269]]]},"properties":{"codigo":"3117306004","name":"José Borges de Sene","population":1441,"households":518,"areaKm2":0.2426,"density":5939.8}},{"type":"Feature","geometry":{"type":"Polygon","coordinates":[[[-48.36792,-19.92056],[-48.36898,-19.91849],[-48.37091,-19.91943],[-48.37005,-19.92106],[-48.37103,-19.92154],[-48.36963,-19.92136],[-48.36841,-19.92077],[-48.36792,-19.92056]]]},"properties":{"codigo":"3117306009","name":"Conjunto Habitacional Lidio Antunes Oliveira","population":427,"households":152,"areaKm2":0.0587,"density":7273.5}},{"type":"Feature","geometry":{"type":"Polygon","coordinates":[[[-48.36601,-19.92683],[-48.36572,-19.92611],[-48.3697,-19.92437],[-48.37017,-19.92481],[-48.36646,-19.92642],[-48.36601,-19.92683]]]},"properties":{"codigo":"3117306017","name":"Jardim Aeroporto","population":30,"households":24,"areaKm2":0.0316,"density":949}},{"type":"Feature","geometry":{"type":"Polygon","coordinates":[[[-48.37103,-19.92154],[-48.37005,-19.92106],[-48.37091,-19.91943],[-48.37478,-19.92122],[-48.37418,-19.92232],[-48.3736,-19.9226],[-48.37344,-19.92269],[-48.37103,-19.92154]]]},"properties":{"codigo":"3117306007","name":"Conjunto Habitacional Felipe Mansur","population":798,"households":308,"areaKm2":0.0898,"density":8884.4}},{"type":"Feature","geometry":{"type":"Polygon","coordinates":[[[-48.3855,-19.9279],[-48.38798,-19.93233],[-48.38553,-19.93354],[-48.38406,-19.93088],[-48.3828,-19.92913],[-48.3855,-19.9279]]]},"properties":{"codigo":"3117306003","name":"Jardim Alto Sol","population":655,"households":216,"areaKm2":0.1649,"density":3971.1}},{"type":"Feature","geometry":{"type":"Polygon","coordinates":[[[-48.38289,-19.92509],[-48.3826,-19.92495],[-48.38131,-19.92728],[-48.38111,-19.9271],[-48.38045,-19.92675],[-48.37673,-19.92496],[-48.376,-19.92449],[-48.37394,-19.92309],[-48.3736,-19.9226],[-48.37418,-19.92232],[-48.37478,-19.92122],[-48.37721,-19.9166],[-48.37775,-19.91525],[-48.37746,-19.9147],[-48.37866,-19.91515],[-48.37934,-19.9143],[-48.38008,-19.91424],[-48.38126,-19.91473],[-48.38342,-19.91617],[-48.38383,-19.91505],[-48.38477,-19.91538],[-48.38842,-19.91704],[-48.39012,-19.91777],[-48.38939,-19.91921],[-48.38856,-19.91926],[-48.38801,-19.91902],[-48.38591,-19.92145],[-48.38289,-19.92509]]]},"properties":{"codigo":"3117306014","name":"Centro","population":6130,"households":2494,"areaKm2":1.3102,"density":4678.5}}]}