{"type":"FeatureCollection","features":[{"type":"Feature","geometry":{"type":"Polygon","coordinates":[[[-42.04963,-18.14582],[-42.0486,-18.14662],[-42.04796,-18.14841],[-42.04687,-18.14884],[-42.04281,-18.14906],[-42.04124,-18.14884],[-42.04048,-18.1483],[-42.03979,-18.14439],[-42.03913,-18.14284],[-42.03594,-18.13955],[-42.03498,-18.13911],[-42.03263,-18.1387],[-42.03182,-18.13729],[-42.03089,-18.13652],[-42.02793,-18.13661],[-42.0255,-18.13643],[-42.02373,-18.13598],[-42.02265,-18.13544],[-42.021,-18.13391],[-42.02027,-18.1325],[-42.01863,-18.13061],[-42.01024,-18.12734],[-42.00904,-18.12731],[-42.00717,-18.12635],[-42.00342,-18.12602],[-42.0022,-18.12527],[-41.99959,-18.12316],[-41.99954,-18.12175],[-41.99892,-18.12101],[-41.99822,-18.11902],[-41.99737,-18.11469],[-41.99749,-18.11214],[-41.99659,-18.11055],[-41.99381,-18.10935],[-41.99289,-18.10939],[-41.99003,-18.11022],[-41.98753,-18.11261],[-41.98301,-18.11241],[-41.9811,-18.11348],[-41.97872,-18.11608],[-41.97756,-18.11692],[-41.9757,-18.11764],[-41.97479,-18.1174],[-41.97119,-18.11583],[-41.97,-18.11495],[-41.96912,-18.11381],[-41.9677,-18.11084],[-41.96661,-18.10982],[-41.96515,-18.10923],[-41.9631,-18.10933],[-41.95868,-18.1092],[-41.95755,-18.10935],[-41.95653,-18.11001],[-41.95526,-18.11413],[-41.95404,-18.11642],[-41.95358,-18.11948],[-41.95263,-18.12041],[-41.9509,-18.11842],[-41.94958,-18.11747],[-41.94789,-18.1158],[-41.94647,-18.11597],[-41.94526,-18.11711],[-41.94308,-18.11872],[-41.93762,-18.11847],[-41.93396,-18.11922],[-41.9322,-18.11918],[-41.92865,-18.11862],[-41.92709,-18.11861],[-41.92494,-18.11903],[-41.92225,-18.11856],[-41.92099,-18.11763],[-41.91917,-18.11684],[-41.91823,-18.11727],[-41.91623,-18.11764],[-41.91484,-18.11691],[-41.91433,-18.11413],[-41.91469,-18.11222],[-41.91453,-18.10877],[-41.9138,-18.10704],[-41.91253,-18.10629],[-41.90934,-18.10606],[-41.90723,-18.10487],[-41.90674,-18.10397],[-41.90656,-18.10249],[-41.9059,-18.10062],[-41.90511,-18.10018],[-41.90172,-18.10017],[-41.90046,-18.09867],[-41.89831,-18.09729],[-41.89547,-18.09517],[-41.8942,-18.09473],[-41.8922,-18.08976],[-41.89058,-18.08839],[-41.88965,-18.08799],[-41.88903,-18.08721],[-41.88759,-18.08662],[-41.88674,-18.08581],[-41.88525,-18.08287],[-41.88512,-18.07894],[-41.88397,-18.07649],[-41.88332,-18.07573],[-41.88267,-18.07386],[-41.88309,-18.07232],[-41.88457,-18.07095],[-41.88546,-18.06924],[-41.88532,-18.06818],[-41.88411,-18.06672],[-41.88205,-18.06599],[-41.88138,-18.06531],[-41.87784,-18.06314],[-41.87169,-18.05798],[-41.87079,-18.05676],[-41.87055,-18.05429],[-41.86945,-18.05159],[-41.86661,-18.04945],[-41.86479,-18.04612],[-41.86345,-18.0459],[-41.86209,-18.04663],[-41.86093,-18.04779],[-41.86048,-18.04866],[-41.8586,-18.04982],[-41.85639,-18.04989],[-41.855,-18.0493],[-41.85297,-18.04747],[-41.85187,-18.04752],[-41.8496,-18.04888],[-41.84911,-18.04911],[-41.84611,-18.04883],[-41.84135,-18.04596],[-41.8394,-18.04412],[-41.83785,-18.04307],[-41.83681,-18.04309],[-41.83545,-18.04234],[-41.83476,-18.04146],[-41.83398,-18.03796],[-41.83282,-18.03629],[-41.83246,-18.03327],[-41.83277,-18.029],[-41.83327,-18.02716],[-41.83457,-18.02437],[-41.83425,-18.02255],[-41.83347,-18.02194],[-41.83157,-18.02163],[-41.82987,-18.02108],[-41.82811,-18.01939],[-41.8266,-18.0191],[-41.82565,-18.01955],[-41.82472,-18.0194],[-41.824,-18.01875],[-41.82319,-18.01647],[-41.82285,-18.01439],[-41.82195,-18.01319],[-41.82051,-18.01276],[-41.81855,-18.01116],[-41.81777,-18.00989],[-41.81781,-18.00844],[-41.81843,-18.00706],[-41.8199,-18.00584],[-41.82059,-18.00446],[-41.82027,-18.00262],[-41.81826,-18.00144],[-41.81836,-18.00034],[-41.819,-17.99959],[-41.81982,-17.99779],[-41.82101,-17.99675],[-41.82327,-17.99543],[-41.82425,-17.99407],[-41.82465,-17.99203],[-41.82408,-17.99035],[-41.82338,-17.98917],[-41.82352,-17.98686],[-41.82419,-17.98392],[-41.82708,-17.98255],[-41.83221,-17.98105],[-41.83474,-17.981],[-41.83906,-17.9812],[-41.84294,-17.98206],[-41.84526,-17.983],[-41.8467,-17.98391],[-41.84836,-17.98457],[-41.855,-17.98869],[-41.85675,-17.98928],[-41.85939,-17.9906],[-41.86117,-17.99123],[-41.86446,-17.9916],[-41.86721,-17.9907],[-41.86919,-17.98971],[-41.87103,-17.98919],[-41.87816,-17.98958],[-41.88126,-17.99099],[-41.88285,-17.99289],[-41.88408,-17.99388],[-41.8858,-17.99622],[-41.88783,-17.99823],[-41.88872,-17.99888],[-41.89174,-18.00012],[-41.89471,-18.00051],[-41.8977,-18.00112],[-41.89938,-18.0021],[-41.90292,-18.00314],[-41.90566,-18.00319],[-41.90896,-18.00218],[-41.91031,-18.00201],[-41.91175,-18.0023],[-41.91256,-18.00366],[-41.91368,-18.00661],[-41.91483,-18.01159],[-41.91556,-18.01335],[-41.91794,-18.01661],[-41.9213,-18.01871],[-41.92365,-18.01988],[-41.92571,-18.02056],[-41.92724,-18.02081],[-41.92948,-18.02085],[-41.93279,-18.02168],[-41.9368,-18.02179],[-41.94012,-18.02375],[-41.94155,-18.02594],[-41.94226,-18.02669],[-41.94312,-18.02688],[-41.94438,-18.02645],[-41.94684,-18.02498],[-41.94885,-18.02318],[-41.94995,-18.02123],[-41.95094,-18.01823],[-41.9516,-18.01522],[-41.95588,-18.00694],[-41.9586,-18.00374],[-41.96013,-18.00224],[-41.96092,-17.99954],[-41.96223,-17.99782],[-41.96319,-17.99581],[-41.96349,-17.99417],[-41.96292,-17.99067],[-41.96333,-17.98875],[-41.96525,-17.98824],[-41.96594,-17.98615],[-41.9655,-17.98378],[-41.9646,-17.98151],[-41.96199,-17.97578],[-41.96139,-17.97215],[-41.96145,-17.9706],[-41.96292,-17.96858],[-41.96392,-17.96793],[-41.96607,-17.96712],[-41.9687,-17.96549],[-41.97342,-17.96312],[-41.97732,-17.96183],[-41.97825,-17.96139],[-41.97949,-17.95996],[-41.97968,-17.95893],[-41.97894,-17.95701],[-41.97809,-17.95586],[-41.97712,-17.95382],[-41.97694,-17.95154],[-41.97711,-17.95048],[-41.97814,-17.9493],[-41.98061,-17.94762],[-41.98261,-17.94672],[-41.98396,-17.94584],[-41.98488,-17.9448],[-41.98501,-17.94168],[-41.98573,-17.93465],[-41.98697,-17.92942],[-41.98803,-17.92619],[-41.98882,-17.92426],[-41.9884,-17.92212],[-41.98911,-17.91961],[-41.99052,-17.91704],[-41.99198,-17.91548],[-41.99469,-17.91011],[-41.99524,-17.90836],[-41.99638,-17.90647],[-41.99686,-17.90472],[-41.99922,-17.90196],[-42.00067,-17.89772],[-42.00118,-17.89692],[-42.00248,-17.89582],[-42.00595,-17.8951],[-42.00768,-17.89389],[-42.01053,-17.89021],[-42.01144,-17.88838],[-42.01277,-17.88266],[-42.01383,-17.87926],[-42.01516,-17.87647],[-42.01631,-17.87352],[-42.01735,-17.87215],[-42.01959,-17.87111],[-42.02023,-17.8705],[-42.0226,-17.87138],[-42.02486,-17.87163],[-42.02874,-17.87297],[-42.03224,-17.87468],[-42.03283,-17.87536],[-42.03431,-17.87841],[-42.03743,-17.88256],[-42.03881,-17.88558],[-42.0403,-17.88958],[-42.0412,-17.89145],[-42.04297,-17.89446],[-42.04451,-17.89652],[-42.04444,-17.89979],[-42.04677,-17.90252],[-42.04923,-17.90388],[-42.05268,-17.90609],[-42.0544,-17.90795],[-42.0576,-17.91041],[-42.05946,-17.91155],[-42.05982,-17.91299],[-42.05941,-17.91414],[-42.05652,-17.91743],[-42.05557,-17.91873],[-42.0552,-17.92024],[-42.05544,-17.92177],[-42.0561,-17.92342],[-42.058,-17.92734],[-42.0579,-17.93061],[-42.05733,-17.93263],[-42.05607,-17.9351],[-42.05569,-17.93856],[-42.05599,-17.94004],[-42.0577,-17.9427],[-42.06027,-17.94416],[-42.06209,-17.94475],[-42.06273,-17.94645],[-42.0615,-17.94797],[-42.06013,-17.94854],[-42.05647,-17.94857],[-42.05458,-17.94781],[-42.05316,-17.94776],[-42.05118,-17.94897],[-42.05082,-17.94984],[-42.05099,-17.95227],[-42.05288,-17.9539],[-42.05445,-17.95404],[-42.0552,-17.95477],[-42.05643,-17.95713],[-42.05888,-17.95778],[-42.06042,-17.95896],[-42.06282,-17.95972],[-42.06489,-17.96087],[-42.06608,-17.96186],[-42.06848,-17.96214],[-42.07076,-17.96387],[-42.0733,-17.96468],[-42.07502,-17.96649],[-42.07612,-17.96821],[-42.07769,-17.9694],[-42.0791,-17.96998],[-42.0811,-17.96988],[-42.08247,-17.97051],[-42.08352,-17.97182],[-42.08442,-17.97401],[-42.08525,-17.97444],[-42.08727,-17.97487],[-42.08929,-17.97627],[-42.09033,-17.97622],[-42.09166,-17.9771],[-42.09256,-17.9782],[-42.09486,-17.97896],[-42.09697,-17.98043],[-42.09908,-17.98098],[-42.10306,-17.98124],[-42.10521,-17.98232],[-42.10781,-17.98493],[-42.10998,-17.98689],[-42.112,-17.98748],[-42.11348,-17.98818],[-42.11518,-17.98855],[-42.119,-17.98826],[-42.12317,-17.98843],[-42.12677,-17.9896],[-42.12827,-17.99046],[-42.13071,-17.99148],[-42.13247,-17.9925],[-42.13296,-17.9933],[-42.13279,-17.99468],[-42.13365,-17.99525],[-42.13463,-17.9943],[-42.13567,-17.9942],[-42.13813,-17.99316],[-42.13947,-17.99365],[-42.14154,-17.99352],[-42.1433,-17.99372],[-42.14392,-17.99431],[-42.14319,-17.99548],[-42.14389,-17.99699],[-42.14379,-17.99837],[-42.14298,-17.99882],[-42.14274,-18.00004],[-42.14129,-17.99992],[-42.14065,-18.00055],[-42.13973,-18.0006],[-42.13825,-18.00184],[-42.13914,-18.00228],[-42.14003,-18.00477],[-42.13925,-18.00603],[-42.1401,-18.00749],[-42.14147,-18.00787],[-42.14226,-18.00863],[-42.14403,-18.00952],[-42.14532,-18.00778],[-42.14617,-18.00958],[-42.14718,-18.0095],[-42.14748,-18.01035],[-42.14688,-18.01078],[-42.14684,-18.01262],[-42.14778,-18.01272],[-42.14842,-18.01348],[-42.1485,-18.01563],[-42.14821,-18.01633],[-42.14964,-18.01676],[-42.1503,-18.01844],[-42.14947,-18.02],[-42.14828,-18.01923],[-42.1475,-18.02047],[-42.14672,-18.02106],[-42.14734,-18.02224],[-42.14768,-18.02438],[-42.14729,-18.02511],[-42.1461,-18.02437],[-42.14623,-18.02301],[-42.14382,-18.02375],[-42.1439,-18.02522],[-42.14294,-18.02795],[-42.14208,-18.02829],[-42.14059,-18.02773],[-42.1396,-18.02798],[-42.13823,-18.02769],[-42.1368,-18.0292],[-42.13644,-18.03004],[-42.13481,-18.02946],[-42.13357,-18.03051],[-42.13337,-18.03138],[-42.13374,-18.03315],[-42.13309,-18.03377],[-42.13215,-18.03367],[-42.13096,-18.03292],[-42.1309,-18.03396],[-42.13137,-18.03479],[-42.13231,-18.03514],[-42.12924,-18.03703],[-42.13026,-18.03828],[-42.12697,-18.03818],[-42.12799,-18.03964],[-42.12664,-18.04018],[-42.12529,-18.04024],[-42.12608,-18.04142],[-42.12444,-18.04226],[-42.12348,-18.04441],[-42.12137,-18.04382],[-42.12014,-18.04432],[-42.1191,-18.04532],[-42.11856,-18.04661],[-42.11767,-18.04681],[-42.11681,-18.04625],[-42.11588,-18.04753],[-42.11642,-18.04965],[-42.11497,-18.05065],[-42.11443,-18.05186],[-42.11545,-18.05346],[-42.1174,-18.0535],[-42.11775,-18.0538],[-42.11717,-18.05517],[-42.11474,-18.05541],[-42.11439,-18.05623],[-42.11521,-18.05663],[-42.11362,-18.06002],[-42.11289,-18.06064],[-42.11193,-18.06074],[-42.11014,-18.06167],[-42.10946,-18.06236],[-42.10797,-18.06235],[-42.10664,-18.06307],[-42.10742,-18.0646],[-42.1091,-18.06564],[-42.10875,-18.06645],[-42.10741,-18.06667],[-42.10645,-18.06852],[-42.10551,-18.06874],[-42.10334,-18.0725],[-42.10434,-18.07363],[-42.10351,-18.07531],[-42.10202,-18.07495],[-42.1016,-18.07614],[-42.10025,-18.07666],[-42.0995,-18.0773],[-42.09796,-18.07726],[-42.09737,-18.07602],[-42.09672,-18.07707],[-42.09378,-18.07771],[-42.09396,-18.07861],[-42.09616,-18.08035],[-42.09468,-18.082],[-42.09333,-18.08201],[-42.09421,-18.08344],[-42.09329,-18.08371],[-42.09047,-18.08539],[-42.08905,-18.08531],[-42.08766,-18.08726],[-42.08592,-18.08609],[-42.08471,-18.08629],[-42.08431,-18.08498],[-42.08257,-18.0842],[-42.08269,-18.08329],[-42.08121,-18.08258],[-42.08077,-18.08343],[-42.07949,-18.08395],[-42.07906,-18.08314],[-42.07765,-18.08295],[-42.07627,-18.08416],[-42.07511,-18.08382],[-42.07444,-18.08444],[-42.07539,-18.08576],[-42.07398,-18.08694],[-42.07226,-18.08631],[-42.07149,-18.08853],[-42.07235,-18.08905],[-42.07208,-18.08992],[-42.07068,-18.09027],[-42.07007,-18.09133],[-42.06862,-18.09256],[-42.06844,-18.09345],[-42.06736,-18.09356],[-42.06673,-18.09431],[-42.06607,-18.09599],[-42.06659,-18.09673],[-42.06416,-18.09926],[-42.062,-18.102],[-42.06143,-18.1034],[-42.06047,-18.10374],[-42.06055,-18.1056],[-42.05969,-18.1052],[-42.0591,-18.10584],[-42.05919,-18.1072],[-42.06012,-18.10744],[-42.06048,-18.10825],[-42.05984,-18.10964],[-42.05997,-18.11151],[-42.05928,-18.11281],[-42.0593,-18.11421],[-42.06018,-18.1147],[-42.05981,-18.11606],[-42.06009,-18.11689],[-42.05871,-18.11741],[-42.0582,-18.11871],[-42.05899,-18.11904],[-42.05986,-18.12073],[-42.05928,-18.12208],[-42.05838,-18.12253],[-42.05687,-18.12215],[-42.05585,-18.1235],[-42.0567,-18.12525],[-42.05818,-18.12637],[-42.0591,-18.12603],[-42.06029,-18.12705],[-42.05971,-18.12788],[-42.05945,-18.12981],[-42.05857,-18.13083],[-42.05941,-18.13206],[-42.05911,-18.13295],[-42.058,-18.13331],[-42.05683,-18.13236],[-42.05562,-18.13316],[-42.05619,-18.13445],[-42.05514,-18.13577],[-42.05432,-18.13637],[-42.05397,-18.13783],[-42.05287,-18.13948],[-42.05097,-18.14013],[-42.05072,-18.14068],[-42.04949,-18.14143],[-42.04947,-18.14325],[-42.04866,-18.14501],[-42.04963,-18.14582]]]},"properties":{"codigo":"312675205","name":"Franciscópolis","population":3897,"households":1807,"areaKm2":465.1173,"density":8.4}},{"type":"Feature","geometry":{"type":"Polygon","coordinates":[[[-41.82419,-17.98392],[-41.82476,-17.98235],[-41.82487,-17.98089],[-41.82438,-17.97894],[-41.82148,-17.9784],[-41.82046,-17.97847],[-41.8179,-17.9762],[-41.8166,-17.97627],[-41.81541,-17.97586],[-41.81437,-17.97602],[-41.81033,-17.97533],[-41.809,-17.97446],[-41.80756,-17.97454],[-41.80642,-17.97357],[-41.80521,-17.97105],[-41.80459,-17.97035],[-41.80344,-17.97003],[-41.80209,-17.96812],[-41.80208,-17.96671],[-41.8024,-17.96479],[-41.80321,-17.9642],[-41.80494,-17.96388],[-41.80603,-17.96238],[-41.80687,-17.96187],[-41.8084,-17.96166],[-41.80921,-17.96101],[-41.80914,-17.96016],[-41.80605,-17.95813],[-41.80545,-17.95618],[-41.80488,-17.95545],[-41.80219,-17.9529],[-41.80208,-17.95064],[-41.80086,-17.94901],[-41.80008,-17.94847],[-41.79792,-17.94891],[-41.79572,-17.94894],[-41.79349,-17.94834],[-41.79255,-17.94755],[-41.79264,-17.9463],[-41.79323,-17.94488],[-41.79397,-17.9442],[-41.79734,-17.94214],[-41.79848,-17.94119],[-41.79926,-17.93959],[-41.80019,-17.93914],[-41.80203,-17.93767],[-41.80251,-17.93649],[-41.80314,-17.93446],[-41.80338,-17.93157],[-41.80376,-17.93006],[-41.80491,-17.92895],[-41.80599,-17.92867],[-41.80856,-17.92924],[-41.80942,-17.92979],[-41.81066,-17.93138],[-41.81197,-17.93465],[-41.81195,-17.93662],[-41.81332,-17.93855],[-41.81654,-17.93901],[-41.81774,-17.9388],[-41.81843,-17.93818],[-41.81972,-17.93589],[-41.81986,-17.93471],[-41.82088,-17.93293],[-41.82269,-17.93188],[-41.82523,-17.93242],[-41.82844,-17.93233],[-41.82969,-17.93211],[-41.83214,-17.93077],[-41.83319,-17.93116],[-41.83359,-17.93203],[-41.83449,-17.93242],[-41.8384,-17.93236],[-41.84006,-17.93221],[-41.84099,-17.93078],[-41.83987,-17.92745],[-41.83992,-17.9245],[-41.84076,-17.92247],[-41.84177,-17.92129],[-41.84236,-17.91969],[-41.84274,-17.91737],[-41.84357,-17.91573],[-41.84567,-17.91402],[-41.84666,-17.91209],[-41.84836,-17.91043],[-41.85003,-17.90998],[-41.85148,-17.90886],[-41.85154,-17.90727],[-41.85068,-17.90588],[-41.85068,-17.90398],[-41.85641,-17.90155],[-41.85993,-17.90135],[-41.8635,-17.89943],[-41.86593,-17.89838],[-41.86831,-17.89699],[-41.87053,-17.89606],[-41.87243,-17.895],[-41.8761,-17.89404],[-41.8769,-17.8934],[-41.87865,-17.89066],[-41.87781,-17.88897],[-41.87809,-17.88767],[-41.88036,-17.88383],[-41.8805,-17.88291],[-41.88018,-17.8813],[-41.87786,-17.87842],[-41.87511,-17.87647],[-41.87395,-17.87511],[-41.87297,-17.8734],[-41.87301,-17.87042],[-41.87233,-17.8691],[-41.872,-17.86744],[-41.87276,-17.86616],[-41.87271,-17.86392],[-41.87166,-17.86149],[-41.87165,-17.86009],[-41.87313,-17.85862],[-41.87484,-17.85653],[-41.87547,-17.85547],[-41.87761,-17.84843],[-41.87956,-17.84836],[-41.88123,-17.84937],[-41.88231,-17.84936],[-41.88417,-17.84858],[-41.88569,-17.84871],[-41.88801,-17.84993],[-41.88864,-17.85192],[-41.8896,-17.85363],[-41.89112,-17.85586],[-41.89303,-17.85801],[-41.89514,-17.85953],[-41.89565,-17.86042],[-41.89621,-17.86265],[-41.89704,-17.86386],[-41.89859,-17.86433],[-41.89928,-17.86498],[-41.89997,-17.86672],[-41.90153,-17.86708],[-41.90395,-17.86661],[-41.90638,-17.86646],[-41.90749,-17.86558],[-41.90776,-17.86461],[-41.90737,-17.86046],[-41.90784,-17.85795],[-41.90912,-17.85638],[-41.91048,-17.85554],[-41.91146,-17.85547],[-41.91309,-17.85585],[-41.9148,-17.8569],[-41.91598,-17.85671],[-41.91683,-17.85609],[-41.91731,-17.85504],[-41.9176,-17.85302],[-41.91974,-17.85284],[-41.92189,-17.85313],[-41.92727,-17.85516],[-41.93174,-17.85757],[-41.93483,-17.85859],[-41.9372,-17.85895],[-41.93892,-17.85944],[-41.94112,-17.85939],[-41.94394,-17.85809],[-41.94496,-17.85984],[-41.94658,-17.86084],[-41.94774,-17.86116],[-41.95085,-17.86376],[-41.95258,-17.86375],[-41.95407,-17.86242],[-41.95579,-17.85982],[-41.95636,-17.85856],[-41.9572,-17.85764],[-41.95905,-17.8563],[-41.96034,-17.856],[-41.96271,-17.85597],[-41.96463,-17.85689],[-41.96602,-17.85848],[-41.96758,-17.8589],[-41.96987,-17.85885],[-41.97419,-17.86032],[-41.97793,-17.86049],[-41.97898,-17.86083],[-41.98038,-17.86175],[-41.9818,-17.86458],[-41.98288,-17.86525],[-41.98399,-17.86531],[-41.98641,-17.8659],[-41.98817,-17.8678],[-41.98932,-17.86842],[-41.99361,-17.86839],[-41.99519,-17.8687],[-41.9976,-17.868],[-41.99967,-17.8659],[-42.00167,-17.8658],[-42.00305,-17.86465],[-42.00453,-17.86085],[-42.00464,-17.85891],[-42.00659,-17.85426],[-42.00827,-17.85256],[-42.0097,-17.85229],[-42.01129,-17.85235],[-42.01384,-17.85463],[-42.01735,-17.85484],[-42.01943,-17.85569],[-42.02037,-17.85681],[-42.0217,-17.86007],[-42.02197,-17.8634],[-42.02073,-17.86612],[-42.01924,-17.86723],[-42.01913,-17.86907],[-42.02023,-17.8705],[-42.01959,-17.87111],[-42.01735,-17.87215],[-42.01631,-17.87352],[-42.01516,-17.87647],[-42.01383,-17.87926],[-42.01277,-17.88266],[-42.01144,-17.88838],[-42.01053,-17.89021],[-42.00768,-17.89389],[-42.00595,-17.8951],[-42.00248,-17.89582],[-42.00118,-17.89692],[-42.00067,-17.89772],[-41.99922,-17.90196],[-41.99686,-17.90472],[-41.99638,-17.90647],[-41.99524,-17.90836],[-41.99469,-17.91011],[-41.99198,-17.91548],[-41.99052,-17.91704],[-41.98911,-17.91961],[-41.9884,-17.92212],[-41.98882,-17.92426],[-41.98803,-17.92619],[-41.98697,-17.92942],[-41.98573,-17.93465],[-41.98501,-17.94168],[-41.98488,-17.9448],[-41.98396,-17.94584],[-41.98261,-17.94672],[-41.98061,-17.94762],[-41.97814,-17.9493],[-41.97711,-17.95048],[-41.97694,-17.95154],[-41.97712,-17.95382],[-41.97809,-17.95586],[-41.97894,-17.95701],[-41.97968,-17.95893],[-41.97949,-17.95996],[-41.97825,-17.96139],[-41.97732,-17.96183],[-41.97342,-17.96312],[-41.9687,-17.96549],[-41.96607,-17.96712],[-41.96392,-17.96793],[-41.96292,-17.96858],[-41.96145,-17.9706],[-41.96139,-17.97215],[-41.96199,-17.97578],[-41.9646,-17.98151],[-41.9655,-17.98378],[-41.96594,-17.98615],[-41.96525,-17.98824],[-41.96333,-17.98875],[-41.96292,-17.99067],[-41.96349,-17.99417],[-41.96319,-17.99581],[-41.96223,-17.99782],[-41.96092,-17.99954],[-41.96013,-18.00224],[-41.9586,-18.00374],[-41.95588,-18.00694],[-41.9516,-18.01522],[-41.95094,-18.01823],[-41.94995,-18.02123],[-41.94885,-18.02318],[-41.94684,-18.02498],[-41.94438,-18.02645],[-41.94312,-18.02688],[-41.94226,-18.02669],[-41.94155,-18.02594],[-41.94012,-18.02375],[-41.9368,-18.02179],[-41.93279,-18.02168],[-41.92948,-18.02085],[-41.92724,-18.02081],[-41.92571,-18.02056],[-41.92365,-18.01988],[-41.9213,-18.01871],[-41.91794,-18.01661],[-41.91556,-18.01335],[-41.91483,-18.01159],[-41.91368,-18.00661],[-41.91256,-18.00366],[-41.91175,-18.0023],[-41.91031,-18.00201],[-41.90896,-18.00218],[-41.90566,-18.00319],[-41.90292,-18.00314],[-41.89938,-18.0021],[-41.8977,-18.00112],[-41.89471,-18.00051],[-41.89174,-18.00012],[-41.88872,-17.99888],[-41.88783,-17.99823],[-41.8858,-17.99622],[-41.88408,-17.99388],[-41.88285,-17.99289],[-41.88126,-17.99099],[-41.87816,-17.98958],[-41.87103,-17.98919],[-41.86919,-17.98971],[-41.86721,-17.9907],[-41.86446,-17.9916],[-41.86117,-17.99123],[-41.85939,-17.9906],[-41.85675,-17.98928],[-41.855,-17.98869],[-41.84836,-17.98457],[-41.8467,-17.98391],[-41.84526,-17.983],[-41.84294,-17.98206],[-41.83906,-17.9812],[-41.83474,-17.981],[-41.83221,-17.98105],[-41.82708,-17.98255],[-41.82419,-17.98392]]]},"properties":{"codigo":"312675210","name":"Antônio Ferreira","population":1137,"households":660,"areaKm2":251.9694,"density":4.5}}]}