{"type":"FeatureCollection","features":[{"type":"Feature","geometry":{"type":"Polygon","coordinates":[[[-45.0889,-20.57327],[-45.08702,-20.56958],[-45.08387,-20.56843],[-45.08164,-20.56841],[-45.08048,-20.56759],[-45.0782,-20.56766],[-45.0729,-20.56569],[-45.07093,-20.5655],[-45.06913,-20.56494],[-45.06818,-20.56385],[-45.067,-20.56313],[-45.06712,-20.56168],[-45.06837,-20.56047],[-45.06936,-20.5585],[-45.06942,-20.55752],[-45.06845,-20.55672],[-45.06842,-20.55584],[-45.06901,-20.555],[-45.06909,-20.55246],[-45.06842,-20.55109],[-45.06678,-20.54899],[-45.06609,-20.54747],[-45.06514,-20.54335],[-45.06508,-20.54125],[-45.06369,-20.53769],[-45.06366,-20.53614],[-45.06272,-20.53378],[-45.06279,-20.53161],[-45.06181,-20.52958],[-45.06108,-20.52706],[-45.05935,-20.52607],[-45.05777,-20.52431],[-45.0564,-20.52244],[-45.05636,-20.52116],[-45.05815,-20.52104],[-45.05928,-20.51982],[-45.06087,-20.51625],[-45.0637,-20.51237],[-45.06558,-20.51151],[-45.06572,-20.51065],[-45.06465,-20.50904],[-45.06536,-20.50555],[-45.06642,-20.50452],[-45.06897,-20.50288],[-45.06907,-20.50144],[-45.06966,-20.5002],[-45.0702,-20.49802],[-45.07016,-20.49429],[-45.07111,-20.49164],[-45.07167,-20.49095],[-45.07185,-20.48951],[-45.07042,-20.48876],[-45.07031,-20.48781],[-45.07122,-20.4863],[-45.07171,-20.48616],[-45.07405,-20.48662],[-45.07606,-20.48454],[-45.0764,-20.48338],[-45.07495,-20.48215],[-45.07428,-20.48064],[-45.0737,-20.48017],[-45.0718,-20.47956],[-45.07188,-20.47883],[-45.07012,-20.47704],[-45.06979,-20.47607],[-45.07037,-20.47427],[-45.07038,-20.47023],[-45.07093,-20.46931],[-45.07092,-20.46538],[-45.07126,-20.46466],[-45.07115,-20.46261],[-45.07049,-20.46103],[-45.06866,-20.45832],[-45.06879,-20.45729],[-45.06987,-20.45618],[-45.07104,-20.45542],[-45.07376,-20.45311],[-45.07493,-20.45235],[-45.07496,-20.45147],[-45.07424,-20.45073],[-45.07098,-20.44985],[-45.07001,-20.44893],[-45.06995,-20.44769],[-45.07033,-20.44657],[-45.06914,-20.44382],[-45.06873,-20.44218],[-45.06784,-20.44168],[-45.06559,-20.44128],[-45.06372,-20.4403],[-45.06283,-20.43818],[-45.06073,-20.43805],[-45.05904,-20.43888],[-45.05714,-20.4393],[-45.0549,-20.43889],[-45.05403,-20.437],[-45.0532,-20.43592],[-45.05239,-20.43561],[-45.04995,-20.43555],[-45.04839,-20.43401],[-45.04737,-20.43339],[-45.04544,-20.43324],[-45.04481,-20.43283],[-45.04304,-20.43307],[-45.04134,-20.43271],[-45.03945,-20.43265],[-45.03787,-20.43317],[-45.03656,-20.43232],[-45.03579,-20.43029],[-45.03501,-20.42903],[-45.03308,-20.42738],[-45.0326,-20.42561],[-45.03181,-20.42426],[-45.03184,-20.42319],[-45.03241,-20.42079],[-45.03234,-20.41942],[-45.03185,-20.4178],[-45.03194,-20.41631],[-45.03244,-20.41354],[-45.03325,-20.41171],[-45.03348,-20.40814],[-45.03228,-20.40746],[-45.0292,-20.40615],[-45.02831,-20.40543],[-45.02769,-20.40433],[-45.02628,-20.40299],[-45.0237,-20.39881],[-45.02309,-20.3984],[-45.02172,-20.39668],[-45.02095,-20.39508],[-45.01886,-20.39431],[-45.01744,-20.39285],[-45.01569,-20.39216],[-45.01414,-20.39199],[-45.01281,-20.39283],[-45.01177,-20.39429],[-45.00948,-20.39403],[-45.00764,-20.39425],[-45.00558,-20.39518],[-45.00504,-20.39671],[-45.003,-20.39776],[-44.99959,-20.39826],[-44.99834,-20.3976],[-44.99766,-20.39583],[-44.99588,-20.39482],[-44.99498,-20.39398],[-44.99429,-20.39257],[-44.99269,-20.3923],[-44.99224,-20.39176],[-44.99063,-20.39102],[-44.98959,-20.39094],[-44.98876,-20.39146],[-44.98769,-20.39358],[-44.98644,-20.39547],[-44.98536,-20.39644],[-44.98521,-20.39772],[-44.98435,-20.39858],[-44.98277,-20.39881],[-44.98111,-20.397],[-44.98044,-20.39517],[-44.98045,-20.39395],[-44.98125,-20.39293],[-44.98287,-20.39171],[-44.98291,-20.39044],[-44.98228,-20.38874],[-44.98192,-20.38699],[-44.98234,-20.38542],[-44.98426,-20.38224],[-44.98649,-20.38001],[-44.98932,-20.37824],[-44.99098,-20.37697],[-44.99348,-20.37566],[-44.99528,-20.37502],[-44.99637,-20.37372],[-44.99657,-20.37152],[-44.99705,-20.36887],[-44.99655,-20.3651],[-44.99647,-20.3618],[-44.99724,-20.36022],[-44.99875,-20.36004],[-44.99968,-20.36041],[-45.00035,-20.36254],[-45.00087,-20.36312],[-45.0025,-20.36611],[-45.00475,-20.36749],[-45.01028,-20.36919],[-45.01753,-20.37032],[-45.01898,-20.37092],[-45.0226,-20.37352],[-45.02367,-20.37288],[-45.02682,-20.37009],[-45.02777,-20.36957],[-45.03128,-20.36903],[-45.03245,-20.36854],[-45.03412,-20.36709],[-45.03436,-20.36615],[-45.03413,-20.36335],[-45.03469,-20.36224],[-45.03545,-20.36166],[-45.03826,-20.36084],[-45.04016,-20.35996],[-45.04237,-20.3584],[-45.04408,-20.3568],[-45.04503,-20.35555],[-45.04701,-20.35656],[-45.04914,-20.3574],[-45.05239,-20.35982],[-45.05383,-20.36018],[-45.0583,-20.36022],[-45.06007,-20.36046],[-45.06176,-20.36112],[-45.06284,-20.36199],[-45.06382,-20.36323],[-45.06475,-20.36376],[-45.06583,-20.36362],[-45.06731,-20.36218],[-45.06906,-20.36235],[-45.0713,-20.36338],[-45.07293,-20.36322],[-45.07619,-20.36185],[-45.07806,-20.36133],[-45.08126,-20.36125],[-45.08413,-20.36183],[-45.08608,-20.36186],[-45.08737,-20.36229],[-45.08903,-20.36418],[-45.09175,-20.36651],[-45.09536,-20.36995],[-45.0967,-20.37231],[-45.09673,-20.37335],[-45.0961,-20.37499],[-45.09537,-20.37582],[-45.09493,-20.37717],[-45.09523,-20.38041],[-45.09509,-20.38202],[-45.09435,-20.38396],[-45.09334,-20.38582],[-45.09246,-20.38631],[-45.09043,-20.38623],[-45.08728,-20.38586],[-45.08575,-20.38619],[-45.08215,-20.38817],[-45.07844,-20.39103],[-45.0773,-20.3917],[-45.07536,-20.39352],[-45.07444,-20.39515],[-45.07463,-20.39665],[-45.07561,-20.39822],[-45.07751,-20.39985],[-45.07888,-20.40045],[-45.08064,-20.40251],[-45.08255,-20.40322],[-45.08304,-20.4028],[-45.08468,-20.40264],[-45.08732,-20.40281],[-45.08994,-20.40386],[-45.09064,-20.40489],[-45.093,-20.40639],[-45.09374,-20.40621],[-45.0961,-20.40705],[-45.09761,-20.40703],[-45.09905,-20.40747],[-45.10036,-20.40732],[-45.10193,-20.40589],[-45.10277,-20.40429],[-45.10525,-20.40304],[-45.10626,-20.40298],[-45.10855,-20.40395],[-45.10966,-20.40508],[-45.11182,-20.40595],[-45.11279,-20.40846],[-45.1143,-20.4101],[-45.11687,-20.41108],[-45.11857,-20.41212],[-45.11981,-20.41204],[-45.12138,-20.4108],[-45.12372,-20.41046],[-45.12556,-20.41063],[-45.1269,-20.41004],[-45.12787,-20.40876],[-45.12935,-20.40873],[-45.13167,-20.40919],[-45.13465,-20.4091],[-45.13666,-20.40883],[-45.13889,-20.40887],[-45.14018,-20.40777],[-45.14164,-20.4073],[-45.14402,-20.40743],[-45.14571,-20.40701],[-45.14665,-20.40537],[-45.14808,-20.40442],[-45.1488,-20.40453],[-45.15285,-20.40392],[-45.15588,-20.40406],[-45.15689,-20.4045],[-45.16077,-20.40405],[-45.16251,-20.40418],[-45.1638,-20.40358],[-45.16487,-20.40246],[-45.167,-20.40132],[-45.16846,-20.40018],[-45.16986,-20.39958],[-45.17173,-20.39971],[-45.17228,-20.40022],[-45.17203,-20.40226],[-45.17045,-20.40461],[-45.16915,-20.40534],[-45.16989,-20.40649],[-45.17227,-20.4066],[-45.17486,-20.40634],[-45.17786,-20.4065],[-45.17941,-20.40694],[-45.18121,-20.40692],[-45.18375,-20.40583],[-45.18996,-20.40656],[-45.19115,-20.40563],[-45.19282,-20.40507],[-45.19463,-20.40485],[-45.19988,-20.40585],[-45.20253,-20.40587],[-45.20429,-20.40555],[-45.20525,-20.40477],[-45.20711,-20.40375],[-45.20846,-20.40235],[-45.20989,-20.40128],[-45.21182,-20.40072],[-45.21461,-20.4004],[-45.21895,-20.39941],[-45.22045,-20.39843],[-45.22227,-20.39686],[-45.22447,-20.39542],[-45.22533,-20.39462],[-45.22495,-20.39303],[-45.22504,-20.39179],[-45.22614,-20.39002],[-45.22644,-20.38857],[-45.22729,-20.38606],[-45.22781,-20.38556],[-45.23027,-20.38475],[-45.23137,-20.3827],[-45.23131,-20.38004],[-45.23358,-20.38099],[-45.23548,-20.38034],[-45.23743,-20.38086],[-45.23909,-20.38056],[-45.2408,-20.38076],[-45.24293,-20.38166],[-45.24443,-20.38207],[-45.24542,-20.38279],[-45.24679,-20.38455],[-45.24694,-20.38565],[-45.24787,-20.38649],[-45.24797,-20.38714],[-45.24702,-20.38812],[-45.24764,-20.38945],[-45.2467,-20.39202],[-45.24669,-20.39272],[-45.24764,-20.39414],[-45.24877,-20.39476],[-45.25013,-20.39646],[-45.25159,-20.39645],[-45.2511,-20.39495],[-45.25105,-20.39236],[-45.2514,-20.39099],[-45.25151,-20.38899],[-45.25229,-20.38774],[-45.25269,-20.38596],[-45.2534,-20.38496],[-45.2554,-20.38351],[-45.2576,-20.38267],[-45.25958,-20.38141],[-45.26059,-20.3811],[-45.26614,-20.38147],[-45.26815,-20.38059],[-45.27017,-20.3786],[-45.27017,-20.37755],[-45.2685,-20.37434],[-45.26917,-20.37174],[-45.27095,-20.36997],[-45.27256,-20.36902],[-45.27406,-20.36847],[-45.27821,-20.36742],[-45.28015,-20.36658],[-45.2812,-20.36572],[-45.283,-20.3637],[-45.28432,-20.36171],[-45.28559,-20.36029],[-45.28653,-20.35871],[-45.28829,-20.35808],[-45.29225,-20.35835],[-45.2943,-20.35822],[-45.29774,-20.35707],[-45.30062,-20.35581],[-45.30313,-20.35407],[-45.30442,-20.3528],[-45.30733,-20.35148],[-45.30914,-20.34956],[-45.31029,-20.34886],[-45.31493,-20.34829],[-45.31659,-20.34839],[-45.31953,-20.3498],[-45.32058,-20.3506],[-45.31888,-20.3519],[-45.31662,-20.35499],[-45.31527,-20.35714],[-45.31333,-20.35887],[-45.31276,-20.36027],[-45.31407,-20.36317],[-45.314,-20.36451],[-45.31298,-20.36602],[-45.31188,-20.36687],[-45.30871,-20.36843],[-45.30565,-20.37169],[-45.3047,-20.3734],[-45.30411,-20.37517],[-45.30404,-20.37653],[-45.30514,-20.37817],[-45.30593,-20.37998],[-45.30651,-20.38272],[-45.30672,-20.38466],[-45.30737,-20.38741],[-45.3075,-20.38951],[-45.30721,-20.39113],[-45.3063,-20.39237],[-45.30466,-20.39228],[-45.30266,-20.39269],[-45.30262,-20.39437],[-45.30474,-20.3986],[-45.3071,-20.40143],[-45.30841,-20.40252],[-45.30898,-20.40346],[-45.30929,-20.40534],[-45.31052,-20.408],[-45.3116,-20.41246],[-45.31143,-20.41353],[-45.31145,-20.41708],[-45.31204,-20.4198],[-45.31367,-20.42229],[-45.31619,-20.42578],[-45.31761,-20.42737],[-45.31846,-20.42925],[-45.31999,-20.43164],[-45.32052,-20.43283],[-45.32092,-20.43481],[-45.32147,-20.43625],[-45.32135,-20.4378],[-45.32056,-20.43891],[-45.31875,-20.44005],[-45.31757,-20.44129],[-45.31661,-20.44282],[-45.31569,-20.44526],[-45.31503,-20.44603],[-45.31522,-20.44713],[-45.31711,-20.44918],[-45.3172,-20.45027],[-45.31449,-20.45289],[-45.31415,-20.45404],[-45.31464,-20.45676],[-45.31566,-20.45869],[-45.31769,-20.46128],[-45.31908,-20.46276],[-45.31944,-20.46413],[-45.31857,-20.46473],[-45.31591,-20.46485],[-45.31476,-20.46537],[-45.31422,-20.46653],[-45.3141,-20.46778],[-45.31431,-20.47043],[-45.31389,-20.47144],[-45.31306,-20.47202],[-45.31128,-20.47252],[-45.30857,-20.47393],[-45.30442,-20.47477],[-45.30262,-20.47471],[-45.30008,-20.47412],[-45.29879,-20.47467],[-45.29876,-20.47962],[-45.29929,-20.48505],[-45.29994,-20.48637],[-45.30176,-20.48842],[-45.30213,-20.49019],[-45.30135,-20.49309],[-45.30088,-20.49646],[-45.30024,-20.49844],[-45.30004,-20.49992],[-45.29936,-20.50119],[-45.29771,-20.50347],[-45.29717,-20.50571],[-45.29806,-20.50813],[-45.29944,-20.5099],[-45.30193,-20.51417],[-45.30251,-20.51609],[-45.30343,-20.51828],[-45.30363,-20.52021],[-45.30262,-20.5227],[-45.29946,-20.52613],[-45.29502,-20.5295],[-45.29343,-20.53035],[-45.29127,-20.53228],[-45.29001,-20.5338],[-45.28755,-20.5359],[-45.28442,-20.53741],[-45.28232,-20.53902],[-45.27963,-20.54179],[-45.27746,-20.54296],[-45.27594,-20.54317],[-45.27289,-20.54397],[-45.26821,-20.54568],[-45.26343,-20.54644],[-45.26115,-20.54731],[-45.26004,-20.54871],[-45.25957,-20.55079],[-45.25885,-20.55151],[-45.25468,-20.55365],[-45.25361,-20.5551],[-45.25315,-20.55769],[-45.25268,-20.55926],[-45.25165,-20.56067],[-45.25151,-20.56231],[-45.25299,-20.56275],[-45.25538,-20.56225],[-45.25975,-20.56223],[-45.26151,-20.5625],[-45.26334,-20.56311],[-45.26388,-20.56394],[-45.26431,-20.56764],[-45.26512,-20.56915],[-45.26677,-20.56912],[-45.26845,-20.56985],[-45.26991,-20.57162],[-45.27152,-20.57399],[-45.27272,-20.57669],[-45.2733,-20.57719],[-45.27691,-20.57658],[-45.27912,-20.57662],[-45.28067,-20.57727],[-45.28164,-20.57819],[-45.28248,-20.58046],[-45.28399,-20.58259],[-45.28589,-20.5839],[-45.2878,-20.58602],[-45.29011,-20.58788],[-45.29254,-20.59052],[-45.29305,-20.5919],[-45.29258,-20.59319],[-45.29013,-20.59421],[-45.28712,-20.59431],[-45.28567,-20.59476],[-45.28498,-20.59547],[-45.28495,-20.59682],[-45.28528,-20.59828],[-45.28513,-20.60038],[-45.28414,-20.60132],[-45.28125,-20.60168],[-45.27916,-20.6029],[-45.27689,-20.60384],[-45.27441,-20.60377],[-45.2717,-20.60232],[-45.27064,-20.60258],[-45.26937,-20.60357],[-45.26727,-20.60404],[-45.26405,-20.60449],[-45.26302,-20.60483],[-45.26167,-20.60624],[-45.26166,-20.60773],[-45.26258,-20.60927],[-45.26395,-20.61016],[-45.26542,-20.61246],[-45.26743,-20.61412],[-45.27089,-20.6159],[-45.27253,-20.61741],[-45.27263,-20.61868],[-45.27216,-20.61923],[-45.27068,-20.61989],[-45.26954,-20.6212],[-45.26846,-20.6217],[-45.26755,-20.62345],[-45.26677,-20.62366],[-45.26405,-20.62339],[-45.26277,-20.62395],[-45.26058,-20.62424],[-45.25986,-20.62505],[-45.26018,-20.6274],[-45.25981,-20.62907],[-45.25854,-20.62912],[-45.25661,-20.63007],[-45.25584,-20.63096],[-45.25582,-20.63421],[-45.25537,-20.63633],[-45.25546,-20.63777],[-45.25587,-20.63878],[-45.25728,-20.64074],[-45.2591,-20.64274],[-45.26019,-20.64466],[-45.26129,-20.64717],[-45.26207,-20.64822],[-45.26215,-20.64924],[-45.26164,-20.65006],[-45.26028,-20.65092],[-45.25953,-20.64955],[-45.25862,-20.64872],[-45.25744,-20.64826],[-45.25438,-20.64589],[-45.25243,-20.64545],[-45.24995,-20.64606],[-45.24736,-20.64501],[-45.24659,-20.64386],[-45.2464,-20.6425],[-45.24516,-20.64226],[-45.24349,-20.64049],[-45.24227,-20.64017],[-45.24139,-20.63939],[-45.23966,-20.63856],[-45.23884,-20.63774],[-45.23857,-20.63678],[-45.23986,-20.63466],[-45.23983,-20.63375],[-45.23657,-20.63166],[-45.23483,-20.62996],[-45.23366,-20.62819],[-45.23221,-20.62663],[-45.23113,-20.62441],[-45.22938,-20.62262],[-45.22743,-20.62152],[-45.22589,-20.62151],[-45.22404,-20.61965],[-45.22226,-20.61619],[-45.2215,-20.61526],[-45.21912,-20.61515],[-45.21585,-20.61531],[-45.21533,-20.61574],[-45.21294,-20.61452],[-45.21043,-20.61446],[-45.20949,-20.61305],[-45.20815,-20.61204],[-45.20753,-20.60918],[-45.20689,-20.60839],[-45.20344,-20.60689],[-45.20257,-20.60568],[-45.2023,-20.60352],[-45.19966,-20.60195],[-45.19666,-20.60169],[-45.19521,-20.60026],[-45.19264,-20.5985],[-45.192,-20.59744],[-45.19111,-20.59674],[-45.1901,-20.59469],[-45.18857,-20.59314],[-45.18739,-20.59273],[-45.18582,-20.59138],[-45.18385,-20.59076],[-45.18104,-20.58955],[-45.18098,-20.58799],[-45.18223,-20.58627],[-45.18221,-20.58524],[-45.18168,-20.58471],[-45.17985,-20.58403],[-45.17835,-20.58322],[-45.17701,-20.58184],[-45.17464,-20.58117],[-45.17351,-20.58001],[-45.17273,-20.57876],[-45.17114,-20.5773],[-45.16906,-20.57632],[-45.16707,-20.57667],[-45.16575,-20.57666],[-45.16195,-20.57453],[-45.16115,-20.57327],[-45.15934,-20.57254],[-45.15537,-20.57067],[-45.15323,-20.56928],[-45.15134,-20.56762],[-45.14994,-20.56539],[-45.14814,-20.56413],[-45.14644,-20.56355],[-45.14539,-20.56368],[-45.14251,-20.56543],[-45.14169,-20.56553],[-45.14068,-20.56485],[-45.13971,-20.56279],[-45.13881,-20.56165],[-45.13698,-20.56101],[-45.13373,-20.56085],[-45.13224,-20.56047],[-45.12941,-20.56008],[-45.12489,-20.55997],[-45.12219,-20.56056],[-45.11989,-20.56157],[-45.11775,-20.56341],[-45.11734,-20.5647],[-45.11752,-20.56562],[-45.11979,-20.56774],[-45.11994,-20.56922],[-45.11896,-20.57049],[-45.11755,-20.57162],[-45.11555,-20.57273],[-45.11275,-20.57354],[-45.11142,-20.5735],[-45.10885,-20.57255],[-45.10686,-20.5709],[-45.10493,-20.56975],[-45.10198,-20.5696],[-45.10033,-20.56838],[-45.10033,-20.56548],[-45.10013,-20.56495],[-45.09831,-20.56461],[-45.09621,-20.56512],[-45.09405,-20.56629],[-45.09104,-20.56935],[-45.08975,-20.57245],[-45.0889,-20.57327]]]},"properties":{"codigo":"313350105","name":"Itapecerica","population":16352,"households":8206,"areaKm2":579.7615,"density":28.2}},{"type":"Feature","geometry":{"type":"Polygon","coordinates":[[[-45.04624,-20.63291],[-45.04405,-20.63223],[-45.0427,-20.63217],[-45.03797,-20.63341],[-45.03684,-20.63344],[-45.03511,-20.6327],[-45.0314,-20.63004],[-45.02998,-20.62829],[-45.02883,-20.62583],[-45.02926,-20.62262],[-45.02815,-20.62152],[-45.02547,-20.6202],[-45.02278,-20.62014],[-45.02113,-20.61949],[-45.01926,-20.61943],[-45.0185,-20.61911],[-45.01687,-20.61738],[-45.01653,-20.61438],[-45.0165,-20.61247],[-45.01606,-20.6115],[-45.01496,-20.61019],[-45.01462,-20.6088],[-45.01465,-20.60471],[-45.01226,-20.59988],[-45.01213,-20.59892],[-45.01346,-20.59691],[-45.0147,-20.5957],[-45.01633,-20.59338],[-45.01707,-20.59062],[-45.01806,-20.5887],[-45.01896,-20.58504],[-45.01876,-20.58306],[-45.01836,-20.58211],[-45.01831,-20.58056],[-45.01753,-20.57896],[-45.01733,-20.57694],[-45.01683,-20.57601],[-45.01514,-20.57408],[-45.01355,-20.57192],[-45.0119,-20.57035],[-45.01199,-20.56849],[-45.01106,-20.56674],[-45.01145,-20.56564],[-45.01012,-20.56381],[-45.01007,-20.56275],[-45.01046,-20.56119],[-45.01011,-20.55961],[-45.01053,-20.55763],[-45.00998,-20.55654],[-45.01,-20.55388],[-45.00894,-20.5512],[-45.00933,-20.54778],[-45.00881,-20.54665],[-45.00912,-20.54516],[-45.01035,-20.54369],[-45.01133,-20.54319],[-45.01153,-20.54201],[-45.01125,-20.53993],[-45.01207,-20.53777],[-45.01275,-20.5374],[-45.01504,-20.53754],[-45.01653,-20.53698],[-45.01863,-20.535],[-45.01872,-20.53351],[-45.01939,-20.53186],[-45.01935,-20.53007],[-45.01849,-20.52885],[-45.01628,-20.52688],[-45.01492,-20.52609],[-45.01266,-20.52367],[-45.01246,-20.52052],[-45.01209,-20.51883],[-45.01241,-20.51667],[-45.01182,-20.51279],[-45.01185,-20.51175],[-45.01292,-20.50836],[-45.01268,-20.50437],[-45.01211,-20.50244],[-45.01059,-20.49999],[-45.01055,-20.4983],[-45.00967,-20.49794],[-45.00844,-20.49802],[-45.00664,-20.49879],[-45.00448,-20.49848],[-45.0031,-20.49792],[-45.00203,-20.49837],[-45.00173,-20.4995],[-45.00182,-20.50145],[-45.00116,-20.50209],[-44.99972,-20.50157],[-44.99844,-20.50147],[-44.99787,-20.50058],[-44.99824,-20.49934],[-44.99733,-20.49735],[-44.99631,-20.49642],[-44.99593,-20.49503],[-44.99532,-20.49468],[-44.9927,-20.4948],[-44.99116,-20.49376],[-44.99107,-20.4919],[-44.99059,-20.49139],[-44.989,-20.49149],[-44.98891,-20.48994],[-44.98954,-20.48921],[-44.98881,-20.4881],[-44.98681,-20.48683],[-44.98463,-20.48609],[-44.98251,-20.48568],[-44.97939,-20.48551],[-44.97685,-20.48504],[-44.97272,-20.48479],[-44.97143,-20.48501],[-44.96634,-20.48646],[-44.96525,-20.4871],[-44.96295,-20.48987],[-44.96144,-20.49074],[-44.96036,-20.49084],[-44.95891,-20.4915],[-44.95676,-20.49286],[-44.95571,-20.49292],[-44.95336,-20.49239],[-44.95135,-20.49086],[-44.94963,-20.49002],[-44.94865,-20.48891],[-44.94817,-20.48589],[-44.94864,-20.48297],[-44.94987,-20.48109],[-44.95073,-20.47791],[-44.95103,-20.47495],[-44.95095,-20.47325],[-44.95054,-20.4716],[-44.95078,-20.47087],[-44.95199,-20.47008],[-44.95236,-20.46941],[-44.95384,-20.4682],[-44.95462,-20.46793],[-44.95668,-20.46646],[-44.96152,-20.46443],[-44.96361,-20.46327],[-44.96559,-20.46102],[-44.96716,-20.45962],[-44.96846,-20.45905],[-44.97075,-20.45864],[-44.97227,-20.45802],[-44.97454,-20.45653],[-44.97557,-20.45537],[-44.9777,-20.45394],[-44.97814,-20.45325],[-44.97997,-20.45154],[-44.98263,-20.4496],[-44.98253,-20.44797],[-44.98158,-20.44525],[-44.98014,-20.44252],[-44.98063,-20.44176],[-44.98028,-20.43811],[-44.97969,-20.43601],[-44.9791,-20.43295],[-44.97811,-20.43049],[-44.97816,-20.42949],[-44.97888,-20.42628],[-44.98042,-20.42415],[-44.98076,-20.42242],[-44.98147,-20.42171],[-44.98243,-20.41993],[-44.9827,-20.41688],[-44.98501,-20.41427],[-44.98411,-20.41346],[-44.98345,-20.41187],[-44.98399,-20.41036],[-44.98364,-20.40973],[-44.98411,-20.40892],[-44.98556,-20.40829],[-44.98613,-20.40651],[-44.98525,-20.40574],[-44.98582,-20.4052],[-44.98601,-20.40222],[-44.98564,-20.40104],[-44.9846,-20.40066],[-44.98441,-20.39974],[-44.98336,-20.39988],[-44.98277,-20.39881],[-44.98435,-20.39858],[-44.98521,-20.39772],[-44.98536,-20.39644],[-44.98644,-20.39547],[-44.98769,-20.39358],[-44.98876,-20.39146],[-44.98959,-20.39094],[-44.99063,-20.39102],[-44.99224,-20.39176],[-44.99269,-20.3923],[-44.99429,-20.39257],[-44.99498,-20.39398],[-44.99588,-20.39482],[-44.99766,-20.39583],[-44.99834,-20.3976],[-44.99959,-20.39826],[-45.003,-20.39776],[-45.00504,-20.39671],[-45.00558,-20.39518],[-45.00764,-20.39425],[-45.00948,-20.39403],[-45.01177,-20.39429],[-45.01281,-20.39283],[-45.01414,-20.39199],[-45.01569,-20.39216],[-45.01744,-20.39285],[-45.01886,-20.39431],[-45.02095,-20.39508],[-45.02172,-20.39668],[-45.02309,-20.3984],[-45.0237,-20.39881],[-45.02628,-20.40299],[-45.02769,-20.40433],[-45.02831,-20.40543],[-45.0292,-20.40615],[-45.03228,-20.40746],[-45.03348,-20.40814],[-45.03325,-20.41171],[-45.03244,-20.41354],[-45.03194,-20.41631],[-45.03185,-20.4178],[-45.03234,-20.41942],[-45.03241,-20.42079],[-45.03184,-20.42319],[-45.03181,-20.42426],[-45.0326,-20.42561],[-45.03308,-20.42738],[-45.03501,-20.42903],[-45.03579,-20.43029],[-45.03656,-20.43232],[-45.03787,-20.43317],[-45.03945,-20.43265],[-45.04134,-20.43271],[-45.04304,-20.43307],[-45.04481,-20.43283],[-45.04544,-20.43324],[-45.04737,-20.43339],[-45.04839,-20.43401],[-45.04995,-20.43555],[-45.05239,-20.43561],[-45.0532,-20.43592],[-45.05403,-20.437],[-45.0549,-20.43889],[-45.05714,-20.4393],[-45.05904,-20.43888],[-45.06073,-20.43805],[-45.06283,-20.43818],[-45.06372,-20.4403],[-45.06559,-20.44128],[-45.06784,-20.44168],[-45.06873,-20.44218],[-45.06914,-20.44382],[-45.07033,-20.44657],[-45.06995,-20.44769],[-45.07001,-20.44893],[-45.07098,-20.44985],[-45.07424,-20.45073],[-45.07496,-20.45147],[-45.07493,-20.45235],[-45.07376,-20.45311],[-45.07104,-20.45542],[-45.06987,-20.45618],[-45.06879,-20.45729],[-45.06866,-20.45832],[-45.07049,-20.46103],[-45.07115,-20.46261],[-45.07126,-20.46466],[-45.07092,-20.46538],[-45.07093,-20.46931],[-45.07038,-20.47023],[-45.07037,-20.47427],[-45.06979,-20.47607],[-45.07012,-20.47704],[-45.07188,-20.47883],[-45.0718,-20.47956],[-45.0737,-20.48017],[-45.07428,-20.48064],[-45.07495,-20.48215],[-45.0764,-20.48338],[-45.07606,-20.48454],[-45.07405,-20.48662],[-45.07171,-20.48616],[-45.07122,-20.4863],[-45.07031,-20.48781],[-45.07042,-20.48876],[-45.07185,-20.48951],[-45.07167,-20.49095],[-45.07111,-20.49164],[-45.07016,-20.49429],[-45.0702,-20.49802],[-45.06966,-20.5002],[-45.06907,-20.50144],[-45.06897,-20.50288],[-45.06642,-20.50452],[-45.06536,-20.50555],[-45.06465,-20.50904],[-45.06572,-20.51065],[-45.06558,-20.51151],[-45.0637,-20.51237],[-45.06087,-20.51625],[-45.05928,-20.51982],[-45.05815,-20.52104],[-45.05636,-20.52116],[-45.0564,-20.52244],[-45.05777,-20.52431],[-45.05935,-20.52607],[-45.06108,-20.52706],[-45.06181,-20.52958],[-45.06279,-20.53161],[-45.06272,-20.53378],[-45.06366,-20.53614],[-45.06369,-20.53769],[-45.06508,-20.54125],[-45.06514,-20.54335],[-45.06609,-20.54747],[-45.06678,-20.54899],[-45.06842,-20.55109],[-45.06909,-20.55246],[-45.06901,-20.555],[-45.06842,-20.55584],[-45.06845,-20.55672],[-45.06942,-20.55752],[-45.06936,-20.5585],[-45.06837,-20.56047],[-45.06712,-20.56168],[-45.067,-20.56313],[-45.06818,-20.56385],[-45.06913,-20.56494],[-45.07093,-20.5655],[-45.0729,-20.56569],[-45.0782,-20.56766],[-45.08048,-20.56759],[-45.08164,-20.56841],[-45.08387,-20.56843],[-45.08702,-20.56958],[-45.0889,-20.57327],[-45.08593,-20.57352],[-45.08322,-20.57435],[-45.08215,-20.57503],[-45.08156,-20.57636],[-45.0822,-20.57683],[-45.08521,-20.57738],[-45.08808,-20.57945],[-45.08913,-20.58138],[-45.09098,-20.58362],[-45.09099,-20.5851],[-45.09002,-20.587],[-45.08733,-20.58925],[-45.08516,-20.58942],[-45.08321,-20.58929],[-45.08171,-20.58889],[-45.07967,-20.58875],[-45.07786,-20.5898],[-45.07584,-20.59231],[-45.07495,-20.59371],[-45.07338,-20.59511],[-45.07264,-20.59538],[-45.0688,-20.59616],[-45.06545,-20.59803],[-45.06393,-20.59873],[-45.06282,-20.60012],[-45.06313,-20.60161],[-45.06524,-20.6025],[-45.07003,-20.60406],[-45.07063,-20.605],[-45.07036,-20.61127],[-45.06981,-20.61243],[-45.06838,-20.61356],[-45.06733,-20.61396],[-45.06584,-20.61389],[-45.06365,-20.6132],[-45.06208,-20.61374],[-45.06023,-20.61572],[-45.05652,-20.62069],[-45.05552,-20.62137],[-45.05332,-20.62235],[-45.05275,-20.62349],[-45.05288,-20.6252],[-45.05427,-20.62722],[-45.05494,-20.62944],[-45.05488,-20.63068],[-45.05427,-20.63181],[-45.0521,-20.63249],[-45.05058,-20.63246],[-45.04926,-20.63203],[-45.04733,-20.63201],[-45.04624,-20.63291]]]},"properties":{"codigo":"313350110","name":"Lamounier","population":1768,"households":1113,"areaKm2":178.1267,"density":9.9}},{"type":"Feature","geometry":{"type":"Polygon","coordinates":[[[-44.89252,-20.4715],[-44.89205,-20.46944],[-44.89139,-20.46767],[-44.89196,-20.46553],[-44.89318,-20.46449],[-44.89385,-20.46438],[-44.89462,-20.46341],[-44.89566,-20.463],[-44.89593,-20.46214],[-44.8947,-20.46092],[-44.89417,-20.45931],[-44.89433,-20.45838],[-44.8937,-20.45727],[-44.8927,-20.45717],[-44.89239,-20.45595],[-44.89159,-20.45492],[-44.89016,-20.45424],[-44.88858,-20.4525],[-44.88863,-20.45056],[-44.88947,-20.44911],[-44.8894,-20.44665],[-44.88903,-20.44481],[-44.88961,-20.44379],[-44.88963,-20.44213],[-44.8902,-20.44036],[-44.88908,-20.43873],[-44.88777,-20.43807],[-44.88807,-20.43664],[-44.88727,-20.4361],[-44.88797,-20.4344],[-44.88747,-20.43272],[-44.8874,-20.43107],[-44.88788,-20.42957],[-44.8891,-20.42754],[-44.89019,-20.42674],[-44.89143,-20.42539],[-44.89247,-20.42529],[-44.89265,-20.42397],[-44.89334,-20.42331],[-44.89347,-20.42236],[-44.89443,-20.42161],[-44.89505,-20.42219],[-44.89698,-20.42313],[-44.89775,-20.42304],[-44.89948,-20.42102],[-44.89953,-20.4202],[-44.89883,-20.41795],[-44.89824,-20.41707],[-44.89795,-20.41545],[-44.8982,-20.41344],[-44.89747,-20.41337],[-44.89722,-20.41247],[-44.89616,-20.41056],[-44.89543,-20.41068],[-44.89534,-20.40932],[-44.89455,-20.40843],[-44.8944,-20.40609],[-44.89303,-20.40516],[-44.89213,-20.40385],[-44.88968,-20.40194],[-44.88891,-20.40205],[-44.88784,-20.40115],[-44.88762,-20.40018],[-44.88679,-20.39923],[-44.88632,-20.39805],[-44.88485,-20.39764],[-44.8839,-20.39508],[-44.88315,-20.39432],[-44.88264,-20.3923],[-44.88652,-20.3926],[-44.88703,-20.39122],[-44.88587,-20.39115],[-44.8863,-20.3891],[-44.88619,-20.38811],[-44.8853,-20.38733],[-44.88487,-20.38567],[-44.88502,-20.38459],[-44.8867,-20.3829],[-44.88815,-20.38191],[-44.88832,-20.38094],[-44.88908,-20.38072],[-44.88915,-20.37974],[-44.88993,-20.37918],[-44.88983,-20.37836],[-44.89074,-20.37585],[-44.89163,-20.37515],[-44.89172,-20.3733],[-44.89223,-20.37283],[-44.89531,-20.37295],[-44.89728,-20.37237],[-44.89863,-20.37108],[-44.89959,-20.37084],[-44.90028,-20.36961],[-44.89921,-20.36797],[-44.89801,-20.3669],[-44.89879,-20.36464],[-44.90011,-20.36359],[-44.90019,-20.36312],[-44.89926,-20.36184],[-44.89975,-20.36061],[-44.89974,-20.35914],[-44.90071,-20.35724],[-44.89927,-20.35525],[-44.90049,-20.35403],[-44.89953,-20.35373],[-44.89964,-20.35166],[-44.89928,-20.35046],[-44.8977,-20.34738],[-44.89659,-20.34615],[-44.89626,-20.34423],[-44.89744,-20.34339],[-44.89819,-20.34159],[-44.90098,-20.34043],[-44.90121,-20.33972],[-44.90263,-20.33802],[-44.90222,-20.3374],[-44.90111,-20.33713],[-44.90116,-20.33631],[-44.90318,-20.33416],[-44.90406,-20.33262],[-44.90575,-20.3309],[-44.90494,-20.33044],[-44.90509,-20.32946],[-44.90582,-20.32908],[-44.90738,-20.32915],[-44.90745,-20.32821],[-44.9085,-20.32827],[-44.90862,-20.32692],[-44.90983,-20.32697],[-44.91054,-20.32576],[-44.9109,-20.3234],[-44.9114,-20.32276],[-44.91147,-20.32058],[-44.9125,-20.31995],[-44.91278,-20.31856],[-44.91392,-20.3176],[-44.91436,-20.31525],[-44.91366,-20.31453],[-44.91462,-20.31342],[-44.91469,-20.31114],[-44.91546,-20.31092],[-44.91649,-20.30912],[-44.91507,-20.30797],[-44.91456,-20.30627],[-44.91322,-20.30377],[-44.91325,-20.30241],[-44.91459,-20.30091],[-44.9144,-20.29972],[-44.91278,-20.297],[-44.91188,-20.29459],[-44.91263,-20.29293],[-44.91166,-20.29181],[-44.91099,-20.29042],[-44.90995,-20.28998],[-44.91068,-20.2883],[-44.91096,-20.28624],[-44.91048,-20.2836],[-44.90923,-20.28156],[-44.90865,-20.27893],[-44.90863,-20.27583],[-44.90888,-20.27458],[-44.90732,-20.27416],[-44.90641,-20.27056],[-44.90536,-20.27032],[-44.90431,-20.26928],[-44.90464,-20.26731],[-44.90273,-20.26631],[-44.90249,-20.26408],[-44.90342,-20.26369],[-44.90317,-20.26274],[-44.90404,-20.26205],[-44.90438,-20.25909],[-44.90609,-20.26082],[-44.90765,-20.26305],[-44.90953,-20.26429],[-44.91115,-20.26767],[-44.91219,-20.27196],[-44.91349,-20.27326],[-44.91443,-20.273],[-44.91587,-20.27209],[-44.91947,-20.27129],[-44.9209,-20.27167],[-44.92275,-20.27337],[-44.92437,-20.27449],[-44.92709,-20.27492],[-44.92814,-20.27577],[-44.92888,-20.27717],[-44.93015,-20.27854],[-44.93281,-20.27987],[-44.93384,-20.28191],[-44.93387,-20.28462],[-44.93592,-20.28736],[-44.93555,-20.28843],[-44.9371,-20.28927],[-44.93835,-20.29043],[-44.93831,-20.29182],[-44.93877,-20.29222],[-44.94177,-20.29333],[-44.94209,-20.29432],[-44.94136,-20.2964],[-44.94049,-20.2973],[-44.93978,-20.29863],[-44.9387,-20.29877],[-44.9384,-20.29965],[-44.93925,-20.30084],[-44.93916,-20.30249],[-44.94024,-20.30454],[-44.94221,-20.30561],[-44.94448,-20.30732],[-44.94584,-20.30693],[-44.9469,-20.31049],[-44.94791,-20.31184],[-44.94989,-20.31194],[-44.95011,-20.31323],[-44.95225,-20.3126],[-44.95432,-20.31257],[-44.95491,-20.31736],[-44.95569,-20.31782],[-44.95658,-20.31736],[-44.95806,-20.31729],[-44.95845,-20.31791],[-44.9603,-20.31836],[-44.96175,-20.31912],[-44.96205,-20.32033],[-44.96303,-20.32138],[-44.96284,-20.32324],[-44.965,-20.32329],[-44.96534,-20.324],[-44.96653,-20.32345],[-44.96816,-20.32337],[-44.96995,-20.32379],[-44.97228,-20.32383],[-44.97385,-20.32411],[-44.9761,-20.32501],[-44.97693,-20.32574],[-44.97777,-20.32734],[-44.97884,-20.32863],[-44.98058,-20.32911],[-44.98299,-20.32932],[-44.98642,-20.32943],[-44.9888,-20.32914],[-44.99122,-20.32854],[-44.99325,-20.32726],[-44.99611,-20.32629],[-45.00004,-20.32441],[-45.00158,-20.32405],[-45.00338,-20.32411],[-45.00817,-20.32596],[-45.01053,-20.32596],[-45.01209,-20.32633],[-45.01561,-20.32813],[-45.0174,-20.33204],[-45.01853,-20.33256],[-45.02183,-20.33336],[-45.02433,-20.33461],[-45.02785,-20.33542],[-45.03349,-20.336],[-45.03469,-20.33673],[-45.03842,-20.34185],[-45.03985,-20.34268],[-45.04162,-20.34425],[-45.04267,-20.34583],[-45.04301,-20.34774],[-45.04297,-20.35093],[-45.04367,-20.35362],[-45.04503,-20.35555],[-45.04408,-20.3568],[-45.04237,-20.3584],[-45.04016,-20.35996],[-45.03826,-20.36084],[-45.03545,-20.36166],[-45.03469,-20.36224],[-45.03413,-20.36335],[-45.03436,-20.36615],[-45.03412,-20.36709],[-45.03245,-20.36854],[-45.03128,-20.36903],[-45.02777,-20.36957],[-45.02682,-20.37009],[-45.02367,-20.37288],[-45.0226,-20.37352],[-45.01898,-20.37092],[-45.01753,-20.37032],[-45.01028,-20.36919],[-45.00475,-20.36749],[-45.0025,-20.36611],[-45.00087,-20.36312],[-45.00035,-20.36254],[-44.99968,-20.36041],[-44.99875,-20.36004],[-44.99724,-20.36022],[-44.99647,-20.3618],[-44.99655,-20.3651],[-44.99705,-20.36887],[-44.99657,-20.37152],[-44.99637,-20.37372],[-44.99528,-20.37502],[-44.99348,-20.37566],[-44.99098,-20.37697],[-44.98932,-20.37824],[-44.98649,-20.38001],[-44.98426,-20.38224],[-44.98234,-20.38542],[-44.98192,-20.38699],[-44.98228,-20.38874],[-44.98291,-20.39044],[-44.98287,-20.39171],[-44.98125,-20.39293],[-44.98045,-20.39395],[-44.98044,-20.39517],[-44.98111,-20.397],[-44.98277,-20.39881],[-44.98336,-20.39988],[-44.98441,-20.39974],[-44.9846,-20.40066],[-44.98564,-20.40104],[-44.98601,-20.40222],[-44.98582,-20.4052],[-44.98525,-20.40574],[-44.98613,-20.40651],[-44.98556,-20.40829],[-44.98411,-20.40892],[-44.98364,-20.40973],[-44.98399,-20.41036],[-44.98345,-20.41187],[-44.98411,-20.41346],[-44.98501,-20.41427],[-44.9827,-20.41688],[-44.98243,-20.41993],[-44.98147,-20.42171],[-44.98076,-20.42242],[-44.98042,-20.42415],[-44.97888,-20.42628],[-44.97816,-20.42949],[-44.97811,-20.43049],[-44.9791,-20.43295],[-44.97969,-20.43601],[-44.98028,-20.43811],[-44.98063,-20.44176],[-44.98014,-20.44252],[-44.98158,-20.44525],[-44.98253,-20.44797],[-44.98263,-20.4496],[-44.97997,-20.45154],[-44.97814,-20.45325],[-44.9777,-20.45394],[-44.97557,-20.45537],[-44.97454,-20.45653],[-44.97227,-20.45802],[-44.97075,-20.45864],[-44.96846,-20.45905],[-44.96716,-20.45962],[-44.96559,-20.46102],[-44.96361,-20.46327],[-44.96152,-20.46443],[-44.95668,-20.46646],[-44.95462,-20.46793],[-44.95384,-20.4682],[-44.95236,-20.46941],[-44.95199,-20.47008],[-44.95078,-20.47087],[-44.95054,-20.4716],[-44.95095,-20.47325],[-44.95103,-20.47495],[-44.95073,-20.47791],[-44.94987,-20.48109],[-44.94864,-20.48297],[-44.94817,-20.48589],[-44.94865,-20.48891],[-44.94706,-20.49036],[-44.94629,-20.49157],[-44.94641,-20.49537],[-44.94602,-20.49636],[-44.94503,-20.49723],[-44.94286,-20.49815],[-44.94114,-20.4939],[-44.93996,-20.49195],[-44.93779,-20.49125],[-44.93633,-20.49003],[-44.93566,-20.48902],[-44.93393,-20.4878],[-44.93338,-20.48771],[-44.92966,-20.48606],[-44.92456,-20.48486],[-44.9204,-20.48432],[-44.91869,-20.48378],[-44.91698,-20.48356],[-44.91372,-20.48358],[-44.91233,-20.48383],[-44.91045,-20.4837],[-44.90885,-20.48263],[-44.90432,-20.48231],[-44.90283,-20.48073],[-44.8999,-20.47626],[-44.89949,-20.47512],[-44.89613,-20.47365],[-44.89414,-20.4723],[-44.89252,-20.4715]]]},"properties":{"codigo":"313350115","name":"Marilândia","population":1877,"households":1497,"areaKm2":200.5748,"density":9.4}},{"type":"Feature","geometry":{"type":"Polygon","coordinates":[[[-45.09435,-20.38396],[-45.09543,-20.38389],[-45.09605,-20.38312],[-45.1001,-20.38081],[-45.10117,-20.37994],[-45.10485,-20.37813],[-45.1075,-20.37706],[-45.11471,-20.37478],[-45.11697,-20.37446],[-45.11846,-20.37381],[-45.12059,-20.37134],[-45.12163,-20.37052],[-45.12324,-20.36982],[-45.12509,-20.36863],[-45.12656,-20.36509],[-45.12752,-20.36328],[-45.12704,-20.36181],[-45.12616,-20.36068],[-45.12605,-20.35928],[-45.12639,-20.35828],[-45.12843,-20.35623],[-45.12887,-20.35461],[-45.12811,-20.35292],[-45.12711,-20.35204],[-45.12136,-20.35045],[-45.11998,-20.34832],[-45.11986,-20.34612],[-45.12011,-20.34506],[-45.12136,-20.34406],[-45.125,-20.34361],[-45.12621,-20.3431],[-45.12659,-20.34169],[-45.12588,-20.33963],[-45.126,-20.33801],[-45.12697,-20.33527],[-45.12844,-20.33317],[-45.12945,-20.33231],[-45.13198,-20.33123],[-45.13346,-20.3311],[-45.13635,-20.3302],[-45.13855,-20.32998],[-45.14196,-20.33085],[-45.14563,-20.33052],[-45.14675,-20.33062],[-45.14955,-20.33217],[-45.15225,-20.33428],[-45.15372,-20.33576],[-45.15583,-20.33893],[-45.15907,-20.34259],[-45.16271,-20.34449],[-45.1648,-20.34633],[-45.16633,-20.34827],[-45.17037,-20.35147],[-45.17264,-20.35437],[-45.17371,-20.35509],[-45.17597,-20.35601],[-45.17758,-20.35754],[-45.17876,-20.35823],[-45.18043,-20.35966],[-45.18174,-20.36038],[-45.18314,-20.36054],[-45.1882,-20.35876],[-45.19275,-20.35769],[-45.19429,-20.35689],[-45.19578,-20.35545],[-45.19673,-20.35352],[-45.19754,-20.35138],[-45.19714,-20.34906],[-45.19703,-20.34705],[-45.19643,-20.34307],[-45.1966,-20.34236],[-45.19765,-20.34173],[-45.1985,-20.34242],[-45.20163,-20.34232],[-45.20279,-20.34261],[-45.20375,-20.34461],[-45.20633,-20.34606],[-45.20673,-20.3469],[-45.20846,-20.34825],[-45.20919,-20.34824],[-45.21045,-20.34905],[-45.21006,-20.35044],[-45.21069,-20.35116],[-45.21051,-20.35208],[-45.21177,-20.35392],[-45.21386,-20.35574],[-45.21681,-20.35666],[-45.21768,-20.35713],[-45.21864,-20.35899],[-45.21963,-20.35966],[-45.21949,-20.36231],[-45.22016,-20.36329],[-45.22167,-20.36329],[-45.22202,-20.36476],[-45.22313,-20.36601],[-45.22346,-20.36828],[-45.22304,-20.36982],[-45.22226,-20.37042],[-45.22226,-20.37168],[-45.22136,-20.37312],[-45.22233,-20.37443],[-45.22383,-20.37371],[-45.22495,-20.37362],[-45.2269,-20.37396],[-45.22802,-20.37473],[-45.22833,-20.37592],[-45.22938,-20.37687],[-45.23014,-20.37881],[-45.23131,-20.38004],[-45.23137,-20.3827],[-45.23027,-20.38475],[-45.22781,-20.38556],[-45.22729,-20.38606],[-45.22644,-20.38857],[-45.22614,-20.39002],[-45.22504,-20.39179],[-45.22495,-20.39303],[-45.22533,-20.39462],[-45.22447,-20.39542],[-45.22227,-20.39686],[-45.22045,-20.39843],[-45.21895,-20.39941],[-45.21461,-20.4004],[-45.21182,-20.40072],[-45.20989,-20.40128],[-45.20846,-20.40235],[-45.20711,-20.40375],[-45.20525,-20.40477],[-45.20429,-20.40555],[-45.20253,-20.40587],[-45.19988,-20.40585],[-45.19463,-20.40485],[-45.19282,-20.40507],[-45.19115,-20.40563],[-45.18996,-20.40656],[-45.18375,-20.40583],[-45.18121,-20.40692],[-45.17941,-20.40694],[-45.17786,-20.4065],[-45.17486,-20.40634],[-45.17227,-20.4066],[-45.16989,-20.40649],[-45.16915,-20.40534],[-45.17045,-20.40461],[-45.17203,-20.40226],[-45.17228,-20.40022],[-45.17173,-20.39971],[-45.16986,-20.39958],[-45.16846,-20.40018],[-45.167,-20.40132],[-45.16487,-20.40246],[-45.1638,-20.40358],[-45.16251,-20.40418],[-45.16077,-20.40405],[-45.15689,-20.4045],[-45.15588,-20.40406],[-45.15285,-20.40392],[-45.1488,-20.40453],[-45.14808,-20.40442],[-45.14665,-20.40537],[-45.14571,-20.40701],[-45.14402,-20.40743],[-45.14164,-20.4073],[-45.14018,-20.40777],[-45.13889,-20.40887],[-45.13666,-20.40883],[-45.13465,-20.4091],[-45.13167,-20.40919],[-45.12935,-20.40873],[-45.12787,-20.40876],[-45.1269,-20.41004],[-45.12556,-20.41063],[-45.12372,-20.41046],[-45.12138,-20.4108],[-45.11981,-20.41204],[-45.11857,-20.41212],[-45.11687,-20.41108],[-45.1143,-20.4101],[-45.11279,-20.40846],[-45.11182,-20.40595],[-45.10966,-20.40508],[-45.10855,-20.40395],[-45.10626,-20.40298],[-45.10525,-20.40304],[-45.10277,-20.40429],[-45.10193,-20.40589],[-45.10036,-20.40732],[-45.09905,-20.40747],[-45.09761,-20.40703],[-45.0961,-20.40705],[-45.09374,-20.40621],[-45.093,-20.40639],[-45.09064,-20.40489],[-45.08994,-20.40386],[-45.08732,-20.40281],[-45.08468,-20.40264],[-45.08304,-20.4028],[-45.08255,-20.40322],[-45.08064,-20.40251],[-45.07888,-20.40045],[-45.07751,-20.39985],[-45.07561,-20.39822],[-45.07463,-20.39665],[-45.07444,-20.39515],[-45.07536,-20.39352],[-45.0773,-20.3917],[-45.07844,-20.39103],[-45.08215,-20.38817],[-45.08575,-20.38619],[-45.08728,-20.38586],[-45.09043,-20.38623],[-45.09246,-20.38631],[-45.09334,-20.38582],[-45.09435,-20.38396]]]},"properties":{"codigo":"313350120","name":"Neolândia","population":1049,"households":585,"areaKm2":82.0556,"density":12.8}}]}