{"type":"FeatureCollection","features":[{"type":"Feature","geometry":{"type":"Polygon","coordinates":[[[-49.47958,-18.97859],[-49.48012,-18.9773],[-49.48125,-18.97816],[-49.4817,-18.97761],[-49.48406,-18.9781],[-49.48386,-18.97908],[-49.48473,-18.97971],[-49.48422,-18.98034],[-49.48322,-18.97961],[-49.4828,-18.98013],[-49.48083,-18.97869],[-49.48041,-18.97921],[-49.47958,-18.97859]]]},"properties":{"codigo":"3134202006","name":"Vila Hélio","population":268,"households":122,"areaKm2":0.0861,"density":3111.1}},{"type":"Feature","geometry":{"type":"Polygon","coordinates":[[[-49.43831,-18.99736],[-49.43484,-18.99789],[-49.43469,-18.99671],[-49.43346,-18.98948],[-49.43627,-18.99019],[-49.44125,-18.99139],[-49.44117,-18.99256],[-49.43926,-18.99258],[-49.43939,-18.99328],[-49.43873,-18.99599],[-49.43831,-18.99736]]]},"properties":{"codigo":"3134202041","name":"Residencial Santa Edwiges","population":1105,"households":512,"areaKm2":0.4468,"density":2473.2}},{"type":"Feature","geometry":{"type":"Polygon","coordinates":[[[-49.44305,-18.97231],[-49.44605,-18.97522],[-49.44706,-18.97609],[-49.44656,-18.97668],[-49.44649,-18.97725],[-49.44556,-18.97882],[-49.44195,-18.97772],[-49.44207,-18.97717],[-49.44131,-18.97703],[-49.44168,-18.97633],[-49.44054,-18.97594],[-49.44149,-18.97468],[-49.44305,-18.97231]]]},"properties":{"codigo":"3134202025","name":"Novo Horizonte","population":971,"households":442,"areaKm2":0.2618,"density":3708.9}},{"type":"Feature","geometry":{"type":"Polygon","coordinates":[[[-49.4714,-18.99744],[-49.47136,-18.99799],[-49.46523,-19.00221],[-49.46061,-19.00396],[-49.45948,-19.00124],[-49.46813,-18.998],[-49.46772,-18.99727],[-49.46862,-18.99729],[-49.47038,-18.99705],[-49.47149,-18.99732],[-49.4714,-18.99744]]]},"properties":{"codigo":"3134202064","name":"Gerson Baduy I","population":305,"households":199,"areaKm2":0.3551,"density":858.9}},{"type":"Feature","geometry":{"type":"Polygon","coordinates":[[[-49.45534,-18.94598],[-49.45558,-18.94565],[-49.45745,-18.94655],[-49.45886,-18.94714],[-49.46095,-18.94822],[-49.46066,-18.94852],[-49.45915,-18.94765],[-49.45883,-18.94799],[-49.45687,-18.95371],[-49.45679,-18.95408],[-49.45567,-18.95335],[-49.45584,-18.9527],[-49.45697,-18.94664],[-49.45534,-18.94598]]]},"properties":{"codigo":"3134202037","name":"Tiradentes","population":5,"households":4,"areaKm2":0.157,"density":31.9}},{"type":"Feature","geometry":{"type":"Polygon","coordinates":[[[-49.44305,-18.97231],[-49.44253,-18.97181],[-49.443,-18.96953],[-49.4471,-18.96569],[-49.44795,-18.9637],[-49.44857,-18.96429],[-49.45161,-18.96724],[-49.45268,-18.96623],[-49.45112,-18.97326],[-49.44985,-18.97397],[-49.44836,-18.97465],[-49.44706,-18.97609],[-49.44605,-18.97522],[-49.44305,-18.97231]]]},"properties":{"codigo":"3134202026","name":"Universitário","population":2563,"households":1211,"areaKm2":0.8114,"density":3158.6}},{"type":"Feature","geometry":{"type":"Polygon","coordinates":[[[-49.45679,-18.95408],[-49.45662,-18.95583],[-49.4552,-18.95705],[-49.45405,-18.95591],[-49.45423,-18.9557],[-49.45538,-18.95407],[-49.45567,-18.95335],[-49.45679,-18.95408]]]},"properties":{"codigo":"3134202031","name":"Nossa Senhora Aparecida","population":137,"households":71,"areaKm2":0.0628,"density":2180.2}},{"type":"Feature","geometry":{"type":"Polygon","coordinates":[[[-49.49209,-18.98019],[-49.49043,-18.97899],[-49.49183,-18.97702],[-49.49437,-18.97936],[-49.49264,-18.98001],[-49.49209,-18.98019]]]},"properties":{"codigo":"3134202068","name":"Jardim Estados Unidos","population":544,"households":228,"areaKm2":0.0729,"density":7466.7}},{"type":"Feature","geometry":{"type":"Polygon","coordinates":[[[-49.4945,-18.9889],[-49.48979,-18.99157],[-49.48776,-18.99412],[-49.4863,-18.99102],[-49.48547,-18.98928],[-49.49119,-18.98386],[-49.49204,-18.98515],[-49.49221,-18.98522],[-49.4945,-18.9889]]]},"properties":{"codigo":"3134202065","name":"Cidade Jardim","population":2343,"households":941,"areaKm2":0.496,"density":4723.9}},{"type":"Feature","geometry":{"type":"Polygon","coordinates":[[[-49.4552,-18.95705],[-49.45282,-18.95911],[-49.45196,-18.95853],[-49.45274,-18.95805],[-49.45405,-18.95591],[-49.4552,-18.95705]]]},"properties":{"codigo":"3134202030","name":"Cristina","population":233,"households":125,"areaKm2":0.0453,"density":5146.1}},{"type":"Feature","geometry":{"type":"Polygon","coordinates":[[[-49.44857,-18.96429],[-49.4496,-18.96332],[-49.44859,-18.96231],[-49.44998,-18.96132],[-49.45094,-18.96101],[-49.45126,-18.96099],[-49.45486,-18.95993],[-49.4563,-18.95953],[-49.45726,-18.95887],[-49.45933,-18.95893],[-49.45968,-18.95957],[-49.45965,-18.95966],[-49.45268,-18.96623],[-49.45161,-18.96724],[-49.44857,-18.96429]]]},"properties":{"codigo":"3134202028","name":"Ipiranga","population":1674,"households":740,"areaKm2":0.4931,"density":3394.9}},{"type":"Feature","geometry":{"type":"Polygon","coordinates":[[[-49.48473,-18.97971],[-49.48575,-18.98045],[-49.48482,-18.9816],[-49.48573,-18.98227],[-49.48386,-18.98288],[-49.48253,-18.98303],[-49.48067,-18.98382],[-49.48035,-18.98314],[-49.47881,-18.98327],[-49.47776,-18.98238],[-49.47731,-18.9831],[-49.47636,-18.9835],[-49.47607,-18.98289],[-49.4749,-18.98339],[-49.47428,-18.98205],[-49.47384,-18.98148],[-49.4735,-18.98063],[-49.4729,-18.98064],[-49.4723,-18.97942],[-49.47065,-18.97788],[-49.47016,-18.97768],[-49.46963,-18.97643],[-49.4704,-18.97658],[-49.47127,-18.97739],[-49.47278,-18.97788],[-49.47382,-18.97929],[-49.47477,-18.97975],[-49.479,-18.97996],[-49.47958,-18.97859],[-49.48041,-18.97921],[-49.48083,-18.97869],[-49.4828,-18.98013],[-49.48322,-18.97961],[-49.48422,-18.98034],[-49.48473,-18.97971]]]},"properties":{"codigo":"3134202005","name":"Marta Helena","population":2242,"households":1066,"areaKm2":0.5224,"density":4292.1}},{"type":"Feature","geometry":{"type":"Polygon","coordinates":[[[-49.47806,-18.96637],[-49.47812,-18.96659],[-49.47643,-18.96866],[-49.47697,-18.96908],[-49.47648,-18.96968],[-49.47553,-18.96897],[-49.47354,-18.9712],[-49.47243,-18.97255],[-49.47158,-18.97193],[-49.47215,-18.9712],[-49.47144,-18.97063],[-49.47231,-18.9696],[-49.47063,-18.96826],[-49.46956,-18.96813],[-49.46991,-18.9673],[-49.47068,-18.96693],[-49.47156,-18.96627],[-49.47231,-18.96592],[-49.47291,-18.96446],[-49.47314,-18.96556],[-49.47338,-18.96574],[-49.47468,-18.96546],[-49.4751,-18.96571],[-49.47746,-18.96603],[-49.47806,-18.96637]]]},"properties":{"codigo":"3134202010","name":"Novo Mundo","population":862,"households":388,"areaKm2":0.3456,"density":2494.5}},{"type":"Feature","geometry":{"type":"Polygon","coordinates":[[[-49.48972,-18.99827],[-49.48851,-18.99571],[-49.49189,-18.99445],[-49.49193,-18.99484],[-49.49312,-18.99471],[-49.49332,-18.99562],[-49.49402,-18.99555],[-49.49442,-18.99636],[-49.49341,-18.99642],[-49.49344,-18.99691],[-49.49191,-18.99704],[-49.49195,-18.99749],[-49.49077,-18.99758],[-49.48972,-18.99827]]]},"properties":{"codigo":"3134202066","name":"Marcondes Bernardes Ferreira","population":644,"households":248,"areaKm2":0.1396,"density":4611.7}},{"type":"Feature","geometry":{"type":"Polygon","coordinates":[[[-49.47958,-18.97859],[-49.479,-18.97996],[-49.47477,-18.97975],[-49.47382,-18.97929],[-49.47278,-18.97788],[-49.47127,-18.97739],[-49.4704,-18.97658],[-49.46963,-18.97643],[-49.46854,-18.97459],[-49.46751,-18.97399],[-49.46739,-18.97322],[-49.46806,-18.97231],[-49.46887,-18.97143],[-49.46909,-18.97038],[-49.4696,-18.97048],[-49.47158,-18.97193],[-49.47243,-18.97255],[-49.47585,-18.97505],[-49.47623,-18.97533],[-49.48029,-18.97569],[-49.48061,-18.97612],[-49.48012,-18.9773],[-49.47958,-18.97859]]]},"properties":{"codigo":"3134202007","name":"Platina","population":2761,"households":1372,"areaKm2":0.6874,"density":4016.8}},{"type":"Feature","geometry":{"type":"Polygon","coordinates":[[[-49.43831,-18.99736],[-49.43956,-18.99717],[-49.43987,-18.99906],[-49.43862,-18.99915],[-49.43526,-19.00027],[-49.43484,-18.99789],[-49.43831,-18.99736]]]},"properties":{"codigo":"3134202049","name":"Vila Esperança","population":62,"households":36,"areaKm2":0.114,"density":544.1}},{"type":"Feature","geometry":{"type":"Polygon","coordinates":[[[-49.45268,-18.96623],[-49.45965,-18.95966],[-49.45968,-18.95957],[-49.46042,-18.96129],[-49.46041,-18.96157],[-49.46272,-18.96238],[-49.46201,-18.96316],[-49.46094,-18.96372],[-49.46067,-18.9645],[-49.46046,-18.96649],[-49.46089,-18.96637],[-49.46072,-18.96737],[-49.46035,-18.96798],[-49.45936,-18.96887],[-49.45882,-18.96991],[-49.4567,-18.9713],[-49.45468,-18.97249],[-49.45228,-18.97316],[-49.45124,-18.97364],[-49.45112,-18.97326],[-49.45268,-18.96623]]]},"properties":{"codigo":"3134202027","name":"Progresso","population":2906,"households":1528,"areaKm2":0.8712,"density":3335.7}},{"type":"Feature","geometry":{"type":"Polygon","coordinates":[[[-49.48407,-18.96072],[-49.48275,-18.95692],[-49.48233,-18.95694],[-49.48231,-18.95599],[-49.48222,-18.95322],[-49.48907,-18.95425],[-49.49301,-18.9577],[-49.49991,-18.95912],[-49.49971,-18.96344],[-49.49754,-18.96352],[-49.49747,-18.96587],[-49.494,-18.966],[-49.49207,-18.9659],[-49.48877,-18.96602],[-49.48768,-18.96621],[-49.4876,-18.96214],[-49.48636,-18.96174],[-49.4865,-18.9612],[-49.48407,-18.96072]]]},"properties":{"codigo":"3134202044","name":"Distrito Industrial","population":68,"households":41,"areaKm2":1.6063,"density":42.3}},{"type":"Feature","geometry":{"type":"Polygon","coordinates":[[[-49.44125,-18.99139],[-49.44117,-18.99011],[-49.44165,-18.98894],[-49.44169,-18.98805],[-49.44399,-18.9886],[-49.44356,-18.99024],[-49.44492,-18.99056],[-49.44407,-18.99379],[-49.44476,-18.99395],[-49.44435,-18.99551],[-49.4414,-18.99481],[-49.44117,-18.99256],[-49.44125,-18.99139]]]},"properties":{"codigo":"3134202040","name":"Residencial Eldorado","population":1041,"households":417,"areaKm2":0.237,"density":4392.8}},{"type":"Feature","geometry":{"type":"Polygon","coordinates":[[[-49.44253,-18.97181],[-49.44144,-18.97148],[-49.43867,-18.97255],[-49.43705,-18.97022],[-49.44015,-18.96911],[-49.43966,-18.96828],[-49.43878,-18.96733],[-49.43765,-18.96677],[-49.43895,-18.96558],[-49.43831,-18.96486],[-49.43783,-18.96384],[-49.43765,-18.96292],[-49.43777,-18.96233],[-49.44026,-18.96053],[-49.44166,-18.96006],[-49.44346,-18.96033],[-49.44418,-18.96033],[-49.44557,-18.95998],[-49.44605,-18.96053],[-49.4477,-18.96011],[-49.44785,-18.95829],[-49.44857,-18.95824],[-49.45027,-18.95879],[-49.45042,-18.95904],[-49.45094,-18.96101],[-49.44998,-18.96132],[-49.44859,-18.96231],[-49.4496,-18.96332],[-49.44857,-18.96429],[-49.44795,-18.9637],[-49.4471,-18.96569],[-49.443,-18.96953],[-49.44253,-18.97181]]]},"properties":{"codigo":"3134202052","name":"Residencial Drummond","population":1656,"households":674,"areaKm2":1.1361,"density":1457.7}},{"type":"Feature","geometry":{"type":"Polygon","coordinates":[[[-49.46095,-18.94822],[-49.463,-18.94955],[-49.46403,-18.95018],[-49.46325,-18.95078],[-49.46347,-18.95157],[-49.46169,-18.95056],[-49.46036,-18.95262],[-49.45896,-18.95377],[-49.45662,-18.95583],[-49.45679,-18.95408],[-49.45687,-18.95371],[-49.45883,-18.94799],[-49.45915,-18.94765],[-49.46066,-18.94852],[-49.46095,-18.94822]]]},"properties":{"codigo":"3134202035","name":"Gardênia","population":655,"households":294,"areaKm2":0.2736,"density":2393.6}},{"type":"Feature","geometry":{"type":"Polygon","coordinates":[[[-49.45405,-18.95591],[-49.45274,-18.95805],[-49.45196,-18.95853],[-49.45282,-18.95911],[-49.45486,-18.95993],[-49.45126,-18.96099],[-49.45094,-18.96101],[-49.45042,-18.95904],[-49.45027,-18.95879],[-49.44968,-18.95791],[-49.4488,-18.95713],[-49.44949,-18.95602],[-49.44964,-18.95539],[-49.44951,-18.95463],[-49.45043,-18.95461],[-49.45295,-18.95534],[-49.45423,-18.9557],[-49.45405,-18.95591]]]},"properties":{"codigo":"3134202029","name":"Bela Vista","population":1085,"households":512,"areaKm2":0.2361,"density":4594.9}},{"type":"Feature","geometry":{"type":"Polygon","coordinates":[[[-49.44515,-18.99817],[-49.44474,-18.9997],[-49.44586,-19.00156],[-49.44326,-19.00257],[-49.44201,-18.99684],[-49.44228,-18.99669],[-49.44453,-18.99816],[-49.44515,-18.99817]]]},"properties":{"codigo":"3134202063","name":"Gilca Vilela Cancella","population":1020,"households":390,"areaKm2":0.1358,"density":7511.2}},{"type":"Feature","geometry":{"type":"Polygon","coordinates":[[[-49.48351,-19.00408],[-49.48269,-19.01001],[-49.48269,-19.0102],[-49.47983,-19.01126],[-49.47937,-19.01028],[-49.47904,-19.00877],[-49.47837,-19.00803],[-49.47827,-19.00762],[-49.47843,-19.00681],[-49.47833,-19.00558],[-49.47847,-19.00486],[-49.47814,-19.00479],[-49.47807,-19.00354],[-49.47782,-19.00237],[-49.47917,-19.0007],[-49.47879,-19.0004],[-49.48008,-18.99886],[-49.48244,-18.99896],[-49.48419,-18.99956],[-49.48351,-19.00408]]]},"properties":{"codigo":"3134202043","name":"Novo Tempo II","population":3665,"households":1522,"areaKm2":0.6528,"density":5613.9}},{"type":"Feature","geometry":{"type":"Polygon","coordinates":[[[-49.48564,-18.97397],[-49.48743,-18.97203],[-49.48807,-18.97164],[-49.48912,-18.97042],[-49.48948,-18.97085],[-49.48966,-18.97198],[-49.4901,-18.97295],[-49.49054,-18.97309],[-49.49191,-18.97512],[-49.49226,-18.9761],[-49.4907,-18.97633],[-49.4901,-18.97629],[-49.48856,-18.97695],[-49.48828,-18.97636],[-49.48779,-18.9761],[-49.48564,-18.97397]]]},"properties":{"codigo":"3134202056","name":"Jardim Europa","population":1194,"households":476,"areaKm2":0.2497,"density":4782.1}},{"type":"Feature","geometry":{"type":"Polygon","coordinates":[[[-49.43897,-18.97793],[-49.43632,-18.98128],[-49.43591,-18.98177],[-49.4332,-18.98058],[-49.43468,-18.97762],[-49.43668,-18.97782],[-49.43897,-18.97793]]]},"properties":{"codigo":"3134202054","name":"Condomínio Residencial Buritis","population":1005,"households":353,"areaKm2":0.1583,"density":6346.9}},{"type":"Feature","geometry":{"type":"Polygon","coordinates":[[[-49.44515,-18.99817],[-49.44764,-18.99808],[-49.44916,-18.99687],[-49.4497,-18.99698],[-49.44966,-18.99749],[-49.45083,-18.99733],[-49.45113,-18.99799],[-49.45137,-18.99852],[-49.44586,-19.00156],[-49.44474,-18.9997],[-49.44515,-18.99817]]]},"properties":{"codigo":"3134202070","name":"Residencial Ituiutaba","population":28,"households":14,"areaKm2":0.1811,"density":154.6}},{"type":"Feature","geometry":{"type":"Polygon","coordinates":[[[-49.46019,-18.99103],[-49.46082,-18.98867],[-49.4614,-18.98869],[-49.46564,-18.99203],[-49.46507,-18.99245],[-49.46084,-18.99173],[-49.46095,-18.99117],[-49.46019,-18.99103]]]},"properties":{"codigo":"3134202016","name":"Elândia","population":398,"households":187,"areaKm2":0.1169,"density":3405.4}},{"type":"Feature","geometry":{"type":"Polygon","coordinates":[[[-49.46403,-18.95018],[-49.46564,-18.95205],[-49.47054,-18.95838],[-49.46916,-18.95873],[-49.4689,-18.95915],[-49.46815,-18.95935],[-49.46725,-18.95869],[-49.4657,-18.95971],[-49.46496,-18.95855],[-49.464,-18.95755],[-49.46324,-18.95821],[-49.46085,-18.95573],[-49.46097,-18.9556],[-49.46347,-18.95157],[-49.46325,-18.95078],[-49.46403,-18.95018]]]},"properties":{"codigo":"3134202034","name":"São José","population":1144,"households":488,"areaKm2":0.5067,"density":2257.6}},{"type":"Feature","geometry":{"type":"Polygon","coordinates":[[[-49.44399,-18.9886],[-49.45013,-18.99007],[-49.45055,-18.98845],[-49.45404,-18.98929],[-49.45172,-18.99812],[-49.45113,-18.99799],[-49.45083,-18.99733],[-49.44966,-18.99749],[-49.4497,-18.99698],[-49.44916,-18.99687],[-49.44764,-18.99808],[-49.44515,-18.99817],[-49.44453,-18.99816],[-49.44228,-18.99669],[-49.44135,-18.99608],[-49.4414,-18.99481],[-49.44435,-18.99551],[-49.44476,-18.99395],[-49.44407,-18.99379],[-49.44492,-18.99056],[-49.44356,-18.99024],[-49.44399,-18.9886]]]},"properties":{"codigo":"3134202020","name":"Brasil","population":3463,"households":1492,"areaKm2":0.9277,"density":3732.7}},{"type":"Feature","geometry":{"type":"Polygon","coordinates":[[[-49.44656,-18.97668],[-49.44886,-18.97713],[-49.44866,-18.97805],[-49.44939,-18.9782],[-49.44922,-18.979],[-49.44956,-18.97928],[-49.4492,-18.97968],[-49.44852,-18.97952],[-49.44812,-18.98104],[-49.44476,-18.98025],[-49.44518,-18.97929],[-49.44556,-18.97882],[-49.44649,-18.97725],[-49.44656,-18.97668]]]},"properties":{"codigo":"3134202024","name":"Camargos","population":707,"households":325,"areaKm2":0.1447,"density":4885.8}},{"type":"Feature","geometry":{"type":"Polygon","coordinates":[[[-49.46564,-18.99203],[-49.46695,-18.99306],[-49.46722,-18.99327],[-49.46699,-18.99351],[-49.46641,-18.99588],[-49.46684,-18.99681],[-49.46301,-18.99853],[-49.46269,-18.99768],[-49.45824,-18.99843],[-49.46019,-18.99103],[-49.46095,-18.99117],[-49.46084,-18.99173],[-49.46507,-18.99245],[-49.46564,-18.99203]]]},"properties":{"codigo":"3134202017","name":"Santa Maria","population":1250,"households":590,"areaKm2":0.5182,"density":2412.2}},{"type":"Feature","geometry":{"type":"Polygon","coordinates":[[[-49.47149,-18.99732],[-49.47177,-18.99681],[-49.47236,-18.99584],[-49.47285,-18.99567],[-49.47309,-18.99518],[-49.47419,-18.99371],[-49.47647,-18.99413],[-49.47681,-18.99493],[-49.47669,-18.99533],[-49.47742,-18.99606],[-49.47744,-18.99685],[-49.47792,-18.99797],[-49.47795,-18.99885],[-49.47492,-18.9993],[-49.47457,-18.99949],[-49.47351,-19.00053],[-49.4714,-18.99744],[-49.47149,-18.99732]]]},"properties":{"codigo":"3134202042","name":"Novo Tempo I","population":1688,"households":747,"areaKm2":0.3151,"density":5357.3}},{"type":"Feature","geometry":{"type":"Polygon","coordinates":[[[-49.49264,-18.98001],[-49.49326,-18.9813],[-49.49138,-18.98305],[-49.48801,-18.98303],[-49.48523,-18.98421],[-49.48461,-18.98447],[-49.48386,-18.98288],[-49.48573,-18.98227],[-49.48748,-18.9817],[-49.49209,-18.98019],[-49.49264,-18.98001]]]},"properties":{"codigo":"3134202001","name":"Sol Nascente","population":1044,"households":483,"areaKm2":0.1958,"density":5331.1}},{"type":"Feature","geometry":{"type":"Polygon","coordinates":[[[-49.48386,-18.98288],[-49.48461,-18.98447],[-49.48344,-18.98497],[-49.48428,-18.98675],[-49.48546,-18.98926],[-49.48479,-18.98954],[-49.48306,-18.98588],[-49.4819,-18.98638],[-49.48131,-18.98514],[-49.48015,-18.98566],[-49.47969,-18.98513],[-49.47906,-18.9838],[-49.47693,-18.98472],[-49.47636,-18.9835],[-49.47731,-18.9831],[-49.47776,-18.98238],[-49.47881,-18.98327],[-49.48035,-18.98314],[-49.48067,-18.98382],[-49.48253,-18.98303],[-49.48386,-18.98288]]]},"properties":{"codigo":"3134202003","name":"Guimarães","population":732,"households":322,"areaKm2":0.2077,"density":3523.8}},{"type":"Feature","geometry":{"type":"Polygon","coordinates":[[[-49.48575,-18.98045],[-49.48748,-18.9817],[-49.48573,-18.98227],[-49.48482,-18.9816],[-49.48575,-18.98045]]]},"properties":{"codigo":"3134202051","name":"Residencial Primavera","population":185,"households":69,"areaKm2":0.0283,"density":6535}},{"type":"Feature","geometry":{"type":"Polygon","coordinates":[[[-49.46695,-18.99306],[-49.46788,-18.9887],[-49.46848,-18.98833],[-49.46808,-18.98782],[-49.46886,-18.98424],[-49.47384,-18.98521],[-49.47453,-18.98529],[-49.47483,-18.98728],[-49.47516,-18.98764],[-49.47505,-18.9882],[-49.47464,-18.98886],[-49.47498,-18.98941],[-49.47522,-18.99117],[-49.47516,-18.99203],[-49.47477,-18.99289],[-49.47419,-18.99371],[-49.47309,-18.99518],[-49.47285,-18.99567],[-49.47236,-18.99584],[-49.47177,-18.99681],[-49.46722,-18.99327],[-49.46695,-18.99306]]]},"properties":{"codigo":"3134202014","name":"Natal","population":3986,"households":1974,"areaKm2":0.8454,"density":4715}},{"type":"Feature","geometry":{"type":"Polygon","coordinates":[[[-49.45113,-18.99799],[-49.45172,-18.99812],[-49.4524,-18.99826],[-49.4526,-18.9975],[-49.45678,-18.99847],[-49.45657,-18.99927],[-49.45792,-18.99961],[-49.45771,-19.00042],[-49.45837,-19.00092],[-49.45486,-19.00304],[-49.45455,-19.00343],[-49.44948,-19.00571],[-49.44945,-19.00347],[-49.45178,-19.0021],[-49.45207,-19.00112],[-49.45199,-18.99948],[-49.45137,-18.99852],[-49.45113,-18.99799]]]},"properties":{"codigo":"3134202018","name":"Tupã","population":624,"households":431,"areaKm2":0.404,"density":1544.5}},{"type":"Feature","geometry":{"type":"Polygon","coordinates":[[[-49.4863,-18.99102],[-49.48188,-18.99542],[-49.48088,-18.99365],[-49.48296,-18.99158],[-49.48276,-18.99114],[-49.47922,-18.99267],[-49.47863,-18.9904],[-49.47794,-18.98807],[-49.47464,-18.98886],[-49.47505,-18.9882],[-49.47516,-18.98764],[-49.47483,-18.98728],[-49.47453,-18.98529],[-49.47436,-18.9841],[-49.47454,-18.98365],[-49.47437,-18.98281],[-49.47379,-18.98253],[-49.4729,-18.98064],[-49.4735,-18.98063],[-49.47384,-18.98148],[-49.47428,-18.98205],[-49.4749,-18.98339],[-49.47607,-18.98289],[-49.47636,-18.9835],[-49.47693,-18.98472],[-49.47906,-18.9838],[-49.47969,-18.98513],[-49.48015,-18.98566],[-49.48131,-18.98514],[-49.4819,-18.98638],[-49.48306,-18.98588],[-49.48479,-18.98954],[-49.48546,-18.98926],[-49.48547,-18.98928],[-49.4863,-18.99102]]]},"properties":{"codigo":"3134202004","name":"Pirapitinga","population":2941,"households":1355,"areaKm2":0.7728,"density":3805.5}},{"type":"Feature","geometry":{"type":"Polygon","coordinates":[[[-49.44956,-18.97928],[-49.45104,-18.98044],[-49.45085,-18.98171],[-49.45212,-18.98257],[-49.45103,-18.98381],[-49.4507,-18.985],[-49.4473,-18.98419],[-49.44685,-18.98587],[-49.44228,-18.98479],[-49.44245,-18.98433],[-49.44314,-18.98412],[-49.44387,-18.98286],[-49.44397,-18.98179],[-49.44424,-18.98152],[-49.44476,-18.98025],[-49.44812,-18.98104],[-49.44852,-18.97952],[-49.4492,-18.97968],[-49.44956,-18.97928]]]},"properties":{"codigo":"3134202023","name":"Jardim do Rosário","population":1859,"households":846,"areaKm2":0.417,"density":4457.7}},{"type":"Feature","geometry":{"type":"Polygon","coordinates":[[[-49.48523,-18.98421],[-49.48603,-18.98598],[-49.48428,-18.98675],[-49.48344,-18.98497],[-49.48461,-18.98447],[-49.48523,-18.98421]]]},"properties":{"codigo":"3134202002","name":"Ribeiro","population":47,"households":27,"areaKm2":0.044,"density":1068.7}},{"type":"Feature","geometry":{"type":"Polygon","coordinates":[[[-49.47354,-18.9712],[-49.47696,-18.97366],[-49.47585,-18.97505],[-49.47243,-18.97255],[-49.47354,-18.9712]]]},"properties":{"codigo":"3134202050","name":"Morada do Sol","population":457,"households":181,"areaKm2":0.0868,"density":5265.2}},{"type":"Feature","geometry":{"type":"Polygon","coordinates":[[[-49.47158,-18.97193],[-49.4696,-18.97048],[-49.46909,-18.97038],[-49.46966,-18.9685],[-49.46956,-18.96813],[-49.47063,-18.96826],[-49.47231,-18.9696],[-49.47144,-18.97063],[-49.47215,-18.9712],[-49.47158,-18.97193]]]},"properties":{"codigo":"3134202011","name":"Central","population":275,"households":127,"areaKm2":0.0797,"density":3451.5}},{"type":"Feature","geometry":{"type":"Polygon","coordinates":[[[-49.4817,-18.97761],[-49.4838,-18.975],[-49.4844,-18.97544],[-49.48564,-18.97397],[-49.48779,-18.9761],[-49.48828,-18.97636],[-49.48856,-18.97695],[-49.4901,-18.97629],[-49.4907,-18.97633],[-49.49226,-18.9761],[-49.49183,-18.97702],[-49.49043,-18.97899],[-49.49209,-18.98019],[-49.48748,-18.9817],[-49.48575,-18.98045],[-49.48473,-18.97971],[-49.48386,-18.97908],[-49.48406,-18.9781],[-49.4817,-18.97761]]]},"properties":{"codigo":"3134202039","name":"Lagoa Azul","population":2260,"households":962,"areaKm2":0.4851,"density":4658.7}},{"type":"Feature","geometry":{"type":"Polygon","coordinates":[[[-49.44706,-18.97609],[-49.44836,-18.97465],[-49.44985,-18.97397],[-49.45112,-18.97326],[-49.45124,-18.97364],[-49.45228,-18.97316],[-49.45468,-18.97249],[-49.4567,-18.9713],[-49.45882,-18.96991],[-49.45936,-18.96887],[-49.46035,-18.96798],[-49.46072,-18.96737],[-49.46089,-18.96637],[-49.46374,-18.9649],[-49.46378,-18.96497],[-49.46775,-18.96566],[-49.46788,-18.9662],[-49.46839,-18.96654],[-49.46896,-18.96642],[-49.46932,-18.96586],[-49.47156,-18.96627],[-49.47068,-18.96693],[-49.46991,-18.9673],[-49.46956,-18.96813],[-49.46966,-18.9685],[-49.46909,-18.97038],[-49.46887,-18.97143],[-49.46806,-18.97231],[-49.46739,-18.97322],[-49.46751,-18.97399],[-49.46854,-18.97459],[-49.46963,-18.97643],[-49.47016,-18.97768],[-49.47065,-18.97788],[-49.4723,-18.97942],[-49.4729,-18.98064],[-49.47379,-18.98253],[-49.47437,-18.98281],[-49.47454,-18.98365],[-49.47436,-18.9841],[-49.47453,-18.98529],[-49.47384,-18.98521],[-49.46886,-18.98424],[-49.4592,-18.98231],[-49.45805,-18.98204],[-49.45195,-18.98081],[-49.45131,-18.98065],[-49.45104,-18.98044],[-49.44956,-18.97928],[-49.44922,-18.979],[-49.44939,-18.9782],[-49.44866,-18.97805],[-49.44886,-18.97713],[-49.44656,-18.97668],[-49.44706,-18.97609]]]},"properties":{"codigo":"3134202057","name":"Centro","population":10545,"households":5788,"areaKm2":3.4132,"density":3089.5}},{"type":"Feature","geometry":{"type":"Polygon","coordinates":[[[-49.48564,-18.97397],[-49.4844,-18.97544],[-49.4838,-18.975],[-49.48842,-18.96928],[-49.48912,-18.97042],[-49.48807,-18.97164],[-49.48743,-18.97203],[-49.48564,-18.97397]]]},"properties":{"codigo":"3134202045","name":"Residencial Monte Verde","population":57,"households":28,"areaKm2":0.0809,"density":704.7}},{"type":"Feature","geometry":{"type":"Polygon","coordinates":[[[-49.42959,-18.98641],[-49.42907,-18.98731],[-49.43061,-18.98805],[-49.42982,-18.98862],[-49.42361,-18.98713],[-49.42529,-18.98419],[-49.4269,-18.98502],[-49.42736,-18.98422],[-49.42777,-18.984],[-49.4286,-18.98255],[-49.42951,-18.98302],[-49.43181,-18.97905],[-49.43248,-18.98028],[-49.42922,-18.98595],[-49.42959,-18.98641]]]},"properties":{"codigo":"3134202061","name":"Residencial Nadime Derze","population":2537,"households":979,"areaKm2":0.3159,"density":8030.5}},{"type":"Feature","geometry":{"type":"Polygon","coordinates":[[[-49.45662,-18.95583],[-49.45896,-18.95377],[-49.46036,-18.95262],[-49.46169,-18.95056],[-49.46347,-18.95157],[-49.46097,-18.9556],[-49.46085,-18.95573],[-49.45726,-18.95887],[-49.4563,-18.95953],[-49.45486,-18.95993],[-49.45282,-18.95911],[-49.4552,-18.95705],[-49.45662,-18.95583]]]},"properties":{"codigo":"3134202032","name":"Maria Vilela","population":1617,"households":684,"areaKm2":0.3495,"density":4626.1}},{"type":"Feature","geometry":{"type":"Polygon","coordinates":[[[-49.49519,-18.97146],[-49.49296,-18.97276],[-49.49163,-18.97005],[-49.49722,-18.96887],[-49.49745,-18.96995],[-49.49519,-18.97146]]]},"properties":{"codigo":"3134202067","name":"Jardim Europa II","population":1064,"households":401,"areaKm2":0.1325,"density":8027.8}},{"type":"Feature","geometry":{"type":"Polygon","coordinates":[[[-49.48012,-18.9773],[-49.48061,-18.97612],[-49.48029,-18.97569],[-49.47623,-18.97533],[-49.47585,-18.97505],[-49.47696,-18.97366],[-49.47354,-18.9712],[-49.47553,-18.96897],[-49.47648,-18.96968],[-49.47697,-18.96908],[-49.47643,-18.96866],[-49.47812,-18.96659],[-49.47806,-18.96637],[-49.47948,-18.96685],[-49.47992,-18.96682],[-49.48042,-18.96722],[-49.48128,-18.96717],[-49.48298,-18.96672],[-49.4845,-18.96693],[-49.48522,-18.96727],[-49.48595,-18.96737],[-49.48647,-18.96776],[-49.48621,-18.96806],[-49.48651,-18.96864],[-49.48708,-18.96894],[-49.48842,-18.96928],[-49.4838,-18.975],[-49.4817,-18.97761],[-49.48125,-18.97816],[-49.48012,-18.9773]]]},"properties":{"codigo":"3134202008","name":"Alvorada","population":2731,"households":1246,"areaKm2":1.0848,"density":2517.4}},{"type":"Feature","geometry":{"type":"Polygon","coordinates":[[[-49.45575,-18.98829],[-49.45665,-18.98818],[-49.45695,-18.9873],[-49.45775,-18.98794],[-49.4572,-18.99002],[-49.4554,-18.98963],[-49.45575,-18.98829]]]},"properties":{"codigo":"3134202021","name":"Carvalho","population":87,"households":37,"areaKm2":0.0427,"density":2038.3}},{"type":"Feature","geometry":{"type":"Polygon","coordinates":[[[-49.45726,-18.95887],[-49.46085,-18.95573],[-49.46324,-18.95821],[-49.464,-18.95755],[-49.46496,-18.95855],[-49.4657,-18.95971],[-49.46458,-18.96012],[-49.46349,-18.96073],[-49.46327,-18.961],[-49.4629,-18.96244],[-49.46272,-18.96238],[-49.46041,-18.96157],[-49.46042,-18.96129],[-49.45968,-18.95957],[-49.45933,-18.95893],[-49.45726,-18.95887]]]},"properties":{"codigo":"3134202033","name":"Santo Antônio","population":630,"households":260,"areaKm2":0.2938,"density":2144.6}},{"type":"Feature","geometry":{"type":"Polygon","coordinates":[[[-49.49204,-18.98515],[-49.49306,-18.98451],[-49.49319,-18.98473],[-49.4944,-18.98383],[-49.49531,-18.98524],[-49.49681,-18.98439],[-49.49734,-18.98521],[-49.49715,-18.98621],[-49.49745,-18.98687],[-49.49677,-18.98726],[-49.49695,-18.98756],[-49.49505,-18.98979],[-49.4945,-18.9889],[-49.49221,-18.98522],[-49.49204,-18.98515]]]},"properties":{"codigo":"3134202055","name":"Residencial Jardim Copacabana","population":1529,"households":601,"areaKm2":0.1943,"density":7868}},{"type":"Feature","geometry":{"type":"Polygon","coordinates":[[[-49.48088,-18.99365],[-49.4797,-18.99452],[-49.47922,-18.99267],[-49.48276,-18.99114],[-49.48296,-18.99158],[-49.48088,-18.99365]]]},"properties":{"codigo":"3134202047","name":"Jardim Jamila","population":438,"households":196,"areaKm2":0.058,"density":7550.9}},{"type":"Feature","geometry":{"type":"Polygon","coordinates":[[[-49.4614,-18.98869],[-49.45832,-18.98623],[-49.45814,-18.98604],[-49.45131,-18.98065],[-49.45195,-18.98081],[-49.45805,-18.98204],[-49.4592,-18.98231],[-49.46886,-18.98424],[-49.46808,-18.98782],[-49.46848,-18.98833],[-49.46788,-18.9887],[-49.46695,-18.99306],[-49.46564,-18.99203],[-49.4614,-18.98869]]]},"properties":{"codigo":"3134202059","name":"Setor Sul","population":3694,"households":1771,"areaKm2":0.9414,"density":3923.9}},{"type":"Feature","geometry":{"type":"Polygon","coordinates":[[[-49.44169,-18.98805],[-49.44165,-18.98748],[-49.44191,-18.98667],[-49.44182,-18.98618],[-49.44228,-18.98479],[-49.44685,-18.98587],[-49.4473,-18.98419],[-49.4507,-18.985],[-49.45103,-18.98381],[-49.45212,-18.98257],[-49.45085,-18.98171],[-49.45104,-18.98044],[-49.45131,-18.98065],[-49.45814,-18.98604],[-49.45832,-18.98623],[-49.45815,-18.98648],[-49.45775,-18.98794],[-49.45695,-18.9873],[-49.45665,-18.98818],[-49.45575,-18.98829],[-49.45455,-18.9885],[-49.45404,-18.98929],[-49.45055,-18.98845],[-49.45013,-18.99007],[-49.44399,-18.9886],[-49.44169,-18.98805]]]},"properties":{"codigo":"3134202022","name":"Junqueira","population":3810,"households":1780,"areaKm2":0.8527,"density":4468}},{"type":"Feature","geometry":{"type":"Polygon","coordinates":[[[-49.45567,-18.95335],[-49.45538,-18.95407],[-49.45423,-18.9557],[-49.45295,-18.95534],[-49.4529,-18.95525],[-49.45456,-18.94643],[-49.45534,-18.94598],[-49.45697,-18.94664],[-49.45584,-18.9527],[-49.45567,-18.95335]]]},"properties":{"codigo":"3134202038","name":"Setor Norte Industrial","population":41,"households":26,"areaKm2":0.2541,"density":161.3}},{"type":"Feature","geometry":{"type":"Polygon","coordinates":[[[-49.47156,-18.96627],[-49.46932,-18.96586],[-49.46896,-18.96642],[-49.46839,-18.96654],[-49.46788,-18.9662],[-49.46775,-18.96566],[-49.46378,-18.96497],[-49.46374,-18.9649],[-49.46089,-18.96637],[-49.46046,-18.96649],[-49.46067,-18.9645],[-49.46094,-18.96372],[-49.46201,-18.96316],[-49.46272,-18.96238],[-49.4629,-18.96244],[-49.46327,-18.961],[-49.46349,-18.96073],[-49.46458,-18.96012],[-49.4657,-18.95971],[-49.46725,-18.95869],[-49.46815,-18.95935],[-49.4689,-18.95915],[-49.46908,-18.95934],[-49.4709,-18.96023],[-49.47178,-18.96126],[-49.47242,-18.96185],[-49.47396,-18.96292],[-49.47386,-18.96351],[-49.47341,-18.96362],[-49.47291,-18.96446],[-49.47231,-18.96592],[-49.47156,-18.96627]]]},"properties":{"codigo":"3134202058","name":"Setor Norte","population":2609,"households":1219,"areaKm2":0.744,"density":3506.9}},{"type":"Feature","geometry":{"type":"Polygon","coordinates":[[[-49.45745,-18.94655],[-49.45832,-18.94482],[-49.46009,-18.94566],[-49.46113,-18.94435],[-49.46168,-18.94413],[-49.46231,-18.94424],[-49.463,-18.94955],[-49.46095,-18.94822],[-49.45886,-18.94714],[-49.45745,-18.94655]]]},"properties":{"codigo":"3134202036","name":"Paranaíba","population":141,"households":81,"areaKm2":0.1727,"density":816.3}},{"type":"Feature","geometry":{"type":"Polygon","coordinates":[[[-49.44131,-18.97703],[-49.44069,-18.97821],[-49.44059,-18.97897],[-49.44196,-18.98006],[-49.44131,-18.98207],[-49.44176,-18.98215],[-49.44151,-18.983],[-49.43675,-18.98161],[-49.43632,-18.98128],[-49.43897,-18.97793],[-49.44054,-18.97594],[-49.44168,-18.97633],[-49.44131,-18.97703]]]},"properties":{"codigo":"3134202062","name":"Residencial Portal dos Ipês","population":1410,"households":568,"areaKm2":0.2335,"density":6037.9}},{"type":"Feature","geometry":{"type":"Polygon","coordinates":[[[-49.47464,-18.98886],[-49.47794,-18.98807],[-49.47863,-18.9904],[-49.47579,-18.99134],[-49.47522,-18.99117],[-49.47498,-18.98941],[-49.47464,-18.98886]]]},"properties":{"codigo":"3134202046","name":"Mirim","population":76,"households":31,"areaKm2":0.0997,"density":762.2}},{"type":"Feature","geometry":{"type":"Polygon","coordinates":[[[-49.49442,-18.99636],[-49.49523,-18.99807],[-49.48983,-18.99849],[-49.48972,-18.99827],[-49.49077,-18.99758],[-49.49195,-18.99749],[-49.49191,-18.99704],[-49.49344,-18.99691],[-49.49341,-18.99642],[-49.49442,-18.99636]]]},"properties":{"codigo":"3134202048","name":"Lagoa Azul II","population":403,"households":194,"areaKm2":0.0687,"density":5863.9}},{"type":"Feature","geometry":{"type":"Polygon","coordinates":[[[-49.46019,-18.99103],[-49.45824,-18.99843],[-49.45792,-18.99961],[-49.45657,-18.99927],[-49.45678,-18.99847],[-49.4526,-18.9975],[-49.4524,-18.99826],[-49.45172,-18.99812],[-49.45404,-18.98929],[-49.45455,-18.9885],[-49.45575,-18.98829],[-49.4554,-18.98963],[-49.4572,-18.99002],[-49.45775,-18.98794],[-49.45815,-18.98648],[-49.45832,-18.98623],[-49.4614,-18.98869],[-49.46082,-18.98867],[-49.46019,-18.99103]]]},"properties":{"codigo":"3134202019","name":"Independência","population":1804,"households":925,"areaKm2":0.7775,"density":2320.2}},{"type":"Feature","geometry":{"type":"Polygon","coordinates":[[[-49.44716,-19.01163],[-49.44734,-19.00997],[-49.45659,-19.01084],[-49.45722,-19.01239],[-49.45915,-19.01781],[-49.45397,-19.01702],[-49.44989,-19.01777],[-49.44868,-19.01723],[-49.44802,-19.01515],[-49.44766,-19.01315],[-49.44711,-19.01195],[-49.44716,-19.01163]]]},"properties":{"codigo":"3134202069","name":"Nova Ituiutaba I","population":3591,"households":1867,"areaKm2":0.8145,"density":4408.7}},{"type":"Feature","geometry":{"type":"Polygon","coordinates":[[[-49.43632,-18.98128],[-49.43675,-18.98161],[-49.44151,-18.983],[-49.43995,-18.98776],[-49.43938,-18.98748],[-49.43903,-18.98903],[-49.43834,-18.98802],[-49.43293,-18.98641],[-49.43276,-18.98558],[-49.43591,-18.98177],[-49.43632,-18.98128]]]},"properties":{"codigo":"3134202053","name":"Residencial Canaã","population":3166,"households":1189,"areaKm2":0.4401,"density":7194.2}},{"type":"Feature","geometry":{"type":"Polygon","coordinates":[[[-49.48407,-18.96072],[-49.48483,-18.96289],[-49.48157,-18.96395],[-49.48172,-18.96495],[-49.47646,-18.96329],[-49.47481,-18.96253],[-49.47577,-18.96154],[-49.47416,-18.95993],[-49.47709,-18.95719],[-49.47769,-18.95716],[-49.47763,-18.95626],[-49.48231,-18.95599],[-49.48233,-18.95694],[-49.48275,-18.95692],[-49.48407,-18.96072]]]},"properties":{"codigo":"3134202009","name":"Satélite Andradina","population":1384,"households":659,"areaKm2":0.7182,"density":1926.9}}]}