{"type":"FeatureCollection","features":[{"type":"Feature","geometry":{"type":"Polygon","coordinates":[[[-44.16044,-19.29275],[-44.15986,-19.29474],[-44.15748,-19.29754],[-44.15707,-19.29841],[-44.15381,-19.29955],[-44.15115,-19.30175],[-44.14899,-19.30281],[-44.14755,-19.30304],[-44.14786,-19.30124],[-44.14692,-19.30097],[-44.1459,-19.3],[-44.14472,-19.29968],[-44.14213,-19.30076],[-44.13952,-19.29947],[-44.13977,-19.29832],[-44.1387,-19.29836],[-44.138,-19.29765],[-44.13953,-19.29715],[-44.13902,-19.29655],[-44.13701,-19.29646],[-44.13593,-19.29536],[-44.1345,-19.29487],[-44.13523,-19.29393],[-44.13489,-19.29327],[-44.1339,-19.2932],[-44.13327,-19.29219],[-44.13194,-19.2928],[-44.13095,-19.29269],[-44.13018,-19.29204],[-44.12861,-19.29188],[-44.12699,-19.29087],[-44.12501,-19.29156],[-44.12402,-19.29162],[-44.12204,-19.29098],[-44.12013,-19.29081],[-44.11776,-19.29178],[-44.11679,-19.29336],[-44.11679,-19.29437],[-44.11621,-19.2951],[-44.11707,-19.2982],[-44.11637,-19.29955],[-44.1176,-19.30075],[-44.11888,-19.30114],[-44.11852,-19.30203],[-44.11659,-19.30173],[-44.11434,-19.29992],[-44.11294,-19.29842],[-44.1107,-19.29743],[-44.10997,-19.29612],[-44.11065,-19.29546],[-44.11017,-19.29463],[-44.1092,-19.29429],[-44.10845,-19.29305],[-44.10758,-19.29341],[-44.10662,-19.293],[-44.10722,-19.2922],[-44.1059,-19.29082],[-44.10597,-19.28985],[-44.10503,-19.28981],[-44.10486,-19.28841],[-44.10414,-19.2873],[-44.10501,-19.28705],[-44.10552,-19.2863],[-44.10339,-19.28409],[-44.1041,-19.28292],[-44.10325,-19.28235],[-44.10349,-19.28102],[-44.10236,-19.27945],[-44.10149,-19.27904],[-44.1012,-19.27819],[-44.10026,-19.27768],[-44.10038,-19.27684],[-44.09954,-19.27638],[-44.10034,-19.27525],[-44.10005,-19.27479],[-44.09739,-19.27376],[-44.09679,-19.27321],[-44.09701,-19.27236],[-44.09522,-19.2719],[-44.09379,-19.2726],[-44.09258,-19.27419],[-44.09133,-19.2735],[-44.09002,-19.27414],[-44.09012,-19.27281],[-44.08966,-19.27189],[-44.08771,-19.27237],[-44.0855,-19.27424],[-44.08456,-19.27376],[-44.08311,-19.27387],[-44.08195,-19.27532],[-44.08096,-19.27525],[-44.08062,-19.27667],[-44.07919,-19.27653],[-44.07813,-19.27699],[-44.07709,-19.27618],[-44.076,-19.27613],[-44.07552,-19.27421],[-44.07379,-19.27332],[-44.07266,-19.27319],[-44.07229,-19.27241],[-44.07313,-19.27082],[-44.07282,-19.26982],[-44.072,-19.26932],[-44.07082,-19.26943],[-44.07073,-19.27029],[-44.06904,-19.2707],[-44.06843,-19.26957],[-44.06722,-19.27013],[-44.06598,-19.26997],[-44.06577,-19.26894],[-44.06494,-19.26905],[-44.0644,-19.26708],[-44.0636,-19.26664],[-44.0624,-19.26709],[-44.0613,-19.26517],[-44.05946,-19.26481],[-44.05869,-19.26391],[-44.05868,-19.2626],[-44.05779,-19.26167],[-44.0566,-19.26194],[-44.05616,-19.26081],[-44.05474,-19.26095],[-44.055,-19.25981],[-44.05453,-19.25903],[-44.05353,-19.25929],[-44.05241,-19.25857],[-44.05061,-19.25937],[-44.04793,-19.25867],[-44.04704,-19.25977],[-44.04791,-19.26085],[-44.04757,-19.2622],[-44.04561,-19.26245],[-44.04503,-19.26307],[-44.04546,-19.26482],[-44.0443,-19.26644],[-44.04352,-19.26697],[-44.04357,-19.26894],[-44.04173,-19.27094],[-44.04163,-19.27146],[-44.04223,-19.27328],[-44.04165,-19.27454],[-44.04082,-19.27504],[-44.03925,-19.2769],[-44.03884,-19.28594],[-44.0393,-19.28975],[-44.0392,-19.29076],[-44.0383,-19.29211],[-44.03699,-19.29273],[-44.03588,-19.29227],[-44.03376,-19.29029],[-44.03099,-19.28657],[-44.02945,-19.28549],[-44.02812,-19.28411],[-44.02682,-19.28335],[-44.02602,-19.28188],[-44.02527,-19.2811],[-44.02472,-19.27976],[-44.02344,-19.27829],[-44.02267,-19.27703],[-44.02178,-19.2774],[-44.01965,-19.27647],[-44.01687,-19.27902],[-44.01583,-19.28078],[-44.01442,-19.28144],[-44.01174,-19.28123],[-44.00903,-19.28178],[-44.0078,-19.28255],[-44.00681,-19.28264],[-44.00329,-19.28058],[-44.00791,-19.27689],[-44.00837,-19.27602],[-44.00806,-19.27512],[-44.00724,-19.27455],[-44.00403,-19.27378],[-44.00248,-19.27385],[-43.99963,-19.27514],[-43.99758,-19.27537],[-43.99661,-19.27495],[-43.99562,-19.2736],[-43.9954,-19.27082],[-43.99492,-19.26845],[-43.99309,-19.26551],[-43.99183,-19.26445],[-43.99064,-19.26426],[-43.98871,-19.26458],[-43.98784,-19.26509],[-43.98655,-19.26656],[-43.98484,-19.2664],[-43.9829,-19.2652],[-43.98092,-19.26325],[-43.97742,-19.26138],[-43.97681,-19.26058],[-43.97667,-19.25954],[-43.97863,-19.25695],[-43.97829,-19.25612],[-43.9774,-19.25624],[-43.9764,-19.25731],[-43.975,-19.25718],[-43.97367,-19.25632],[-43.97275,-19.25738],[-43.97053,-19.25841],[-43.9682,-19.25758],[-43.96765,-19.25678],[-43.96608,-19.2557],[-43.96467,-19.25586],[-43.96279,-19.25537],[-43.96156,-19.25468],[-43.95986,-19.25583],[-43.958,-19.25638],[-43.95655,-19.25619],[-43.95527,-19.25543],[-43.95389,-19.25504],[-43.95121,-19.25297],[-43.94685,-19.25138],[-43.94398,-19.25154],[-43.94069,-19.24997],[-43.9388,-19.24818],[-43.93837,-19.24526],[-43.93866,-19.2443],[-43.93867,-19.24184],[-43.93773,-19.24007],[-43.93637,-19.23929],[-43.93333,-19.23855],[-43.93101,-19.23749],[-43.93026,-19.23671],[-43.92852,-19.23556],[-43.92284,-19.23254],[-43.92074,-19.23111],[-43.9166,-19.22948],[-43.91322,-19.22858],[-43.90986,-19.22703],[-43.90628,-19.22645],[-43.90442,-19.2256],[-43.90372,-19.22498],[-43.90307,-19.22358],[-43.90197,-19.2191],[-43.90141,-19.21772],[-43.89902,-19.21393],[-43.89668,-19.2131],[-43.89312,-19.21456],[-43.89104,-19.21614],[-43.88978,-19.218],[-43.88888,-19.21853],[-43.88784,-19.21844],[-43.88516,-19.21696],[-43.88241,-19.21739],[-43.88105,-19.21868],[-43.87931,-19.21966],[-43.87836,-19.21968],[-43.8767,-19.21881],[-43.87525,-19.21892],[-43.87283,-19.22009],[-43.87142,-19.22023],[-43.8705,-19.21993],[-43.86838,-19.21838],[-43.86632,-19.21762],[-43.86548,-19.21707],[-43.86241,-19.21679],[-43.86011,-19.21552],[-43.85876,-19.214],[-43.85753,-19.21318],[-43.85603,-19.21269],[-43.85357,-19.2128],[-43.85151,-19.21257],[-43.84902,-19.21332],[-43.84655,-19.21442],[-43.84466,-19.21607],[-43.84374,-19.21589],[-43.84304,-19.2152],[-43.84281,-19.21223],[-43.84191,-19.21111],[-43.83902,-19.20883],[-43.83699,-19.2062],[-43.83519,-19.20142],[-43.83553,-19.19904],[-43.83561,-19.19401],[-43.83796,-19.19224],[-43.83888,-19.18907],[-43.84014,-19.18749],[-43.83957,-19.18577],[-43.83735,-19.18367],[-43.83665,-19.1825],[-43.83634,-19.18096],[-43.8367,-19.17862],[-43.83726,-19.1768],[-43.8371,-19.1749],[-43.83783,-19.17361],[-43.83834,-19.17184],[-43.83795,-19.17042],[-43.83677,-19.1689],[-43.83675,-19.168],[-43.83828,-19.16548],[-43.83874,-19.16408],[-43.83881,-19.16268],[-43.8385,-19.16054],[-43.83892,-19.15916],[-43.84037,-19.15788],[-43.84264,-19.15667],[-43.84334,-19.156],[-43.8449,-19.15362],[-43.8463,-19.15226],[-43.84802,-19.15135],[-43.84911,-19.14976],[-43.84957,-19.1479],[-43.84962,-19.14501],[-43.85017,-19.14398],[-43.85079,-19.14474],[-43.85267,-19.14511],[-43.85359,-19.14463],[-43.85436,-19.14341],[-43.85647,-19.14325],[-43.85789,-19.14466],[-43.85927,-19.14528],[-43.86043,-19.14519],[-43.86219,-19.14427],[-43.86415,-19.14411],[-43.86618,-19.1446],[-43.86814,-19.1443],[-43.86906,-19.14458],[-43.87003,-19.1435],[-43.87291,-19.14165],[-43.87453,-19.14114],[-43.87545,-19.1399],[-43.8767,-19.13903],[-43.87958,-19.13996],[-43.8811,-19.13968],[-43.88219,-19.13991],[-43.88504,-19.14339],[-43.886,-19.14362],[-43.88743,-19.1447],[-43.88873,-19.1433],[-43.88965,-19.14325],[-43.8913,-19.14209],[-43.89212,-19.14098],[-43.89398,-19.14039],[-43.89457,-19.13956],[-43.89647,-19.13957],[-43.89759,-19.14044],[-43.89853,-19.14063],[-43.89971,-19.13994],[-43.90066,-19.14003],[-43.90206,-19.13898],[-43.90378,-19.13813],[-43.90441,-19.13687],[-43.90571,-19.13547],[-43.90743,-19.13448],[-43.90842,-19.1343],[-43.90925,-19.13163],[-43.91012,-19.13058],[-43.91104,-19.13099],[-43.9114,-19.13021],[-43.91355,-19.12868],[-43.9145,-19.12886],[-43.9151,-19.12822],[-43.91749,-19.12792],[-43.9188,-19.1273],[-43.91994,-19.12473],[-43.92141,-19.12451],[-43.92364,-19.12508],[-43.92405,-19.12593],[-43.92535,-19.12554],[-43.92721,-19.12587],[-43.92825,-19.12481],[-43.92946,-19.12412],[-43.93086,-19.12403],[-43.93217,-19.12454],[-43.93275,-19.12528],[-43.93391,-19.12512],[-43.93541,-19.12558],[-43.93676,-19.12733],[-43.93789,-19.12751],[-43.93929,-19.12816],[-43.93961,-19.12905],[-43.94135,-19.13002],[-43.94127,-19.13094],[-43.94265,-19.13078],[-43.94345,-19.13184],[-43.94449,-19.13168],[-43.94635,-19.13207],[-43.94729,-19.132],[-43.94881,-19.13389],[-43.94973,-19.13451],[-43.95011,-19.13538],[-43.95258,-19.13616],[-43.95465,-19.13729],[-43.95528,-19.13885],[-43.95729,-19.13973],[-43.95772,-19.1406],[-43.96064,-19.14111],[-43.96475,-19.14307],[-43.96543,-19.14484],[-43.96646,-19.14573],[-43.9668,-19.14663],[-43.96895,-19.14773],[-43.97142,-19.14514],[-43.97292,-19.14498],[-43.97326,-19.14409],[-43.97294,-19.14324],[-43.97374,-19.14211],[-43.97471,-19.14179],[-43.97529,-19.14057],[-43.97667,-19.14002],[-43.97621,-19.13862],[-43.9766,-19.13731],[-43.97757,-19.13702],[-43.97788,-19.13621],[-43.97972,-19.13624],[-43.98003,-19.1349],[-43.97996,-19.13302],[-43.98081,-19.13261],[-43.98223,-19.13376],[-43.98277,-19.13284],[-43.98306,-19.13144],[-43.98405,-19.12953],[-43.9855,-19.12836],[-43.9864,-19.12864],[-43.98809,-19.12788],[-43.98816,-19.12712],[-43.99012,-19.12572],[-43.99085,-19.12453],[-43.9922,-19.12391],[-43.9952,-19.12189],[-43.99585,-19.12056],[-43.99544,-19.11973],[-43.99455,-19.11936],[-43.99368,-19.11824],[-43.99351,-19.11707],[-43.99378,-19.11562],[-43.99451,-19.11498],[-43.99547,-19.11332],[-43.99504,-19.11247],[-43.99707,-19.11073],[-43.99761,-19.10726],[-43.99893,-19.10689],[-43.99946,-19.10519],[-44.00014,-19.1045],[-44.00156,-19.1045],[-44.00273,-19.10299],[-44.00374,-19.10272],[-44.00393,-19.1018],[-44.00336,-19.09937],[-44.0037,-19.09843],[-44.0052,-19.09712],[-44.00489,-19.09579],[-44.00622,-19.09435],[-44.00757,-19.09453],[-44.01013,-19.09321],[-44.00917,-19.09192],[-44.01016,-19.08903],[-44.01157,-19.08867],[-44.01058,-19.08768],[-44.0114,-19.08658],[-44.01119,-19.08555],[-44.01034,-19.08405],[-44.01109,-19.08353],[-44.01199,-19.08396],[-44.01385,-19.08243],[-44.01665,-19.08156],[-44.018,-19.08253],[-44.01889,-19.08216],[-44.01923,-19.08347],[-44.02072,-19.08538],[-44.02301,-19.0846],[-44.0241,-19.08511],[-44.02451,-19.08697],[-44.02533,-19.08738],[-44.02617,-19.08688],[-44.02808,-19.08739],[-44.02972,-19.08836],[-44.02976,-19.08932],[-44.03068,-19.08948],[-44.03196,-19.09088],[-44.03266,-19.08923],[-44.03338,-19.08855],[-44.03298,-19.08772],[-44.03327,-19.08676],[-44.03414,-19.08724],[-44.03542,-19.08658],[-44.03624,-19.08401],[-44.0374,-19.08353],[-44.03765,-19.08162],[-44.03859,-19.0813],[-44.03905,-19.07995],[-44.04119,-19.07895],[-44.04262,-19.0795],[-44.04551,-19.08214],[-44.04766,-19.08474],[-44.04787,-19.08584],[-44.04719,-19.08793],[-44.04518,-19.09052],[-44.04397,-19.09246],[-44.04315,-19.09311],[-44.0403,-19.09445],[-44.03856,-19.09496],[-44.03622,-19.09537],[-44.03477,-19.09607],[-44.03327,-19.09749],[-44.03189,-19.09818],[-44.03039,-19.09928],[-44.02742,-19.10283],[-44.02643,-19.10418],[-44.02623,-19.10634],[-44.0269,-19.10868],[-44.02726,-19.11068],[-44.02728,-19.11219],[-44.02687,-19.11325],[-44.0264,-19.11561],[-44.02659,-19.1168],[-44.02563,-19.1185],[-44.0241,-19.11985],[-44.02195,-19.12093],[-44.02171,-19.12184],[-44.02284,-19.12279],[-44.02615,-19.123],[-44.02941,-19.12245],[-44.03127,-19.12232],[-44.03298,-19.12248],[-44.03593,-19.12306],[-44.03815,-19.1232],[-44.04153,-19.12309],[-44.04261,-19.12287],[-44.04447,-19.12179],[-44.04576,-19.12016],[-44.04749,-19.11985],[-44.05012,-19.12075],[-44.05198,-19.12063],[-44.05694,-19.11855],[-44.05942,-19.11785],[-44.06237,-19.11792],[-44.06444,-19.11889],[-44.06562,-19.12013],[-44.06649,-19.12364],[-44.06641,-19.12614],[-44.06532,-19.13087],[-44.06437,-19.13142],[-44.05894,-19.13212],[-44.05812,-19.13255],[-44.05809,-19.13365],[-44.05862,-19.13567],[-44.05818,-19.13652],[-44.05599,-19.13705],[-44.05466,-19.13787],[-44.05461,-19.13879],[-44.05557,-19.14019],[-44.05661,-19.14079],[-44.05933,-19.14091],[-44.06071,-19.1402],[-44.06182,-19.13882],[-44.06352,-19.1372],[-44.06596,-19.13525],[-44.06753,-19.13507],[-44.06948,-19.13574],[-44.07257,-19.13611],[-44.07424,-19.13648],[-44.07487,-19.13726],[-44.07486,-19.13843],[-44.07411,-19.13965],[-44.07269,-19.14038],[-44.06897,-19.14065],[-44.06832,-19.14083],[-44.06496,-19.14275],[-44.06213,-19.14481],[-44.05952,-19.14639],[-44.05824,-19.14802],[-44.05787,-19.14956],[-44.05542,-19.15336],[-44.05496,-19.1546],[-44.05496,-19.15669],[-44.05568,-19.15875],[-44.05698,-19.16094],[-44.05821,-19.16153],[-44.05944,-19.16154],[-44.06319,-19.15966],[-44.06669,-19.15866],[-44.06906,-19.15914],[-44.07017,-19.16011],[-44.0728,-19.16179],[-44.07456,-19.16216],[-44.07668,-19.1614],[-44.07857,-19.16145],[-44.08057,-19.16262],[-44.08213,-19.16497],[-44.08327,-19.16596],[-44.08418,-19.16722],[-44.08575,-19.1705],[-44.08736,-19.17204],[-44.08917,-19.17315],[-44.09072,-19.17363],[-44.092,-19.17496],[-44.09202,-19.17593],[-44.09269,-19.17666],[-44.09407,-19.17678],[-44.09489,-19.1777],[-44.09583,-19.1766],[-44.09706,-19.17724],[-44.09851,-19.17752],[-44.09786,-19.17963],[-44.09645,-19.18002],[-44.09703,-19.18075],[-44.0958,-19.18224],[-44.09459,-19.18291],[-44.09415,-19.18378],[-44.09519,-19.18527],[-44.09403,-19.18607],[-44.09485,-19.18688],[-44.09514,-19.18775],[-44.09422,-19.18807],[-44.09432,-19.18897],[-44.09328,-19.19],[-44.09381,-19.19039],[-44.09424,-19.19165],[-44.09375,-19.19293],[-44.09477,-19.19296],[-44.09539,-19.19365],[-44.09532,-19.19459],[-44.09387,-19.1944],[-44.0936,-19.19566],[-44.09213,-19.19777],[-44.09102,-19.19697],[-44.09097,-19.19814],[-44.08959,-19.19853],[-44.08995,-19.2],[-44.08816,-19.20093],[-44.08828,-19.20169],[-44.08915,-19.20206],[-44.08968,-19.20376],[-44.09064,-19.20397],[-44.09079,-19.20468],[-44.08989,-19.20511],[-44.09105,-19.20645],[-44.09207,-19.20645],[-44.09235,-19.20782],[-44.09325,-19.20785],[-44.09421,-19.20707],[-44.09525,-19.20872],[-44.09462,-19.20996],[-44.09546,-19.21038],[-44.0966,-19.21155],[-44.0972,-19.21354],[-44.09616,-19.21396],[-44.09652,-19.21524],[-44.09797,-19.21527],[-44.0978,-19.21598],[-44.09847,-19.21731],[-44.09995,-19.2174],[-44.10062,-19.21802],[-44.10301,-19.21881],[-44.10217,-19.21982],[-44.10228,-19.22071],[-44.1017,-19.22142],[-44.10228,-19.22209],[-44.10216,-19.22298],[-44.10349,-19.22298],[-44.10477,-19.22351],[-44.10535,-19.22455],[-44.10805,-19.22336],[-44.11018,-19.22359],[-44.11112,-19.22453],[-44.1124,-19.22506],[-44.113,-19.22628],[-44.11402,-19.22601],[-44.11406,-19.22695],[-44.11336,-19.22793],[-44.11474,-19.22839],[-44.11503,-19.22931],[-44.11754,-19.22925],[-44.11773,-19.23032],[-44.12092,-19.23028],[-44.12234,-19.23065],[-44.12379,-19.23052],[-44.12437,-19.23127],[-44.12391,-19.23217],[-44.12483,-19.23325],[-44.12519,-19.23453],[-44.12669,-19.23499],[-44.12726,-19.23633],[-44.12666,-19.23701],[-44.12666,-19.23795],[-44.12818,-19.23823],[-44.12905,-19.2378],[-44.13139,-19.23819],[-44.13245,-19.23899],[-44.13197,-19.23982],[-44.13231,-19.24053],[-44.1333,-19.24062],[-44.13334,-19.24241],[-44.13399,-19.24359],[-44.13585,-19.24334],[-44.13656,-19.24276],[-44.13834,-19.24353],[-44.13834,-19.24531],[-44.13962,-19.24598],[-44.13971,-19.24738],[-44.14061,-19.24772],[-44.14049,-19.24901],[-44.14184,-19.24929],[-44.14413,-19.24885],[-44.14546,-19.24961],[-44.14684,-19.2512],[-44.14592,-19.25211],[-44.14768,-19.25331],[-44.1479,-19.25416],[-44.14606,-19.25477],[-44.14579,-19.25597],[-44.14765,-19.25751],[-44.1477,-19.259],[-44.14883,-19.25916],[-44.14939,-19.2584],[-44.15168,-19.25889],[-44.1511,-19.2601],[-44.15327,-19.26295],[-44.15334,-19.26573],[-44.15366,-19.2666],[-44.15525,-19.26917],[-44.15565,-19.272],[-44.15701,-19.27383],[-44.15746,-19.27526],[-44.15736,-19.27624],[-44.15857,-19.2795],[-44.15908,-19.28033],[-44.15977,-19.28262],[-44.16021,-19.28481],[-44.16177,-19.28761],[-44.16143,-19.28988],[-44.16044,-19.29275]]]},"properties":{"codigo":"313570405","name":"Jequitibá","population":5377,"households":3799,"areaKm2":392.3849,"density":13.7}},{"type":"Feature","geometry":{"type":"Polygon","coordinates":[[[-44.00329,-19.28058],[-44.00681,-19.28264],[-44.0078,-19.28255],[-44.00903,-19.28178],[-44.01174,-19.28123],[-44.01442,-19.28144],[-44.01583,-19.28078],[-44.01687,-19.27902],[-44.01965,-19.27647],[-44.02178,-19.2774],[-44.02267,-19.27703],[-44.02344,-19.27829],[-44.02472,-19.27976],[-44.02527,-19.2811],[-44.02602,-19.28188],[-44.02682,-19.28335],[-44.02812,-19.28411],[-44.02945,-19.28549],[-44.03099,-19.28657],[-44.03376,-19.29029],[-44.03588,-19.29227],[-44.03699,-19.29273],[-44.0383,-19.29211],[-44.0392,-19.29076],[-44.0393,-19.28975],[-44.03884,-19.28594],[-44.03925,-19.2769],[-44.04082,-19.27504],[-44.04165,-19.27454],[-44.04223,-19.27328],[-44.04163,-19.27146],[-44.04173,-19.27094],[-44.04357,-19.26894],[-44.04352,-19.26697],[-44.0443,-19.26644],[-44.04546,-19.26482],[-44.04503,-19.26307],[-44.04561,-19.26245],[-44.04757,-19.2622],[-44.04791,-19.26085],[-44.04704,-19.25977],[-44.04793,-19.25867],[-44.05061,-19.25937],[-44.05241,-19.25857],[-44.05353,-19.25929],[-44.05453,-19.25903],[-44.055,-19.25981],[-44.05474,-19.26095],[-44.05616,-19.26081],[-44.0566,-19.26194],[-44.05779,-19.26167],[-44.05868,-19.2626],[-44.05869,-19.26391],[-44.05946,-19.26481],[-44.0613,-19.26517],[-44.0624,-19.26709],[-44.0636,-19.26664],[-44.0644,-19.26708],[-44.06494,-19.26905],[-44.06577,-19.26894],[-44.06598,-19.26997],[-44.06722,-19.27013],[-44.06843,-19.26957],[-44.06904,-19.2707],[-44.07073,-19.27029],[-44.07082,-19.26943],[-44.072,-19.26932],[-44.07282,-19.26982],[-44.07313,-19.27082],[-44.07229,-19.27241],[-44.07266,-19.27319],[-44.07379,-19.27332],[-44.07552,-19.27421],[-44.076,-19.27613],[-44.07528,-19.27629],[-44.07346,-19.27803],[-44.0722,-19.28049],[-44.07157,-19.28129],[-44.07048,-19.28163],[-44.06915,-19.28255],[-44.06809,-19.28415],[-44.06758,-19.28686],[-44.06757,-19.28858],[-44.06856,-19.29099],[-44.07073,-19.29249],[-44.07187,-19.29354],[-44.0728,-19.29527],[-44.07282,-19.29885],[-44.07115,-19.30263],[-44.06979,-19.30511],[-44.0687,-19.30816],[-44.06829,-19.30873],[-44.06533,-19.31072],[-44.06502,-19.31173],[-44.06547,-19.31283],[-44.06554,-19.31575],[-44.06535,-19.31664],[-44.06382,-19.31785],[-44.06307,-19.32045],[-44.06302,-19.3223],[-44.06236,-19.32366],[-44.061,-19.32528],[-44.0604,-19.32602],[-44.05834,-19.33051],[-44.05475,-19.3331],[-44.05381,-19.33323],[-44.05262,-19.33415],[-44.0496,-19.33398],[-44.04695,-19.33364],[-44.04453,-19.33443],[-44.04361,-19.33443],[-44.04182,-19.33574],[-44.04039,-19.33583],[-44.03959,-19.3353],[-44.03754,-19.33479],[-44.03679,-19.33412],[-44.03539,-19.33384],[-44.03459,-19.33334],[-44.03285,-19.3329],[-44.03133,-19.33287],[-44.0292,-19.33392],[-44.02707,-19.33399],[-44.02611,-19.33374],[-44.0243,-19.33403],[-44.02357,-19.3349],[-44.02175,-19.33611],[-44.02066,-19.33646],[-44.01914,-19.33519],[-44.01782,-19.33452],[-44.01472,-19.33426],[-44.01291,-19.33481],[-44.01008,-19.33499],[-44.00955,-19.33568],[-44.00858,-19.33563],[-44.00634,-19.33336],[-44.00523,-19.33195],[-44.00421,-19.33197],[-44.00247,-19.33346],[-43.99901,-19.33529],[-43.99716,-19.33511],[-43.99471,-19.33516],[-43.99183,-19.3358],[-43.98965,-19.33658],[-43.98864,-19.33632],[-43.98777,-19.33504],[-43.98767,-19.33409],[-43.98855,-19.33226],[-43.99014,-19.33063],[-43.99138,-19.3298],[-43.99724,-19.3279],[-43.99825,-19.32684],[-43.99809,-19.32586],[-43.99668,-19.32581],[-43.99586,-19.32629],[-43.99477,-19.32631],[-43.99209,-19.32422],[-43.99011,-19.31951],[-43.98984,-19.31717],[-43.992,-19.31221],[-43.99244,-19.30989],[-43.99159,-19.30796],[-43.99155,-19.30708],[-43.98969,-19.30476],[-43.98872,-19.30428],[-43.98727,-19.3043],[-43.98589,-19.30568],[-43.98521,-19.30813],[-43.98382,-19.30983],[-43.98157,-19.31068],[-43.97908,-19.31056],[-43.97591,-19.31091],[-43.97359,-19.30987],[-43.97282,-19.30897],[-43.9728,-19.305],[-43.97321,-19.30293],[-43.97389,-19.30142],[-43.97512,-19.30073],[-43.97871,-19.29974],[-43.98062,-19.30021],[-43.98255,-19.30168],[-43.98357,-19.30207],[-43.98502,-19.30191],[-43.98645,-19.30046],[-43.98737,-19.29748],[-43.988,-19.29679],[-43.98914,-19.29635],[-43.99088,-19.29633],[-43.99388,-19.29744],[-43.99473,-19.29707],[-43.99528,-19.29574],[-43.99482,-19.29496],[-43.99454,-19.29307],[-43.99306,-19.29151],[-43.99195,-19.28965],[-43.99227,-19.28802],[-43.99336,-19.28699],[-43.99478,-19.2865],[-43.99747,-19.28625],[-44.00074,-19.28644],[-44.00238,-19.28617],[-44.00359,-19.28528],[-44.00359,-19.28312],[-44.00309,-19.28117],[-44.00329,-19.28058]]]},"properties":{"codigo":"313570410","name":"Doutor Campolina","population":506,"households":493,"areaKm2":52.6448,"density":9.6}}]}