{"type":"FeatureCollection","features":[{"type":"Feature","geometry":{"type":"Polygon","coordinates":[[[-40.89081,-16.62165],[-40.89238,-16.62134],[-40.89369,-16.62059],[-40.89538,-16.61876],[-40.89622,-16.61642],[-40.89743,-16.61448],[-40.89864,-16.613],[-40.89971,-16.61255],[-40.90265,-16.61244],[-40.90339,-16.61188],[-40.90486,-16.60968],[-40.90693,-16.60778],[-40.90862,-16.60689],[-40.91101,-16.60667],[-40.91355,-16.60426],[-40.91534,-16.60337],[-40.91816,-16.60282],[-40.9205,-16.60191],[-40.92189,-16.59999],[-40.92274,-16.59747],[-40.92392,-16.5952],[-40.92427,-16.59393],[-40.92498,-16.59284],[-40.92534,-16.59035],[-40.92605,-16.58866],[-40.92607,-16.58785],[-40.92687,-16.58527],[-40.92835,-16.58279],[-40.92933,-16.58223],[-40.93158,-16.58182],[-40.93332,-16.58091],[-40.93481,-16.57966],[-40.93736,-16.57833],[-40.93877,-16.57731],[-40.94175,-16.57664],[-40.9434,-16.57684],[-40.94632,-16.57647],[-40.94794,-16.57584],[-40.94993,-16.57403],[-40.95138,-16.57144],[-40.95211,-16.5706],[-40.9529,-16.56746],[-40.95475,-16.56462],[-40.95519,-16.56318],[-40.95539,-16.56115],[-40.956,-16.55898],[-40.9579,-16.55636],[-40.95949,-16.55557],[-40.96028,-16.55487],[-40.96083,-16.55249],[-40.96261,-16.54974],[-40.96622,-16.54679],[-40.96803,-16.54629],[-40.97055,-16.54646],[-40.97158,-16.54689],[-40.97357,-16.54865],[-40.97655,-16.55036],[-40.97831,-16.55217],[-40.97991,-16.55239],[-40.98121,-16.55319],[-40.98221,-16.55316],[-40.98483,-16.55186],[-40.98623,-16.55051],[-40.98688,-16.55023],[-40.98886,-16.5501],[-40.99035,-16.55069],[-40.99143,-16.55149],[-40.99337,-16.55221],[-40.99564,-16.55271],[-41.00129,-16.55336],[-41.00283,-16.55464],[-41.00378,-16.55702],[-41.00481,-16.55797],[-41.00664,-16.55864],[-41.00759,-16.55871],[-41.01076,-16.55772],[-41.0126,-16.55538],[-41.01397,-16.55478],[-41.01591,-16.55439],[-41.01699,-16.55328],[-41.01843,-16.55136],[-41.01989,-16.55009],[-41.02111,-16.54849],[-41.02195,-16.54801],[-41.02324,-16.54787],[-41.02703,-16.54798],[-41.02823,-16.54891],[-41.02969,-16.54956],[-41.03206,-16.54993],[-41.0336,-16.55136],[-41.03345,-16.55365],[-41.03487,-16.55531],[-41.03563,-16.55714],[-41.03657,-16.55774],[-41.03796,-16.55709],[-41.03877,-16.55739],[-41.03942,-16.5588],[-41.04026,-16.55924],[-41.04048,-16.56106],[-41.04122,-16.56166],[-41.04268,-16.56185],[-41.044,-16.56257],[-41.04522,-16.56402],[-41.04699,-16.56434],[-41.04776,-16.56497],[-41.04942,-16.56515],[-41.05131,-16.56418],[-41.05234,-16.56404],[-41.05311,-16.56333],[-41.05339,-16.56229],[-41.05445,-16.56018],[-41.05576,-16.56],[-41.05646,-16.56143],[-41.05766,-16.56286],[-41.05826,-16.56462],[-41.06061,-16.56744],[-41.06229,-16.5697],[-41.06274,-16.57107],[-41.06353,-16.57169],[-41.06423,-16.57405],[-41.06521,-16.57516],[-41.06567,-16.57668],[-41.06689,-16.57876],[-41.06833,-16.57943],[-41.06938,-16.58031],[-41.07027,-16.58262],[-41.07217,-16.58361],[-41.07456,-16.58546],[-41.07651,-16.58604],[-41.07818,-16.58819],[-41.07953,-16.59084],[-41.08092,-16.59133],[-41.08212,-16.59359],[-41.08279,-16.59424],[-41.08317,-16.59567],[-41.08339,-16.59771],[-41.08409,-16.59907],[-41.0856,-16.60117],[-41.088,-16.60371],[-41.08881,-16.60431],[-41.08984,-16.6085],[-41.09171,-16.61027],[-41.09315,-16.61053],[-41.09548,-16.61004],[-41.09701,-16.60923],[-41.0985,-16.60761],[-41.09946,-16.6075],[-41.10224,-16.60921],[-41.10276,-16.60934],[-41.10545,-16.6111],[-41.10686,-16.61138],[-41.10861,-16.61242],[-41.10962,-16.61246],[-41.11115,-16.61121],[-41.11238,-16.6095],[-41.11393,-16.60841],[-41.11489,-16.60823],[-41.12019,-16.60957],[-41.12117,-16.61005],[-41.12316,-16.61217],[-41.12504,-16.61375],[-41.12602,-16.61418],[-41.12813,-16.61629],[-41.13041,-16.61968],[-41.13118,-16.62033],[-41.13166,-16.62215],[-41.13283,-16.62476],[-41.13303,-16.6268],[-41.13351,-16.62922],[-41.13411,-16.63008],[-41.13447,-16.63153],[-41.13634,-16.63343],[-41.13852,-16.63502],[-41.14042,-16.63557],[-41.1414,-16.63617],[-41.14361,-16.63802],[-41.14572,-16.64017],[-41.1474,-16.64396],[-41.14839,-16.64516],[-41.14815,-16.64595],[-41.14961,-16.64745],[-41.15079,-16.64966],[-41.15187,-16.65068],[-41.15419,-16.65149],[-41.15626,-16.65322],[-41.15762,-16.65484],[-41.15981,-16.65571],[-41.16242,-16.65749],[-41.16616,-16.65769],[-41.16854,-16.65887],[-41.17139,-16.65995],[-41.17257,-16.66083],[-41.17492,-16.66171],[-41.17667,-16.66323],[-41.17758,-16.6648],[-41.17902,-16.66633],[-41.18029,-16.66723],[-41.18243,-16.66947],[-41.1837,-16.67037],[-41.18867,-16.67274],[-41.19236,-16.67375],[-41.19308,-16.675],[-41.19397,-16.67477],[-41.19478,-16.67516],[-41.19653,-16.67516],[-41.19747,-16.67553],[-41.20066,-16.67566],[-41.2015,-16.67615],[-41.20332,-16.67952],[-41.20491,-16.68204],[-41.20614,-16.68497],[-41.20664,-16.68767],[-41.20804,-16.69068],[-41.20924,-16.69169],[-41.21221,-16.69273],[-41.21384,-16.69273],[-41.21744,-16.69413],[-41.22337,-16.69461],[-41.2255,-16.69583],[-41.22744,-16.69546],[-41.22951,-16.69608],[-41.2321,-16.69726],[-41.23361,-16.69834],[-41.23423,-16.6992],[-41.23493,-16.70158],[-41.23844,-16.70612],[-41.23878,-16.70804],[-41.2394,-16.71019],[-41.2408,-16.71275],[-41.24164,-16.71389],[-41.24356,-16.71506],[-41.24539,-16.71756],[-41.24666,-16.71841],[-41.24928,-16.7212],[-41.25103,-16.7236],[-41.2518,-16.72439],[-41.25315,-16.72644],[-41.25483,-16.72773],[-41.25739,-16.72808],[-41.25907,-16.72932],[-41.25982,-16.73073],[-41.2608,-16.73112],[-41.26536,-16.73026],[-41.27015,-16.72804],[-41.2731,-16.72729],[-41.27454,-16.72667],[-41.27782,-16.72583],[-41.2808,-16.72571],[-41.28264,-16.7261],[-41.28617,-16.72815],[-41.28949,-16.7309],[-41.29083,-16.73297],[-41.29165,-16.73584],[-41.29116,-16.73977],[-41.29133,-16.74162],[-41.29011,-16.74481],[-41.28994,-16.74663],[-41.29079,-16.74776],[-41.29229,-16.74845],[-41.29112,-16.74853],[-41.28829,-16.74955],[-41.28621,-16.75073],[-41.28331,-16.75297],[-41.28082,-16.7555],[-41.27867,-16.75839],[-41.27591,-16.7605],[-41.27433,-16.76101],[-41.27167,-16.76127],[-41.26865,-16.76236],[-41.26723,-16.7637],[-41.26354,-16.76666],[-41.26129,-16.76798],[-41.25832,-16.76859],[-41.25693,-16.76944],[-41.25504,-16.77153],[-41.25249,-16.77266],[-41.24988,-16.77315],[-41.24621,-16.77355],[-41.24396,-16.77314],[-41.2423,-16.77247],[-41.24002,-16.7712],[-41.23738,-16.76917],[-41.23584,-16.76862],[-41.23277,-16.76816],[-41.23044,-16.76819],[-41.22725,-16.76849],[-41.22421,-16.76914],[-41.22251,-16.77032],[-41.22116,-16.77252],[-41.22035,-16.77481],[-41.21971,-16.77793],[-41.21911,-16.77948],[-41.21772,-16.78119],[-41.21633,-16.78239],[-41.21514,-16.78431],[-41.21363,-16.78598],[-41.21231,-16.78834],[-41.21051,-16.78991],[-41.20763,-16.79119],[-41.20624,-16.79144],[-41.20469,-16.79301],[-41.20399,-16.7953],[-41.20308,-16.79722],[-41.20297,-16.79935],[-41.20309,-16.80194],[-41.20278,-16.80411],[-41.20115,-16.80721],[-41.19916,-16.80927],[-41.19612,-16.81197],[-41.19269,-16.81374],[-41.19027,-16.81471],[-41.18739,-16.81672],[-41.1849,-16.81975],[-41.18397,-16.82119],[-41.18286,-16.82216],[-41.17989,-16.82318],[-41.17867,-16.82434],[-41.17783,-16.82679],[-41.17755,-16.83155],[-41.17671,-16.83238],[-41.17498,-16.83307],[-41.17126,-16.83532],[-41.16815,-16.83666],[-41.16481,-16.83787],[-41.164,-16.83861],[-41.16201,-16.84226],[-41.16127,-16.84478],[-41.16043,-16.84668],[-41.15889,-16.84804],[-41.15734,-16.84867],[-41.14894,-16.8548],[-41.14808,-16.85605],[-41.14859,-16.85852],[-41.14794,-16.85931],[-41.14417,-16.85938],[-41.14218,-16.85911],[-41.14117,-16.86026],[-41.14098,-16.86126],[-41.14113,-16.86394],[-41.1401,-16.86736],[-41.1394,-16.87094],[-41.13959,-16.87351],[-41.13758,-16.87282],[-41.13669,-16.87217],[-41.13528,-16.87187],[-41.13405,-16.8712],[-41.13199,-16.87069],[-41.12995,-16.87063],[-41.12762,-16.8698],[-41.12503,-16.87008],[-41.12411,-16.86989],[-41.12337,-16.87105],[-41.12323,-16.87197],[-41.12241,-16.87241],[-41.12152,-16.87202],[-41.1196,-16.87008],[-41.11869,-16.8695],[-41.11725,-16.86918],[-41.11598,-16.87029],[-41.11403,-16.8708],[-41.11223,-16.86905],[-41.10911,-16.86787],[-41.10822,-16.86565],[-41.1069,-16.8639],[-41.10673,-16.86302],[-41.1075,-16.86126],[-41.10716,-16.85932],[-41.108,-16.85805],[-41.10855,-16.85664],[-41.10857,-16.85456],[-41.10929,-16.85144],[-41.11058,-16.84829],[-41.11142,-16.84302],[-41.11111,-16.84161],[-41.10971,-16.83997],[-41.10606,-16.83718],[-41.10369,-16.83568],[-41.10208,-16.83554],[-41.1003,-16.83626],[-41.09877,-16.83635],[-41.09646,-16.83541],[-41.09401,-16.83298],[-41.09305,-16.83268],[-41.09034,-16.83305],[-41.08931,-16.83361],[-41.08708,-16.83435],[-41.08463,-16.83394],[-41.08317,-16.83313],[-41.08192,-16.83049],[-41.08175,-16.82802],[-41.08302,-16.82631],[-41.08309,-16.82418],[-41.08402,-16.82048],[-41.08383,-16.81854],[-41.08416,-16.8175],[-41.08404,-16.81614],[-41.08347,-16.81415],[-41.08394,-16.81177],[-41.08394,-16.81075],[-41.08315,-16.80789],[-41.07969,-16.80782],[-41.07782,-16.80718],[-41.07561,-16.8072],[-41.07441,-16.80699],[-41.07189,-16.80501],[-41.06973,-16.80438],[-41.06796,-16.80452],[-41.06179,-16.80628],[-41.05961,-16.80753],[-41.05594,-16.80917],[-41.05193,-16.81167],[-41.05042,-16.81391],[-41.05052,-16.81551],[-41.05148,-16.81727],[-41.05196,-16.81872],[-41.05223,-16.82078],[-41.05225,-16.823],[-41.05182,-16.82473],[-41.05084,-16.82693],[-41.05007,-16.82993],[-41.0493,-16.83201],[-41.04945,-16.8358],[-41.05036,-16.83786],[-41.05039,-16.83994],[-41.04914,-16.84151],[-41.04772,-16.84281],[-41.04532,-16.84327],[-41.04422,-16.84315],[-41.04333,-16.84232],[-41.04307,-16.84124],[-41.04328,-16.83414],[-41.04302,-16.83232],[-41.0421,-16.83121],[-41.04025,-16.83042],[-41.03869,-16.83012],[-41.03502,-16.83116],[-41.03301,-16.83225],[-41.02991,-16.83313],[-41.02778,-16.83405],[-41.02475,-16.83607],[-41.02271,-16.83648],[-41.02228,-16.83616],[-41.02091,-16.83383],[-41.02002,-16.83283],[-41.0159,-16.82948],[-41.01378,-16.82821],[-41.01184,-16.82731],[-41.00838,-16.82491],[-41.00776,-16.82472],[-41.00577,-16.82576],[-41.00392,-16.82731],[-41.0015,-16.83002],[-41.00006,-16.83099],[-40.99757,-16.83179],[-40.99559,-16.83104],[-40.99356,-16.83165],[-40.99131,-16.83155],[-40.98871,-16.83286],[-40.98752,-16.83383],[-40.98428,-16.8357],[-40.98372,-16.83787],[-40.98406,-16.83838],[-40.98422,-16.84077],[-40.98485,-16.84234],[-40.98489,-16.84432],[-40.98375,-16.84585],[-40.98225,-16.84673],[-40.98014,-16.84887],[-40.97906,-16.84934],[-40.97758,-16.84928],[-40.97645,-16.84956],[-40.9739,-16.85108],[-40.97232,-16.85086],[-40.97049,-16.8491],[-40.96936,-16.84841],[-40.96708,-16.84787],[-40.96383,-16.84838],[-40.96213,-16.84901],[-40.9607,-16.85022],[-40.96037,-16.8511],[-40.96055,-16.85266],[-40.9618,-16.8563],[-40.96164,-16.85738],[-40.96042,-16.86131],[-40.95952,-16.86317],[-40.95859,-16.86275],[-40.95576,-16.86217],[-40.95422,-16.86128],[-40.95337,-16.86025],[-40.95096,-16.85796],[-40.94804,-16.85399],[-40.94587,-16.85248],[-40.94418,-16.85056],[-40.943,-16.84858],[-40.9427,-16.84769],[-40.94212,-16.84273],[-40.94225,-16.84068],[-40.94197,-16.83911],[-40.94085,-16.83624],[-40.9403,-16.83548],[-40.93815,-16.8337],[-40.93491,-16.83189],[-40.92949,-16.82803],[-40.92701,-16.82521],[-40.92664,-16.82422],[-40.92449,-16.82039],[-40.92364,-16.81855],[-40.92204,-16.81644],[-40.92106,-16.8158],[-40.91873,-16.81549],[-40.91619,-16.8155],[-40.91316,-16.81615],[-40.91184,-16.81578],[-40.91071,-16.81492],[-40.90854,-16.81382],[-40.90806,-16.81334],[-40.90535,-16.81216],[-40.90182,-16.81124],[-40.90019,-16.81014],[-40.89646,-16.80677],[-40.8939,-16.80464],[-40.8928,-16.80486],[-40.89119,-16.8066],[-40.89034,-16.8084],[-40.88945,-16.8124],[-40.88924,-16.81556],[-40.88942,-16.81752],[-40.88928,-16.8186],[-40.88859,-16.81953],[-40.88516,-16.82215],[-40.88472,-16.82407],[-40.88302,-16.82761],[-40.88209,-16.82798],[-40.87976,-16.82774],[-40.8789,-16.82726],[-40.87644,-16.82456],[-40.87582,-16.82459],[-40.87441,-16.82565],[-40.87387,-16.82649],[-40.87311,-16.82866],[-40.87112,-16.83144],[-40.86996,-16.83251],[-40.86706,-16.8334],[-40.86609,-16.83394],[-40.8638,-16.83649],[-40.86286,-16.83855],[-40.86249,-16.84081],[-40.86271,-16.84466],[-40.86234,-16.84655],[-40.8613,-16.84875],[-40.86079,-16.85226],[-40.8599,-16.8542],[-40.85781,-16.85665],[-40.85593,-16.85943],[-40.85391,-16.86138],[-40.85152,-16.86243],[-40.85043,-16.86327],[-40.84778,-16.86582],[-40.84673,-16.86652],[-40.84506,-16.86683],[-40.84281,-16.86661],[-40.84,-16.86557],[-40.83562,-16.86248],[-40.83205,-16.85905],[-40.83006,-16.85857],[-40.82925,-16.85922],[-40.82851,-16.86324],[-40.82768,-16.86403],[-40.82667,-16.8638],[-40.82229,-16.86067],[-40.81994,-16.85916],[-40.81784,-16.85747],[-40.81418,-16.85382],[-40.813,-16.853],[-40.81029,-16.85214],[-40.80697,-16.85013],[-40.80608,-16.8485],[-40.80616,-16.84679],[-40.80654,-16.84524],[-40.8066,-16.8431],[-40.8063,-16.84202],[-40.80514,-16.84057],[-40.80281,-16.83846],[-40.80225,-16.83706],[-40.80087,-16.83478],[-40.79923,-16.83265],[-40.79769,-16.8313],[-40.79641,-16.83061],[-40.7925,-16.82939],[-40.79029,-16.82751],[-40.78791,-16.82653],[-40.786,-16.82668],[-40.78452,-16.8272],[-40.78281,-16.82679],[-40.78123,-16.82551],[-40.77995,-16.8249],[-40.77892,-16.82495],[-40.77792,-16.82548],[-40.77526,-16.82524],[-40.77385,-16.82484],[-40.77092,-16.82317],[-40.76914,-16.82182],[-40.76746,-16.82111],[-40.76588,-16.82124],[-40.7643,-16.82231],[-40.76191,-16.8223],[-40.7608,-16.8218],[-40.75946,-16.82074],[-40.7567,-16.81951],[-40.75528,-16.8195],[-40.75366,-16.82004],[-40.74884,-16.8229],[-40.74721,-16.8236],[-40.74504,-16.82419],[-40.74305,-16.82754],[-40.74092,-16.82827],[-40.73939,-16.8283],[-40.73833,-16.82766],[-40.73696,-16.82624],[-40.73502,-16.82565],[-40.73389,-16.82591],[-40.73309,-16.82728],[-40.73145,-16.82936],[-40.72937,-16.83145],[-40.72775,-16.83187],[-40.72504,-16.83216],[-40.72361,-16.83258],[-40.72189,-16.83266],[-40.71956,-16.83111],[-40.71788,-16.83098],[-40.7152,-16.83132],[-40.71293,-16.83243],[-40.71106,-16.83213],[-40.70871,-16.83103],[-40.70594,-16.82827],[-40.70487,-16.82655],[-40.70367,-16.82181],[-40.70354,-16.81957],[-40.70286,-16.81734],[-40.70121,-16.81405],[-40.69996,-16.81299],[-40.6985,-16.81254],[-40.69699,-16.81282],[-40.69486,-16.81254],[-40.69241,-16.81096],[-40.69043,-16.80857],[-40.68889,-16.80726],[-40.68872,-16.80623],[-40.68952,-16.80403],[-40.68991,-16.80184],[-40.68984,-16.7975],[-40.68957,-16.79614],[-40.68999,-16.7937],[-40.69108,-16.79245],[-40.69318,-16.79048],[-40.69498,-16.7865],[-40.69678,-16.78414],[-40.69907,-16.78277],[-40.69983,-16.78159],[-40.69978,-16.78064],[-40.69802,-16.77848],[-40.69597,-16.77529],[-40.69569,-16.77312],[-40.69636,-16.77215],[-40.69943,-16.77031],[-40.70021,-16.76885],[-40.69961,-16.7669],[-40.69744,-16.76523],[-40.69571,-16.76355],[-40.69618,-16.7621],[-40.6974,-16.7613],[-40.70236,-16.75957],[-40.70339,-16.75954],[-40.70502,-16.75845],[-40.70531,-16.75635],[-40.70636,-16.75515],[-40.70911,-16.7543],[-40.7111,-16.75436],[-40.71287,-16.7541],[-40.7159,-16.75268],[-40.71726,-16.75184],[-40.71811,-16.75006],[-40.71714,-16.74829],[-40.71529,-16.74673],[-40.71291,-16.74547],[-40.71075,-16.74396],[-40.70957,-16.74219],[-40.70968,-16.74122],[-40.71053,-16.73859],[-40.71147,-16.73646],[-40.71293,-16.73528],[-40.71433,-16.73472],[-40.71606,-16.73476],[-40.71811,-16.73373],[-40.72021,-16.73344],[-40.72289,-16.73228],[-40.72329,-16.73126],[-40.72325,-16.72812],[-40.7229,-16.72614],[-40.72466,-16.72392],[-40.7269,-16.72271],[-40.72982,-16.7223],[-40.73039,-16.72239],[-40.73446,-16.72181],[-40.73704,-16.72159],[-40.7385,-16.7208],[-40.74227,-16.7194],[-40.74504,-16.71906],[-40.74918,-16.7189],[-40.75229,-16.71893],[-40.75586,-16.71875],[-40.75715,-16.71902],[-40.76015,-16.72029],[-40.76147,-16.72121],[-40.7625,-16.72131],[-40.76324,-16.72078],[-40.76314,-16.7194],[-40.76123,-16.71641],[-40.76122,-16.7148],[-40.76162,-16.7138],[-40.7634,-16.71068],[-40.76648,-16.7064],[-40.76729,-16.70556],[-40.76986,-16.70377],[-40.77173,-16.70298],[-40.7729,-16.7029],[-40.77522,-16.70314],[-40.77628,-16.70346],[-40.77791,-16.70449],[-40.77963,-16.70416],[-40.78055,-16.70182],[-40.78321,-16.69825],[-40.7847,-16.69652],[-40.78566,-16.69573],[-40.78922,-16.69202],[-40.79101,-16.69113],[-40.79445,-16.69021],[-40.79739,-16.68874],[-40.79901,-16.68827],[-40.80078,-16.68808],[-40.80346,-16.6882],[-40.8058,-16.6881],[-40.80724,-16.68839],[-40.8106,-16.68998],[-40.81297,-16.69029],[-40.81409,-16.69019],[-40.81583,-16.68915],[-40.81779,-16.68745],[-40.81926,-16.68562],[-40.82078,-16.68448],[-40.82372,-16.68419],[-40.82578,-16.68365],[-40.82673,-16.6826],[-40.82665,-16.68104],[-40.82541,-16.6789],[-40.82466,-16.67701],[-40.82429,-16.67452],[-40.82439,-16.67242],[-40.8263,-16.66847],[-40.82759,-16.66669],[-40.8288,-16.66553],[-40.82953,-16.66437],[-40.82921,-16.6629],[-40.82793,-16.66057],[-40.82569,-16.65823],[-40.82321,-16.65627],[-40.82191,-16.65477],[-40.82015,-16.65216],[-40.81777,-16.64954],[-40.81729,-16.64927],[-40.81495,-16.64649],[-40.81366,-16.6438],[-40.81264,-16.63975],[-40.81152,-16.63782],[-40.81104,-16.63625],[-40.81115,-16.63524],[-40.81197,-16.63311],[-40.81292,-16.63158],[-40.81346,-16.63003],[-40.81427,-16.62871],[-40.8163,-16.62836],[-40.81874,-16.62832],[-40.82014,-16.62753],[-40.82157,-16.62602],[-40.8248,-16.62337],[-40.82786,-16.62257],[-40.8292,-16.62275],[-40.82988,-16.62351],[-40.83056,-16.62532],[-40.83188,-16.62608],[-40.83336,-16.62618],[-40.83501,-16.62666],[-40.83581,-16.62735],[-40.83692,-16.62898],[-40.83673,-16.63359],[-40.83816,-16.6357],[-40.83919,-16.63618],[-40.84069,-16.63583],[-40.84174,-16.63471],[-40.84244,-16.63298],[-40.8427,-16.6315],[-40.84356,-16.63104],[-40.8444,-16.6317],[-40.84539,-16.63361],[-40.84644,-16.63386],[-40.85039,-16.63397],[-40.85214,-16.63456],[-40.85415,-16.6342],[-40.85801,-16.63277],[-40.86037,-16.63163],[-40.86414,-16.62888],[-40.86485,-16.62812],[-40.8663,-16.6273],[-40.87056,-16.62435],[-40.8715,-16.624],[-40.8735,-16.62406],[-40.87691,-16.62535],[-40.87846,-16.62518],[-40.88004,-16.6245],[-40.88204,-16.62327],[-40.88351,-16.62125],[-40.88551,-16.62069],[-40.88657,-16.62089],[-40.88734,-16.62167],[-40.8894,-16.62216],[-40.89081,-16.62165]]]},"properties":{"codigo":"313600905","name":"Joaíma","population":11151,"households":4836,"areaKm2":1287.7158,"density":8.7}},{"type":"Feature","geometry":{"type":"Polygon","coordinates":[[[-40.96569,-16.8987],[-40.96582,-16.89646],[-40.9663,-16.89319],[-40.96614,-16.891],[-40.96577,-16.88913],[-40.96593,-16.88482],[-40.96586,-16.88182],[-40.96605,-16.87852],[-40.96558,-16.87265],[-40.96481,-16.86862],[-40.96372,-16.86669],[-40.9609,-16.86412],[-40.95952,-16.86317],[-40.96042,-16.86131],[-40.96164,-16.85738],[-40.9618,-16.8563],[-40.96055,-16.85266],[-40.96037,-16.8511],[-40.9607,-16.85022],[-40.96213,-16.84901],[-40.96383,-16.84838],[-40.96708,-16.84787],[-40.96936,-16.84841],[-40.97049,-16.8491],[-40.97232,-16.85086],[-40.9739,-16.85108],[-40.97645,-16.84956],[-40.97758,-16.84928],[-40.97906,-16.84934],[-40.98014,-16.84887],[-40.98225,-16.84673],[-40.98375,-16.84585],[-40.98489,-16.84432],[-40.98485,-16.84234],[-40.98422,-16.84077],[-40.98406,-16.83838],[-40.98372,-16.83787],[-40.98428,-16.8357],[-40.98752,-16.83383],[-40.98871,-16.83286],[-40.99131,-16.83155],[-40.99356,-16.83165],[-40.99559,-16.83104],[-40.99757,-16.83179],[-41.00006,-16.83099],[-41.0015,-16.83002],[-41.00392,-16.82731],[-41.00577,-16.82576],[-41.00776,-16.82472],[-41.00838,-16.82491],[-41.01184,-16.82731],[-41.01378,-16.82821],[-41.0159,-16.82948],[-41.02002,-16.83283],[-41.02091,-16.83383],[-41.02228,-16.83616],[-41.02271,-16.83648],[-41.02475,-16.83607],[-41.02778,-16.83405],[-41.02991,-16.83313],[-41.03301,-16.83225],[-41.03502,-16.83116],[-41.03869,-16.83012],[-41.04025,-16.83042],[-41.0421,-16.83121],[-41.04302,-16.83232],[-41.04328,-16.83414],[-41.04307,-16.84124],[-41.04333,-16.84232],[-41.04422,-16.84315],[-41.04532,-16.84327],[-41.04772,-16.84281],[-41.04914,-16.84151],[-41.05039,-16.83994],[-41.05036,-16.83786],[-41.04945,-16.8358],[-41.0493,-16.83201],[-41.05007,-16.82993],[-41.05084,-16.82693],[-41.05182,-16.82473],[-41.05225,-16.823],[-41.05223,-16.82078],[-41.05196,-16.81872],[-41.05148,-16.81727],[-41.05052,-16.81551],[-41.05042,-16.81391],[-41.05193,-16.81167],[-41.05594,-16.80917],[-41.05961,-16.80753],[-41.06179,-16.80628],[-41.06796,-16.80452],[-41.06973,-16.80438],[-41.07189,-16.80501],[-41.07441,-16.80699],[-41.07561,-16.8072],[-41.07782,-16.80718],[-41.07969,-16.80782],[-41.08315,-16.80789],[-41.08394,-16.81075],[-41.08394,-16.81177],[-41.08347,-16.81415],[-41.08404,-16.81614],[-41.08416,-16.8175],[-41.08383,-16.81854],[-41.08402,-16.82048],[-41.08309,-16.82418],[-41.08302,-16.82631],[-41.08175,-16.82802],[-41.08192,-16.83049],[-41.08317,-16.83313],[-41.08463,-16.83394],[-41.08708,-16.83435],[-41.08931,-16.83361],[-41.09034,-16.83305],[-41.09305,-16.83268],[-41.09401,-16.83298],[-41.09646,-16.83541],[-41.09877,-16.83635],[-41.1003,-16.83626],[-41.10208,-16.83554],[-41.10369,-16.83568],[-41.10606,-16.83718],[-41.10971,-16.83997],[-41.11111,-16.84161],[-41.11142,-16.84302],[-41.11058,-16.84829],[-41.10929,-16.85144],[-41.10857,-16.85456],[-41.10855,-16.85664],[-41.108,-16.85805],[-41.10716,-16.85932],[-41.1075,-16.86126],[-41.10673,-16.86302],[-41.1069,-16.8639],[-41.10822,-16.86565],[-41.10911,-16.86787],[-41.11223,-16.86905],[-41.11403,-16.8708],[-41.11598,-16.87029],[-41.11725,-16.86918],[-41.11869,-16.8695],[-41.1196,-16.87008],[-41.12152,-16.87202],[-41.12241,-16.87241],[-41.12323,-16.87197],[-41.12337,-16.87105],[-41.12411,-16.86989],[-41.12503,-16.87008],[-41.12762,-16.8698],[-41.12995,-16.87063],[-41.13199,-16.87069],[-41.13405,-16.8712],[-41.13528,-16.87187],[-41.13669,-16.87217],[-41.13758,-16.87282],[-41.13959,-16.87351],[-41.14066,-16.87593],[-41.14472,-16.87669],[-41.14541,-16.87727],[-41.14765,-16.87828],[-41.15014,-16.87886],[-41.1517,-16.87877],[-41.15336,-16.87828],[-41.15612,-16.87793],[-41.15809,-16.87871],[-41.16217,-16.87986],[-41.16594,-16.88028],[-41.16896,-16.88011],[-41.1718,-16.88103],[-41.17523,-16.88348],[-41.17706,-16.88436],[-41.17634,-16.88644],[-41.17627,-16.88826],[-41.17757,-16.89143],[-41.17817,-16.89223],[-41.17911,-16.89256],[-41.18081,-16.8938],[-41.18175,-16.89493],[-41.1841,-16.89692],[-41.18499,-16.89724],[-41.18703,-16.89736],[-41.1885,-16.89793],[-41.1891,-16.89886],[-41.19028,-16.90172],[-41.19199,-16.90426],[-41.19365,-16.90574],[-41.19437,-16.90721],[-41.19516,-16.90953],[-41.1955,-16.91311],[-41.19589,-16.9144],[-41.19728,-16.91583],[-41.19882,-16.91807],[-41.20036,-16.9198],[-41.2007,-16.92082],[-41.20219,-16.92237],[-41.20219,-16.92285],[-41.2008,-16.92551],[-41.20272,-16.92703],[-41.20532,-16.92752],[-41.20638,-16.92851],[-41.2071,-16.9317],[-41.21054,-16.93319],[-41.21428,-16.93425],[-41.21577,-16.93559],[-41.21897,-16.93806],[-41.21983,-16.93857],[-41.22548,-16.94055],[-41.22654,-16.94207],[-41.22597,-16.9439],[-41.22405,-16.94505],[-41.22186,-16.94737],[-41.22107,-16.94936],[-41.22199,-16.95077],[-41.22377,-16.95245],[-41.22521,-16.95511],[-41.22591,-16.95776],[-41.22606,-16.95901],[-41.22715,-16.96291],[-41.23001,-16.96626],[-41.23177,-16.96901],[-41.23352,-16.97289],[-41.23422,-16.97377],[-41.23807,-16.9772],[-41.24216,-16.98212],[-41.24423,-16.98387],[-41.24697,-16.98452],[-41.24954,-16.98426],[-41.25222,-16.98356],[-41.254,-16.98231],[-41.25527,-16.98062],[-41.25724,-16.97923],[-41.25822,-16.97791],[-41.25951,-16.97703],[-41.26095,-16.97685],[-41.2617,-16.97747],[-41.26214,-16.9789],[-41.26216,-16.98193],[-41.26308,-16.98431],[-41.26441,-16.98655],[-41.26631,-16.99022],[-41.26725,-16.99304],[-41.26922,-16.99483],[-41.27091,-16.99539],[-41.27418,-16.99769],[-41.27533,-16.99938],[-41.27704,-17.00083],[-41.27721,-17.00373],[-41.27678,-17.00562],[-41.27641,-17.00604],[-41.27395,-17.00684],[-41.27267,-17.00747],[-41.27214,-17.00823],[-41.2724,-17.00974],[-41.27407,-17.01294],[-41.27489,-17.01518],[-41.27525,-17.01767],[-41.27534,-17.02044],[-41.27581,-17.0226],[-41.27759,-17.02559],[-41.27803,-17.02844],[-41.27793,-17.03092],[-41.27749,-17.03253],[-41.27709,-17.03378],[-41.27606,-17.03563],[-41.27476,-17.03659],[-41.27263,-17.03761],[-41.26849,-17.03727],[-41.26621,-17.03763],[-41.26332,-17.03895],[-41.26241,-17.04017],[-41.26238,-17.04161],[-41.26172,-17.04396],[-41.26047,-17.0457],[-41.25825,-17.04735],[-41.25688,-17.04812],[-41.25231,-17.04876],[-41.25036,-17.04962],[-41.24928,-17.04955],[-41.24653,-17.04844],[-41.24281,-17.04936],[-41.24163,-17.04842],[-41.23936,-17.04323],[-41.23774,-17.04121],[-41.2368,-17.04091],[-41.23502,-17.04278],[-41.23429,-17.04596],[-41.23177,-17.04898],[-41.23086,-17.04928],[-41.22776,-17.04892],[-41.22578,-17.04797],[-41.22316,-17.04609],[-41.21916,-17.04624],[-41.21711,-17.04617],[-41.21298,-17.04629],[-41.21199,-17.04592],[-41.21145,-17.04471],[-41.21007,-17.04066],[-41.20909,-17.03885],[-41.20859,-17.03632],[-41.20787,-17.03444],[-41.20706,-17.03377],[-41.20442,-17.03393],[-41.20084,-17.03482],[-41.19694,-17.03563],[-41.19511,-17.03639],[-41.19409,-17.03803],[-41.1926,-17.03849],[-41.19131,-17.03796],[-41.19082,-17.03661],[-41.19086,-17.0337],[-41.19356,-17.02841],[-41.19554,-17.02582],[-41.19654,-17.02478],[-41.19722,-17.02331],[-41.19612,-17.02225],[-41.19397,-17.02195],[-41.19234,-17.02197],[-41.19078,-17.02231],[-41.18888,-17.02224],[-41.18791,-17.02244],[-41.18608,-17.0235],[-41.18467,-17.02472],[-41.18266,-17.02585],[-41.17977,-17.02551],[-41.17728,-17.02575],[-41.17572,-17.02519],[-41.17516,-17.02386],[-41.17339,-17.02235],[-41.16925,-17.021],[-41.16654,-17.02034],[-41.16397,-17.02013],[-41.15659,-17.01829],[-41.15411,-17.01697],[-41.15301,-17.01558],[-41.15307,-17.01311],[-41.15402,-17.01184],[-41.15739,-17.00827],[-41.15836,-17.00595],[-41.1588,-17.00336],[-41.15828,-17.00173],[-41.1582,-17.00047],[-41.15868,-16.99896],[-41.15736,-16.99843],[-41.15452,-16.99788],[-41.15298,-16.99802],[-41.15202,-16.99762],[-41.15159,-16.99682],[-41.15065,-16.99668],[-41.14921,-16.99716],[-41.14758,-16.99818],[-41.1428,-16.9978],[-41.14008,-16.99708],[-41.13948,-16.99579],[-41.13953,-16.99378],[-41.13917,-16.99234],[-41.13789,-16.99096],[-41.13599,-16.99057],[-41.13511,-16.99006],[-41.13412,-16.98881],[-41.1321,-16.98542],[-41.13128,-16.98325],[-41.12926,-16.98064],[-41.12707,-16.97884],[-41.12443,-16.97701],[-41.12303,-16.97549],[-41.12207,-16.97292],[-41.12276,-16.96904],[-41.12279,-16.96606],[-41.1224,-16.96495],[-41.12118,-16.96421],[-41.12024,-16.96292],[-41.11973,-16.96105],[-41.11634,-16.95904],[-41.11286,-16.95752],[-41.10926,-16.95482],[-41.10861,-16.95408],[-41.1064,-16.9532],[-41.10491,-16.95186],[-41.10373,-16.95126],[-41.09996,-16.94868],[-41.09739,-16.94604],[-41.09522,-16.94456],[-41.09371,-16.94436],[-41.09102,-16.94461],[-41.08838,-16.94457],[-41.0873,-16.94478],[-41.08677,-16.94554],[-41.08709,-16.94792],[-41.08682,-16.94834],[-41.08471,-16.94982],[-41.08173,-16.95121],[-41.08003,-16.9522],[-41.07936,-16.95338],[-41.07852,-16.95394],[-41.07684,-16.95405],[-41.07504,-16.95375],[-41.07333,-16.95406],[-41.07098,-16.95514],[-41.07014,-16.95632],[-41.06937,-16.95905],[-41.06805,-16.95991],[-41.06555,-16.95995],[-41.06459,-16.95954],[-41.06391,-16.95793],[-41.06368,-16.95732],[-41.06176,-16.95529],[-41.06084,-16.95545],[-41.06029,-16.95792],[-41.05893,-16.96042],[-41.05785,-16.96065],[-41.0571,-16.96012],[-41.05539,-16.95779],[-41.05362,-16.95585],[-41.05244,-16.95485],[-41.04859,-16.94949],[-41.04773,-16.94797],[-41.04705,-16.94623],[-41.04715,-16.94235],[-41.0464,-16.9409],[-41.04659,-16.93858],[-41.04691,-16.9375],[-41.04707,-16.9354],[-41.04674,-16.9338],[-41.04546,-16.93195],[-41.04318,-16.93066],[-41.04119,-16.92976],[-41.0397,-16.92717],[-41.03891,-16.92657],[-41.03737,-16.92687],[-41.03614,-16.92773],[-41.03511,-16.92791],[-41.03281,-16.92653],[-41.02882,-16.92794],[-41.02738,-16.92771],[-41.02553,-16.92523],[-41.02198,-16.9229],[-41.02094,-16.92172],[-41.01926,-16.92038],[-41.01816,-16.91847],[-41.01727,-16.91798],[-41.0153,-16.91828],[-41.01321,-16.91828],[-41.01201,-16.91932],[-41.01103,-16.91969],[-41.01014,-16.91902],[-41.00867,-16.91861],[-41.00711,-16.91925],[-41.00596,-16.9202],[-41.00358,-16.92436],[-41.00226,-16.92596],[-41.00186,-16.92741],[-41.0019,-16.92882],[-41.00118,-16.92997],[-40.99998,-16.93031],[-40.99743,-16.92939],[-40.99633,-16.92921],[-40.99311,-16.92743],[-40.99118,-16.9256],[-40.98995,-16.92418],[-40.9888,-16.92181],[-40.98782,-16.91806],[-40.98689,-16.91502],[-40.98481,-16.91245],[-40.98252,-16.91088],[-40.98023,-16.90852],[-40.97804,-16.90713],[-40.9764,-16.90539],[-40.97441,-16.90238],[-40.97246,-16.90073],[-40.97021,-16.90033],[-40.96872,-16.9008],[-40.96695,-16.90049],[-40.96601,-16.89964],[-40.96569,-16.8987]]]},"properties":{"codigo":"313600907","name":"Giru","population":2737,"households":1380,"areaKm2":376.4738,"density":7.3}}]}