{"type":"FeatureCollection","features":[{"type":"Feature","geometry":{"type":"Polygon","coordinates":[[[-46.31561,-18.89465],[-46.31594,-18.89218],[-46.31504,-18.88934],[-46.31404,-18.88823],[-46.31123,-18.88453],[-46.31079,-18.88357],[-46.30981,-18.87943],[-46.30832,-18.87681],[-46.30812,-18.87516],[-46.30864,-18.8736],[-46.30891,-18.8715],[-46.31001,-18.86902],[-46.31095,-18.86828],[-46.31161,-18.86624],[-46.31224,-18.86524],[-46.31252,-18.86377],[-46.31205,-18.86315],[-46.31178,-18.86156],[-46.31185,-18.85929],[-46.31044,-18.85469],[-46.31126,-18.85397],[-46.31211,-18.85242],[-46.31248,-18.85042],[-46.31304,-18.8486],[-46.31311,-18.84685],[-46.31428,-18.84601],[-46.31457,-18.84532],[-46.31747,-18.84537],[-46.31913,-18.84464],[-46.31921,-18.84353],[-46.32204,-18.84238],[-46.32412,-18.84224],[-46.32562,-18.8424],[-46.32707,-18.84319],[-46.32891,-18.84314],[-46.33015,-18.84346],[-46.33105,-18.84245],[-46.33378,-18.84084],[-46.33458,-18.83965],[-46.33639,-18.83985],[-46.33886,-18.83909],[-46.34398,-18.83774],[-46.34581,-18.83632],[-46.34641,-18.83632],[-46.34707,-18.83522],[-46.34921,-18.83397],[-46.34998,-18.8327],[-46.35073,-18.83264],[-46.35286,-18.8337],[-46.35489,-18.83293],[-46.35586,-18.831],[-46.35766,-18.83032],[-46.35764,-18.82738],[-46.35781,-18.82693],[-46.35749,-18.82481],[-46.358,-18.82303],[-46.35762,-18.82209],[-46.35796,-18.81984],[-46.3586,-18.81892],[-46.35911,-18.81651],[-46.36009,-18.81611],[-46.35967,-18.81279],[-46.36002,-18.81192],[-46.3594,-18.80972],[-46.35815,-18.80877],[-46.35668,-18.80809],[-46.35577,-18.80857],[-46.35428,-18.80881],[-46.35416,-18.80971],[-46.3515,-18.81098],[-46.35046,-18.81218],[-46.349,-18.81267],[-46.34851,-18.81344],[-46.34563,-18.8146],[-46.34558,-18.8155],[-46.34459,-18.81536],[-46.34372,-18.81574],[-46.3428,-18.81535],[-46.34193,-18.81564],[-46.34171,-18.81657],[-46.34181,-18.81864],[-46.34155,-18.82021],[-46.34059,-18.82145],[-46.33914,-18.82141],[-46.33734,-18.81993],[-46.33612,-18.8206],[-46.3352,-18.82167],[-46.33266,-18.82168],[-46.3318,-18.82107],[-46.33025,-18.82108],[-46.32867,-18.82151],[-46.3269,-18.82246],[-46.32593,-18.82352],[-46.32396,-18.82406],[-46.32425,-18.825],[-46.32261,-18.82621],[-46.32198,-18.82742],[-46.31881,-18.82728],[-46.31781,-18.82677],[-46.31621,-18.82671],[-46.31523,-18.82631],[-46.313,-18.8259],[-46.31163,-18.82542],[-46.3097,-18.82543],[-46.30655,-18.82626],[-46.3049,-18.82495],[-46.30442,-18.82494],[-46.29975,-18.82688],[-46.29757,-18.82683],[-46.29498,-18.82564],[-46.2914,-18.82485],[-46.29001,-18.82499],[-46.2877,-18.82456],[-46.28645,-18.82409],[-46.28623,-18.82356],[-46.28324,-18.8235],[-46.28097,-18.82146],[-46.2797,-18.82159],[-46.27857,-18.82083],[-46.27665,-18.81912],[-46.27687,-18.81718],[-46.27769,-18.81655],[-46.2773,-18.81468],[-46.27663,-18.81439],[-46.27347,-18.81457],[-46.27256,-18.81343],[-46.27013,-18.81299],[-46.26779,-18.81122],[-46.26602,-18.81046],[-46.26355,-18.81049],[-46.26291,-18.80942],[-46.26063,-18.80961],[-46.25919,-18.80912],[-46.25771,-18.808],[-46.2558,-18.80745],[-46.25455,-18.80647],[-46.25285,-18.80588],[-46.25202,-18.80587],[-46.25084,-18.8047],[-46.25018,-18.80218],[-46.25019,-18.79763],[-46.25071,-18.79603],[-46.25483,-18.79759],[-46.25852,-18.79931],[-46.26515,-18.7983],[-46.26865,-18.79756],[-46.26948,-18.79756],[-46.27184,-18.79841],[-46.27318,-18.79939],[-46.27664,-18.80022],[-46.27854,-18.80042],[-46.28071,-18.79924],[-46.28414,-18.79989],[-46.28902,-18.8022],[-46.29271,-18.80299],[-46.29621,-18.80255],[-46.29525,-18.80049],[-46.29457,-18.79815],[-46.29245,-18.79603],[-46.29109,-18.79562],[-46.29043,-18.79505],[-46.29087,-18.79383],[-46.29123,-18.79174],[-46.28992,-18.78932],[-46.28916,-18.78853],[-46.29113,-18.78538],[-46.29161,-18.78416],[-46.29107,-18.78258],[-46.28887,-18.77933],[-46.28695,-18.77585],[-46.28627,-18.77489],[-46.28576,-18.7725],[-46.28542,-18.76869],[-46.28621,-18.76828],[-46.28793,-18.76417],[-46.28968,-18.76383],[-46.29478,-18.76177],[-46.29775,-18.75952],[-46.29988,-18.75716],[-46.30236,-18.75361],[-46.30148,-18.75098],[-46.29863,-18.74633],[-46.29795,-18.7444],[-46.29601,-18.74262],[-46.29529,-18.74079],[-46.29024,-18.73824],[-46.28833,-18.73687],[-46.28712,-18.7354],[-46.28608,-18.73326],[-46.28519,-18.73249],[-46.2838,-18.73028],[-46.28261,-18.72575],[-46.28336,-18.72106],[-46.28396,-18.71878],[-46.285,-18.71637],[-46.28475,-18.7158],[-46.28777,-18.71328],[-46.29065,-18.71142],[-46.29249,-18.70934],[-46.29298,-18.70764],[-46.29307,-18.70481],[-46.29337,-18.70322],[-46.29415,-18.70244],[-46.29606,-18.70153],[-46.29675,-18.70078],[-46.29734,-18.69904],[-46.29845,-18.69676],[-46.29944,-18.6957],[-46.29996,-18.69431],[-46.29999,-18.69332],[-46.29933,-18.69076],[-46.29956,-18.68787],[-46.30077,-18.68373],[-46.30199,-18.68119],[-46.30399,-18.6762],[-46.30541,-18.67187],[-46.30672,-18.66638],[-46.30645,-18.66393],[-46.30544,-18.66206],[-46.30489,-18.65806],[-46.30421,-18.65653],[-46.30403,-18.65497],[-46.30547,-18.65365],[-46.30978,-18.65064],[-46.31068,-18.64986],[-46.3119,-18.64827],[-46.31227,-18.64737],[-46.31374,-18.6452],[-46.31747,-18.64367],[-46.31959,-18.64331],[-46.32332,-18.64365],[-46.32415,-18.64418],[-46.3271,-18.64415],[-46.32919,-18.64383],[-46.3325,-18.64374],[-46.33537,-18.64239],[-46.33793,-18.64146],[-46.34125,-18.64089],[-46.3443,-18.63972],[-46.34812,-18.63596],[-46.34847,-18.63441],[-46.34892,-18.6339],[-46.3518,-18.63287],[-46.35497,-18.63311],[-46.35843,-18.63444],[-46.36146,-18.63502],[-46.36541,-18.63441],[-46.36763,-18.63428],[-46.37132,-18.63303],[-46.37326,-18.63128],[-46.377,-18.6289],[-46.37955,-18.62763],[-46.38176,-18.6269],[-46.39128,-18.62592],[-46.39294,-18.62559],[-46.3948,-18.62451],[-46.39641,-18.62443],[-46.398,-18.62509],[-46.39926,-18.62645],[-46.40028,-18.62795],[-46.40237,-18.63025],[-46.40553,-18.63228],[-46.40674,-18.63265],[-46.40928,-18.63253],[-46.41047,-18.6319],[-46.41629,-18.63098],[-46.41847,-18.63098],[-46.41939,-18.63135],[-46.42023,-18.63221],[-46.42219,-18.63314],[-46.42581,-18.6382],[-46.42693,-18.64001],[-46.4269,-18.64276],[-46.42808,-18.64471],[-46.42855,-18.64746],[-46.42971,-18.6517],[-46.43,-18.65395],[-46.42987,-18.65778],[-46.42949,-18.65992],[-46.42956,-18.66317],[-46.42983,-18.66422],[-46.43123,-18.66661],[-46.43336,-18.66887],[-46.43388,-18.67047],[-46.43397,-18.67307],[-46.43306,-18.67574],[-46.43271,-18.67736],[-46.43291,-18.67876],[-46.43422,-18.67984],[-46.43675,-18.6807],[-46.4393,-18.68118],[-46.43985,-18.682],[-46.43949,-18.68327],[-46.44118,-18.68423],[-46.44302,-18.68348],[-46.44483,-18.68233],[-46.44578,-18.68349],[-46.44708,-18.68443],[-46.44916,-18.68466],[-46.45022,-18.68445],[-46.45204,-18.6858],[-46.45306,-18.68619],[-46.45458,-18.68593],[-46.45583,-18.68448],[-46.45775,-18.68524],[-46.45811,-18.68708],[-46.45855,-18.6873],[-46.46035,-18.68572],[-46.46171,-18.68608],[-46.46249,-18.68747],[-46.46374,-18.68813],[-46.46515,-18.68845],[-46.466,-18.69085],[-46.46659,-18.69153],[-46.46763,-18.69153],[-46.47091,-18.68992],[-46.47227,-18.69037],[-46.47324,-18.69164],[-46.47403,-18.6913],[-46.47689,-18.69152],[-46.47722,-18.69243],[-46.47844,-18.69183],[-46.48006,-18.69189],[-46.48012,-18.6924],[-46.48126,-18.69373],[-46.48215,-18.69562],[-46.48368,-18.69571],[-46.48555,-18.6953],[-46.48662,-18.69429],[-46.48867,-18.69452],[-46.49061,-18.69448],[-46.4925,-18.69377],[-46.49391,-18.69432],[-46.49504,-18.69588],[-46.49472,-18.69676],[-46.49565,-18.6972],[-46.49574,-18.6981],[-46.49518,-18.6989],[-46.49565,-18.6996],[-46.49674,-18.69967],[-46.49815,-18.69902],[-46.49884,-18.70045],[-46.49977,-18.70068],[-46.50082,-18.70163],[-46.50287,-18.70133],[-46.50434,-18.70145],[-46.50598,-18.70322],[-46.50874,-18.70481],[-46.51019,-18.70461],[-46.51123,-18.70562],[-46.51217,-18.70537],[-46.51258,-18.70443],[-46.51446,-18.703],[-46.51494,-18.70186],[-46.51507,-18.69967],[-46.51572,-18.69772],[-46.51585,-18.69625],[-46.51638,-18.69488],[-46.51908,-18.69504],[-46.52134,-18.69603],[-46.52194,-18.69693],[-46.52278,-18.69925],[-46.52348,-18.69999],[-46.52497,-18.70045],[-46.52562,-18.70155],[-46.5255,-18.70217],[-46.52442,-18.70272],[-46.52213,-18.70283],[-46.52061,-18.70363],[-46.51812,-18.70606],[-46.5178,-18.70735],[-46.51862,-18.70795],[-46.51983,-18.708],[-46.52147,-18.70694],[-46.52337,-18.70766],[-46.52484,-18.70736],[-46.52535,-18.70605],[-46.52412,-18.70529],[-46.52465,-18.70463],[-46.52651,-18.70523],[-46.5273,-18.70647],[-46.52658,-18.70775],[-46.52452,-18.71009],[-46.52361,-18.7123],[-46.52324,-18.71379],[-46.52329,-18.71524],[-46.5243,-18.71639],[-46.52637,-18.71761],[-46.52926,-18.71906],[-46.53008,-18.71984],[-46.53039,-18.72122],[-46.52991,-18.72209],[-46.52701,-18.72354],[-46.5259,-18.72464],[-46.52546,-18.72611],[-46.52621,-18.72723],[-46.52732,-18.72694],[-46.52845,-18.72611],[-46.53109,-18.72322],[-46.53362,-18.72182],[-46.53523,-18.72176],[-46.53685,-18.7221],[-46.53791,-18.72383],[-46.53793,-18.72612],[-46.53836,-18.7272],[-46.54048,-18.72925],[-46.54011,-18.73047],[-46.53597,-18.73039],[-46.53452,-18.7309],[-46.5336,-18.73204],[-46.53348,-18.73622],[-46.53263,-18.73762],[-46.53106,-18.73799],[-46.52788,-18.73785],[-46.52691,-18.73812],[-46.52689,-18.74111],[-46.52666,-18.74373],[-46.52391,-18.74673],[-46.52239,-18.7473],[-46.5193,-18.75028],[-46.51814,-18.75196],[-46.51835,-18.75348],[-46.52045,-18.75499],[-46.52074,-18.75642],[-46.51941,-18.75878],[-46.52003,-18.75991],[-46.52121,-18.75984],[-46.52216,-18.75936],[-46.52546,-18.75682],[-46.52795,-18.75565],[-46.52983,-18.75558],[-46.53108,-18.75637],[-46.53163,-18.7583],[-46.5317,-18.76151],[-46.53138,-18.76298],[-46.53047,-18.76358],[-46.5288,-18.76383],[-46.52511,-18.76364],[-46.52309,-18.76327],[-46.52253,-18.76389],[-46.5228,-18.76593],[-46.52289,-18.76908],[-46.52192,-18.77055],[-46.52062,-18.7713],[-46.51864,-18.77192],[-46.51746,-18.77183],[-46.51601,-18.771],[-46.51433,-18.76971],[-46.51288,-18.76897],[-46.51124,-18.76892],[-46.51047,-18.76941],[-46.51063,-18.77214],[-46.51114,-18.77304],[-46.51203,-18.77352],[-46.51391,-18.77345],[-46.51352,-18.77589],[-46.51422,-18.77791],[-46.51479,-18.77876],[-46.51646,-18.77998],[-46.51742,-18.78099],[-46.51737,-18.78304],[-46.51804,-18.78366],[-46.51901,-18.78345],[-46.51971,-18.78267],[-46.52138,-18.77934],[-46.52314,-18.77652],[-46.52461,-18.77544],[-46.52553,-18.77577],[-46.52594,-18.77673],[-46.52572,-18.7788],[-46.52465,-18.78254],[-46.52501,-18.78408],[-46.5271,-18.7864],[-46.52845,-18.7876],[-46.52908,-18.78857],[-46.52912,-18.791],[-46.52813,-18.79215],[-46.52787,-18.79302],[-46.52815,-18.79401],[-46.52788,-18.79656],[-46.52723,-18.79936],[-46.52836,-18.80028],[-46.53121,-18.79937],[-46.53179,-18.80058],[-46.53019,-18.80444],[-46.52879,-18.80566],[-46.52849,-18.80713],[-46.52849,-18.8088],[-46.52936,-18.80995],[-46.53032,-18.81011],[-46.53112,-18.8094],[-46.53226,-18.80747],[-46.53272,-18.80715],[-46.53359,-18.80543],[-46.5347,-18.80619],[-46.53493,-18.81023],[-46.53556,-18.81104],[-46.5371,-18.81123],[-46.53925,-18.81082],[-46.54077,-18.81077],[-46.54187,-18.81169],[-46.54271,-18.81468],[-46.54249,-18.817],[-46.54102,-18.81837],[-46.53696,-18.82071],[-46.53595,-18.82108],[-46.53216,-18.82167],[-46.52917,-18.82438],[-46.52335,-18.82701],[-46.52236,-18.82717],[-46.52053,-18.82804],[-46.51792,-18.83036],[-46.51632,-18.83228],[-46.5149,-18.83449],[-46.51465,-18.83559],[-46.51477,-18.83954],[-46.51435,-18.84227],[-46.51372,-18.8442],[-46.512,-18.8467],[-46.51026,-18.84877],[-46.50884,-18.85003],[-46.50782,-18.85046],[-46.50287,-18.85459],[-46.50077,-18.85502],[-46.49614,-18.85552],[-46.49465,-18.85601],[-46.49099,-18.85671],[-46.48877,-18.85678],[-46.48672,-18.85712],[-46.48408,-18.85699],[-46.48286,-18.85642],[-46.47886,-18.85607],[-46.47659,-18.85561],[-46.46976,-18.8549],[-46.46654,-18.85506],[-46.46522,-18.85546],[-46.46014,-18.85639],[-46.45719,-18.85749],[-46.45179,-18.85866],[-46.44621,-18.85977],[-46.44532,-18.86106],[-46.44415,-18.8652],[-46.44351,-18.87088],[-46.44269,-18.87208],[-46.43833,-18.87403],[-46.43688,-18.87499],[-46.43452,-18.87543],[-46.43288,-18.87482],[-46.43039,-18.87256],[-46.4288,-18.87204],[-46.42492,-18.87187],[-46.42196,-18.87016],[-46.41856,-18.86965],[-46.41527,-18.8697],[-46.41399,-18.86998],[-46.41191,-18.87101],[-46.41046,-18.87208],[-46.40864,-18.87488],[-46.40758,-18.87613],[-46.40473,-18.87856],[-46.4028,-18.88055],[-46.39991,-18.87937],[-46.3978,-18.87916],[-46.38975,-18.8793],[-46.38685,-18.87954],[-46.38314,-18.88008],[-46.38068,-18.88167],[-46.37824,-18.88262],[-46.3778,-18.88348],[-46.37786,-18.8862],[-46.37765,-18.88784],[-46.37656,-18.88977],[-46.37448,-18.8917],[-46.3713,-18.89234],[-46.3697,-18.89235],[-46.36623,-18.89201],[-46.36302,-18.89097],[-46.36059,-18.89053],[-46.35865,-18.89039],[-46.35755,-18.89004],[-46.35543,-18.89016],[-46.3535,-18.89072],[-46.35226,-18.89151],[-46.34984,-18.89239],[-46.34671,-18.8931],[-46.34306,-18.89414],[-46.33795,-18.89615],[-46.33709,-18.89674],[-46.33545,-18.89685],[-46.3316,-18.89538],[-46.33057,-18.89485],[-46.32762,-18.89385],[-46.32577,-18.89352],[-46.32365,-18.89388],[-46.31561,-18.89465]]]},"properties":{"codigo":"313750205","name":"Lagoa Formosa","population":17525,"households":8534,"areaKm2":563.3912,"density":31.1}},{"type":"Feature","geometry":{"type":"Polygon","coordinates":[[[-46.13351,-18.81548],[-46.13193,-18.81466],[-46.13238,-18.81323],[-46.13042,-18.81297],[-46.12903,-18.81332],[-46.12815,-18.81301],[-46.12652,-18.81055],[-46.12531,-18.80929],[-46.1239,-18.80899],[-46.12301,-18.80804],[-46.12187,-18.80896],[-46.12119,-18.80849],[-46.12176,-18.80696],[-46.12347,-18.80578],[-46.12338,-18.80483],[-46.12174,-18.80374],[-46.1219,-18.80233],[-46.12117,-18.80184],[-46.12023,-18.80225],[-46.11928,-18.80399],[-46.11811,-18.80358],[-46.11809,-18.80249],[-46.11743,-18.8011],[-46.11753,-18.8002],[-46.11647,-18.79808],[-46.11648,-18.79718],[-46.11732,-18.79588],[-46.11831,-18.79597],[-46.11883,-18.79532],[-46.1182,-18.7939],[-46.11622,-18.79189],[-46.11625,-18.79099],[-46.11802,-18.79006],[-46.11794,-18.78868],[-46.11692,-18.7884],[-46.1175,-18.78724],[-46.11755,-18.78627],[-46.11658,-18.78594],[-46.11521,-18.78641],[-46.11353,-18.78819],[-46.11018,-18.7886],[-46.10867,-18.7881],[-46.10869,-18.78685],[-46.10659,-18.7868],[-46.10542,-18.78774],[-46.10466,-18.78734],[-46.10496,-18.78635],[-46.10754,-18.78605],[-46.10842,-18.78564],[-46.10812,-18.78479],[-46.10556,-18.78496],[-46.10546,-18.78401],[-46.10748,-18.78331],[-46.10783,-18.78261],[-46.1074,-18.78165],[-46.1079,-18.78044],[-46.10955,-18.78032],[-46.11045,-18.77977],[-46.1106,-18.77885],[-46.10979,-18.77827],[-46.10543,-18.77759],[-46.10338,-18.77779],[-46.09948,-18.77775],[-46.09845,-18.77678],[-46.09959,-18.77572],[-46.09946,-18.77413],[-46.09732,-18.77259],[-46.09605,-18.77091],[-46.09507,-18.77014],[-46.0941,-18.76993],[-46.0918,-18.77096],[-46.09177,-18.76967],[-46.09298,-18.76825],[-46.0956,-18.76658],[-46.095,-18.76335],[-46.09442,-18.76239],[-46.09435,-18.76097],[-46.09182,-18.76025],[-46.08738,-18.76061],[-46.084,-18.75877],[-46.08328,-18.75788],[-46.08305,-18.75687],[-46.08195,-18.75524],[-46.08166,-18.75416],[-46.08078,-18.7539],[-46.08022,-18.75469],[-46.07989,-18.7561],[-46.07851,-18.75753],[-46.07752,-18.75744],[-46.07534,-18.75591],[-46.07585,-18.7551],[-46.07684,-18.75483],[-46.07679,-18.75365],[-46.07612,-18.75263],[-46.07519,-18.75232],[-46.07255,-18.75323],[-46.07112,-18.75431],[-46.06904,-18.75513],[-46.06788,-18.75504],[-46.0669,-18.7537],[-46.0679,-18.75251],[-46.06926,-18.75186],[-46.07006,-18.75104],[-46.06885,-18.75069],[-46.06505,-18.75072],[-46.06429,-18.74981],[-46.06546,-18.7491],[-46.06358,-18.74821],[-46.06382,-18.7472],[-46.0632,-18.7453],[-46.06246,-18.7446],[-46.0615,-18.74461],[-46.06097,-18.7437],[-46.05974,-18.73907],[-46.06003,-18.73819],[-46.06124,-18.7367],[-46.06075,-18.73553],[-46.05876,-18.73506],[-46.05853,-18.73461],[-46.06034,-18.73291],[-46.06076,-18.73139],[-46.06062,-18.73042],[-46.05998,-18.72965],[-46.05686,-18.72835],[-46.05659,-18.72704],[-46.058,-18.72644],[-46.06013,-18.72636],[-46.06118,-18.72583],[-46.06046,-18.72384],[-46.06098,-18.72307],[-46.0626,-18.72338],[-46.06456,-18.72537],[-46.06553,-18.72584],[-46.06655,-18.72577],[-46.06856,-18.72502],[-46.07012,-18.7235],[-46.06787,-18.72301],[-46.06551,-18.72147],[-46.06449,-18.72105],[-46.06252,-18.71922],[-46.06522,-18.71891],[-46.06711,-18.71812],[-46.0696,-18.71793],[-46.07135,-18.71873],[-46.07244,-18.71878],[-46.07361,-18.71784],[-46.07448,-18.7166],[-46.07616,-18.71519],[-46.07628,-18.71369],[-46.07724,-18.71252],[-46.08123,-18.71235],[-46.08238,-18.71194],[-46.08327,-18.71309],[-46.08447,-18.7127],[-46.08623,-18.71106],[-46.08629,-18.70922],[-46.08764,-18.70919],[-46.08788,-18.70806],[-46.08877,-18.70673],[-46.09039,-18.70543],[-46.09241,-18.70519],[-46.09396,-18.70635],[-46.09452,-18.70646],[-46.09644,-18.70589],[-46.09709,-18.70609],[-46.09821,-18.70726],[-46.09909,-18.70897],[-46.10105,-18.70914],[-46.10212,-18.70972],[-46.10323,-18.71078],[-46.10338,-18.71223],[-46.10397,-18.71398],[-46.10466,-18.71559],[-46.11017,-18.72007],[-46.11193,-18.72218],[-46.11228,-18.72295],[-46.11405,-18.72513],[-46.11588,-18.72627],[-46.11697,-18.72719],[-46.11672,-18.72819],[-46.11805,-18.72938],[-46.11945,-18.7294],[-46.11981,-18.73029],[-46.12099,-18.73131],[-46.1225,-18.73165],[-46.12302,-18.73249],[-46.12329,-18.73389],[-46.12529,-18.7336],[-46.1266,-18.73364],[-46.12745,-18.73485],[-46.12902,-18.73512],[-46.13025,-18.73601],[-46.13201,-18.73681],[-46.13328,-18.7378],[-46.13425,-18.73762],[-46.13656,-18.73852],[-46.13874,-18.73843],[-46.14063,-18.73761],[-46.1417,-18.73782],[-46.14334,-18.73901],[-46.14382,-18.73978],[-46.14479,-18.74006],[-46.14654,-18.74192],[-46.14767,-18.74356],[-46.14898,-18.74418],[-46.15017,-18.74413],[-46.15267,-18.74123],[-46.1561,-18.73911],[-46.15846,-18.73632],[-46.16028,-18.73539],[-46.16274,-18.73505],[-46.16345,-18.73427],[-46.16359,-18.7333],[-46.1655,-18.73216],[-46.16722,-18.73005],[-46.16927,-18.72866],[-46.17041,-18.72859],[-46.17141,-18.72691],[-46.17273,-18.72553],[-46.17384,-18.72399],[-46.17565,-18.72303],[-46.17798,-18.72105],[-46.17904,-18.72068],[-46.18119,-18.72064],[-46.18399,-18.72082],[-46.18584,-18.71998],[-46.18905,-18.7198],[-46.19236,-18.7199],[-46.19187,-18.7206],[-46.19193,-18.72181],[-46.19402,-18.72228],[-46.19548,-18.7231],[-46.19697,-18.72448],[-46.1993,-18.7256],[-46.19927,-18.72706],[-46.20002,-18.72878],[-46.19932,-18.72954],[-46.19933,-18.7307],[-46.20182,-18.73116],[-46.20254,-18.73314],[-46.20368,-18.73476],[-46.20471,-18.7358],[-46.20447,-18.73918],[-46.20411,-18.73975],[-46.20442,-18.74247],[-46.20564,-18.74307],[-46.2065,-18.74426],[-46.20678,-18.7457],[-46.20745,-18.74674],[-46.2075,-18.74818],[-46.20826,-18.74865],[-46.20892,-18.75087],[-46.20848,-18.75162],[-46.20859,-18.75307],[-46.20827,-18.75409],[-46.20859,-18.75777],[-46.20983,-18.75948],[-46.21114,-18.76072],[-46.21339,-18.76098],[-46.21496,-18.76043],[-46.21753,-18.7607],[-46.21859,-18.76176],[-46.21996,-18.76241],[-46.22272,-18.76566],[-46.22319,-18.76926],[-46.22281,-18.77115],[-46.22307,-18.77204],[-46.22299,-18.7741],[-46.22425,-18.7766],[-46.22638,-18.77834],[-46.22657,-18.78044],[-46.22711,-18.78197],[-46.22317,-18.78354],[-46.21945,-18.78616],[-46.21713,-18.78587],[-46.21257,-18.78585],[-46.21245,-18.78745],[-46.21354,-18.78756],[-46.21602,-18.78872],[-46.21534,-18.7896],[-46.21493,-18.79156],[-46.2142,-18.79249],[-46.21391,-18.79431],[-46.21342,-18.79561],[-46.21182,-18.79713],[-46.21252,-18.79847],[-46.21455,-18.7987],[-46.21632,-18.79928],[-46.21777,-18.79913],[-46.21862,-18.80012],[-46.22031,-18.80153],[-46.22951,-18.80588],[-46.23041,-18.81378],[-46.23473,-18.81357],[-46.23515,-18.81406],[-46.23538,-18.816],[-46.23711,-18.819],[-46.24007,-18.82366],[-46.24039,-18.82513],[-46.24002,-18.82597],[-46.23787,-18.82737],[-46.23513,-18.82788],[-46.23412,-18.82832],[-46.2331,-18.8279],[-46.23227,-18.82852],[-46.23055,-18.82841],[-46.2289,-18.82736],[-46.22747,-18.82691],[-46.22664,-18.82559],[-46.22571,-18.82505],[-46.22469,-18.82503],[-46.22388,-18.82437],[-46.22289,-18.82437],[-46.22155,-18.82497],[-46.21734,-18.82496],[-46.21479,-18.82453],[-46.21405,-18.82394],[-46.21153,-18.82369],[-46.21018,-18.82496],[-46.20968,-18.82497],[-46.20825,-18.82622],[-46.20688,-18.82655],[-46.20545,-18.82508],[-46.20457,-18.82473],[-46.20265,-18.82454],[-46.2012,-18.82309],[-46.19929,-18.82202],[-46.19683,-18.82149],[-46.19537,-18.82076],[-46.19406,-18.81978],[-46.19363,-18.82001],[-46.19382,-18.8219],[-46.19307,-18.82309],[-46.19212,-18.82389],[-46.19117,-18.82352],[-46.19026,-18.82397],[-46.18881,-18.82414],[-46.18733,-18.82476],[-46.18588,-18.82615],[-46.18421,-18.82697],[-46.18287,-18.82895],[-46.18381,-18.82995],[-46.18297,-18.83042],[-46.18318,-18.83194],[-46.18187,-18.83173],[-46.18228,-18.83518],[-46.18358,-18.83607],[-46.18306,-18.83682],[-46.18129,-18.83773],[-46.18033,-18.83885],[-46.17873,-18.84004],[-46.17709,-18.84025],[-46.17576,-18.83887],[-46.17429,-18.83807],[-46.17364,-18.83714],[-46.17272,-18.83702],[-46.17156,-18.83626],[-46.17055,-18.83617],[-46.16897,-18.83689],[-46.16686,-18.83665],[-46.16658,-18.83624],[-46.16723,-18.83478],[-46.16605,-18.83416],[-46.16214,-18.83324],[-46.16256,-18.83236],[-46.16239,-18.83135],[-46.16151,-18.83093],[-46.16109,-18.83174],[-46.15946,-18.83233],[-46.15803,-18.83203],[-46.15764,-18.83073],[-46.15648,-18.82997],[-46.15491,-18.83002],[-46.15408,-18.8296],[-46.15416,-18.82847],[-46.15316,-18.82846],[-46.15189,-18.82904],[-46.15145,-18.82758],[-46.15145,-18.82613],[-46.15067,-18.82478],[-46.14978,-18.82406],[-46.14711,-18.82329],[-46.14534,-18.82198],[-46.14434,-18.82186],[-46.14338,-18.82082],[-46.14293,-18.81906],[-46.14145,-18.81895],[-46.14036,-18.81782],[-46.1401,-18.81676],[-46.13832,-18.81629],[-46.13737,-18.81576],[-46.13607,-18.81617],[-46.13508,-18.81506],[-46.13351,-18.81548]]]},"properties":{"codigo":"313750207","name":"Limeira de Minas","population":337,"households":229,"areaKm2":143.9444,"density":2.3}},{"type":"Feature","geometry":{"type":"Polygon","coordinates":[[[-46.23515,-18.81406],[-46.23473,-18.81357],[-46.23041,-18.81378],[-46.22951,-18.80588],[-46.22031,-18.80153],[-46.21862,-18.80012],[-46.21777,-18.79913],[-46.21632,-18.79928],[-46.21455,-18.7987],[-46.21252,-18.79847],[-46.21182,-18.79713],[-46.21342,-18.79561],[-46.21391,-18.79431],[-46.2142,-18.79249],[-46.21493,-18.79156],[-46.21534,-18.7896],[-46.21602,-18.78872],[-46.21354,-18.78756],[-46.21245,-18.78745],[-46.21257,-18.78585],[-46.21713,-18.78587],[-46.21945,-18.78616],[-46.22317,-18.78354],[-46.22711,-18.78197],[-46.22657,-18.78044],[-46.22638,-18.77834],[-46.22425,-18.7766],[-46.22299,-18.7741],[-46.22307,-18.77204],[-46.22281,-18.77115],[-46.22319,-18.76926],[-46.22272,-18.76566],[-46.21996,-18.76241],[-46.21859,-18.76176],[-46.21753,-18.7607],[-46.21496,-18.76043],[-46.21339,-18.76098],[-46.21114,-18.76072],[-46.20983,-18.75948],[-46.20859,-18.75777],[-46.20827,-18.75409],[-46.20859,-18.75307],[-46.20848,-18.75162],[-46.20892,-18.75087],[-46.20826,-18.74865],[-46.2075,-18.74818],[-46.20745,-18.74674],[-46.20678,-18.7457],[-46.2065,-18.74426],[-46.20564,-18.74307],[-46.20442,-18.74247],[-46.20411,-18.73975],[-46.20447,-18.73918],[-46.20471,-18.7358],[-46.20368,-18.73476],[-46.20254,-18.73314],[-46.20182,-18.73116],[-46.19933,-18.7307],[-46.19932,-18.72954],[-46.20002,-18.72878],[-46.19927,-18.72706],[-46.1993,-18.7256],[-46.19697,-18.72448],[-46.19548,-18.7231],[-46.19402,-18.72228],[-46.19193,-18.72181],[-46.19187,-18.7206],[-46.19236,-18.7199],[-46.1971,-18.72029],[-46.1989,-18.72078],[-46.20113,-18.72113],[-46.20348,-18.72111],[-46.20443,-18.72141],[-46.20864,-18.72165],[-46.20962,-18.72131],[-46.2132,-18.7214],[-46.21423,-18.7211],[-46.21633,-18.71851],[-46.21777,-18.71724],[-46.21918,-18.7164],[-46.22242,-18.71537],[-46.22452,-18.71501],[-46.22708,-18.71514],[-46.22894,-18.71626],[-46.23231,-18.71767],[-46.23531,-18.7182],[-46.23984,-18.71865],[-46.24086,-18.71858],[-46.24263,-18.71783],[-46.24427,-18.71757],[-46.24673,-18.71621],[-46.24941,-18.71427],[-46.25152,-18.71349],[-46.2553,-18.71247],[-46.25699,-18.71248],[-46.25843,-18.71319],[-46.26076,-18.71469],[-46.26284,-18.71497],[-46.26672,-18.71643],[-46.26775,-18.7172],[-46.27072,-18.7182],[-46.27506,-18.71892],[-46.2786,-18.71848],[-46.27936,-18.71899],[-46.28136,-18.71769],[-46.28252,-18.71736],[-46.28475,-18.7158],[-46.285,-18.71637],[-46.28396,-18.71878],[-46.28336,-18.72106],[-46.28261,-18.72575],[-46.2838,-18.73028],[-46.28519,-18.73249],[-46.28608,-18.73326],[-46.28712,-18.7354],[-46.28833,-18.73687],[-46.29024,-18.73824],[-46.29529,-18.74079],[-46.29601,-18.74262],[-46.29795,-18.7444],[-46.29863,-18.74633],[-46.30148,-18.75098],[-46.30236,-18.75361],[-46.29988,-18.75716],[-46.29775,-18.75952],[-46.29478,-18.76177],[-46.28968,-18.76383],[-46.28793,-18.76417],[-46.28621,-18.76828],[-46.28542,-18.76869],[-46.28576,-18.7725],[-46.28627,-18.77489],[-46.28695,-18.77585],[-46.28887,-18.77933],[-46.29107,-18.78258],[-46.29161,-18.78416],[-46.29113,-18.78538],[-46.28916,-18.78853],[-46.28992,-18.78932],[-46.29123,-18.79174],[-46.29087,-18.79383],[-46.29043,-18.79505],[-46.29109,-18.79562],[-46.29245,-18.79603],[-46.29457,-18.79815],[-46.29525,-18.80049],[-46.29621,-18.80255],[-46.29271,-18.80299],[-46.28902,-18.8022],[-46.28414,-18.79989],[-46.28071,-18.79924],[-46.27854,-18.80042],[-46.27664,-18.80022],[-46.27318,-18.79939],[-46.27184,-18.79841],[-46.26948,-18.79756],[-46.26865,-18.79756],[-46.26515,-18.7983],[-46.25852,-18.79931],[-46.25483,-18.79759],[-46.25071,-18.79603],[-46.25019,-18.79763],[-46.25018,-18.80218],[-46.25084,-18.8047],[-46.25202,-18.80587],[-46.25285,-18.80588],[-46.25455,-18.80647],[-46.2558,-18.80745],[-46.25771,-18.808],[-46.25919,-18.80912],[-46.26063,-18.80961],[-46.26291,-18.80942],[-46.26355,-18.81049],[-46.26602,-18.81046],[-46.26779,-18.81122],[-46.27013,-18.81299],[-46.27256,-18.81343],[-46.27347,-18.81457],[-46.27663,-18.81439],[-46.2773,-18.81468],[-46.27769,-18.81655],[-46.27687,-18.81718],[-46.27665,-18.81912],[-46.27857,-18.82083],[-46.2797,-18.82159],[-46.28097,-18.82146],[-46.28324,-18.8235],[-46.28623,-18.82356],[-46.28645,-18.82409],[-46.2877,-18.82456],[-46.29001,-18.82499],[-46.2914,-18.82485],[-46.29498,-18.82564],[-46.29757,-18.82683],[-46.29975,-18.82688],[-46.30442,-18.82494],[-46.3049,-18.82495],[-46.30655,-18.82626],[-46.3097,-18.82543],[-46.31163,-18.82542],[-46.313,-18.8259],[-46.31523,-18.82631],[-46.31621,-18.82671],[-46.31781,-18.82677],[-46.31881,-18.82728],[-46.32198,-18.82742],[-46.32261,-18.82621],[-46.32425,-18.825],[-46.32396,-18.82406],[-46.32593,-18.82352],[-46.3269,-18.82246],[-46.32867,-18.82151],[-46.33025,-18.82108],[-46.3318,-18.82107],[-46.33266,-18.82168],[-46.3352,-18.82167],[-46.33612,-18.8206],[-46.33734,-18.81993],[-46.33914,-18.82141],[-46.34059,-18.82145],[-46.34155,-18.82021],[-46.34181,-18.81864],[-46.34171,-18.81657],[-46.34193,-18.81564],[-46.3428,-18.81535],[-46.34372,-18.81574],[-46.34459,-18.81536],[-46.34558,-18.8155],[-46.34563,-18.8146],[-46.34851,-18.81344],[-46.349,-18.81267],[-46.35046,-18.81218],[-46.3515,-18.81098],[-46.35416,-18.80971],[-46.35428,-18.80881],[-46.35577,-18.80857],[-46.35668,-18.80809],[-46.35815,-18.80877],[-46.3594,-18.80972],[-46.36002,-18.81192],[-46.35967,-18.81279],[-46.36009,-18.81611],[-46.35911,-18.81651],[-46.3586,-18.81892],[-46.35796,-18.81984],[-46.35762,-18.82209],[-46.358,-18.82303],[-46.35749,-18.82481],[-46.35781,-18.82693],[-46.35764,-18.82738],[-46.35766,-18.83032],[-46.35586,-18.831],[-46.35489,-18.83293],[-46.35286,-18.8337],[-46.35073,-18.83264],[-46.34998,-18.8327],[-46.34921,-18.83397],[-46.34707,-18.83522],[-46.34641,-18.83632],[-46.34581,-18.83632],[-46.34398,-18.83774],[-46.33886,-18.83909],[-46.33639,-18.83985],[-46.33458,-18.83965],[-46.33378,-18.84084],[-46.33105,-18.84245],[-46.33015,-18.84346],[-46.32891,-18.84314],[-46.32707,-18.84319],[-46.32562,-18.8424],[-46.32412,-18.84224],[-46.32204,-18.84238],[-46.31921,-18.84353],[-46.31913,-18.84464],[-46.31747,-18.84537],[-46.31457,-18.84532],[-46.31428,-18.84601],[-46.31311,-18.84685],[-46.31304,-18.8486],[-46.31248,-18.85042],[-46.31211,-18.85242],[-46.31126,-18.85397],[-46.31044,-18.85469],[-46.31185,-18.85929],[-46.31178,-18.86156],[-46.31205,-18.86315],[-46.31252,-18.86377],[-46.31224,-18.86524],[-46.31161,-18.86624],[-46.31095,-18.86828],[-46.31001,-18.86902],[-46.30891,-18.8715],[-46.30864,-18.8736],[-46.30812,-18.87516],[-46.30832,-18.87681],[-46.30981,-18.87943],[-46.31079,-18.88357],[-46.31123,-18.88453],[-46.31404,-18.88823],[-46.31504,-18.88934],[-46.31594,-18.89218],[-46.31561,-18.89465],[-46.3105,-18.89546],[-46.30424,-18.89543],[-46.3028,-18.89513],[-46.29941,-18.8938],[-46.29797,-18.89309],[-46.29594,-18.89092],[-46.29455,-18.8886],[-46.29351,-18.88738],[-46.28917,-18.88362],[-46.28784,-18.88123],[-46.28569,-18.87839],[-46.28483,-18.87785],[-46.28369,-18.87627],[-46.28076,-18.87089],[-46.28027,-18.86959],[-46.27912,-18.86784],[-46.27747,-18.86299],[-46.2757,-18.85975],[-46.27441,-18.85826],[-46.27223,-18.85697],[-46.27076,-18.85695],[-46.26791,-18.85728],[-46.26456,-18.85788],[-46.26103,-18.85998],[-46.25775,-18.86034],[-46.25542,-18.86004],[-46.25305,-18.85799],[-46.25088,-18.85732],[-46.24951,-18.85654],[-46.24507,-18.85668],[-46.24203,-18.85519],[-46.24093,-18.85351],[-46.24081,-18.85126],[-46.24156,-18.84883],[-46.24145,-18.84731],[-46.24096,-18.84561],[-46.24087,-18.84412],[-46.24034,-18.84277],[-46.24044,-18.841],[-46.24089,-18.84018],[-46.24498,-18.83844],[-46.24614,-18.83812],[-46.24829,-18.83497],[-46.24845,-18.83439],[-46.2482,-18.83085],[-46.2466,-18.82584],[-46.24651,-18.82308],[-46.2477,-18.81882],[-46.24893,-18.81633],[-46.2489,-18.81527],[-46.24795,-18.8148],[-46.24573,-18.81483],[-46.24448,-18.81513],[-46.24184,-18.81506],[-46.23543,-18.81385],[-46.23515,-18.81406]]]},"properties":{"codigo":"313750210","name":"Monjolinho de Minas","population":1042,"households":605,"areaKm2":133.5848,"density":7.8}}]}