{"type":"FeatureCollection","features":[{"type":"Feature","geometry":{"type":"Polygon","coordinates":[[[-42.67931,-21.44618],[-42.67933,-21.44729],[-42.68079,-21.44836],[-42.68326,-21.45067],[-42.6861,-21.45047],[-42.68682,-21.45078],[-42.68755,-21.45253],[-42.68861,-21.45315],[-42.68925,-21.45268],[-42.69016,-21.45353],[-42.68902,-21.45505],[-42.68994,-21.45819],[-42.69056,-21.46329],[-42.6889,-21.46609],[-42.6874,-21.46741],[-42.68605,-21.47022],[-42.68525,-21.4725],[-42.68521,-21.47393],[-42.68805,-21.47433],[-42.69013,-21.47571],[-42.69341,-21.4795],[-42.69342,-21.48165],[-42.6952,-21.48424],[-42.69696,-21.48501],[-42.6981,-21.48641],[-42.69894,-21.48704],[-42.70116,-21.48731],[-42.70295,-21.48649],[-42.70447,-21.48612],[-42.70695,-21.4864],[-42.70819,-21.48704],[-42.70889,-21.48803],[-42.70849,-21.48963],[-42.70857,-21.49095],[-42.70933,-21.49222],[-42.70972,-21.49392],[-42.71034,-21.49487],[-42.71216,-21.49569],[-42.7144,-21.498],[-42.71765,-21.49776],[-42.71984,-21.4988],[-42.72016,-21.49988],[-42.71996,-21.50126],[-42.72054,-21.50259],[-42.72144,-21.50351],[-42.72177,-21.50474],[-42.72035,-21.50711],[-42.71766,-21.50871],[-42.71695,-21.51084],[-42.71702,-21.51322],[-42.7148,-21.51435],[-42.71261,-21.51603],[-42.71265,-21.51791],[-42.71374,-21.52073],[-42.71302,-21.522],[-42.71133,-21.5228],[-42.71092,-21.52342],[-42.70806,-21.52451],[-42.70757,-21.52606],[-42.70652,-21.52718],[-42.70579,-21.52962],[-42.70555,-21.53147],[-42.70306,-21.53275],[-42.7009,-21.53242],[-42.69927,-21.53278],[-42.69765,-21.53405],[-42.69731,-21.53552],[-42.69775,-21.53644],[-42.69861,-21.53707],[-42.70014,-21.53977],[-42.70245,-21.54222],[-42.703,-21.54377],[-42.70411,-21.54555],[-42.70409,-21.54657],[-42.70355,-21.54854],[-42.70371,-21.54996],[-42.70363,-21.55359],[-42.70432,-21.55418],[-42.70631,-21.55726],[-42.70864,-21.55811],[-42.70857,-21.56092],[-42.70884,-21.56154],[-42.71035,-21.56169],[-42.71267,-21.56263],[-42.71372,-21.56265],[-42.71481,-21.5639],[-42.7151,-21.56593],[-42.71652,-21.56821],[-42.71921,-21.56887],[-42.72044,-21.56984],[-42.72068,-21.57191],[-42.72038,-21.57228],[-42.7179,-21.57325],[-42.71832,-21.57467],[-42.72061,-21.57693],[-42.72052,-21.57792],[-42.718,-21.57887],[-42.71714,-21.57999],[-42.7171,-21.58068],[-42.71485,-21.58254],[-42.7131,-21.58502],[-42.71164,-21.58764],[-42.71105,-21.58759],[-42.70962,-21.5858],[-42.70916,-21.58462],[-42.70792,-21.58322],[-42.70711,-21.58292],[-42.70587,-21.58307],[-42.70473,-21.58405],[-42.70379,-21.58349],[-42.70345,-21.58219],[-42.70223,-21.57934],[-42.69946,-21.57806],[-42.6983,-21.57889],[-42.69932,-21.58181],[-42.69923,-21.58327],[-42.69826,-21.58399],[-42.6962,-21.5848],[-42.69522,-21.58489],[-42.69382,-21.58599],[-42.69242,-21.58774],[-42.69214,-21.58961],[-42.69336,-21.5918],[-42.6929,-21.59384],[-42.69326,-21.59555],[-42.69241,-21.5963],[-42.6881,-21.59677],[-42.68621,-21.59666],[-42.68593,-21.596],[-42.68657,-21.59418],[-42.68563,-21.59199],[-42.68552,-21.59096],[-42.68486,-21.59039],[-42.68334,-21.59083],[-42.6819,-21.59174],[-42.68078,-21.59082],[-42.67984,-21.59087],[-42.67911,-21.58988],[-42.67896,-21.58894],[-42.67672,-21.58708],[-42.67541,-21.58747],[-42.6722,-21.58788],[-42.67091,-21.587],[-42.66908,-21.58659],[-42.66766,-21.58744],[-42.66647,-21.58723],[-42.66563,-21.58606],[-42.6649,-21.5861],[-42.66302,-21.58695],[-42.66053,-21.5889],[-42.6598,-21.58903],[-42.65862,-21.58757],[-42.65441,-21.58938],[-42.65325,-21.58861],[-42.6503,-21.5888],[-42.6497,-21.58926],[-42.64804,-21.58967],[-42.64647,-21.59095],[-42.64116,-21.59123],[-42.63902,-21.59199],[-42.63724,-21.59191],[-42.63679,-21.59241],[-42.6345,-21.59234],[-42.63219,-21.59206],[-42.63104,-21.59228],[-42.63093,-21.59336],[-42.62931,-21.59268],[-42.62835,-21.59295],[-42.6279,-21.59503],[-42.62729,-21.59643],[-42.62651,-21.5968],[-42.62355,-21.594],[-42.62155,-21.5945],[-42.62061,-21.5942],[-42.61951,-21.59316],[-42.61866,-21.59175],[-42.61752,-21.59053],[-42.61647,-21.59059],[-42.61534,-21.58908],[-42.61332,-21.58946],[-42.6122,-21.58999],[-42.61016,-21.58959],[-42.60889,-21.58987],[-42.60792,-21.59062],[-42.60686,-21.59362],[-42.60693,-21.59409],[-42.60865,-21.59489],[-42.60939,-21.59589],[-42.60889,-21.59728],[-42.60854,-21.59936],[-42.60869,-21.6008],[-42.60825,-21.60172],[-42.60667,-21.60335],[-42.60464,-21.60495],[-42.60434,-21.60699],[-42.60462,-21.60812],[-42.60198,-21.6085],[-42.60127,-21.60817],[-42.59999,-21.6047],[-42.59936,-21.60422],[-42.59858,-21.60269],[-42.59774,-21.60212],[-42.59732,-21.60111],[-42.59634,-21.60091],[-42.59588,-21.60008],[-42.59612,-21.59865],[-42.59693,-21.59737],[-42.59666,-21.59581],[-42.5957,-21.59458],[-42.59418,-21.59486],[-42.59154,-21.59587],[-42.58987,-21.59572],[-42.5891,-21.59467],[-42.58901,-21.59253],[-42.58951,-21.59122],[-42.58916,-21.58989],[-42.58777,-21.58984],[-42.58614,-21.58857],[-42.58565,-21.58709],[-42.58567,-21.58561],[-42.58685,-21.5826],[-42.58659,-21.58192],[-42.58548,-21.58135],[-42.58346,-21.57976],[-42.58244,-21.57991],[-42.57927,-21.58359],[-42.57775,-21.5843],[-42.57618,-21.58392],[-42.5754,-21.58339],[-42.57378,-21.58077],[-42.57345,-21.57873],[-42.5727,-21.57666],[-42.57181,-21.57531],[-42.57119,-21.57507],[-42.57006,-21.57337],[-42.57017,-21.57106],[-42.56906,-21.56983],[-42.56935,-21.56783],[-42.57095,-21.56715],[-42.57183,-21.5663],[-42.57264,-21.56488],[-42.573,-21.563],[-42.57704,-21.56312],[-42.58036,-21.56186],[-42.58177,-21.55948],[-42.58365,-21.55726],[-42.58562,-21.55667],[-42.58669,-21.5549],[-42.58799,-21.55387],[-42.58963,-21.55153],[-42.5934,-21.54964],[-42.59442,-21.54758],[-42.5955,-21.54673],[-42.59748,-21.54583],[-42.59794,-21.54512],[-42.59667,-21.5423],[-42.59504,-21.53992],[-42.59243,-21.53892],[-42.59077,-21.53921],[-42.58725,-21.54105],[-42.58543,-21.54049],[-42.58396,-21.53927],[-42.58259,-21.53864],[-42.5813,-21.53851],[-42.57964,-21.53947],[-42.57827,-21.53953],[-42.57648,-21.53719],[-42.57515,-21.53519],[-42.57217,-21.53217],[-42.57098,-21.53217],[-42.56975,-21.53291],[-42.56865,-21.53465],[-42.5667,-21.53706],[-42.56316,-21.53861],[-42.55978,-21.54162],[-42.55869,-21.54167],[-42.55493,-21.53992],[-42.55565,-21.53893],[-42.55541,-21.537],[-42.55429,-21.53625],[-42.55463,-21.53532],[-42.55569,-21.53505],[-42.55801,-21.53331],[-42.55675,-21.53175],[-42.55644,-21.53092],[-42.55658,-21.52907],[-42.55718,-21.52759],[-42.55646,-21.52621],[-42.55523,-21.52539],[-42.55396,-21.52356],[-42.55385,-21.5225],[-42.55464,-21.52081],[-42.55455,-21.51907],[-42.55353,-21.51794],[-42.55214,-21.51711],[-42.54999,-21.51684],[-42.54907,-21.51726],[-42.54809,-21.51845],[-42.54592,-21.51784],[-42.54544,-21.51647],[-42.54461,-21.51541],[-42.54325,-21.51537],[-42.54093,-21.51677],[-42.54007,-21.51693],[-42.53969,-21.51568],[-42.53847,-21.5143],[-42.53683,-21.51403],[-42.53581,-21.51356],[-42.53552,-21.51234],[-42.53491,-21.51165],[-42.53504,-21.51061],[-42.53615,-21.50712],[-42.53787,-21.50512],[-42.54024,-21.50384],[-42.54099,-21.50301],[-42.54149,-21.5017],[-42.54057,-21.49946],[-42.54063,-21.49748],[-42.53974,-21.4952],[-42.53991,-21.4942],[-42.54431,-21.49217],[-42.54483,-21.49233],[-42.54871,-21.49151],[-42.54951,-21.49062],[-42.5501,-21.48899],[-42.55147,-21.48645],[-42.55144,-21.485],[-42.55093,-21.48454],[-42.54932,-21.48487],[-42.54782,-21.4846],[-42.54605,-21.48283],[-42.54572,-21.48106],[-42.54659,-21.47789],[-42.54726,-21.47756],[-42.55027,-21.47741],[-42.55128,-21.47776],[-42.55371,-21.47922],[-42.55497,-21.47897],[-42.55589,-21.47837],[-42.55718,-21.47643],[-42.55744,-21.47436],[-42.55659,-21.47243],[-42.55632,-21.47039],[-42.55703,-21.46708],[-42.55841,-21.46482],[-42.5604,-21.4638],[-42.56146,-21.46267],[-42.56242,-21.46061],[-42.56162,-21.46001],[-42.56015,-21.4596],[-42.55903,-21.4585],[-42.55779,-21.45876],[-42.55685,-21.45855],[-42.55599,-21.45754],[-42.55361,-21.45681],[-42.55289,-21.45607],[-42.55204,-21.4539],[-42.55164,-21.45219],[-42.55043,-21.45132],[-42.54892,-21.44838],[-42.54963,-21.44635],[-42.55113,-21.44562],[-42.55187,-21.44359],[-42.55084,-21.44164],[-42.54993,-21.43912],[-42.54884,-21.43819],[-42.54707,-21.43807],[-42.54614,-21.43889],[-42.54516,-21.4382],[-42.5467,-21.43691],[-42.54935,-21.43522],[-42.5511,-21.43487],[-42.55483,-21.43461],[-42.55844,-21.43423],[-42.56088,-21.43383],[-42.56174,-21.43393],[-42.56236,-21.43563],[-42.56163,-21.43791],[-42.56171,-21.44016],[-42.56223,-21.4419],[-42.5642,-21.44464],[-42.56618,-21.4452],[-42.56937,-21.44531],[-42.57295,-21.44524],[-42.57489,-21.44584],[-42.57637,-21.44664],[-42.57735,-21.4475],[-42.57846,-21.44905],[-42.57907,-21.4493],[-42.58222,-21.4525],[-42.58379,-21.45223],[-42.58453,-21.45004],[-42.58368,-21.44552],[-42.58367,-21.44318],[-42.58405,-21.44202],[-42.58569,-21.43992],[-42.58619,-21.43985],[-42.59009,-21.43759],[-42.59258,-21.43666],[-42.59341,-21.43608],[-42.59391,-21.43455],[-42.59392,-21.43272],[-42.59357,-21.43125],[-42.5916,-21.42976],[-42.59054,-21.42798],[-42.58983,-21.42761],[-42.58771,-21.42732],[-42.587,-21.42694],[-42.5871,-21.42533],[-42.58847,-21.42341],[-42.59074,-21.42256],[-42.5944,-21.42177],[-42.59569,-21.41975],[-42.59556,-21.41596],[-42.59579,-21.41573],[-42.59693,-21.41497],[-42.59902,-21.41501],[-42.60063,-21.41557],[-42.6019,-21.41673],[-42.60379,-21.41681],[-42.60615,-21.41585],[-42.60805,-21.41442],[-42.60874,-21.41354],[-42.61128,-21.41143],[-42.61224,-21.41094],[-42.61321,-21.41133],[-42.62035,-21.41207],[-42.62458,-21.4131],[-42.62801,-21.4138],[-42.63005,-21.41372],[-42.63189,-21.4124],[-42.63285,-21.41306],[-42.63237,-21.41525],[-42.62878,-21.41766],[-42.62746,-21.41817],[-42.62618,-21.41825],[-42.62549,-21.41919],[-42.62556,-21.42069],[-42.6269,-21.42176],[-42.63227,-21.42428],[-42.63391,-21.42601],[-42.63543,-21.42827],[-42.63587,-21.42935],[-42.63603,-21.43244],[-42.63457,-21.43493],[-42.63332,-21.43603],[-42.63121,-21.43728],[-42.63168,-21.43864],[-42.63534,-21.44109],[-42.63729,-21.44278],[-42.63804,-21.44302],[-42.64036,-21.44266],[-42.64296,-21.4412],[-42.64534,-21.4391],[-42.64733,-21.43872],[-42.64817,-21.43734],[-42.64906,-21.43062],[-42.6485,-21.42906],[-42.64863,-21.42848],[-42.65017,-21.42753],[-42.65343,-21.42679],[-42.65469,-21.42674],[-42.65639,-21.42711],[-42.65669,-21.42788],[-42.65694,-21.43062],[-42.65696,-21.43329],[-42.65721,-21.43497],[-42.65793,-21.43601],[-42.6592,-21.43598],[-42.66028,-21.43445],[-42.6605,-21.43292],[-42.66121,-21.43048],[-42.66212,-21.43058],[-42.66169,-21.43363],[-42.66295,-21.43309],[-42.66421,-21.43389],[-42.66527,-21.43329],[-42.66602,-21.43395],[-42.66617,-21.43483],[-42.66878,-21.43491],[-42.66989,-21.43474],[-42.67149,-21.43582],[-42.67037,-21.43633],[-42.67005,-21.43845],[-42.6712,-21.43884],[-42.67186,-21.44037],[-42.67508,-21.44242],[-42.6766,-21.44267],[-42.67735,-21.4456],[-42.67812,-21.44697],[-42.67931,-21.44618]]]},"properties":{"codigo":"313840105","name":"Leopoldina","population":45440,"households":20876,"areaKm2":260.0273,"density":174.8}},{"type":"Feature","geometry":{"type":"Polygon","coordinates":[[[-42.4352,-21.64636],[-42.43514,-21.64511],[-42.43359,-21.64158],[-42.43171,-21.63969],[-42.43047,-21.63782],[-42.42875,-21.63679],[-42.42688,-21.63677],[-42.42542,-21.63598],[-42.42374,-21.63557],[-42.42243,-21.63434],[-42.42131,-21.6337],[-42.4196,-21.63353],[-42.41898,-21.63317],[-42.41952,-21.63141],[-42.42146,-21.62945],[-42.42322,-21.62708],[-42.42359,-21.62621],[-42.4238,-21.62401],[-42.42329,-21.62185],[-42.42403,-21.62091],[-42.42339,-21.61937],[-42.42281,-21.6162],[-42.42202,-21.61438],[-42.4212,-21.61165],[-42.41708,-21.60955],[-42.41606,-21.60944],[-42.41445,-21.61007],[-42.41352,-21.60992],[-42.41302,-21.60898],[-42.41019,-21.60793],[-42.40966,-21.60728],[-42.40969,-21.60631],[-42.41028,-21.60554],[-42.41226,-21.60411],[-42.41178,-21.60301],[-42.41057,-21.6015],[-42.41159,-21.60143],[-42.41363,-21.60077],[-42.41492,-21.60095],[-42.4155,-21.60204],[-42.41621,-21.60239],[-42.41836,-21.60192],[-42.42098,-21.60056],[-42.42273,-21.6002],[-42.42332,-21.59969],[-42.423,-21.59783],[-42.42212,-21.5959],[-42.42082,-21.59371],[-42.42089,-21.59299],[-42.42257,-21.59211],[-42.42235,-21.59055],[-42.42275,-21.5899],[-42.42416,-21.58927],[-42.42785,-21.58603],[-42.42844,-21.58472],[-42.42968,-21.58429],[-42.43127,-21.58525],[-42.43351,-21.58751],[-42.43485,-21.58701],[-42.4371,-21.58534],[-42.43882,-21.58579],[-42.44002,-21.58541],[-42.44065,-21.58468],[-42.44194,-21.58404],[-42.44305,-21.58435],[-42.444,-21.5851],[-42.44501,-21.58676],[-42.44658,-21.58654],[-42.44915,-21.58534],[-42.45145,-21.58512],[-42.45195,-21.58254],[-42.45266,-21.58224],[-42.45529,-21.5825],[-42.4573,-21.58218],[-42.45879,-21.58161],[-42.46042,-21.58148],[-42.46201,-21.58061],[-42.46396,-21.57897],[-42.46577,-21.57913],[-42.46764,-21.57814],[-42.46993,-21.5782],[-42.47111,-21.57905],[-42.47351,-21.57785],[-42.47675,-21.57718],[-42.47823,-21.57593],[-42.47825,-21.57495],[-42.4767,-21.57305],[-42.47649,-21.56962],[-42.47832,-21.56834],[-42.48098,-21.56871],[-42.48224,-21.56864],[-42.48501,-21.56754],[-42.48823,-21.56746],[-42.48944,-21.56702],[-42.49047,-21.56593],[-42.49014,-21.56063],[-42.48952,-21.55961],[-42.48952,-21.55825],[-42.49091,-21.55711],[-42.4925,-21.55721],[-42.49488,-21.55819],[-42.496,-21.55836],[-42.49757,-21.55788],[-42.49928,-21.55623],[-42.50093,-21.55694],[-42.50258,-21.55812],[-42.50462,-21.55863],[-42.50602,-21.55865],[-42.50964,-21.55733],[-42.51018,-21.55917],[-42.51135,-21.56071],[-42.51219,-21.56126],[-42.51423,-21.5611],[-42.51522,-21.56031],[-42.51695,-21.55827],[-42.51795,-21.55655],[-42.52063,-21.55462],[-42.52272,-21.55334],[-42.52436,-21.55272],[-42.52564,-21.55135],[-42.52665,-21.54968],[-42.52788,-21.54823],[-42.52937,-21.54718],[-42.53104,-21.545],[-42.53097,-21.54281],[-42.53234,-21.53996],[-42.53325,-21.53941],[-42.53473,-21.53964],[-42.53559,-21.54011],[-42.53658,-21.54124],[-42.53869,-21.5412],[-42.54116,-21.54153],[-42.54241,-21.54321],[-42.54336,-21.5441],[-42.5443,-21.54283],[-42.54487,-21.54012],[-42.54579,-21.53884],[-42.54772,-21.53813],[-42.54998,-21.53842],[-42.55242,-21.54037],[-42.55402,-21.54037],[-42.55493,-21.53992],[-42.55869,-21.54167],[-42.55978,-21.54162],[-42.56316,-21.53861],[-42.5667,-21.53706],[-42.56865,-21.53465],[-42.56975,-21.53291],[-42.57098,-21.53217],[-42.57217,-21.53217],[-42.57515,-21.53519],[-42.57648,-21.53719],[-42.57827,-21.53953],[-42.57964,-21.53947],[-42.5813,-21.53851],[-42.58259,-21.53864],[-42.58396,-21.53927],[-42.58543,-21.54049],[-42.58725,-21.54105],[-42.59077,-21.53921],[-42.59243,-21.53892],[-42.59504,-21.53992],[-42.59667,-21.5423],[-42.59794,-21.54512],[-42.59748,-21.54583],[-42.5955,-21.54673],[-42.59442,-21.54758],[-42.5934,-21.54964],[-42.58963,-21.55153],[-42.58799,-21.55387],[-42.58669,-21.5549],[-42.58562,-21.55667],[-42.58365,-21.55726],[-42.58177,-21.55948],[-42.58036,-21.56186],[-42.57704,-21.56312],[-42.573,-21.563],[-42.57264,-21.56488],[-42.57183,-21.5663],[-42.57095,-21.56715],[-42.56935,-21.56783],[-42.56906,-21.56983],[-42.57017,-21.57106],[-42.57006,-21.57337],[-42.57119,-21.57507],[-42.57181,-21.57531],[-42.5727,-21.57666],[-42.57345,-21.57873],[-42.57378,-21.58077],[-42.5754,-21.58339],[-42.57618,-21.58392],[-42.57775,-21.5843],[-42.57927,-21.58359],[-42.58244,-21.57991],[-42.58346,-21.57976],[-42.58548,-21.58135],[-42.58659,-21.58192],[-42.58685,-21.5826],[-42.58567,-21.58561],[-42.58565,-21.58709],[-42.58614,-21.58857],[-42.58777,-21.58984],[-42.58916,-21.58989],[-42.58951,-21.59122],[-42.58901,-21.59253],[-42.5891,-21.59467],[-42.58987,-21.59572],[-42.59154,-21.59587],[-42.59418,-21.59486],[-42.5957,-21.59458],[-42.59666,-21.59581],[-42.59693,-21.59737],[-42.59612,-21.59865],[-42.59588,-21.60008],[-42.59634,-21.60091],[-42.59444,-21.60113],[-42.59397,-21.60247],[-42.59232,-21.6031],[-42.59085,-21.60331],[-42.58801,-21.6042],[-42.58635,-21.60492],[-42.58414,-21.60505],[-42.58304,-21.60574],[-42.58139,-21.60611],[-42.58002,-21.60599],[-42.57816,-21.60654],[-42.57694,-21.60549],[-42.57608,-21.60545],[-42.57536,-21.60604],[-42.57385,-21.60618],[-42.57259,-21.60592],[-42.5718,-21.60468],[-42.56996,-21.60333],[-42.5691,-21.60299],[-42.56929,-21.60093],[-42.56732,-21.59964],[-42.56643,-21.59754],[-42.56756,-21.59598],[-42.56728,-21.59527],[-42.56379,-21.59522],[-42.56309,-21.595],[-42.56199,-21.59389],[-42.56075,-21.59398],[-42.55854,-21.59474],[-42.55729,-21.59553],[-42.55705,-21.59705],[-42.55734,-21.59796],[-42.55617,-21.59997],[-42.55444,-21.60067],[-42.55301,-21.60255],[-42.55314,-21.60389],[-42.55215,-21.60638],[-42.55109,-21.60804],[-42.54931,-21.60866],[-42.54849,-21.60797],[-42.54844,-21.60704],[-42.54744,-21.6064],[-42.54658,-21.60453],[-42.54593,-21.60422],[-42.5453,-21.60292],[-42.54465,-21.60263],[-42.54301,-21.60312],[-42.54149,-21.60229],[-42.54008,-21.60294],[-42.53878,-21.60295],[-42.5384,-21.60233],[-42.53713,-21.60248],[-42.53486,-21.60437],[-42.53491,-21.60569],[-42.53444,-21.60709],[-42.53456,-21.60801],[-42.5341,-21.60876],[-42.53582,-21.6098],[-42.53699,-21.61135],[-42.53724,-21.61294],[-42.5368,-21.61347],[-42.53531,-21.61413],[-42.53489,-21.61389],[-42.53291,-21.61441],[-42.53163,-21.61509],[-42.53122,-21.61478],[-42.52862,-21.61452],[-42.52668,-21.61505],[-42.52559,-21.61581],[-42.52511,-21.61694],[-42.52466,-21.61954],[-42.52406,-21.62036],[-42.52269,-21.6209],[-42.52031,-21.62143],[-42.51953,-21.62206],[-42.51946,-21.62468],[-42.51974,-21.62537],[-42.52152,-21.62678],[-42.52318,-21.62906],[-42.52344,-21.63067],[-42.52294,-21.63149],[-42.5213,-21.63233],[-42.52015,-21.6326],[-42.51824,-21.63358],[-42.5167,-21.63529],[-42.51586,-21.6354],[-42.51372,-21.63487],[-42.51188,-21.63482],[-42.51038,-21.63553],[-42.50991,-21.6366],[-42.50848,-21.63764],[-42.50755,-21.63996],[-42.50592,-21.64103],[-42.50592,-21.64171],[-42.50677,-21.64237],[-42.50841,-21.64292],[-42.51149,-21.64289],[-42.51312,-21.6426],[-42.51386,-21.64299],[-42.5149,-21.64506],[-42.51636,-21.64697],[-42.51667,-21.64844],[-42.51679,-21.6523],[-42.51646,-21.65387],[-42.51391,-21.65457],[-42.51083,-21.6563],[-42.50593,-21.65724],[-42.50474,-21.65795],[-42.50348,-21.65924],[-42.50159,-21.65977],[-42.5002,-21.65971],[-42.49836,-21.65924],[-42.49521,-21.6576],[-42.49298,-21.65734],[-42.49047,-21.6564],[-42.48919,-21.65626],[-42.48728,-21.65719],[-42.48623,-21.65657],[-42.4851,-21.65445],[-42.48359,-21.65372],[-42.48125,-21.65126],[-42.4803,-21.65061],[-42.47723,-21.65048],[-42.4771,-21.65183],[-42.47573,-21.65238],[-42.47436,-21.65223],[-42.47415,-21.65329],[-42.47307,-21.65492],[-42.4712,-21.65705],[-42.47042,-21.65704],[-42.46913,-21.65636],[-42.46901,-21.6547],[-42.46751,-21.652],[-42.46742,-21.65093],[-42.46551,-21.64932],[-42.46449,-21.64934],[-42.46389,-21.65012],[-42.46288,-21.64943],[-42.4605,-21.64864],[-42.46091,-21.64739],[-42.46203,-21.64677],[-42.46161,-21.64596],[-42.46017,-21.6449],[-42.45948,-21.64362],[-42.4581,-21.64387],[-42.4572,-21.64315],[-42.45495,-21.64333],[-42.45393,-21.64158],[-42.45369,-21.63999],[-42.4547,-21.6381],[-42.45229,-21.6358],[-42.45035,-21.63545],[-42.44984,-21.63493],[-42.45003,-21.63396],[-42.44867,-21.63396],[-42.4478,-21.63315],[-42.44724,-21.6347],[-42.4486,-21.63525],[-42.44832,-21.63655],[-42.44632,-21.63841],[-42.44649,-21.63908],[-42.44578,-21.64001],[-42.44447,-21.64015],[-42.44233,-21.64109],[-42.44224,-21.64282],[-42.44321,-21.64409],[-42.44213,-21.64483],[-42.44069,-21.64751],[-42.4394,-21.64721],[-42.43778,-21.64638],[-42.43676,-21.64662],[-42.4352,-21.64636]]]},"properties":{"codigo":"313840110","name":"Abaíba","population":319,"households":232,"areaKm2":132.5507,"density":2.4}},{"type":"Feature","geometry":{"type":"Polygon","coordinates":[[[-42.81058,-21.56511],[-42.80937,-21.56473],[-42.80786,-21.56473],[-42.80565,-21.56514],[-42.80493,-21.56434],[-42.80549,-21.56342],[-42.80436,-21.56182],[-42.80423,-21.56091],[-42.80249,-21.55856],[-42.80046,-21.55768],[-42.8016,-21.55679],[-42.79991,-21.55433],[-42.80066,-21.55338],[-42.80046,-21.55213],[-42.79905,-21.55038],[-42.79901,-21.54963],[-42.79987,-21.54801],[-42.79767,-21.54491],[-42.79715,-21.54353],[-42.79568,-21.54255],[-42.79549,-21.54118],[-42.79459,-21.53971],[-42.79568,-21.53837],[-42.79473,-21.53768],[-42.79572,-21.53602],[-42.79422,-21.53365],[-42.79176,-21.53286],[-42.7916,-21.53218],[-42.79249,-21.53067],[-42.79221,-21.52979],[-42.79053,-21.52788],[-42.78722,-21.52515],[-42.7832,-21.52399],[-42.7782,-21.52313],[-42.77607,-21.52239],[-42.77456,-21.52216],[-42.77267,-21.52318],[-42.7711,-21.52346],[-42.7702,-21.52432],[-42.76995,-21.52552],[-42.77017,-21.52644],[-42.77141,-21.52846],[-42.77086,-21.5293],[-42.76991,-21.52974],[-42.76619,-21.52971],[-42.76351,-21.53052],[-42.76082,-21.53028],[-42.75906,-21.53083],[-42.75825,-21.53056],[-42.75664,-21.52878],[-42.75595,-21.52896],[-42.75457,-21.53048],[-42.75403,-21.52966],[-42.75502,-21.52766],[-42.75442,-21.52581],[-42.75144,-21.5251],[-42.7489,-21.5255],[-42.74773,-21.52492],[-42.74593,-21.52269],[-42.74478,-21.52221],[-42.74333,-21.52325],[-42.74166,-21.5237],[-42.73921,-21.52487],[-42.73765,-21.52474],[-42.73592,-21.52414],[-42.73516,-21.52347],[-42.73491,-21.52196],[-42.73509,-21.51865],[-42.73463,-21.51693],[-42.73233,-21.51534],[-42.73,-21.51513],[-42.7283,-21.51408],[-42.72728,-21.51396],[-42.72538,-21.51489],[-42.72329,-21.51523],[-42.72084,-21.51505],[-42.71918,-21.51465],[-42.71702,-21.51322],[-42.71695,-21.51084],[-42.71766,-21.50871],[-42.72035,-21.50711],[-42.72177,-21.50474],[-42.72144,-21.50351],[-42.72054,-21.50259],[-42.71996,-21.50126],[-42.72016,-21.49988],[-42.71984,-21.4988],[-42.71765,-21.49776],[-42.7144,-21.498],[-42.71216,-21.49569],[-42.71034,-21.49487],[-42.70972,-21.49392],[-42.70933,-21.49222],[-42.70857,-21.49095],[-42.70849,-21.48963],[-42.70889,-21.48803],[-42.70819,-21.48704],[-42.70695,-21.4864],[-42.70447,-21.48612],[-42.70295,-21.48649],[-42.70116,-21.48731],[-42.69894,-21.48704],[-42.6981,-21.48641],[-42.69696,-21.48501],[-42.6952,-21.48424],[-42.69342,-21.48165],[-42.69341,-21.4795],[-42.69013,-21.47571],[-42.68805,-21.47433],[-42.68521,-21.47393],[-42.68525,-21.4725],[-42.68605,-21.47022],[-42.6874,-21.46741],[-42.6889,-21.46609],[-42.69056,-21.46329],[-42.68994,-21.45819],[-42.68902,-21.45505],[-42.69016,-21.45353],[-42.68925,-21.45268],[-42.68861,-21.45315],[-42.68755,-21.45253],[-42.68682,-21.45078],[-42.6861,-21.45047],[-42.68326,-21.45067],[-42.68079,-21.44836],[-42.67933,-21.44729],[-42.67931,-21.44618],[-42.68055,-21.44489],[-42.68187,-21.4447],[-42.68282,-21.44505],[-42.68442,-21.44507],[-42.68633,-21.44579],[-42.6888,-21.44743],[-42.69004,-21.4459],[-42.69139,-21.44517],[-42.69226,-21.44242],[-42.69334,-21.44075],[-42.69404,-21.43846],[-42.69531,-21.43845],[-42.69911,-21.43732],[-42.70224,-21.43736],[-42.70432,-21.43681],[-42.70694,-21.43544],[-42.70876,-21.43517],[-42.71138,-21.43422],[-42.7123,-21.43286],[-42.711,-21.43233],[-42.71289,-21.43153],[-42.71462,-21.42891],[-42.71583,-21.42798],[-42.71828,-21.42687],[-42.72066,-21.42667],[-42.72449,-21.42918],[-42.72588,-21.42919],[-42.72745,-21.42878],[-42.72978,-21.42938],[-42.73108,-21.43039],[-42.73174,-21.43128],[-42.73647,-21.43246],[-42.7376,-21.43303],[-42.74047,-21.43349],[-42.74197,-21.43396],[-42.7431,-21.43462],[-42.74516,-21.43534],[-42.74734,-21.43641],[-42.74812,-21.43739],[-42.74945,-21.4378],[-42.74985,-21.4366],[-42.75057,-21.43677],[-42.75287,-21.43896],[-42.75424,-21.43935],[-42.75447,-21.43872],[-42.75602,-21.43877],[-42.75691,-21.43912],[-42.75799,-21.44014],[-42.7585,-21.44148],[-42.75999,-21.44242],[-42.76062,-21.44395],[-42.76184,-21.44546],[-42.76342,-21.44565],[-42.76426,-21.44705],[-42.76428,-21.44856],[-42.76574,-21.45154],[-42.76689,-21.45176],[-42.76725,-21.45241],[-42.76884,-21.45287],[-42.76918,-21.45426],[-42.77012,-21.456],[-42.7735,-21.45482],[-42.77512,-21.4546],[-42.77705,-21.45467],[-42.7783,-21.45501],[-42.78067,-21.45673],[-42.78017,-21.45909],[-42.78041,-21.45998],[-42.78252,-21.4607],[-42.78408,-21.45886],[-42.78491,-21.45821],[-42.78702,-21.45776],[-42.78925,-21.45611],[-42.79019,-21.45434],[-42.7895,-21.45159],[-42.78793,-21.4491],[-42.78813,-21.44765],[-42.78967,-21.44709],[-42.79202,-21.44705],[-42.79414,-21.44527],[-42.7973,-21.4449],[-42.79956,-21.44383],[-42.80057,-21.44183],[-42.80024,-21.43786],[-42.80149,-21.43615],[-42.80177,-21.43538],[-42.80161,-21.43355],[-42.80007,-21.43088],[-42.79772,-21.42778],[-42.79731,-21.42683],[-42.79775,-21.42595],[-42.79919,-21.42442],[-42.80026,-21.42654],[-42.80223,-21.4291],[-42.80305,-21.42967],[-42.806,-21.43012],[-42.80892,-21.43009],[-42.80942,-21.43048],[-42.8081,-21.43214],[-42.80682,-21.43331],[-42.80486,-21.43344],[-42.80464,-21.43381],[-42.80587,-21.43569],[-42.80759,-21.43744],[-42.80902,-21.44075],[-42.81047,-21.4412],[-42.81109,-21.44084],[-42.81149,-21.43907],[-42.81249,-21.43847],[-42.81344,-21.43847],[-42.81375,-21.43957],[-42.81294,-21.44131],[-42.81062,-21.44467],[-42.80855,-21.44613],[-42.80726,-21.44624],[-42.80474,-21.44577],[-42.80332,-21.44635],[-42.80234,-21.44749],[-42.80106,-21.44836],[-42.79954,-21.449],[-42.79947,-21.44967],[-42.80014,-21.45157],[-42.80344,-21.45551],[-42.80361,-21.4576],[-42.80458,-21.45872],[-42.80801,-21.4605],[-42.80886,-21.46133],[-42.80989,-21.46095],[-42.80991,-21.45959],[-42.80894,-21.45745],[-42.81086,-21.45512],[-42.8116,-21.45498],[-42.8126,-21.45638],[-42.81234,-21.45849],[-42.81381,-21.45935],[-42.81497,-21.46059],[-42.81484,-21.46236],[-42.81546,-21.46369],[-42.81698,-21.46536],[-42.8189,-21.46643],[-42.82066,-21.46645],[-42.82259,-21.46802],[-42.82321,-21.47009],[-42.82384,-21.4705],[-42.82427,-21.47206],[-42.82524,-21.47303],[-42.82612,-21.4717],[-42.82584,-21.47002],[-42.8271,-21.46932],[-42.82876,-21.46983],[-42.83094,-21.47127],[-42.83313,-21.47105],[-42.8342,-21.46972],[-42.83613,-21.46913],[-42.8374,-21.4684],[-42.83823,-21.46891],[-42.83964,-21.46918],[-42.84142,-21.46885],[-42.84236,-21.46482],[-42.8425,-21.46334],[-42.84366,-21.46335],[-42.84492,-21.46457],[-42.84542,-21.46549],[-42.84542,-21.46647],[-42.8464,-21.46856],[-42.84616,-21.47034],[-42.8442,-21.47203],[-42.84454,-21.47338],[-42.84442,-21.47591],[-42.84499,-21.47716],[-42.84568,-21.47737],[-42.84836,-21.47739],[-42.84983,-21.47705],[-42.85243,-21.47609],[-42.85575,-21.47434],[-42.85792,-21.47463],[-42.86158,-21.47467],[-42.86431,-21.47487],[-42.86685,-21.47608],[-42.86775,-21.47629],[-42.8679,-21.47821],[-42.86685,-21.47988],[-42.86735,-21.48067],[-42.86918,-21.48122],[-42.86993,-21.48176],[-42.87148,-21.48448],[-42.87216,-21.48482],[-42.87417,-21.48493],[-42.8766,-21.48281],[-42.87915,-21.48278],[-42.88043,-21.48074],[-42.88187,-21.48072],[-42.8839,-21.4813],[-42.88556,-21.48353],[-42.88585,-21.48398],[-42.88846,-21.48501],[-42.88928,-21.48663],[-42.88795,-21.48807],[-42.88484,-21.48898],[-42.88333,-21.48913],[-42.88337,-21.49005],[-42.88407,-21.49079],[-42.887,-21.49161],[-42.88761,-21.49204],[-42.89016,-21.49488],[-42.89109,-21.49615],[-42.89226,-21.49713],[-42.89498,-21.49862],[-42.89683,-21.49879],[-42.89749,-21.50106],[-42.90038,-21.50236],[-42.90258,-21.50514],[-42.9044,-21.50605],[-42.90571,-21.50735],[-42.90688,-21.50948],[-42.90868,-21.51123],[-42.90722,-21.51205],[-42.90703,-21.51357],[-42.9086,-21.51469],[-42.90971,-21.51586],[-42.9095,-21.51625],[-42.90722,-21.51619],[-42.90575,-21.5168],[-42.90224,-21.51732],[-42.89911,-21.51724],[-42.89733,-21.5179],[-42.89537,-21.51902],[-42.89628,-21.52047],[-42.8967,-21.52174],[-42.89537,-21.52354],[-42.8943,-21.52588],[-42.89424,-21.52855],[-42.89394,-21.52923],[-42.89259,-21.52939],[-42.89114,-21.52883],[-42.8891,-21.52763],[-42.88824,-21.52668],[-42.88619,-21.52546],[-42.88408,-21.52375],[-42.88099,-21.5229],[-42.88019,-21.52224],[-42.88046,-21.51913],[-42.87982,-21.51776],[-42.87873,-21.51658],[-42.87837,-21.51542],[-42.87756,-21.5145],[-42.8757,-21.51353],[-42.8743,-21.51244],[-42.86912,-21.51143],[-42.86765,-21.51024],[-42.86678,-21.5092],[-42.86522,-21.50904],[-42.86317,-21.50969],[-42.86175,-21.50971],[-42.86025,-21.50926],[-42.86111,-21.51176],[-42.86029,-21.51265],[-42.8605,-21.51335],[-42.86197,-21.51503],[-42.86176,-21.51589],[-42.86233,-21.51698],[-42.86088,-21.51799],[-42.85864,-21.51817],[-42.85844,-21.51655],[-42.85801,-21.516],[-42.85698,-21.51648],[-42.8558,-21.51649],[-42.85422,-21.5184],[-42.85392,-21.51942],[-42.8513,-21.52409],[-42.84974,-21.52629],[-42.84766,-21.52855],[-42.84731,-21.53001],[-42.8474,-21.5315],[-42.84676,-21.53338],[-42.84673,-21.53546],[-42.84843,-21.53662],[-42.85168,-21.53737],[-42.8525,-21.53738],[-42.85365,-21.53807],[-42.85391,-21.53901],[-42.85397,-21.54133],[-42.85518,-21.54255],[-42.85525,-21.54357],[-42.85419,-21.54507],[-42.85589,-21.54565],[-42.8564,-21.54642],[-42.85632,-21.54832],[-42.85683,-21.55347],[-42.85734,-21.55449],[-42.85718,-21.55609],[-42.85795,-21.55739],[-42.8582,-21.55869],[-42.8595,-21.56005],[-42.85994,-21.56172],[-42.86018,-21.56411],[-42.86069,-21.5655],[-42.86195,-21.5662],[-42.86336,-21.56822],[-42.86375,-21.57031],[-42.86344,-21.57173],[-42.86266,-21.57336],[-42.86225,-21.57579],[-42.86107,-21.57712],[-42.8615,-21.57821],[-42.86262,-21.57869],[-42.86484,-21.58025],[-42.86528,-21.58219],[-42.866,-21.58289],[-42.86569,-21.58458],[-42.8647,-21.58489],[-42.86274,-21.58406],[-42.86083,-21.58373],[-42.85885,-21.58183],[-42.85691,-21.57901],[-42.85499,-21.57761],[-42.85486,-21.57644],[-42.85521,-21.57503],[-42.85451,-21.57362],[-42.85164,-21.5718],[-42.84935,-21.57103],[-42.84852,-21.56983],[-42.84792,-21.56826],[-42.84634,-21.56646],[-42.84474,-21.56593],[-42.84268,-21.56451],[-42.84227,-21.56387],[-42.84235,-21.56239],[-42.8419,-21.55957],[-42.84094,-21.55658],[-42.84033,-21.55519],[-42.83896,-21.55312],[-42.83872,-21.5521],[-42.83645,-21.54886],[-42.83556,-21.54686],[-42.83423,-21.54602],[-42.83275,-21.54395],[-42.83096,-21.54383],[-42.82941,-21.54509],[-42.82865,-21.54525],[-42.82549,-21.54735],[-42.82361,-21.54881],[-42.82259,-21.54901],[-42.82213,-21.55355],[-42.82099,-21.55649],[-42.82083,-21.56026],[-42.81992,-21.56213],[-42.81844,-21.56373],[-42.81655,-21.56543],[-42.81478,-21.56586],[-42.81122,-21.56474],[-42.81058,-21.56511]]]},"properties":{"codigo":"313840115","name":"Piacatuba","population":1381,"households":902,"areaKm2":174.3849,"density":7.9}},{"type":"Feature","geometry":{"type":"Polygon","coordinates":[[[-42.62269,-21.70209],[-42.6216,-21.70239],[-42.6198,-21.70356],[-42.61644,-21.7037],[-42.61496,-21.70453],[-42.61376,-21.70561],[-42.61042,-21.70547],[-42.60924,-21.70482],[-42.60867,-21.70399],[-42.60891,-21.70183],[-42.60821,-21.70052],[-42.60505,-21.6993],[-42.6035,-21.69891],[-42.60119,-21.69892],[-42.5994,-21.69832],[-42.59809,-21.69852],[-42.59728,-21.69803],[-42.59727,-21.69679],[-42.59678,-21.69636],[-42.59554,-21.69643],[-42.59362,-21.69557],[-42.59294,-21.6948],[-42.59283,-21.69356],[-42.59366,-21.69133],[-42.59341,-21.69041],[-42.5918,-21.68988],[-42.59128,-21.68789],[-42.58997,-21.68782],[-42.58889,-21.68843],[-42.58696,-21.6868],[-42.58687,-21.68387],[-42.58605,-21.68255],[-42.58379,-21.68079],[-42.5808,-21.68091],[-42.57881,-21.68152],[-42.57723,-21.68133],[-42.57522,-21.68054],[-42.57184,-21.68033],[-42.56936,-21.68184],[-42.56759,-21.68209],[-42.56558,-21.68127],[-42.56389,-21.68095],[-42.56145,-21.6809],[-42.55891,-21.68065],[-42.55809,-21.67761],[-42.55587,-21.67752],[-42.55364,-21.67439],[-42.55307,-21.67261],[-42.55152,-21.67121],[-42.55064,-21.66988],[-42.54796,-21.67066],[-42.54599,-21.67064],[-42.54493,-21.66928],[-42.54402,-21.66887],[-42.54242,-21.66756],[-42.54217,-21.66571],[-42.54116,-21.66345],[-42.53987,-21.65933],[-42.54004,-21.65842],[-42.54095,-21.65684],[-42.54058,-21.65499],[-42.53883,-21.65324],[-42.53846,-21.6516],[-42.5375,-21.65095],[-42.53586,-21.65097],[-42.53435,-21.65066],[-42.5332,-21.64972],[-42.53193,-21.6499],[-42.5303,-21.65079],[-42.52944,-21.65209],[-42.52796,-21.65291],[-42.52694,-21.65425],[-42.52592,-21.65496],[-42.52436,-21.65498],[-42.52289,-21.65546],[-42.52129,-21.65526],[-42.5172,-21.65398],[-42.51646,-21.65387],[-42.51679,-21.6523],[-42.51667,-21.64844],[-42.51636,-21.64697],[-42.5149,-21.64506],[-42.51386,-21.64299],[-42.51312,-21.6426],[-42.51149,-21.64289],[-42.50841,-21.64292],[-42.50677,-21.64237],[-42.50592,-21.64171],[-42.50592,-21.64103],[-42.50755,-21.63996],[-42.50848,-21.63764],[-42.50991,-21.6366],[-42.51038,-21.63553],[-42.51188,-21.63482],[-42.51372,-21.63487],[-42.51586,-21.6354],[-42.5167,-21.63529],[-42.51824,-21.63358],[-42.52015,-21.6326],[-42.5213,-21.63233],[-42.52294,-21.63149],[-42.52344,-21.63067],[-42.52318,-21.62906],[-42.52152,-21.62678],[-42.51974,-21.62537],[-42.51946,-21.62468],[-42.51953,-21.62206],[-42.52031,-21.62143],[-42.52269,-21.6209],[-42.52406,-21.62036],[-42.52466,-21.61954],[-42.52511,-21.61694],[-42.52559,-21.61581],[-42.52668,-21.61505],[-42.52862,-21.61452],[-42.53122,-21.61478],[-42.53163,-21.61509],[-42.53291,-21.61441],[-42.53489,-21.61389],[-42.53531,-21.61413],[-42.5368,-21.61347],[-42.53724,-21.61294],[-42.53699,-21.61135],[-42.53582,-21.6098],[-42.5341,-21.60876],[-42.53456,-21.60801],[-42.53444,-21.60709],[-42.53491,-21.60569],[-42.53486,-21.60437],[-42.53713,-21.60248],[-42.5384,-21.60233],[-42.53878,-21.60295],[-42.54008,-21.60294],[-42.54149,-21.60229],[-42.54301,-21.60312],[-42.54465,-21.60263],[-42.5453,-21.60292],[-42.54593,-21.60422],[-42.54658,-21.60453],[-42.54744,-21.6064],[-42.54844,-21.60704],[-42.54849,-21.60797],[-42.54931,-21.60866],[-42.55109,-21.60804],[-42.55215,-21.60638],[-42.55314,-21.60389],[-42.55301,-21.60255],[-42.55444,-21.60067],[-42.55617,-21.59997],[-42.55734,-21.59796],[-42.55705,-21.59705],[-42.55729,-21.59553],[-42.55854,-21.59474],[-42.56075,-21.59398],[-42.56199,-21.59389],[-42.56309,-21.595],[-42.56379,-21.59522],[-42.56728,-21.59527],[-42.56756,-21.59598],[-42.56643,-21.59754],[-42.56732,-21.59964],[-42.56929,-21.60093],[-42.5691,-21.60299],[-42.56996,-21.60333],[-42.5718,-21.60468],[-42.57259,-21.60592],[-42.57385,-21.60618],[-42.57536,-21.60604],[-42.57608,-21.60545],[-42.57694,-21.60549],[-42.57816,-21.60654],[-42.58002,-21.60599],[-42.58139,-21.60611],[-42.58304,-21.60574],[-42.58414,-21.60505],[-42.58635,-21.60492],[-42.58801,-21.6042],[-42.59085,-21.60331],[-42.59232,-21.6031],[-42.59397,-21.60247],[-42.59444,-21.60113],[-42.59634,-21.60091],[-42.59732,-21.60111],[-42.59774,-21.60212],[-42.59858,-21.60269],[-42.59936,-21.60422],[-42.59999,-21.6047],[-42.60127,-21.60817],[-42.60198,-21.6085],[-42.60462,-21.60812],[-42.60434,-21.60699],[-42.60464,-21.60495],[-42.60667,-21.60335],[-42.60825,-21.60172],[-42.60869,-21.6008],[-42.60854,-21.59936],[-42.60889,-21.59728],[-42.60939,-21.59589],[-42.60865,-21.59489],[-42.60693,-21.59409],[-42.60686,-21.59362],[-42.60792,-21.59062],[-42.60889,-21.58987],[-42.61016,-21.58959],[-42.6122,-21.58999],[-42.61332,-21.58946],[-42.61534,-21.58908],[-42.61647,-21.59059],[-42.61752,-21.59053],[-42.61866,-21.59175],[-42.61951,-21.59316],[-42.62061,-21.5942],[-42.62155,-21.5945],[-42.62355,-21.594],[-42.62651,-21.5968],[-42.62729,-21.59643],[-42.6279,-21.59503],[-42.62835,-21.59295],[-42.62931,-21.59268],[-42.63093,-21.59336],[-42.63104,-21.59228],[-42.63219,-21.59206],[-42.6345,-21.59234],[-42.63679,-21.59241],[-42.63724,-21.59191],[-42.63902,-21.59199],[-42.64116,-21.59123],[-42.64647,-21.59095],[-42.64804,-21.58967],[-42.6497,-21.58926],[-42.6503,-21.5888],[-42.65325,-21.58861],[-42.65441,-21.58938],[-42.65862,-21.58757],[-42.6598,-21.58903],[-42.66053,-21.5889],[-42.66302,-21.58695],[-42.6649,-21.5861],[-42.66563,-21.58606],[-42.66647,-21.58723],[-42.66766,-21.58744],[-42.66908,-21.58659],[-42.67091,-21.587],[-42.6722,-21.58788],[-42.67541,-21.58747],[-42.67672,-21.58708],[-42.67896,-21.58894],[-42.67911,-21.58988],[-42.67984,-21.59087],[-42.68078,-21.59082],[-42.6819,-21.59174],[-42.68334,-21.59083],[-42.68486,-21.59039],[-42.68552,-21.59096],[-42.68563,-21.59199],[-42.68657,-21.59418],[-42.68593,-21.596],[-42.68621,-21.59666],[-42.6881,-21.59677],[-42.69241,-21.5963],[-42.69545,-21.59627],[-42.69538,-21.59697],[-42.69599,-21.59853],[-42.69816,-21.59979],[-42.69918,-21.60086],[-42.70061,-21.60321],[-42.7007,-21.60421],[-42.69962,-21.6061],[-42.69879,-21.60704],[-42.69808,-21.60703],[-42.69659,-21.6039],[-42.69594,-21.6029],[-42.69468,-21.60191],[-42.69307,-21.60183],[-42.69114,-21.60243],[-42.68971,-21.60325],[-42.68525,-21.60475],[-42.68361,-21.6082],[-42.68294,-21.60893],[-42.68261,-21.61004],[-42.68281,-21.61405],[-42.68233,-21.6148],[-42.68197,-21.61796],[-42.68084,-21.61909],[-42.67908,-21.62034],[-42.67912,-21.62125],[-42.68017,-21.62357],[-42.68093,-21.62414],[-42.683,-21.62432],[-42.68368,-21.62549],[-42.68372,-21.62804],[-42.68417,-21.62966],[-42.68271,-21.63007],[-42.68143,-21.63103],[-42.68032,-21.6314],[-42.6787,-21.63301],[-42.67774,-21.63589],[-42.67767,-21.63766],[-42.67816,-21.63842],[-42.6791,-21.64122],[-42.68121,-21.64198],[-42.68221,-21.64349],[-42.68208,-21.64519],[-42.68274,-21.64595],[-42.68393,-21.64603],[-42.68622,-21.64556],[-42.68735,-21.64635],[-42.68717,-21.6477],[-42.68885,-21.65117],[-42.6898,-21.65168],[-42.69265,-21.65201],[-42.69325,-21.65258],[-42.69401,-21.65625],[-42.69483,-21.65765],[-42.70028,-21.65856],[-42.70108,-21.65921],[-42.70124,-21.66194],[-42.70077,-21.66345],[-42.69968,-21.66451],[-42.70046,-21.6656],[-42.70282,-21.66572],[-42.70506,-21.66544],[-42.70651,-21.66501],[-42.71046,-21.66633],[-42.712,-21.66648],[-42.71352,-21.66599],[-42.7145,-21.66666],[-42.71559,-21.66822],[-42.71639,-21.67118],[-42.71414,-21.67323],[-42.71343,-21.67514],[-42.71264,-21.67618],[-42.70985,-21.6759],[-42.7064,-21.67648],[-42.7061,-21.67709],[-42.70608,-21.67982],[-42.70428,-21.68133],[-42.70186,-21.68376],[-42.70096,-21.68511],[-42.70015,-21.68566],[-42.69838,-21.68562],[-42.69734,-21.6859],[-42.69517,-21.686],[-42.69416,-21.68647],[-42.69351,-21.68728],[-42.69203,-21.68796],[-42.69046,-21.68772],[-42.6895,-21.68587],[-42.68858,-21.68479],[-42.68702,-21.68456],[-42.68259,-21.68473],[-42.6803,-21.68442],[-42.67793,-21.68489],[-42.67732,-21.68531],[-42.67742,-21.68624],[-42.67812,-21.68791],[-42.67818,-21.68949],[-42.67732,-21.69214],[-42.67649,-21.69234],[-42.67554,-21.69193],[-42.67302,-21.69205],[-42.67073,-21.69249],[-42.66907,-21.69322],[-42.66743,-21.69305],[-42.66483,-21.69309],[-42.66356,-21.69251],[-42.66157,-21.69099],[-42.65933,-21.69069],[-42.65822,-21.69303],[-42.65631,-21.69399],[-42.655,-21.69394],[-42.65309,-21.69318],[-42.65056,-21.69301],[-42.64801,-21.69379],[-42.64733,-21.69358],[-42.6477,-21.6922],[-42.64818,-21.68838],[-42.64773,-21.68652],[-42.64623,-21.68668],[-42.64353,-21.68657],[-42.6404,-21.68752],[-42.63687,-21.68661],[-42.63701,-21.68884],[-42.63519,-21.69214],[-42.63436,-21.69318],[-42.63215,-21.69397],[-42.63146,-21.69472],[-42.63025,-21.69514],[-42.62821,-21.69433],[-42.62622,-21.69377],[-42.62485,-21.69222],[-42.6241,-21.69202],[-42.62121,-21.69232],[-42.61813,-21.69177],[-42.61787,-21.69202],[-42.61847,-21.69521],[-42.61846,-21.69674],[-42.6179,-21.69845],[-42.61839,-21.70006],[-42.61905,-21.7005],[-42.62143,-21.70097],[-42.62239,-21.70136],[-42.62269,-21.70209]]]},"properties":{"codigo":"313840120","name":"Providência","population":974,"households":552,"areaKm2":170.6085,"density":5.7}},{"type":"Feature","geometry":{"type":"Polygon","coordinates":[[[-42.54516,-21.4382],[-42.54614,-21.43889],[-42.54707,-21.43807],[-42.54884,-21.43819],[-42.54993,-21.43912],[-42.55084,-21.44164],[-42.55187,-21.44359],[-42.55113,-21.44562],[-42.54963,-21.44635],[-42.54892,-21.44838],[-42.55043,-21.45132],[-42.55164,-21.45219],[-42.55204,-21.4539],[-42.55289,-21.45607],[-42.55361,-21.45681],[-42.55599,-21.45754],[-42.55685,-21.45855],[-42.55779,-21.45876],[-42.55903,-21.4585],[-42.56015,-21.4596],[-42.56162,-21.46001],[-42.56242,-21.46061],[-42.56146,-21.46267],[-42.5604,-21.4638],[-42.55841,-21.46482],[-42.55703,-21.46708],[-42.55632,-21.47039],[-42.55659,-21.47243],[-42.55744,-21.47436],[-42.55718,-21.47643],[-42.55589,-21.47837],[-42.55497,-21.47897],[-42.55371,-21.47922],[-42.55128,-21.47776],[-42.55027,-21.47741],[-42.54726,-21.47756],[-42.54659,-21.47789],[-42.54572,-21.48106],[-42.54605,-21.48283],[-42.54782,-21.4846],[-42.54932,-21.48487],[-42.55093,-21.48454],[-42.55144,-21.485],[-42.55147,-21.48645],[-42.5501,-21.48899],[-42.54951,-21.49062],[-42.54871,-21.49151],[-42.54483,-21.49233],[-42.54431,-21.49217],[-42.53991,-21.4942],[-42.53974,-21.4952],[-42.54063,-21.49748],[-42.54057,-21.49946],[-42.54149,-21.5017],[-42.54099,-21.50301],[-42.54024,-21.50384],[-42.53787,-21.50512],[-42.53615,-21.50712],[-42.53504,-21.51061],[-42.53491,-21.51165],[-42.5329,-21.5123],[-42.53226,-21.51275],[-42.53043,-21.51325],[-42.52903,-21.51331],[-42.52777,-21.51271],[-42.52569,-21.51105],[-42.52493,-21.50996],[-42.5227,-21.50747],[-42.52203,-21.50321],[-42.52122,-21.50232],[-42.51754,-21.50274],[-42.51426,-21.50218],[-42.51241,-21.501],[-42.51188,-21.50023],[-42.51177,-21.49897],[-42.51053,-21.49664],[-42.50854,-21.49436],[-42.50806,-21.49339],[-42.50661,-21.4916],[-42.50623,-21.48994],[-42.50684,-21.48827],[-42.50655,-21.48652],[-42.50484,-21.48519],[-42.50336,-21.48538],[-42.50156,-21.48459],[-42.49979,-21.48305],[-42.49596,-21.48313],[-42.49456,-21.48161],[-42.49412,-21.48047],[-42.49297,-21.47999],[-42.4922,-21.47834],[-42.49015,-21.47722],[-42.48885,-21.473],[-42.48686,-21.47138],[-42.48494,-21.47037],[-42.48375,-21.47007],[-42.48181,-21.47004],[-42.47984,-21.4707],[-42.47827,-21.47201],[-42.47492,-21.47244],[-42.47395,-21.4721],[-42.47342,-21.47131],[-42.47364,-21.46825],[-42.47312,-21.4663],[-42.47145,-21.46533],[-42.46862,-21.46526],[-42.46816,-21.46455],[-42.46823,-21.46186],[-42.4685,-21.46023],[-42.46997,-21.45728],[-42.47146,-21.45545],[-42.47266,-21.45483],[-42.47485,-21.45466],[-42.47585,-21.45399],[-42.47686,-21.45138],[-42.47758,-21.45056],[-42.4803,-21.44928],[-42.48073,-21.44875],[-42.48067,-21.44729],[-42.47891,-21.44559],[-42.47665,-21.44372],[-42.47443,-21.44147],[-42.47345,-21.4399],[-42.47044,-21.43801],[-42.46769,-21.43798],[-42.46689,-21.43778],[-42.46632,-21.43645],[-42.46529,-21.4355],[-42.46216,-21.43558],[-42.46101,-21.43612],[-42.45902,-21.43778],[-42.4573,-21.43881],[-42.45545,-21.43953],[-42.45408,-21.4398],[-42.45275,-21.43965],[-42.45248,-21.43835],[-42.45345,-21.43847],[-42.45547,-21.43735],[-42.45653,-21.43559],[-42.45628,-21.43342],[-42.45688,-21.43189],[-42.45664,-21.42884],[-42.45708,-21.42561],[-42.4581,-21.42427],[-42.4609,-21.42226],[-42.46246,-21.42138],[-42.46486,-21.42036],[-42.46808,-21.42031],[-42.46888,-21.41929],[-42.47057,-21.41578],[-42.47129,-21.41518],[-42.47284,-21.41596],[-42.47438,-21.41833],[-42.47486,-21.41958],[-42.47612,-21.4203],[-42.47724,-21.41934],[-42.47854,-21.41743],[-42.47905,-21.41596],[-42.4806,-21.41349],[-42.48105,-21.41115],[-42.48101,-21.40759],[-42.48009,-21.40639],[-42.47863,-21.40609],[-42.47789,-21.4054],[-42.47812,-21.40316],[-42.47956,-21.40002],[-42.48105,-21.39802],[-42.48225,-21.39761],[-42.4847,-21.39782],[-42.48824,-21.39601],[-42.4891,-21.39499],[-42.4898,-21.39267],[-42.4909,-21.39121],[-42.49236,-21.39071],[-42.49447,-21.39073],[-42.4954,-21.39032],[-42.49677,-21.38905],[-42.49738,-21.38799],[-42.49824,-21.38421],[-42.49887,-21.38363],[-42.50151,-21.38498],[-42.50246,-21.38612],[-42.50286,-21.38805],[-42.5027,-21.3895],[-42.50298,-21.39067],[-42.50386,-21.39181],[-42.5049,-21.39203],[-42.50694,-21.39138],[-42.50794,-21.39152],[-42.50879,-21.39232],[-42.51017,-21.39453],[-42.51106,-21.39542],[-42.51417,-21.3956],[-42.51608,-21.39478],[-42.51783,-21.39468],[-42.52136,-21.39818],[-42.5221,-21.39918],[-42.52346,-21.40032],[-42.52417,-21.40089],[-42.52548,-21.40262],[-42.52632,-21.40328],[-42.52678,-21.40449],[-42.52662,-21.40539],[-42.52559,-21.40757],[-42.52601,-21.40913],[-42.52784,-21.41106],[-42.52828,-21.41268],[-42.5268,-21.41501],[-42.52631,-21.4167],[-42.52661,-21.4188],[-42.5281,-21.42041],[-42.52942,-21.42258],[-42.5296,-21.42383],[-42.52841,-21.42575],[-42.52606,-21.42763],[-42.52596,-21.42843],[-42.52713,-21.42995],[-42.53203,-21.42985],[-42.53262,-21.43148],[-42.53223,-21.4357],[-42.53278,-21.43684],[-42.53415,-21.43828],[-42.53601,-21.43927],[-42.53943,-21.43986],[-42.54134,-21.4399],[-42.54352,-21.43916],[-42.54516,-21.4382]]]},"properties":{"codigo":"313840125","name":"Ribeiro Junqueira","population":1474,"households":799,"areaKm2":77.7481,"density":19}},{"type":"Feature","geometry":{"type":"Polygon","coordinates":[[[-42.71639,-21.67118],[-42.71559,-21.66822],[-42.7145,-21.66666],[-42.71352,-21.66599],[-42.712,-21.66648],[-42.71046,-21.66633],[-42.70651,-21.66501],[-42.70506,-21.66544],[-42.70282,-21.66572],[-42.70046,-21.6656],[-42.69968,-21.66451],[-42.70077,-21.66345],[-42.70124,-21.66194],[-42.70108,-21.65921],[-42.70028,-21.65856],[-42.69483,-21.65765],[-42.69401,-21.65625],[-42.69325,-21.65258],[-42.69265,-21.65201],[-42.6898,-21.65168],[-42.68885,-21.65117],[-42.68717,-21.6477],[-42.68735,-21.64635],[-42.68622,-21.64556],[-42.68393,-21.64603],[-42.68274,-21.64595],[-42.68208,-21.64519],[-42.68221,-21.64349],[-42.68121,-21.64198],[-42.6791,-21.64122],[-42.67816,-21.63842],[-42.67767,-21.63766],[-42.67774,-21.63589],[-42.6787,-21.63301],[-42.68032,-21.6314],[-42.68143,-21.63103],[-42.68271,-21.63007],[-42.68417,-21.62966],[-42.68372,-21.62804],[-42.68368,-21.62549],[-42.683,-21.62432],[-42.68093,-21.62414],[-42.68017,-21.62357],[-42.67912,-21.62125],[-42.67908,-21.62034],[-42.68084,-21.61909],[-42.68197,-21.61796],[-42.68233,-21.6148],[-42.68281,-21.61405],[-42.68261,-21.61004],[-42.68294,-21.60893],[-42.68361,-21.6082],[-42.68525,-21.60475],[-42.68971,-21.60325],[-42.69114,-21.60243],[-42.69307,-21.60183],[-42.69468,-21.60191],[-42.69594,-21.6029],[-42.69659,-21.6039],[-42.69808,-21.60703],[-42.69879,-21.60704],[-42.69962,-21.6061],[-42.7007,-21.60421],[-42.70061,-21.60321],[-42.69918,-21.60086],[-42.69816,-21.59979],[-42.69599,-21.59853],[-42.69538,-21.59697],[-42.69545,-21.59627],[-42.69241,-21.5963],[-42.69326,-21.59555],[-42.6929,-21.59384],[-42.69336,-21.5918],[-42.69214,-21.58961],[-42.69242,-21.58774],[-42.69382,-21.58599],[-42.69522,-21.58489],[-42.6962,-21.5848],[-42.69826,-21.58399],[-42.69923,-21.58327],[-42.69932,-21.58181],[-42.6983,-21.57889],[-42.69946,-21.57806],[-42.70223,-21.57934],[-42.70345,-21.58219],[-42.70379,-21.58349],[-42.70473,-21.58405],[-42.70587,-21.58307],[-42.70711,-21.58292],[-42.70792,-21.58322],[-42.70916,-21.58462],[-42.70962,-21.5858],[-42.71105,-21.58759],[-42.71164,-21.58764],[-42.7131,-21.58502],[-42.71485,-21.58254],[-42.7171,-21.58068],[-42.71714,-21.57999],[-42.718,-21.57887],[-42.72052,-21.57792],[-42.72061,-21.57693],[-42.71832,-21.57467],[-42.7179,-21.57325],[-42.72038,-21.57228],[-42.72068,-21.57191],[-42.72044,-21.56984],[-42.71921,-21.56887],[-42.71652,-21.56821],[-42.7151,-21.56593],[-42.71481,-21.5639],[-42.71372,-21.56265],[-42.71267,-21.56263],[-42.71035,-21.56169],[-42.70884,-21.56154],[-42.70857,-21.56092],[-42.70864,-21.55811],[-42.70631,-21.55726],[-42.70432,-21.55418],[-42.70363,-21.55359],[-42.70371,-21.54996],[-42.70355,-21.54854],[-42.70409,-21.54657],[-42.70411,-21.54555],[-42.703,-21.54377],[-42.70245,-21.54222],[-42.70014,-21.53977],[-42.69861,-21.53707],[-42.69775,-21.53644],[-42.69731,-21.53552],[-42.69765,-21.53405],[-42.69927,-21.53278],[-42.7009,-21.53242],[-42.70306,-21.53275],[-42.70555,-21.53147],[-42.70579,-21.52962],[-42.70652,-21.52718],[-42.70757,-21.52606],[-42.70806,-21.52451],[-42.71092,-21.52342],[-42.71133,-21.5228],[-42.71302,-21.522],[-42.71374,-21.52073],[-42.71265,-21.51791],[-42.71261,-21.51603],[-42.7148,-21.51435],[-42.71702,-21.51322],[-42.71918,-21.51465],[-42.72084,-21.51505],[-42.72329,-21.51523],[-42.72538,-21.51489],[-42.72728,-21.51396],[-42.7283,-21.51408],[-42.73,-21.51513],[-42.73233,-21.51534],[-42.73463,-21.51693],[-42.73509,-21.51865],[-42.73491,-21.52196],[-42.73516,-21.52347],[-42.73592,-21.52414],[-42.73765,-21.52474],[-42.73921,-21.52487],[-42.74166,-21.5237],[-42.74333,-21.52325],[-42.74478,-21.52221],[-42.74593,-21.52269],[-42.74773,-21.52492],[-42.7489,-21.5255],[-42.75144,-21.5251],[-42.75442,-21.52581],[-42.75502,-21.52766],[-42.75403,-21.52966],[-42.75457,-21.53048],[-42.75595,-21.52896],[-42.75664,-21.52878],[-42.75825,-21.53056],[-42.75906,-21.53083],[-42.76082,-21.53028],[-42.76351,-21.53052],[-42.76619,-21.52971],[-42.76991,-21.52974],[-42.77086,-21.5293],[-42.77141,-21.52846],[-42.77017,-21.52644],[-42.76995,-21.52552],[-42.7702,-21.52432],[-42.7711,-21.52346],[-42.77267,-21.52318],[-42.77456,-21.52216],[-42.77607,-21.52239],[-42.7782,-21.52313],[-42.7832,-21.52399],[-42.78722,-21.52515],[-42.79053,-21.52788],[-42.79221,-21.52979],[-42.79249,-21.53067],[-42.7916,-21.53218],[-42.79176,-21.53286],[-42.79422,-21.53365],[-42.79572,-21.53602],[-42.79473,-21.53768],[-42.79568,-21.53837],[-42.79459,-21.53971],[-42.79549,-21.54118],[-42.79568,-21.54255],[-42.79715,-21.54353],[-42.79767,-21.54491],[-42.79987,-21.54801],[-42.79901,-21.54963],[-42.79905,-21.55038],[-42.80046,-21.55213],[-42.80066,-21.55338],[-42.79991,-21.55433],[-42.8016,-21.55679],[-42.80046,-21.55768],[-42.80249,-21.55856],[-42.80423,-21.56091],[-42.80436,-21.56182],[-42.80549,-21.56342],[-42.80493,-21.56434],[-42.80565,-21.56514],[-42.80786,-21.56473],[-42.80937,-21.56473],[-42.81058,-21.56511],[-42.80959,-21.56575],[-42.80785,-21.56774],[-42.80546,-21.56968],[-42.80372,-21.57033],[-42.80253,-21.57108],[-42.80133,-21.57275],[-42.80125,-21.57382],[-42.8018,-21.57569],[-42.80164,-21.5775],[-42.80084,-21.57853],[-42.79777,-21.58072],[-42.79483,-21.5844],[-42.79298,-21.58786],[-42.79098,-21.59016],[-42.78955,-21.59084],[-42.78825,-21.59101],[-42.7861,-21.59181],[-42.78497,-21.59082],[-42.78412,-21.58914],[-42.78338,-21.58931],[-42.77971,-21.59172],[-42.77994,-21.59564],[-42.77937,-21.59643],[-42.77741,-21.59648],[-42.77627,-21.59718],[-42.775,-21.59868],[-42.7744,-21.60118],[-42.77271,-21.60293],[-42.77122,-21.60405],[-42.76883,-21.60523],[-42.76694,-21.60549],[-42.76601,-21.60593],[-42.76535,-21.60702],[-42.76342,-21.60758],[-42.76196,-21.60863],[-42.76154,-21.61004],[-42.76205,-21.61287],[-42.7614,-21.61405],[-42.75859,-21.61671],[-42.75794,-21.61707],[-42.75475,-21.62019],[-42.75179,-21.62093],[-42.75058,-21.62097],[-42.74782,-21.62403],[-42.74729,-21.62671],[-42.74736,-21.63095],[-42.74796,-21.63309],[-42.74943,-21.63493],[-42.75056,-21.63577],[-42.75087,-21.6369],[-42.74978,-21.6403],[-42.7483,-21.64232],[-42.74728,-21.64523],[-42.74713,-21.64822],[-42.74653,-21.64933],[-42.74616,-21.65102],[-42.7444,-21.6509],[-42.74261,-21.65047],[-42.74168,-21.6496],[-42.74073,-21.64951],[-42.73935,-21.65093],[-42.73804,-21.65281],[-42.73537,-21.65503],[-42.73226,-21.65485],[-42.72997,-21.65402],[-42.72964,-21.65525],[-42.72963,-21.65684],[-42.73006,-21.65867],[-42.72999,-21.66153],[-42.7288,-21.66451],[-42.72803,-21.6663],[-42.72675,-21.66771],[-42.7253,-21.66778],[-42.723,-21.66757],[-42.72116,-21.66835],[-42.71919,-21.67071],[-42.71639,-21.67118]]]},"properties":{"codigo":"313840130","name":"Tebas","population":1557,"households":998,"areaKm2":127.7576,"density":12.2}}]}