{"type":"FeatureCollection","features":[{"type":"Feature","geometry":{"type":"Polygon","coordinates":[[[-42.88151,-21.83181],[-42.88207,-21.83089],[-42.88294,-21.8304],[-42.88527,-21.83077],[-42.88915,-21.83113],[-42.89035,-21.83072],[-42.89166,-21.82878],[-42.89425,-21.82737],[-42.89396,-21.82672],[-42.89183,-21.82518],[-42.89122,-21.82442],[-42.89007,-21.82379],[-42.88982,-21.82259],[-42.89049,-21.82026],[-42.89164,-21.81935],[-42.89284,-21.81764],[-42.89352,-21.81626],[-42.89359,-21.81521],[-42.89444,-21.8124],[-42.89907,-21.81242],[-42.90007,-21.81184],[-42.90101,-21.81189],[-42.9027,-21.81361],[-42.90358,-21.81411],[-42.90702,-21.81312],[-42.91077,-21.81467],[-42.91161,-21.81689],[-42.91254,-21.81718],[-42.91348,-21.81634],[-42.9147,-21.81623],[-42.91609,-21.81718],[-42.91872,-21.81732],[-42.92084,-21.81944],[-42.92159,-21.81988],[-42.92404,-21.82047],[-42.92512,-21.82133],[-42.92631,-21.82397],[-42.92854,-21.82531],[-42.93107,-21.82712],[-42.93354,-21.82817],[-42.93517,-21.82865],[-42.93916,-21.82808],[-42.94013,-21.82808],[-42.94239,-21.82954],[-42.94517,-21.82996],[-42.94713,-21.8295],[-42.94831,-21.82797],[-42.9491,-21.82813],[-42.94962,-21.82924],[-42.95156,-21.83007],[-42.95282,-21.83119],[-42.95354,-21.83136],[-42.95619,-21.83113],[-42.95695,-21.83133],[-42.95951,-21.83267],[-42.96177,-21.83346],[-42.96232,-21.83537],[-42.96333,-21.83609],[-42.96561,-21.83588],[-42.96837,-21.83585],[-42.9708,-21.83633],[-42.97293,-21.83596],[-42.97483,-21.83614],[-42.9767,-21.8359],[-42.9799,-21.83662],[-42.98262,-21.83528],[-42.98532,-21.83431],[-42.98847,-21.83451],[-42.99032,-21.83548],[-42.99147,-21.83716],[-42.99275,-21.83757],[-42.99421,-21.83765],[-42.99668,-21.83822],[-42.99863,-21.83827],[-42.99992,-21.83926],[-43.00095,-21.84077],[-43.00288,-21.84087],[-43.00405,-21.84134],[-43.00552,-21.84103],[-43.00624,-21.84137],[-43.00707,-21.84085],[-43.00852,-21.8411],[-43.00925,-21.84041],[-43.01042,-21.84011],[-43.00956,-21.83839],[-43.00852,-21.83718],[-43.00675,-21.83727],[-43.00498,-21.83641],[-43.00473,-21.83419],[-43.00545,-21.83324],[-43.00704,-21.83251],[-43.00849,-21.83283],[-43.01079,-21.83267],[-43.0124,-21.83381],[-43.01337,-21.83398],[-43.0133,-21.83157],[-43.01358,-21.83086],[-43.01508,-21.82965],[-43.01457,-21.82787],[-43.01468,-21.82659],[-43.01766,-21.82726],[-43.01937,-21.82719],[-43.01991,-21.82683],[-43.02256,-21.82638],[-43.02353,-21.82862],[-43.02494,-21.82821],[-43.02629,-21.82743],[-43.02799,-21.82762],[-43.02741,-21.82617],[-43.02697,-21.82419],[-43.0282,-21.82377],[-43.02997,-21.82399],[-43.03077,-21.82354],[-43.03218,-21.82112],[-43.03177,-21.81796],[-43.03207,-21.81744],[-43.03256,-21.81761],[-43.03412,-21.81682],[-43.03578,-21.81797],[-43.03756,-21.81798],[-43.03854,-21.81841],[-43.03914,-21.81947],[-43.04094,-21.82082],[-43.04109,-21.8216],[-43.04005,-21.82278],[-43.04139,-21.82493],[-43.04215,-21.82555],[-43.04279,-21.82709],[-43.04516,-21.82562],[-43.04475,-21.82479],[-43.04644,-21.82489],[-43.04696,-21.82438],[-43.0467,-21.82319],[-43.04716,-21.82267],[-43.05,-21.82243],[-43.05125,-21.82311],[-43.0527,-21.82298],[-43.05571,-21.82363],[-43.0566,-21.82341],[-43.05708,-21.82222],[-43.05856,-21.82224],[-43.0585,-21.82334],[-43.05905,-21.82367],[-43.06121,-21.82318],[-43.0641,-21.82378],[-43.06525,-21.8246],[-43.06632,-21.8247],[-43.07042,-21.8261],[-43.07338,-21.8262],[-43.07475,-21.8266],[-43.07561,-21.82783],[-43.0757,-21.82962],[-43.07606,-21.83031],[-43.07756,-21.83086],[-43.07876,-21.83252],[-43.08097,-21.83517],[-43.08228,-21.83853],[-43.08254,-21.84001],[-43.08347,-21.84069],[-43.08631,-21.84089],[-43.08793,-21.8408],[-43.08851,-21.84136],[-43.08971,-21.84408],[-43.09163,-21.8463],[-43.09585,-21.84811],[-43.09786,-21.84849],[-43.09989,-21.84813],[-43.10123,-21.84833],[-43.104,-21.84796],[-43.1066,-21.84697],[-43.10857,-21.84726],[-43.11011,-21.84889],[-43.11049,-21.84985],[-43.1106,-21.8514],[-43.11039,-21.85276],[-43.11131,-21.85292],[-43.11325,-21.85216],[-43.11583,-21.85273],[-43.11675,-21.8534],[-43.11911,-21.85366],[-43.11986,-21.85399],[-43.12102,-21.85518],[-43.12261,-21.85608],[-43.1243,-21.85756],[-43.12443,-21.85954],[-43.12398,-21.86315],[-43.12391,-21.8656],[-43.1244,-21.86739],[-43.12677,-21.86907],[-43.12616,-21.86966],[-43.1242,-21.87049],[-43.12198,-21.87348],[-43.11848,-21.87659],[-43.11767,-21.87669],[-43.1127,-21.87945],[-43.11033,-21.8815],[-43.10925,-21.88187],[-43.10655,-21.88236],[-43.10399,-21.88259],[-43.10148,-21.88314],[-43.10027,-21.88407],[-43.09781,-21.88642],[-43.09682,-21.88816],[-43.09604,-21.89028],[-43.09498,-21.89203],[-43.09315,-21.8939],[-43.09202,-21.89563],[-43.09022,-21.89751],[-43.0902,-21.89823],[-43.09312,-21.89879],[-43.09408,-21.89918],[-43.09516,-21.90148],[-43.09658,-21.90333],[-43.09581,-21.90467],[-43.09457,-21.90753],[-43.09352,-21.9093],[-43.09255,-21.90962],[-43.09164,-21.90853],[-43.09045,-21.9058],[-43.09025,-21.90488],[-43.08904,-21.90459],[-43.08784,-21.90381],[-43.08702,-21.90477],[-43.08567,-21.90411],[-43.08533,-21.9048],[-43.08392,-21.90556],[-43.08381,-21.90749],[-43.08199,-21.90729],[-43.08164,-21.90899],[-43.08101,-21.90943],[-43.07917,-21.9096],[-43.07762,-21.90819],[-43.07456,-21.90728],[-43.07402,-21.90643],[-43.07073,-21.90402],[-43.06832,-21.90306],[-43.06741,-21.90316],[-43.06551,-21.90714],[-43.06468,-21.90811],[-43.06378,-21.90993],[-43.0635,-21.91138],[-43.06272,-21.91302],[-43.0618,-21.91347],[-43.06112,-21.91208],[-43.05988,-21.9113],[-43.05766,-21.91084],[-43.05571,-21.91201],[-43.05393,-21.91249],[-43.05259,-21.91244],[-43.05098,-21.91162],[-43.05052,-21.90988],[-43.05043,-21.90791],[-43.0496,-21.90606],[-43.04789,-21.90553],[-43.04702,-21.9072],[-43.04496,-21.90941],[-43.04225,-21.91067],[-43.03986,-21.91153],[-43.0378,-21.91199],[-43.03722,-21.91249],[-43.03593,-21.91549],[-43.03576,-21.91675],[-43.03516,-21.91816],[-43.03414,-21.91914],[-43.03319,-21.91958],[-43.03054,-21.92011],[-43.02895,-21.92018],[-43.02829,-21.92059],[-43.02704,-21.92331],[-43.02552,-21.92473],[-43.0238,-21.92545],[-43.02322,-21.92624],[-43.02346,-21.92797],[-43.02394,-21.92883],[-43.02526,-21.92998],[-43.02579,-21.9311],[-43.02564,-21.93196],[-43.02134,-21.93476],[-43.02061,-21.93479],[-43.0193,-21.93408],[-43.01625,-21.93411],[-43.01413,-21.93481],[-43.01282,-21.93571],[-43.01087,-21.93845],[-43.01036,-21.93986],[-43.00901,-21.94047],[-43.0057,-21.94348],[-43.00424,-21.94402],[-43.00244,-21.94435],[-42.99993,-21.94529],[-42.99759,-21.94521],[-42.99403,-21.94455],[-42.99156,-21.94525],[-42.98863,-21.94525],[-42.98626,-21.94489],[-42.98447,-21.94386],[-42.98321,-21.94276],[-42.98243,-21.94282],[-42.98162,-21.94371],[-42.97938,-21.94489],[-42.9781,-21.94502],[-42.97455,-21.94487],[-42.97139,-21.94418],[-42.9686,-21.94398],[-42.96766,-21.94351],[-42.96647,-21.9408],[-42.96313,-21.93865],[-42.96232,-21.93754],[-42.96118,-21.93445],[-42.95998,-21.93167],[-42.9585,-21.93113],[-42.95581,-21.92936],[-42.95588,-21.92803],[-42.95456,-21.92673],[-42.95445,-21.92535],[-42.95487,-21.92395],[-42.95427,-21.92251],[-42.95355,-21.92173],[-42.95261,-21.92148],[-42.95131,-21.9217],[-42.94998,-21.9212],[-42.94904,-21.92128],[-42.94815,-21.92019],[-42.94773,-21.91868],[-42.94624,-21.91898],[-42.94386,-21.91768],[-42.94262,-21.91645],[-42.94083,-21.9153],[-42.94016,-21.91356],[-42.93821,-21.91205],[-42.93607,-21.9114],[-42.93517,-21.91004],[-42.93496,-21.90845],[-42.93322,-21.90839],[-42.93176,-21.90665],[-42.93049,-21.90606],[-42.92953,-21.90456],[-42.92708,-21.90262],[-42.92636,-21.9001],[-42.9243,-21.89876],[-42.92334,-21.89871],[-42.92238,-21.89749],[-42.9217,-21.89608],[-42.92179,-21.89494],[-42.92366,-21.8917],[-42.92329,-21.88959],[-42.92247,-21.8886],[-42.91964,-21.88745],[-42.91862,-21.88744],[-42.91626,-21.88861],[-42.91447,-21.88857],[-42.91407,-21.88758],[-42.91423,-21.88581],[-42.91402,-21.8842],[-42.9132,-21.88268],[-42.91156,-21.88135],[-42.90892,-21.88164],[-42.90496,-21.88151],[-42.90346,-21.88063],[-42.90175,-21.88035],[-42.9002,-21.87901],[-42.89974,-21.8781],[-42.89877,-21.8781],[-42.89624,-21.87675],[-42.8962,-21.87502],[-42.89549,-21.87362],[-42.89367,-21.87285],[-42.89294,-21.87124],[-42.89193,-21.87051],[-42.89151,-21.86943],[-42.88958,-21.86828],[-42.88552,-21.86697],[-42.88447,-21.86576],[-42.88352,-21.86555],[-42.88191,-21.86297],[-42.88215,-21.86093],[-42.88336,-21.86009],[-42.88278,-21.85855],[-42.8818,-21.85799],[-42.88419,-21.85451],[-42.88597,-21.85316],[-42.88577,-21.85193],[-42.88447,-21.85138],[-42.88508,-21.85057],[-42.88363,-21.84855],[-42.88314,-21.84617],[-42.88372,-21.84465],[-42.88556,-21.84342],[-42.88755,-21.84101],[-42.88684,-21.83907],[-42.88563,-21.83788],[-42.88293,-21.83477],[-42.88196,-21.83333],[-42.88151,-21.83181]]]},"properties":{"codigo":"313980505","name":"Mar de Espanha","population":12125,"households":5728,"areaKm2":218.9222,"density":55.4}},{"type":"Feature","geometry":{"type":"Polygon","coordinates":[[[-43.03207,-21.81744],[-43.03177,-21.81796],[-43.03218,-21.82112],[-43.03077,-21.82354],[-43.02997,-21.82399],[-43.0282,-21.82377],[-43.02697,-21.82419],[-43.02741,-21.82617],[-43.02799,-21.82762],[-43.02629,-21.82743],[-43.02494,-21.82821],[-43.02353,-21.82862],[-43.02256,-21.82638],[-43.01991,-21.82683],[-43.01937,-21.82719],[-43.01766,-21.82726],[-43.01468,-21.82659],[-43.01457,-21.82787],[-43.01508,-21.82965],[-43.01358,-21.83086],[-43.0133,-21.83157],[-43.01337,-21.83398],[-43.0124,-21.83381],[-43.01079,-21.83267],[-43.00849,-21.83283],[-43.00704,-21.83251],[-43.00545,-21.83324],[-43.00473,-21.83419],[-43.00498,-21.83641],[-43.00675,-21.83727],[-43.00852,-21.83718],[-43.00956,-21.83839],[-43.01042,-21.84011],[-43.00925,-21.84041],[-43.00852,-21.8411],[-43.00707,-21.84085],[-43.00624,-21.84137],[-43.00552,-21.84103],[-43.00405,-21.84134],[-43.00288,-21.84087],[-43.00095,-21.84077],[-42.99992,-21.83926],[-42.99863,-21.83827],[-42.99668,-21.83822],[-42.99421,-21.83765],[-42.99275,-21.83757],[-42.99147,-21.83716],[-42.99032,-21.83548],[-42.98847,-21.83451],[-42.98532,-21.83431],[-42.98262,-21.83528],[-42.9799,-21.83662],[-42.9767,-21.8359],[-42.97483,-21.83614],[-42.97293,-21.83596],[-42.9708,-21.83633],[-42.96837,-21.83585],[-42.96561,-21.83588],[-42.96333,-21.83609],[-42.96232,-21.83537],[-42.96177,-21.83346],[-42.95951,-21.83267],[-42.96073,-21.83121],[-42.96169,-21.83086],[-42.96234,-21.83008],[-42.96264,-21.82824],[-42.96342,-21.82707],[-42.96424,-21.82657],[-42.96548,-21.82483],[-42.96713,-21.82417],[-42.9673,-21.82348],[-42.96638,-21.82007],[-42.96627,-21.81814],[-42.96757,-21.8163],[-42.96768,-21.81538],[-42.96722,-21.8139],[-42.96578,-21.81245],[-42.96484,-21.81216],[-42.96352,-21.81064],[-42.96375,-21.80841],[-42.96374,-21.80636],[-42.9631,-21.80505],[-42.96222,-21.80459],[-42.96007,-21.80461],[-42.95825,-21.80554],[-42.95683,-21.80545],[-42.95524,-21.80277],[-42.95373,-21.80266],[-42.95179,-21.80128],[-42.95148,-21.80057],[-42.95151,-21.79855],[-42.95372,-21.7976],[-42.95492,-21.7966],[-42.95515,-21.79549],[-42.95449,-21.79397],[-42.95422,-21.79235],[-42.95447,-21.79063],[-42.95418,-21.78902],[-42.95509,-21.78792],[-42.95373,-21.78399],[-42.95199,-21.78291],[-42.95075,-21.781],[-42.9509,-21.78001],[-42.94921,-21.77924],[-42.94824,-21.77848],[-42.94828,-21.77611],[-42.94996,-21.77218],[-42.94946,-21.7716],[-42.94767,-21.77056],[-42.94433,-21.76949],[-42.94462,-21.76838],[-42.94535,-21.76771],[-42.94741,-21.76476],[-42.9473,-21.76315],[-42.94845,-21.7612],[-42.94817,-21.75987],[-42.94831,-21.75713],[-42.9493,-21.75515],[-42.94941,-21.75353],[-42.94882,-21.75273],[-42.94867,-21.75108],[-42.94892,-21.74959],[-42.94882,-21.74822],[-42.94937,-21.74696],[-42.95107,-21.74655],[-42.95228,-21.745],[-42.95301,-21.74467],[-42.95532,-21.74471],[-42.95606,-21.74451],[-42.95777,-21.74315],[-42.96054,-21.74327],[-42.96139,-21.74278],[-42.96208,-21.7417],[-42.9635,-21.7408],[-42.96342,-21.73737],[-42.96285,-21.73549],[-42.96159,-21.73385],[-42.96075,-21.73321],[-42.96212,-21.73167],[-42.96399,-21.73186],[-42.96454,-21.73305],[-42.96552,-21.73369],[-42.96569,-21.73487],[-42.96705,-21.73674],[-42.96829,-21.7392],[-42.97082,-21.74061],[-42.97093,-21.7415],[-42.97015,-21.74439],[-42.96891,-21.7467],[-42.96756,-21.74821],[-42.96697,-21.74994],[-42.96679,-21.75128],[-42.96802,-21.75247],[-42.9691,-21.75459],[-42.97251,-21.75614],[-42.97467,-21.75664],[-42.97883,-21.75701],[-42.97966,-21.75797],[-42.9801,-21.76086],[-42.98038,-21.76124],[-42.98214,-21.7615],[-42.98281,-21.76201],[-42.98368,-21.76576],[-42.9854,-21.76739],[-42.98803,-21.76845],[-42.98932,-21.76869],[-42.99198,-21.76876],[-42.99288,-21.76923],[-42.99376,-21.77095],[-42.9947,-21.77186],[-42.99649,-21.77231],[-42.99907,-21.77473],[-43.00074,-21.77524],[-43.00181,-21.77649],[-43.00407,-21.77961],[-43.00506,-21.78033],[-43.00647,-21.77977],[-43.00759,-21.77836],[-43.00979,-21.77731],[-43.01116,-21.778],[-43.01241,-21.77962],[-43.01424,-21.78048],[-43.01741,-21.78092],[-43.01843,-21.78178],[-43.02063,-21.7825],[-43.0218,-21.78601],[-43.0237,-21.78904],[-43.0248,-21.79024],[-43.02756,-21.79033],[-43.02881,-21.79064],[-43.02928,-21.79128],[-43.02866,-21.79377],[-43.02966,-21.7966],[-43.03084,-21.79904],[-43.0322,-21.8005],[-43.03004,-21.80354],[-43.02948,-21.80464],[-43.02978,-21.806],[-43.03096,-21.80781],[-43.03078,-21.8087],[-43.02963,-21.80951],[-43.02956,-21.8102],[-43.03092,-21.81262],[-43.03003,-21.81314],[-43.03159,-21.81534],[-43.03207,-21.81744]]]},"properties":{"codigo":"313980510","name":"Engenho Novo","population":332,"households":213,"areaKm2":57.8047,"density":5.7}},{"type":"Feature","geometry":{"type":"Polygon","coordinates":[[[-43.01036,-21.93986],[-43.01087,-21.93845],[-43.01282,-21.93571],[-43.01413,-21.93481],[-43.01625,-21.93411],[-43.0193,-21.93408],[-43.02061,-21.93479],[-43.02134,-21.93476],[-43.02564,-21.93196],[-43.02579,-21.9311],[-43.02526,-21.92998],[-43.02394,-21.92883],[-43.02346,-21.92797],[-43.02322,-21.92624],[-43.0238,-21.92545],[-43.02552,-21.92473],[-43.02704,-21.92331],[-43.02829,-21.92059],[-43.02895,-21.92018],[-43.03054,-21.92011],[-43.03319,-21.91958],[-43.03414,-21.91914],[-43.03516,-21.91816],[-43.03576,-21.91675],[-43.03593,-21.91549],[-43.03722,-21.91249],[-43.0378,-21.91199],[-43.03986,-21.91153],[-43.04225,-21.91067],[-43.04496,-21.90941],[-43.04702,-21.9072],[-43.04789,-21.90553],[-43.0496,-21.90606],[-43.05043,-21.90791],[-43.05052,-21.90988],[-43.05098,-21.91162],[-43.05259,-21.91244],[-43.05393,-21.91249],[-43.05571,-21.91201],[-43.05766,-21.91084],[-43.05988,-21.9113],[-43.06112,-21.91208],[-43.0618,-21.91347],[-43.06272,-21.91302],[-43.0635,-21.91138],[-43.06378,-21.90993],[-43.06468,-21.90811],[-43.06551,-21.90714],[-43.06741,-21.90316],[-43.06832,-21.90306],[-43.07073,-21.90402],[-43.07402,-21.90643],[-43.07456,-21.90728],[-43.07762,-21.90819],[-43.07917,-21.9096],[-43.08101,-21.90943],[-43.08164,-21.90899],[-43.08199,-21.90729],[-43.08381,-21.90749],[-43.08392,-21.90556],[-43.08533,-21.9048],[-43.08567,-21.90411],[-43.08702,-21.90477],[-43.08784,-21.90381],[-43.08904,-21.90459],[-43.09025,-21.90488],[-43.09045,-21.9058],[-43.09164,-21.90853],[-43.09255,-21.90962],[-43.09352,-21.9093],[-43.09457,-21.90753],[-43.09581,-21.90467],[-43.09658,-21.90333],[-43.09516,-21.90148],[-43.09408,-21.89918],[-43.09312,-21.89879],[-43.0902,-21.89823],[-43.09022,-21.89751],[-43.09202,-21.89563],[-43.09315,-21.8939],[-43.09498,-21.89203],[-43.09604,-21.89028],[-43.09682,-21.88816],[-43.09781,-21.88642],[-43.10027,-21.88407],[-43.10148,-21.88314],[-43.10399,-21.88259],[-43.10655,-21.88236],[-43.10925,-21.88187],[-43.11033,-21.8815],[-43.1127,-21.87945],[-43.11767,-21.87669],[-43.11848,-21.87659],[-43.12198,-21.87348],[-43.1242,-21.87049],[-43.12616,-21.86966],[-43.12677,-21.86907],[-43.12831,-21.87082],[-43.12876,-21.87261],[-43.12843,-21.87468],[-43.12864,-21.87652],[-43.12928,-21.87701],[-43.13166,-21.87795],[-43.1331,-21.87999],[-43.13347,-21.88194],[-43.13421,-21.88327],[-43.13623,-21.88521],[-43.13642,-21.88671],[-43.13546,-21.88915],[-43.13643,-21.89028],[-43.13688,-21.89169],[-43.13679,-21.89284],[-43.13617,-21.89452],[-43.13663,-21.89529],[-43.13883,-21.89485],[-43.1403,-21.89478],[-43.14077,-21.89614],[-43.14068,-21.89798],[-43.13948,-21.90023],[-43.13947,-21.90094],[-43.14072,-21.90182],[-43.14068,-21.90335],[-43.13982,-21.90553],[-43.13923,-21.90644],[-43.13743,-21.90811],[-43.13754,-21.90891],[-43.1404,-21.91013],[-43.14141,-21.91079],[-43.14191,-21.91232],[-43.14182,-21.91515],[-43.1431,-21.91653],[-43.14472,-21.91702],[-43.14642,-21.91669],[-43.14756,-21.91677],[-43.14857,-21.91789],[-43.14845,-21.91987],[-43.14943,-21.92111],[-43.15093,-21.92156],[-43.15275,-21.9214],[-43.15318,-21.92234],[-43.15243,-21.9256],[-43.15109,-21.92574],[-43.1492,-21.92472],[-43.14753,-21.9245],[-43.1459,-21.92491],[-43.14472,-21.92555],[-43.14247,-21.92572],[-43.14021,-21.92555],[-43.13656,-21.92608],[-43.1352,-21.92557],[-43.13351,-21.92752],[-43.13145,-21.92844],[-43.12965,-21.92841],[-43.1276,-21.92771],[-43.12608,-21.92587],[-43.12308,-21.92434],[-43.12038,-21.92368],[-43.11872,-21.92309],[-43.11744,-21.92227],[-43.11643,-21.92241],[-43.11447,-21.92357],[-43.11258,-21.92393],[-43.11168,-21.92452],[-43.10939,-21.92778],[-43.10701,-21.92966],[-43.10847,-21.93032],[-43.1104,-21.93296],[-43.11142,-21.93329],[-43.11253,-21.93257],[-43.11367,-21.93131],[-43.1142,-21.9312],[-43.11686,-21.93345],[-43.11773,-21.9345],[-43.11786,-21.93696],[-43.11714,-21.93987],[-43.11763,-21.94246],[-43.11611,-21.94306],[-43.11466,-21.94548],[-43.11182,-21.94618],[-43.11079,-21.94687],[-43.11076,-21.949],[-43.11034,-21.95009],[-43.10931,-21.95119],[-43.10988,-21.95396],[-43.11109,-21.95486],[-43.11266,-21.9546],[-43.11386,-21.95302],[-43.11513,-21.95253],[-43.11674,-21.95232],[-43.11717,-21.95294],[-43.11725,-21.95584],[-43.11682,-21.95742],[-43.11589,-21.95822],[-43.11549,-21.9595],[-43.11427,-21.96084],[-43.11356,-21.96298],[-43.11373,-21.96451],[-43.11479,-21.9655],[-43.1163,-21.96606],[-43.11727,-21.96588],[-43.11869,-21.96683],[-43.12017,-21.96721],[-43.12149,-21.96717],[-43.1223,-21.96658],[-43.12221,-21.9641],[-43.12265,-21.96319],[-43.12447,-21.96301],[-43.12797,-21.96177],[-43.12962,-21.9636],[-43.13187,-21.96441],[-43.13173,-21.96538],[-43.13076,-21.96697],[-43.12959,-21.96788],[-43.12815,-21.96758],[-43.12687,-21.96775],[-43.12475,-21.96955],[-43.12428,-21.97099],[-43.12231,-21.97154],[-43.12127,-21.97232],[-43.12106,-21.97348],[-43.12132,-21.9744],[-43.12074,-21.97577],[-43.11883,-21.97589],[-43.11862,-21.97674],[-43.11894,-21.97806],[-43.11998,-21.97988],[-43.11961,-21.98103],[-43.11861,-21.98215],[-43.11868,-21.98316],[-43.12112,-21.98629],[-43.12007,-21.98695],[-43.1193,-21.98853],[-43.11878,-21.99064],[-43.11866,-21.99307],[-43.11809,-21.99448],[-43.1163,-21.99551],[-43.11555,-21.99549],[-43.11371,-21.99472],[-43.11254,-21.99364],[-43.11031,-21.99406],[-43.10904,-21.99381],[-43.1052,-21.994],[-43.10416,-21.99485],[-43.10262,-21.99658],[-43.10151,-21.99736],[-43.09995,-21.9974],[-43.09802,-21.99621],[-43.0962,-21.99562],[-43.09358,-21.996],[-43.09156,-21.996],[-43.09085,-21.99559],[-43.08743,-21.99592],[-43.08698,-21.99567],[-43.08621,-21.99227],[-43.0866,-21.98896],[-43.08625,-21.98777],[-43.08467,-21.98589],[-43.08382,-21.98571],[-43.0819,-21.98595],[-43.0808,-21.98672],[-43.08035,-21.98796],[-43.07943,-21.98904],[-43.07682,-21.99033],[-43.076,-21.99021],[-43.07507,-21.98722],[-43.07433,-21.9864],[-43.07212,-21.98494],[-43.0718,-21.98446],[-43.06994,-21.9835],[-43.06769,-21.98274],[-43.06711,-21.98231],[-43.0672,-21.98003],[-43.06684,-21.97795],[-43.06693,-21.97456],[-43.06548,-21.9735],[-43.06434,-21.97234],[-43.06198,-21.96874],[-43.05992,-21.9676],[-43.05838,-21.96545],[-43.05692,-21.96085],[-43.05687,-21.95862],[-43.05613,-21.95779],[-43.05504,-21.95914],[-43.05369,-21.95919],[-43.05123,-21.95882],[-43.04879,-21.95872],[-43.04639,-21.95805],[-43.04529,-21.95724],[-43.04376,-21.95547],[-43.04287,-21.95384],[-43.04141,-21.9527],[-43.03998,-21.95121],[-43.0374,-21.95143],[-43.03638,-21.95212],[-43.03571,-21.95322],[-43.03468,-21.95386],[-43.03239,-21.95441],[-43.03209,-21.95577],[-43.03274,-21.95798],[-43.03247,-21.95862],[-43.02995,-21.95994],[-43.02996,-21.96141],[-43.03108,-21.96312],[-43.03243,-21.96466],[-43.03282,-21.96627],[-43.03146,-21.96819],[-43.03145,-21.96919],[-43.03079,-21.97269],[-43.03017,-21.97464],[-43.02849,-21.97615],[-43.02779,-21.9754],[-43.02902,-21.97364],[-43.02976,-21.97304],[-43.02928,-21.97206],[-43.02964,-21.97092],[-43.02831,-21.96991],[-43.02803,-21.96923],[-43.02662,-21.96954],[-43.02652,-21.96811],[-43.02441,-21.96584],[-43.02312,-21.96508],[-43.02267,-21.96345],[-43.02169,-21.96204],[-43.02205,-21.96061],[-43.02059,-21.95869],[-43.01985,-21.95636],[-43.0199,-21.95465],[-43.01896,-21.95303],[-43.01759,-21.95234],[-43.01653,-21.95141],[-43.01521,-21.94867],[-43.01391,-21.94876],[-43.01322,-21.94495],[-43.01255,-21.94377],[-43.01182,-21.94145],[-43.01036,-21.93986]]]},"properties":{"codigo":"313980515","name":"Saudade","population":264,"households":209,"areaKm2":94.8728,"density":2.8}}]}