{"type":"FeatureCollection","features":[{"type":"Feature","geometry":{"type":"Polygon","coordinates":[[[-43.71219,-14.71528],[-43.71376,-14.71368],[-43.71689,-14.71259],[-43.71814,-14.71142],[-43.72101,-14.70227],[-43.72329,-14.69953],[-43.72626,-14.69816],[-43.74184,-14.70111],[-43.74856,-14.70052],[-43.75551,-14.70084],[-43.75912,-14.69872],[-43.76214,-14.69619],[-43.76326,-14.69265],[-43.76404,-14.69212],[-43.76797,-14.69182],[-43.77617,-14.6922],[-43.77934,-14.6901],[-43.78364,-14.68804],[-43.78406,-14.68658],[-43.78566,-14.68572],[-43.79378,-14.68606],[-43.79886,-14.68747],[-43.80051,-14.68731],[-43.8035,-14.68591],[-43.81267,-14.6841],[-43.8157,-14.68103],[-43.82014,-14.67892],[-43.82436,-14.67819],[-43.82811,-14.67823],[-43.82871,-14.6778],[-43.82873,-14.67612],[-43.832,-14.67503],[-43.83801,-14.67573],[-43.84018,-14.67417],[-43.84294,-14.67315],[-43.84687,-14.6721],[-43.84964,-14.67214],[-43.85389,-14.67371],[-43.85553,-14.67386],[-43.8579,-14.67299],[-43.8592,-14.6743],[-43.86214,-14.67122],[-43.86293,-14.66978],[-43.86274,-14.6631],[-43.86426,-14.66153],[-43.86612,-14.66124],[-43.8719,-14.66358],[-43.87312,-14.66056],[-43.87357,-14.65804],[-43.87278,-14.6549],[-43.87326,-14.65359],[-43.87443,-14.65268],[-43.87589,-14.65227],[-43.8765,-14.65288],[-43.87809,-14.65707],[-43.87912,-14.65803],[-43.88073,-14.65601],[-43.88124,-14.6542],[-43.88306,-14.65397],[-43.88354,-14.65255],[-43.88117,-14.64965],[-43.88115,-14.6486],[-43.87951,-14.64768],[-43.87929,-14.64608],[-43.87976,-14.64499],[-43.88172,-14.64516],[-43.88367,-14.64445],[-43.88398,-14.64387],[-43.88337,-14.64233],[-43.87787,-14.6421],[-43.87715,-14.64033],[-43.87751,-14.63969],[-43.88265,-14.63904],[-43.88487,-14.63779],[-43.88579,-14.63543],[-43.88517,-14.63448],[-43.88431,-14.63424],[-43.88142,-14.63586],[-43.87889,-14.63649],[-43.87463,-14.63677],[-43.87479,-14.63525],[-43.87665,-14.63246],[-43.88061,-14.63083],[-43.88175,-14.62944],[-43.88095,-14.628],[-43.87879,-14.62713],[-43.87707,-14.62437],[-43.87468,-14.62216],[-43.8722,-14.62272],[-43.87104,-14.62211],[-43.87089,-14.62084],[-43.87338,-14.61744],[-43.87431,-14.61565],[-43.87444,-14.61444],[-43.87395,-14.61388],[-43.87114,-14.61382],[-43.87006,-14.61283],[-43.87032,-14.61204],[-43.87251,-14.61071],[-43.87484,-14.61028],[-43.87689,-14.60921],[-43.87637,-14.59939],[-43.87486,-14.59637],[-43.87451,-14.59469],[-43.87501,-14.5932],[-43.87673,-14.5908],[-43.87921,-14.58971],[-43.88056,-14.58966],[-43.88139,-14.59011],[-43.88239,-14.59384],[-43.88262,-14.59825],[-43.88298,-14.59918],[-43.88401,-14.59954],[-43.8854,-14.59788],[-43.88601,-14.59566],[-43.8859,-14.59366],[-43.88312,-14.58889],[-43.88265,-14.58671],[-43.88723,-14.58518],[-43.8872,-14.58314],[-43.88676,-14.58199],[-43.88462,-14.57983],[-43.88229,-14.57434],[-43.8786,-14.56775],[-43.87717,-14.56334],[-43.87723,-14.56214],[-43.87978,-14.56285],[-43.8812,-14.56241],[-43.88203,-14.56386],[-43.88479,-14.56745],[-43.88985,-14.57479],[-43.89109,-14.57714],[-43.89287,-14.58011],[-43.8954,-14.58628],[-43.89631,-14.58941],[-43.8991,-14.5959],[-43.89986,-14.59885],[-43.90251,-14.60634],[-43.90301,-14.60792],[-43.90373,-14.61122],[-43.90548,-14.61682],[-43.90641,-14.6205],[-43.90704,-14.62347],[-43.90763,-14.62529],[-43.90819,-14.62838],[-43.90851,-14.63244],[-43.90913,-14.63502],[-43.91118,-14.6399],[-43.91247,-14.6433],[-43.91433,-14.64745],[-43.91536,-14.65017],[-43.91758,-14.6571],[-43.91816,-14.66099],[-43.91788,-14.66348],[-43.91788,-14.6704],[-43.91728,-14.67729],[-43.91649,-14.68234],[-43.916,-14.68442],[-43.91559,-14.68765],[-43.91506,-14.69316],[-43.91495,-14.69576],[-43.91534,-14.70143],[-43.91576,-14.70415],[-43.91603,-14.70712],[-43.91687,-14.71318],[-43.91769,-14.71816],[-43.91841,-14.72108],[-43.91906,-14.72293],[-43.92108,-14.72723],[-43.92399,-14.73435],[-43.92445,-14.73649],[-43.92608,-14.74209],[-43.92747,-14.7489],[-43.92882,-14.75402],[-43.92951,-14.75598],[-43.93087,-14.75906],[-43.93168,-14.76226],[-43.93288,-14.76604],[-43.93403,-14.77198],[-43.93404,-14.77443],[-43.93358,-14.77807],[-43.93307,-14.78109],[-43.93244,-14.78363],[-43.93133,-14.78702],[-43.92947,-14.7915],[-43.92741,-14.79784],[-43.92645,-14.80144],[-43.92593,-14.80287],[-43.92455,-14.8076],[-43.92394,-14.81007],[-43.92277,-14.81364],[-43.92223,-14.81584],[-43.92035,-14.82103],[-43.91967,-14.8235],[-43.91955,-14.8252],[-43.91957,-14.82944],[-43.91929,-14.8321],[-43.91923,-14.83438],[-43.91966,-14.83788],[-43.91972,-14.83968],[-43.92051,-14.84339],[-43.92194,-14.84693],[-43.92632,-14.85379],[-43.9302,-14.8574],[-43.93162,-14.85933],[-43.93351,-14.8635],[-43.93482,-14.8673],[-43.9359,-14.8719],[-43.93636,-14.87326],[-43.93706,-14.87642],[-43.93775,-14.88024],[-43.93852,-14.88337],[-43.94015,-14.88717],[-43.94339,-14.89371],[-43.94451,-14.89654],[-43.94692,-14.90202],[-43.94919,-14.90676],[-43.95184,-14.91164],[-43.95448,-14.91571],[-43.95852,-14.91985],[-43.96202,-14.92286],[-43.96409,-14.92532],[-43.96595,-14.92787],[-43.96802,-14.93142],[-43.97174,-14.9374],[-43.97357,-14.94117],[-43.97585,-14.94861],[-43.97731,-14.95142],[-43.97867,-14.95437],[-43.97974,-14.95796],[-43.98065,-14.96049],[-43.98321,-14.96609],[-43.98466,-14.9677],[-43.98735,-14.96928],[-43.99174,-14.97162],[-43.99397,-14.97322],[-43.99738,-14.97674],[-43.99903,-14.97864],[-44.00061,-14.98276],[-44.00108,-14.98633],[-44.00183,-14.98938],[-44.00182,-14.9911],[-44.00222,-14.99272],[-44.00333,-14.99601],[-44.00358,-14.99719],[-44.00469,-14.99935],[-44.00466,-15.00135],[-44.00523,-15.00302],[-44.00642,-15.00417],[-44.01326,-15.0081],[-44.01446,-15.00923],[-44.01811,-15.01417],[-44.01863,-15.01608],[-44.01882,-15.01933],[-44.01982,-15.02317],[-44.01998,-15.02531],[-44.0197,-15.02731],[-44.01757,-15.03278],[-44.0167,-15.0346],[-44.01587,-15.03936],[-44.01492,-15.04251],[-44.01448,-15.04557],[-44.01424,-15.05256],[-44.01531,-15.05654],[-44.01569,-15.059],[-44.01151,-15.06161],[-44.01133,-15.06204],[-44.00858,-15.06342],[-43.99776,-15.06473],[-43.99247,-15.06594],[-43.88962,-15.08956],[-43.80788,-15.1083],[-43.79117,-15.11213],[-43.78998,-15.11222],[-43.72539,-15.11276],[-43.73122,-15.1127],[-43.7314,-15.08138],[-43.73125,-15.02255],[-43.68951,-14.97967],[-43.63417,-14.92282],[-43.53061,-14.81646],[-43.53104,-14.81544],[-43.53139,-14.8153],[-43.53431,-14.81179],[-43.53791,-14.80844],[-43.5392,-14.80574],[-43.53959,-14.80297],[-43.53691,-14.79205],[-43.53694,-14.79059],[-43.53439,-14.78982],[-43.53395,-14.78872],[-43.53717,-14.78351],[-43.53992,-14.78037],[-43.54164,-14.77913],[-43.54983,-14.77666],[-43.55378,-14.77467],[-43.55708,-14.77168],[-43.55864,-14.77099],[-43.56106,-14.77087],[-43.56464,-14.76866],[-43.56691,-14.76851],[-43.57378,-14.76516],[-43.57514,-14.76336],[-43.57664,-14.75932],[-43.57857,-14.75256],[-43.58062,-14.75081],[-43.58306,-14.75017],[-43.5863,-14.75006],[-43.59078,-14.75087],[-43.59926,-14.75391],[-43.60437,-14.75753],[-43.60606,-14.75946],[-43.61125,-14.76055],[-43.615,-14.75989],[-43.62078,-14.75628],[-43.62503,-14.75529],[-43.62815,-14.75157],[-43.63,-14.75036],[-43.63653,-14.75036],[-43.63879,-14.74991],[-43.64615,-14.74705],[-43.65394,-14.74557],[-43.657,-14.74575],[-43.65903,-14.74487],[-43.66514,-14.74096],[-43.6662,-14.73984],[-43.66595,-14.73815],[-43.66637,-14.73712],[-43.671,-14.73687],[-43.67192,-14.73438],[-43.67417,-14.73246],[-43.67392,-14.73164],[-43.67217,-14.72994],[-43.67215,-14.72782],[-43.67323,-14.72636],[-43.67436,-14.72579],[-43.67553,-14.72582],[-43.67595,-14.72669],[-43.6735,-14.72859],[-43.67381,-14.72954],[-43.67717,-14.72949],[-43.67953,-14.73009],[-43.68108,-14.73219],[-43.68263,-14.7314],[-43.68306,-14.72896],[-43.68406,-14.7281],[-43.68534,-14.72853],[-43.68679,-14.72764],[-43.6877,-14.72625],[-43.6888,-14.7269],[-43.68974,-14.72822],[-43.69048,-14.72624],[-43.69,-14.72543],[-43.68687,-14.7226],[-43.68717,-14.72141],[-43.68843,-14.72185],[-43.6922,-14.72477],[-43.69415,-14.72511],[-43.69593,-14.72392],[-43.69711,-14.72371],[-43.69794,-14.72422],[-43.70115,-14.7245],[-43.70342,-14.72532],[-43.70973,-14.73039],[-43.71562,-14.73068],[-43.71986,-14.72954],[-43.72151,-14.72818],[-43.72179,-14.72687],[-43.71972,-14.72399],[-43.71961,-14.7209],[-43.71774,-14.72072],[-43.71726,-14.71878],[-43.71665,-14.71836],[-43.71561,-14.71861],[-43.71456,-14.71809],[-43.71403,-14.71705],[-43.71201,-14.71645],[-43.71219,-14.71528]]]},"properties":{"codigo":"314085205","name":"Matias Cardoso","population":7443,"households":3423,"areaKm2":1554.1293,"density":4.8}},{"type":"Feature","geometry":{"type":"Polygon","coordinates":[[[-43.53061,-14.81646],[-43.63417,-14.92282],[-43.68951,-14.97967],[-43.73125,-15.02255],[-43.7314,-15.08138],[-43.73122,-15.1127],[-43.72539,-15.11276],[-43.69358,-15.11301],[-43.65979,-15.11329],[-43.65987,-15.11041],[-43.64209,-15.10445],[-43.64159,-15.1019],[-43.6398,-15.10059],[-43.63833,-15.10023],[-43.63432,-15.10025],[-43.63235,-15.09986],[-43.63016,-15.09866],[-43.62782,-15.09889],[-43.6254,-15.09871],[-43.622,-15.09957],[-43.61859,-15.09933],[-43.61699,-15.09827],[-43.61464,-15.09542],[-43.61346,-15.09421],[-43.61252,-15.09222],[-43.61244,-15.0912],[-43.613,-15.09037],[-43.61598,-15.09034],[-43.61645,-15.08971],[-43.61586,-15.08838],[-43.61645,-15.08615],[-43.61683,-15.08587],[-43.61851,-15.08613],[-43.61981,-15.08526],[-43.62008,-15.08402],[-43.61959,-15.08266],[-43.62077,-15.08254],[-43.62134,-15.08198],[-43.62125,-15.08064],[-43.62164,-15.07974],[-43.62279,-15.07876],[-43.62279,-15.07681],[-43.62336,-15.07607],[-43.62517,-15.07556],[-43.62647,-15.07465],[-43.6285,-15.07461],[-43.63164,-15.07577],[-43.63456,-15.07604],[-43.63836,-15.07771],[-43.63943,-15.078],[-43.64088,-15.07782],[-43.64177,-15.07735],[-43.64266,-15.07631],[-43.64293,-15.07543],[-43.64223,-15.07422],[-43.64106,-15.07322],[-43.64085,-15.07087],[-43.63719,-15.06746],[-43.63473,-15.06548],[-43.63251,-15.06415],[-43.62773,-15.06058],[-43.62725,-15.05964],[-43.62704,-15.0582],[-43.62766,-15.05163],[-43.62732,-15.0488],[-43.62587,-15.04636],[-43.62301,-15.04443],[-43.61952,-15.04111],[-43.61662,-15.04008],[-43.61475,-15.03991],[-43.61274,-15.04021],[-43.6089,-15.04041],[-43.60779,-15.04077],[-43.60544,-15.04196],[-43.60372,-15.04316],[-43.60106,-15.04436],[-43.60013,-15.04547],[-43.59888,-15.04808],[-43.59757,-15.05008],[-43.59609,-15.05136],[-43.59505,-15.05348],[-43.59336,-15.05507],[-43.59345,-15.0564],[-43.59206,-15.05952],[-43.59029,-15.0603],[-43.5893,-15.06024],[-43.58765,-15.05913],[-43.58577,-15.05836],[-43.58508,-15.0577],[-43.58535,-15.0568],[-43.58767,-15.05614],[-43.58891,-15.05541],[-43.59029,-15.05572],[-43.59011,-15.05473],[-43.58861,-15.05371],[-43.58765,-15.05469],[-43.58678,-15.05465],[-43.58681,-15.05368],[-43.58822,-15.05238],[-43.58719,-15.05108],[-43.58651,-15.05175],[-43.58427,-15.05088],[-43.58471,-15.04954],[-43.58576,-15.04852],[-43.58482,-15.04684],[-43.58491,-15.04599],[-43.58575,-15.04483],[-43.5855,-15.04205],[-43.586,-15.03977],[-43.58651,-15.03898],[-43.5879,-15.03779],[-43.58859,-15.03659],[-43.58917,-15.03323],[-43.58905,-15.02793],[-43.58863,-15.02658],[-43.58619,-15.02428],[-43.58271,-15.02471],[-43.57967,-15.02543],[-43.57778,-15.02621],[-43.57542,-15.02683],[-43.57368,-15.02767],[-43.5711,-15.02989],[-43.56962,-15.03147],[-43.56847,-15.03233],[-43.56723,-15.03391],[-43.56514,-15.03772],[-43.56443,-15.03943],[-43.56345,-15.0411],[-43.56131,-15.04255],[-43.55942,-15.04277],[-43.55706,-15.04167],[-43.55625,-15.0409],[-43.55552,-15.03915],[-43.55413,-15.03774],[-43.55377,-15.03687],[-43.5537,-15.03455],[-43.55462,-15.03219],[-43.55664,-15.03095],[-43.55936,-15.03007],[-43.56249,-15.02868],[-43.56474,-15.0268],[-43.56641,-15.02577],[-43.57141,-15.02558],[-43.57459,-15.02442],[-43.57624,-15.02337],[-43.57698,-15.02207],[-43.57753,-15.0205],[-43.57939,-15.01726],[-43.58277,-15.01442],[-43.58439,-15.01273],[-43.58489,-15.01132],[-43.58484,-15.00897],[-43.58452,-15.00805],[-43.58258,-15.00593],[-43.58087,-15.00466],[-43.57924,-15.00307],[-43.57755,-15.0021],[-43.57603,-15.0017],[-43.57411,-15.00172],[-43.5712,-15.00204],[-43.56774,-15.00314],[-43.5672,-15.00399],[-43.5674,-15.0074],[-43.56724,-15.00784],[-43.56461,-15.00984],[-43.56332,-15.01135],[-43.56191,-15.01369],[-43.55872,-15.01673],[-43.55584,-15.01743],[-43.5531,-15.01859],[-43.55029,-15.01937],[-43.5486,-15.02063],[-43.54727,-15.02212],[-43.54539,-15.02333],[-43.54234,-15.02375],[-43.54111,-15.02443],[-43.53953,-15.02452],[-43.53679,-15.02312],[-43.53615,-15.02076],[-43.53751,-15.01757],[-43.5376,-15.01467],[-43.53715,-15.01219],[-43.53707,-15.00876],[-43.53729,-15.00738],[-43.53798,-15.00553],[-43.53931,-15.00335],[-43.54008,-15.00279],[-43.54416,-15.00075],[-43.54481,-15.00008],[-43.54673,-14.9989],[-43.5478,-14.99798],[-43.55076,-14.99613],[-43.55337,-14.99475],[-43.55441,-14.99378],[-43.55507,-14.99244],[-43.55578,-14.9894],[-43.55611,-14.98688],[-43.55828,-14.98248],[-43.5585,-14.98156],[-43.55947,-14.98043],[-43.56151,-14.97964],[-43.5635,-14.97939],[-43.56483,-14.98024],[-43.56509,-14.98164],[-43.56511,-14.98353],[-43.56621,-14.9851],[-43.56867,-14.98503],[-43.57043,-14.98417],[-43.57137,-14.98263],[-43.57206,-14.9808],[-43.57215,-14.97935],[-43.57146,-14.97762],[-43.56994,-14.97624],[-43.56769,-14.97491],[-43.56562,-14.97394],[-43.56318,-14.97224],[-43.55929,-14.96976],[-43.5563,-14.96921],[-43.55433,-14.96923],[-43.55104,-14.96806],[-43.548,-14.96793],[-43.54558,-14.96864],[-43.54374,-14.97042],[-43.54087,-14.97222],[-43.53917,-14.97391],[-43.53791,-14.97478],[-43.53542,-14.97714],[-43.53369,-14.97907],[-43.53315,-14.97997],[-43.5327,-14.98196],[-43.53256,-14.9844],[-43.53133,-14.98647],[-43.53055,-14.98724],[-43.52804,-14.98892],[-43.52664,-14.9889],[-43.52538,-14.98793],[-43.52355,-14.98556],[-43.52317,-14.98369],[-43.52364,-14.98056],[-43.52423,-14.97865],[-43.5252,-14.9773],[-43.52674,-14.97657],[-43.52748,-14.9759],[-43.52769,-14.975],[-43.52748,-14.97318],[-43.52859,-14.97097],[-43.53053,-14.96827],[-43.53193,-14.96702],[-43.53418,-14.96573],[-43.53669,-14.9634],[-43.53849,-14.96241],[-43.53958,-14.96141],[-43.53934,-14.95943],[-43.53832,-14.95681],[-43.53715,-14.95535],[-43.53416,-14.95266],[-43.53319,-14.95144],[-43.53103,-14.94997],[-43.52937,-14.94753],[-43.52811,-14.94658],[-43.52548,-14.94516],[-43.52386,-14.94299],[-43.52156,-14.94141],[-43.51802,-14.93717],[-43.51651,-14.93602],[-43.51373,-14.93521],[-43.51032,-14.93531],[-43.50852,-14.93579],[-43.50636,-14.9369],[-43.50575,-14.93757],[-43.50518,-14.93896],[-43.50464,-14.94121],[-43.50362,-14.94216],[-43.5022,-14.94244],[-43.50017,-14.94169],[-43.4987,-14.94168],[-43.49799,-14.94099],[-43.49783,-14.94007],[-43.49862,-14.93646],[-43.49846,-14.93549],[-43.49745,-14.93383],[-43.4975,-14.93291],[-43.49879,-14.93089],[-43.49908,-14.92903],[-43.49994,-14.92704],[-43.5008,-14.92634],[-43.50106,-14.92437],[-43.50116,-14.92197],[-43.50077,-14.91969],[-43.50094,-14.91778],[-43.50236,-14.9143],[-43.50427,-14.91158],[-43.50401,-14.9107],[-43.50271,-14.91006],[-43.50254,-14.9092],[-43.50337,-14.9081],[-43.50363,-14.90718],[-43.50353,-14.90478],[-43.50317,-14.90349],[-43.50471,-14.90243],[-43.50362,-14.90035],[-43.50357,-14.89939],[-43.50597,-14.8977],[-43.50786,-14.89546],[-43.50805,-14.89408],[-43.50861,-14.89274],[-43.50861,-14.8912],[-43.50802,-14.88998],[-43.50558,-14.88991],[-43.5042,-14.8904],[-43.50231,-14.8901],[-43.5005,-14.88727],[-43.50001,-14.88569],[-43.49798,-14.88455],[-43.49659,-14.88443],[-43.49557,-14.88339],[-43.49522,-14.88254],[-43.49556,-14.88162],[-43.4967,-14.88013],[-43.49711,-14.87829],[-43.49686,-14.8764],[-43.49755,-14.87581],[-43.4993,-14.87503],[-43.50023,-14.87398],[-43.50007,-14.87233],[-43.50061,-14.87111],[-43.50155,-14.86996],[-43.50276,-14.86906],[-43.50487,-14.86677],[-43.50565,-14.86454],[-43.50583,-14.86311],[-43.50664,-14.86048],[-43.50607,-14.85843],[-43.50609,-14.85695],[-43.50684,-14.85515],[-43.5085,-14.85329],[-43.50855,-14.8519],[-43.50802,-14.85112],[-43.50831,-14.8493],[-43.51015,-14.84849],[-43.51297,-14.84628],[-43.51491,-14.84372],[-43.51593,-14.84169],[-43.51661,-14.84102],[-43.51808,-14.84032],[-43.5196,-14.84016],[-43.52078,-14.83919],[-43.52133,-14.83813],[-43.5222,-14.8344],[-43.52262,-14.8335],[-43.52537,-14.8296],[-43.52672,-14.82821],[-43.5283,-14.82697],[-43.52863,-14.82607],[-43.52877,-14.82353],[-43.52976,-14.8204],[-43.53061,-14.81646]]]},"properties":{"codigo":"314085235","name":"Rio Verde de Minas","population":1452,"households":686,"areaKm2":386.4682,"density":3.8}}]}