{"type":"FeatureCollection","features":[{"type":"Feature","geometry":{"type":"Polygon","coordinates":[[[-41.68177,-16.1109],[-41.68406,-16.11202],[-41.68447,-16.11294],[-41.68453,-16.11439],[-41.68425,-16.11632],[-41.68526,-16.12053],[-41.68468,-16.12182],[-41.68463,-16.12274],[-41.68542,-16.12442],[-41.68657,-16.12549],[-41.6912,-16.12739],[-41.69388,-16.13],[-41.69488,-16.1322],[-41.69528,-16.13496],[-41.69539,-16.13809],[-41.69324,-16.14353],[-41.69236,-16.14393],[-41.69077,-16.14525],[-41.68973,-16.1464],[-41.68717,-16.15014],[-41.68666,-16.15171],[-41.68686,-16.15435],[-41.68863,-16.1575],[-41.69024,-16.15995],[-41.6916,-16.16138],[-41.69591,-16.1649],[-41.69672,-16.16577],[-41.69703,-16.16715],[-41.69677,-16.16803],[-41.69547,-16.16948],[-41.69491,-16.1714],[-41.69497,-16.17545],[-41.69483,-16.17641],[-41.69377,-16.1783],[-41.69163,-16.18027],[-41.68823,-16.18153],[-41.68709,-16.18215],[-41.68527,-16.18391],[-41.68361,-16.18592],[-41.68242,-16.18705],[-41.68164,-16.18832],[-41.68177,-16.19027],[-41.68241,-16.19091],[-41.68551,-16.19166],[-41.6868,-16.19237],[-41.68964,-16.19266],[-41.69064,-16.19242],[-41.69157,-16.19281],[-41.69172,-16.19477],[-41.69141,-16.19574],[-41.6904,-16.19742],[-41.69015,-16.20014],[-41.69041,-16.20119],[-41.69135,-16.2025],[-41.69155,-16.20441],[-41.68984,-16.2063],[-41.6867,-16.20678],[-41.68331,-16.20539],[-41.68226,-16.20546],[-41.67881,-16.20628],[-41.67667,-16.20702],[-41.67536,-16.2079],[-41.67401,-16.20936],[-41.67268,-16.21003],[-41.67027,-16.20979],[-41.66756,-16.20996],[-41.66542,-16.21057],[-41.66397,-16.21027],[-41.66263,-16.20936],[-41.66003,-16.20884],[-41.65908,-16.20909],[-41.65632,-16.21051],[-41.65522,-16.2104],[-41.65146,-16.21112],[-41.64928,-16.21228],[-41.64795,-16.21438],[-41.64646,-16.21559],[-41.64439,-16.21619],[-41.64241,-16.21606],[-41.64103,-16.21632],[-41.64044,-16.21832],[-41.64028,-16.21998],[-41.63948,-16.2212],[-41.63743,-16.22216],[-41.63586,-16.22352],[-41.63527,-16.22433],[-41.6334,-16.22767],[-41.6324,-16.22816],[-41.62962,-16.23008],[-41.62849,-16.23158],[-41.62802,-16.23287],[-41.62776,-16.23524],[-41.62873,-16.23885],[-41.62945,-16.2397],[-41.63203,-16.24132],[-41.63303,-16.24272],[-41.63278,-16.24445],[-41.6315,-16.24752],[-41.63113,-16.2503],[-41.63066,-16.25125],[-41.62905,-16.25316],[-41.62846,-16.25512],[-41.62877,-16.25609],[-41.6299,-16.25802],[-41.63,-16.25947],[-41.62959,-16.26287],[-41.62899,-16.26354],[-41.629,-16.26481],[-41.6297,-16.2663],[-41.63041,-16.26701],[-41.63133,-16.26938],[-41.63203,-16.27184],[-41.63213,-16.27357],[-41.63147,-16.27592],[-41.63256,-16.27895],[-41.63247,-16.27996],[-41.6319,-16.28082],[-41.63071,-16.28172],[-41.63012,-16.28352],[-41.63004,-16.28655],[-41.63136,-16.29009],[-41.6323,-16.29195],[-41.63283,-16.29384],[-41.63411,-16.29611],[-41.63464,-16.29917],[-41.63517,-16.3011],[-41.63637,-16.30724],[-41.63575,-16.30902],[-41.63357,-16.31121],[-41.63274,-16.31241],[-41.63263,-16.31425],[-41.63404,-16.31595],[-41.63541,-16.31728],[-41.6372,-16.31981],[-41.63815,-16.32293],[-41.63942,-16.32569],[-41.63912,-16.3279],[-41.63853,-16.32917],[-41.63739,-16.33074],[-41.63554,-16.33233],[-41.63488,-16.33415],[-41.63386,-16.33586],[-41.63239,-16.33718],[-41.63194,-16.33893],[-41.63045,-16.34066],[-41.63021,-16.34153],[-41.62886,-16.34313],[-41.62904,-16.34596],[-41.62952,-16.34748],[-41.62994,-16.35005],[-41.6308,-16.35131],[-41.63038,-16.35325],[-41.62893,-16.35454],[-41.62811,-16.35692],[-41.6261,-16.35688],[-41.62508,-16.35783],[-41.62457,-16.35983],[-41.6236,-16.36167],[-41.62346,-16.36381],[-41.62275,-16.36451],[-41.62075,-16.36498],[-41.6198,-16.36625],[-41.61885,-16.36673],[-41.61778,-16.36849],[-41.61699,-16.36759],[-41.61611,-16.36723],[-41.61537,-16.36776],[-41.61392,-16.36788],[-41.61138,-16.36975],[-41.6106,-16.37314],[-41.6117,-16.37403],[-41.61216,-16.37502],[-41.61202,-16.37592],[-41.61305,-16.37762],[-41.61269,-16.37934],[-41.6129,-16.38068],[-41.61192,-16.38169],[-41.61097,-16.38179],[-41.61043,-16.38264],[-41.60957,-16.38299],[-41.60826,-16.3844],[-41.60693,-16.38443],[-41.60654,-16.38356],[-41.60461,-16.38223],[-41.60422,-16.38085],[-41.60334,-16.38081],[-41.60257,-16.38014],[-41.60109,-16.38001],[-41.60048,-16.38178],[-41.60047,-16.38408],[-41.59883,-16.38582],[-41.59905,-16.38715],[-41.5975,-16.3884],[-41.59742,-16.39088],[-41.59589,-16.39071],[-41.59448,-16.39096],[-41.59312,-16.39016],[-41.59021,-16.38964],[-41.58808,-16.38779],[-41.58658,-16.38784],[-41.58518,-16.38909],[-41.58377,-16.38909],[-41.58296,-16.3885],[-41.58203,-16.38845],[-41.58131,-16.38731],[-41.58036,-16.38763],[-41.57969,-16.38713],[-41.57733,-16.38654],[-41.57585,-16.38666],[-41.57288,-16.38925],[-41.57097,-16.38955],[-41.57019,-16.39008],[-41.56981,-16.39105],[-41.56983,-16.39559],[-41.5679,-16.39704],[-41.56705,-16.39868],[-41.56557,-16.3997],[-41.5662,-16.4011],[-41.5663,-16.40253],[-41.56733,-16.40429],[-41.56813,-16.40777],[-41.56781,-16.41088],[-41.56801,-16.41352],[-41.56871,-16.41552],[-41.5686,-16.4184],[-41.56954,-16.41985],[-41.57179,-16.42242],[-41.57151,-16.42347],[-41.57058,-16.42479],[-41.56926,-16.42612],[-41.56724,-16.4251],[-41.56526,-16.4249],[-41.56331,-16.42495],[-41.56038,-16.42577],[-41.55943,-16.42688],[-41.55891,-16.4295],[-41.55802,-16.43229],[-41.55777,-16.43556],[-41.55744,-16.43713],[-41.55651,-16.43819],[-41.55411,-16.43838],[-41.55102,-16.43683],[-41.54961,-16.43653],[-41.54847,-16.43672],[-41.54761,-16.43728],[-41.5469,-16.43866],[-41.54662,-16.44055],[-41.5455,-16.44064],[-41.54462,-16.4412],[-41.54389,-16.44249],[-41.5428,-16.44585],[-41.54221,-16.44673],[-41.54064,-16.44699],[-41.53865,-16.44561],[-41.5371,-16.44527],[-41.53498,-16.4462],[-41.5335,-16.4463],[-41.53035,-16.4453],[-41.52761,-16.44531],[-41.52671,-16.44586],[-41.52298,-16.45126],[-41.52149,-16.45529],[-41.51927,-16.45921],[-41.51855,-16.45988],[-41.51715,-16.46217],[-41.51499,-16.46514],[-41.51452,-16.46517],[-41.51295,-16.46805],[-41.51284,-16.46904],[-41.51354,-16.47362],[-41.51336,-16.47615],[-41.51273,-16.47907],[-41.51368,-16.48416],[-41.51337,-16.48637],[-41.5124,-16.48743],[-41.51035,-16.48764],[-41.5081,-16.48664],[-41.50538,-16.48513],[-41.50225,-16.48429],[-41.50084,-16.48418],[-41.49868,-16.48487],[-41.49662,-16.48417],[-41.49587,-16.4836],[-41.49457,-16.4819],[-41.49382,-16.48136],[-41.49256,-16.47973],[-41.49134,-16.47894],[-41.48974,-16.47904],[-41.48851,-16.47751],[-41.48827,-16.47444],[-41.48846,-16.47163],[-41.4882,-16.46956],[-41.48671,-16.46586],[-41.48599,-16.46515],[-41.48424,-16.46413],[-41.4828,-16.46361],[-41.47802,-16.46335],[-41.47601,-16.46254],[-41.47318,-16.46088],[-41.4701,-16.45871],[-41.46711,-16.45807],[-41.46477,-16.45871],[-41.46179,-16.45908],[-41.45999,-16.45826],[-41.45822,-16.45705],[-41.45587,-16.45613],[-41.45116,-16.45402],[-41.45449,-16.45139],[-41.45835,-16.44975],[-41.4606,-16.44826],[-41.46234,-16.44739],[-41.46477,-16.44682],[-41.46682,-16.44698],[-41.46988,-16.44655],[-41.47128,-16.44577],[-41.4718,-16.4448],[-41.47178,-16.44305],[-41.47141,-16.44114],[-41.46996,-16.43968],[-41.46786,-16.43679],[-41.46754,-16.43546],[-41.46631,-16.43392],[-41.46373,-16.43201],[-41.45976,-16.42803],[-41.46046,-16.42623],[-41.4612,-16.42311],[-41.46255,-16.419],[-41.46279,-16.41593],[-41.46239,-16.41446],[-41.46078,-16.41318],[-41.45812,-16.41175],[-41.45594,-16.41133],[-41.45384,-16.4113],[-41.45081,-16.41185],[-41.44771,-16.41211],[-41.4458,-16.41145],[-41.44491,-16.41079],[-41.44042,-16.40841],[-41.43759,-16.40716],[-41.43283,-16.40545],[-41.42979,-16.40462],[-41.42778,-16.40371],[-41.42592,-16.40216],[-41.42331,-16.40075],[-41.42266,-16.39949],[-41.42255,-16.39806],[-41.42133,-16.3977],[-41.41824,-16.39955],[-41.41607,-16.40039],[-41.41362,-16.40099],[-41.41214,-16.40111],[-41.41051,-16.39997],[-41.4087,-16.39787],[-41.40704,-16.39666],[-41.40509,-16.39409],[-41.40356,-16.39081],[-41.40233,-16.38711],[-41.40068,-16.38385],[-41.39967,-16.38266],[-41.39578,-16.38034],[-41.39501,-16.37956],[-41.39448,-16.37809],[-41.39424,-16.37318],[-41.39472,-16.37034],[-41.39409,-16.36903],[-41.39327,-16.36833],[-41.39124,-16.3674],[-41.3887,-16.3667],[-41.38605,-16.36644],[-41.38213,-16.36548],[-41.37925,-16.36438],[-41.37741,-16.36317],[-41.37618,-16.362],[-41.37421,-16.36068],[-41.37205,-16.35957],[-41.3707,-16.35753],[-41.37106,-16.35455],[-41.37084,-16.35354],[-41.36975,-16.35184],[-41.36694,-16.34997],[-41.36583,-16.3485],[-41.3657,-16.34754],[-41.36572,-16.34316],[-41.36601,-16.34164],[-41.36588,-16.33991],[-41.36374,-16.33755],[-41.36216,-16.33715],[-41.36059,-16.33732],[-41.35843,-16.33685],[-41.35729,-16.33707],[-41.35653,-16.33765],[-41.35545,-16.34012],[-41.35326,-16.34343],[-41.35221,-16.34393],[-41.35085,-16.34396],[-41.35014,-16.34452],[-41.35011,-16.34715],[-41.34986,-16.34848],[-41.3488,-16.35008],[-41.3473,-16.35023],[-41.34574,-16.35004],[-41.34079,-16.34841],[-41.3376,-16.3459],[-41.33571,-16.34529],[-41.33423,-16.34535],[-41.33163,-16.34585],[-41.33025,-16.34639],[-41.3287,-16.34647],[-41.3267,-16.3469],[-41.32409,-16.34651],[-41.32112,-16.34461],[-41.31878,-16.34249],[-41.31724,-16.34008],[-41.31702,-16.33914],[-41.31561,-16.33631],[-41.31448,-16.3353],[-41.3135,-16.33497],[-41.30887,-16.33505],[-41.30679,-16.33485],[-41.30488,-16.33429],[-41.30274,-16.33304],[-41.30204,-16.33106],[-41.30216,-16.32905],[-41.30326,-16.32594],[-41.30503,-16.32256],[-41.30754,-16.31987],[-41.30791,-16.31887],[-41.3077,-16.31586],[-41.30696,-16.31379],[-41.30669,-16.31229],[-41.3066,-16.30957],[-41.30685,-16.30842],[-41.308,-16.3061],[-41.30804,-16.30491],[-41.30767,-16.30279],[-41.30802,-16.29827],[-41.30707,-16.29595],[-41.30593,-16.29443],[-41.30656,-16.29206],[-41.30699,-16.28959],[-41.30686,-16.28813],[-41.30638,-16.28726],[-41.30487,-16.28587],[-41.30364,-16.28433],[-41.30168,-16.28146],[-41.29935,-16.27904],[-41.29734,-16.27785],[-41.29373,-16.27758],[-41.29058,-16.27767],[-41.28784,-16.27794],[-41.28583,-16.27757],[-41.28354,-16.27666],[-41.28134,-16.27681],[-41.27989,-16.27712],[-41.27807,-16.27658],[-41.27761,-16.27612],[-41.27846,-16.27483],[-41.281,-16.27274],[-41.28379,-16.27205],[-41.28404,-16.27113],[-41.28346,-16.27032],[-41.28169,-16.26944],[-41.28161,-16.26849],[-41.28323,-16.26433],[-41.2841,-16.26317],[-41.28683,-16.26159],[-41.28745,-16.26078],[-41.28838,-16.26038],[-41.29062,-16.25992],[-41.29153,-16.25821],[-41.29303,-16.2568],[-41.29399,-16.25442],[-41.29581,-16.25254],[-41.29677,-16.25002],[-41.29945,-16.24811],[-41.30418,-16.24635],[-41.30565,-16.24516],[-41.30693,-16.24335],[-41.30842,-16.24203],[-41.3087,-16.24106],[-41.30809,-16.2356],[-41.30812,-16.23413],[-41.30647,-16.2305],[-41.30556,-16.22914],[-41.3048,-16.22696],[-41.30406,-16.22355],[-41.30198,-16.21974],[-41.30131,-16.21903],[-41.3,-16.2169],[-41.29714,-16.21364],[-41.29535,-16.21121],[-41.292,-16.20955],[-41.29066,-16.20903],[-41.28992,-16.20826],[-41.28902,-16.20612],[-41.28847,-16.20322],[-41.28742,-16.20016],[-41.28646,-16.19818],[-41.28565,-16.19522],[-41.2852,-16.19252],[-41.28467,-16.19158],[-41.28303,-16.19037],[-41.28067,-16.18956],[-41.27829,-16.18808],[-41.27755,-16.18681],[-41.2773,-16.18516],[-41.27813,-16.18188],[-41.27838,-16.17985],[-41.27917,-16.17793],[-41.28043,-16.17721],[-41.28389,-16.17716],[-41.28665,-16.17686],[-41.29151,-16.17515],[-41.29359,-16.17322],[-41.29712,-16.17118],[-41.29902,-16.17178],[-41.30648,-16.17163],[-41.30758,-16.17139],[-41.30929,-16.1703],[-41.30959,-16.16937],[-41.30936,-16.16728],[-41.3088,-16.16562],[-41.3094,-16.16384],[-41.31045,-16.16328],[-41.31205,-16.16318],[-41.31433,-16.1622],[-41.31509,-16.16155],[-41.31567,-16.16014],[-41.3155,-16.15926],[-41.313,-16.15423],[-41.31215,-16.15143],[-41.31344,-16.14883],[-41.31332,-16.14616],[-41.31365,-16.14521],[-41.3155,-16.14324],[-41.31738,-16.14039],[-41.31871,-16.13942],[-41.32224,-16.13935],[-41.32302,-16.13874],[-41.32399,-16.13728],[-41.32454,-16.13511],[-41.32529,-16.13319],[-41.32655,-16.13203],[-41.32885,-16.13135],[-41.33074,-16.1314],[-41.33201,-16.13211],[-41.33372,-16.13452],[-41.3347,-16.1349],[-41.33637,-16.13507],[-41.34086,-16.13587],[-41.34241,-16.13595],[-41.34442,-16.13647],[-41.34768,-16.13891],[-41.35075,-16.14205],[-41.35361,-16.14444],[-41.35836,-16.14547],[-41.36221,-16.146],[-41.36528,-16.1459],[-41.36832,-16.14438],[-41.37034,-16.14363],[-41.37363,-16.14282],[-41.37654,-16.14278],[-41.37835,-16.14346],[-41.37933,-16.14345],[-41.38192,-16.14219],[-41.38606,-16.1434],[-41.38777,-16.14357],[-41.39102,-16.14461],[-41.39298,-16.14462],[-41.39405,-16.14424],[-41.39369,-16.14341],[-41.39,-16.14137],[-41.38936,-16.13957],[-41.38951,-16.13704],[-41.39059,-16.13431],[-41.39062,-16.13281],[-41.39029,-16.13081],[-41.39006,-16.12791],[-41.39026,-16.12673],[-41.3909,-16.1258],[-41.39223,-16.12469],[-41.39861,-16.12065],[-41.40405,-16.11856],[-41.40562,-16.11756],[-41.40906,-16.11576],[-41.41219,-16.11375],[-41.41302,-16.11306],[-41.41396,-16.1116],[-41.41356,-16.10969],[-41.41128,-16.10694],[-41.40976,-16.10568],[-41.4089,-16.10437],[-41.4087,-16.10343],[-41.40919,-16.10214],[-41.41159,-16.10097],[-41.41426,-16.09917],[-41.41618,-16.09729],[-41.41861,-16.09663],[-41.42108,-16.09624],[-41.42442,-16.09635],[-41.42938,-16.09632],[-41.43296,-16.09753],[-41.43509,-16.09777],[-41.43644,-16.09725],[-41.4372,-16.09656],[-41.43743,-16.09563],[-41.43759,-16.0913],[-41.43818,-16.08841],[-41.43945,-16.08626],[-41.4394,-16.08527],[-41.43822,-16.08422],[-41.43686,-16.08351],[-41.43525,-16.08219],[-41.4338,-16.07974],[-41.43305,-16.07905],[-41.43081,-16.07812],[-41.4273,-16.07743],[-41.42629,-16.07744],[-41.42231,-16.07934],[-41.42064,-16.0794],[-41.41923,-16.07911],[-41.41805,-16.07824],[-41.41692,-16.07599],[-41.41652,-16.07371],[-41.41635,-16.07113],[-41.41533,-16.06807],[-41.41539,-16.06704],[-41.41633,-16.06539],[-41.41558,-16.06358],[-41.41535,-16.06146],[-41.41583,-16.05959],[-41.41691,-16.05776],[-41.41781,-16.05702],[-41.41995,-16.05608],[-41.42302,-16.05518],[-41.42508,-16.05351],[-41.426,-16.05223],[-41.42775,-16.04837],[-41.4282,-16.04825],[-41.42936,-16.04919],[-41.4314,-16.05201],[-41.43285,-16.05335],[-41.43774,-16.05454],[-41.44094,-16.05463],[-41.44194,-16.0549],[-41.44453,-16.05735],[-41.44656,-16.06021],[-41.44728,-16.06083],[-41.449,-16.0616],[-41.44995,-16.0615],[-41.45125,-16.0599],[-41.45187,-16.05743],[-41.45387,-16.05331],[-41.45563,-16.0506],[-41.45655,-16.04949],[-41.45739,-16.04735],[-41.4586,-16.04641],[-41.46045,-16.04598],[-41.46394,-16.04699],[-41.46435,-16.04777],[-41.46497,-16.05025],[-41.46732,-16.0547],[-41.46864,-16.05559],[-41.46959,-16.05556],[-41.47242,-16.05496],[-41.47314,-16.05558],[-41.47425,-16.05737],[-41.47668,-16.05991],[-41.48052,-16.06041],[-41.48122,-16.06133],[-41.48135,-16.06227],[-41.48083,-16.06313],[-41.47874,-16.06439],[-41.47789,-16.06545],[-41.47682,-16.06754],[-41.47606,-16.06821],[-41.47593,-16.0701],[-41.47746,-16.07352],[-41.47773,-16.07451],[-41.4776,-16.07608],[-41.4767,-16.07938],[-41.47598,-16.0848],[-41.47595,-16.08642],[-41.47623,-16.08937],[-41.47655,-16.0904],[-41.4774,-16.09168],[-41.48025,-16.0939],[-41.48131,-16.09435],[-41.48453,-16.09455],[-41.48612,-16.09484],[-41.48692,-16.09532],[-41.48781,-16.09658],[-41.48874,-16.09719],[-41.49048,-16.0973],[-41.49266,-16.0956],[-41.49406,-16.09501],[-41.49767,-16.0956],[-41.49895,-16.09483],[-41.50059,-16.09437],[-41.50206,-16.09427],[-41.50402,-16.09496],[-41.50462,-16.09574],[-41.50546,-16.09811],[-41.50696,-16.10031],[-41.50852,-16.10206],[-41.51007,-16.10412],[-41.51146,-16.10497],[-41.51241,-16.1052],[-41.514,-16.10501],[-41.51628,-16.10388],[-41.51766,-16.10189],[-41.51846,-16.09963],[-41.51936,-16.09841],[-41.52117,-16.09877],[-41.52384,-16.10058],[-41.52621,-16.10175],[-41.53062,-16.10344],[-41.53269,-16.10479],[-41.53429,-16.1069],[-41.5373,-16.10834],[-41.53951,-16.10889],[-41.54166,-16.10847],[-41.5432,-16.10669],[-41.54426,-16.10446],[-41.54535,-16.10319],[-41.54626,-16.10279],[-41.54895,-16.10276],[-41.55009,-16.10216],[-41.55072,-16.10054],[-41.55114,-16.09769],[-41.55,-16.09652],[-41.54756,-16.09508],[-41.54625,-16.09324],[-41.54636,-16.09131],[-41.54552,-16.08931],[-41.5438,-16.08814],[-41.54115,-16.0867],[-41.53979,-16.08532],[-41.53924,-16.08378],[-41.53923,-16.08106],[-41.54039,-16.07823],[-41.54224,-16.07569],[-41.54289,-16.07302],[-41.54358,-16.07118],[-41.54481,-16.06905],[-41.54584,-16.06571],[-41.54731,-16.06394],[-41.5486,-16.06327],[-41.55105,-16.0633],[-41.552,-16.06374],[-41.55583,-16.06941],[-41.55683,-16.07044],[-41.55896,-16.07147],[-41.56012,-16.07165],[-41.56212,-16.07148],[-41.5635,-16.071],[-41.56543,-16.07065],[-41.56805,-16.07105],[-41.56898,-16.07137],[-41.57203,-16.07304],[-41.57675,-16.07657],[-41.57764,-16.07703],[-41.58012,-16.07769],[-41.58393,-16.07905],[-41.58589,-16.07959],[-41.58855,-16.08014],[-41.59106,-16.08149],[-41.59406,-16.08413],[-41.59454,-16.08415],[-41.59501,-16.08228],[-41.59619,-16.07956],[-41.59723,-16.07859],[-41.59866,-16.07794],[-41.60147,-16.07752],[-41.60611,-16.07714],[-41.60851,-16.07805],[-41.61214,-16.07985],[-41.61421,-16.08008],[-41.61683,-16.07972],[-41.618,-16.08004],[-41.61943,-16.08093],[-41.62062,-16.08206],[-41.62256,-16.08435],[-41.62442,-16.08598],[-41.62593,-16.08853],[-41.62908,-16.08891],[-41.63005,-16.08847],[-41.63305,-16.08767],[-41.63459,-16.08746],[-41.63802,-16.08805],[-41.64613,-16.09089],[-41.64746,-16.09156],[-41.6499,-16.09323],[-41.65171,-16.09534],[-41.65291,-16.09639],[-41.65377,-16.09763],[-41.65578,-16.10115],[-41.65796,-16.1036],[-41.65968,-16.10491],[-41.66285,-16.10637],[-41.6639,-16.10666],[-41.66635,-16.10668],[-41.67081,-16.10751],[-41.67729,-16.10956],[-41.67987,-16.11056],[-41.68177,-16.1109]]]},"properties":{"codigo":"314140505","name":"Medina","population":19301,"households":9126,"areaKm2":1260.0271,"density":15.3}},{"type":"Feature","geometry":{"type":"Polygon","coordinates":[[[-41.72286,-16.42556],[-41.72301,-16.4264],[-41.72213,-16.42774],[-41.72039,-16.42869],[-41.71794,-16.43038],[-41.71652,-16.43177],[-41.71498,-16.43371],[-41.71453,-16.43512],[-41.71449,-16.43659],[-41.7135,-16.43885],[-41.71186,-16.43975],[-41.71031,-16.43983],[-41.70933,-16.44022],[-41.7081,-16.44161],[-41.70601,-16.44346],[-41.70483,-16.44521],[-41.70438,-16.44763],[-41.70274,-16.4524],[-41.70272,-16.45429],[-41.70339,-16.45553],[-41.70629,-16.45839],[-41.70675,-16.45986],[-41.70676,-16.46182],[-41.70597,-16.46541],[-41.705,-16.46758],[-41.70481,-16.46852],[-41.70707,-16.47183],[-41.70769,-16.47316],[-41.70877,-16.47463],[-41.71,-16.47582],[-41.7106,-16.4783],[-41.71124,-16.48221],[-41.71197,-16.48407],[-41.71165,-16.48697],[-41.71179,-16.48796],[-41.71261,-16.49026],[-41.71253,-16.49167],[-41.71191,-16.49307],[-41.71188,-16.49609],[-41.71077,-16.49848],[-41.71046,-16.49994],[-41.71083,-16.50156],[-41.71211,-16.50231],[-41.71191,-16.50414],[-41.71252,-16.50596],[-41.71173,-16.50725],[-41.7102,-16.50777],[-41.70939,-16.50839],[-41.70804,-16.51045],[-41.70648,-16.51199],[-41.70353,-16.51556],[-41.7024,-16.5177],[-41.70161,-16.51831],[-41.70113,-16.51965],[-41.70107,-16.52275],[-41.70049,-16.52413],[-41.70071,-16.52639],[-41.70176,-16.52747],[-41.70165,-16.52986],[-41.70133,-16.53124],[-41.70028,-16.53232],[-41.69999,-16.53365],[-41.70008,-16.53844],[-41.69883,-16.54174],[-41.69886,-16.54398],[-41.6984,-16.5454],[-41.69737,-16.5465],[-41.69512,-16.54819],[-41.69439,-16.55157],[-41.69376,-16.55246],[-41.69145,-16.55342],[-41.69012,-16.55663],[-41.68887,-16.55865],[-41.68691,-16.55938],[-41.68578,-16.56036],[-41.68387,-16.56054],[-41.68181,-16.56258],[-41.68178,-16.56347],[-41.68104,-16.56398],[-41.68075,-16.56487],[-41.67875,-16.56509],[-41.67707,-16.56683],[-41.67598,-16.57005],[-41.67597,-16.57157],[-41.67561,-16.57255],[-41.67605,-16.57444],[-41.67575,-16.57725],[-41.67489,-16.57775],[-41.67277,-16.57797],[-41.66897,-16.57761],[-41.66404,-16.57729],[-41.66263,-16.57647],[-41.66059,-16.5758],[-41.65895,-16.57457],[-41.65742,-16.5741],[-41.65559,-16.57391],[-41.65302,-16.57286],[-41.65174,-16.57288],[-41.64918,-16.57128],[-41.64767,-16.56929],[-41.64592,-16.56606],[-41.64501,-16.5618],[-41.64469,-16.55929],[-41.6438,-16.55683],[-41.64392,-16.55591],[-41.64473,-16.55548],[-41.64841,-16.55538],[-41.65005,-16.55559],[-41.65113,-16.55521],[-41.65324,-16.55257],[-41.65332,-16.55145],[-41.65459,-16.55014],[-41.65677,-16.54688],[-41.65753,-16.5445],[-41.65654,-16.54168],[-41.65676,-16.53966],[-41.65618,-16.53768],[-41.65605,-16.53453],[-41.6563,-16.53317],[-41.65547,-16.53197],[-41.65505,-16.52969],[-41.65578,-16.52732],[-41.6559,-16.52629],[-41.6571,-16.52521],[-41.65806,-16.52347],[-41.65895,-16.52272],[-41.6601,-16.52263],[-41.66095,-16.52335],[-41.66219,-16.52321],[-41.66303,-16.52269],[-41.66444,-16.52237],[-41.66562,-16.51973],[-41.66713,-16.519],[-41.66863,-16.51869],[-41.67061,-16.51914],[-41.67204,-16.51855],[-41.67426,-16.51913],[-41.67578,-16.51845],[-41.6767,-16.51723],[-41.67721,-16.5153],[-41.67688,-16.51364],[-41.67691,-16.51215],[-41.67776,-16.50985],[-41.679,-16.50905],[-41.67973,-16.50715],[-41.68085,-16.50626],[-41.68057,-16.5049],[-41.68087,-16.504],[-41.68228,-16.50247],[-41.68122,-16.49891],[-41.68202,-16.49741],[-41.68118,-16.49695],[-41.67923,-16.49698],[-41.67619,-16.49621],[-41.67399,-16.4948],[-41.6733,-16.49406],[-41.67176,-16.49138],[-41.67118,-16.48898],[-41.6701,-16.48805],[-41.66616,-16.48698],[-41.66349,-16.48683],[-41.66267,-16.48633],[-41.66294,-16.48264],[-41.66192,-16.4817],[-41.65934,-16.48123],[-41.6589,-16.47976],[-41.65894,-16.47815],[-41.65991,-16.47637],[-41.66059,-16.47388],[-41.66224,-16.47293],[-41.66263,-16.47158],[-41.66144,-16.47073],[-41.65966,-16.46837],[-41.65896,-16.4662],[-41.65617,-16.46546],[-41.6549,-16.46454],[-41.65332,-16.46397],[-41.65187,-16.46421],[-41.65008,-16.46329],[-41.64896,-16.46433],[-41.64813,-16.46618],[-41.6468,-16.46752],[-41.64657,-16.46849],[-41.64477,-16.47029],[-41.64391,-16.47151],[-41.64305,-16.47191],[-41.64215,-16.47301],[-41.64132,-16.47334],[-41.63879,-16.47273],[-41.63717,-16.47368],[-41.63576,-16.4732],[-41.63471,-16.47224],[-41.63284,-16.47144],[-41.63227,-16.47068],[-41.63314,-16.46789],[-41.63124,-16.46302],[-41.63073,-16.46222],[-41.62932,-16.461],[-41.62788,-16.45843],[-41.62262,-16.45588],[-41.61708,-16.45332],[-41.61436,-16.45301],[-41.61245,-16.45357],[-41.61029,-16.45479],[-41.60895,-16.45588],[-41.60655,-16.45713],[-41.60376,-16.45836],[-41.6025,-16.45917],[-41.59921,-16.45866],[-41.59518,-16.4586],[-41.59291,-16.45792],[-41.58904,-16.45616],[-41.58708,-16.45442],[-41.58509,-16.45171],[-41.58439,-16.45033],[-41.58343,-16.44755],[-41.58325,-16.44592],[-41.5825,-16.44199],[-41.58243,-16.43701],[-41.58207,-16.43501],[-41.58096,-16.43394],[-41.57915,-16.43348],[-41.5765,-16.43223],[-41.57446,-16.43032],[-41.57346,-16.42899],[-41.57238,-16.42803],[-41.56926,-16.42612],[-41.57058,-16.42479],[-41.57151,-16.42347],[-41.57179,-16.42242],[-41.56954,-16.41985],[-41.5686,-16.4184],[-41.56871,-16.41552],[-41.56801,-16.41352],[-41.56781,-16.41088],[-41.56813,-16.40777],[-41.56733,-16.40429],[-41.5663,-16.40253],[-41.5662,-16.4011],[-41.56557,-16.3997],[-41.56705,-16.39868],[-41.5679,-16.39704],[-41.56983,-16.39559],[-41.56981,-16.39105],[-41.57019,-16.39008],[-41.57097,-16.38955],[-41.57288,-16.38925],[-41.57585,-16.38666],[-41.57733,-16.38654],[-41.57969,-16.38713],[-41.58036,-16.38763],[-41.58131,-16.38731],[-41.58203,-16.38845],[-41.58296,-16.3885],[-41.58377,-16.38909],[-41.58518,-16.38909],[-41.58658,-16.38784],[-41.58808,-16.38779],[-41.59021,-16.38964],[-41.59312,-16.39016],[-41.59448,-16.39096],[-41.59589,-16.39071],[-41.59742,-16.39088],[-41.5975,-16.3884],[-41.59905,-16.38715],[-41.59883,-16.38582],[-41.60047,-16.38408],[-41.60048,-16.38178],[-41.60109,-16.38001],[-41.60257,-16.38014],[-41.60334,-16.38081],[-41.60422,-16.38085],[-41.60461,-16.38223],[-41.60654,-16.38356],[-41.60693,-16.38443],[-41.60826,-16.3844],[-41.60957,-16.38299],[-41.61043,-16.38264],[-41.61097,-16.38179],[-41.61192,-16.38169],[-41.6129,-16.38068],[-41.61269,-16.37934],[-41.61377,-16.37849],[-41.61563,-16.37807],[-41.61641,-16.37735],[-41.61877,-16.37684],[-41.61961,-16.37808],[-41.62257,-16.37919],[-41.62425,-16.38107],[-41.62599,-16.38208],[-41.62695,-16.38219],[-41.62985,-16.38078],[-41.63099,-16.37974],[-41.63561,-16.37868],[-41.63852,-16.37938],[-41.64257,-16.37951],[-41.64398,-16.37992],[-41.64689,-16.38032],[-41.64897,-16.38096],[-41.65173,-16.38076],[-41.65522,-16.38128],[-41.65943,-16.38025],[-41.66102,-16.37902],[-41.66689,-16.37518],[-41.66913,-16.37418],[-41.67164,-16.37484],[-41.67369,-16.37471],[-41.67512,-16.37494],[-41.67605,-16.37595],[-41.67658,-16.37744],[-41.67761,-16.37852],[-41.68103,-16.38007],[-41.68349,-16.38061],[-41.68499,-16.38065],[-41.68609,-16.3815],[-41.68688,-16.38283],[-41.68775,-16.38487],[-41.6894,-16.38572],[-41.69183,-16.38587],[-41.69259,-16.38642],[-41.69453,-16.38701],[-41.69546,-16.38813],[-41.69766,-16.38946],[-41.69963,-16.39352],[-41.69965,-16.39612],[-41.70035,-16.39812],[-41.69952,-16.39962],[-41.69991,-16.40204],[-41.69954,-16.40381],[-41.70004,-16.40475],[-41.69969,-16.40614],[-41.69979,-16.40717],[-41.69935,-16.4094],[-41.69998,-16.41175],[-41.70209,-16.41418],[-41.70293,-16.41586],[-41.70446,-16.41624],[-41.70673,-16.41761],[-41.70811,-16.41793],[-41.71351,-16.42016],[-41.71718,-16.42012],[-41.71769,-16.42141],[-41.72003,-16.42239],[-41.72182,-16.42374],[-41.72286,-16.42556]]]},"properties":{"codigo":"314140510","name":"Tuparecê","population":855,"households":474,"areaKm2":175.8763,"density":4.9}}]}