{"type":"FeatureCollection","features":[{"type":"Feature","geometry":{"type":"Polygon","coordinates":[[[-44.4374,-14.2999],[-44.4361,-14.30024],[-44.43571,-14.30164],[-44.43583,-14.30256],[-44.43537,-14.30339],[-44.43447,-14.30381],[-44.43436,-14.30467],[-44.43522,-14.30583],[-44.43441,-14.30681],[-44.43292,-14.30691],[-44.43293,-14.3082],[-44.43152,-14.3084],[-44.42969,-14.31039],[-44.42573,-14.31051],[-44.42505,-14.31107],[-44.4247,-14.31216],[-44.42379,-14.31318],[-44.42242,-14.31335],[-44.42175,-14.31515],[-44.41986,-14.31486],[-44.41865,-14.31605],[-44.41726,-14.31634],[-44.41566,-14.31718],[-44.41386,-14.31645],[-44.41323,-14.31715],[-44.41256,-14.3189],[-44.41185,-14.31951],[-44.41004,-14.31982],[-44.40944,-14.32118],[-44.40824,-14.32186],[-44.40618,-14.32466],[-44.40551,-14.32598],[-44.40394,-14.32724],[-44.40284,-14.32881],[-44.40321,-14.33088],[-44.40367,-14.33163],[-44.40283,-14.3327],[-44.40269,-14.33357],[-44.40178,-14.33466],[-44.40276,-14.33569],[-44.40265,-14.33659],[-44.40022,-14.34025],[-44.39859,-14.34208],[-44.39752,-14.34427],[-44.39692,-14.34936],[-44.39699,-14.35141],[-44.39766,-14.35525],[-44.39801,-14.35817],[-44.39855,-14.36058],[-44.39859,-14.36201],[-44.39762,-14.36522],[-44.39785,-14.36726],[-44.39904,-14.36824],[-44.39994,-14.36853],[-44.40237,-14.36815],[-44.4038,-14.36747],[-44.4065,-14.36558],[-44.40896,-14.36342],[-44.41042,-14.36235],[-44.4126,-14.36038],[-44.4168,-14.3603],[-44.42022,-14.36034],[-44.4214,-14.36022],[-44.42568,-14.36025],[-44.42918,-14.35921],[-44.43166,-14.35875],[-44.43447,-14.35868],[-44.4377,-14.35781],[-44.44133,-14.35764],[-44.4472,-14.35932],[-44.44789,-14.36],[-44.44856,-14.36149],[-44.44973,-14.36321],[-44.45107,-14.36451],[-44.45353,-14.36525],[-44.45818,-14.36524],[-44.46033,-14.36533],[-44.46171,-14.36629],[-44.46354,-14.36791],[-44.46599,-14.36793],[-44.46832,-14.36614],[-44.47023,-14.36571],[-44.47379,-14.36733],[-44.47497,-14.37097],[-44.47241,-14.37317],[-44.47104,-14.37569],[-44.47074,-14.37662],[-44.47112,-14.37866],[-44.47102,-14.38078],[-44.47042,-14.383],[-44.47028,-14.3856],[-44.47055,-14.38677],[-44.47155,-14.38839],[-44.4719,-14.38973],[-44.47092,-14.39128],[-44.46833,-14.39268],[-44.46677,-14.39453],[-44.46456,-14.39552],[-44.46402,-14.39635],[-44.4638,-14.39771],[-44.46315,-14.39947],[-44.46387,-14.40121],[-44.46423,-14.40401],[-44.46388,-14.40491],[-44.46283,-14.40577],[-44.46036,-14.40734],[-44.45986,-14.40916],[-44.45994,-14.41095],[-44.45948,-14.41236],[-44.45763,-14.41401],[-44.45509,-14.41454],[-44.45426,-14.41418],[-44.45392,-14.41328],[-44.45466,-14.41208],[-44.45445,-14.41167],[-44.45267,-14.41104],[-44.45188,-14.40934],[-44.45182,-14.40782],[-44.45143,-14.40647],[-44.44963,-14.40588],[-44.44834,-14.40725],[-44.44693,-14.40784],[-44.44569,-14.40927],[-44.44491,-14.40979],[-44.44286,-14.40957],[-44.44075,-14.40862],[-44.44041,-14.41058],[-44.44212,-14.41147],[-44.44276,-14.41229],[-44.4444,-14.41331],[-44.44471,-14.41414],[-44.44433,-14.41596],[-44.44384,-14.41682],[-44.44441,-14.41752],[-44.44409,-14.41831],[-44.44469,-14.41897],[-44.44561,-14.41894],[-44.44611,-14.41972],[-44.44578,-14.42053],[-44.44477,-14.42074],[-44.4449,-14.42148],[-44.44589,-14.42179],[-44.44538,-14.42302],[-44.44393,-14.42452],[-44.44406,-14.42593],[-44.44464,-14.42733],[-44.44468,-14.42967],[-44.44508,-14.43197],[-44.44381,-14.43288],[-44.44352,-14.43433],[-44.44522,-14.43501],[-44.44555,-14.43678],[-44.44645,-14.43712],[-44.44709,-14.43789],[-44.44715,-14.43925],[-44.44588,-14.43988],[-44.44579,-14.4408],[-44.44668,-14.44199],[-44.44685,-14.44291],[-44.44871,-14.44499],[-44.4515,-14.44495],[-44.45281,-14.44623],[-44.45366,-14.44654],[-44.45523,-14.44549],[-44.45613,-14.44535],[-44.45743,-14.44577],[-44.4577,-14.44727],[-44.45723,-14.4496],[-44.45821,-14.45141],[-44.45891,-14.45331],[-44.45936,-14.45628],[-44.46052,-14.45836],[-44.46127,-14.46079],[-44.46281,-14.46207],[-44.433,-14.48917],[-44.37276,-14.49492],[-44.37177,-14.49522],[-44.36959,-14.49718],[-44.3684,-14.49884],[-44.36796,-14.50002],[-44.367,-14.501],[-44.36641,-14.50286],[-44.3657,-14.50358],[-44.36549,-14.50496],[-44.3656,-14.50673],[-44.36527,-14.50768],[-44.36366,-14.50892],[-44.36031,-14.50825],[-44.35834,-14.50892],[-44.35761,-14.50956],[-44.35759,-14.51048],[-44.35806,-14.51334],[-44.35796,-14.51433],[-44.3572,-14.51691],[-44.35649,-14.52018],[-44.35545,-14.52172],[-44.3532,-14.52294],[-44.35211,-14.52453],[-44.3519,-14.5254],[-44.35214,-14.52812],[-44.35173,-14.52952],[-44.34937,-14.5321],[-44.34851,-14.53268],[-44.34676,-14.53486],[-44.3444,-14.53645],[-44.34243,-14.53857],[-44.34113,-14.54034],[-44.33886,-14.54165],[-44.33685,-14.54174],[-44.33408,-14.54257],[-44.33288,-14.5434],[-44.32954,-14.54378],[-44.32611,-14.54546],[-44.32571,-14.54631],[-44.32564,-14.54772],[-44.32465,-14.54928],[-44.3232,-14.5508],[-44.32174,-14.5493],[-44.32058,-14.54847],[-44.32013,-14.5458],[-44.31914,-14.54276],[-44.31886,-14.54136],[-44.3191,-14.53899],[-44.31986,-14.53717],[-44.3208,-14.53581],[-44.3235,-14.53348],[-44.32658,-14.53188],[-44.32721,-14.53123],[-44.32816,-14.52909],[-44.3285,-14.52623],[-44.32878,-14.52522],[-44.33004,-14.52308],[-44.3307,-14.5211],[-44.33176,-14.52013],[-44.33278,-14.51815],[-44.33574,-14.51546],[-44.33626,-14.51468],[-44.33733,-14.51104],[-44.33719,-14.5101],[-44.33598,-14.50752],[-44.33452,-14.50335],[-44.33358,-14.50222],[-44.33251,-14.50222],[-44.33105,-14.50178],[-44.32869,-14.49928],[-44.32708,-14.49838],[-44.32588,-14.49608],[-44.3258,-14.49415],[-44.32517,-14.49225],[-44.32496,-14.49036],[-44.32448,-14.4894],[-44.32399,-14.48738],[-44.32273,-14.4858],[-44.32178,-14.48541],[-44.32094,-14.48599],[-44.31999,-14.48593],[-44.31892,-14.48504],[-44.31797,-14.48482],[-44.31688,-14.48391],[-44.31617,-14.48127],[-44.31517,-14.48021],[-44.3157,-14.47844],[-44.31525,-14.47766],[-44.31413,-14.47679],[-44.31435,-14.47477],[-44.31573,-14.47294],[-44.31549,-14.47207],[-44.31387,-14.47021],[-44.31252,-14.46986],[-44.31137,-14.46841],[-44.31182,-14.46565],[-44.31181,-14.46466],[-44.31126,-14.46331],[-44.31141,-14.46128],[-44.31247,-14.458],[-44.31258,-14.45662],[-44.31177,-14.45364],[-44.31282,-14.45156],[-44.31465,-14.4506],[-44.31598,-14.44803],[-44.31673,-14.44745],[-44.3181,-14.44717],[-44.31871,-14.44649],[-44.3187,-14.4456],[-44.31808,-14.44466],[-44.31723,-14.44425],[-44.31769,-14.44282],[-44.31676,-14.44211],[-44.31736,-14.4407],[-44.31674,-14.43947],[-44.31739,-14.43783],[-44.31657,-14.43556],[-44.31585,-14.43482],[-44.31498,-14.43255],[-44.31594,-14.43167],[-44.31664,-14.42985],[-44.31725,-14.42911],[-44.31814,-14.42887],[-44.31832,-14.427],[-44.31904,-14.4264],[-44.31925,-14.42506],[-44.32089,-14.42415],[-44.32151,-14.42141],[-44.32291,-14.42002],[-44.32335,-14.41866],[-44.32394,-14.41796],[-44.32556,-14.41689],[-44.32616,-14.41564],[-44.32608,-14.41461],[-44.32548,-14.41277],[-44.32457,-14.41158],[-44.3246,-14.40917],[-44.32522,-14.4078],[-44.32445,-14.40546],[-44.32449,-14.40456],[-44.32539,-14.40239],[-44.32541,-14.40143],[-44.3245,-14.4001],[-44.32522,-14.39892],[-44.3246,-14.39747],[-44.32321,-14.39567],[-44.32323,-14.39477],[-44.3223,-14.39353],[-44.32258,-14.39263],[-44.32428,-14.39046],[-44.32476,-14.38813],[-44.32457,-14.38523],[-44.32324,-14.38367],[-44.32245,-14.38235],[-44.32187,-14.38049],[-44.31963,-14.37873],[-44.3191,-14.37719],[-44.31892,-14.37581],[-44.3183,-14.37432],[-44.31505,-14.37246],[-44.31321,-14.36962],[-44.31021,-14.36702],[-44.30884,-14.36641],[-44.30591,-14.36565],[-44.30498,-14.36568],[-44.30427,-14.36504],[-44.30272,-14.36618],[-44.30196,-14.36581],[-44.30148,-14.36458],[-44.30164,-14.36322],[-44.30085,-14.362],[-44.29952,-14.36139],[-44.29876,-14.3602],[-44.29744,-14.36049],[-44.29673,-14.36015],[-44.29686,-14.35881],[-44.29404,-14.35796],[-44.2931,-14.35575],[-44.29296,-14.35297],[-44.29215,-14.3512],[-44.2899,-14.35048],[-44.28902,-14.34941],[-44.28902,-14.3466],[-44.28809,-14.34564],[-44.28622,-14.34552],[-44.28567,-14.34428],[-44.28496,-14.34369],[-44.2831,-14.34405],[-44.28262,-14.34329],[-44.28428,-14.34098],[-44.28403,-14.33962],[-44.28303,-14.33864],[-44.28206,-14.33848],[-44.27985,-14.33894],[-44.27902,-14.33857],[-44.27754,-14.33697],[-44.27593,-14.33609],[-44.27316,-14.33558],[-44.27169,-14.33435],[-44.27116,-14.33309],[-44.2699,-14.33178],[-44.26857,-14.33129],[-44.26783,-14.32957],[-44.26681,-14.32861],[-44.26732,-14.32729],[-44.26721,-14.32547],[-44.26649,-14.32481],[-44.26391,-14.32331],[-44.26191,-14.3237],[-44.26078,-14.32458],[-44.25853,-14.32416],[-44.25721,-14.32451],[-44.25586,-14.32312],[-44.25492,-14.32322],[-44.25468,-14.32593],[-44.25391,-14.32709],[-44.25301,-14.32733],[-44.25239,-14.3266],[-44.25233,-14.32517],[-44.25311,-14.32461],[-44.25284,-14.32332],[-44.25199,-14.32296],[-44.25062,-14.32318],[-44.25039,-14.32442],[-44.24933,-14.32489],[-44.24874,-14.32165],[-44.24727,-14.32049],[-44.24662,-14.31923],[-44.24586,-14.3187],[-44.24614,-14.31796],[-44.24803,-14.3177],[-44.24821,-14.31666],[-44.24635,-14.31704],[-44.24601,-14.31633],[-44.24735,-14.31508],[-44.24639,-14.31292],[-44.24501,-14.31254],[-44.24358,-14.31331],[-44.24292,-14.31401],[-44.24216,-14.31572],[-44.241,-14.31526],[-44.24075,-14.31386],[-44.23905,-14.3139],[-44.23852,-14.31263],[-44.23671,-14.31256],[-44.23499,-14.31075],[-44.23403,-14.31085],[-44.2336,-14.31014],[-44.23467,-14.30874],[-44.23469,-14.30845],[-44.29598,-14.25315],[-44.30234,-14.25324],[-44.30368,-14.25261],[-44.30529,-14.24956],[-44.30901,-14.24842],[-44.31034,-14.24744],[-44.3113,-14.24628],[-44.31241,-14.24353],[-44.31648,-14.24035],[-44.31785,-14.24074],[-44.31981,-14.24419],[-44.32076,-14.24476],[-44.32574,-14.24552],[-44.33256,-14.24789],[-44.33562,-14.24816],[-44.3406,-14.2494],[-44.33898,-14.25182],[-44.3404,-14.254],[-44.34021,-14.25668],[-44.34117,-14.25733],[-44.34407,-14.25716],[-44.34745,-14.25845],[-44.34949,-14.25753],[-44.35112,-14.25727],[-44.35184,-14.25772],[-44.35187,-14.25862],[-44.35065,-14.25962],[-44.34618,-14.26137],[-44.34576,-14.26234],[-44.34604,-14.26326],[-44.34723,-14.26397],[-44.3482,-14.26388],[-44.35135,-14.26134],[-44.35304,-14.26092],[-44.3532,-14.26147],[-44.35213,-14.26394],[-44.35289,-14.26618],[-44.3554,-14.26913],[-44.36159,-14.27281],[-44.36282,-14.27313],[-44.36437,-14.27281],[-44.36634,-14.274],[-44.36983,-14.27163],[-44.37068,-14.27445],[-44.37366,-14.27465],[-44.37459,-14.27399],[-44.37546,-14.2707],[-44.37621,-14.26983],[-44.3785,-14.27042],[-44.37873,-14.27104],[-44.37685,-14.27508],[-44.37847,-14.27715],[-44.38223,-14.27908],[-44.38848,-14.28048],[-44.38951,-14.28048],[-44.38929,-14.27748],[-44.38998,-14.27613],[-44.39102,-14.27579],[-44.39321,-14.27748],[-44.39457,-14.27723],[-44.39716,-14.27348],[-44.3979,-14.27466],[-44.39862,-14.27772],[-44.39945,-14.27828],[-44.40778,-14.27993],[-44.41023,-14.28146],[-44.41178,-14.28158],[-44.41543,-14.28274],[-44.41893,-14.28315],[-44.4286,-14.28664],[-44.42956,-14.28749],[-44.43243,-14.29259],[-44.43362,-14.29368],[-44.43614,-14.2975],[-44.4374,-14.2999]]]},"properties":{"codigo":"314270005","name":"Montalvânia","population":8520,"households":3780,"areaKm2":405.2879,"density":21}},{"type":"Feature","geometry":{"type":"Polygon","coordinates":[[[-44.5752,-14.34946],[-44.57382,-14.34944],[-44.57296,-14.34992],[-44.57165,-14.35196],[-44.57157,-14.35393],[-44.57021,-14.35528],[-44.56668,-14.35792],[-44.56491,-14.36083],[-44.56214,-14.36299],[-44.56011,-14.3651],[-44.55829,-14.366],[-44.55673,-14.36723],[-44.55615,-14.36801],[-44.55538,-14.37044],[-44.55504,-14.37233],[-44.55448,-14.37379],[-44.55291,-14.37645],[-44.55171,-14.37876],[-44.55096,-14.38117],[-44.54986,-14.38291],[-44.54825,-14.38398],[-44.54605,-14.38493],[-44.54472,-14.38626],[-44.54321,-14.38861],[-44.54091,-14.39096],[-44.53965,-14.39162],[-44.53868,-14.39175],[-44.53534,-14.39161],[-44.53233,-14.39279],[-44.5311,-14.39349],[-44.5292,-14.39513],[-44.52652,-14.39647],[-44.52459,-14.3965],[-44.52348,-14.39615],[-44.52222,-14.39527],[-44.52032,-14.39332],[-44.51898,-14.39262],[-44.5152,-14.39299],[-44.51424,-14.39275],[-44.51123,-14.39093],[-44.50538,-14.39108],[-44.50373,-14.39074],[-44.50282,-14.39023],[-44.50158,-14.38856],[-44.49975,-14.38795],[-44.49803,-14.38597],[-44.49533,-14.38049],[-44.49447,-14.3793],[-44.49221,-14.37708],[-44.49014,-14.37549],[-44.48775,-14.37406],[-44.48622,-14.37274],[-44.4825,-14.37049],[-44.48065,-14.36977],[-44.47726,-14.36819],[-44.47379,-14.36733],[-44.47023,-14.36571],[-44.46832,-14.36614],[-44.46599,-14.36793],[-44.46354,-14.36791],[-44.46171,-14.36629],[-44.46033,-14.36533],[-44.45818,-14.36524],[-44.45353,-14.36525],[-44.45107,-14.36451],[-44.44973,-14.36321],[-44.44856,-14.36149],[-44.44789,-14.36],[-44.4472,-14.35932],[-44.44133,-14.35764],[-44.4377,-14.35781],[-44.43447,-14.35868],[-44.43166,-14.35875],[-44.42918,-14.35921],[-44.42568,-14.36025],[-44.4214,-14.36022],[-44.42022,-14.36034],[-44.4168,-14.3603],[-44.4126,-14.36038],[-44.41042,-14.36235],[-44.40896,-14.36342],[-44.4065,-14.36558],[-44.4038,-14.36747],[-44.40237,-14.36815],[-44.39994,-14.36853],[-44.39904,-14.36824],[-44.39785,-14.36726],[-44.39762,-14.36522],[-44.39859,-14.36201],[-44.39855,-14.36058],[-44.39801,-14.35817],[-44.39766,-14.35525],[-44.39699,-14.35141],[-44.39692,-14.34936],[-44.39752,-14.34427],[-44.39859,-14.34208],[-44.40022,-14.34025],[-44.40265,-14.33659],[-44.40276,-14.33569],[-44.40178,-14.33466],[-44.40269,-14.33357],[-44.40283,-14.3327],[-44.40367,-14.33163],[-44.40321,-14.33088],[-44.40284,-14.32881],[-44.40394,-14.32724],[-44.40551,-14.32598],[-44.40618,-14.32466],[-44.40824,-14.32186],[-44.40944,-14.32118],[-44.41004,-14.31982],[-44.41185,-14.31951],[-44.41256,-14.3189],[-44.41323,-14.31715],[-44.41386,-14.31645],[-44.41566,-14.31718],[-44.41726,-14.31634],[-44.41865,-14.31605],[-44.41986,-14.31486],[-44.42175,-14.31515],[-44.42242,-14.31335],[-44.42379,-14.31318],[-44.4247,-14.31216],[-44.42505,-14.31107],[-44.42573,-14.31051],[-44.42969,-14.31039],[-44.43152,-14.3084],[-44.43293,-14.3082],[-44.43292,-14.30691],[-44.43441,-14.30681],[-44.43522,-14.30583],[-44.43436,-14.30467],[-44.43447,-14.30381],[-44.43537,-14.30339],[-44.43583,-14.30256],[-44.43571,-14.30164],[-44.4361,-14.30024],[-44.4374,-14.2999],[-44.4389,-14.30283],[-44.4399,-14.30366],[-44.4427,-14.30479],[-44.4476,-14.30594],[-44.44788,-14.30846],[-44.44988,-14.30795],[-44.45021,-14.30823],[-44.45032,-14.31005],[-44.45363,-14.31198],[-44.45893,-14.31187],[-44.46115,-14.31349],[-44.46257,-14.31273],[-44.4638,-14.31075],[-44.46549,-14.31073],[-44.46718,-14.31244],[-44.46957,-14.31654],[-44.47215,-14.31416],[-44.47392,-14.31402],[-44.47499,-14.31435],[-44.47553,-14.31613],[-44.47337,-14.3168],[-44.47399,-14.31783],[-44.47743,-14.31842],[-44.47962,-14.31962],[-44.48314,-14.32212],[-44.48413,-14.32364],[-44.48518,-14.32702],[-44.48718,-14.32852],[-44.48826,-14.32863],[-44.49154,-14.32754],[-44.49301,-14.3281],[-44.49844,-14.32768],[-44.50047,-14.32663],[-44.50344,-14.32233],[-44.50751,-14.32535],[-44.50887,-14.32565],[-44.50943,-14.32519],[-44.50977,-14.32332],[-44.51084,-14.32269],[-44.51385,-14.32448],[-44.51804,-14.32984],[-44.5189,-14.33021],[-44.52352,-14.32879],[-44.52915,-14.32813],[-44.53093,-14.32873],[-44.53379,-14.33072],[-44.54054,-14.33177],[-44.54178,-14.33264],[-44.54326,-14.3369],[-44.54273,-14.34053],[-44.54352,-14.34224],[-44.54512,-14.34306],[-44.54746,-14.34321],[-44.54879,-14.34271],[-44.55077,-14.33938],[-44.55265,-14.33792],[-44.5572,-14.33704],[-44.55816,-14.33756],[-44.55987,-14.3405],[-44.56135,-14.3409],[-44.56464,-14.33967],[-44.56557,-14.34006],[-44.56612,-14.34138],[-44.56596,-14.34297],[-44.5643,-14.34717],[-44.56457,-14.3486],[-44.56979,-14.3475],[-44.57126,-14.3458],[-44.57229,-14.34557],[-44.57563,-14.34859],[-44.5752,-14.34946]]]},"properties":{"codigo":"314270020","name":"Pitarana","population":1028,"households":569,"areaKm2":102.7911,"density":10}},{"type":"Feature","geometry":{"type":"Polygon","coordinates":[[[-44.3232,-14.5508],[-44.32465,-14.54928],[-44.32564,-14.54772],[-44.32571,-14.54631],[-44.32611,-14.54546],[-44.32954,-14.54378],[-44.33288,-14.5434],[-44.33408,-14.54257],[-44.33685,-14.54174],[-44.33886,-14.54165],[-44.34113,-14.54034],[-44.34243,-14.53857],[-44.3444,-14.53645],[-44.34676,-14.53486],[-44.34851,-14.53268],[-44.34937,-14.5321],[-44.35173,-14.52952],[-44.35214,-14.52812],[-44.3519,-14.5254],[-44.35211,-14.52453],[-44.3532,-14.52294],[-44.35545,-14.52172],[-44.35649,-14.52018],[-44.3572,-14.51691],[-44.35796,-14.51433],[-44.35806,-14.51334],[-44.35759,-14.51048],[-44.35761,-14.50956],[-44.35834,-14.50892],[-44.36031,-14.50825],[-44.36366,-14.50892],[-44.36527,-14.50768],[-44.3656,-14.50673],[-44.36549,-14.50496],[-44.3657,-14.50358],[-44.36641,-14.50286],[-44.367,-14.501],[-44.36796,-14.50002],[-44.3684,-14.49884],[-44.36959,-14.49718],[-44.37177,-14.49522],[-44.37276,-14.49492],[-44.433,-14.48917],[-44.46281,-14.46207],[-44.46434,-14.46397],[-44.46667,-14.46551],[-44.4702,-14.4668],[-44.47211,-14.46904],[-44.47349,-14.47002],[-44.47484,-14.47051],[-44.47672,-14.47206],[-44.47794,-14.47428],[-44.4793,-14.47581],[-44.48159,-14.4807],[-44.48164,-14.48362],[-44.48191,-14.48509],[-44.48347,-14.48773],[-44.4885,-14.49302],[-44.48899,-14.49569],[-44.48893,-14.49985],[-44.49011,-14.50149],[-44.49051,-14.50259],[-44.49061,-14.50496],[-44.49106,-14.50635],[-44.49094,-14.50782],[-44.4899,-14.51079],[-44.49009,-14.51173],[-44.49165,-14.51378],[-44.49203,-14.51604],[-44.49089,-14.51823],[-44.49082,-14.52051],[-44.49035,-14.5235],[-44.49058,-14.5271],[-44.49084,-14.52802],[-44.49217,-14.53007],[-44.49271,-14.5314],[-44.49266,-14.53368],[-44.49422,-14.5356],[-44.49446,-14.53656],[-44.4945,-14.53958],[-44.49502,-14.54085],[-44.49703,-14.54322],[-44.49815,-14.54538],[-44.49995,-14.54737],[-44.50251,-14.54906],[-44.50429,-14.54985],[-44.50628,-14.55037],[-44.51033,-14.55175],[-44.51127,-14.5522],[-44.51246,-14.55353],[-44.51278,-14.55464],[-44.51424,-14.55721],[-44.51541,-14.56259],[-44.51549,-14.56445],[-44.51658,-14.56873],[-44.5174,-14.57068],[-44.51914,-14.57311],[-44.52111,-14.57496],[-44.52249,-14.57677],[-44.52188,-14.58117],[-44.52199,-14.58278],[-44.52237,-14.58393],[-44.52321,-14.58521],[-44.52478,-14.58684],[-44.53187,-14.59071],[-44.53418,-14.59284],[-44.53623,-14.59515],[-44.53757,-14.59747],[-44.53786,-14.59836],[-44.53796,-14.60048],[-44.53745,-14.60184],[-44.53737,-14.60332],[-44.53673,-14.60726],[-44.5353,-14.60952],[-44.53278,-14.61108],[-44.53142,-14.61159],[-44.52879,-14.61189],[-44.52655,-14.61241],[-44.52349,-14.61417],[-44.52058,-14.61817],[-44.51995,-14.61961],[-44.52014,-14.62216],[-44.52119,-14.62439],[-44.52137,-14.62623],[-44.52116,-14.62731],[-44.51931,-14.63041],[-44.51812,-14.6318],[-44.5162,-14.63496],[-44.51496,-14.63764],[-44.51447,-14.64222],[-44.51464,-14.64595],[-44.51521,-14.64905],[-44.51248,-14.64841],[-44.5104,-14.64849],[-44.50727,-14.64821],[-44.50374,-14.64719],[-44.50166,-14.64725],[-44.50069,-14.64691],[-44.49797,-14.64667],[-44.49633,-14.64633],[-44.4925,-14.64644],[-44.49139,-14.64697],[-44.48983,-14.64828],[-44.48772,-14.65183],[-44.48704,-14.65259],[-44.48536,-14.65365],[-44.48084,-14.65415],[-44.4794,-14.65418],[-44.47786,-14.65372],[-44.4753,-14.6515],[-44.47355,-14.64839],[-44.47204,-14.64616],[-44.47117,-14.64397],[-44.46831,-14.63888],[-44.46634,-14.63434],[-44.46578,-14.63349],[-44.46431,-14.63229],[-44.46282,-14.63213],[-44.46074,-14.63315],[-44.45974,-14.63425],[-44.45807,-14.63561],[-44.45459,-14.63872],[-44.45321,-14.63964],[-44.44908,-14.63934],[-44.44737,-14.63899],[-44.4455,-14.63823],[-44.44177,-14.63487],[-44.43784,-14.62982],[-44.43713,-14.62844],[-44.43534,-14.62409],[-44.43392,-14.6198],[-44.43314,-14.6184],[-44.43156,-14.61642],[-44.42848,-14.61393],[-44.42465,-14.61176],[-44.42331,-14.61084],[-44.4195,-14.60869],[-44.41763,-14.60678],[-44.41404,-14.60181],[-44.41274,-14.59881],[-44.41132,-14.59724],[-44.40841,-14.59683],[-44.40551,-14.59607],[-44.40399,-14.59588],[-44.40156,-14.59496],[-44.39879,-14.5936],[-44.39808,-14.59308],[-44.39612,-14.59194],[-44.39274,-14.58913],[-44.38789,-14.58903],[-44.38364,-14.58871],[-44.37902,-14.5876],[-44.37694,-14.58728],[-44.37595,-14.58679],[-44.37411,-14.58638],[-44.37025,-14.58453],[-44.36876,-14.58402],[-44.36659,-14.58285],[-44.3646,-14.58077],[-44.36134,-14.57605],[-44.3596,-14.57393],[-44.35782,-14.57227],[-44.35466,-14.57036],[-44.35277,-14.56987],[-44.34917,-14.57026],[-44.34624,-14.56945],[-44.34449,-14.56828],[-44.34303,-14.56673],[-44.34168,-14.56563],[-44.34073,-14.56523],[-44.33586,-14.56459],[-44.33366,-14.56477],[-44.33265,-14.56569],[-44.33068,-14.56658],[-44.32818,-14.56714],[-44.32624,-14.56718],[-44.32375,-14.56681],[-44.32241,-14.5657],[-44.32189,-14.56437],[-44.32196,-14.56163],[-44.32237,-14.55953],[-44.32417,-14.55456],[-44.32445,-14.55311],[-44.32429,-14.55216],[-44.3232,-14.5508]]]},"properties":{"codigo":"314270025","name":"São Sebastião dos Poções","population":1462,"households":758,"areaKm2":253.3146,"density":5.8}},{"type":"Feature","geometry":{"type":"Polygon","coordinates":[[[-44.74141,-14.46712],[-44.74153,-14.47027],[-44.74145,-14.47241],[-44.74032,-14.47458],[-44.74027,-14.47596],[-44.73978,-14.47812],[-44.73868,-14.48014],[-44.73537,-14.48391],[-44.73415,-14.48659],[-44.73307,-14.48999],[-44.73304,-14.491],[-44.73233,-14.49399],[-44.73054,-14.50017],[-44.73153,-14.50249],[-44.73298,-14.50736],[-44.73303,-14.51035],[-44.73358,-14.5121],[-44.73466,-14.51361],[-44.73713,-14.51617],[-44.73799,-14.51746],[-44.73915,-14.52042],[-44.74166,-14.52427],[-44.74236,-14.52673],[-44.7433,-14.5287],[-44.74416,-14.52987],[-44.74656,-14.53213],[-44.75016,-14.5365],[-44.7511,-14.53873],[-44.75117,-14.5411],[-44.75098,-14.54412],[-44.75002,-14.54594],[-44.74803,-14.54824],[-44.74608,-14.54965],[-44.74557,-14.55044],[-44.74348,-14.55262],[-44.74231,-14.55482],[-44.74018,-14.5578],[-44.73693,-14.56199],[-44.73609,-14.56377],[-44.7349,-14.56525],[-44.7342,-14.5665],[-44.73446,-14.57004],[-44.73456,-14.5737],[-44.73483,-14.57527],[-44.73469,-14.57863],[-44.73465,-14.58664],[-44.73502,-14.58804],[-44.7365,-14.59105],[-44.73802,-14.59449],[-44.73826,-14.5955],[-44.7383,-14.59753],[-44.73784,-14.59942],[-44.73684,-14.60111],[-44.73692,-14.60295],[-44.73628,-14.6059],[-44.73627,-14.60739],[-44.7371,-14.61022],[-44.73751,-14.61229],[-44.73848,-14.61463],[-44.73951,-14.61635],[-44.74078,-14.61945],[-44.74151,-14.62237],[-44.74157,-14.62375],[-44.74089,-14.62518],[-44.68888,-14.62561],[-44.68779,-14.62465],[-44.68598,-14.62598],[-44.68368,-14.62622],[-44.68335,-14.62592],[-44.68331,-14.62413],[-44.68244,-14.62367],[-44.67927,-14.6239],[-44.67688,-14.6236],[-44.67582,-14.62464],[-44.67552,-14.62554],[-44.67472,-14.62605],[-44.67219,-14.62584],[-44.67073,-14.62615],[-44.67017,-14.6247],[-44.66972,-14.62454],[-44.66855,-14.62547],[-44.6672,-14.62603],[-44.66707,-14.62468],[-44.6657,-14.62418],[-44.66421,-14.6246],[-44.66319,-14.62436],[-44.66169,-14.62563],[-44.66091,-14.62529],[-44.66085,-14.62391],[-44.6592,-14.62406],[-44.65796,-14.62338],[-44.65733,-14.62456],[-44.65641,-14.62475],[-44.65506,-14.62381],[-44.654,-14.62435],[-44.65166,-14.62466],[-44.65151,-14.62314],[-44.65028,-14.62297],[-44.64925,-14.62208],[-44.64839,-14.62353],[-44.64744,-14.62356],[-44.64531,-14.62254],[-44.64454,-14.62425],[-44.64443,-14.6251],[-44.6432,-14.625],[-44.64203,-14.62341],[-44.64113,-14.62301],[-44.63995,-14.62366],[-44.63853,-14.62346],[-44.63752,-14.62407],[-44.63713,-14.62276],[-44.63566,-14.62263],[-44.63584,-14.62177],[-44.63707,-14.62112],[-44.6369,-14.62034],[-44.63486,-14.61962],[-44.63435,-14.621],[-44.63436,-14.62254],[-44.6332,-14.62589],[-44.63109,-14.62809],[-44.6304,-14.63093],[-44.62914,-14.63315],[-44.62672,-14.63602],[-44.62506,-14.63856],[-44.62263,-14.63945],[-44.6194,-14.64115],[-44.61596,-14.64239],[-44.61054,-14.64535],[-44.60941,-14.64635],[-44.60822,-14.6485],[-44.60794,-14.64947],[-44.60559,-14.65047],[-44.60165,-14.6525],[-44.60045,-14.65361],[-44.59949,-14.65521],[-44.59836,-14.6586],[-44.59712,-14.66013],[-44.59544,-14.66106],[-44.59447,-14.66132],[-44.59332,-14.66218],[-44.59118,-14.66422],[-44.58922,-14.66476],[-44.58715,-14.66578],[-44.58618,-14.66595],[-44.58202,-14.66552],[-44.57951,-14.66586],[-44.57693,-14.6653],[-44.574,-14.66545],[-44.57293,-14.66523],[-44.56932,-14.66518],[-44.56571,-14.66633],[-44.56331,-14.66605],[-44.55959,-14.66458],[-44.55737,-14.66418],[-44.55591,-14.66497],[-44.55344,-14.66742],[-44.55025,-14.66853],[-44.54717,-14.67004],[-44.54559,-14.6715],[-44.54486,-14.67254],[-44.54395,-14.67676],[-44.54267,-14.68075],[-44.54281,-14.68199],[-44.54386,-14.68468],[-44.54481,-14.68668],[-44.54526,-14.68925],[-44.54535,-14.69204],[-44.54512,-14.69388],[-44.54461,-14.69559],[-44.5437,-14.69718],[-44.541,-14.70003],[-44.53791,-14.70113],[-44.53512,-14.70115],[-44.5319,-14.70177],[-44.52941,-14.70305],[-44.5283,-14.7034],[-44.52405,-14.70216],[-44.52012,-14.70041],[-44.51767,-14.69856],[-44.51643,-14.69668],[-44.51459,-14.6946],[-44.51351,-14.69205],[-44.51069,-14.68286],[-44.50994,-14.67706],[-44.51055,-14.67307],[-44.51095,-14.67194],[-44.51136,-14.66925],[-44.51294,-14.66588],[-44.51459,-14.66448],[-44.51771,-14.66387],[-44.52176,-14.66145],[-44.52308,-14.66029],[-44.52386,-14.65787],[-44.52333,-14.65545],[-44.52178,-14.65351],[-44.51855,-14.6506],[-44.51521,-14.64905],[-44.51464,-14.64595],[-44.51447,-14.64222],[-44.51496,-14.63764],[-44.5162,-14.63496],[-44.51812,-14.6318],[-44.51931,-14.63041],[-44.52116,-14.62731],[-44.52137,-14.62623],[-44.52119,-14.62439],[-44.52014,-14.62216],[-44.51995,-14.61961],[-44.52058,-14.61817],[-44.52349,-14.61417],[-44.52655,-14.61241],[-44.52879,-14.61189],[-44.53142,-14.61159],[-44.53278,-14.61108],[-44.5353,-14.60952],[-44.53673,-14.60726],[-44.53737,-14.60332],[-44.53745,-14.60184],[-44.53796,-14.60048],[-44.53786,-14.59836],[-44.53757,-14.59747],[-44.53623,-14.59515],[-44.53418,-14.59284],[-44.53187,-14.59071],[-44.52478,-14.58684],[-44.52321,-14.58521],[-44.52237,-14.58393],[-44.52199,-14.58278],[-44.52188,-14.58117],[-44.52249,-14.57677],[-44.52111,-14.57496],[-44.51914,-14.57311],[-44.5174,-14.57068],[-44.51658,-14.56873],[-44.51549,-14.56445],[-44.51541,-14.56259],[-44.51424,-14.55721],[-44.51278,-14.55464],[-44.51246,-14.55353],[-44.51127,-14.5522],[-44.51033,-14.55175],[-44.50628,-14.55037],[-44.50429,-14.54985],[-44.50251,-14.54906],[-44.49995,-14.54737],[-44.49815,-14.54538],[-44.49703,-14.54322],[-44.49502,-14.54085],[-44.4945,-14.53958],[-44.49446,-14.53656],[-44.49422,-14.5356],[-44.49266,-14.53368],[-44.49271,-14.5314],[-44.49217,-14.53007],[-44.49084,-14.52802],[-44.49058,-14.5271],[-44.49035,-14.5235],[-44.49082,-14.52051],[-44.49089,-14.51823],[-44.49203,-14.51604],[-44.49165,-14.51378],[-44.49009,-14.51173],[-44.4899,-14.51079],[-44.49094,-14.50782],[-44.49106,-14.50635],[-44.49061,-14.50496],[-44.49051,-14.50259],[-44.49011,-14.50149],[-44.48893,-14.49985],[-44.48899,-14.49569],[-44.4885,-14.49302],[-44.48347,-14.48773],[-44.48191,-14.48509],[-44.48164,-14.48362],[-44.48159,-14.4807],[-44.4793,-14.47581],[-44.47794,-14.47428],[-44.47672,-14.47206],[-44.47484,-14.47051],[-44.47349,-14.47002],[-44.47211,-14.46904],[-44.4702,-14.4668],[-44.46667,-14.46551],[-44.46434,-14.46397],[-44.46281,-14.46207],[-44.46127,-14.46079],[-44.46052,-14.45836],[-44.45936,-14.45628],[-44.45891,-14.45331],[-44.45821,-14.45141],[-44.45723,-14.4496],[-44.4577,-14.44727],[-44.45743,-14.44577],[-44.45613,-14.44535],[-44.45523,-14.44549],[-44.45366,-14.44654],[-44.45281,-14.44623],[-44.4515,-14.44495],[-44.44871,-14.44499],[-44.44685,-14.44291],[-44.44668,-14.44199],[-44.44579,-14.4408],[-44.44588,-14.43988],[-44.44715,-14.43925],[-44.44709,-14.43789],[-44.44645,-14.43712],[-44.44555,-14.43678],[-44.44522,-14.43501],[-44.44352,-14.43433],[-44.44381,-14.43288],[-44.44508,-14.43197],[-44.44468,-14.42967],[-44.44464,-14.42733],[-44.44406,-14.42593],[-44.44393,-14.42452],[-44.44538,-14.42302],[-44.44589,-14.42179],[-44.4449,-14.42148],[-44.44477,-14.42074],[-44.44578,-14.42053],[-44.44611,-14.41972],[-44.44561,-14.41894],[-44.44469,-14.41897],[-44.44409,-14.41831],[-44.44441,-14.41752],[-44.44384,-14.41682],[-44.44433,-14.41596],[-44.44471,-14.41414],[-44.4444,-14.41331],[-44.44276,-14.41229],[-44.44212,-14.41147],[-44.44041,-14.41058],[-44.44075,-14.40862],[-44.44286,-14.40957],[-44.44491,-14.40979],[-44.44569,-14.40927],[-44.44693,-14.40784],[-44.44834,-14.40725],[-44.44963,-14.40588],[-44.45143,-14.40647],[-44.45182,-14.40782],[-44.45188,-14.40934],[-44.45267,-14.41104],[-44.45445,-14.41167],[-44.45466,-14.41208],[-44.45392,-14.41328],[-44.45426,-14.41418],[-44.45509,-14.41454],[-44.45763,-14.41401],[-44.45948,-14.41236],[-44.45994,-14.41095],[-44.45986,-14.40916],[-44.46036,-14.40734],[-44.46283,-14.40577],[-44.46388,-14.40491],[-44.46423,-14.40401],[-44.46387,-14.40121],[-44.46315,-14.39947],[-44.4638,-14.39771],[-44.46402,-14.39635],[-44.46456,-14.39552],[-44.46677,-14.39453],[-44.46833,-14.39268],[-44.47092,-14.39128],[-44.4719,-14.38973],[-44.47155,-14.38839],[-44.47055,-14.38677],[-44.47028,-14.3856],[-44.47042,-14.383],[-44.47102,-14.38078],[-44.47112,-14.37866],[-44.47074,-14.37662],[-44.47104,-14.37569],[-44.47241,-14.37317],[-44.47497,-14.37097],[-44.47379,-14.36733],[-44.47726,-14.36819],[-44.48065,-14.36977],[-44.4825,-14.37049],[-44.48622,-14.37274],[-44.48775,-14.37406],[-44.49014,-14.37549],[-44.49221,-14.37708],[-44.49447,-14.3793],[-44.49533,-14.38049],[-44.49803,-14.38597],[-44.49975,-14.38795],[-44.50158,-14.38856],[-44.50282,-14.39023],[-44.50373,-14.39074],[-44.50538,-14.39108],[-44.51123,-14.39093],[-44.51424,-14.39275],[-44.5152,-14.39299],[-44.51898,-14.39262],[-44.52032,-14.39332],[-44.52222,-14.39527],[-44.52348,-14.39615],[-44.52459,-14.3965],[-44.52652,-14.39647],[-44.5292,-14.39513],[-44.5311,-14.39349],[-44.53233,-14.39279],[-44.53534,-14.39161],[-44.53868,-14.39175],[-44.53965,-14.39162],[-44.54091,-14.39096],[-44.54321,-14.38861],[-44.54472,-14.38626],[-44.54605,-14.38493],[-44.54825,-14.38398],[-44.54986,-14.38291],[-44.55096,-14.38117],[-44.55171,-14.37876],[-44.55291,-14.37645],[-44.55448,-14.37379],[-44.55504,-14.37233],[-44.55538,-14.37044],[-44.55615,-14.36801],[-44.55673,-14.36723],[-44.55829,-14.366],[-44.56011,-14.3651],[-44.56214,-14.36299],[-44.56491,-14.36083],[-44.56668,-14.35792],[-44.57021,-14.35528],[-44.57157,-14.35393],[-44.57165,-14.35196],[-44.57296,-14.34992],[-44.57382,-14.34944],[-44.5752,-14.34946],[-44.57451,-14.35085],[-44.57485,-14.35183],[-44.57748,-14.35385],[-44.57865,-14.35414],[-44.58005,-14.35134],[-44.58184,-14.35147],[-44.5851,-14.35275],[-44.58707,-14.35441],[-44.58821,-14.35669],[-44.58971,-14.36137],[-44.59179,-14.36191],[-44.59315,-14.36179],[-44.59432,-14.36271],[-44.59657,-14.36567],[-44.59738,-14.36791],[-44.59837,-14.3685],[-44.59918,-14.36811],[-44.60041,-14.36548],[-44.60096,-14.36531],[-44.60251,-14.36622],[-44.60373,-14.3686],[-44.60514,-14.36848],[-44.60735,-14.36717],[-44.60957,-14.36556],[-44.61074,-14.36544],[-44.61141,-14.36907],[-44.61418,-14.37083],[-44.61562,-14.37406],[-44.6166,-14.37514],[-44.61827,-14.37599],[-44.62248,-14.37549],[-44.6256,-14.37611],[-44.62659,-14.37743],[-44.62582,-14.37992],[-44.62662,-14.38047],[-44.6286,-14.38079],[-44.63021,-14.38479],[-44.63137,-14.38651],[-44.63282,-14.38758],[-44.63339,-14.38984],[-44.63305,-14.39335],[-44.6336,-14.39447],[-44.63541,-14.39435],[-44.6369,-14.3938],[-44.63654,-14.39088],[-44.63682,-14.39026],[-44.63809,-14.39019],[-44.64229,-14.39118],[-44.64379,-14.39193],[-44.64418,-14.39281],[-44.64309,-14.39421],[-44.64121,-14.39518],[-44.6411,-14.39617],[-44.64462,-14.39659],[-44.64582,-14.39809],[-44.64874,-14.39685],[-44.64927,-14.39567],[-44.65001,-14.3955],[-44.65154,-14.39727],[-44.65182,-14.39603],[-44.6513,-14.39386],[-44.65243,-14.39346],[-44.6559,-14.39555],[-44.65837,-14.39545],[-44.65888,-14.39576],[-44.65888,-14.40161],[-44.65985,-14.40231],[-44.66229,-14.40255],[-44.66248,-14.40354],[-44.66173,-14.4049],[-44.66265,-14.40742],[-44.66038,-14.40931],[-44.66018,-14.41098],[-44.66071,-14.41335],[-44.66026,-14.41452],[-44.6579,-14.4155],[-44.65804,-14.41636],[-44.65924,-14.4171],[-44.66485,-14.41814],[-44.66668,-14.41962],[-44.66799,-14.42385],[-44.6693,-14.42402],[-44.67009,-14.42282],[-44.66993,-14.41978],[-44.66858,-14.41705],[-44.66957,-14.4162],[-44.67056,-14.41592],[-44.67179,-14.4192],[-44.67321,-14.42385],[-44.67421,-14.4245],[-44.67552,-14.4241],[-44.68655,-14.41679],[-44.68835,-14.41668],[-44.68877,-14.41713],[-44.68751,-14.41989],[-44.68785,-14.42154],[-44.68915,-14.42281],[-44.69104,-14.4231],[-44.69396,-14.4228],[-44.69424,-14.42349],[-44.6933,-14.42507],[-44.69376,-14.42949],[-44.69312,-14.43263],[-44.69354,-14.43313],[-44.69534,-14.4331],[-44.69821,-14.43205],[-44.69939,-14.43757],[-44.69963,-14.44349],[-44.70024,-14.44712],[-44.70129,-14.44979],[-44.70235,-14.44989],[-44.7039,-14.44925],[-44.70441,-14.44861],[-44.70429,-14.44712],[-44.70526,-14.44658],[-44.70852,-14.4486],[-44.71057,-14.44813],[-44.71068,-14.44513],[-44.71185,-14.44411],[-44.71288,-14.44396],[-44.71501,-14.44594],[-44.71806,-14.44732],[-44.71907,-14.45101],[-44.72096,-14.45066],[-44.72288,-14.44875],[-44.72382,-14.44905],[-44.72469,-14.45044],[-44.72465,-14.45565],[-44.72566,-14.45765],[-44.7279,-14.45874],[-44.7307,-14.46132],[-44.73518,-14.46137],[-44.7361,-14.46221],[-44.73688,-14.46458],[-44.73966,-14.46658],[-44.74141,-14.46712]]]},"properties":{"codigo":"314270030","name":"Capitania","population":3050,"households":1551,"areaKm2":742.3613,"density":4.1}}]}