{"type":"FeatureCollection","features":[{"type":"Feature","geometry":{"type":"Polygon","coordinates":[[[-46.29229,-21.15327],[-46.29263,-21.15162],[-46.29241,-21.15035],[-46.29306,-21.14769],[-46.29361,-21.14624],[-46.29518,-21.14417],[-46.29586,-21.14203],[-46.29694,-21.13956],[-46.29726,-21.13772],[-46.29838,-21.13571],[-46.29818,-21.13347],[-46.29502,-21.13047],[-46.29411,-21.12811],[-46.29401,-21.12516],[-46.29331,-21.12368],[-46.28933,-21.12211],[-46.28747,-21.1211],[-46.2869,-21.12001],[-46.28715,-21.11852],[-46.28796,-21.11678],[-46.28902,-21.116],[-46.29013,-21.11431],[-46.29221,-21.11164],[-46.29304,-21.11089],[-46.29408,-21.10901],[-46.29512,-21.10829],[-46.29794,-21.1084],[-46.30209,-21.10829],[-46.30574,-21.10839],[-46.30786,-21.1094],[-46.31095,-21.1121],[-46.31216,-21.11195],[-46.31284,-21.11053],[-46.3158,-21.10914],[-46.31675,-21.10824],[-46.32211,-21.10829],[-46.32377,-21.10805],[-46.32541,-21.1072],[-46.32614,-21.10593],[-46.32612,-21.10467],[-46.3257,-21.10255],[-46.32568,-21.10134],[-46.32618,-21.10026],[-46.32694,-21.09964],[-46.33304,-21.09861],[-46.33493,-21.09801],[-46.33786,-21.09561],[-46.33849,-21.09459],[-46.33973,-21.09081],[-46.33877,-21.08949],[-46.33719,-21.08822],[-46.33609,-21.08656],[-46.33492,-21.08568],[-46.33395,-21.0857],[-46.33231,-21.08516],[-46.33194,-21.08436],[-46.33422,-21.08266],[-46.33714,-21.08109],[-46.33872,-21.07882],[-46.34123,-21.07658],[-46.34196,-21.07541],[-46.34229,-21.07308],[-46.3436,-21.07113],[-46.34381,-21.0704],[-46.34563,-21.06825],[-46.34665,-21.06778],[-46.34929,-21.06789],[-46.34891,-21.06862],[-46.35149,-21.06919],[-46.35429,-21.06878],[-46.35528,-21.06796],[-46.35637,-21.06778],[-46.35789,-21.068],[-46.35952,-21.06781],[-46.3607,-21.06942],[-46.36374,-21.06862],[-46.36509,-21.06638],[-46.3659,-21.06464],[-46.36866,-21.06338],[-46.37044,-21.06353],[-46.37123,-21.06329],[-46.37163,-21.0617],[-46.37262,-21.06023],[-46.37346,-21.05994],[-46.37541,-21.05994],[-46.376,-21.05878],[-46.37586,-21.05718],[-46.377,-21.05588],[-46.38008,-21.0547],[-46.38076,-21.05589],[-46.38184,-21.05575],[-46.38314,-21.05395],[-46.38458,-21.05249],[-46.38597,-21.05224],[-46.38693,-21.05264],[-46.38849,-21.05389],[-46.39081,-21.0561],[-46.39515,-21.05597],[-46.39633,-21.05702],[-46.39708,-21.05924],[-46.39721,-21.06123],[-46.39684,-21.06338],[-46.3974,-21.0655],[-46.39826,-21.06637],[-46.40053,-21.06662],[-46.40251,-21.06783],[-46.40402,-21.06959],[-46.40463,-21.07292],[-46.40549,-21.07362],[-46.40777,-21.07261],[-46.40949,-21.0721],[-46.41376,-21.06875],[-46.41515,-21.06714],[-46.41591,-21.06553],[-46.41714,-21.06415],[-46.41974,-21.06251],[-46.42144,-21.06112],[-46.4217,-21.05994],[-46.42271,-21.05746],[-46.42373,-21.0573],[-46.42682,-21.05855],[-46.42869,-21.05832],[-46.42973,-21.05782],[-46.43289,-21.05731],[-46.43536,-21.0574],[-46.4383,-21.05717],[-46.43871,-21.05737],[-46.44209,-21.05781],[-46.44386,-21.05842],[-46.44562,-21.05976],[-46.44745,-21.05965],[-46.44855,-21.06004],[-46.44959,-21.05976],[-46.45177,-21.06122],[-46.45308,-21.06094],[-46.4539,-21.06148],[-46.4552,-21.06139],[-46.45643,-21.06191],[-46.45823,-21.06145],[-46.45941,-21.06074],[-46.46178,-21.06136],[-46.46321,-21.06075],[-46.46417,-21.06081],[-46.46652,-21.05937],[-46.4673,-21.05933],[-46.46868,-21.06019],[-46.46992,-21.06007],[-46.47528,-21.06209],[-46.48095,-21.06275],[-46.48309,-21.06336],[-46.48731,-21.06605],[-46.48852,-21.06808],[-46.48899,-21.06986],[-46.48947,-21.07043],[-46.49075,-21.07088],[-46.49461,-21.07044],[-46.49949,-21.07025],[-46.50148,-21.07089],[-46.50434,-21.07111],[-46.50714,-21.07102],[-46.5082,-21.07064],[-46.5122,-21.07072],[-46.51631,-21.07267],[-46.51984,-21.07271],[-46.52683,-21.07152],[-46.52876,-21.07171],[-46.52925,-21.07261],[-46.52926,-21.07483],[-46.52966,-21.07672],[-46.53032,-21.0775],[-46.53284,-21.07921],[-46.53628,-21.08037],[-46.5389,-21.0805],[-46.54044,-21.08085],[-46.54152,-21.08196],[-46.54187,-21.08468],[-46.54301,-21.08545],[-46.54401,-21.08502],[-46.54567,-21.08521],[-46.54766,-21.0867],[-46.54961,-21.08704],[-46.55082,-21.08666],[-46.55197,-21.08581],[-46.5515,-21.08758],[-46.55142,-21.08984],[-46.55186,-21.09124],[-46.5526,-21.09249],[-46.55295,-21.09409],[-46.55241,-21.09489],[-46.55117,-21.0951],[-46.54958,-21.09476],[-46.54693,-21.09379],[-46.54539,-21.09357],[-46.5441,-21.09422],[-46.54347,-21.09672],[-46.54417,-21.10091],[-46.54547,-21.10287],[-46.54677,-21.10562],[-46.54832,-21.10733],[-46.54927,-21.10789],[-46.55163,-21.10977],[-46.55282,-21.11188],[-46.55291,-21.11317],[-46.55256,-21.11467],[-46.5509,-21.11702],[-46.54975,-21.11776],[-46.54746,-21.11875],[-46.54286,-21.11986],[-46.54214,-21.12057],[-46.54179,-21.12295],[-46.54207,-21.124],[-46.54224,-21.12642],[-46.54129,-21.12975],[-46.54111,-21.13271],[-46.53946,-21.13554],[-46.53927,-21.13757],[-46.54087,-21.13977],[-46.54215,-21.14087],[-46.5465,-21.14391],[-46.54787,-21.14529],[-46.54901,-21.14681],[-46.55044,-21.14965],[-46.55059,-21.1506],[-46.54845,-21.15169],[-46.5448,-21.15302],[-46.54279,-21.15407],[-46.54112,-21.15465],[-46.53946,-21.1559],[-46.53735,-21.15716],[-46.53253,-21.15938],[-46.53133,-21.15973],[-46.52749,-21.16035],[-46.52599,-21.16012],[-46.52275,-21.15832],[-46.52223,-21.15823],[-46.51608,-21.1553],[-46.51477,-21.15443],[-46.51353,-21.15397],[-46.51092,-21.1538],[-46.50996,-21.15424],[-46.5089,-21.15534],[-46.50759,-21.15779],[-46.50652,-21.15912],[-46.50494,-21.1606],[-46.50338,-21.16375],[-46.50183,-21.16532],[-46.50138,-21.1666],[-46.50049,-21.16715],[-46.49994,-21.16819],[-46.49695,-21.17203],[-46.49619,-21.17298],[-46.49302,-21.17496],[-46.49085,-21.17552],[-46.48776,-21.1757],[-46.48698,-21.17472],[-46.48706,-21.17284],[-46.48755,-21.16976],[-46.48747,-21.16808],[-46.48682,-21.16716],[-46.48547,-21.16616],[-46.48414,-21.16561],[-46.48132,-21.16521],[-46.47859,-21.16534],[-46.4763,-21.16618],[-46.47302,-21.1684],[-46.47183,-21.16843],[-46.47108,-21.16635],[-46.46947,-21.16491],[-46.46831,-21.16442],[-46.46623,-21.16451],[-46.46453,-21.16542],[-46.46226,-21.16929],[-46.46154,-21.17107],[-46.4603,-21.17232],[-46.459,-21.17252],[-46.45743,-21.17217],[-46.45643,-21.1731],[-46.45512,-21.17385],[-46.4536,-21.17384],[-46.45192,-21.17351],[-46.44988,-21.17263],[-46.44855,-21.17132],[-46.446,-21.17049],[-46.44335,-21.17059],[-46.44087,-21.17126],[-46.43871,-21.17138],[-46.43459,-21.16959],[-46.43024,-21.16961],[-46.42912,-21.16993],[-46.42676,-21.17003],[-46.42526,-21.17042],[-46.42421,-21.17139],[-46.42353,-21.17268],[-46.42329,-21.17402],[-46.42205,-21.17651],[-46.42081,-21.18054],[-46.42086,-21.18154],[-46.42159,-21.18273],[-46.42156,-21.18392],[-46.41982,-21.18692],[-46.41938,-21.18983],[-46.41824,-21.19284],[-46.41761,-21.19366],[-46.41548,-21.19505],[-46.40984,-21.19561],[-46.40879,-21.19609],[-46.4063,-21.19583],[-46.40214,-21.19514],[-46.40101,-21.19515],[-46.39974,-21.19559],[-46.39735,-21.19723],[-46.39613,-21.1986],[-46.39555,-21.20078],[-46.39563,-21.20272],[-46.39483,-21.20404],[-46.39164,-21.20109],[-46.38996,-21.19909],[-46.3882,-21.1978],[-46.38743,-21.19766],[-46.38676,-21.1968],[-46.38555,-21.19281],[-46.38514,-21.19243],[-46.38236,-21.19176],[-46.37889,-21.18973],[-46.37759,-21.18845],[-46.37517,-21.1873],[-46.3727,-21.18728],[-46.37062,-21.18769],[-46.36711,-21.18765],[-46.36508,-21.18711],[-46.361,-21.18524],[-46.35846,-21.18499],[-46.35682,-21.18415],[-46.35506,-21.18287],[-46.35349,-21.18131],[-46.35219,-21.18043],[-46.34927,-21.17936],[-46.34741,-21.17921],[-46.3458,-21.17948],[-46.3433,-21.18038],[-46.34169,-21.18072],[-46.34005,-21.18057],[-46.33841,-21.17848],[-46.33775,-21.17806],[-46.33577,-21.17792],[-46.33298,-21.17872],[-46.33027,-21.18047],[-46.32834,-21.18203],[-46.32664,-21.18287],[-46.3231,-21.18358],[-46.32005,-21.18375],[-46.3174,-21.18313],[-46.31361,-21.1819],[-46.31147,-21.18183],[-46.31083,-21.18097],[-46.3104,-21.17872],[-46.30969,-21.17858],[-46.30738,-21.17952],[-46.30615,-21.17966],[-46.30428,-21.17826],[-46.30339,-21.17648],[-46.30204,-21.17504],[-46.30235,-21.16895],[-46.30199,-21.16781],[-46.30147,-21.16463],[-46.30176,-21.1629],[-46.30194,-21.15999],[-46.30134,-21.15671],[-46.2997,-21.15431],[-46.29921,-21.15404],[-46.2969,-21.15405],[-46.29601,-21.15358],[-46.29312,-21.15366],[-46.29229,-21.15327]]]},"properties":{"codigo":"314510905","name":"Nova Resende","population":14414,"households":6903,"areaKm2":297.7913,"density":48.4}},{"type":"Feature","geometry":{"type":"Polygon","coordinates":[[[-46.4574,-20.97373],[-46.4604,-20.97795],[-46.46151,-20.98062],[-46.46146,-20.98324],[-46.46056,-20.98778],[-46.46062,-20.98933],[-46.46127,-20.99116],[-46.46294,-20.99263],[-46.46323,-20.99336],[-46.46283,-20.99461],[-46.46145,-20.99637],[-46.46068,-20.99907],[-46.4601,-20.9998],[-46.45871,-21.00027],[-46.4564,-21.00303],[-46.45571,-21.00505],[-46.45411,-21.00872],[-46.45298,-21.0106],[-46.45149,-21.0125],[-46.44992,-21.01341],[-46.44699,-21.01329],[-46.44627,-21.01362],[-46.44475,-21.01534],[-46.44341,-21.01646],[-46.43927,-21.01779],[-46.43654,-21.01808],[-46.4346,-21.01899],[-46.43328,-21.02016],[-46.43191,-21.02176],[-46.428,-21.02474],[-46.42567,-21.02631],[-46.42507,-21.02713],[-46.4248,-21.02866],[-46.42615,-21.03312],[-46.42613,-21.03433],[-46.4254,-21.03812],[-46.42544,-21.03955],[-46.42593,-21.04083],[-46.42704,-21.04202],[-46.43011,-21.04375],[-46.43161,-21.04524],[-46.43365,-21.04774],[-46.43543,-21.05212],[-46.43608,-21.05435],[-46.43676,-21.05577],[-46.4383,-21.05717],[-46.43536,-21.0574],[-46.43289,-21.05731],[-46.42973,-21.05782],[-46.42869,-21.05832],[-46.42682,-21.05855],[-46.42373,-21.0573],[-46.42271,-21.05746],[-46.4217,-21.05994],[-46.42144,-21.06112],[-46.41974,-21.06251],[-46.41714,-21.06415],[-46.41591,-21.06553],[-46.41515,-21.06714],[-46.41376,-21.06875],[-46.40949,-21.0721],[-46.40777,-21.07261],[-46.40549,-21.07362],[-46.40463,-21.07292],[-46.40402,-21.06959],[-46.40251,-21.06783],[-46.40053,-21.06662],[-46.39826,-21.06637],[-46.3974,-21.0655],[-46.39684,-21.06338],[-46.39721,-21.06123],[-46.39708,-21.05924],[-46.39633,-21.05702],[-46.39515,-21.05597],[-46.39081,-21.0561],[-46.38849,-21.05389],[-46.38693,-21.05264],[-46.38597,-21.05224],[-46.38458,-21.05249],[-46.38314,-21.05395],[-46.38184,-21.05575],[-46.38076,-21.05589],[-46.38008,-21.0547],[-46.377,-21.05588],[-46.37586,-21.05718],[-46.376,-21.05878],[-46.37541,-21.05994],[-46.37346,-21.05994],[-46.37262,-21.06023],[-46.37163,-21.0617],[-46.37123,-21.06329],[-46.37044,-21.06353],[-46.36866,-21.06338],[-46.3659,-21.06464],[-46.36509,-21.06638],[-46.36374,-21.06862],[-46.3607,-21.06942],[-46.35952,-21.06781],[-46.35789,-21.068],[-46.35637,-21.06778],[-46.35528,-21.06796],[-46.35429,-21.06878],[-46.35149,-21.06919],[-46.34891,-21.06862],[-46.34929,-21.06789],[-46.35038,-21.06768],[-46.3539,-21.06614],[-46.35521,-21.06477],[-46.35626,-21.06318],[-46.35661,-21.06071],[-46.35518,-21.0593],[-46.35387,-21.05885],[-46.34842,-21.05623],[-46.34774,-21.05517],[-46.34689,-21.05236],[-46.34671,-21.04982],[-46.34629,-21.04715],[-46.3459,-21.04603],[-46.34602,-21.04352],[-46.34575,-21.04159],[-46.3458,-21.03986],[-46.34626,-21.03879],[-46.34857,-21.03659],[-46.35002,-21.03552],[-46.35075,-21.03394],[-46.35089,-21.03123],[-46.34982,-21.0281],[-46.34984,-21.02651],[-46.35028,-21.02516],[-46.35102,-21.0241],[-46.35411,-21.0222],[-46.35552,-21.02061],[-46.35533,-21.01872],[-46.35482,-21.01777],[-46.35236,-21.01513],[-46.35031,-21.01315],[-46.35065,-21.01237],[-46.35245,-21.01076],[-46.35303,-21.00861],[-46.35248,-21.00561],[-46.35063,-21.00299],[-46.35079,-21.00177],[-46.35139,-21.0002],[-46.35232,-20.99953],[-46.35453,-20.9965],[-46.35626,-20.99295],[-46.357,-20.99207],[-46.3583,-20.9896],[-46.36159,-20.9879],[-46.36461,-20.98823],[-46.36698,-20.98904],[-46.36905,-20.98898],[-46.37572,-20.98519],[-46.3767,-20.98499],[-46.37892,-20.9839],[-46.3849,-20.98157],[-46.39259,-20.98091],[-46.39347,-20.98103],[-46.39848,-20.98098],[-46.39905,-20.98003],[-46.39847,-20.97866],[-46.39524,-20.9738],[-46.39515,-20.97182],[-46.39425,-20.97012],[-46.3943,-20.96942],[-46.39564,-20.96891],[-46.39989,-20.96659],[-46.40308,-20.96529],[-46.40556,-20.96465],[-46.40776,-20.96381],[-46.41078,-20.96216],[-46.4122,-20.96202],[-46.41532,-20.96287],[-46.41625,-20.96288],[-46.41813,-20.96345],[-46.41941,-20.96503],[-46.42209,-20.96768],[-46.42312,-20.96763],[-46.42578,-20.96683],[-46.42699,-20.96684],[-46.42927,-20.96793],[-46.43137,-20.96868],[-46.43481,-20.96887],[-46.43696,-20.96931],[-46.43958,-20.97079],[-46.44157,-20.97262],[-46.44285,-20.97296],[-46.44499,-20.97276],[-46.44831,-20.97271],[-46.45119,-20.97307],[-46.45359,-20.97363],[-46.4574,-20.97373]]]},"properties":{"codigo":"314510910","name":"Petúnia","population":1973,"households":970,"areaKm2":92.3603,"density":21.4}}]}