{"type":"FeatureCollection","features":[{"type":"Feature","geometry":{"type":"Polygon","coordinates":[[[-45.67968,-22.53619],[-45.68009,-22.5354],[-45.68271,-22.53456],[-45.68598,-22.53439],[-45.68655,-22.53421],[-45.6893,-22.53435],[-45.69172,-22.53484],[-45.69325,-22.53483],[-45.69433,-22.53443],[-45.69461,-22.53258],[-45.69617,-22.52934],[-45.69749,-22.52703],[-45.69737,-22.52582],[-45.69596,-22.52386],[-45.69553,-22.52213],[-45.69582,-22.52012],[-45.69814,-22.51617],[-45.69871,-22.51469],[-45.69981,-22.51279],[-45.70139,-22.51112],[-45.7027,-22.5103],[-45.70427,-22.50861],[-45.70475,-22.5072],[-45.7047,-22.50534],[-45.7037,-22.50341],[-45.70273,-22.50256],[-45.70102,-22.50169],[-45.70031,-22.50089],[-45.70009,-22.49942],[-45.70204,-22.50026],[-45.70424,-22.50014],[-45.70546,-22.50089],[-45.70629,-22.50263],[-45.70717,-22.50361],[-45.70868,-22.504],[-45.71137,-22.50351],[-45.71301,-22.50207],[-45.71354,-22.4998],[-45.71469,-22.49827],[-45.71572,-22.49749],[-45.71674,-22.49739],[-45.72016,-22.49546],[-45.72163,-22.49381],[-45.72358,-22.49239],[-45.72591,-22.4916],[-45.72711,-22.4907],[-45.72977,-22.48952],[-45.73122,-22.48952],[-45.73304,-22.48918],[-45.73514,-22.48937],[-45.73642,-22.48977],[-45.73855,-22.4898],[-45.74063,-22.48796],[-45.74187,-22.48741],[-45.74286,-22.48657],[-45.74552,-22.4866],[-45.7472,-22.48594],[-45.74956,-22.4841],[-45.75055,-22.48423],[-45.75169,-22.48381],[-45.75515,-22.48059],[-45.75684,-22.47984],[-45.75844,-22.47982],[-45.75842,-22.4787],[-45.75941,-22.47852],[-45.75929,-22.47756],[-45.76029,-22.47728],[-45.76022,-22.47595],[-45.76097,-22.47548],[-45.7613,-22.47406],[-45.76252,-22.47199],[-45.76333,-22.47106],[-45.76325,-22.4699],[-45.76613,-22.46853],[-45.76812,-22.46719],[-45.77035,-22.4671],[-45.7719,-22.4663],[-45.77294,-22.46615],[-45.77398,-22.46655],[-45.7756,-22.46774],[-45.77716,-22.46854],[-45.77859,-22.46972],[-45.77973,-22.47181],[-45.78086,-22.47492],[-45.78231,-22.47752],[-45.78284,-22.47909],[-45.78298,-22.48266],[-45.7839,-22.4858],[-45.78497,-22.48832],[-45.78606,-22.48954],[-45.78782,-22.49097],[-45.79098,-22.49288],[-45.79225,-22.49381],[-45.79344,-22.49425],[-45.79427,-22.49411],[-45.79572,-22.49263],[-45.79771,-22.49144],[-45.79884,-22.491],[-45.80168,-22.49114],[-45.80372,-22.49202],[-45.80939,-22.4941],[-45.81109,-22.49487],[-45.81322,-22.49644],[-45.81495,-22.49821],[-45.816,-22.49963],[-45.81619,-22.50134],[-45.817,-22.50292],[-45.81829,-22.5062],[-45.82126,-22.50821],[-45.82284,-22.50879],[-45.82474,-22.50917],[-45.82647,-22.50907],[-45.8276,-22.5083],[-45.83244,-22.50429],[-45.83397,-22.5034],[-45.83748,-22.50219],[-45.8398,-22.50162],[-45.84213,-22.49977],[-45.84289,-22.49578],[-45.84392,-22.49415],[-45.84851,-22.49214],[-45.8494,-22.49155],[-45.85079,-22.48991],[-45.85217,-22.48907],[-45.85362,-22.48878],[-45.85401,-22.49053],[-45.85492,-22.48983],[-45.85589,-22.4899],[-45.85621,-22.49077],[-45.85765,-22.49077],[-45.85907,-22.49021],[-45.86047,-22.49079],[-45.86143,-22.49213],[-45.86148,-22.49285],[-45.86346,-22.49387],[-45.86391,-22.49443],[-45.86364,-22.49552],[-45.86425,-22.49664],[-45.86525,-22.49591],[-45.8669,-22.4973],[-45.86753,-22.49676],[-45.86875,-22.49685],[-45.86922,-22.49806],[-45.87106,-22.49766],[-45.87281,-22.49765],[-45.87273,-22.49602],[-45.87436,-22.49696],[-45.87513,-22.497],[-45.87585,-22.49776],[-45.87766,-22.49684],[-45.87885,-22.49684],[-45.8795,-22.49829],[-45.88045,-22.4976],[-45.88106,-22.49876],[-45.882,-22.49917],[-45.8833,-22.50035],[-45.8833,-22.50176],[-45.88265,-22.50249],[-45.88346,-22.50305],[-45.8824,-22.50491],[-45.88201,-22.50734],[-45.88233,-22.50819],[-45.88062,-22.50989],[-45.88013,-22.51107],[-45.88041,-22.51173],[-45.8775,-22.51339],[-45.87684,-22.51427],[-45.8762,-22.51603],[-45.87534,-22.51657],[-45.87557,-22.51762],[-45.87501,-22.51834],[-45.87585,-22.51983],[-45.87501,-22.52081],[-45.87524,-22.5217],[-45.87429,-22.52221],[-45.87323,-22.52159],[-45.87202,-22.52242],[-45.8708,-22.52369],[-45.87104,-22.52555],[-45.87078,-22.52663],[-45.87219,-22.52749],[-45.87234,-22.5284],[-45.87416,-22.52797],[-45.87496,-22.52847],[-45.87476,-22.5293],[-45.8763,-22.531],[-45.87761,-22.53097],[-45.87811,-22.53187],[-45.87902,-22.53132],[-45.87991,-22.53357],[-45.87965,-22.53457],[-45.87886,-22.53504],[-45.87762,-22.53664],[-45.87645,-22.53536],[-45.87532,-22.53493],[-45.87448,-22.53589],[-45.87497,-22.53689],[-45.87322,-22.53734],[-45.87272,-22.53872],[-45.87335,-22.54023],[-45.87442,-22.53999],[-45.87616,-22.54024],[-45.87586,-22.54133],[-45.87671,-22.54214],[-45.87768,-22.54216],[-45.87873,-22.54279],[-45.87861,-22.54417],[-45.87959,-22.54589],[-45.87883,-22.54683],[-45.87942,-22.54767],[-45.8797,-22.54889],[-45.87907,-22.5492],[-45.87998,-22.55104],[-45.87996,-22.55204],[-45.87902,-22.5529],[-45.87779,-22.55302],[-45.87712,-22.55373],[-45.8774,-22.55458],[-45.87845,-22.55529],[-45.88119,-22.55567],[-45.88168,-22.55664],[-45.88147,-22.55853],[-45.88097,-22.56032],[-45.88145,-22.56111],[-45.88152,-22.5623],[-45.88276,-22.56234],[-45.88365,-22.56186],[-45.88432,-22.56304],[-45.88595,-22.56283],[-45.88712,-22.5634],[-45.88955,-22.56361],[-45.88967,-22.56573],[-45.89123,-22.56667],[-45.89097,-22.56793],[-45.89123,-22.56956],[-45.89295,-22.57141],[-45.89293,-22.57404],[-45.89354,-22.57514],[-45.89422,-22.57508],[-45.89425,-22.57696],[-45.89479,-22.57938],[-45.89588,-22.58246],[-45.89617,-22.58372],[-45.89554,-22.58453],[-45.89752,-22.58484],[-45.89844,-22.58434],[-45.89853,-22.58365],[-45.90051,-22.58326],[-45.90276,-22.58377],[-45.90336,-22.5843],[-45.90482,-22.58359],[-45.90547,-22.58392],[-45.90485,-22.58552],[-45.90301,-22.58698],[-45.90233,-22.58818],[-45.90009,-22.58824],[-45.89839,-22.58898],[-45.89812,-22.59006],[-45.89793,-22.59182],[-45.89693,-22.59192],[-45.89615,-22.59283],[-45.89503,-22.59238],[-45.89443,-22.59082],[-45.89309,-22.59176],[-45.89109,-22.59262],[-45.89003,-22.59256],[-45.88828,-22.5932],[-45.88814,-22.59405],[-45.88632,-22.59482],[-45.8852,-22.59608],[-45.88341,-22.59666],[-45.88321,-22.59801],[-45.88352,-22.60015],[-45.88528,-22.6007],[-45.88636,-22.60205],[-45.88647,-22.60389],[-45.88371,-22.60639],[-45.88317,-22.60601],[-45.8776,-22.60807],[-45.87637,-22.60903],[-45.87456,-22.6112],[-45.87173,-22.61226],[-45.86934,-22.61345],[-45.86844,-22.61429],[-45.86815,-22.6165],[-45.8692,-22.61952],[-45.86938,-22.62081],[-45.86882,-22.62198],[-45.86774,-22.62236],[-45.86498,-22.62041],[-45.86338,-22.62038],[-45.86167,-22.62086],[-45.85919,-22.62236],[-45.85747,-22.62266],[-45.85589,-22.62372],[-45.85388,-22.62388],[-45.8517,-22.62537],[-45.85024,-22.62583],[-45.84732,-22.6259],[-45.8447,-22.62643],[-45.84179,-22.62748],[-45.83916,-22.62862],[-45.83803,-22.6286],[-45.83548,-22.62725],[-45.83431,-22.62583],[-45.8318,-22.62416],[-45.83017,-22.62393],[-45.82919,-22.62336],[-45.8293,-22.62078],[-45.82727,-22.61864],[-45.82631,-22.61719],[-45.82383,-22.61528],[-45.82047,-22.61552],[-45.81747,-22.61441],[-45.81476,-22.61302],[-45.81171,-22.61229],[-45.80953,-22.61134],[-45.80768,-22.61163],[-45.80442,-22.61311],[-45.80254,-22.6132],[-45.80033,-22.61305],[-45.79559,-22.61361],[-45.79401,-22.61396],[-45.79073,-22.61602],[-45.78929,-22.61712],[-45.78622,-22.61729],[-45.78462,-22.61768],[-45.77994,-22.61724],[-45.77773,-22.61769],[-45.77582,-22.61873],[-45.7739,-22.61894],[-45.77263,-22.61849],[-45.77121,-22.6173],[-45.76988,-22.61733],[-45.76834,-22.618],[-45.76622,-22.61983],[-45.76271,-22.62069],[-45.76148,-22.62362],[-45.75981,-22.62403],[-45.75822,-22.62355],[-45.75665,-22.62385],[-45.75145,-22.62389],[-45.74827,-22.62505],[-45.74698,-22.62485],[-45.74394,-22.62234],[-45.74253,-22.62151],[-45.7412,-22.62117],[-45.73967,-22.62122],[-45.73796,-22.6216],[-45.73578,-22.6215],[-45.73339,-22.61997],[-45.73004,-22.61875],[-45.7298,-22.61324],[-45.73071,-22.61188],[-45.73669,-22.61015],[-45.73743,-22.60854],[-45.73512,-22.60358],[-45.73466,-22.60166],[-45.73503,-22.59929],[-45.7346,-22.59745],[-45.73369,-22.59663],[-45.73099,-22.59534],[-45.72759,-22.59433],[-45.72869,-22.59323],[-45.72925,-22.59157],[-45.72871,-22.59015],[-45.72679,-22.58702],[-45.72077,-22.58552],[-45.7172,-22.58211],[-45.71719,-22.5808],[-45.71888,-22.57875],[-45.71845,-22.57799],[-45.71684,-22.5777],[-45.71577,-22.57808],[-45.71357,-22.57954],[-45.70869,-22.58009],[-45.70548,-22.58122],[-45.70178,-22.58514],[-45.69876,-22.58597],[-45.69544,-22.58634],[-45.69366,-22.58536],[-45.69026,-22.58129],[-45.68544,-22.57761],[-45.68394,-22.57591],[-45.67972,-22.57342],[-45.67872,-22.57329],[-45.68013,-22.57187],[-45.68375,-22.57094],[-45.68699,-22.56929],[-45.68762,-22.5681],[-45.68797,-22.56167],[-45.68719,-22.55916],[-45.68594,-22.55707],[-45.68429,-22.55321],[-45.68309,-22.55105],[-45.68306,-22.54946],[-45.68348,-22.5477],[-45.6828,-22.5462],[-45.68113,-22.54402],[-45.68092,-22.54184],[-45.68012,-22.53926],[-45.68005,-22.53768],[-45.67968,-22.53619]]]},"properties":{"codigo":"314730305","name":"Paraisópolis","population":19264,"households":9775,"areaKm2":262.4578,"density":73.4}},{"type":"Feature","geometry":{"type":"Polygon","coordinates":[[[-45.94912,-22.69435],[-45.94719,-22.69405],[-45.94422,-22.69394],[-45.94175,-22.69401],[-45.93921,-22.69384],[-45.93454,-22.69436],[-45.9331,-22.69341],[-45.93146,-22.69105],[-45.93081,-22.69064],[-45.92863,-22.69049],[-45.92802,-22.68957],[-45.92723,-22.68739],[-45.92542,-22.6865],[-45.92372,-22.68637],[-45.92166,-22.68722],[-45.91901,-22.68729],[-45.91739,-22.68687],[-45.91416,-22.68507],[-45.91289,-22.68539],[-45.91022,-22.6873],[-45.90915,-22.68724],[-45.9082,-22.68672],[-45.90711,-22.68529],[-45.90461,-22.68512],[-45.90286,-22.68475],[-45.89938,-22.68325],[-45.89738,-22.68187],[-45.89584,-22.68168],[-45.89414,-22.681],[-45.89219,-22.67953],[-45.88977,-22.67704],[-45.88809,-22.67639],[-45.88571,-22.67604],[-45.88475,-22.67511],[-45.88316,-22.67228],[-45.88221,-22.67098],[-45.8794,-22.67007],[-45.87727,-22.66726],[-45.87799,-22.66488],[-45.87804,-22.66272],[-45.87702,-22.6604],[-45.87739,-22.65957],[-45.87964,-22.65768],[-45.88222,-22.65648],[-45.88323,-22.65479],[-45.88241,-22.65267],[-45.88246,-22.65194],[-45.88356,-22.65037],[-45.88508,-22.649],[-45.88694,-22.64832],[-45.88912,-22.64726],[-45.88974,-22.64673],[-45.89283,-22.64542],[-45.89279,-22.64441],[-45.89058,-22.64288],[-45.88854,-22.64218],[-45.88719,-22.64219],[-45.88646,-22.6415],[-45.8831,-22.64128],[-45.88229,-22.64071],[-45.88083,-22.63898],[-45.8797,-22.63845],[-45.87885,-22.63725],[-45.87914,-22.63656],[-45.87813,-22.63439],[-45.87679,-22.63369],[-45.87576,-22.63367],[-45.8738,-22.63307],[-45.8723,-22.63223],[-45.87078,-22.632],[-45.8702,-22.63122],[-45.87025,-22.6303],[-45.87318,-22.6277],[-45.87625,-22.62605],[-45.87698,-22.62602],[-45.87892,-22.62462],[-45.87993,-22.62422],[-45.88041,-22.62289],[-45.87988,-22.62175],[-45.87996,-22.6191],[-45.87968,-22.61746],[-45.87863,-22.61614],[-45.87891,-22.61525],[-45.88082,-22.61491],[-45.88095,-22.61394],[-45.8831,-22.61324],[-45.8838,-22.61201],[-45.88308,-22.6106],[-45.88323,-22.60892],[-45.88317,-22.60601],[-45.88371,-22.60639],[-45.88647,-22.60389],[-45.88636,-22.60205],[-45.88528,-22.6007],[-45.88352,-22.60015],[-45.88321,-22.59801],[-45.88341,-22.59666],[-45.8852,-22.59608],[-45.88632,-22.59482],[-45.88814,-22.59405],[-45.88828,-22.5932],[-45.89003,-22.59256],[-45.89109,-22.59262],[-45.89309,-22.59176],[-45.89443,-22.59082],[-45.89503,-22.59238],[-45.89615,-22.59283],[-45.89693,-22.59192],[-45.89793,-22.59182],[-45.89812,-22.59006],[-45.89942,-22.59086],[-45.90008,-22.5917],[-45.901,-22.59441],[-45.90159,-22.59754],[-45.90267,-22.60039],[-45.90432,-22.60165],[-45.9058,-22.60112],[-45.9073,-22.60005],[-45.90886,-22.59931],[-45.91201,-22.59914],[-45.91356,-22.59995],[-45.91507,-22.60187],[-45.91639,-22.6031],[-45.91828,-22.6032],[-45.91927,-22.60276],[-45.92062,-22.60271],[-45.92207,-22.60174],[-45.92395,-22.60115],[-45.92632,-22.60105],[-45.92865,-22.60006],[-45.92998,-22.598],[-45.93107,-22.59739],[-45.93373,-22.59721],[-45.93591,-22.59647],[-45.93747,-22.5952],[-45.93874,-22.59314],[-45.9402,-22.59166],[-45.94182,-22.59107],[-45.94305,-22.58955],[-45.94341,-22.5874],[-45.94494,-22.58677],[-45.95154,-22.58763],[-45.95224,-22.58815],[-45.953,-22.58972],[-45.95199,-22.59138],[-45.95194,-22.59329],[-45.95282,-22.59458],[-45.95384,-22.59545],[-45.95437,-22.59647],[-45.95436,-22.59944],[-45.95414,-22.60106],[-45.95483,-22.60219],[-45.95604,-22.60305],[-45.96097,-22.60159],[-45.96278,-22.60182],[-45.96337,-22.60272],[-45.96325,-22.60372],[-45.96137,-22.60531],[-45.96064,-22.60657],[-45.96071,-22.60825],[-45.96126,-22.60937],[-45.96152,-22.6108],[-45.96147,-22.61376],[-45.96168,-22.61446],[-45.96336,-22.61724],[-45.96198,-22.61768],[-45.96025,-22.61685],[-45.95813,-22.61656],[-45.95553,-22.61767],[-45.95331,-22.61916],[-45.95234,-22.61954],[-45.95138,-22.62086],[-45.95049,-22.62332],[-45.94905,-22.62644],[-45.94401,-22.62922],[-45.94128,-22.63127],[-45.93975,-22.63302],[-45.93815,-22.63682],[-45.9387,-22.63841],[-45.93913,-22.64175],[-45.93865,-22.64299],[-45.93783,-22.64352],[-45.93456,-22.64412],[-45.93373,-22.64412],[-45.93241,-22.64506],[-45.93172,-22.64696],[-45.93207,-22.64823],[-45.93286,-22.64908],[-45.93527,-22.6502],[-45.93625,-22.65145],[-45.93619,-22.6524],[-45.93527,-22.65362],[-45.93508,-22.65467],[-45.9355,-22.6554],[-45.93751,-22.65673],[-45.93796,-22.65948],[-45.93949,-22.66232],[-45.94139,-22.66358],[-45.94403,-22.66394],[-45.9478,-22.66506],[-45.94819,-22.66579],[-45.94823,-22.66941],[-45.94966,-22.67277],[-45.94935,-22.67428],[-45.947,-22.67537],[-45.94649,-22.67676],[-45.94713,-22.67777],[-45.95054,-22.68064],[-45.9523,-22.68272],[-45.95444,-22.6837],[-45.95605,-22.68471],[-45.95707,-22.68569],[-45.95848,-22.68836],[-45.95902,-22.69076],[-45.95872,-22.69167],[-45.95621,-22.69224],[-45.95406,-22.69236],[-45.95044,-22.6933],[-45.94912,-22.69435]]]},"properties":{"codigo":"314730310","name":"Costas","population":1181,"households":830,"areaKm2":68.7798,"density":17.2}}]}