{"type":"FeatureCollection","features":[{"type":"Feature","geometry":{"type":"Polygon","coordinates":[[[-44.53911,-19.89712],[-44.54083,-19.89302],[-44.54275,-19.891],[-44.54363,-19.88848],[-44.54356,-19.8862],[-44.54271,-19.88334],[-44.54333,-19.88123],[-44.54716,-19.87734],[-44.54794,-19.8762],[-44.54804,-19.87457],[-44.54856,-19.87319],[-44.55151,-19.87174],[-44.55272,-19.87093],[-44.55403,-19.86857],[-44.55354,-19.86507],[-44.55295,-19.86303],[-44.55382,-19.86206],[-44.55616,-19.86101],[-44.55973,-19.85605],[-44.56095,-19.85468],[-44.56208,-19.85322],[-44.56356,-19.85021],[-44.56575,-19.84655],[-44.56663,-19.84314],[-44.56751,-19.84143],[-44.56907,-19.84013],[-44.57072,-19.83843],[-44.57314,-19.83836],[-44.57641,-19.83846],[-44.57919,-19.8357],[-44.58076,-19.83359],[-44.58216,-19.83034],[-44.58322,-19.82725],[-44.58445,-19.82416],[-44.58688,-19.82124],[-44.59181,-19.81921],[-44.59554,-19.81736],[-44.59866,-19.81396],[-44.59903,-19.81103],[-44.59818,-19.80907],[-44.59699,-19.80548],[-44.59615,-19.80238],[-44.59807,-19.79897],[-44.59822,-19.7954],[-44.5989,-19.79471],[-44.59975,-19.7923],[-44.60039,-19.79164],[-44.60585,-19.79],[-44.60712,-19.78931],[-44.60817,-19.78809],[-44.60834,-19.78667],[-44.6082,-19.78508],[-44.6075,-19.78313],[-44.60607,-19.78101],[-44.6059,-19.78009],[-44.60717,-19.77798],[-44.61038,-19.77551],[-44.61138,-19.77438],[-44.61211,-19.77218],[-44.61304,-19.77101],[-44.61457,-19.77002],[-44.6164,-19.76817],[-44.61786,-19.76615],[-44.61923,-19.76284],[-44.61887,-19.76091],[-44.61691,-19.75829],[-44.61647,-19.75744],[-44.6165,-19.75596],[-44.61808,-19.75328],[-44.61921,-19.74977],[-44.6215,-19.74711],[-44.62172,-19.74495],[-44.62126,-19.74315],[-44.61979,-19.74055],[-44.61841,-19.73885],[-44.6182,-19.73689],[-44.61922,-19.73471],[-44.62085,-19.73281],[-44.62331,-19.73171],[-44.62586,-19.73103],[-44.6286,-19.7312],[-44.631,-19.73178],[-44.63297,-19.73143],[-44.63515,-19.73052],[-44.63729,-19.7289],[-44.63767,-19.73154],[-44.63949,-19.73559],[-44.63948,-19.73756],[-44.63989,-19.73834],[-44.64309,-19.74017],[-44.64641,-19.74045],[-44.64836,-19.74006],[-44.65173,-19.7391],[-44.65387,-19.73913],[-44.65712,-19.74024],[-44.66027,-19.74073],[-44.666,-19.7403],[-44.66857,-19.74079],[-44.67012,-19.74142],[-44.67153,-19.74241],[-44.6747,-19.74508],[-44.67623,-19.74609],[-44.67778,-19.74816],[-44.67838,-19.75042],[-44.67881,-19.75497],[-44.68151,-19.76283],[-44.68255,-19.76449],[-44.68359,-19.7651],[-44.68437,-19.76615],[-44.68468,-19.76753],[-44.68563,-19.76854],[-44.68623,-19.76785],[-44.68754,-19.76815],[-44.68781,-19.76907],[-44.68695,-19.77173],[-44.68795,-19.77353],[-44.68882,-19.77378],[-44.69011,-19.7731],[-44.69156,-19.77285],[-44.69329,-19.77368],[-44.69462,-19.77584],[-44.69379,-19.77701],[-44.69364,-19.77791],[-44.69483,-19.77963],[-44.69633,-19.78106],[-44.69834,-19.78338],[-44.69924,-19.78368],[-44.69982,-19.78297],[-44.70077,-19.78279],[-44.70244,-19.78387],[-44.70336,-19.78399],[-44.70785,-19.78636],[-44.70724,-19.78809],[-44.70763,-19.78917],[-44.70663,-19.78903],[-44.70583,-19.78951],[-44.70539,-19.79093],[-44.70413,-19.79187],[-44.70422,-19.79272],[-44.70497,-19.7933],[-44.70529,-19.79431],[-44.7048,-19.79514],[-44.70351,-19.79594],[-44.70339,-19.79693],[-44.70375,-19.79828],[-44.70241,-19.80028],[-44.70081,-19.80076],[-44.70027,-19.80212],[-44.69901,-19.80289],[-44.69757,-19.80319],[-44.69672,-19.80282],[-44.69638,-19.80374],[-44.69674,-19.80471],[-44.69669,-19.80618],[-44.69579,-19.80661],[-44.6946,-19.80585],[-44.69463,-19.80408],[-44.69405,-19.80341],[-44.69024,-19.80456],[-44.68876,-19.804],[-44.68793,-19.80446],[-44.68518,-19.80809],[-44.68396,-19.80887],[-44.68304,-19.81059],[-44.68354,-19.81194],[-44.68345,-19.81284],[-44.68233,-19.81415],[-44.68266,-19.81509],[-44.68422,-19.81636],[-44.68606,-19.81875],[-44.68736,-19.82006],[-44.6877,-19.82107],[-44.68751,-19.82241],[-44.68957,-19.82317],[-44.69044,-19.82434],[-44.6942,-19.82571],[-44.6965,-19.82695],[-44.69796,-19.82746],[-44.69998,-19.82608],[-44.70093,-19.82588],[-44.70182,-19.82625],[-44.70235,-19.82958],[-44.70206,-19.83091],[-44.70279,-19.83163],[-44.70443,-19.83413],[-44.70477,-19.83701],[-44.70515,-19.83836],[-44.70488,-19.83983],[-44.70529,-19.84062],[-44.70622,-19.84108],[-44.70877,-19.84069],[-44.71044,-19.8398],[-44.71139,-19.83863],[-44.71307,-19.83762],[-44.71438,-19.83735],[-44.71591,-19.83739],[-44.71737,-19.83835],[-44.71591,-19.83859],[-44.7152,-19.83994],[-44.71411,-19.84125],[-44.70885,-19.84646],[-44.70814,-19.84827],[-44.70862,-19.85122],[-44.70845,-19.85253],[-44.70881,-19.85388],[-44.70784,-19.85567],[-44.70798,-19.85875],[-44.70766,-19.85965],[-44.70632,-19.86167],[-44.70639,-19.86316],[-44.70726,-19.86436],[-44.70741,-19.86583],[-44.70782,-19.86666],[-44.7092,-19.86707],[-44.71087,-19.86878],[-44.71215,-19.87342],[-44.71266,-19.87427],[-44.71392,-19.87501],[-44.71768,-19.87812],[-44.71914,-19.87807],[-44.72014,-19.87771],[-44.72108,-19.8784],[-44.72142,-19.87934],[-44.723,-19.8796],[-44.72361,-19.87889],[-44.7255,-19.87962],[-44.72739,-19.88179],[-44.72892,-19.88186],[-44.72928,-19.88319],[-44.73087,-19.88398],[-44.73117,-19.88489],[-44.72775,-19.88544],[-44.72318,-19.88518],[-44.72168,-19.88559],[-44.72092,-19.88637],[-44.71808,-19.88471],[-44.71611,-19.88453],[-44.71118,-19.88558],[-44.70933,-19.88638],[-44.70652,-19.88522],[-44.70528,-19.88435],[-44.7016,-19.8805],[-44.70038,-19.87944],[-44.699,-19.87884],[-44.69611,-19.87677],[-44.69497,-19.87527],[-44.69335,-19.8747],[-44.69204,-19.87327],[-44.68915,-19.87152],[-44.68748,-19.86995],[-44.68646,-19.86995],[-44.68578,-19.87131],[-44.68575,-19.87284],[-44.68686,-19.87613],[-44.68589,-19.87714],[-44.68173,-19.87707],[-44.68093,-19.87764],[-44.68076,-19.87856],[-44.68255,-19.88022],[-44.6826,-19.88123],[-44.68172,-19.88178],[-44.68004,-19.88359],[-44.67829,-19.8851],[-44.67661,-19.8862],[-44.67479,-19.88794],[-44.67437,-19.88925],[-44.67434,-19.89084],[-44.67337,-19.89263],[-44.67203,-19.89327],[-44.67033,-19.89352],[-44.6679,-19.89285],[-44.66635,-19.89269],[-44.66355,-19.89362],[-44.66214,-19.89323],[-44.65977,-19.89152],[-44.65872,-19.89145],[-44.65838,-19.89276],[-44.65998,-19.89463],[-44.66005,-19.89555],[-44.6589,-19.89851],[-44.6586,-19.90101],[-44.65741,-19.90319],[-44.6558,-19.90466],[-44.65451,-19.9062],[-44.65402,-19.9076],[-44.65425,-19.91109],[-44.65403,-19.91217],[-44.65301,-19.9126],[-44.6516,-19.91262],[-44.64961,-19.91232],[-44.64842,-19.91328],[-44.6472,-19.9153],[-44.64637,-19.91595],[-44.64527,-19.91764],[-44.64515,-19.91902],[-44.6458,-19.92075],[-44.64556,-19.92169],[-44.64463,-19.92281],[-44.64368,-19.92318],[-44.63984,-19.92358],[-44.63848,-19.92441],[-44.63826,-19.92576],[-44.64107,-19.92837],[-44.64177,-19.93195],[-44.64167,-19.93252],[-44.64108,-19.93377],[-44.6394,-19.93618],[-44.63765,-19.93755],[-44.6348,-19.93918],[-44.63322,-19.93959],[-44.63118,-19.93942],[-44.62965,-19.9399],[-44.62756,-19.94006],[-44.62661,-19.9407],[-44.6257,-19.94191],[-44.62548,-19.94295],[-44.62449,-19.94345],[-44.62337,-19.94313],[-44.62242,-19.94207],[-44.6215,-19.94027],[-44.6209,-19.93834],[-44.62086,-19.93683],[-44.62042,-19.93606],[-44.61879,-19.93572],[-44.61789,-19.93606],[-44.61672,-19.93714],[-44.61494,-19.94049],[-44.6129,-19.94287],[-44.6108,-19.94423],[-44.60939,-19.94491],[-44.60788,-19.94521],[-44.60676,-19.94578],[-44.60632,-19.94736],[-44.6051,-19.94901],[-44.60435,-19.94961],[-44.60249,-19.95195],[-44.60178,-19.95441],[-44.60127,-19.95516],[-44.59971,-19.95647],[-44.59876,-19.95663],[-44.59709,-19.95545],[-44.59422,-19.95533],[-44.59279,-19.95595],[-44.58994,-19.95636],[-44.58695,-19.95722],[-44.58517,-19.95823],[-44.58356,-19.9605],[-44.58091,-19.96148],[-44.57858,-19.96198],[-44.57644,-19.96283],[-44.57422,-19.96491],[-44.57293,-19.96688],[-44.57304,-19.96833],[-44.57248,-19.96971],[-44.57225,-19.97221],[-44.56943,-19.97515],[-44.56853,-19.97544],[-44.56736,-19.97386],[-44.56479,-19.97213],[-44.5629,-19.9721],[-44.56034,-19.97361],[-44.55886,-19.97376],[-44.55777,-19.97349],[-44.55674,-19.97397],[-44.55654,-19.97659],[-44.55719,-19.9784],[-44.5566,-19.97976],[-44.55527,-19.98042],[-44.55434,-19.98152],[-44.55419,-19.98336],[-44.55314,-19.98402],[-44.55263,-19.98542],[-44.55257,-19.98696],[-44.55162,-19.98744],[-44.54879,-19.98367],[-44.54728,-19.98355],[-44.54644,-19.98302],[-44.54634,-19.98212],[-44.54834,-19.98109],[-44.54924,-19.9793],[-44.54896,-19.97732],[-44.54908,-19.97631],[-44.54984,-19.97507],[-44.5497,-19.97298],[-44.5506,-19.97191],[-44.55,-19.97059],[-44.54997,-19.96956],[-44.54857,-19.96937],[-44.54614,-19.96865],[-44.54473,-19.96794],[-44.54188,-19.96742],[-44.54138,-19.9663],[-44.53857,-19.96197],[-44.5365,-19.95833],[-44.535,-19.95617],[-44.53325,-19.95421],[-44.53235,-19.9537],[-44.53082,-19.95372],[-44.52713,-19.95309],[-44.52665,-19.95212],[-44.52658,-19.94921],[-44.52716,-19.94452],[-44.5266,-19.94309],[-44.52469,-19.94063],[-44.52435,-19.93971],[-44.52412,-19.93667],[-44.52315,-19.93495],[-44.52143,-19.93304],[-44.52086,-19.93131],[-44.52123,-19.92947],[-44.52348,-19.9242],[-44.52261,-19.92047],[-44.52287,-19.9182],[-44.52328,-19.91659],[-44.52484,-19.91455],[-44.52572,-19.91285],[-44.52653,-19.91232],[-44.52852,-19.91226],[-44.52949,-19.91199],[-44.52972,-19.91013],[-44.53013,-19.90875],[-44.53121,-19.90753],[-44.53318,-19.90747],[-44.53395,-19.90685],[-44.53481,-19.90513],[-44.53754,-19.90358],[-44.54005,-19.90073],[-44.54044,-19.89986],[-44.5411,-19.89706],[-44.53911,-19.89712]]]},"properties":{"codigo":"314710505","name":"Pará de Minas","population":89645,"households":37605,"areaKm2":283.8983,"density":315.8}},{"type":"Feature","geometry":{"type":"Polygon","coordinates":[[[-44.56095,-19.85468],[-44.56062,-19.85239],[-44.56029,-19.84873],[-44.55963,-19.84547],[-44.55757,-19.84269],[-44.55594,-19.84122],[-44.55465,-19.84048],[-44.55284,-19.84039],[-44.54662,-19.84191],[-44.54481,-19.84125],[-44.54189,-19.83952],[-44.54052,-19.83805],[-44.5395,-19.83601],[-44.53821,-19.83429],[-44.53392,-19.83159],[-44.53272,-19.83028],[-44.53258,-19.8291],[-44.53107,-19.82793],[-44.5305,-19.8263],[-44.52919,-19.82531],[-44.52786,-19.82498],[-44.52526,-19.8257],[-44.51696,-19.83134],[-44.51383,-19.83182],[-44.51267,-19.831],[-44.51,-19.83031],[-44.5091,-19.82935],[-44.50742,-19.82947],[-44.50605,-19.82826],[-44.50407,-19.82721],[-44.5036,-19.82605],[-44.50189,-19.82423],[-44.49978,-19.82334],[-44.49893,-19.82129],[-44.49824,-19.82024],[-44.49957,-19.81914],[-44.49993,-19.81708],[-44.50084,-19.81592],[-44.50305,-19.80954],[-44.50478,-19.80752],[-44.50675,-19.80652],[-44.5078,-19.80553],[-44.50829,-19.80459],[-44.50987,-19.80356],[-44.51019,-19.80264],[-44.51037,-19.79766],[-44.51088,-19.79685],[-44.5121,-19.79587],[-44.5131,-19.79571],[-44.51394,-19.79626],[-44.51467,-19.79744],[-44.51581,-19.79838],[-44.51675,-19.79816],[-44.51831,-19.79671],[-44.52028,-19.79686],[-44.52156,-19.79746],[-44.52307,-19.79744],[-44.52492,-19.79703],[-44.5263,-19.79605],[-44.52755,-19.79382],[-44.52964,-19.7916],[-44.53147,-19.79004],[-44.5328,-19.78954],[-44.53594,-19.78961],[-44.53946,-19.78939],[-44.54279,-19.78865],[-44.54454,-19.78662],[-44.54458,-19.78484],[-44.54577,-19.78291],[-44.54573,-19.78213],[-44.54651,-19.77814],[-44.54743,-19.77677],[-44.54798,-19.77484],[-44.54807,-19.77319],[-44.54912,-19.77168],[-44.55041,-19.76728],[-44.55018,-19.76658],[-44.55166,-19.7664],[-44.55448,-19.7674],[-44.55712,-19.7694],[-44.5576,-19.77021],[-44.56031,-19.77173],[-44.56133,-19.77275],[-44.56322,-19.77206],[-44.5642,-19.77105],[-44.5657,-19.77067],[-44.5666,-19.77115],[-44.56691,-19.77214],[-44.5665,-19.77345],[-44.56669,-19.77487],[-44.56637,-19.77577],[-44.56537,-19.77685],[-44.56503,-19.77776],[-44.5673,-19.78136],[-44.56837,-19.78246],[-44.57258,-19.78599],[-44.57445,-19.78707],[-44.57767,-19.78864],[-44.58143,-19.78987],[-44.58248,-19.78962],[-44.58549,-19.78997],[-44.58713,-19.79089],[-44.58813,-19.79216],[-44.58936,-19.79295],[-44.5904,-19.79318],[-44.59232,-19.79291],[-44.59334,-19.79314],[-44.59666,-19.79508],[-44.59822,-19.7954],[-44.59807,-19.79897],[-44.59615,-19.80238],[-44.59699,-19.80548],[-44.59818,-19.80907],[-44.59903,-19.81103],[-44.59866,-19.81396],[-44.59554,-19.81736],[-44.59181,-19.81921],[-44.58688,-19.82124],[-44.58445,-19.82416],[-44.58322,-19.82725],[-44.58216,-19.83034],[-44.58076,-19.83359],[-44.57919,-19.8357],[-44.57641,-19.83846],[-44.57314,-19.83836],[-44.57072,-19.83843],[-44.56907,-19.84013],[-44.56751,-19.84143],[-44.56663,-19.84314],[-44.56575,-19.84655],[-44.56356,-19.85021],[-44.56208,-19.85322],[-44.56095,-19.85468]]]},"properties":{"codigo":"314710510","name":"Ascensão","population":2586,"households":1069,"areaKm2":50.182,"density":51.5}},{"type":"Feature","geometry":{"type":"Polygon","coordinates":[[[-44.78593,-19.85818],[-44.78082,-19.85863],[-44.77846,-19.85907],[-44.77747,-19.85895],[-44.77545,-19.85686],[-44.77371,-19.85424],[-44.7707,-19.85113],[-44.7683,-19.85028],[-44.76572,-19.85128],[-44.76266,-19.85298],[-44.76077,-19.85233],[-44.75914,-19.85107],[-44.75817,-19.85097],[-44.75642,-19.85207],[-44.75494,-19.85232],[-44.75261,-19.85182],[-44.75137,-19.85101],[-44.74996,-19.85119],[-44.74768,-19.85206],[-44.74661,-19.85178],[-44.74591,-19.85054],[-44.7461,-19.8479],[-44.74652,-19.84627],[-44.74652,-19.84431],[-44.74607,-19.84103],[-44.7451,-19.83887],[-44.74423,-19.83868],[-44.74294,-19.84013],[-44.74152,-19.84251],[-44.73992,-19.84403],[-44.73561,-19.84673],[-44.73323,-19.84788],[-44.73224,-19.84811],[-44.72837,-19.8481],[-44.72629,-19.84764],[-44.72585,-19.84722],[-44.72537,-19.84472],[-44.72474,-19.84396],[-44.72336,-19.84331],[-44.72234,-19.84345],[-44.7203,-19.84322],[-44.71933,-19.84225],[-44.71875,-19.84041],[-44.71737,-19.83835],[-44.71591,-19.83739],[-44.71438,-19.83735],[-44.71307,-19.83762],[-44.71139,-19.83863],[-44.71044,-19.8398],[-44.70877,-19.84069],[-44.70622,-19.84108],[-44.70529,-19.84062],[-44.70488,-19.83983],[-44.70515,-19.83836],[-44.70477,-19.83701],[-44.70443,-19.83413],[-44.70279,-19.83163],[-44.70206,-19.83091],[-44.70235,-19.82958],[-44.70182,-19.82625],[-44.70093,-19.82588],[-44.69998,-19.82608],[-44.69796,-19.82746],[-44.6965,-19.82695],[-44.6942,-19.82571],[-44.69044,-19.82434],[-44.68957,-19.82317],[-44.68751,-19.82241],[-44.6877,-19.82107],[-44.68736,-19.82006],[-44.68606,-19.81875],[-44.68422,-19.81636],[-44.68266,-19.81509],[-44.68233,-19.81415],[-44.68345,-19.81284],[-44.68354,-19.81194],[-44.68304,-19.81059],[-44.68396,-19.80887],[-44.68518,-19.80809],[-44.68793,-19.80446],[-44.68876,-19.804],[-44.69024,-19.80456],[-44.69405,-19.80341],[-44.69463,-19.80408],[-44.6946,-19.80585],[-44.69579,-19.80661],[-44.69669,-19.80618],[-44.69674,-19.80471],[-44.69638,-19.80374],[-44.69672,-19.80282],[-44.69757,-19.80319],[-44.69901,-19.80289],[-44.70027,-19.80212],[-44.70081,-19.80076],[-44.70241,-19.80028],[-44.70375,-19.79828],[-44.70339,-19.79693],[-44.70351,-19.79594],[-44.7048,-19.79514],[-44.70529,-19.79431],[-44.70497,-19.7933],[-44.70422,-19.79272],[-44.70413,-19.79187],[-44.70539,-19.79093],[-44.70583,-19.78951],[-44.70663,-19.78903],[-44.70763,-19.78917],[-44.70891,-19.79037],[-44.70968,-19.79246],[-44.71063,-19.79253],[-44.71248,-19.79173],[-44.71467,-19.79015],[-44.71535,-19.78884],[-44.71557,-19.78734],[-44.71632,-19.78684],[-44.71785,-19.78703],[-44.7203,-19.78687],[-44.72234,-19.78816],[-44.7238,-19.78956],[-44.72564,-19.78899],[-44.72775,-19.78874],[-44.72962,-19.78789],[-44.73259,-19.78585],[-44.73351,-19.78599],[-44.73526,-19.7854],[-44.73565,-19.78453],[-44.73774,-19.78432],[-44.73908,-19.78373],[-44.73961,-19.78444],[-44.74162,-19.78483],[-44.74284,-19.78596],[-44.74463,-19.78629],[-44.74507,-19.78498],[-44.74636,-19.78438],[-44.7491,-19.78485],[-44.74971,-19.78413],[-44.74978,-19.78322],[-44.75078,-19.78347],[-44.75204,-19.78251],[-44.75467,-19.78125],[-44.75598,-19.78106],[-44.75787,-19.77985],[-44.75739,-19.77856],[-44.75652,-19.77817],[-44.75657,-19.77723],[-44.75824,-19.77682],[-44.75844,-19.77638],[-44.76026,-19.77719],[-44.7613,-19.77572],[-44.76227,-19.77598],[-44.76319,-19.7779],[-44.76409,-19.77836],[-44.76428,-19.77972],[-44.76506,-19.78036],[-44.7651,-19.78126],[-44.76751,-19.7808],[-44.76824,-19.78025],[-44.76821,-19.77945],[-44.76722,-19.77945],[-44.76754,-19.77745],[-44.76992,-19.77697],[-44.77135,-19.77764],[-44.77203,-19.77716],[-44.77128,-19.7755],[-44.77318,-19.77392],[-44.77629,-19.77199],[-44.77869,-19.77131],[-44.78047,-19.77156],[-44.78005,-19.77303],[-44.77997,-19.77476],[-44.78048,-19.77657],[-44.78152,-19.77657],[-44.7833,-19.77595],[-44.78412,-19.77669],[-44.78399,-19.7791],[-44.78453,-19.7809],[-44.78569,-19.78219],[-44.78491,-19.78336],[-44.78355,-19.78345],[-44.78362,-19.78503],[-44.78287,-19.78574],[-44.78085,-19.78641],[-44.77896,-19.78813],[-44.77886,-19.78948],[-44.77779,-19.78999],[-44.77616,-19.79001],[-44.77473,-19.79058],[-44.77368,-19.79063],[-44.7732,-19.7915],[-44.77312,-19.79265],[-44.77368,-19.79396],[-44.77518,-19.79614],[-44.77666,-19.79647],[-44.77705,-19.79727],[-44.77659,-19.79812],[-44.77697,-19.7989],[-44.77624,-19.80017],[-44.77665,-19.80102],[-44.77799,-19.80047],[-44.77901,-19.80058],[-44.78056,-19.80231],[-44.7833,-19.803],[-44.78437,-19.80404],[-44.78505,-19.80528],[-44.78539,-19.80712],[-44.78502,-19.80854],[-44.78563,-19.80983],[-44.78625,-19.8125],[-44.7846,-19.81369],[-44.78341,-19.81516],[-44.78341,-19.81612],[-44.78481,-19.81978],[-44.78503,-19.82132],[-44.78485,-19.82231],[-44.78403,-19.82394],[-44.7824,-19.82561],[-44.78181,-19.82711],[-44.78244,-19.82837],[-44.78344,-19.82897],[-44.78426,-19.83021],[-44.78411,-19.83111],[-44.78239,-19.83258],[-44.78374,-19.83393],[-44.78299,-19.8352],[-44.78296,-19.83616],[-44.78218,-19.83832],[-44.78262,-19.83903],[-44.78507,-19.83908],[-44.78616,-19.84044],[-44.78755,-19.84081],[-44.78781,-19.84159],[-44.78662,-19.84324],[-44.78623,-19.84561],[-44.7856,-19.84623],[-44.78465,-19.84623],[-44.78399,-19.84692],[-44.78487,-19.84805],[-44.78588,-19.85115],[-44.78556,-19.85209],[-44.78629,-19.85276],[-44.78563,-19.85448],[-44.78539,-19.8563],[-44.78495,-19.85761],[-44.78593,-19.85818]]]},"properties":{"codigo":"314710515","name":"Carioca","population":784,"households":686,"areaKm2":63.9176,"density":12.3}},{"type":"Feature","geometry":{"type":"Polygon","coordinates":[[[-44.49857,-19.70503],[-44.49986,-19.70548],[-44.50107,-19.70654],[-44.50154,-19.70578],[-44.50111,-19.70456],[-44.50191,-19.7042],[-44.503,-19.70514],[-44.50311,-19.70751],[-44.50208,-19.71123],[-44.50312,-19.71238],[-44.50253,-19.71461],[-44.50277,-19.71553],[-44.50464,-19.71604],[-44.50592,-19.71675],[-44.50679,-19.71784],[-44.50613,-19.72006],[-44.50637,-19.72096],[-44.50799,-19.72083],[-44.50884,-19.72131],[-44.51134,-19.72153],[-44.51219,-19.72197],[-44.51316,-19.72183],[-44.51385,-19.72448],[-44.51514,-19.726],[-44.51363,-19.72778],[-44.5136,-19.72847],[-44.51706,-19.73248],[-44.51591,-19.73409],[-44.51338,-19.73571],[-44.51323,-19.73663],[-44.51218,-19.7384],[-44.51247,-19.7403],[-44.5131,-19.74102],[-44.51538,-19.74171],[-44.51596,-19.74241],[-44.51734,-19.74282],[-44.51821,-19.74515],[-44.51908,-19.74552],[-44.52083,-19.74472],[-44.52374,-19.74509],[-44.52459,-19.74567],[-44.52646,-19.7454],[-44.52721,-19.74591],[-44.52706,-19.74724],[-44.52864,-19.74678],[-44.52881,-19.74768],[-44.52773,-19.74991],[-44.5278,-19.7508],[-44.5288,-19.75071],[-44.5295,-19.75191],[-44.52976,-19.75329],[-44.53051,-19.75391],[-44.5315,-19.75378],[-44.53362,-19.7527],[-44.53454,-19.75289],[-44.53534,-19.75225],[-44.53624,-19.75253],[-44.53758,-19.75163],[-44.53845,-19.75189],[-44.53857,-19.75341],[-44.53798,-19.75579],[-44.53739,-19.75701],[-44.53773,-19.75848],[-44.53743,-19.75986],[-44.53879,-19.76117],[-44.54013,-19.75975],[-44.54161,-19.75914],[-44.54297,-19.75951],[-44.54377,-19.76059],[-44.54515,-19.76013],[-44.54636,-19.76076],[-44.54674,-19.76306],[-44.54744,-19.76522],[-44.54737,-19.76611],[-44.54824,-19.76644],[-44.55018,-19.76658],[-44.55041,-19.76728],[-44.54912,-19.77168],[-44.54807,-19.77319],[-44.54798,-19.77484],[-44.54743,-19.77677],[-44.54651,-19.77814],[-44.54573,-19.78213],[-44.54577,-19.78291],[-44.54458,-19.78484],[-44.54454,-19.78662],[-44.54279,-19.78865],[-44.53946,-19.78939],[-44.53594,-19.78961],[-44.5328,-19.78954],[-44.53147,-19.79004],[-44.52964,-19.7916],[-44.52755,-19.79382],[-44.5263,-19.79605],[-44.52492,-19.79703],[-44.52307,-19.79744],[-44.52156,-19.79746],[-44.52028,-19.79686],[-44.51831,-19.79671],[-44.51675,-19.79816],[-44.51581,-19.79838],[-44.51467,-19.79744],[-44.51394,-19.79626],[-44.5131,-19.79571],[-44.5121,-19.79587],[-44.51088,-19.79685],[-44.51037,-19.79766],[-44.51019,-19.80264],[-44.50987,-19.80356],[-44.50829,-19.80459],[-44.5078,-19.80553],[-44.50675,-19.80652],[-44.50478,-19.80752],[-44.50305,-19.80954],[-44.50084,-19.81592],[-44.49993,-19.81708],[-44.49957,-19.81914],[-44.49824,-19.82024],[-44.49666,-19.81945],[-44.49512,-19.81967],[-44.49434,-19.81941],[-44.49217,-19.82051],[-44.49158,-19.81961],[-44.49013,-19.81988],[-44.48881,-19.81937],[-44.48729,-19.82095],[-44.48484,-19.82077],[-44.48418,-19.81989],[-44.48451,-19.81651],[-44.48436,-19.81502],[-44.48346,-19.81306],[-44.48312,-19.81082],[-44.48261,-19.80927],[-44.48161,-19.80771],[-44.47965,-19.8069],[-44.47817,-19.80713],[-44.47673,-19.80815],[-44.47463,-19.80885],[-44.4739,-19.80953],[-44.47251,-19.80979],[-44.4713,-19.81041],[-44.46844,-19.8103],[-44.46734,-19.81137],[-44.46464,-19.81149],[-44.4636,-19.81018],[-44.46356,-19.80781],[-44.46292,-19.80481],[-44.46214,-19.803],[-44.46108,-19.8013],[-44.46148,-19.79954],[-44.45979,-19.79799],[-44.46026,-19.79623],[-44.45756,-19.79424],[-44.45631,-19.79289],[-44.45359,-19.79315],[-44.45335,-19.79163],[-44.45206,-19.7917],[-44.44956,-19.78903],[-44.44848,-19.7887],[-44.44692,-19.78911],[-44.44645,-19.78785],[-44.44754,-19.78705],[-44.44802,-19.78617],[-44.44789,-19.78369],[-44.44641,-19.78336],[-44.44605,-19.78246],[-44.44515,-19.78289],[-44.44353,-19.78245],[-44.44223,-19.78178],[-44.44266,-19.77985],[-44.44346,-19.7789],[-44.44398,-19.77734],[-44.44419,-19.77545],[-44.44365,-19.77374],[-44.44271,-19.77292],[-44.44221,-19.7718],[-44.44067,-19.77133],[-44.44003,-19.76946],[-44.43932,-19.76878],[-44.43922,-19.76758],[-44.44086,-19.7666],[-44.4425,-19.76628],[-44.44411,-19.76551],[-44.44502,-19.76518],[-44.44489,-19.76399],[-44.44305,-19.75976],[-44.44288,-19.75794],[-44.44364,-19.7544],[-44.44341,-19.7525],[-44.44037,-19.75091],[-44.43956,-19.75017],[-44.4363,-19.74826],[-44.43461,-19.74708],[-44.43357,-19.74568],[-44.43326,-19.74267],[-44.43359,-19.74131],[-44.43466,-19.73963],[-44.43657,-19.73807],[-44.43953,-19.7364],[-44.4399,-19.73577],[-44.43993,-19.73385],[-44.44093,-19.733],[-44.44253,-19.73353],[-44.44443,-19.73457],[-44.44565,-19.73481],[-44.44796,-19.73479],[-44.45098,-19.7343],[-44.45407,-19.73303],[-44.45656,-19.7304],[-44.4585,-19.72706],[-44.45984,-19.7263],[-44.46216,-19.72602],[-44.46438,-19.72535],[-44.46583,-19.72541],[-44.46705,-19.7245],[-44.46809,-19.72192],[-44.46844,-19.71827],[-44.46884,-19.71676],[-44.4709,-19.71414],[-44.47194,-19.71341],[-44.47369,-19.71268],[-44.47398,-19.712],[-44.47291,-19.71114],[-44.47072,-19.71001],[-44.47078,-19.70903],[-44.47188,-19.7077],[-44.47391,-19.70689],[-44.47492,-19.70696],[-44.47739,-19.70819],[-44.48029,-19.70987],[-44.48587,-19.71046],[-44.48913,-19.71124],[-44.49204,-19.71294],[-44.493,-19.713],[-44.49477,-19.71239],[-44.49618,-19.71118],[-44.49738,-19.70981],[-44.498,-19.70843],[-44.49864,-19.70619],[-44.49857,-19.70503]]]},"properties":{"codigo":"314710520","name":"Córrego do Barro","population":506,"households":531,"areaKm2":89.1648,"density":5.7}},{"type":"Feature","geometry":{"type":"Polygon","coordinates":[[[-44.48451,-19.81651],[-44.48418,-19.81989],[-44.48484,-19.82077],[-44.48729,-19.82095],[-44.48881,-19.81937],[-44.49013,-19.81988],[-44.49158,-19.81961],[-44.49217,-19.82051],[-44.49434,-19.81941],[-44.49512,-19.81967],[-44.49666,-19.81945],[-44.49824,-19.82024],[-44.49893,-19.82129],[-44.49978,-19.82334],[-44.50189,-19.82423],[-44.5036,-19.82605],[-44.50407,-19.82721],[-44.50605,-19.82826],[-44.50742,-19.82947],[-44.5091,-19.82935],[-44.51,-19.83031],[-44.51267,-19.831],[-44.51383,-19.83182],[-44.51696,-19.83134],[-44.52526,-19.8257],[-44.52786,-19.82498],[-44.52919,-19.82531],[-44.5305,-19.8263],[-44.53107,-19.82793],[-44.53258,-19.8291],[-44.53272,-19.83028],[-44.53392,-19.83159],[-44.53821,-19.83429],[-44.5395,-19.83601],[-44.54052,-19.83805],[-44.54189,-19.83952],[-44.54481,-19.84125],[-44.54662,-19.84191],[-44.55284,-19.84039],[-44.55465,-19.84048],[-44.55594,-19.84122],[-44.55757,-19.84269],[-44.55963,-19.84547],[-44.56029,-19.84873],[-44.56062,-19.85239],[-44.56095,-19.85468],[-44.55973,-19.85605],[-44.55616,-19.86101],[-44.55382,-19.86206],[-44.55295,-19.86303],[-44.55354,-19.86507],[-44.55403,-19.86857],[-44.55272,-19.87093],[-44.55151,-19.87174],[-44.54856,-19.87319],[-44.54804,-19.87457],[-44.54794,-19.8762],[-44.54716,-19.87734],[-44.54333,-19.88123],[-44.54271,-19.88334],[-44.54356,-19.8862],[-44.54363,-19.88848],[-44.54275,-19.891],[-44.54083,-19.89302],[-44.53911,-19.89712],[-44.53775,-19.89746],[-44.53619,-19.89716],[-44.53209,-19.89731],[-44.52905,-19.897],[-44.5281,-19.89741],[-44.5266,-19.89704],[-44.52446,-19.89775],[-44.52307,-19.89848],[-44.52057,-19.89813],[-44.51865,-19.89748],[-44.51817,-19.89674],[-44.51653,-19.89322],[-44.51726,-19.89258],[-44.51768,-19.89118],[-44.51758,-19.89005],[-44.51798,-19.88872],[-44.51754,-19.88783],[-44.5176,-19.88422],[-44.518,-19.88279],[-44.51771,-19.88132],[-44.51795,-19.88027],[-44.51878,-19.87979],[-44.51932,-19.87845],[-44.52047,-19.87733],[-44.52023,-19.87648],[-44.51945,-19.876],[-44.51729,-19.87558],[-44.51646,-19.87507],[-44.5163,-19.87401],[-44.51638,-19.87167],[-44.51549,-19.86893],[-44.5157,-19.865],[-44.51599,-19.86367],[-44.51543,-19.86284],[-44.51455,-19.85974],[-44.51355,-19.85937],[-44.51156,-19.85959],[-44.50916,-19.8566],[-44.50951,-19.85467],[-44.50927,-19.8528],[-44.50852,-19.85156],[-44.50765,-19.85117],[-44.50785,-19.84981],[-44.50671,-19.84901],[-44.50465,-19.84849],[-44.50312,-19.84851],[-44.50127,-19.84809],[-44.50055,-19.84747],[-44.49903,-19.84723],[-44.49831,-19.84486],[-44.49692,-19.84429],[-44.49533,-19.84489],[-44.49278,-19.84438],[-44.49173,-19.84326],[-44.491,-19.84307],[-44.48873,-19.84132],[-44.48726,-19.84146],[-44.48668,-19.84111],[-44.4868,-19.8395],[-44.48615,-19.83828],[-44.48534,-19.83803],[-44.48491,-19.83673],[-44.48364,-19.8368],[-44.48169,-19.83563],[-44.48195,-19.83388],[-44.48155,-19.83329],[-44.48135,-19.83176],[-44.48192,-19.83014],[-44.48211,-19.8271],[-44.48257,-19.82651],[-44.48303,-19.82451],[-44.48305,-19.82276],[-44.48278,-19.82136],[-44.4829,-19.81881],[-44.48381,-19.81709],[-44.48451,-19.81651]]]},"properties":{"codigo":"314710522","name":"Tavares de Minas","population":1506,"households":710,"areaKm2":35.0381,"density":43}},{"type":"Feature","geometry":{"type":"Polygon","coordinates":[[[-44.78069,-19.86715],[-44.77932,-19.86764],[-44.77857,-19.86879],[-44.77774,-19.86932],[-44.7757,-19.86885],[-44.77116,-19.87078],[-44.7696,-19.87254],[-44.76819,-19.87532],[-44.76714,-19.87629],[-44.76413,-19.87796],[-44.76213,-19.87867],[-44.76114,-19.87874],[-44.75927,-19.87947],[-44.7589,-19.87993],[-44.75846,-19.88181],[-44.75843,-19.88473],[-44.75862,-19.88799],[-44.75808,-19.88933],[-44.75667,-19.89057],[-44.75534,-19.89107],[-44.75327,-19.89109],[-44.75091,-19.89203],[-44.74839,-19.89223],[-44.7461,-19.89409],[-44.74515,-19.89634],[-44.74393,-19.89728],[-44.74157,-19.8978],[-44.73992,-19.89743],[-44.73815,-19.89656],[-44.73621,-19.89651],[-44.73429,-19.89588],[-44.73262,-19.89441],[-44.73196,-19.8922],[-44.73199,-19.88874],[-44.73144,-19.88515],[-44.73117,-19.88489],[-44.73087,-19.88398],[-44.72928,-19.88319],[-44.72892,-19.88186],[-44.72739,-19.88179],[-44.7255,-19.87962],[-44.72361,-19.87889],[-44.723,-19.8796],[-44.72142,-19.87934],[-44.72108,-19.8784],[-44.72014,-19.87771],[-44.71914,-19.87807],[-44.71768,-19.87812],[-44.71392,-19.87501],[-44.71266,-19.87427],[-44.71215,-19.87342],[-44.71087,-19.86878],[-44.7092,-19.86707],[-44.70782,-19.86666],[-44.70741,-19.86583],[-44.70726,-19.86436],[-44.70639,-19.86316],[-44.70632,-19.86167],[-44.70766,-19.85965],[-44.70798,-19.85875],[-44.70784,-19.85567],[-44.70881,-19.85388],[-44.70845,-19.85253],[-44.70862,-19.85122],[-44.70814,-19.84827],[-44.70885,-19.84646],[-44.71411,-19.84125],[-44.7152,-19.83994],[-44.71591,-19.83859],[-44.71737,-19.83835],[-44.71875,-19.84041],[-44.71933,-19.84225],[-44.7203,-19.84322],[-44.72234,-19.84345],[-44.72336,-19.84331],[-44.72474,-19.84396],[-44.72537,-19.84472],[-44.72585,-19.84722],[-44.72629,-19.84764],[-44.72837,-19.8481],[-44.73224,-19.84811],[-44.73323,-19.84788],[-44.73561,-19.84673],[-44.73992,-19.84403],[-44.74152,-19.84251],[-44.74294,-19.84013],[-44.74423,-19.83868],[-44.7451,-19.83887],[-44.74607,-19.84103],[-44.74652,-19.84431],[-44.74652,-19.84627],[-44.7461,-19.8479],[-44.74591,-19.85054],[-44.74661,-19.85178],[-44.74768,-19.85206],[-44.74996,-19.85119],[-44.75137,-19.85101],[-44.75261,-19.85182],[-44.75494,-19.85232],[-44.75642,-19.85207],[-44.75817,-19.85097],[-44.75914,-19.85107],[-44.76077,-19.85233],[-44.76266,-19.85298],[-44.76572,-19.85128],[-44.7683,-19.85028],[-44.7707,-19.85113],[-44.77371,-19.85424],[-44.77545,-19.85686],[-44.77747,-19.85895],[-44.77846,-19.85907],[-44.78082,-19.85863],[-44.78593,-19.85818],[-44.78599,-19.85876],[-44.78455,-19.8613],[-44.78499,-19.86255],[-44.78392,-19.86335],[-44.78271,-19.86259],[-44.78249,-19.86381],[-44.78127,-19.86438],[-44.7803,-19.86587],[-44.78069,-19.86715]]]},"properties":{"codigo":"314710525","name":"Torneiros","population":2112,"households":819,"areaKm2":29.0464,"density":72.7}}]}