{"type":"FeatureCollection","features":[{"type":"Feature","geometry":{"type":"Polygon","coordinates":[[[-43.99698,-19.62186],[-43.99774,-19.62127],[-44.00023,-19.61998],[-44.00099,-19.61929],[-44.0012,-19.61755],[-44.00301,-19.6164],[-44.0037,-19.61556],[-44.00403,-19.61378],[-44.00362,-19.6118],[-44.00455,-19.61139],[-44.0056,-19.61305],[-44.00664,-19.6136],[-44.00921,-19.61233],[-44.01117,-19.6117],[-44.01691,-19.60846],[-44.01915,-19.60775],[-44.02147,-19.60592],[-44.02538,-19.60343],[-44.02768,-19.6014],[-44.02851,-19.60042],[-44.02501,-19.6006],[-44.0227,-19.60154],[-44.02023,-19.60184],[-44.02034,-19.60047],[-44.02097,-19.59972],[-44.02133,-19.59732],[-44.02216,-19.59575],[-44.02512,-19.59222],[-44.02671,-19.5911],[-44.02675,-19.5943],[-44.02692,-19.5951],[-44.02648,-19.59611],[-44.02856,-19.59706],[-44.02906,-19.59797],[-44.03598,-19.59318],[-44.03484,-19.59015],[-44.03559,-19.58915],[-44.04108,-19.59342],[-44.04719,-19.59803],[-44.04843,-19.59849],[-44.04919,-19.59762],[-44.05003,-19.59531],[-44.05269,-19.59557],[-44.05758,-19.59765],[-44.05994,-19.59963],[-44.06033,-19.59852],[-44.06206,-19.59797],[-44.06233,-19.59622],[-44.06333,-19.59515],[-44.0633,-19.59445],[-44.06483,-19.59343],[-44.06618,-19.59298],[-44.06772,-19.59159],[-44.06895,-19.59135],[-44.071,-19.5919],[-44.07187,-19.59265],[-44.07268,-19.5948],[-44.07282,-19.59579],[-44.07346,-19.5965],[-44.07546,-19.59728],[-44.07676,-19.59816],[-44.0782,-19.59847],[-44.08041,-19.59952],[-44.08171,-19.60073],[-44.08219,-19.60168],[-44.08211,-19.60296],[-44.08268,-19.60348],[-44.08501,-19.60468],[-44.08718,-19.60532],[-44.08896,-19.60618],[-44.09057,-19.60724],[-44.09191,-19.60861],[-44.09305,-19.60916],[-44.09506,-19.60946],[-44.09576,-19.6105],[-44.09726,-19.61149],[-44.09812,-19.61342],[-44.09913,-19.61506],[-44.10161,-19.61565],[-44.10448,-19.61472],[-44.1061,-19.61504],[-44.10807,-19.61619],[-44.10941,-19.61769],[-44.11062,-19.61798],[-44.1114,-19.61758],[-44.11272,-19.61604],[-44.11343,-19.61638],[-44.11424,-19.61775],[-44.11553,-19.61862],[-44.1221,-19.62053],[-44.12314,-19.62058],[-44.12632,-19.61998],[-44.1279,-19.62016],[-44.1295,-19.62088],[-44.13029,-19.62243],[-44.13224,-19.62425],[-44.13315,-19.62468],[-44.13625,-19.62528],[-44.13976,-19.62634],[-44.14118,-19.628],[-44.14337,-19.62991],[-44.14503,-19.63084],[-44.14669,-19.63206],[-44.14731,-19.63294],[-44.14761,-19.63469],[-44.14696,-19.63714],[-44.14687,-19.63926],[-44.14792,-19.64132],[-44.15063,-19.64292],[-44.15302,-19.64333],[-44.15452,-19.64431],[-44.15543,-19.64564],[-44.15814,-19.6478],[-44.16099,-19.64838],[-44.16173,-19.64911],[-44.16241,-19.65051],[-44.16339,-19.65115],[-44.16734,-19.6517],[-44.17012,-19.65328],[-44.17171,-19.65482],[-44.1736,-19.65719],[-44.17626,-19.65918],[-44.17694,-19.66023],[-44.17671,-19.66102],[-44.17673,-19.66339],[-44.17625,-19.66457],[-44.17667,-19.66538],[-44.18054,-19.66474],[-44.18149,-19.66425],[-44.18299,-19.66179],[-44.18392,-19.66116],[-44.18658,-19.66093],[-44.18956,-19.66041],[-44.19175,-19.66137],[-44.19307,-19.6622],[-44.19492,-19.66271],[-44.19529,-19.66354],[-44.19539,-19.66611],[-44.19613,-19.66785],[-44.19636,-19.66939],[-44.19599,-19.67129],[-44.19538,-19.67225],[-44.19334,-19.67308],[-44.19281,-19.67419],[-44.19191,-19.67474],[-44.19123,-19.67581],[-44.19013,-19.67639],[-44.18807,-19.67789],[-44.18686,-19.68009],[-44.18576,-19.68131],[-44.18333,-19.68099],[-44.18261,-19.68171],[-44.18119,-19.68124],[-44.17877,-19.68114],[-44.17785,-19.68181],[-44.1767,-19.68168],[-44.17468,-19.68025],[-44.17378,-19.67903],[-44.17244,-19.67844],[-44.16976,-19.67948],[-44.16812,-19.67936],[-44.16763,-19.67826],[-44.16623,-19.6789],[-44.165,-19.67843],[-44.16259,-19.67916],[-44.16192,-19.67888],[-44.16116,-19.67728],[-44.16102,-19.67639],[-44.16023,-19.67473],[-44.15922,-19.67404],[-44.1593,-19.6755],[-44.15785,-19.67703],[-44.15678,-19.67891],[-44.15551,-19.67968],[-44.15611,-19.68038],[-44.15741,-19.68057],[-44.15751,-19.68246],[-44.15707,-19.68306],[-44.15588,-19.68341],[-44.15583,-19.68456],[-44.15487,-19.68499],[-44.15366,-19.68428],[-44.15213,-19.68423],[-44.15119,-19.68476],[-44.14936,-19.68503],[-44.14925,-19.68653],[-44.14873,-19.6882],[-44.14806,-19.68896],[-44.1478,-19.68997],[-44.14706,-19.69073],[-44.14656,-19.69353],[-44.14788,-19.69425],[-44.14758,-19.695],[-44.14543,-19.69641],[-44.1453,-19.69815],[-44.14437,-19.69965],[-44.14377,-19.70149],[-44.14248,-19.70136],[-44.14134,-19.70246],[-44.14175,-19.70352],[-44.14082,-19.70375],[-44.14096,-19.70527],[-44.13999,-19.70573],[-44.13772,-19.70573],[-44.1372,-19.70632],[-44.13562,-19.70612],[-44.13472,-19.70808],[-44.13267,-19.70898],[-44.13207,-19.70883],[-44.13223,-19.70413],[-44.1337,-19.70249],[-44.13577,-19.70086],[-44.13709,-19.69958],[-44.13545,-19.69928],[-44.13352,-19.69844],[-44.13286,-19.69757],[-44.13254,-19.69407],[-44.13208,-19.69274],[-44.13012,-19.69263],[-44.12962,-19.69126],[-44.12811,-19.69027],[-44.12677,-19.68987],[-44.12479,-19.68994],[-44.12245,-19.69041],[-44.12121,-19.69011],[-44.12024,-19.68866],[-44.11818,-19.68795],[-44.11652,-19.68691],[-44.11466,-19.68508],[-44.11239,-19.68447],[-44.11156,-19.68336],[-44.10916,-19.68308],[-44.1084,-19.68263],[-44.10761,-19.68112],[-44.1061,-19.68021],[-44.10579,-19.67922],[-44.10455,-19.67905],[-44.10341,-19.67836],[-44.10269,-19.67859],[-44.09956,-19.68137],[-44.09834,-19.68135],[-44.09625,-19.68186],[-44.09513,-19.68123],[-44.094,-19.68137],[-44.09271,-19.68031],[-44.09051,-19.68163],[-44.0905,-19.68246],[-44.08966,-19.68424],[-44.08749,-19.68513],[-44.08518,-19.6854],[-44.08362,-19.68501],[-44.08264,-19.68521],[-44.07959,-19.68441],[-44.07847,-19.68307],[-44.0765,-19.68275],[-44.07574,-19.68323],[-44.07468,-19.68324],[-44.07235,-19.68266],[-44.07098,-19.68195],[-44.06946,-19.68195],[-44.06746,-19.68124],[-44.0646,-19.67956],[-44.06365,-19.67967],[-44.06231,-19.68118],[-44.06138,-19.68127],[-44.05957,-19.67916],[-44.0585,-19.67913],[-44.05788,-19.67833],[-44.05661,-19.67791],[-44.05617,-19.67691],[-44.0551,-19.67621],[-44.05383,-19.67638],[-44.0522,-19.67794],[-44.05108,-19.67693],[-44.05093,-19.67599],[-44.0512,-19.67403],[-44.05275,-19.67293],[-44.05261,-19.67237],[-44.05336,-19.67147],[-44.05418,-19.67117],[-44.05485,-19.67016],[-44.05581,-19.66953],[-44.05589,-19.66856],[-44.05498,-19.66775],[-44.05481,-19.66601],[-44.0539,-19.66558],[-44.05284,-19.66595],[-44.05245,-19.66664],[-44.04956,-19.66775],[-44.04868,-19.66764],[-44.04734,-19.66709],[-44.04564,-19.66581],[-44.04499,-19.66476],[-44.04531,-19.66318],[-44.04602,-19.66202],[-44.04786,-19.66145],[-44.04913,-19.66024],[-44.04895,-19.65829],[-44.04991,-19.65786],[-44.05021,-19.65568],[-44.04961,-19.65465],[-44.05021,-19.65417],[-44.05056,-19.65204],[-44.05004,-19.65105],[-44.05158,-19.65065],[-44.05219,-19.64884],[-44.05232,-19.64767],[-44.05143,-19.64686],[-44.05116,-19.6456],[-44.05162,-19.6442],[-44.05268,-19.6439],[-44.05207,-19.64192],[-44.05152,-19.64091],[-44.05147,-19.63944],[-44.04979,-19.63863],[-44.05003,-19.63706],[-44.04946,-19.63661],[-44.04921,-19.6355],[-44.04859,-19.63494],[-44.04871,-19.63392],[-44.04817,-19.63284],[-44.04732,-19.63227],[-44.04571,-19.63254],[-44.04539,-19.63153],[-44.04468,-19.63085],[-44.04234,-19.63182],[-44.04014,-19.63051],[-44.03917,-19.62932],[-44.0377,-19.62916],[-44.03656,-19.62989],[-44.03538,-19.62975],[-44.03467,-19.62914],[-44.03223,-19.62822],[-44.03,-19.62887],[-44.02955,-19.62943],[-44.02646,-19.63108],[-44.0244,-19.63182],[-44.02348,-19.63134],[-44.02252,-19.63186],[-44.02055,-19.63234],[-44.02022,-19.63409],[-44.02083,-19.63448],[-44.02033,-19.63545],[-44.01859,-19.63591],[-44.01764,-19.6352],[-44.01694,-19.63612],[-44.01601,-19.63653],[-44.01576,-19.63803],[-44.01414,-19.63891],[-44.01374,-19.64023],[-44.01277,-19.64051],[-44.01003,-19.64325],[-44.00905,-19.64459],[-44.0082,-19.64442],[-44.00644,-19.64517],[-44.00533,-19.64738],[-44.00308,-19.64659],[-44.00096,-19.64466],[-44.00031,-19.64281],[-43.9992,-19.64188],[-43.99669,-19.64055],[-43.99596,-19.63982],[-43.99612,-19.6391],[-43.99786,-19.63691],[-43.99835,-19.63575],[-43.99863,-19.63353],[-43.99987,-19.6314],[-44.00138,-19.62971],[-44.00198,-19.62668],[-44.00048,-19.62576],[-43.99714,-19.62451],[-43.99698,-19.62186]]]},"properties":{"codigo":"314930905","name":"Pedro Leopoldo","population":24795,"households":11221,"areaKm2":118.8482,"density":208.6}},{"type":"Feature","geometry":{"type":"Polygon","coordinates":[[[-44.00533,-19.64738],[-44.00644,-19.64517],[-44.0082,-19.64442],[-44.00905,-19.64459],[-44.01003,-19.64325],[-44.01277,-19.64051],[-44.01374,-19.64023],[-44.01414,-19.63891],[-44.01576,-19.63803],[-44.01601,-19.63653],[-44.01694,-19.63612],[-44.01764,-19.6352],[-44.01859,-19.63591],[-44.02033,-19.63545],[-44.02083,-19.63448],[-44.02022,-19.63409],[-44.02055,-19.63234],[-44.02252,-19.63186],[-44.02348,-19.63134],[-44.0244,-19.63182],[-44.02646,-19.63108],[-44.02955,-19.62943],[-44.03,-19.62887],[-44.03223,-19.62822],[-44.03467,-19.62914],[-44.03538,-19.62975],[-44.03656,-19.62989],[-44.0377,-19.62916],[-44.03917,-19.62932],[-44.04014,-19.63051],[-44.04234,-19.63182],[-44.04468,-19.63085],[-44.04539,-19.63153],[-44.04571,-19.63254],[-44.04732,-19.63227],[-44.04817,-19.63284],[-44.04871,-19.63392],[-44.04859,-19.63494],[-44.04921,-19.6355],[-44.04946,-19.63661],[-44.05003,-19.63706],[-44.04979,-19.63863],[-44.05147,-19.63944],[-44.05152,-19.64091],[-44.05207,-19.64192],[-44.05268,-19.6439],[-44.05162,-19.6442],[-44.05116,-19.6456],[-44.05143,-19.64686],[-44.05232,-19.64767],[-44.05219,-19.64884],[-44.05158,-19.65065],[-44.05004,-19.65105],[-44.05056,-19.65204],[-44.05021,-19.65417],[-44.04961,-19.65465],[-44.05021,-19.65568],[-44.04991,-19.65786],[-44.04895,-19.65829],[-44.04913,-19.66024],[-44.04786,-19.66145],[-44.04602,-19.66202],[-44.04531,-19.66318],[-44.04499,-19.66476],[-44.04564,-19.66581],[-44.04734,-19.66709],[-44.04868,-19.66764],[-44.0487,-19.66806],[-44.04692,-19.67013],[-44.04524,-19.67116],[-44.04345,-19.67154],[-44.04254,-19.67226],[-44.0418,-19.67367],[-44.04114,-19.67388],[-44.04031,-19.67656],[-44.04015,-19.67877],[-44.04093,-19.6822],[-44.04082,-19.68258],[-44.0402,-19.68189],[-44.03864,-19.68102],[-44.03604,-19.68045],[-44.03495,-19.67974],[-44.0338,-19.67826],[-44.02876,-19.67571],[-44.02543,-19.67478],[-44.0237,-19.67455],[-44.0228,-19.67414],[-44.02108,-19.67234],[-44.02004,-19.67244],[-44.01729,-19.67332],[-44.01383,-19.67365],[-44.01212,-19.67294],[-44.01181,-19.67115],[-44.01236,-19.66788],[-44.01234,-19.66588],[-44.01171,-19.66404],[-44.01249,-19.66231],[-44.01252,-19.66128],[-44.01203,-19.65954],[-44.01142,-19.65884],[-44.00943,-19.65754],[-44.00798,-19.65633],[-44.00668,-19.65632],[-44.00532,-19.6557],[-44.00466,-19.65497],[-44.00536,-19.65299],[-44.00633,-19.65286],[-44.00583,-19.65099],[-44.00603,-19.64989],[-44.00693,-19.64964],[-44.00533,-19.64738]]]},"properties":{"codigo":"314930910","name":"Doutor Lund","population":5702,"households":2328,"areaKm2":19.5591,"density":291.5}},{"type":"Feature","geometry":{"type":"Polygon","coordinates":[[[-43.95015,-19.48674],[-43.95091,-19.48734],[-43.95213,-19.48893],[-43.95353,-19.49035],[-43.95353,-19.49187],[-43.95309,-19.4937],[-43.95391,-19.49508],[-43.9541,-19.49651],[-43.95587,-19.49807],[-43.95582,-19.49947],[-43.95646,-19.50068],[-43.95636,-19.50214],[-43.95666,-19.50308],[-43.95664,-19.50483],[-43.9571,-19.50662],[-43.9579,-19.508],[-43.95862,-19.50834],[-43.96043,-19.50824],[-43.96271,-19.50785],[-43.96427,-19.5082],[-43.96613,-19.50822],[-43.96903,-19.50855],[-43.97003,-19.50897],[-43.9725,-19.51058],[-43.97367,-19.51169],[-43.97462,-19.51219],[-43.97761,-19.51307],[-43.97975,-19.51427],[-43.98161,-19.51459],[-43.98416,-19.51471],[-43.98498,-19.51546],[-43.98573,-19.51754],[-43.98617,-19.52078],[-43.98619,-19.52531],[-43.98642,-19.52701],[-43.98634,-19.52948],[-43.98523,-19.53216],[-43.98481,-19.53414],[-43.98431,-19.53535],[-43.98225,-19.53636],[-43.98215,-19.53734],[-43.98311,-19.53803],[-43.98562,-19.53793],[-43.98833,-19.53966],[-43.98936,-19.53969],[-43.99075,-19.53908],[-43.99469,-19.53818],[-43.99608,-19.53747],[-43.9979,-19.53618],[-43.99968,-19.53631],[-44.00094,-19.53789],[-44.00205,-19.54028],[-44.00269,-19.54122],[-44.00303,-19.54304],[-44.00265,-19.54564],[-44.00334,-19.54604],[-44.00567,-19.54576],[-44.00888,-19.54614],[-44.00978,-19.54703],[-44.0108,-19.55098],[-44.01084,-19.55348],[-44.01122,-19.55414],[-44.01271,-19.55496],[-44.01581,-19.55549],[-44.01629,-19.5547],[-44.01747,-19.5553],[-44.01799,-19.55767],[-44.01678,-19.56016],[-44.00729,-19.55831],[-44.00636,-19.55788],[-44.00453,-19.55757],[-44.00332,-19.55774],[-44.00206,-19.55864],[-44.00006,-19.55906],[-43.99631,-19.55954],[-43.99467,-19.55957],[-43.99329,-19.55919],[-43.99269,-19.55863],[-43.99087,-19.55526],[-43.98889,-19.55706],[-43.98805,-19.55724],[-43.98645,-19.55679],[-43.98443,-19.55484],[-43.9826,-19.55457],[-43.98136,-19.55482],[-43.98082,-19.55542],[-43.98118,-19.55625],[-43.9804,-19.55787],[-43.97953,-19.55865],[-43.97866,-19.55869],[-43.97809,-19.55938],[-43.97682,-19.55966],[-43.97515,-19.55886],[-43.97051,-19.55794],[-43.96888,-19.55638],[-43.96713,-19.55621],[-43.96544,-19.55637],[-43.9642,-19.5562],[-43.96277,-19.5547],[-43.96483,-19.55346],[-43.96512,-19.55249],[-43.96493,-19.54977],[-43.96459,-19.54866],[-43.9636,-19.54857],[-43.96219,-19.54793],[-43.96155,-19.54649],[-43.96187,-19.54559],[-43.96147,-19.54311],[-43.96063,-19.54218],[-43.96063,-19.54015],[-43.96019,-19.53958],[-43.95808,-19.53936],[-43.95577,-19.53764],[-43.95405,-19.53607],[-43.95228,-19.53533],[-43.95003,-19.53532],[-43.9473,-19.536],[-43.94571,-19.53744],[-43.9446,-19.53909],[-43.94366,-19.53931],[-43.94207,-19.54117],[-43.93789,-19.5428],[-43.93084,-19.54271],[-43.92783,-19.54037],[-43.92541,-19.53795],[-43.92402,-19.53735],[-43.9219,-19.53569],[-43.9241,-19.53459],[-43.92653,-19.5336],[-43.92705,-19.53298],[-43.92719,-19.53029],[-43.92484,-19.52842],[-43.92383,-19.52724],[-43.92347,-19.52601],[-43.92345,-19.52432],[-43.92415,-19.5217],[-43.92387,-19.51948],[-43.92285,-19.51843],[-43.92085,-19.5175],[-43.91885,-19.51747],[-43.91695,-19.51696],[-43.91567,-19.51623],[-43.91538,-19.51538],[-43.91573,-19.51425],[-43.91676,-19.51369],[-43.91947,-19.51278],[-43.92082,-19.51255],[-43.92179,-19.51185],[-43.92224,-19.51091],[-43.92292,-19.50828],[-43.92386,-19.50644],[-43.92777,-19.50466],[-43.9293,-19.50342],[-43.92964,-19.50232],[-43.93076,-19.50013],[-43.93102,-19.49908],[-43.93104,-19.49712],[-43.93184,-19.49471],[-43.93262,-19.49402],[-43.93422,-19.49345],[-43.938,-19.49458],[-43.93921,-19.49458],[-43.94059,-19.49328],[-43.94096,-19.49045],[-43.94072,-19.48859],[-43.94075,-19.4856],[-43.94128,-19.48425],[-43.94276,-19.4843],[-43.94433,-19.48611],[-43.94491,-19.48756],[-43.94593,-19.48871],[-43.94723,-19.48954],[-43.9483,-19.4897],[-43.94985,-19.48904],[-43.95019,-19.48814],[-43.95015,-19.48674]]]},"properties":{"codigo":"314930915","name":"Fidalgo","population":2651,"households":1413,"areaKm2":37.3551,"density":71}},{"type":"Feature","geometry":{"type":"Polygon","coordinates":[[[-43.97183,-19.59788],[-43.97167,-19.59633],[-43.97112,-19.59526],[-43.96991,-19.59436],[-43.9701,-19.59262],[-43.97013,-19.58931],[-43.96934,-19.5879],[-43.96727,-19.58638],[-43.96545,-19.58539],[-43.96532,-19.58341],[-43.96587,-19.58275],[-43.96725,-19.58219],[-43.96783,-19.58118],[-43.96829,-19.57881],[-43.9689,-19.57807],[-43.971,-19.57688],[-43.97148,-19.57498],[-43.97273,-19.57394],[-43.97373,-19.5736],[-43.9732,-19.57229],[-43.97077,-19.57075],[-43.96921,-19.57084],[-43.96753,-19.57044],[-43.96593,-19.5706],[-43.9651,-19.56948],[-43.96494,-19.56847],[-43.96435,-19.56802],[-43.96362,-19.56638],[-43.96376,-19.5644],[-43.96309,-19.5637],[-43.96354,-19.56283],[-43.96608,-19.56143],[-43.96743,-19.56088],[-43.96666,-19.55994],[-43.96663,-19.55715],[-43.96544,-19.55637],[-43.96713,-19.55621],[-43.96888,-19.55638],[-43.97051,-19.55794],[-43.97515,-19.55886],[-43.97682,-19.55966],[-43.97809,-19.55938],[-43.97866,-19.55869],[-43.97953,-19.55865],[-43.9804,-19.55787],[-43.98118,-19.55625],[-43.98082,-19.55542],[-43.98136,-19.55482],[-43.9826,-19.55457],[-43.98443,-19.55484],[-43.98645,-19.55679],[-43.98805,-19.55724],[-43.98889,-19.55706],[-43.99087,-19.55526],[-43.99269,-19.55863],[-43.99329,-19.55919],[-43.99467,-19.55957],[-43.99631,-19.55954],[-44.00006,-19.55906],[-44.00206,-19.55864],[-44.00332,-19.55774],[-44.00453,-19.55757],[-44.00636,-19.55788],[-44.00729,-19.55831],[-44.01678,-19.56016],[-44.01799,-19.55767],[-44.03043,-19.55847],[-44.03302,-19.55929],[-44.03409,-19.55894],[-44.03429,-19.55975],[-44.04058,-19.55976],[-44.04861,-19.56241],[-44.0483,-19.56313],[-44.051,-19.56598],[-44.04954,-19.56954],[-44.04772,-19.57154],[-44.04782,-19.57522],[-44.04719,-19.57831],[-44.04781,-19.58055],[-44.04778,-19.58162],[-44.04669,-19.58555],[-44.04602,-19.58644],[-44.04588,-19.58907],[-44.04554,-19.59032],[-44.04546,-19.59243],[-44.0458,-19.59343],[-44.05012,-19.59505],[-44.05003,-19.59531],[-44.04919,-19.59762],[-44.04843,-19.59849],[-44.04719,-19.59803],[-44.04108,-19.59342],[-44.03559,-19.58915],[-44.03484,-19.59015],[-44.03598,-19.59318],[-44.02906,-19.59797],[-44.02856,-19.59706],[-44.02648,-19.59611],[-44.02692,-19.5951],[-44.02675,-19.5943],[-44.02671,-19.5911],[-44.02512,-19.59222],[-44.02216,-19.59575],[-44.02133,-19.59732],[-44.02097,-19.59972],[-44.02034,-19.60047],[-44.02023,-19.60184],[-44.0227,-19.60154],[-44.02501,-19.6006],[-44.02851,-19.60042],[-44.02768,-19.6014],[-44.02538,-19.60343],[-44.02147,-19.60592],[-44.01915,-19.60775],[-44.01691,-19.60846],[-44.01117,-19.6117],[-44.00921,-19.61233],[-44.00664,-19.6136],[-44.0056,-19.61305],[-44.00455,-19.61139],[-44.00362,-19.6118],[-44.00403,-19.61378],[-44.0037,-19.61556],[-44.00301,-19.6164],[-44.0012,-19.61755],[-44.00099,-19.61929],[-44.00023,-19.61998],[-43.99774,-19.62127],[-43.99698,-19.62186],[-43.9959,-19.62297],[-43.99514,-19.62259],[-43.99342,-19.62353],[-43.99225,-19.6205],[-43.99052,-19.61955],[-43.98985,-19.61852],[-43.98949,-19.6172],[-43.98961,-19.61591],[-43.99051,-19.61467],[-43.99295,-19.61319],[-43.99331,-19.61209],[-43.99343,-19.6088],[-43.99369,-19.60619],[-43.99283,-19.60202],[-43.99243,-19.6009],[-43.98913,-19.59878],[-43.98813,-19.59882],[-43.98492,-19.59973],[-43.98277,-19.59992],[-43.98095,-19.59984],[-43.97927,-19.59906],[-43.97731,-19.59904],[-43.9746,-19.59822],[-43.9726,-19.59819],[-43.97183,-19.59788]]]},"properties":{"codigo":"314930917","name":"Lagoa de Santo Antônio","population":25101,"households":10111,"areaKm2":41.5588,"density":604}},{"type":"Feature","geometry":{"type":"Polygon","coordinates":[[[-44.13317,-19.70927],[-44.13347,-19.71211],[-44.13276,-19.71394],[-44.12987,-19.71689],[-44.1277,-19.71753],[-44.12591,-19.71924],[-44.12363,-19.71939],[-44.12253,-19.71862],[-44.12167,-19.71994],[-44.11928,-19.72171],[-44.11904,-19.72239],[-44.11746,-19.72224],[-44.11626,-19.72432],[-44.11593,-19.72627],[-44.11505,-19.72925],[-44.1143,-19.72988],[-44.11179,-19.73053],[-44.11027,-19.73114],[-44.10873,-19.73337],[-44.10637,-19.73444],[-44.10516,-19.73569],[-44.1043,-19.7376],[-44.10296,-19.73648],[-44.10218,-19.73624],[-44.09965,-19.73394],[-44.09783,-19.73394],[-44.09647,-19.73432],[-44.09583,-19.73372],[-44.09443,-19.7341],[-44.09302,-19.7333],[-44.09208,-19.73141],[-44.0885,-19.73105],[-44.08771,-19.7305],[-44.08792,-19.72983],[-44.08627,-19.72876],[-44.08462,-19.72821],[-44.08369,-19.72693],[-44.08156,-19.72715],[-44.07899,-19.72526],[-44.07883,-19.72454],[-44.07784,-19.72314],[-44.07638,-19.72261],[-44.07512,-19.72129],[-44.07319,-19.72121],[-44.07155,-19.71996],[-44.06904,-19.71739],[-44.06791,-19.71666],[-44.06756,-19.72013],[-44.06622,-19.72116],[-44.06498,-19.72294],[-44.06347,-19.72414],[-44.06339,-19.72529],[-44.0621,-19.7255],[-44.06227,-19.72669],[-44.06314,-19.72755],[-44.06173,-19.72898],[-44.06187,-19.72991],[-44.06262,-19.73124],[-44.0647,-19.73276],[-44.06454,-19.73348],[-44.06623,-19.73514],[-44.06587,-19.73652],[-44.06656,-19.73732],[-44.0666,-19.7389],[-44.06588,-19.73889],[-44.06538,-19.73974],[-44.06687,-19.7413],[-44.06835,-19.74122],[-44.06894,-19.74181],[-44.06841,-19.74253],[-44.06852,-19.74371],[-44.06613,-19.74523],[-44.06304,-19.74437],[-44.06184,-19.74431],[-44.05667,-19.7447],[-44.05396,-19.7456],[-44.05216,-19.74646],[-44.05092,-19.74758],[-44.05093,-19.74915],[-44.05217,-19.75038],[-44.05208,-19.7515],[-44.05144,-19.75292],[-44.05034,-19.7538],[-44.05082,-19.75485],[-44.05298,-19.7569],[-44.0529,-19.75972],[-44.05424,-19.76131],[-44.05352,-19.7627],[-44.0533,-19.76466],[-44.05191,-19.76597],[-44.05119,-19.76824],[-44.05058,-19.76924],[-44.04984,-19.76952],[-44.04726,-19.76985],[-44.04614,-19.77103],[-44.04507,-19.77113],[-44.04421,-19.77188],[-44.0425,-19.77252],[-44.04086,-19.77273],[-44.03952,-19.77064],[-44.03869,-19.77019],[-44.03712,-19.76837],[-44.0361,-19.76793],[-44.03547,-19.76701],[-44.03572,-19.76515],[-44.03491,-19.76399],[-44.0323,-19.7641],[-44.03111,-19.76285],[-44.02974,-19.7627],[-44.02958,-19.76188],[-44.03059,-19.75957],[-44.03001,-19.75888],[-44.02826,-19.75798],[-44.0274,-19.75727],[-44.0264,-19.75711],[-44.02553,-19.75607],[-44.02352,-19.75606],[-44.02109,-19.75423],[-44.02098,-19.75329],[-44.02023,-19.75258],[-44.01856,-19.75226],[-44.01735,-19.75097],[-44.01443,-19.74951],[-44.01352,-19.74773],[-44.01349,-19.7469],[-44.01276,-19.74598],[-44.01184,-19.74563],[-44.01059,-19.74384],[-44.00985,-19.74146],[-44.00826,-19.73963],[-44.00786,-19.73871],[-44.00555,-19.73714],[-44.00531,-19.73533],[-44.00638,-19.73473],[-44.00662,-19.73402],[-44.00769,-19.73297],[-44.0073,-19.73215],[-44.00744,-19.73116],[-44.00693,-19.7292],[-44.00705,-19.72836],[-44.00643,-19.72716],[-44.00662,-19.72572],[-44.00785,-19.72477],[-44.0072,-19.72409],[-44.00761,-19.72216],[-44.00695,-19.72206],[-44.0094,-19.72037],[-44.00937,-19.71825],[-44.00898,-19.71669],[-44.00815,-19.71538],[-44.00768,-19.71397],[-44.00622,-19.7126],[-44.00626,-19.71059],[-44.00678,-19.71003],[-44.00663,-19.70864],[-44.00688,-19.70473],[-44.00781,-19.70402],[-44.00917,-19.70584],[-44.01118,-19.70754],[-44.01419,-19.70899],[-44.0151,-19.71015],[-44.0162,-19.71071],[-44.01834,-19.71026],[-44.01907,-19.71213],[-44.01997,-19.71235],[-44.02124,-19.71191],[-44.02221,-19.71209],[-44.02393,-19.71068],[-44.02593,-19.71099],[-44.02754,-19.71017],[-44.02911,-19.71005],[-44.03005,-19.70912],[-44.03115,-19.70918],[-44.03327,-19.70877],[-44.03468,-19.708],[-44.03636,-19.70626],[-44.03635,-19.70556],[-44.03743,-19.70457],[-44.03746,-19.70363],[-44.03911,-19.70157],[-44.03849,-19.70005],[-44.03677,-19.69903],[-44.03543,-19.6986],[-44.03441,-19.69744],[-44.03403,-19.69623],[-44.03443,-19.6943],[-44.03518,-19.6933],[-44.03812,-19.69126],[-44.04044,-19.69012],[-44.04149,-19.68818],[-44.04106,-19.68577],[-44.0411,-19.68327],[-44.04082,-19.68258],[-44.04093,-19.6822],[-44.04015,-19.67877],[-44.04031,-19.67656],[-44.04114,-19.67388],[-44.0418,-19.67367],[-44.04254,-19.67226],[-44.04345,-19.67154],[-44.04524,-19.67116],[-44.04692,-19.67013],[-44.0487,-19.66806],[-44.04868,-19.66764],[-44.04956,-19.66775],[-44.05245,-19.66664],[-44.05284,-19.66595],[-44.0539,-19.66558],[-44.05481,-19.66601],[-44.05498,-19.66775],[-44.05589,-19.66856],[-44.05581,-19.66953],[-44.05485,-19.67016],[-44.05418,-19.67117],[-44.05336,-19.67147],[-44.05261,-19.67237],[-44.05275,-19.67293],[-44.0512,-19.67403],[-44.05093,-19.67599],[-44.05108,-19.67693],[-44.0522,-19.67794],[-44.05383,-19.67638],[-44.0551,-19.67621],[-44.05617,-19.67691],[-44.05661,-19.67791],[-44.05788,-19.67833],[-44.0585,-19.67913],[-44.05957,-19.67916],[-44.06138,-19.68127],[-44.06231,-19.68118],[-44.06365,-19.67967],[-44.0646,-19.67956],[-44.06746,-19.68124],[-44.06946,-19.68195],[-44.07098,-19.68195],[-44.07235,-19.68266],[-44.07468,-19.68324],[-44.07574,-19.68323],[-44.0765,-19.68275],[-44.07847,-19.68307],[-44.07959,-19.68441],[-44.08264,-19.68521],[-44.08362,-19.68501],[-44.08518,-19.6854],[-44.08749,-19.68513],[-44.08966,-19.68424],[-44.0905,-19.68246],[-44.09051,-19.68163],[-44.09271,-19.68031],[-44.094,-19.68137],[-44.09513,-19.68123],[-44.09625,-19.68186],[-44.09834,-19.68135],[-44.09956,-19.68137],[-44.10269,-19.67859],[-44.10341,-19.67836],[-44.10455,-19.67905],[-44.10579,-19.67922],[-44.1061,-19.68021],[-44.10761,-19.68112],[-44.1084,-19.68263],[-44.10916,-19.68308],[-44.11156,-19.68336],[-44.11239,-19.68447],[-44.11466,-19.68508],[-44.11652,-19.68691],[-44.11818,-19.68795],[-44.12024,-19.68866],[-44.12121,-19.69011],[-44.12245,-19.69041],[-44.12479,-19.68994],[-44.12677,-19.68987],[-44.12811,-19.69027],[-44.12962,-19.69126],[-44.13012,-19.69263],[-44.13208,-19.69274],[-44.13254,-19.69407],[-44.13286,-19.69757],[-44.13352,-19.69844],[-44.13545,-19.69928],[-44.13709,-19.69958],[-44.13577,-19.70086],[-44.1337,-19.70249],[-44.13223,-19.70413],[-44.13207,-19.70883],[-44.13267,-19.70898],[-44.13317,-19.70927]]]},"properties":{"codigo":"314930920","name":"Vera Cruz de Minas","population":4331,"households":2148,"areaKm2":75.5096,"density":57.4}}]}