{"type":"FeatureCollection","features":[{"type":"Feature","geometry":{"type":"Polygon","coordinates":[[[-44.16356,-21.58939],[-44.16296,-21.58813],[-44.15993,-21.58548],[-44.15889,-21.58548],[-44.15433,-21.58729],[-44.153,-21.58805],[-44.14982,-21.58764],[-44.1487,-21.58645],[-44.14709,-21.58524],[-44.14454,-21.58588],[-44.14331,-21.5858],[-44.14243,-21.58502],[-44.14163,-21.58335],[-44.13903,-21.58084],[-44.13827,-21.57971],[-44.13773,-21.57547],[-44.13651,-21.57227],[-44.13526,-21.57067],[-44.13405,-21.57014],[-44.13211,-21.57023],[-44.12962,-21.57068],[-44.12704,-21.57065],[-44.12502,-21.56975],[-44.12316,-21.57049],[-44.11939,-21.57436],[-44.1171,-21.57708],[-44.11561,-21.5777],[-44.11392,-21.57801],[-44.11253,-21.57784],[-44.11187,-21.5774],[-44.11085,-21.57767],[-44.11015,-21.57843],[-44.10806,-21.58002],[-44.10678,-21.58059],[-44.10503,-21.58062],[-44.10395,-21.57927],[-44.10247,-21.57651],[-44.1017,-21.57332],[-44.10109,-21.5718],[-44.09992,-21.57018],[-44.09872,-21.5692],[-44.09663,-21.5681],[-44.09461,-21.56585],[-44.09352,-21.56426],[-44.09233,-21.56307],[-44.09086,-21.56024],[-44.09042,-21.55896],[-44.0893,-21.55699],[-44.08921,-21.55627],[-44.08819,-21.55376],[-44.08804,-21.55167],[-44.08715,-21.54927],[-44.08633,-21.54573],[-44.08535,-21.544],[-44.08542,-21.54295],[-44.08609,-21.54083],[-44.08772,-21.53979],[-44.08766,-21.5385],[-44.08866,-21.5383],[-44.08791,-21.53698],[-44.08707,-21.53642],[-44.08708,-21.53507],[-44.08939,-21.53387],[-44.09046,-21.53358],[-44.09058,-21.53256],[-44.0913,-21.53146],[-44.09075,-21.52971],[-44.08965,-21.52851],[-44.0895,-21.52623],[-44.08902,-21.52492],[-44.08957,-21.52453],[-44.08881,-21.52138],[-44.0868,-21.52082],[-44.08625,-21.52012],[-44.08601,-21.5186],[-44.0851,-21.51885],[-44.08336,-21.52138],[-44.08325,-21.52305],[-44.08232,-21.52346],[-44.08235,-21.525],[-44.08272,-21.52606],[-44.08047,-21.52626],[-44.07963,-21.52573],[-44.07834,-21.52587],[-44.07767,-21.52658],[-44.07513,-21.52621],[-44.07521,-21.52688],[-44.07418,-21.52732],[-44.07303,-21.52499],[-44.07178,-21.52392],[-44.07166,-21.52628],[-44.07095,-21.52701],[-44.06898,-21.5276],[-44.0684,-21.52661],[-44.06773,-21.52669],[-44.06606,-21.52489],[-44.06489,-21.52575],[-44.06382,-21.52564],[-44.06274,-21.52709],[-44.06185,-21.52638],[-44.061,-21.52761],[-44.06027,-21.52768],[-44.05832,-21.52505],[-44.05804,-21.52248],[-44.05757,-21.52167],[-44.05551,-21.52091],[-44.05629,-21.51978],[-44.05471,-21.51754],[-44.05397,-21.51654],[-44.05411,-21.51487],[-44.05284,-21.51307],[-44.05264,-21.51182],[-44.05279,-21.50941],[-44.05246,-21.50672],[-44.05302,-21.50484],[-44.05157,-21.50272],[-44.0512,-21.50032],[-44.05197,-21.49676],[-44.05188,-21.49583],[-44.05064,-21.49463],[-44.0507,-21.49354],[-44.05174,-21.49135],[-44.05264,-21.49046],[-44.05493,-21.48929],[-44.05639,-21.48728],[-44.05658,-21.48603],[-44.05618,-21.48375],[-44.05516,-21.4813],[-44.05533,-21.47943],[-44.05455,-21.47887],[-44.05349,-21.4772],[-44.0534,-21.47576],[-44.05377,-21.47461],[-44.05474,-21.4729],[-44.05411,-21.47139],[-44.05373,-21.46971],[-44.05192,-21.46688],[-44.05048,-21.46496],[-44.04947,-21.46421],[-44.04905,-21.46286],[-44.04899,-21.45892],[-44.0485,-21.45747],[-44.04948,-21.45453],[-44.05013,-21.45334],[-44.05108,-21.45067],[-44.05273,-21.44897],[-44.05493,-21.44784],[-44.05586,-21.44701],[-44.05762,-21.44424],[-44.05905,-21.44358],[-44.06063,-21.44344],[-44.06166,-21.44282],[-44.06242,-21.44089],[-44.0639,-21.4401],[-44.06717,-21.44023],[-44.06864,-21.4394],[-44.06936,-21.43853],[-44.06991,-21.43715],[-44.07166,-21.43583],[-44.07464,-21.436],[-44.07622,-21.437],[-44.07911,-21.43781],[-44.08227,-21.43752],[-44.08407,-21.4368],[-44.08732,-21.4361],[-44.08911,-21.43537],[-44.09068,-21.43451],[-44.09147,-21.43333],[-44.09262,-21.42949],[-44.0938,-21.42866],[-44.09551,-21.43074],[-44.09609,-21.43204],[-44.09718,-21.43263],[-44.09979,-21.4331],[-44.10177,-21.43222],[-44.10574,-21.43175],[-44.1075,-21.43228],[-44.11084,-21.43434],[-44.11365,-21.43542],[-44.11514,-21.43489],[-44.11821,-21.43533],[-44.12169,-21.4354],[-44.12341,-21.43632],[-44.12511,-21.43695],[-44.12666,-21.43708],[-44.12803,-21.43625],[-44.13037,-21.43607],[-44.13083,-21.43455],[-44.13163,-21.43371],[-44.13246,-21.43358],[-44.13402,-21.43094],[-44.13462,-21.42943],[-44.13464,-21.42818],[-44.13336,-21.42538],[-44.13411,-21.42484],[-44.13544,-21.42584],[-44.13664,-21.42609],[-44.14042,-21.42471],[-44.14193,-21.42516],[-44.14333,-21.42684],[-44.14431,-21.42766],[-44.14813,-21.42962],[-44.15005,-21.43096],[-44.15296,-21.43093],[-44.15521,-21.43138],[-44.1565,-21.4322],[-44.15818,-21.43252],[-44.16103,-21.43272],[-44.16227,-21.43381],[-44.16327,-21.4338],[-44.16416,-21.43243],[-44.16559,-21.43136],[-44.16614,-21.43137],[-44.16733,-21.43427],[-44.16794,-21.43633],[-44.16875,-21.43705],[-44.17117,-21.43674],[-44.17392,-21.43659],[-44.17555,-21.4361],[-44.17824,-21.43403],[-44.1817,-21.42866],[-44.18348,-21.42789],[-44.18636,-21.42709],[-44.18683,-21.42674],[-44.18813,-21.42729],[-44.18908,-21.42647],[-44.1906,-21.42607],[-44.19318,-21.42395],[-44.19518,-21.42312],[-44.19711,-21.42311],[-44.19779,-21.42257],[-44.20018,-21.42481],[-44.20148,-21.42501],[-44.20215,-21.42565],[-44.20316,-21.42562],[-44.20419,-21.427],[-44.20488,-21.43073],[-44.20533,-21.43108],[-44.20726,-21.43295],[-44.20757,-21.43444],[-44.20936,-21.43524],[-44.2125,-21.43475],[-44.21473,-21.43469],[-44.21662,-21.43502],[-44.2178,-21.43556],[-44.21984,-21.43762],[-44.22083,-21.44111],[-44.22175,-21.442],[-44.2232,-21.44255],[-44.22693,-21.44232],[-44.22978,-21.44256],[-44.23205,-21.44115],[-44.23435,-21.44083],[-44.23896,-21.44204],[-44.24017,-21.44208],[-44.24214,-21.44167],[-44.24505,-21.44162],[-44.2474,-21.44117],[-44.25011,-21.44147],[-44.25175,-21.44117],[-44.25316,-21.44149],[-44.25441,-21.44244],[-44.25675,-21.44345],[-44.25652,-21.44663],[-44.25704,-21.44779],[-44.25836,-21.44835],[-44.26293,-21.44841],[-44.26417,-21.44875],[-44.26733,-21.45034],[-44.26885,-21.45054],[-44.27067,-21.45028],[-44.27305,-21.44953],[-44.27419,-21.44953],[-44.2758,-21.45039],[-44.27637,-21.45164],[-44.27641,-21.45309],[-44.27539,-21.45584],[-44.27681,-21.45718],[-44.27666,-21.45998],[-44.27482,-21.4612],[-44.27404,-21.46211],[-44.27361,-21.46355],[-44.2735,-21.46588],[-44.27303,-21.46728],[-44.27244,-21.47107],[-44.2735,-21.473],[-44.27734,-21.4751],[-44.27838,-21.47617],[-44.2801,-21.47728],[-44.28136,-21.47755],[-44.28236,-21.47875],[-44.28241,-21.48323],[-44.28142,-21.48421],[-44.27679,-21.48679],[-44.27512,-21.48689],[-44.27257,-21.48769],[-44.26961,-21.48893],[-44.26897,-21.49064],[-44.27007,-21.4928],[-44.26985,-21.49375],[-44.26833,-21.49516],[-44.26677,-21.49543],[-44.26562,-21.49453],[-44.26488,-21.4931],[-44.26515,-21.49123],[-44.26474,-21.48964],[-44.26356,-21.48863],[-44.26362,-21.4879],[-44.26569,-21.4851],[-44.26581,-21.4846],[-44.26515,-21.48283],[-44.26433,-21.48217],[-44.26223,-21.48217],[-44.26122,-21.48304],[-44.26059,-21.48507],[-44.259,-21.48835],[-44.258,-21.48946],[-44.25773,-21.49158],[-44.25889,-21.49328],[-44.25846,-21.49438],[-44.2557,-21.49492],[-44.25463,-21.49585],[-44.254,-21.49762],[-44.25473,-21.49958],[-44.25578,-21.50074],[-44.25582,-21.50203],[-44.25454,-21.50209],[-44.25324,-21.5017],[-44.25228,-21.50095],[-44.2506,-21.50029],[-44.24713,-21.50197],[-44.24585,-21.50143],[-44.24635,-21.499],[-44.24692,-21.49856],[-44.24822,-21.49846],[-44.24904,-21.49765],[-44.24947,-21.49589],[-44.24989,-21.49178],[-44.25236,-21.48978],[-44.25291,-21.48867],[-44.25247,-21.4867],[-44.25138,-21.48624],[-44.24815,-21.48767],[-44.24646,-21.48721],[-44.2432,-21.48565],[-44.24097,-21.48526],[-44.23896,-21.48524],[-44.23702,-21.48345],[-44.23606,-21.48312],[-44.23515,-21.48482],[-44.2352,-21.48716],[-44.23608,-21.48842],[-44.23737,-21.48863],[-44.2398,-21.48761],[-44.24041,-21.48803],[-44.24064,-21.48918],[-44.24008,-21.49274],[-44.2373,-21.49851],[-44.23603,-21.49995],[-44.23591,-21.49574],[-44.23563,-21.49475],[-44.233,-21.49348],[-44.23144,-21.49223],[-44.23117,-21.49108],[-44.22937,-21.4898],[-44.22855,-21.48986],[-44.22676,-21.49081],[-44.22381,-21.49161],[-44.22321,-21.49094],[-44.22184,-21.48793],[-44.22103,-21.48796],[-44.21877,-21.4904],[-44.21755,-21.49239],[-44.21693,-21.49655],[-44.21571,-21.49721],[-44.21371,-21.4964],[-44.21213,-21.49654],[-44.21194,-21.49527],[-44.21307,-21.49394],[-44.21501,-21.49237],[-44.21511,-21.49093],[-44.21443,-21.49009],[-44.2125,-21.49084],[-44.21213,-21.49002],[-44.21224,-21.4878],[-44.21164,-21.48642],[-44.21172,-21.48509],[-44.21136,-21.48456],[-44.20832,-21.48357],[-44.20878,-21.48225],[-44.21249,-21.48077],[-44.21276,-21.48002],[-44.21207,-21.47816],[-44.21377,-21.47671],[-44.21408,-21.47574],[-44.21273,-21.47532],[-44.21139,-21.47608],[-44.21024,-21.47619],[-44.20907,-21.47558],[-44.20847,-21.47457],[-44.20627,-21.47522],[-44.20432,-21.47683],[-44.20369,-21.47698],[-44.20262,-21.47551],[-44.19963,-21.4744],[-44.1977,-21.47344],[-44.19579,-21.47193],[-44.19539,-21.47263],[-44.19571,-21.47476],[-44.19659,-21.47632],[-44.19609,-21.47713],[-44.19478,-21.47685],[-44.19356,-21.47717],[-44.19436,-21.4798],[-44.19539,-21.48054],[-44.19594,-21.48145],[-44.19528,-21.48234],[-44.19445,-21.4814],[-44.19347,-21.48091],[-44.1898,-21.48082],[-44.18789,-21.48031],[-44.18655,-21.48326],[-44.1876,-21.48531],[-44.18949,-21.4867],[-44.18864,-21.48818],[-44.18661,-21.4896],[-44.18581,-21.48959],[-44.1852,-21.48849],[-44.18346,-21.48657],[-44.18201,-21.4857],[-44.17884,-21.48533],[-44.17687,-21.48576],[-44.1746,-21.48574],[-44.17491,-21.48673],[-44.17458,-21.48737],[-44.17286,-21.48738],[-44.17288,-21.48823],[-44.17391,-21.48842],[-44.17444,-21.48916],[-44.17529,-21.49164],[-44.17658,-21.49174],[-44.18033,-21.49288],[-44.18239,-21.49447],[-44.18421,-21.49709],[-44.18451,-21.49867],[-44.18406,-21.49923],[-44.18217,-21.49953],[-44.18094,-21.50034],[-44.17952,-21.50077],[-44.17774,-21.50096],[-44.17455,-21.50305],[-44.17214,-21.50422],[-44.17249,-21.5056],[-44.17408,-21.50686],[-44.17393,-21.5078],[-44.17065,-21.50932],[-44.16997,-21.51092],[-44.16897,-21.51058],[-44.16843,-21.50977],[-44.16834,-21.5077],[-44.16713,-21.50668],[-44.16218,-21.50834],[-44.1631,-21.51147],[-44.16534,-21.51309],[-44.16581,-21.51465],[-44.16432,-21.51723],[-44.16343,-21.5165],[-44.16204,-21.51622],[-44.16152,-21.51741],[-44.16253,-21.51852],[-44.16151,-21.51979],[-44.16222,-21.52022],[-44.16331,-21.51974],[-44.16394,-21.52149],[-44.16461,-21.5215],[-44.16695,-21.51996],[-44.16919,-21.52224],[-44.16947,-21.52407],[-44.16827,-21.5249],[-44.16847,-21.5262],[-44.16714,-21.52604],[-44.16476,-21.52666],[-44.16411,-21.5255],[-44.16528,-21.52379],[-44.16464,-21.52344],[-44.16346,-21.52448],[-44.16255,-21.52477],[-44.16071,-21.52604],[-44.1596,-21.52781],[-44.15808,-21.52964],[-44.15725,-21.53223],[-44.15946,-21.53317],[-44.16172,-21.53351],[-44.16428,-21.53436],[-44.16639,-21.53603],[-44.16668,-21.53751],[-44.16773,-21.53888],[-44.1679,-21.54114],[-44.16883,-21.54252],[-44.17121,-21.54301],[-44.17055,-21.54343],[-44.1693,-21.54321],[-44.16749,-21.5441],[-44.16696,-21.54323],[-44.16471,-21.54296],[-44.16314,-21.54197],[-44.16188,-21.54027],[-44.16071,-21.54008],[-44.15876,-21.54249],[-44.15856,-21.54344],[-44.16004,-21.54561],[-44.16273,-21.54764],[-44.16269,-21.54812],[-44.16073,-21.54842],[-44.1592,-21.5474],[-44.15807,-21.54507],[-44.156,-21.54437],[-44.15429,-21.54496],[-44.15385,-21.5456],[-44.15389,-21.54736],[-44.15428,-21.54786],[-44.15661,-21.54895],[-44.15742,-21.55],[-44.15774,-21.55104],[-44.15794,-21.55363],[-44.15655,-21.55416],[-44.15465,-21.5537],[-44.15447,-21.55448],[-44.15512,-21.55507],[-44.15741,-21.55588],[-44.15819,-21.55659],[-44.15971,-21.5569],[-44.16248,-21.55781],[-44.16198,-21.55954],[-44.16198,-21.5607],[-44.1605,-21.56157],[-44.15947,-21.56131],[-44.15764,-21.55856],[-44.15628,-21.55897],[-44.1554,-21.56067],[-44.15488,-21.56267],[-44.15538,-21.56318],[-44.15781,-21.56448],[-44.15814,-21.56486],[-44.1584,-21.56877],[-44.1597,-21.57137],[-44.1621,-21.57303],[-44.16404,-21.57543],[-44.16324,-21.5769],[-44.16314,-21.57768],[-44.16206,-21.57974],[-44.16214,-21.58105],[-44.16339,-21.58272],[-44.1644,-21.58589],[-44.16502,-21.58667],[-44.16715,-21.58806],[-44.16626,-21.58864],[-44.16356,-21.58939]]]},"properties":{"codigo":"315030705","name":"Piedade do Rio Grande","population":3964,"households":2396,"areaKm2":225.4335,"density":17.6}},{"type":"Feature","geometry":{"type":"Polygon","coordinates":[[[-44.20533,-21.43108],[-44.20488,-21.43073],[-44.20419,-21.427],[-44.20316,-21.42562],[-44.20215,-21.42565],[-44.20148,-21.42501],[-44.20018,-21.42481],[-44.19779,-21.42257],[-44.19711,-21.42311],[-44.19518,-21.42312],[-44.19318,-21.42395],[-44.1906,-21.42607],[-44.18908,-21.42647],[-44.18813,-21.42729],[-44.18683,-21.42674],[-44.18636,-21.42709],[-44.18348,-21.42789],[-44.1817,-21.42866],[-44.17824,-21.43403],[-44.17555,-21.4361],[-44.17392,-21.43659],[-44.17117,-21.43674],[-44.16875,-21.43705],[-44.16794,-21.43633],[-44.16733,-21.43427],[-44.16614,-21.43137],[-44.16559,-21.43136],[-44.16416,-21.43243],[-44.16327,-21.4338],[-44.16227,-21.43381],[-44.16103,-21.43272],[-44.15818,-21.43252],[-44.1565,-21.4322],[-44.15521,-21.43138],[-44.15296,-21.43093],[-44.15005,-21.43096],[-44.14813,-21.42962],[-44.14431,-21.42766],[-44.14333,-21.42684],[-44.14193,-21.42516],[-44.14042,-21.42471],[-44.13664,-21.42609],[-44.13544,-21.42584],[-44.13411,-21.42484],[-44.13336,-21.42538],[-44.13464,-21.42818],[-44.13462,-21.42943],[-44.13402,-21.43094],[-44.13246,-21.43358],[-44.13163,-21.43371],[-44.13083,-21.43455],[-44.13037,-21.43607],[-44.12803,-21.43625],[-44.12666,-21.43708],[-44.12511,-21.43695],[-44.12341,-21.43632],[-44.12169,-21.4354],[-44.11821,-21.43533],[-44.11514,-21.43489],[-44.11365,-21.43542],[-44.11084,-21.43434],[-44.1075,-21.43228],[-44.10574,-21.43175],[-44.10177,-21.43222],[-44.09979,-21.4331],[-44.09718,-21.43263],[-44.09609,-21.43204],[-44.09551,-21.43074],[-44.0938,-21.42866],[-44.09534,-21.4286],[-44.09625,-21.42975],[-44.09725,-21.42945],[-44.09842,-21.42853],[-44.10153,-21.42825],[-44.10237,-21.42796],[-44.10413,-21.42653],[-44.10498,-21.42544],[-44.10594,-21.42488],[-44.10835,-21.42482],[-44.10937,-21.42388],[-44.10952,-21.42126],[-44.1107,-21.41937],[-44.11254,-21.41685],[-44.11355,-21.4135],[-44.11439,-21.4115],[-44.11442,-21.41069],[-44.11395,-21.40739],[-44.11432,-21.40506],[-44.11627,-21.40391],[-44.11773,-21.40219],[-44.12063,-21.3999],[-44.12284,-21.39885],[-44.12535,-21.39666],[-44.12846,-21.39491],[-44.13065,-21.39419],[-44.13276,-21.39302],[-44.13522,-21.39311],[-44.13599,-21.39386],[-44.13738,-21.39419],[-44.13936,-21.39114],[-44.14031,-21.38941],[-44.14067,-21.38744],[-44.14175,-21.38622],[-44.14304,-21.38569],[-44.14749,-21.38517],[-44.1483,-21.38483],[-44.1507,-21.38457],[-44.15189,-21.38402],[-44.15316,-21.38391],[-44.15616,-21.38415],[-44.15723,-21.3844],[-44.16028,-21.38598],[-44.16265,-21.3876],[-44.16429,-21.38822],[-44.16582,-21.38916],[-44.16747,-21.3895],[-44.16979,-21.38874],[-44.17065,-21.38812],[-44.17126,-21.3867],[-44.17187,-21.38612],[-44.17374,-21.38637],[-44.17543,-21.38736],[-44.17659,-21.38773],[-44.17929,-21.38769],[-44.18202,-21.38856],[-44.18452,-21.39052],[-44.18631,-21.39105],[-44.19055,-21.3909],[-44.19317,-21.38932],[-44.19477,-21.38946],[-44.19615,-21.39075],[-44.19742,-21.3911],[-44.19877,-21.39077],[-44.19894,-21.39114],[-44.20132,-21.39272],[-44.2031,-21.3946],[-44.20302,-21.3957],[-44.20314,-21.40042],[-44.20305,-21.40125],[-44.20391,-21.40491],[-44.20385,-21.40817],[-44.20415,-21.4094],[-44.20513,-21.41083],[-44.20516,-21.41296],[-44.20466,-21.41465],[-44.20322,-21.41667],[-44.20209,-21.41904],[-44.202,-21.42108],[-44.20314,-21.42253],[-44.20639,-21.42516],[-44.20728,-21.42652],[-44.20739,-21.42728],[-44.20695,-21.42864],[-44.2054,-21.43062],[-44.20533,-21.43108]]]},"properties":{"codigo":"315030720","name":"Paraíso da Piedade","population":285,"households":165,"areaKm2":43.2453,"density":6.6}},{"type":"Feature","geometry":{"type":"Polygon","coordinates":[[[-44.17121,-21.54301],[-44.16883,-21.54252],[-44.1679,-21.54114],[-44.16773,-21.53888],[-44.16668,-21.53751],[-44.16639,-21.53603],[-44.16428,-21.53436],[-44.16172,-21.53351],[-44.15946,-21.53317],[-44.15725,-21.53223],[-44.15808,-21.52964],[-44.1596,-21.52781],[-44.16071,-21.52604],[-44.16255,-21.52477],[-44.16346,-21.52448],[-44.16464,-21.52344],[-44.16528,-21.52379],[-44.16411,-21.5255],[-44.16476,-21.52666],[-44.16714,-21.52604],[-44.16847,-21.5262],[-44.16827,-21.5249],[-44.16947,-21.52407],[-44.16919,-21.52224],[-44.16695,-21.51996],[-44.16461,-21.5215],[-44.16394,-21.52149],[-44.16331,-21.51974],[-44.16222,-21.52022],[-44.16151,-21.51979],[-44.16253,-21.51852],[-44.16152,-21.51741],[-44.16204,-21.51622],[-44.16343,-21.5165],[-44.16432,-21.51723],[-44.16581,-21.51465],[-44.16534,-21.51309],[-44.1631,-21.51147],[-44.16218,-21.50834],[-44.16713,-21.50668],[-44.16834,-21.5077],[-44.16843,-21.50977],[-44.16897,-21.51058],[-44.16997,-21.51092],[-44.17065,-21.50932],[-44.17393,-21.5078],[-44.17408,-21.50686],[-44.17249,-21.5056],[-44.17214,-21.50422],[-44.17455,-21.50305],[-44.17774,-21.50096],[-44.17952,-21.50077],[-44.18094,-21.50034],[-44.18217,-21.49953],[-44.18406,-21.49923],[-44.18451,-21.49867],[-44.18421,-21.49709],[-44.18239,-21.49447],[-44.18033,-21.49288],[-44.17658,-21.49174],[-44.17529,-21.49164],[-44.17444,-21.48916],[-44.17391,-21.48842],[-44.17288,-21.48823],[-44.17286,-21.48738],[-44.17458,-21.48737],[-44.17491,-21.48673],[-44.1746,-21.48574],[-44.17687,-21.48576],[-44.17884,-21.48533],[-44.18201,-21.4857],[-44.18346,-21.48657],[-44.1852,-21.48849],[-44.18581,-21.48959],[-44.18661,-21.4896],[-44.18864,-21.48818],[-44.18949,-21.4867],[-44.1876,-21.48531],[-44.18655,-21.48326],[-44.18789,-21.48031],[-44.1898,-21.48082],[-44.19347,-21.48091],[-44.19445,-21.4814],[-44.19528,-21.48234],[-44.19594,-21.48145],[-44.19539,-21.48054],[-44.19436,-21.4798],[-44.19356,-21.47717],[-44.19478,-21.47685],[-44.19609,-21.47713],[-44.19659,-21.47632],[-44.19571,-21.47476],[-44.19539,-21.47263],[-44.19579,-21.47193],[-44.1977,-21.47344],[-44.19963,-21.4744],[-44.20262,-21.47551],[-44.20369,-21.47698],[-44.20432,-21.47683],[-44.20627,-21.47522],[-44.20847,-21.47457],[-44.20907,-21.47558],[-44.21024,-21.47619],[-44.21139,-21.47608],[-44.21273,-21.47532],[-44.21408,-21.47574],[-44.21377,-21.47671],[-44.21207,-21.47816],[-44.21276,-21.48002],[-44.21249,-21.48077],[-44.20878,-21.48225],[-44.20832,-21.48357],[-44.21136,-21.48456],[-44.21172,-21.48509],[-44.21164,-21.48642],[-44.21224,-21.4878],[-44.21213,-21.49002],[-44.2125,-21.49084],[-44.21443,-21.49009],[-44.21511,-21.49093],[-44.21501,-21.49237],[-44.21307,-21.49394],[-44.21194,-21.49527],[-44.21213,-21.49654],[-44.21371,-21.4964],[-44.21571,-21.49721],[-44.21693,-21.49655],[-44.21755,-21.49239],[-44.21877,-21.4904],[-44.22103,-21.48796],[-44.22184,-21.48793],[-44.22321,-21.49094],[-44.22381,-21.49161],[-44.22676,-21.49081],[-44.22855,-21.48986],[-44.22937,-21.4898],[-44.23117,-21.49108],[-44.23144,-21.49223],[-44.233,-21.49348],[-44.23563,-21.49475],[-44.23591,-21.49574],[-44.23603,-21.49995],[-44.23735,-21.50158],[-44.23796,-21.5034],[-44.23728,-21.5052],[-44.23648,-21.50639],[-44.23488,-21.50777],[-44.23422,-21.50889],[-44.23412,-21.51119],[-44.23474,-21.51354],[-44.23467,-21.51426],[-44.23265,-21.51548],[-44.23109,-21.5173],[-44.23053,-21.51914],[-44.23215,-21.52054],[-44.2325,-21.52176],[-44.2313,-21.52347],[-44.22968,-21.52515],[-44.2283,-21.52697],[-44.2274,-21.52912],[-44.22587,-21.53078],[-44.22564,-21.53225],[-44.22702,-21.53625],[-44.22771,-21.53769],[-44.22815,-21.53977],[-44.2281,-21.5422],[-44.22781,-21.54437],[-44.22723,-21.54549],[-44.22563,-21.54624],[-44.22418,-21.54638],[-44.22193,-21.54599],[-44.22057,-21.54546],[-44.21878,-21.54695],[-44.21706,-21.54783],[-44.2157,-21.54887],[-44.21451,-21.5492],[-44.21344,-21.55059],[-44.21322,-21.55163],[-44.21355,-21.55293],[-44.21425,-21.55383],[-44.21485,-21.55587],[-44.2164,-21.5574],[-44.21858,-21.56007],[-44.2188,-21.56151],[-44.22042,-21.56417],[-44.22093,-21.56616],[-44.22085,-21.56677],[-44.22005,-21.56813],[-44.21984,-21.5693],[-44.21985,-21.57155],[-44.21894,-21.57236],[-44.21661,-21.57283],[-44.21539,-21.57376],[-44.21185,-21.57557],[-44.21046,-21.57654],[-44.20976,-21.57485],[-44.20904,-21.57403],[-44.20711,-21.57352],[-44.20571,-21.57278],[-44.20365,-21.57244],[-44.20233,-21.57094],[-44.19904,-21.57114],[-44.19818,-21.57088],[-44.19749,-21.56979],[-44.19749,-21.56791],[-44.19787,-21.56656],[-44.19756,-21.56516],[-44.19626,-21.56402],[-44.19517,-21.5625],[-44.19432,-21.56181],[-44.1927,-21.56157],[-44.1909,-21.56371],[-44.18932,-21.56435],[-44.1879,-21.56443],[-44.18599,-21.56363],[-44.18468,-21.56142],[-44.18374,-21.56054],[-44.18337,-21.55957],[-44.18226,-21.55819],[-44.18002,-21.55719],[-44.17825,-21.55503],[-44.17775,-21.55325],[-44.1765,-21.55194],[-44.1744,-21.55329],[-44.17312,-21.55292],[-44.17208,-21.55151],[-44.17205,-21.54833],[-44.17142,-21.54693],[-44.17143,-21.54617],[-44.17274,-21.54382],[-44.17121,-21.54301]]]},"properties":{"codigo":"315030725","name":"Santo Antônio do Porto","population":355,"households":259,"areaKm2":54.1355,"density":6.6}}]}