{"type":"FeatureCollection","features":[{"type":"Feature","geometry":{"type":"Polygon","coordinates":[[[-42.43787,-20.19291],[-42.43834,-20.19012],[-42.43987,-20.18765],[-42.44007,-20.18594],[-42.43881,-20.18267],[-42.43773,-20.18095],[-42.43576,-20.17938],[-42.43405,-20.17693],[-42.43177,-20.1748],[-42.43008,-20.17368],[-42.42959,-20.17256],[-42.42983,-20.17004],[-42.43104,-20.16755],[-42.43094,-20.16634],[-42.42996,-20.16566],[-42.42597,-20.16604],[-42.42337,-20.16553],[-42.42111,-20.16439],[-42.41959,-20.16327],[-42.41877,-20.16209],[-42.41827,-20.16078],[-42.41842,-20.159],[-42.42049,-20.15621],[-42.42253,-20.15396],[-42.42269,-20.1527],[-42.42146,-20.15205],[-42.41966,-20.15203],[-42.41854,-20.15114],[-42.41998,-20.14699],[-42.42016,-20.14527],[-42.41969,-20.14382],[-42.41807,-20.14248],[-42.41724,-20.1424],[-42.41524,-20.14023],[-42.41344,-20.14104],[-42.41217,-20.14099],[-42.41018,-20.14016],[-42.40919,-20.139],[-42.40598,-20.13797],[-42.40435,-20.13713],[-42.40157,-20.13802],[-42.40056,-20.13805],[-42.39962,-20.1372],[-42.39932,-20.13625],[-42.39924,-20.13406],[-42.39812,-20.13094],[-42.39719,-20.12947],[-42.39577,-20.12841],[-42.39511,-20.12671],[-42.39418,-20.12518],[-42.39326,-20.12455],[-42.39127,-20.12431],[-42.38627,-20.12216],[-42.38444,-20.12196],[-42.38481,-20.11814],[-42.38552,-20.11608],[-42.38623,-20.1147],[-42.3886,-20.11202],[-42.38985,-20.11098],[-42.39156,-20.10858],[-42.39246,-20.10697],[-42.39432,-20.10658],[-42.39752,-20.10622],[-42.39728,-20.10527],[-42.39849,-20.10127],[-42.39987,-20.09855],[-42.40102,-20.09733],[-42.40157,-20.09518],[-42.40154,-20.0931],[-42.40054,-20.08955],[-42.40001,-20.08847],[-42.4007,-20.08667],[-42.40067,-20.08575],[-42.4001,-20.08475],[-42.39784,-20.08349],[-42.39713,-20.08241],[-42.39689,-20.07909],[-42.39543,-20.07809],[-42.39398,-20.07765],[-42.38996,-20.07746],[-42.38892,-20.07638],[-42.38801,-20.074],[-42.38708,-20.07325],[-42.38584,-20.07301],[-42.3849,-20.07172],[-42.38481,-20.07],[-42.38577,-20.06882],[-42.38781,-20.06501],[-42.38541,-20.06241],[-42.38282,-20.05786],[-42.38166,-20.05679],[-42.37835,-20.05764],[-42.37612,-20.05749],[-42.37512,-20.05717],[-42.37331,-20.05603],[-42.3725,-20.05492],[-42.37244,-20.05371],[-42.37363,-20.05132],[-42.37583,-20.04983],[-42.37673,-20.04861],[-42.37661,-20.04716],[-42.3756,-20.04697],[-42.37061,-20.04762],[-42.36981,-20.04711],[-42.36851,-20.04783],[-42.36737,-20.04806],[-42.36643,-20.04898],[-42.36388,-20.05029],[-42.36144,-20.05067],[-42.36043,-20.05113],[-42.35764,-20.05351],[-42.35445,-20.05215],[-42.35221,-20.05179],[-42.3507,-20.05177],[-42.35059,-20.04978],[-42.34994,-20.04887],[-42.34783,-20.04762],[-42.34722,-20.04696],[-42.34774,-20.04626],[-42.34955,-20.04538],[-42.35022,-20.04439],[-42.35012,-20.04202],[-42.35053,-20.04078],[-42.35187,-20.04004],[-42.35269,-20.04014],[-42.35454,-20.03938],[-42.358,-20.03878],[-42.35994,-20.03878],[-42.36133,-20.0378],[-42.36165,-20.03685],[-42.36165,-20.03533],[-42.36241,-20.03398],[-42.36452,-20.03329],[-42.36557,-20.03233],[-42.36825,-20.03127],[-42.36933,-20.03116],[-42.37121,-20.03045],[-42.37373,-20.02837],[-42.37376,-20.02737],[-42.37208,-20.02502],[-42.37262,-20.02203],[-42.37389,-20.02089],[-42.37534,-20.0207],[-42.37653,-20.02124],[-42.38117,-20.01928],[-42.38252,-20.01847],[-42.38424,-20.01603],[-42.38422,-20.01526],[-42.38574,-20.01382],[-42.38618,-20.01307],[-42.38675,-20.01075],[-42.38945,-20.00868],[-42.39076,-20.00381],[-42.39138,-20.00363],[-42.39286,-20.00512],[-42.39289,-20.00644],[-42.39473,-20.00664],[-42.39771,-20.00658],[-42.39807,-20.00544],[-42.39992,-20.00619],[-42.40089,-20.0045],[-42.40073,-20.00393],[-42.40272,-20.00171],[-42.40423,-20.00087],[-42.40618,-20.00042],[-42.40693,-20.00051],[-42.40774,-20.00141],[-42.40903,-20.00056],[-42.40935,-19.99982],[-42.41152,-19.99791],[-42.41297,-19.99889],[-42.41381,-19.9984],[-42.4148,-19.99875],[-42.41532,-19.99799],[-42.41631,-19.99815],[-42.41771,-19.99892],[-42.41684,-20.00018],[-42.41655,-20.0013],[-42.41538,-20.00152],[-42.41395,-20.0011],[-42.41446,-20.00288],[-42.4137,-20.004],[-42.41431,-20.00563],[-42.41371,-20.00686],[-42.41498,-20.00864],[-42.41578,-20.00751],[-42.4167,-20.00768],[-42.41727,-20.00837],[-42.41631,-20.00908],[-42.41684,-20.00975],[-42.41779,-20.00924],[-42.41871,-20.01045],[-42.41827,-20.01241],[-42.41884,-20.01299],[-42.41849,-20.01452],[-42.41979,-20.01557],[-42.42001,-20.01706],[-42.4183,-20.01754],[-42.41786,-20.01867],[-42.41905,-20.02055],[-42.41951,-20.02213],[-42.42055,-20.02271],[-42.42211,-20.02125],[-42.42358,-20.02218],[-42.42493,-20.02134],[-42.42667,-20.02101],[-42.42635,-20.0188],[-42.42832,-20.01877],[-42.42957,-20.01766],[-42.43256,-20.01756],[-42.43289,-20.01811],[-42.434,-20.01761],[-42.43419,-20.01879],[-42.43509,-20.01926],[-42.43513,-20.02055],[-42.43572,-20.02096],[-42.43705,-20.02084],[-42.43704,-20.02215],[-42.43813,-20.02334],[-42.4389,-20.02355],[-42.4396,-20.02296],[-42.44119,-20.0224],[-42.4396,-20.02039],[-42.4414,-20.01957],[-42.44224,-20.01856],[-42.44431,-20.01865],[-42.44485,-20.0171],[-42.44424,-20.01651],[-42.4461,-20.01567],[-42.44618,-20.01511],[-42.44792,-20.01348],[-42.44799,-20.01239],[-42.44953,-20.01239],[-42.45111,-20.01276],[-42.45122,-20.01207],[-42.44998,-20.01047],[-42.44782,-20.00988],[-42.44752,-20.00907],[-42.44829,-20.00854],[-42.44943,-20.00923],[-42.44957,-20.00828],[-42.44862,-20.00735],[-42.44735,-20.00761],[-42.44675,-20.00732],[-42.44704,-20.00605],[-42.44845,-20.00575],[-42.44898,-20.0051],[-42.44838,-20.00359],[-42.44943,-20.00311],[-42.45034,-20.00378],[-42.45093,-20.00344],[-42.45036,-20.00221],[-42.45179,-20.0013],[-42.45109,-20.00069],[-42.44946,-20.00087],[-42.44826,-19.99928],[-42.44709,-19.99851],[-42.44855,-19.99777],[-42.44966,-19.99852],[-42.44999,-19.99989],[-42.45088,-19.99948],[-42.45102,-19.99861],[-42.44989,-19.99688],[-42.44907,-19.99635],[-42.44902,-19.99563],[-42.4499,-19.99516],[-42.44932,-19.9938],[-42.45159,-19.99242],[-42.45228,-19.99049],[-42.4529,-19.98955],[-42.45508,-19.98884],[-42.45577,-19.98831],[-42.45588,-19.98744],[-42.45692,-19.98525],[-42.45969,-19.98577],[-42.46205,-19.98265],[-42.46282,-19.9814],[-42.4641,-19.98144],[-42.46556,-19.98223],[-42.46668,-19.98335],[-42.46794,-19.98245],[-42.46929,-19.982],[-42.47061,-19.98399],[-42.47134,-19.98461],[-42.47234,-19.98431],[-42.47316,-19.98316],[-42.47437,-19.98274],[-42.47572,-19.98175],[-42.47759,-19.98456],[-42.4797,-19.98579],[-42.48233,-19.98655],[-42.48585,-19.98838],[-42.48839,-19.98793],[-42.48992,-19.98672],[-42.48929,-19.98392],[-42.49016,-19.98365],[-42.49139,-19.98479],[-42.49335,-19.98526],[-42.49546,-19.9839],[-42.49636,-19.98456],[-42.49713,-19.98019],[-42.49867,-19.98011],[-42.49959,-19.98174],[-42.50049,-19.98245],[-42.50099,-19.98386],[-42.50163,-19.98459],[-42.50301,-19.98484],[-42.50348,-19.98664],[-42.50182,-19.98795],[-42.50197,-19.99025],[-42.50419,-19.99057],[-42.5054,-19.99124],[-42.50684,-19.99158],[-42.50754,-19.99227],[-42.50762,-19.99531],[-42.50689,-19.99595],[-42.50743,-19.99717],[-42.50526,-19.9983],[-42.50563,-19.99956],[-42.50474,-20.00067],[-42.50285,-20.00198],[-42.50198,-20.00339],[-42.50055,-20.00411],[-42.50063,-20.00611],[-42.50001,-20.00686],[-42.49994,-20.00801],[-42.50201,-20.00833],[-42.50233,-20.01016],[-42.50147,-20.01094],[-42.50336,-20.01255],[-42.50278,-20.01361],[-42.50291,-20.01435],[-42.50491,-20.01693],[-42.50534,-20.01776],[-42.50648,-20.01762],[-42.50849,-20.01861],[-42.50993,-20.01839],[-42.51085,-20.02022],[-42.51005,-20.02107],[-42.50859,-20.02113],[-42.50748,-20.02191],[-42.50765,-20.0238],[-42.50741,-20.02571],[-42.50845,-20.02702],[-42.50861,-20.02857],[-42.50727,-20.03009],[-42.50563,-20.03031],[-42.50474,-20.02982],[-42.50402,-20.03094],[-42.50437,-20.0338],[-42.50503,-20.03437],[-42.50487,-20.03653],[-42.50509,-20.03724],[-42.50457,-20.04083],[-42.50568,-20.04211],[-42.50527,-20.04268],[-42.50528,-20.04476],[-42.50577,-20.0453],[-42.50568,-20.04696],[-42.50452,-20.04729],[-42.50382,-20.04793],[-42.50359,-20.04977],[-42.50288,-20.05065],[-42.5033,-20.05169],[-42.50462,-20.05259],[-42.50638,-20.05317],[-42.50719,-20.0544],[-42.50843,-20.05442],[-42.50942,-20.05545],[-42.51092,-20.05627],[-42.51411,-20.0576],[-42.51618,-20.05889],[-42.51721,-20.05886],[-42.5176,-20.0595],[-42.51806,-20.0615],[-42.51709,-20.06261],[-42.51691,-20.06423],[-42.51715,-20.06696],[-42.51689,-20.06774],[-42.51736,-20.06871],[-42.51969,-20.06939],[-42.52129,-20.07033],[-42.52288,-20.07312],[-42.52307,-20.07472],[-42.52409,-20.07581],[-42.52572,-20.07683],[-42.52566,-20.07799],[-42.52624,-20.07921],[-42.52883,-20.08006],[-42.52939,-20.08171],[-42.52871,-20.08554],[-42.52959,-20.08731],[-42.52913,-20.08904],[-42.5306,-20.09267],[-42.53059,-20.09348],[-42.52995,-20.0946],[-42.5241,-20.09808],[-42.52235,-20.09937],[-42.52002,-20.09966],[-42.51945,-20.1005],[-42.52231,-20.10087],[-42.52413,-20.10287],[-42.52603,-20.10345],[-42.52812,-20.10468],[-42.52908,-20.10567],[-42.52874,-20.10651],[-42.52597,-20.10622],[-42.52368,-20.10654],[-42.52306,-20.10725],[-42.52351,-20.10785],[-42.5267,-20.11026],[-42.52702,-20.11179],[-42.52516,-20.11258],[-42.52541,-20.11569],[-42.52351,-20.11866],[-42.52369,-20.1204],[-42.52421,-20.12157],[-42.52746,-20.12354],[-42.52792,-20.12467],[-42.52792,-20.12836],[-42.52628,-20.12919],[-42.52531,-20.13003],[-42.52408,-20.13049],[-42.52383,-20.13148],[-42.5246,-20.13524],[-42.52463,-20.13722],[-42.5239,-20.13746],[-42.51952,-20.13759],[-42.51828,-20.13783],[-42.51654,-20.13758],[-42.51531,-20.13804],[-42.51361,-20.13965],[-42.5124,-20.13995],[-42.50967,-20.13879],[-42.50891,-20.13875],[-42.50673,-20.13951],[-42.50521,-20.13966],[-42.50388,-20.13912],[-42.50159,-20.13597],[-42.49993,-20.13596],[-42.49695,-20.13425],[-42.49585,-20.13331],[-42.49278,-20.13337],[-42.49029,-20.13427],[-42.4897,-20.13476],[-42.48928,-20.13658],[-42.48997,-20.13924],[-42.49,-20.14098],[-42.48939,-20.143],[-42.48953,-20.14515],[-42.48907,-20.14811],[-42.48819,-20.14949],[-42.4874,-20.15006],[-42.4857,-20.15052],[-42.48441,-20.15131],[-42.48441,-20.15244],[-42.4837,-20.15273],[-42.48439,-20.15387],[-42.48275,-20.15521],[-42.48102,-20.15569],[-42.48025,-20.15518],[-42.478,-20.15587],[-42.47755,-20.15752],[-42.47887,-20.15813],[-42.47966,-20.1593],[-42.47928,-20.16255],[-42.48164,-20.16379],[-42.48056,-20.16455],[-42.48014,-20.16541],[-42.48101,-20.16785],[-42.48265,-20.16855],[-42.4833,-20.16912],[-42.48421,-20.16887],[-42.48567,-20.16914],[-42.48667,-20.17026],[-42.48698,-20.17113],[-42.4853,-20.17311],[-42.48465,-20.17436],[-42.48473,-20.17562],[-42.4867,-20.17678],[-42.48671,-20.17849],[-42.48772,-20.17972],[-42.48838,-20.18121],[-42.48955,-20.18274],[-42.49055,-20.18298],[-42.49081,-20.18385],[-42.48967,-20.18469],[-42.48674,-20.18508],[-42.48612,-20.18697],[-42.48487,-20.1879],[-42.48478,-20.18859],[-42.48698,-20.18996],[-42.48774,-20.18909],[-42.48901,-20.1893],[-42.48979,-20.19071],[-42.49135,-20.19144],[-42.49322,-20.19268],[-42.49358,-20.19165],[-42.49265,-20.1902],[-42.49297,-20.18901],[-42.49402,-20.18958],[-42.49469,-20.19148],[-42.49666,-20.19346],[-42.49648,-20.19483],[-42.49549,-20.19426],[-42.49376,-20.1943],[-42.49086,-20.19525],[-42.48566,-20.19593],[-42.48353,-20.19587],[-42.48242,-20.19553],[-42.48105,-20.19447],[-42.4783,-20.19297],[-42.47733,-20.19285],[-42.47593,-20.19349],[-42.47439,-20.19368],[-42.47315,-20.19321],[-42.47146,-20.19328],[-42.46745,-20.19283],[-42.46434,-20.1899],[-42.46402,-20.18926],[-42.46399,-20.18724],[-42.46274,-20.18616],[-42.46147,-20.18632],[-42.45823,-20.18626],[-42.45678,-20.18664],[-42.45533,-20.1876],[-42.45187,-20.1887],[-42.45075,-20.18999],[-42.44934,-20.19093],[-42.44823,-20.19325],[-42.44766,-20.194],[-42.44542,-20.19557],[-42.44447,-20.19599],[-42.44227,-20.19605],[-42.44112,-20.19562],[-42.43825,-20.19361],[-42.43787,-20.19291]]]},"properties":{"codigo":"315400205","name":"Raul Soares","population":15650,"households":7441,"areaKm2":249.5349,"density":62.7}},{"type":"Feature","geometry":{"type":"Polygon","coordinates":[[[-42.31071,-20.14279],[-42.3096,-20.14125],[-42.30907,-20.13998],[-42.30912,-20.13805],[-42.30962,-20.13687],[-42.31041,-20.13631],[-42.31157,-20.13339],[-42.3115,-20.13119],[-42.31095,-20.12995],[-42.30905,-20.12808],[-42.30822,-20.12682],[-42.30811,-20.12586],[-42.3085,-20.12482],[-42.31149,-20.12244],[-42.30997,-20.12045],[-42.30995,-20.11834],[-42.30923,-20.11704],[-42.30849,-20.11675],[-42.30528,-20.11683],[-42.30225,-20.11712],[-42.29863,-20.11703],[-42.29676,-20.11625],[-42.29308,-20.11216],[-42.29111,-20.11159],[-42.28928,-20.11147],[-42.28772,-20.11167],[-42.28476,-20.11148],[-42.28266,-20.11059],[-42.28096,-20.10925],[-42.27742,-20.10508],[-42.27621,-20.10449],[-42.27496,-20.10464],[-42.27343,-20.10427],[-42.27297,-20.10126],[-42.27173,-20.09877],[-42.26858,-20.09706],[-42.26533,-20.09594],[-42.26324,-20.09597],[-42.26149,-20.0957],[-42.25952,-20.09468],[-42.25824,-20.0948],[-42.257,-20.09574],[-42.25421,-20.09578],[-42.25236,-20.09549],[-42.24983,-20.0943],[-42.25012,-20.09343],[-42.25169,-20.09174],[-42.25145,-20.08926],[-42.25069,-20.08799],[-42.24947,-20.08718],[-42.24857,-20.08461],[-42.24778,-20.08377],[-42.24998,-20.08085],[-42.25034,-20.07921],[-42.25106,-20.07864],[-42.25453,-20.07905],[-42.2575,-20.07861],[-42.26095,-20.0809],[-42.26194,-20.08067],[-42.26483,-20.07849],[-42.26557,-20.07828],[-42.2679,-20.07856],[-42.27045,-20.0772],[-42.27171,-20.07724],[-42.273,-20.07776],[-42.2749,-20.07914],[-42.27673,-20.07857],[-42.27812,-20.07736],[-42.27903,-20.07713],[-42.2813,-20.07836],[-42.28302,-20.07839],[-42.28417,-20.07811],[-42.28596,-20.07697],[-42.28672,-20.07598],[-42.2882,-20.07517],[-42.28916,-20.0754],[-42.2905,-20.07466],[-42.2917,-20.07206],[-42.2924,-20.07093],[-42.29433,-20.07052],[-42.29645,-20.06707],[-42.29753,-20.06479],[-42.2982,-20.06397],[-42.30027,-20.06309],[-42.30163,-20.06325],[-42.30307,-20.06469],[-42.30386,-20.065],[-42.30454,-20.06434],[-42.30506,-20.05989],[-42.30586,-20.05889],[-42.30962,-20.05829],[-42.31212,-20.05737],[-42.31428,-20.05696],[-42.31772,-20.05699],[-42.31936,-20.05722],[-42.32232,-20.05584],[-42.32342,-20.05515],[-42.32411,-20.05393],[-42.32776,-20.05316],[-42.33227,-20.05129],[-42.33282,-20.05071],[-42.33571,-20.04974],[-42.33796,-20.04921],[-42.33911,-20.04872],[-42.34187,-20.04867],[-42.34291,-20.0484],[-42.34387,-20.04732],[-42.34554,-20.04673],[-42.34722,-20.04696],[-42.34783,-20.04762],[-42.34994,-20.04887],[-42.35059,-20.04978],[-42.3507,-20.05177],[-42.35221,-20.05179],[-42.35445,-20.05215],[-42.35764,-20.05351],[-42.36043,-20.05113],[-42.36144,-20.05067],[-42.36388,-20.05029],[-42.36643,-20.04898],[-42.36737,-20.04806],[-42.36851,-20.04783],[-42.36981,-20.04711],[-42.37061,-20.04762],[-42.3756,-20.04697],[-42.37661,-20.04716],[-42.37673,-20.04861],[-42.37583,-20.04983],[-42.37363,-20.05132],[-42.37244,-20.05371],[-42.3725,-20.05492],[-42.37331,-20.05603],[-42.37512,-20.05717],[-42.37612,-20.05749],[-42.37835,-20.05764],[-42.38166,-20.05679],[-42.38282,-20.05786],[-42.38541,-20.06241],[-42.38781,-20.06501],[-42.38577,-20.06882],[-42.38481,-20.07],[-42.3849,-20.07172],[-42.38584,-20.07301],[-42.38708,-20.07325],[-42.38801,-20.074],[-42.38892,-20.07638],[-42.38996,-20.07746],[-42.39398,-20.07765],[-42.39543,-20.07809],[-42.39689,-20.07909],[-42.39713,-20.08241],[-42.39784,-20.08349],[-42.4001,-20.08475],[-42.40067,-20.08575],[-42.4007,-20.08667],[-42.40001,-20.08847],[-42.40054,-20.08955],[-42.40154,-20.0931],[-42.40157,-20.09518],[-42.40102,-20.09733],[-42.39987,-20.09855],[-42.39849,-20.10127],[-42.39728,-20.10527],[-42.39752,-20.10622],[-42.39432,-20.10658],[-42.39246,-20.10697],[-42.39156,-20.10858],[-42.38985,-20.11098],[-42.3886,-20.11202],[-42.38623,-20.1147],[-42.38552,-20.11608],[-42.38481,-20.11814],[-42.38444,-20.12196],[-42.38268,-20.12168],[-42.38097,-20.1217],[-42.37848,-20.12229],[-42.37482,-20.12292],[-42.37344,-20.12282],[-42.37174,-20.12368],[-42.36869,-20.12423],[-42.36769,-20.12504],[-42.36763,-20.12686],[-42.36847,-20.12804],[-42.36969,-20.13112],[-42.36932,-20.13297],[-42.36699,-20.13391],[-42.36407,-20.13574],[-42.36162,-20.13703],[-42.35963,-20.13785],[-42.35825,-20.13962],[-42.35694,-20.14026],[-42.35597,-20.14019],[-42.35168,-20.13919],[-42.35069,-20.13762],[-42.34955,-20.13639],[-42.34821,-20.13562],[-42.34716,-20.13541],[-42.34511,-20.13555],[-42.3439,-20.13682],[-42.34238,-20.139],[-42.34141,-20.13889],[-42.33985,-20.13806],[-42.33778,-20.13813],[-42.33632,-20.13779],[-42.33192,-20.13785],[-42.32976,-20.13817],[-42.32525,-20.13763],[-42.32345,-20.13774],[-42.32254,-20.13854],[-42.32138,-20.14105],[-42.32064,-20.14167],[-42.31915,-20.14224],[-42.31809,-20.14227],[-42.31632,-20.14118],[-42.31402,-20.14047],[-42.31321,-20.14166],[-42.3117,-20.14264],[-42.31071,-20.14279]]]},"properties":{"codigo":"315400210","name":"Bicuíba","population":1490,"households":877,"areaKm2":99.6709,"density":14.9}},{"type":"Feature","geometry":{"type":"Polygon","coordinates":[[[-42.27403,-19.93142],[-42.27687,-19.93402],[-42.27825,-19.93625],[-42.27937,-19.9358],[-42.28068,-19.93695],[-42.28111,-19.93828],[-42.2802,-19.94055],[-42.28002,-19.94301],[-42.28279,-19.94911],[-42.28293,-19.95115],[-42.28183,-19.95292],[-42.27971,-19.95436],[-42.27844,-19.95624],[-42.27535,-19.95747],[-42.27464,-19.95942],[-42.27753,-19.96504],[-42.27484,-19.96598],[-42.27275,-19.96632],[-42.27079,-19.96636],[-42.26698,-19.97025],[-42.26525,-19.97254],[-42.26413,-19.97355],[-42.26218,-19.97434],[-42.25763,-19.97543],[-42.256,-19.97558],[-42.25398,-19.97663],[-42.25247,-19.97906],[-42.25127,-19.98145],[-42.25,-19.98312],[-42.24547,-19.98616],[-42.24272,-19.98631],[-42.23943,-19.98788],[-42.23722,-19.98932],[-42.23546,-19.99096],[-42.2334,-19.99098],[-42.2314,-19.9921],[-42.22872,-19.99312],[-42.22688,-19.99224],[-42.22488,-19.98904],[-42.22391,-19.98798],[-42.22294,-19.98756],[-42.21975,-19.98888],[-42.21861,-19.9889],[-42.21546,-19.98701],[-42.21403,-19.98739],[-42.21322,-19.98856],[-42.21316,-19.99049],[-42.21255,-19.9912],[-42.21114,-19.99128],[-42.20721,-19.98996],[-42.20529,-19.99025],[-42.20473,-19.99103],[-42.20487,-19.99335],[-42.20417,-19.9978],[-42.20334,-19.99844],[-42.20033,-19.99827],[-42.19936,-19.99838],[-42.19833,-19.99929],[-42.19731,-20.00249],[-42.1974,-20.00355],[-42.19634,-20.00234],[-42.19371,-20.00219],[-42.19256,-20.00144],[-42.18966,-20.00095],[-42.18562,-20.00139],[-42.1838,-20.00126],[-42.18215,-19.99893],[-42.1817,-19.99753],[-42.18058,-19.9967],[-42.17964,-19.99648],[-42.17813,-19.99678],[-42.17566,-19.99622],[-42.17461,-19.99619],[-42.17193,-19.99834],[-42.17125,-19.99771],[-42.17104,-19.99633],[-42.17022,-19.99567],[-42.16772,-19.99478],[-42.16544,-19.99356],[-42.16474,-19.99279],[-42.16322,-19.98985],[-42.1614,-19.98587],[-42.16036,-19.98315],[-42.16027,-19.98224],[-42.16074,-19.98079],[-42.16134,-19.97671],[-42.16036,-19.97372],[-42.16039,-19.97167],[-42.1601,-19.96692],[-42.15946,-19.96457],[-42.15894,-19.95954],[-42.15925,-19.95713],[-42.16081,-19.95546],[-42.16308,-19.95393],[-42.16502,-19.95422],[-42.16778,-19.95432],[-42.16852,-19.95363],[-42.16717,-19.95165],[-42.16683,-19.95071],[-42.16684,-19.94931],[-42.16789,-19.94805],[-42.16812,-19.94541],[-42.16805,-19.9439],[-42.16837,-19.94298],[-42.16863,-19.94057],[-42.16915,-19.93838],[-42.16964,-19.93745],[-42.17073,-19.9364],[-42.17414,-19.93414],[-42.17541,-19.9327],[-42.17615,-19.93141],[-42.176,-19.92602],[-42.17642,-19.92515],[-42.17843,-19.9249],[-42.18004,-19.9244],[-42.18423,-19.92212],[-42.18517,-19.92215],[-42.18689,-19.92319],[-42.18801,-19.92294],[-42.1893,-19.92166],[-42.19076,-19.92203],[-42.19199,-19.92273],[-42.19413,-19.92246],[-42.2017,-19.92346],[-42.20459,-19.92445],[-42.20816,-19.92495],[-42.21031,-19.92556],[-42.21361,-19.92729],[-42.21576,-19.92939],[-42.21746,-19.93045],[-42.22343,-19.93075],[-42.22433,-19.93025],[-42.22516,-19.92901],[-42.22476,-19.92704],[-42.22498,-19.92616],[-42.2259,-19.9255],[-42.23159,-19.92486],[-42.23596,-19.92573],[-42.23877,-19.92709],[-42.24233,-19.9277],[-42.24536,-19.92957],[-42.24674,-19.93017],[-42.24868,-19.93036],[-42.25131,-19.93021],[-42.25442,-19.93022],[-42.25752,-19.93042],[-42.25908,-19.93086],[-42.26167,-19.93117],[-42.26452,-19.93079],[-42.26908,-19.93076],[-42.27207,-19.93125],[-42.27403,-19.93142]]]},"properties":{"codigo":"315400215","name":"Santana do Tabuleiro","population":2454,"households":1113,"areaKm2":80.5048,"density":30.5}},{"type":"Feature","geometry":{"type":"Polygon","coordinates":[[[-42.37041,-19.85978],[-42.37158,-19.85934],[-42.37561,-19.85951],[-42.37945,-19.86079],[-42.38112,-19.8629],[-42.38295,-19.86446],[-42.3863,-19.86547],[-42.38844,-19.86544],[-42.39117,-19.86284],[-42.39251,-19.86215],[-42.39426,-19.86207],[-42.39523,-19.86269],[-42.398,-19.86372],[-42.40026,-19.86372],[-42.40387,-19.86295],[-42.40579,-19.8624],[-42.4076,-19.86127],[-42.41129,-19.85967],[-42.42213,-19.85575],[-42.42732,-19.85411],[-42.42858,-19.85201],[-42.42941,-19.8521],[-42.43067,-19.85309],[-42.43409,-19.85393],[-42.43628,-19.85413],[-42.4391,-19.85543],[-42.44246,-19.85802],[-42.44261,-19.86002],[-42.44309,-19.86101],[-42.4436,-19.86379],[-42.44402,-19.86774],[-42.44551,-19.87199],[-42.44678,-19.87475],[-42.44233,-19.87493],[-42.44029,-19.87519],[-42.43732,-19.87494],[-42.43611,-19.87613],[-42.43514,-19.87834],[-42.43485,-19.88237],[-42.43434,-19.8863],[-42.43298,-19.88798],[-42.43083,-19.88915],[-42.42948,-19.89159],[-42.4279,-19.89367],[-42.42729,-19.89675],[-42.42627,-19.89841],[-42.4244,-19.89993],[-42.4218,-19.90117],[-42.41912,-19.90205],[-42.41877,-19.90351],[-42.4181,-19.90448],[-42.41772,-19.90575],[-42.41848,-19.91106],[-42.41877,-19.91202],[-42.41773,-19.91481],[-42.41629,-19.91645],[-42.41629,-19.91737],[-42.41767,-19.92073],[-42.4185,-19.92323],[-42.41892,-19.92613],[-42.41933,-19.92758],[-42.41936,-19.92956],[-42.41517,-19.93161],[-42.41412,-19.93187],[-42.41376,-19.93251],[-42.41248,-19.93324],[-42.41053,-19.93375],[-42.40907,-19.93282],[-42.40309,-19.93258],[-42.40166,-19.93218],[-42.39896,-19.93082],[-42.39669,-19.92925],[-42.39467,-19.92913],[-42.39321,-19.93037],[-42.39189,-19.93257],[-42.39123,-19.93441],[-42.39102,-19.93677],[-42.39339,-19.94364],[-42.39291,-19.9467],[-42.39391,-19.9489],[-42.39536,-19.95071],[-42.39486,-19.95244],[-42.39555,-19.95343],[-42.39518,-19.95445],[-42.39582,-19.95644],[-42.39536,-19.95714],[-42.39617,-19.95817],[-42.39582,-19.96057],[-42.39514,-19.96112],[-42.3943,-19.96253],[-42.39361,-19.96256],[-42.391,-19.96359],[-42.38895,-19.96275],[-42.38589,-19.96049],[-42.3851,-19.95932],[-42.38412,-19.95918],[-42.38374,-19.9583],[-42.38406,-19.95697],[-42.38402,-19.95545],[-42.38331,-19.95416],[-42.38203,-19.95331],[-42.38189,-19.95225],[-42.38094,-19.94973],[-42.38144,-19.94666],[-42.38129,-19.94589],[-42.3781,-19.94324],[-42.37821,-19.9422],[-42.37769,-19.94174],[-42.37837,-19.93618],[-42.3776,-19.93387],[-42.3766,-19.93338],[-42.37471,-19.93182],[-42.37282,-19.93148],[-42.37118,-19.93183],[-42.36728,-19.93362],[-42.36413,-19.93253],[-42.3634,-19.93279],[-42.36042,-19.93303],[-42.3589,-19.93288],[-42.35802,-19.9324],[-42.35588,-19.93189],[-42.35437,-19.93101],[-42.3539,-19.93022],[-42.35375,-19.92842],[-42.35661,-19.92735],[-42.35776,-19.92568],[-42.35777,-19.92432],[-42.35704,-19.92303],[-42.35557,-19.92165],[-42.35227,-19.92047],[-42.352,-19.91957],[-42.35388,-19.91898],[-42.35558,-19.91802],[-42.35791,-19.9186],[-42.35898,-19.91851],[-42.35949,-19.91723],[-42.35925,-19.91585],[-42.35984,-19.91365],[-42.36138,-19.91239],[-42.36265,-19.91039],[-42.36221,-19.90959],[-42.3602,-19.90878],[-42.3577,-19.90854],[-42.35598,-19.9076],[-42.35414,-19.90685],[-42.35176,-19.90625],[-42.35152,-19.90538],[-42.35247,-19.90249],[-42.35311,-19.90118],[-42.35399,-19.90049],[-42.35542,-19.89997],[-42.35615,-19.8993],[-42.35652,-19.89823],[-42.35633,-19.89738],[-42.35464,-19.89445],[-42.35496,-19.89218],[-42.3555,-19.89129],[-42.3567,-19.88803],[-42.35661,-19.88663],[-42.3572,-19.885],[-42.35892,-19.88397],[-42.36223,-19.88329],[-42.36398,-19.88118],[-42.36505,-19.88059],[-42.36892,-19.87938],[-42.36992,-19.8784],[-42.3687,-19.87773],[-42.36737,-19.87653],[-42.36509,-19.8751],[-42.36447,-19.87423],[-42.36469,-19.87338],[-42.36822,-19.87121],[-42.36921,-19.8699],[-42.36968,-19.86797],[-42.37017,-19.86712],[-42.3702,-19.86559],[-42.36994,-19.86225],[-42.37041,-19.85978]]]},"properties":{"codigo":"315400220","name":"São Sebastião do Óculo","population":530,"households":266,"areaKm2":62.1044,"density":8.5}},{"type":"Feature","geometry":{"type":"Polygon","coordinates":[[[-42.55094,-19.88554],[-42.5515,-19.88592],[-42.55165,-19.88601],[-42.55201,-19.88803],[-42.55074,-19.88842],[-42.5489,-19.88769],[-42.54744,-19.88769],[-42.54822,-19.8887],[-42.55006,-19.88923],[-42.55031,-19.89004],[-42.54936,-19.89112],[-42.54844,-19.89153],[-42.5488,-19.89287],[-42.54742,-19.89402],[-42.54878,-19.89544],[-42.5492,-19.89629],[-42.54874,-19.8971],[-42.54917,-19.89772],[-42.55068,-19.89767],[-42.55076,-19.89818],[-42.54966,-19.9003],[-42.54891,-19.90002],[-42.54832,-19.89876],[-42.54735,-19.89894],[-42.54733,-19.90046],[-42.54543,-19.90023],[-42.54497,-19.90198],[-42.54424,-19.90253],[-42.54327,-19.9015],[-42.542,-19.90118],[-42.54147,-19.90295],[-42.54288,-19.9035],[-42.54388,-19.90442],[-42.5442,-19.90531],[-42.54417,-19.90722],[-42.54486,-19.90904],[-42.54476,-19.90996],[-42.5435,-19.91189],[-42.54442,-19.91346],[-42.5462,-19.91424],[-42.54683,-19.9149],[-42.54637,-19.91564],[-42.54445,-19.91514],[-42.54428,-19.91672],[-42.54239,-19.9167],[-42.53976,-19.91569],[-42.53881,-19.91599],[-42.53806,-19.91967],[-42.53697,-19.92064],[-42.53475,-19.92179],[-42.53437,-19.92269],[-42.53459,-19.92402],[-42.53279,-19.92483],[-42.53305,-19.92605],[-42.53447,-19.92561],[-42.53534,-19.926],[-42.53685,-19.92487],[-42.53823,-19.92487],[-42.5386,-19.92529],[-42.5385,-19.92667],[-42.53644,-19.92777],[-42.53539,-19.92881],[-42.53534,-19.92971],[-42.53676,-19.93003],[-42.53829,-19.92986],[-42.54028,-19.93012],[-42.54225,-19.92972],[-42.5431,-19.93064],[-42.54189,-19.93163],[-42.54046,-19.93219],[-42.53892,-19.93331],[-42.53771,-19.9349],[-42.53703,-19.93743],[-42.53764,-19.93872],[-42.53944,-19.94031],[-42.53959,-19.94125],[-42.53893,-19.94318],[-42.53979,-19.94408],[-42.53906,-19.94465],[-42.53711,-19.94431],[-42.53602,-19.94604],[-42.53502,-19.94618],[-42.53392,-19.94516],[-42.53259,-19.94452],[-42.53244,-19.94588],[-42.5341,-19.94703],[-42.53378,-19.94779],[-42.53235,-19.94765],[-42.53157,-19.9482],[-42.53159,-19.94949],[-42.53512,-19.94896],[-42.53529,-19.95101],[-42.53658,-19.95241],[-42.53671,-19.95335],[-42.53588,-19.95379],[-42.53493,-19.95342],[-42.53362,-19.9537],[-42.53328,-19.95506],[-42.53554,-19.95683],[-42.53566,-19.95731],[-42.53469,-19.95834],[-42.53365,-19.95855],[-42.53277,-19.95809],[-42.53092,-19.95789],[-42.53075,-19.95904],[-42.53175,-19.95998],[-42.53083,-19.96072],[-42.529,-19.96005],[-42.52798,-19.96008],[-42.52662,-19.95877],[-42.52569,-19.95895],[-42.52562,-19.95985],[-42.52487,-19.96102],[-42.52287,-19.96098],[-42.52229,-19.96026],[-42.52141,-19.96015],[-42.52131,-19.96109],[-42.52066,-19.96238],[-42.51952,-19.96335],[-42.51669,-19.96459],[-42.5158,-19.96567],[-42.51492,-19.96731],[-42.51407,-19.96947],[-42.51312,-19.96959],[-42.5121,-19.96809],[-42.51115,-19.96814],[-42.50896,-19.96922],[-42.50845,-19.96908],[-42.50835,-19.96775],[-42.5093,-19.96665],[-42.50935,-19.96577],[-42.50757,-19.96499],[-42.50682,-19.96658],[-42.50492,-19.96709],[-42.50195,-19.96711],[-42.50176,-19.96762],[-42.50261,-19.96867],[-42.50137,-19.96934],[-42.50108,-19.97024],[-42.50137,-19.9716],[-42.50213,-19.97233],[-42.50356,-19.97254],[-42.50393,-19.97337],[-42.50271,-19.97518],[-42.50194,-19.98123],[-42.50068,-19.98188],[-42.50049,-19.98245],[-42.49959,-19.98174],[-42.49867,-19.98011],[-42.49713,-19.98019],[-42.49636,-19.98456],[-42.49546,-19.9839],[-42.49335,-19.98526],[-42.49139,-19.98479],[-42.49016,-19.98365],[-42.48929,-19.98392],[-42.48992,-19.98672],[-42.48839,-19.98793],[-42.48585,-19.98838],[-42.48233,-19.98655],[-42.4797,-19.98579],[-42.47759,-19.98456],[-42.47572,-19.98175],[-42.47437,-19.98274],[-42.47316,-19.98316],[-42.47234,-19.98431],[-42.47134,-19.98461],[-42.47061,-19.98399],[-42.46929,-19.982],[-42.46794,-19.98245],[-42.46668,-19.98335],[-42.46556,-19.98223],[-42.4641,-19.98144],[-42.46282,-19.9814],[-42.46205,-19.98265],[-42.45969,-19.98577],[-42.45692,-19.98525],[-42.45588,-19.98744],[-42.45577,-19.98831],[-42.45508,-19.98884],[-42.4529,-19.98955],[-42.45228,-19.99049],[-42.45159,-19.99242],[-42.44932,-19.9938],[-42.4499,-19.99516],[-42.44902,-19.99563],[-42.44907,-19.99635],[-42.44989,-19.99688],[-42.45102,-19.99861],[-42.45088,-19.99948],[-42.44999,-19.99989],[-42.44966,-19.99852],[-42.44855,-19.99777],[-42.44709,-19.99851],[-42.44826,-19.99928],[-42.44946,-20.00087],[-42.45109,-20.00069],[-42.45179,-20.0013],[-42.45036,-20.00221],[-42.45093,-20.00344],[-42.45034,-20.00378],[-42.44943,-20.00311],[-42.44838,-20.00359],[-42.44898,-20.0051],[-42.44845,-20.00575],[-42.44704,-20.00605],[-42.44675,-20.00732],[-42.44735,-20.00761],[-42.44862,-20.00735],[-42.44957,-20.00828],[-42.44943,-20.00923],[-42.44829,-20.00854],[-42.44752,-20.00907],[-42.44782,-20.00988],[-42.44998,-20.01047],[-42.45122,-20.01207],[-42.45111,-20.01276],[-42.44953,-20.01239],[-42.44799,-20.01239],[-42.44792,-20.01348],[-42.44618,-20.01511],[-42.4461,-20.01567],[-42.44424,-20.01651],[-42.44485,-20.0171],[-42.44431,-20.01865],[-42.44224,-20.01856],[-42.4414,-20.01957],[-42.4396,-20.02039],[-42.44119,-20.0224],[-42.4396,-20.02296],[-42.4389,-20.02355],[-42.43813,-20.02334],[-42.43704,-20.02215],[-42.43705,-20.02084],[-42.43572,-20.02096],[-42.43513,-20.02055],[-42.43509,-20.01926],[-42.43419,-20.01879],[-42.434,-20.01761],[-42.43289,-20.01811],[-42.43256,-20.01756],[-42.42957,-20.01766],[-42.42832,-20.01877],[-42.42635,-20.0188],[-42.42667,-20.02101],[-42.42493,-20.02134],[-42.42358,-20.02218],[-42.42211,-20.02125],[-42.42055,-20.02271],[-42.41951,-20.02213],[-42.41905,-20.02055],[-42.41786,-20.01867],[-42.4183,-20.01754],[-42.42001,-20.01706],[-42.41979,-20.01557],[-42.41849,-20.01452],[-42.41884,-20.01299],[-42.41827,-20.01241],[-42.41871,-20.01045],[-42.41779,-20.00924],[-42.41684,-20.00975],[-42.41631,-20.00908],[-42.41727,-20.00837],[-42.4167,-20.00768],[-42.41578,-20.00751],[-42.41498,-20.00864],[-42.41371,-20.00686],[-42.41431,-20.00563],[-42.4137,-20.004],[-42.41446,-20.00288],[-42.41395,-20.0011],[-42.41538,-20.00152],[-42.41655,-20.0013],[-42.41684,-20.00018],[-42.41771,-19.99892],[-42.41631,-19.99815],[-42.41532,-19.99799],[-42.4148,-19.99875],[-42.41381,-19.9984],[-42.41297,-19.99889],[-42.41152,-19.99791],[-42.40935,-19.99982],[-42.40903,-20.00056],[-42.40774,-20.00141],[-42.40693,-20.00051],[-42.40618,-20.00042],[-42.40423,-20.00087],[-42.40272,-20.00171],[-42.40073,-20.00393],[-42.40089,-20.0045],[-42.39992,-20.00619],[-42.39807,-20.00544],[-42.39771,-20.00658],[-42.39473,-20.00664],[-42.39289,-20.00644],[-42.39286,-20.00512],[-42.39138,-20.00363],[-42.39076,-20.00381],[-42.3908,-20.00254],[-42.3921,-20.0003],[-42.39193,-19.99941],[-42.39293,-19.99838],[-42.39288,-19.99575],[-42.39346,-19.99396],[-42.39334,-19.99307],[-42.39403,-19.99152],[-42.39402,-19.99082],[-42.39511,-19.99029],[-42.39496,-19.98955],[-42.39559,-19.9886],[-42.39741,-19.98768],[-42.39674,-19.98718],[-42.39651,-19.98596],[-42.39569,-19.98568],[-42.39503,-19.9848],[-42.39554,-19.98354],[-42.39523,-19.9826],[-42.39413,-19.98095],[-42.39473,-19.98045],[-42.39474,-19.97951],[-42.39405,-19.97837],[-42.39499,-19.97626],[-42.396,-19.97543],[-42.39581,-19.9742],[-42.39429,-19.97073],[-42.39423,-19.9699],[-42.39532,-19.96865],[-42.39596,-19.9673],[-42.39671,-19.96484],[-42.39603,-19.96375],[-42.39501,-19.96338],[-42.3943,-19.96253],[-42.39514,-19.96112],[-42.39582,-19.96057],[-42.39617,-19.95817],[-42.39536,-19.95714],[-42.39582,-19.95644],[-42.39518,-19.95445],[-42.39555,-19.95343],[-42.39486,-19.95244],[-42.39536,-19.95071],[-42.39391,-19.9489],[-42.39291,-19.9467],[-42.39339,-19.94364],[-42.39102,-19.93677],[-42.39123,-19.93441],[-42.39189,-19.93257],[-42.39321,-19.93037],[-42.39467,-19.92913],[-42.39669,-19.92925],[-42.39896,-19.93082],[-42.40166,-19.93218],[-42.40309,-19.93258],[-42.40907,-19.93282],[-42.41053,-19.93375],[-42.41248,-19.93324],[-42.41376,-19.93251],[-42.41412,-19.93187],[-42.41517,-19.93161],[-42.41936,-19.92956],[-42.41933,-19.92758],[-42.41892,-19.92613],[-42.4185,-19.92323],[-42.41767,-19.92073],[-42.41629,-19.91737],[-42.41629,-19.91645],[-42.41773,-19.91481],[-42.41877,-19.91202],[-42.41848,-19.91106],[-42.41772,-19.90575],[-42.4181,-19.90448],[-42.41877,-19.90351],[-42.41912,-19.90205],[-42.4218,-19.90117],[-42.4244,-19.89993],[-42.42627,-19.89841],[-42.42729,-19.89675],[-42.4279,-19.89367],[-42.42948,-19.89159],[-42.43083,-19.88915],[-42.43298,-19.88798],[-42.43434,-19.8863],[-42.43485,-19.88237],[-42.43514,-19.87834],[-42.43611,-19.87613],[-42.43732,-19.87494],[-42.44029,-19.87519],[-42.44233,-19.87493],[-42.44678,-19.87475],[-42.44834,-19.87774],[-42.44889,-19.87946],[-42.45148,-19.88315],[-42.45261,-19.88694],[-42.45408,-19.89002],[-42.45519,-19.89119],[-42.45623,-19.89405],[-42.457,-19.89536],[-42.45802,-19.89786],[-42.45949,-19.90048],[-42.46145,-19.90244],[-42.46363,-19.90543],[-42.4661,-19.90707],[-42.47176,-19.9086],[-42.47382,-19.90897],[-42.47659,-19.90921],[-42.47814,-19.90905],[-42.4796,-19.90853],[-42.48177,-19.90646],[-42.48213,-19.90587],[-42.48236,-19.90334],[-42.48295,-19.90139],[-42.48456,-19.89848],[-42.48565,-19.89756],[-42.48764,-19.89688],[-42.48973,-19.89688],[-42.49233,-19.89767],[-42.49405,-19.89871],[-42.49555,-19.89933],[-42.4965,-19.89924],[-42.49852,-19.89768],[-42.4994,-19.89743],[-42.50261,-19.89815],[-42.50346,-19.89877],[-42.50411,-19.90004],[-42.50443,-19.90201],[-42.50516,-19.90429],[-42.50655,-19.90606],[-42.50806,-19.90721],[-42.50903,-19.90739],[-42.51288,-19.90681],[-42.51715,-19.90543],[-42.5192,-19.90398],[-42.52311,-19.90076],[-42.52442,-19.89928],[-42.52765,-19.89475],[-42.52877,-19.89493],[-42.52931,-19.89783],[-42.53043,-19.89875],[-42.53388,-19.8978],[-42.53609,-19.89647],[-42.53864,-19.89442],[-42.53966,-19.89264],[-42.54122,-19.89145],[-42.54236,-19.8899],[-42.54335,-19.88804],[-42.5451,-19.88707],[-42.54605,-19.88606],[-42.54692,-19.88564],[-42.54936,-19.88601],[-42.55094,-19.88554]]]},"properties":{"codigo":"315400225","name":"São Vicente da Estrela","population":1050,"households":565,"areaKm2":147.3231,"density":7.1}},{"type":"Feature","geometry":{"type":"Polygon","coordinates":[[[-42.35375,-19.92842],[-42.3539,-19.93022],[-42.35437,-19.93101],[-42.35588,-19.93189],[-42.35802,-19.9324],[-42.3589,-19.93288],[-42.36042,-19.93303],[-42.3634,-19.93279],[-42.36413,-19.93253],[-42.36728,-19.93362],[-42.37118,-19.93183],[-42.37282,-19.93148],[-42.37471,-19.93182],[-42.3766,-19.93338],[-42.3776,-19.93387],[-42.37837,-19.93618],[-42.37769,-19.94174],[-42.37821,-19.9422],[-42.3781,-19.94324],[-42.38129,-19.94589],[-42.38144,-19.94666],[-42.38094,-19.94973],[-42.38189,-19.95225],[-42.38203,-19.95331],[-42.38331,-19.95416],[-42.38402,-19.95545],[-42.38406,-19.95697],[-42.38374,-19.9583],[-42.38412,-19.95918],[-42.3851,-19.95932],[-42.38589,-19.96049],[-42.38895,-19.96275],[-42.391,-19.96359],[-42.39361,-19.96256],[-42.3943,-19.96253],[-42.39501,-19.96338],[-42.39603,-19.96375],[-42.39671,-19.96484],[-42.39596,-19.9673],[-42.39532,-19.96865],[-42.39423,-19.9699],[-42.39429,-19.97073],[-42.39581,-19.9742],[-42.396,-19.97543],[-42.39499,-19.97626],[-42.39405,-19.97837],[-42.39474,-19.97951],[-42.39473,-19.98045],[-42.39413,-19.98095],[-42.39523,-19.9826],[-42.39554,-19.98354],[-42.39503,-19.9848],[-42.39569,-19.98568],[-42.39651,-19.98596],[-42.39674,-19.98718],[-42.39741,-19.98768],[-42.39559,-19.9886],[-42.39496,-19.98955],[-42.39511,-19.99029],[-42.39402,-19.99082],[-42.39403,-19.99152],[-42.39334,-19.99307],[-42.39346,-19.99396],[-42.39288,-19.99575],[-42.39293,-19.99838],[-42.39193,-19.99941],[-42.3921,-20.0003],[-42.3908,-20.00254],[-42.39076,-20.00381],[-42.38945,-20.00868],[-42.38675,-20.01075],[-42.38618,-20.01307],[-42.38574,-20.01382],[-42.38422,-20.01526],[-42.38424,-20.01603],[-42.38252,-20.01847],[-42.38117,-20.01928],[-42.37653,-20.02124],[-42.37534,-20.0207],[-42.37389,-20.02089],[-42.37262,-20.02203],[-42.37208,-20.02502],[-42.37376,-20.02737],[-42.37373,-20.02837],[-42.37121,-20.03045],[-42.36933,-20.03116],[-42.36825,-20.03127],[-42.36557,-20.03233],[-42.36452,-20.03329],[-42.36241,-20.03398],[-42.36165,-20.03533],[-42.36165,-20.03685],[-42.36133,-20.0378],[-42.35994,-20.03878],[-42.358,-20.03878],[-42.35454,-20.03938],[-42.35269,-20.04014],[-42.35187,-20.04004],[-42.35053,-20.04078],[-42.35012,-20.04202],[-42.35022,-20.04439],[-42.34955,-20.04538],[-42.34774,-20.04626],[-42.34722,-20.04696],[-42.34554,-20.04673],[-42.34387,-20.04732],[-42.34291,-20.0484],[-42.34187,-20.04867],[-42.33911,-20.04872],[-42.33796,-20.04921],[-42.33571,-20.04974],[-42.33282,-20.05071],[-42.33227,-20.05129],[-42.32776,-20.05316],[-42.32411,-20.05393],[-42.324,-20.053],[-42.32209,-20.04925],[-42.32169,-20.04769],[-42.32065,-20.04486],[-42.32037,-20.04358],[-42.31832,-20.04205],[-42.31787,-20.04092],[-42.31835,-20.04006],[-42.31759,-20.03927],[-42.3164,-20.03867],[-42.31543,-20.03747],[-42.31457,-20.03529],[-42.31458,-20.03314],[-42.31619,-20.03155],[-42.31695,-20.02956],[-42.31718,-20.02748],[-42.31786,-20.02604],[-42.31987,-20.02422],[-42.32038,-20.02119],[-42.32135,-20.01957],[-42.32122,-20.01828],[-42.31767,-20.01678],[-42.31561,-20.01736],[-42.31305,-20.0171],[-42.31177,-20.01639],[-42.31049,-20.01439],[-42.31022,-20.01346],[-42.31028,-20.01164],[-42.3122,-20.00972],[-42.31205,-20.00861],[-42.31084,-20.00772],[-42.30649,-20.0069],[-42.30273,-20.0071],[-42.30109,-20.00779],[-42.29814,-20.0083],[-42.29602,-20.00787],[-42.29504,-20.00507],[-42.29387,-20.00358],[-42.29225,-20.00283],[-42.29102,-20.00277],[-42.28866,-20.00368],[-42.28703,-20.00337],[-42.2853,-20.00338],[-42.28378,-20.00453],[-42.28242,-20.00517],[-42.28145,-20.00507],[-42.27881,-20.00285],[-42.27728,-20.00191],[-42.27552,-20.00199],[-42.27317,-20.00236],[-42.27003,-20.0023],[-42.26828,-20.00136],[-42.26758,-20.00064],[-42.26516,-19.99998],[-42.26444,-19.99955],[-42.26189,-19.99689],[-42.26124,-19.99558],[-42.26148,-19.99168],[-42.26209,-19.99086],[-42.26449,-19.99114],[-42.2659,-19.99073],[-42.26821,-19.9895],[-42.26943,-19.98852],[-42.27034,-19.98737],[-42.26838,-19.98523],[-42.26814,-19.98431],[-42.26934,-19.98209],[-42.27046,-19.98122],[-42.2724,-19.98102],[-42.27636,-19.98227],[-42.27832,-19.98324],[-42.27939,-19.98417],[-42.28268,-19.98595],[-42.28344,-19.98547],[-42.28366,-19.98384],[-42.28547,-19.98201],[-42.28525,-19.98104],[-42.28298,-19.97784],[-42.28279,-19.9769],[-42.28335,-19.9761],[-42.28496,-19.97603],[-42.28746,-19.97544],[-42.28815,-19.97416],[-42.2876,-19.97207],[-42.28658,-19.97099],[-42.28508,-19.97057],[-42.28304,-19.96916],[-42.28094,-19.96628],[-42.27912,-19.96515],[-42.27753,-19.96504],[-42.27464,-19.95942],[-42.27535,-19.95747],[-42.27844,-19.95624],[-42.27971,-19.95436],[-42.28183,-19.95292],[-42.28293,-19.95115],[-42.28279,-19.94911],[-42.28002,-19.94301],[-42.2802,-19.94055],[-42.28111,-19.93828],[-42.28068,-19.93695],[-42.27937,-19.9358],[-42.27825,-19.93625],[-42.27687,-19.93402],[-42.27403,-19.93142],[-42.27736,-19.93086],[-42.27885,-19.93029],[-42.2796,-19.92955],[-42.28216,-19.9278],[-42.28328,-19.92621],[-42.28419,-19.92447],[-42.28506,-19.92385],[-42.28681,-19.92453],[-42.29344,-19.92985],[-42.29523,-19.93149],[-42.2955,-19.93237],[-42.29699,-19.93469],[-42.29745,-19.93607],[-42.29866,-19.93692],[-42.30063,-19.93665],[-42.30218,-19.93675],[-42.30366,-19.93728],[-42.30619,-19.93693],[-42.30876,-19.93698],[-42.31035,-19.93586],[-42.31159,-19.93371],[-42.31359,-19.9322],[-42.31415,-19.93144],[-42.31763,-19.93026],[-42.31977,-19.92877],[-42.32094,-19.9274],[-42.32182,-19.92467],[-42.32316,-19.92504],[-42.32384,-19.92573],[-42.3248,-19.92796],[-42.32669,-19.93013],[-42.32826,-19.93034],[-42.33058,-19.92917],[-42.33344,-19.92905],[-42.33589,-19.9291],[-42.33788,-19.92943],[-42.34036,-19.9293],[-42.34275,-19.92806],[-42.34466,-19.92791],[-42.3478,-19.92792],[-42.35032,-19.92859],[-42.35287,-19.92881],[-42.35375,-19.92842]]]},"properties":{"codigo":"315400235","name":"Vermelho Velho","population":2249,"households":1113,"areaKm2":124.2263,"density":18.1}}]}