{"type":"FeatureCollection","features":[{"type":"Feature","geometry":{"type":"Polygon","coordinates":[[[-41.6195,-15.9368],[-41.62401,-15.93625],[-41.6285,-15.93597],[-41.63287,-15.93527],[-41.6339,-15.93534],[-41.63779,-15.93453],[-41.64195,-15.93434],[-41.6445,-15.93388],[-41.64718,-15.93367],[-41.64896,-15.93327],[-41.65531,-15.93253],[-41.6578,-15.93197],[-41.66125,-15.93052],[-41.66296,-15.93045],[-41.67133,-15.93354],[-41.67271,-15.93421],[-41.67549,-15.93503],[-41.67982,-15.93672],[-41.68688,-15.93883],[-41.69404,-15.94153],[-41.69706,-15.94298],[-41.69992,-15.94403],[-41.70187,-15.94442],[-41.70782,-15.94643],[-41.70977,-15.94726],[-41.71136,-15.94769],[-41.71329,-15.94856],[-41.71555,-15.94994],[-41.71636,-15.95049],[-41.71883,-15.95299],[-41.72138,-15.95614],[-41.72288,-15.95869],[-41.72398,-15.95976],[-41.72634,-15.96093],[-41.72955,-15.96132],[-41.73161,-15.96173],[-41.74465,-15.96518],[-41.74674,-15.96612],[-41.74826,-15.96646],[-41.75026,-15.96618],[-41.75131,-15.96574],[-41.75411,-15.9641],[-41.75648,-15.96253],[-41.75769,-15.96228],[-41.76268,-15.96192],[-41.76459,-15.96226],[-41.76597,-15.96288],[-41.76792,-15.96451],[-41.76961,-15.96545],[-41.77153,-15.96581],[-41.77584,-15.96525],[-41.78106,-15.96386],[-41.7862,-15.96349],[-41.78881,-15.96424],[-41.79837,-15.9653],[-41.80246,-15.96619],[-41.80434,-15.96687],[-41.81,-15.9679],[-41.81262,-15.96826],[-41.81585,-15.96825],[-41.81801,-15.96882],[-41.82066,-15.9699],[-41.82304,-15.97125],[-41.82604,-15.97377],[-41.82709,-15.97609],[-41.82821,-15.97758],[-41.82999,-15.97848],[-41.83142,-15.97818],[-41.82961,-15.97981],[-41.82697,-15.98175],[-41.82253,-15.98661],[-41.81998,-15.99086],[-41.81943,-15.99365],[-41.81397,-15.99561],[-41.81315,-15.99911],[-41.81513,-16.00179],[-41.81522,-16.00526],[-41.81429,-16.00741],[-41.80993,-16.00839],[-41.80558,-16.01021],[-41.80269,-16.01238],[-41.80034,-16.0122],[-41.7962,-16.01299],[-41.79003,-16.01631],[-41.78621,-16.01872],[-41.78303,-16.02146],[-41.78253,-16.02225],[-41.78273,-16.02437],[-41.78242,-16.02737],[-41.78246,-16.03138],[-41.78143,-16.03392],[-41.77986,-16.03427],[-41.77718,-16.03375],[-41.77283,-16.03479],[-41.7704,-16.03618],[-41.76818,-16.03711],[-41.76479,-16.04128],[-41.75716,-16.04454],[-41.7536,-16.04889],[-41.75183,-16.05191],[-41.75136,-16.05384],[-41.75047,-16.0553],[-41.74939,-16.05619],[-41.74702,-16.05649],[-41.74559,-16.05717],[-41.74548,-16.06004],[-41.74464,-16.06178],[-41.74519,-16.06271],[-41.74436,-16.06549],[-41.74463,-16.06732],[-41.74432,-16.06932],[-41.7453,-16.07053],[-41.74644,-16.0707],[-41.74721,-16.07219],[-41.74949,-16.07358],[-41.74962,-16.07415],[-41.75079,-16.07478],[-41.75295,-16.07521],[-41.75408,-16.0759],[-41.75465,-16.07683],[-41.75455,-16.0782],[-41.75336,-16.07929],[-41.75355,-16.08068],[-41.75483,-16.08146],[-41.75444,-16.08308],[-41.75499,-16.08375],[-41.75551,-16.08539],[-41.75514,-16.08678],[-41.75594,-16.08768],[-41.75671,-16.0878],[-41.75836,-16.09112],[-41.75936,-16.09177],[-41.76213,-16.09291],[-41.76303,-16.09358],[-41.7639,-16.0964],[-41.76476,-16.09763],[-41.76505,-16.09935],[-41.76482,-16.10109],[-41.76427,-16.10289],[-41.76304,-16.1048],[-41.76193,-16.10752],[-41.76107,-16.10853],[-41.75814,-16.11031],[-41.75758,-16.11155],[-41.75838,-16.11325],[-41.75832,-16.11428],[-41.75757,-16.11581],[-41.75786,-16.11726],[-41.75887,-16.11779],[-41.7608,-16.12],[-41.76119,-16.12182],[-41.76109,-16.12366],[-41.76152,-16.12725],[-41.7606,-16.12936],[-41.76037,-16.13118],[-41.75948,-16.13295],[-41.76023,-16.13345],[-41.75997,-16.13569],[-41.76034,-16.13607],[-41.76311,-16.13689],[-41.76414,-16.13783],[-41.7644,-16.1392],[-41.76639,-16.13912],[-41.76673,-16.13861],[-41.76812,-16.13969],[-41.76999,-16.14008],[-41.77032,-16.14099],[-41.77159,-16.14204],[-41.77245,-16.14078],[-41.77421,-16.14158],[-41.77596,-16.14135],[-41.77661,-16.14327],[-41.7778,-16.14481],[-41.77756,-16.14622],[-41.77783,-16.14673],[-41.77931,-16.14703],[-41.78026,-16.14853],[-41.7811,-16.14883],[-41.78301,-16.1505],[-41.78598,-16.15047],[-41.7868,-16.15021],[-41.78773,-16.15119],[-41.78832,-16.153],[-41.7888,-16.15358],[-41.78874,-16.15416],[-41.79303,-16.15538],[-41.79403,-16.15538],[-41.79616,-16.15606],[-41.79716,-16.15608],[-41.80276,-16.15787],[-41.80365,-16.1589],[-41.80342,-16.16038],[-41.80359,-16.16229],[-41.80286,-16.16404],[-41.80318,-16.16595],[-41.80267,-16.16791],[-41.80146,-16.16897],[-41.80041,-16.1693],[-41.79906,-16.16919],[-41.79722,-16.16897],[-41.79634,-16.16934],[-41.79459,-16.17107],[-41.79249,-16.17175],[-41.79145,-16.17175],[-41.78851,-16.1708],[-41.78608,-16.1697],[-41.78346,-16.16956],[-41.77984,-16.17045],[-41.77634,-16.17044],[-41.77546,-16.17097],[-41.77483,-16.17196],[-41.77408,-16.17487],[-41.77273,-16.17701],[-41.771,-16.17803],[-41.76962,-16.17967],[-41.76811,-16.18313],[-41.76733,-16.18442],[-41.76615,-16.18516],[-41.76365,-16.18487],[-41.76059,-16.18365],[-41.75911,-16.18328],[-41.75773,-16.18345],[-41.75617,-16.18534],[-41.7542,-16.18577],[-41.75279,-16.1855],[-41.75124,-16.18559],[-41.74936,-16.18537],[-41.74747,-16.18416],[-41.74567,-16.18081],[-41.7439,-16.17914],[-41.74278,-16.1793],[-41.74176,-16.17993],[-41.73674,-16.18167],[-41.73498,-16.18161],[-41.73381,-16.18065],[-41.73268,-16.179],[-41.73147,-16.17838],[-41.72987,-16.17834],[-41.7258,-16.17877],[-41.71983,-16.17958],[-41.71745,-16.17961],[-41.71559,-16.17895],[-41.71203,-16.17678],[-41.71069,-16.17619],[-41.70589,-16.17257],[-41.70503,-16.17147],[-41.70416,-16.16947],[-41.70335,-16.1683],[-41.70208,-16.16748],[-41.69953,-16.1674],[-41.69829,-16.16673],[-41.69693,-16.16534],[-41.69591,-16.1649],[-41.6916,-16.16138],[-41.69024,-16.15995],[-41.68863,-16.1575],[-41.68686,-16.15435],[-41.68666,-16.15171],[-41.68717,-16.15014],[-41.68973,-16.1464],[-41.69077,-16.14525],[-41.69236,-16.14393],[-41.69324,-16.14353],[-41.69539,-16.13809],[-41.69528,-16.13496],[-41.69488,-16.1322],[-41.69388,-16.13],[-41.6912,-16.12739],[-41.68657,-16.12549],[-41.68542,-16.12442],[-41.68463,-16.12274],[-41.68468,-16.12182],[-41.68526,-16.12053],[-41.68425,-16.11632],[-41.68453,-16.11439],[-41.68447,-16.11294],[-41.68406,-16.11202],[-41.68177,-16.1109],[-41.68227,-16.10961],[-41.68233,-16.10811],[-41.68316,-16.10693],[-41.68399,-16.10649],[-41.68542,-16.10647],[-41.6889,-16.1074],[-41.69147,-16.10739],[-41.6929,-16.10664],[-41.69501,-16.10606],[-41.69601,-16.10608],[-41.69799,-16.10662],[-41.70195,-16.10893],[-41.70429,-16.10994],[-41.70574,-16.10995],[-41.70767,-16.1096],[-41.70902,-16.10828],[-41.70911,-16.1069],[-41.70963,-16.10497],[-41.71084,-16.10429],[-41.71226,-16.10408],[-41.71469,-16.10446],[-41.71622,-16.10411],[-41.71771,-16.10291],[-41.71773,-16.10151],[-41.7166,-16.09856],[-41.7164,-16.09666],[-41.71708,-16.09543],[-41.7186,-16.09409],[-41.71959,-16.09236],[-41.71976,-16.09139],[-41.71896,-16.08907],[-41.71796,-16.08813],[-41.71572,-16.08796],[-41.7129,-16.08691],[-41.71087,-16.08531],[-41.70835,-16.08509],[-41.70638,-16.08517],[-41.70587,-16.08374],[-41.70664,-16.07999],[-41.70697,-16.07911],[-41.70971,-16.07526],[-41.70959,-16.07434],[-41.708,-16.07064],[-41.70781,-16.06919],[-41.70804,-16.06721],[-41.70853,-16.06523],[-41.70883,-16.06295],[-41.70958,-16.06025],[-41.70943,-16.05982],[-41.71009,-16.05691],[-41.70942,-16.05558],[-41.70692,-16.05571],[-41.70546,-16.05514],[-41.70465,-16.0545],[-41.70384,-16.05303],[-41.70383,-16.05061],[-41.70444,-16.04916],[-41.70593,-16.04667],[-41.70597,-16.04568],[-41.70408,-16.04361],[-41.70272,-16.04166],[-41.70228,-16.04042],[-41.70202,-16.03853],[-41.7012,-16.03736],[-41.70015,-16.03698],[-41.6963,-16.03648],[-41.69222,-16.03535],[-41.68931,-16.03398],[-41.68722,-16.03327],[-41.68185,-16.03033],[-41.67954,-16.02941],[-41.67741,-16.02749],[-41.67629,-16.02588],[-41.67483,-16.0243],[-41.67268,-16.02265],[-41.66975,-16.0216],[-41.66841,-16.02094],[-41.66482,-16.02017],[-41.66275,-16.02004],[-41.66144,-16.01936],[-41.66084,-16.01858],[-41.66054,-16.01671],[-41.66078,-16.01584],[-41.66166,-16.01478],[-41.66229,-16.01307],[-41.66207,-16.01128],[-41.66127,-16.0087],[-41.66046,-16.00741],[-41.65898,-16.00609],[-41.65583,-16.00458],[-41.6545,-16.00369],[-41.65359,-16.00249],[-41.65318,-16.00141],[-41.65326,-15.99942],[-41.65301,-15.99868],[-41.65118,-15.9962],[-41.64968,-15.99496],[-41.6488,-15.99457],[-41.64625,-15.99434],[-41.64428,-15.99361],[-41.64121,-15.99184],[-41.63849,-15.99097],[-41.63702,-15.98962],[-41.63737,-15.98709],[-41.63651,-15.98541],[-41.63406,-15.98474],[-41.63294,-15.98387],[-41.63247,-15.98238],[-41.63313,-15.98061],[-41.63538,-15.97655],[-41.63671,-15.97264],[-41.63708,-15.97039],[-41.63682,-15.96933],[-41.63573,-15.96747],[-41.63358,-15.96536],[-41.63149,-15.96311],[-41.63044,-15.96249],[-41.62735,-15.96249],[-41.62588,-15.96196],[-41.62419,-15.96042],[-41.62147,-15.95679],[-41.61911,-15.95489],[-41.61759,-15.95344],[-41.61657,-15.95179],[-41.61528,-15.94843],[-41.6152,-15.9468],[-41.61556,-15.9444],[-41.61603,-15.94275],[-41.6195,-15.9368]]]},"properties":{"codigo":"315737705","name":"Santa Cruz de Salinas","population":2338,"households":1297,"areaKm2":272.9991,"density":8.6}},{"type":"Feature","geometry":{"type":"Polygon","coordinates":[[[-41.81274,-16.15235],[-41.81379,-16.14978],[-41.81386,-16.14895],[-41.81246,-16.14627],[-41.81031,-16.14659],[-41.81014,-16.14593],[-41.81081,-16.14481],[-41.8124,-16.14406],[-41.81272,-16.14359],[-41.8115,-16.1414],[-41.80901,-16.13975],[-41.80668,-16.1373],[-41.80592,-16.13493],[-41.80507,-16.13375],[-41.80477,-16.13206],[-41.80528,-16.13083],[-41.8059,-16.13041],[-41.80613,-16.12894],[-41.8054,-16.12851],[-41.80541,-16.12656],[-41.80514,-16.12605],[-41.80582,-16.12494],[-41.80534,-16.12259],[-41.80434,-16.12114],[-41.80593,-16.12015],[-41.80765,-16.11738],[-41.80755,-16.1164],[-41.80601,-16.11571],[-41.80616,-16.11472],[-41.80716,-16.11475],[-41.80879,-16.11563],[-41.80988,-16.11584],[-41.81116,-16.11388],[-41.81222,-16.1109],[-41.81314,-16.11017],[-41.81481,-16.10753],[-41.81544,-16.10572],[-41.81616,-16.10501],[-41.81721,-16.10321],[-41.81816,-16.10248],[-41.82047,-16.10351],[-41.82144,-16.10423],[-41.82315,-16.10346],[-41.82537,-16.10274],[-41.82652,-16.10165],[-41.82735,-16.10036],[-41.82922,-16.09952],[-41.83121,-16.1001],[-41.83306,-16.09679],[-41.83235,-16.09619],[-41.83315,-16.09546],[-41.8344,-16.0955],[-41.83546,-16.0948],[-41.83649,-16.09355],[-41.83747,-16.09167],[-41.83902,-16.09143],[-41.84018,-16.09178],[-41.84105,-16.09162],[-41.84182,-16.09069],[-41.84193,-16.0891],[-41.84282,-16.08751],[-41.84458,-16.08644],[-41.8449,-16.0854],[-41.84644,-16.08474],[-41.84824,-16.08434],[-41.84849,-16.08249],[-41.84938,-16.08161],[-41.8506,-16.08132],[-41.85092,-16.08041],[-41.8522,-16.08029],[-41.85274,-16.07968],[-41.85468,-16.07859],[-41.85515,-16.07797],[-41.85685,-16.07773],[-41.85663,-16.0762],[-41.85781,-16.07558],[-41.8578,-16.07453],[-41.85675,-16.07407],[-41.85477,-16.07375],[-41.85356,-16.07293],[-41.85434,-16.07184],[-41.85329,-16.07106],[-41.85236,-16.07136],[-41.85042,-16.07081],[-41.84968,-16.06886],[-41.84918,-16.06672],[-41.8468,-16.06765],[-41.8436,-16.06644],[-41.84159,-16.06657],[-41.84147,-16.06517],[-41.84069,-16.06483],[-41.84009,-16.06061],[-41.84138,-16.05882],[-41.84098,-16.05765],[-41.84001,-16.05736],[-41.83894,-16.05775],[-41.83822,-16.0572],[-41.83837,-16.0565],[-41.83746,-16.05501],[-41.83922,-16.05451],[-41.8418,-16.05285],[-41.84156,-16.05128],[-41.8405,-16.05014],[-41.83958,-16.04971],[-41.83974,-16.04776],[-41.84031,-16.04633],[-41.8397,-16.04501],[-41.83972,-16.04425],[-41.84128,-16.04297],[-41.83915,-16.04001],[-41.83867,-16.03874],[-41.83707,-16.03858],[-41.83641,-16.0361],[-41.83733,-16.03269],[-41.83702,-16.02778],[-41.83622,-16.02552],[-41.83524,-16.02403],[-41.83476,-16.02267],[-41.83542,-16.01855],[-41.8365,-16.01509],[-41.83632,-16.01389],[-41.83781,-16.01131],[-41.84221,-16.00846],[-41.84312,-16.00653],[-41.84316,-16.00409],[-41.84356,-16.00044],[-41.84325,-15.99759],[-41.84201,-15.99585],[-41.83876,-15.99201],[-41.83814,-15.9904],[-41.83671,-15.98751],[-41.8355,-15.98569],[-41.83202,-15.98432],[-41.83116,-15.98357],[-41.83142,-15.97818],[-41.83377,-15.97649],[-41.83617,-15.97524],[-41.84009,-15.97394],[-41.84474,-15.97145],[-41.8463,-15.96823],[-41.84696,-15.96636],[-41.84795,-15.96431],[-41.84864,-15.96234],[-41.84875,-15.96132],[-41.84958,-15.95994],[-41.85041,-15.95927],[-41.85189,-15.9592],[-41.85438,-15.95959],[-41.85854,-15.95969],[-41.86389,-15.95825],[-41.86505,-15.95728],[-41.86623,-15.9556],[-41.86737,-15.95454],[-41.86843,-15.95194],[-41.86862,-15.94998],[-41.86902,-15.94886],[-41.87061,-15.94694],[-41.87146,-15.94561],[-41.87224,-15.94328],[-41.87185,-15.94087],[-41.87023,-15.93812],[-41.86985,-15.93717],[-41.87013,-15.93625],[-41.87164,-15.93439],[-41.87166,-15.93114],[-41.87235,-15.93027],[-41.87322,-15.9299],[-41.87636,-15.92994],[-41.87786,-15.93028],[-41.88393,-15.93254],[-41.88835,-15.9328],[-41.88999,-15.93264],[-41.89305,-15.93121],[-41.89713,-15.92821],[-41.90127,-15.92371],[-41.90334,-15.92198],[-41.9044,-15.92078],[-41.90532,-15.91913],[-41.90582,-15.91666],[-41.90629,-15.91531],[-41.90654,-15.91333],[-41.90737,-15.91202],[-41.9087,-15.91066],[-41.9115,-15.90952],[-41.9134,-15.90922],[-41.91577,-15.90859],[-41.91694,-15.90767],[-41.91696,-15.90641],[-41.91774,-15.90739],[-41.91827,-15.90886],[-41.91819,-15.91408],[-41.91725,-15.91698],[-41.91739,-15.91847],[-41.91676,-15.92052],[-41.91437,-15.92329],[-41.91221,-15.92453],[-41.91057,-15.92587],[-41.90977,-15.92702],[-41.90896,-15.92875],[-41.90806,-15.92979],[-41.90719,-15.93025],[-41.90565,-15.93196],[-41.90532,-15.93338],[-41.90526,-15.93745],[-41.9051,-15.93938],[-41.9055,-15.94115],[-41.90632,-15.94315],[-41.90803,-15.94492],[-41.90828,-15.9468],[-41.90797,-15.94837],[-41.90933,-15.94963],[-41.91186,-15.9513],[-41.9126,-15.95295],[-41.91251,-15.95445],[-41.9117,-15.95624],[-41.91123,-15.95813],[-41.91141,-15.96025],[-41.91122,-15.96117],[-41.90944,-15.96269],[-41.90949,-15.96556],[-41.90807,-15.96685],[-41.90772,-15.96833],[-41.90692,-15.96953],[-41.9068,-15.97222],[-41.90617,-15.97369],[-41.90591,-15.9761],[-41.9063,-15.97753],[-41.9059,-15.97939],[-41.9062,-15.98411],[-41.90595,-15.98827],[-41.90642,-15.98905],[-41.90764,-15.99001],[-41.90831,-15.99212],[-41.91005,-15.9944],[-41.91048,-15.99522],[-41.9108,-15.99711],[-41.91101,-16.00037],[-41.91075,-16.00122],[-41.90966,-16.00221],[-41.90803,-16.00459],[-41.90674,-16.008],[-41.90574,-16.01208],[-41.90579,-16.01369],[-41.90628,-16.01509],[-41.90702,-16.01594],[-41.90833,-16.0163],[-41.90978,-16.0168],[-41.91142,-16.01691],[-41.9142,-16.01977],[-41.91523,-16.02209],[-41.9155,-16.02377],[-41.91554,-16.02664],[-41.91577,-16.02883],[-41.91652,-16.03253],[-41.91656,-16.0341],[-41.91628,-16.03598],[-41.91795,-16.0371],[-41.92055,-16.03711],[-41.92212,-16.0378],[-41.92363,-16.03984],[-41.92595,-16.04185],[-41.92735,-16.0423],[-41.92831,-16.04227],[-41.92888,-16.04301],[-41.92882,-16.04407],[-41.92817,-16.04754],[-41.926,-16.05085],[-41.92396,-16.05221],[-41.92296,-16.05314],[-41.92152,-16.05565],[-41.92071,-16.05863],[-41.92016,-16.0627],[-41.92205,-16.06435],[-41.92303,-16.06545],[-41.92608,-16.06739],[-41.92909,-16.06954],[-41.92988,-16.07032],[-41.93025,-16.07238],[-41.92981,-16.07529],[-41.92909,-16.0772],[-41.92764,-16.08289],[-41.92784,-16.08438],[-41.92866,-16.08574],[-41.92994,-16.08712],[-41.93107,-16.08925],[-41.93138,-16.09108],[-41.93125,-16.09198],[-41.92928,-16.09552],[-41.92923,-16.096],[-41.93083,-16.09832],[-41.93039,-16.1003],[-41.92921,-16.10009],[-41.9285,-16.10072],[-41.92819,-16.10171],[-41.92816,-16.10364],[-41.9276,-16.10555],[-41.92682,-16.10722],[-41.92654,-16.10864],[-41.92712,-16.11014],[-41.92788,-16.11068],[-41.93019,-16.11362],[-41.93129,-16.11467],[-41.93274,-16.11515],[-41.93351,-16.11606],[-41.93409,-16.1185],[-41.93541,-16.12063],[-41.9358,-16.12203],[-41.93429,-16.12388],[-41.93252,-16.12674],[-41.93181,-16.12824],[-41.93046,-16.12961],[-41.92951,-16.13019],[-41.92657,-16.13115],[-41.92418,-16.13068],[-41.92075,-16.12933],[-41.91782,-16.1288],[-41.91537,-16.1289],[-41.9121,-16.12841],[-41.91017,-16.12789],[-41.90712,-16.12745],[-41.90507,-16.12732],[-41.90429,-16.12679],[-41.90289,-16.1248],[-41.90226,-16.12094],[-41.90141,-16.11804],[-41.90057,-16.11747],[-41.89657,-16.11666],[-41.89266,-16.11663],[-41.88878,-16.11569],[-41.88783,-16.11523],[-41.88589,-16.11381],[-41.88448,-16.11214],[-41.88252,-16.1115],[-41.88057,-16.11147],[-41.87964,-16.11175],[-41.87846,-16.11288],[-41.8765,-16.11584],[-41.8753,-16.1184],[-41.87456,-16.11932],[-41.87352,-16.11965],[-41.87199,-16.1194],[-41.87053,-16.11738],[-41.86796,-16.11707],[-41.86554,-16.11821],[-41.86487,-16.11897],[-41.86297,-16.11986],[-41.86195,-16.11989],[-41.85885,-16.11914],[-41.85711,-16.11841],[-41.85528,-16.11842],[-41.85435,-16.11896],[-41.85246,-16.12064],[-41.85123,-16.12221],[-41.84751,-16.1261],[-41.8446,-16.12959],[-41.84365,-16.13127],[-41.84399,-16.13228],[-41.84619,-16.13478],[-41.8474,-16.13855],[-41.84939,-16.14056],[-41.85094,-16.14171],[-41.85385,-16.14185],[-41.855,-16.14288],[-41.85584,-16.14463],[-41.85797,-16.14756],[-41.85858,-16.14979],[-41.85808,-16.15539],[-41.85838,-16.15769],[-41.85953,-16.15943],[-41.86185,-16.16179],[-41.86233,-16.16268],[-41.86282,-16.16572],[-41.86262,-16.16816],[-41.86181,-16.17253],[-41.86227,-16.17391],[-41.86318,-16.17504],[-41.8644,-16.17595],[-41.8672,-16.17849],[-41.86778,-16.17978],[-41.8684,-16.18258],[-41.86745,-16.18171],[-41.86728,-16.17985],[-41.86692,-16.17898],[-41.86568,-16.17875],[-41.8613,-16.17903],[-41.86041,-16.17862],[-41.86029,-16.17772],[-41.85897,-16.17641],[-41.85564,-16.17643],[-41.85421,-16.17591],[-41.8516,-16.17233],[-41.85017,-16.1725],[-41.84839,-16.17419],[-41.84713,-16.17357],[-41.84624,-16.17367],[-41.84423,-16.17508],[-41.83961,-16.17483],[-41.83796,-16.17382],[-41.83405,-16.17271],[-41.83307,-16.17285],[-41.83241,-16.17348],[-41.83059,-16.1765],[-41.82966,-16.17678],[-41.82847,-16.17577],[-41.82739,-16.17412],[-41.82669,-16.17231],[-41.82432,-16.16919],[-41.82403,-16.16827],[-41.82463,-16.16495],[-41.82389,-16.16381],[-41.81968,-16.16081],[-41.81678,-16.1573],[-41.81575,-16.15505],[-41.81448,-16.15432],[-41.81308,-16.15405],[-41.8125,-16.15325],[-41.81274,-16.15235]]]},"properties":{"codigo":"315737710","name":"Água Boa de Santa Cruz","population":945,"households":652,"areaKm2":198.9291,"density":4.8}},{"type":"Feature","geometry":{"type":"Polygon","coordinates":[[[-41.7888,-16.15358],[-41.78832,-16.153],[-41.78773,-16.15119],[-41.7868,-16.15021],[-41.78598,-16.15047],[-41.78301,-16.1505],[-41.7811,-16.14883],[-41.78026,-16.14853],[-41.77931,-16.14703],[-41.77783,-16.14673],[-41.77756,-16.14622],[-41.7778,-16.14481],[-41.77661,-16.14327],[-41.77596,-16.14135],[-41.77421,-16.14158],[-41.77245,-16.14078],[-41.77159,-16.14204],[-41.77032,-16.14099],[-41.76999,-16.14008],[-41.76812,-16.13969],[-41.76673,-16.13861],[-41.76639,-16.13912],[-41.7644,-16.1392],[-41.76414,-16.13783],[-41.76311,-16.13689],[-41.76034,-16.13607],[-41.75997,-16.13569],[-41.76023,-16.13345],[-41.75948,-16.13295],[-41.76037,-16.13118],[-41.7606,-16.12936],[-41.76152,-16.12725],[-41.76109,-16.12366],[-41.76119,-16.12182],[-41.7608,-16.12],[-41.75887,-16.11779],[-41.75786,-16.11726],[-41.75757,-16.11581],[-41.75832,-16.11428],[-41.75838,-16.11325],[-41.75758,-16.11155],[-41.75814,-16.11031],[-41.76107,-16.10853],[-41.76193,-16.10752],[-41.76304,-16.1048],[-41.76427,-16.10289],[-41.76482,-16.10109],[-41.76505,-16.09935],[-41.76476,-16.09763],[-41.7639,-16.0964],[-41.76303,-16.09358],[-41.76213,-16.09291],[-41.75936,-16.09177],[-41.75836,-16.09112],[-41.75671,-16.0878],[-41.75594,-16.08768],[-41.75514,-16.08678],[-41.75551,-16.08539],[-41.75499,-16.08375],[-41.75444,-16.08308],[-41.75483,-16.08146],[-41.75355,-16.08068],[-41.75336,-16.07929],[-41.75455,-16.0782],[-41.75465,-16.07683],[-41.75408,-16.0759],[-41.75295,-16.07521],[-41.75079,-16.07478],[-41.74962,-16.07415],[-41.74949,-16.07358],[-41.74721,-16.07219],[-41.74644,-16.0707],[-41.7453,-16.07053],[-41.74432,-16.06932],[-41.74463,-16.06732],[-41.74436,-16.06549],[-41.74519,-16.06271],[-41.74464,-16.06178],[-41.74548,-16.06004],[-41.74559,-16.05717],[-41.74702,-16.05649],[-41.74939,-16.05619],[-41.75047,-16.0553],[-41.75136,-16.05384],[-41.75183,-16.05191],[-41.7536,-16.04889],[-41.75716,-16.04454],[-41.76479,-16.04128],[-41.76818,-16.03711],[-41.7704,-16.03618],[-41.77283,-16.03479],[-41.77718,-16.03375],[-41.77986,-16.03427],[-41.78143,-16.03392],[-41.78246,-16.03138],[-41.78242,-16.02737],[-41.78273,-16.02437],[-41.78253,-16.02225],[-41.78303,-16.02146],[-41.78621,-16.01872],[-41.79003,-16.01631],[-41.7962,-16.01299],[-41.80034,-16.0122],[-41.80269,-16.01238],[-41.80558,-16.01021],[-41.80993,-16.00839],[-41.81429,-16.00741],[-41.81522,-16.00526],[-41.81513,-16.00179],[-41.81315,-15.99911],[-41.81397,-15.99561],[-41.81943,-15.99365],[-41.81998,-15.99086],[-41.82253,-15.98661],[-41.82697,-15.98175],[-41.82961,-15.97981],[-41.83142,-15.97818],[-41.83116,-15.98357],[-41.83202,-15.98432],[-41.8355,-15.98569],[-41.83671,-15.98751],[-41.83814,-15.9904],[-41.83876,-15.99201],[-41.84201,-15.99585],[-41.84325,-15.99759],[-41.84356,-16.00044],[-41.84316,-16.00409],[-41.84312,-16.00653],[-41.84221,-16.00846],[-41.83781,-16.01131],[-41.83632,-16.01389],[-41.8365,-16.01509],[-41.83542,-16.01855],[-41.83476,-16.02267],[-41.83524,-16.02403],[-41.83622,-16.02552],[-41.83702,-16.02778],[-41.83733,-16.03269],[-41.83641,-16.0361],[-41.83707,-16.03858],[-41.83867,-16.03874],[-41.83915,-16.04001],[-41.84128,-16.04297],[-41.83972,-16.04425],[-41.8397,-16.04501],[-41.84031,-16.04633],[-41.83974,-16.04776],[-41.83958,-16.04971],[-41.8405,-16.05014],[-41.84156,-16.05128],[-41.8418,-16.05285],[-41.83922,-16.05451],[-41.83746,-16.05501],[-41.83837,-16.0565],[-41.83822,-16.0572],[-41.83894,-16.05775],[-41.84001,-16.05736],[-41.84098,-16.05765],[-41.84138,-16.05882],[-41.84009,-16.06061],[-41.84069,-16.06483],[-41.84147,-16.06517],[-41.84159,-16.06657],[-41.8436,-16.06644],[-41.8468,-16.06765],[-41.84918,-16.06672],[-41.84968,-16.06886],[-41.85042,-16.07081],[-41.85236,-16.07136],[-41.85329,-16.07106],[-41.85434,-16.07184],[-41.85356,-16.07293],[-41.85477,-16.07375],[-41.85675,-16.07407],[-41.8578,-16.07453],[-41.85781,-16.07558],[-41.85663,-16.0762],[-41.85685,-16.07773],[-41.85515,-16.07797],[-41.85468,-16.07859],[-41.85274,-16.07968],[-41.8522,-16.08029],[-41.85092,-16.08041],[-41.8506,-16.08132],[-41.84938,-16.08161],[-41.84849,-16.08249],[-41.84824,-16.08434],[-41.84644,-16.08474],[-41.8449,-16.0854],[-41.84458,-16.08644],[-41.84282,-16.08751],[-41.84193,-16.0891],[-41.84182,-16.09069],[-41.84105,-16.09162],[-41.84018,-16.09178],[-41.83902,-16.09143],[-41.83747,-16.09167],[-41.83649,-16.09355],[-41.83546,-16.0948],[-41.8344,-16.0955],[-41.83315,-16.09546],[-41.83235,-16.09619],[-41.83306,-16.09679],[-41.83121,-16.1001],[-41.82922,-16.09952],[-41.82735,-16.10036],[-41.82652,-16.10165],[-41.82537,-16.10274],[-41.82315,-16.10346],[-41.82144,-16.10423],[-41.82047,-16.10351],[-41.81816,-16.10248],[-41.81721,-16.10321],[-41.81616,-16.10501],[-41.81544,-16.10572],[-41.81481,-16.10753],[-41.81314,-16.11017],[-41.81222,-16.1109],[-41.81116,-16.11388],[-41.80988,-16.11584],[-41.80879,-16.11563],[-41.80716,-16.11475],[-41.80616,-16.11472],[-41.80601,-16.11571],[-41.80755,-16.1164],[-41.80765,-16.11738],[-41.80593,-16.12015],[-41.80434,-16.12114],[-41.80534,-16.12259],[-41.80582,-16.12494],[-41.80514,-16.12605],[-41.80541,-16.12656],[-41.8054,-16.12851],[-41.80613,-16.12894],[-41.8059,-16.13041],[-41.80528,-16.13083],[-41.80477,-16.13206],[-41.80507,-16.13375],[-41.80592,-16.13493],[-41.80668,-16.1373],[-41.80901,-16.13975],[-41.8115,-16.1414],[-41.81272,-16.14359],[-41.8124,-16.14406],[-41.81081,-16.14481],[-41.81014,-16.14593],[-41.81031,-16.14659],[-41.81246,-16.14627],[-41.81386,-16.14895],[-41.81379,-16.14978],[-41.81274,-16.15235],[-41.81213,-16.15127],[-41.80978,-16.15117],[-41.80894,-16.15064],[-41.80691,-16.15014],[-41.80403,-16.15023],[-41.80315,-16.14984],[-41.79929,-16.14949],[-41.7952,-16.15063],[-41.79442,-16.15112],[-41.79149,-16.15169],[-41.7888,-16.15358]]]},"properties":{"codigo":"315737725","name":"Santo Antônio da Itinga","population":627,"households":376,"areaKm2":117.6791,"density":5.3}}]}