{"type":"FeatureCollection","features":[{"type":"Feature","geometry":{"type":"Polygon","coordinates":[[[-41.82142,-20.0849],[-41.82199,-20.08417],[-41.82384,-20.08399],[-41.82494,-20.08336],[-41.82604,-20.08351],[-41.82757,-20.08487],[-41.82899,-20.08571],[-41.82998,-20.08591],[-41.83183,-20.08569],[-41.8341,-20.08628],[-41.83569,-20.08606],[-41.8389,-20.08619],[-41.84266,-20.08436],[-41.84401,-20.08236],[-41.84459,-20.08089],[-41.84616,-20.07981],[-41.84788,-20.0781],[-41.84918,-20.07774],[-41.85099,-20.07663],[-41.85204,-20.07636],[-41.85399,-20.07506],[-41.85433,-20.07423],[-41.85619,-20.07299],[-41.85899,-20.07147],[-41.85966,-20.07073],[-41.86005,-20.06927],[-41.85965,-20.0669],[-41.86056,-20.06533],[-41.86336,-20.06393],[-41.86396,-20.06204],[-41.86449,-20.06159],[-41.86713,-20.06099],[-41.86834,-20.05991],[-41.86949,-20.06095],[-41.87008,-20.06246],[-41.87301,-20.06271],[-41.87418,-20.06221],[-41.87505,-20.0614],[-41.87885,-20.06115],[-41.88073,-20.05998],[-41.88265,-20.05946],[-41.88298,-20.05765],[-41.88172,-20.05501],[-41.88121,-20.05208],[-41.88142,-20.05119],[-41.88297,-20.04812],[-41.88417,-20.04648],[-41.88887,-20.04285],[-41.88926,-20.04191],[-41.88934,-20.04014],[-41.88834,-20.03813],[-41.88809,-20.037],[-41.88909,-20.0365],[-41.8905,-20.03758],[-41.89106,-20.03759],[-41.89267,-20.03628],[-41.89415,-20.0344],[-41.89405,-20.03347],[-41.89284,-20.03267],[-41.89038,-20.03222],[-41.88881,-20.03156],[-41.88552,-20.03071],[-41.88169,-20.03079],[-41.88106,-20.03042],[-41.8804,-20.02921],[-41.87947,-20.02863],[-41.87618,-20.02827],[-41.87393,-20.02644],[-41.86909,-20.02637],[-41.86518,-20.02673],[-41.86204,-20.02759],[-41.86127,-20.02752],[-41.85998,-20.02408],[-41.85885,-20.0232],[-41.8587,-20.02253],[-41.85956,-20.02103],[-41.86063,-20.02012],[-41.86122,-20.01871],[-41.8604,-20.01743],[-41.85922,-20.01652],[-41.85768,-20.01578],[-41.85624,-20.01553],[-41.85382,-20.01445],[-41.85359,-20.01348],[-41.85426,-20.01204],[-41.85257,-20.0107],[-41.85052,-20.0085],[-41.85033,-20.00726],[-41.85104,-20.00655],[-41.85238,-20.00629],[-41.85456,-20.00716],[-41.8558,-20.00622],[-41.85466,-20.00458],[-41.85374,-20.00423],[-41.8528,-20.00328],[-41.85262,-20.00237],[-41.85303,-20.00148],[-41.85396,-20.00101],[-41.85598,-20.00082],[-41.85882,-20.00173],[-41.85971,-20.00235],[-41.8607,-20.00416],[-41.86092,-20.00521],[-41.86172,-20.00653],[-41.8635,-20.00835],[-41.86551,-20.00959],[-41.86748,-20.00894],[-41.86974,-20.00916],[-41.87016,-20.00987],[-41.87042,-20.01376],[-41.87152,-20.01552],[-41.8744,-20.01593],[-41.87559,-20.01549],[-41.87734,-20.01324],[-41.88598,-20.01247],[-41.88793,-20.01196],[-41.89042,-20.01106],[-41.8942,-20.01126],[-41.89448,-20.01033],[-41.89406,-20.00893],[-41.89425,-20.00719],[-41.8952,-20.00627],[-41.89803,-20.00491],[-41.89936,-20.00563],[-41.9004,-20.00528],[-41.90103,-20.00418],[-41.9044,-20.0029],[-41.90544,-20.0001],[-41.90499,-19.99708],[-41.90602,-19.99694],[-41.90744,-19.99585],[-41.91038,-19.99527],[-41.91239,-19.99452],[-41.91355,-19.99173],[-41.91344,-19.99028],[-41.91384,-19.98894],[-41.9159,-19.98812],[-41.91845,-19.98801],[-41.92187,-19.99117],[-41.92177,-19.98901],[-41.92464,-19.98671],[-41.92856,-19.98654],[-41.93243,-19.9869],[-41.93466,-19.98678],[-41.93584,-19.98498],[-41.93729,-19.98458],[-41.9383,-19.98523],[-41.9398,-19.98692],[-41.94202,-19.98791],[-41.94307,-19.98807],[-41.94601,-19.98581],[-41.94644,-19.98486],[-41.94851,-19.98243],[-41.95161,-19.98178],[-41.95444,-19.98201],[-41.95722,-19.98309],[-41.95839,-19.98379],[-41.96144,-19.98475],[-41.96305,-19.98481],[-41.96699,-19.9842],[-41.96857,-19.98441],[-41.97068,-19.98637],[-41.97144,-19.98742],[-41.97402,-19.98949],[-41.97558,-19.99023],[-41.97938,-19.99116],[-41.98262,-19.99275],[-41.98465,-19.99509],[-41.98522,-19.99601],[-41.98526,-19.9974],[-41.98362,-19.99935],[-41.9822,-20.00047],[-41.98231,-20.00194],[-41.98535,-20.00638],[-41.98527,-20.00802],[-41.98351,-20.00986],[-41.98383,-20.01168],[-41.98589,-20.01465],[-41.98757,-20.01637],[-41.98735,-20.0173],[-41.98665,-20.01805],[-41.98525,-20.01841],[-41.98394,-20.01986],[-41.98269,-20.02201],[-41.98264,-20.0244],[-41.98197,-20.02615],[-41.98259,-20.02927],[-41.98235,-20.03116],[-41.98088,-20.03299],[-41.97964,-20.03315],[-41.97848,-20.03405],[-41.97868,-20.03621],[-41.97807,-20.03693],[-41.97838,-20.03755],[-41.97999,-20.0382],[-41.98089,-20.03948],[-41.98205,-20.04043],[-41.98188,-20.0417],[-41.9807,-20.04265],[-41.97876,-20.04324],[-41.97781,-20.04382],[-41.97808,-20.0449],[-41.98084,-20.04817],[-41.98267,-20.04991],[-41.98391,-20.05379],[-41.98313,-20.05409],[-41.98117,-20.05352],[-41.97993,-20.05267],[-41.9777,-20.05248],[-41.97563,-20.05297],[-41.97532,-20.05331],[-41.97438,-20.0563],[-41.97194,-20.05757],[-41.97021,-20.058],[-41.96813,-20.0579],[-41.96638,-20.05804],[-41.96677,-20.06052],[-41.96524,-20.06155],[-41.96454,-20.06309],[-41.96452,-20.06403],[-41.96564,-20.06507],[-41.96743,-20.06431],[-41.9687,-20.06458],[-41.9695,-20.06527],[-41.97103,-20.06781],[-41.97106,-20.06971],[-41.96948,-20.07096],[-41.96818,-20.07114],[-41.96703,-20.07064],[-41.96314,-20.07067],[-41.96122,-20.07124],[-41.96011,-20.07222],[-41.95956,-20.0749],[-41.9581,-20.07591],[-41.95277,-20.07736],[-41.95152,-20.07879],[-41.95057,-20.07947],[-41.95155,-20.08016],[-41.95275,-20.08035],[-41.95388,-20.0813],[-41.9555,-20.08194],[-41.95653,-20.08196],[-41.95663,-20.08499],[-41.95758,-20.08617],[-41.95822,-20.08639],[-41.95693,-20.08809],[-41.95484,-20.08772],[-41.95351,-20.08782],[-41.95272,-20.08837],[-41.95126,-20.08875],[-41.95144,-20.08944],[-41.95244,-20.09064],[-41.95305,-20.09191],[-41.9548,-20.09194],[-41.95593,-20.09286],[-41.95853,-20.09292],[-41.96043,-20.09377],[-41.962,-20.09378],[-41.96342,-20.09436],[-41.96548,-20.09607],[-41.96607,-20.0969],[-41.96936,-20.09821],[-41.96956,-20.10021],[-41.97231,-20.10172],[-41.97427,-20.10174],[-41.97554,-20.10297],[-41.97588,-20.10436],[-41.97559,-20.10569],[-41.97366,-20.10643],[-41.97238,-20.10857],[-41.97237,-20.10929],[-41.97306,-20.11057],[-41.97296,-20.11238],[-41.97496,-20.11401],[-41.9766,-20.11594],[-41.97756,-20.11633],[-41.97898,-20.11746],[-41.97878,-20.11807],[-41.97741,-20.11904],[-41.97827,-20.11996],[-41.9798,-20.12032],[-41.98038,-20.12111],[-41.98002,-20.12276],[-41.98001,-20.1247],[-41.98128,-20.12586],[-41.9824,-20.12595],[-41.98412,-20.12533],[-41.98493,-20.12535],[-41.9857,-20.12668],[-41.9857,-20.12834],[-41.98486,-20.13096],[-41.98417,-20.13168],[-41.98142,-20.13158],[-41.9782,-20.13172],[-41.97644,-20.13158],[-41.97589,-20.13203],[-41.97522,-20.13456],[-41.97339,-20.13723],[-41.97281,-20.13963],[-41.97317,-20.1405],[-41.97271,-20.14228],[-41.97052,-20.14287],[-41.96932,-20.14275],[-41.96794,-20.14196],[-41.96726,-20.14201],[-41.96579,-20.14357],[-41.96508,-20.14486],[-41.96312,-20.1476],[-41.96291,-20.14859],[-41.96187,-20.15085],[-41.9599,-20.15168],[-41.95933,-20.15245],[-41.95892,-20.15545],[-41.95853,-20.15608],[-41.95619,-20.15516],[-41.95517,-20.15432],[-41.95322,-20.15376],[-41.95057,-20.15412],[-41.94946,-20.15504],[-41.94869,-20.1562],[-41.94839,-20.1576],[-41.94864,-20.1585],[-41.94962,-20.15991],[-41.95014,-20.16129],[-41.95002,-20.16221],[-41.94911,-20.16391],[-41.94915,-20.1661],[-41.94863,-20.16795],[-41.94694,-20.16926],[-41.943,-20.16933],[-41.94135,-20.16865],[-41.93987,-20.1687],[-41.9377,-20.17132],[-41.93685,-20.17277],[-41.93401,-20.17369],[-41.93145,-20.17365],[-41.93085,-20.17338],[-41.92907,-20.17165],[-41.92443,-20.17143],[-41.92225,-20.17361],[-41.92004,-20.17255],[-41.9186,-20.17276],[-41.91814,-20.17246],[-41.91746,-20.17041],[-41.91691,-20.16993],[-41.91567,-20.16985],[-41.9145,-20.1705],[-41.91333,-20.17061],[-41.91095,-20.16943],[-41.91055,-20.16884],[-41.91019,-20.16702],[-41.90837,-20.16678],[-41.90662,-20.16761],[-41.90499,-20.16915],[-41.90255,-20.16955],[-41.90085,-20.16964],[-41.9005,-20.17016],[-41.90092,-20.1715],[-41.8985,-20.17141],[-41.89577,-20.1728],[-41.89484,-20.17359],[-41.89273,-20.17483],[-41.89125,-20.17491],[-41.89095,-20.17333],[-41.89024,-20.1724],[-41.88809,-20.17051],[-41.88739,-20.16921],[-41.8854,-20.1665],[-41.88514,-20.16303],[-41.88209,-20.16264],[-41.87988,-20.16302],[-41.87594,-20.16168],[-41.87467,-20.16077],[-41.87495,-20.15826],[-41.87487,-20.15711],[-41.87396,-20.15602],[-41.87301,-20.15567],[-41.87127,-20.15568],[-41.86797,-20.15543],[-41.86706,-20.15584],[-41.8652,-20.15589],[-41.86258,-20.15565],[-41.86198,-20.15518],[-41.86188,-20.15408],[-41.86102,-20.15358],[-41.85973,-20.15126],[-41.85818,-20.15011],[-41.85616,-20.14927],[-41.85376,-20.14775],[-41.85373,-20.14628],[-41.85464,-20.14572],[-41.85616,-20.14533],[-41.85789,-20.1441],[-41.85793,-20.1424],[-41.85743,-20.14076],[-41.8566,-20.14026],[-41.85485,-20.14014],[-41.85379,-20.1394],[-41.85315,-20.1375],[-41.85127,-20.13703],[-41.84825,-20.13355],[-41.84729,-20.13202],[-41.8446,-20.13012],[-41.84369,-20.12849],[-41.843,-20.12725],[-41.84125,-20.12589],[-41.83833,-20.1256],[-41.83684,-20.12444],[-41.83596,-20.12191],[-41.83482,-20.12094],[-41.83363,-20.11912],[-41.83288,-20.11729],[-41.83187,-20.11549],[-41.82962,-20.11467],[-41.82979,-20.113],[-41.82907,-20.11058],[-41.82905,-20.1088],[-41.82862,-20.10729],[-41.82731,-20.10437],[-41.8274,-20.10307],[-41.82843,-20.1021],[-41.82783,-20.10045],[-41.82595,-20.09852],[-41.82538,-20.09716],[-41.82423,-20.09625],[-41.82282,-20.09459],[-41.82232,-20.09325],[-41.82395,-20.09199],[-41.82669,-20.09106],[-41.82621,-20.08951],[-41.82437,-20.08787],[-41.82371,-20.08671],[-41.82221,-20.08523],[-41.82142,-20.0849]]]},"properties":{"codigo":"315890405","name":"Santana do Manhuaçu","population":7171,"households":3230,"areaKm2":231.9703,"density":30.9}},{"type":"Feature","geometry":{"type":"Polygon","coordinates":[[[-41.84142,-19.92535],[-41.84386,-19.92511],[-41.84461,-19.92725],[-41.84735,-19.92893],[-41.85017,-19.92925],[-41.85165,-19.93087],[-41.85346,-19.93221],[-41.85611,-19.93492],[-41.85623,-19.93547],[-41.85535,-19.93691],[-41.85481,-19.93942],[-41.85487,-19.9405],[-41.85557,-19.94187],[-41.85858,-19.94396],[-41.8607,-19.9447],[-41.86201,-19.94478],[-41.86488,-19.94432],[-41.86583,-19.94487],[-41.8674,-19.94662],[-41.87056,-19.94832],[-41.87193,-19.94944],[-41.87371,-19.95006],[-41.87736,-19.95001],[-41.87969,-19.95011],[-41.88334,-19.95051],[-41.88588,-19.95113],[-41.88776,-19.95211],[-41.88925,-19.95324],[-41.8907,-19.95493],[-41.89152,-19.95628],[-41.89165,-19.95771],[-41.89239,-19.95846],[-41.89255,-19.96002],[-41.89069,-19.96112],[-41.89123,-19.96189],[-41.89223,-19.96209],[-41.89339,-19.96378],[-41.89277,-19.96469],[-41.89393,-19.96635],[-41.89425,-19.96736],[-41.89393,-19.96888],[-41.89473,-19.97122],[-41.89534,-19.97386],[-41.89354,-19.97473],[-41.89212,-19.97621],[-41.89091,-19.97636],[-41.88943,-19.97702],[-41.88808,-19.97843],[-41.88499,-19.98009],[-41.88436,-19.98076],[-41.88504,-19.98613],[-41.88599,-19.9879],[-41.8865,-19.99077],[-41.88893,-19.99079],[-41.89075,-19.98986],[-41.89277,-19.99067],[-41.89399,-19.99075],[-41.8948,-19.9912],[-41.89503,-19.99258],[-41.89478,-19.99405],[-41.89389,-19.99576],[-41.89505,-19.99729],[-41.8968,-19.99751],[-41.89899,-19.9974],[-41.90033,-19.99782],[-41.90215,-19.99682],[-41.9037,-19.99664],[-41.90499,-19.99708],[-41.90544,-20.0001],[-41.9044,-20.0029],[-41.90103,-20.00418],[-41.9004,-20.00528],[-41.89936,-20.00563],[-41.89803,-20.00491],[-41.8952,-20.00627],[-41.89425,-20.00719],[-41.89406,-20.00893],[-41.89448,-20.01033],[-41.8942,-20.01126],[-41.89042,-20.01106],[-41.88793,-20.01196],[-41.88598,-20.01247],[-41.87734,-20.01324],[-41.87559,-20.01549],[-41.8744,-20.01593],[-41.87152,-20.01552],[-41.87042,-20.01376],[-41.87016,-20.00987],[-41.86974,-20.00916],[-41.86748,-20.00894],[-41.86551,-20.00959],[-41.8635,-20.00835],[-41.86172,-20.00653],[-41.86092,-20.00521],[-41.8607,-20.00416],[-41.85971,-20.00235],[-41.85882,-20.00173],[-41.85598,-20.00082],[-41.85396,-20.00101],[-41.85303,-20.00148],[-41.85262,-20.00237],[-41.8528,-20.00328],[-41.85374,-20.00423],[-41.85466,-20.00458],[-41.8558,-20.00622],[-41.85456,-20.00716],[-41.85238,-20.00629],[-41.85104,-20.00655],[-41.85033,-20.00726],[-41.85052,-20.0085],[-41.85257,-20.0107],[-41.85426,-20.01204],[-41.85359,-20.01348],[-41.85382,-20.01445],[-41.85624,-20.01553],[-41.85768,-20.01578],[-41.85922,-20.01652],[-41.8604,-20.01743],[-41.86122,-20.01871],[-41.86063,-20.02012],[-41.85956,-20.02103],[-41.8587,-20.02253],[-41.85885,-20.0232],[-41.85998,-20.02408],[-41.86127,-20.02752],[-41.86204,-20.02759],[-41.86518,-20.02673],[-41.86909,-20.02637],[-41.87393,-20.02644],[-41.87618,-20.02827],[-41.87947,-20.02863],[-41.8804,-20.02921],[-41.88106,-20.03042],[-41.88169,-20.03079],[-41.88552,-20.03071],[-41.88881,-20.03156],[-41.89038,-20.03222],[-41.89284,-20.03267],[-41.89405,-20.03347],[-41.89415,-20.0344],[-41.89267,-20.03628],[-41.89106,-20.03759],[-41.8905,-20.03758],[-41.88909,-20.0365],[-41.88809,-20.037],[-41.88834,-20.03813],[-41.88934,-20.04014],[-41.88926,-20.04191],[-41.88887,-20.04285],[-41.88417,-20.04648],[-41.88297,-20.04812],[-41.88142,-20.05119],[-41.88121,-20.05208],[-41.88172,-20.05501],[-41.88298,-20.05765],[-41.88265,-20.05946],[-41.88073,-20.05998],[-41.87885,-20.06115],[-41.87505,-20.0614],[-41.87418,-20.06221],[-41.87301,-20.06271],[-41.87008,-20.06246],[-41.86949,-20.06095],[-41.86834,-20.05991],[-41.86713,-20.06099],[-41.86449,-20.06159],[-41.86396,-20.06204],[-41.86336,-20.06393],[-41.86056,-20.06533],[-41.85965,-20.0669],[-41.86005,-20.06927],[-41.85966,-20.07073],[-41.85899,-20.07147],[-41.85619,-20.07299],[-41.85433,-20.07423],[-41.85399,-20.07506],[-41.85204,-20.07636],[-41.85099,-20.07663],[-41.84918,-20.07774],[-41.84788,-20.0781],[-41.84616,-20.07981],[-41.84459,-20.08089],[-41.84401,-20.08236],[-41.84266,-20.08436],[-41.8389,-20.08619],[-41.83569,-20.08606],[-41.8341,-20.08628],[-41.83183,-20.08569],[-41.82998,-20.08591],[-41.82899,-20.08571],[-41.82757,-20.08487],[-41.82604,-20.08351],[-41.82494,-20.08336],[-41.82384,-20.08399],[-41.82199,-20.08417],[-41.82142,-20.0849],[-41.8198,-20.08483],[-41.81753,-20.08536],[-41.81674,-20.08434],[-41.81731,-20.08295],[-41.81932,-20.08077],[-41.81964,-20.07985],[-41.81977,-20.07765],[-41.8187,-20.07523],[-41.8186,-20.07352],[-41.81894,-20.0725],[-41.8209,-20.06986],[-41.82196,-20.06908],[-41.82403,-20.06822],[-41.82455,-20.0669],[-41.82437,-20.06461],[-41.82314,-20.06209],[-41.82192,-20.06046],[-41.82143,-20.05849],[-41.81935,-20.05528],[-41.81742,-20.05304],[-41.81704,-20.0505],[-41.81542,-20.04772],[-41.81389,-20.04685],[-41.81131,-20.04579],[-41.81077,-20.0441],[-41.81076,-20.0425],[-41.81037,-20.04116],[-41.80903,-20.03856],[-41.80904,-20.03697],[-41.80793,-20.03649],[-41.80652,-20.03541],[-41.80528,-20.0335],[-41.80514,-20.03207],[-41.8073,-20.03127],[-41.80769,-20.03051],[-41.80578,-20.02897],[-41.80453,-20.02552],[-41.80742,-20.02331],[-41.80882,-20.02248],[-41.81019,-20.02102],[-41.81064,-20.0198],[-41.81033,-20.0188],[-41.80941,-20.0175],[-41.80752,-20.016],[-41.80659,-20.01491],[-41.80646,-20.01394],[-41.80718,-20.0126],[-41.8079,-20.01226],[-41.80932,-20.01047],[-41.8131,-20.00853],[-41.81243,-20.0076],[-41.81058,-20.00697],[-41.8096,-20.00619],[-41.80948,-20.00501],[-41.80816,-20.00364],[-41.80731,-20.00239],[-41.80691,-20.00038],[-41.80792,-19.99966],[-41.81002,-19.9975],[-41.811,-19.99551],[-41.81049,-19.99356],[-41.80921,-19.99121],[-41.80749,-19.98952],[-41.80475,-19.98795],[-41.80161,-19.98529],[-41.79896,-19.9823],[-41.79807,-19.98019],[-41.79795,-19.97863],[-41.79924,-19.97579],[-41.79992,-19.97509],[-41.80171,-19.97414],[-41.80282,-19.97383],[-41.80382,-19.97148],[-41.80348,-19.96798],[-41.80392,-19.96644],[-41.8061,-19.96511],[-41.80693,-19.96322],[-41.80673,-19.96216],[-41.80601,-19.961],[-41.80388,-19.95904],[-41.80252,-19.95698],[-41.80237,-19.9559],[-41.80272,-19.95454],[-41.80406,-19.95234],[-41.80544,-19.95111],[-41.80666,-19.94887],[-41.80769,-19.94788],[-41.80912,-19.94727],[-41.81021,-19.94634],[-41.81081,-19.94507],[-41.81153,-19.94437],[-41.81361,-19.94302],[-41.81514,-19.94255],[-41.81621,-19.94256],[-41.81954,-19.94307],[-41.82061,-19.94342],[-41.82194,-19.94431],[-41.82337,-19.94715],[-41.82428,-19.94795],[-41.82815,-19.94796],[-41.82958,-19.94772],[-41.83081,-19.947],[-41.83193,-19.94471],[-41.83368,-19.94408],[-41.83474,-19.94319],[-41.83548,-19.94144],[-41.83651,-19.93989],[-41.83797,-19.94004],[-41.84073,-19.94202],[-41.84204,-19.94148],[-41.84203,-19.93987],[-41.84156,-19.93675],[-41.84019,-19.93593],[-41.83871,-19.9359],[-41.83831,-19.93519],[-41.83951,-19.93361],[-41.84059,-19.93181],[-41.84179,-19.93031],[-41.84195,-19.92929],[-41.84142,-19.92535]]]},"properties":{"codigo":"315890410","name":"Santa Filomena","population":1816,"households":744,"areaKm2":115.3918,"density":15.7}}]}