{"type":"FeatureCollection","features":[{"type":"Feature","geometry":{"type":"Polygon","coordinates":[[[-44.05471,-21.51754],[-44.05629,-21.51978],[-44.05551,-21.52091],[-44.05757,-21.52167],[-44.05804,-21.52248],[-44.05832,-21.52505],[-44.06027,-21.52768],[-44.061,-21.52761],[-44.06185,-21.52638],[-44.06274,-21.52709],[-44.06382,-21.52564],[-44.06489,-21.52575],[-44.06606,-21.52489],[-44.06773,-21.52669],[-44.0684,-21.52661],[-44.06898,-21.5276],[-44.07095,-21.52701],[-44.07166,-21.52628],[-44.07178,-21.52392],[-44.07303,-21.52499],[-44.07418,-21.52732],[-44.07521,-21.52688],[-44.07513,-21.52621],[-44.07767,-21.52658],[-44.07834,-21.52587],[-44.07963,-21.52573],[-44.08047,-21.52626],[-44.08272,-21.52606],[-44.08235,-21.525],[-44.08232,-21.52346],[-44.08325,-21.52305],[-44.08336,-21.52138],[-44.0851,-21.51885],[-44.08601,-21.5186],[-44.08625,-21.52012],[-44.0868,-21.52082],[-44.08881,-21.52138],[-44.08957,-21.52453],[-44.08902,-21.52492],[-44.0895,-21.52623],[-44.08965,-21.52851],[-44.09075,-21.52971],[-44.0913,-21.53146],[-44.09058,-21.53256],[-44.09046,-21.53358],[-44.08939,-21.53387],[-44.08708,-21.53507],[-44.08707,-21.53642],[-44.08791,-21.53698],[-44.08866,-21.5383],[-44.08766,-21.5385],[-44.08772,-21.53979],[-44.08609,-21.54083],[-44.08542,-21.54295],[-44.08535,-21.544],[-44.08448,-21.54422],[-44.08377,-21.54559],[-44.08377,-21.54672],[-44.08292,-21.5479],[-44.08345,-21.54898],[-44.08334,-21.55001],[-44.08417,-21.55094],[-44.0841,-21.55187],[-44.08327,-21.55407],[-44.08408,-21.55614],[-44.08327,-21.55765],[-44.08415,-21.55944],[-44.0827,-21.56005],[-44.08165,-21.56006],[-44.08079,-21.56062],[-44.07917,-21.55886],[-44.07697,-21.55976],[-44.0766,-21.56202],[-44.07589,-21.56354],[-44.07511,-21.56345],[-44.07331,-21.56396],[-44.072,-21.56594],[-44.0709,-21.56596],[-44.07052,-21.56783],[-44.0686,-21.56848],[-44.0658,-21.57042],[-44.06447,-21.57041],[-44.06353,-21.57124],[-44.06287,-21.57342],[-44.06222,-21.57442],[-44.0608,-21.57564],[-44.06133,-21.578],[-44.05929,-21.57858],[-44.05823,-21.57919],[-44.05705,-21.58099],[-44.05607,-21.58089],[-44.05551,-21.58145],[-44.05549,-21.58357],[-44.05496,-21.58568],[-44.05404,-21.58714],[-44.05259,-21.58821],[-44.05133,-21.58813],[-44.05057,-21.58757],[-44.04899,-21.58786],[-44.04724,-21.58762],[-44.04629,-21.58916],[-44.04487,-21.59054],[-44.04318,-21.59091],[-44.04084,-21.591],[-44.03973,-21.5919],[-44.03892,-21.59449],[-44.03984,-21.5951],[-44.03912,-21.59902],[-44.03917,-21.60016],[-44.03816,-21.60088],[-44.03676,-21.60071],[-44.0357,-21.60148],[-44.03449,-21.60367],[-44.03346,-21.6041],[-44.03113,-21.60445],[-44.02846,-21.60365],[-44.02605,-21.60356],[-44.02421,-21.60313],[-44.02292,-21.6032],[-44.02144,-21.60374],[-44.01941,-21.60303],[-44.01789,-21.6021],[-44.0161,-21.60039],[-44.01364,-21.60059],[-44.01283,-21.60146],[-44.0125,-21.60256],[-44.01094,-21.60323],[-44.0103,-21.60394],[-44.00992,-21.60645],[-44.01009,-21.61045],[-44.00958,-21.61217],[-44.01024,-21.61444],[-44.00976,-21.61796],[-44.00846,-21.61961],[-44.00656,-21.61968],[-44.00462,-21.6208],[-44.00265,-21.62074],[-44.00248,-21.62197],[-44.00039,-21.622],[-43.9986,-21.62093],[-43.99464,-21.62097],[-43.99163,-21.62137],[-43.98958,-21.62203],[-43.98559,-21.62287],[-43.98334,-21.62446],[-43.98306,-21.62612],[-43.98414,-21.62679],[-43.98437,-21.62746],[-43.98342,-21.62857],[-43.98216,-21.6288],[-43.98009,-21.62728],[-43.9785,-21.62665],[-43.9757,-21.6265],[-43.97421,-21.6267],[-43.97363,-21.62742],[-43.97145,-21.6271],[-43.96769,-21.62799],[-43.96738,-21.6287],[-43.96617,-21.62926],[-43.96535,-21.6301],[-43.9658,-21.63179],[-43.96573,-21.63324],[-43.96617,-21.63401],[-43.96448,-21.63413],[-43.962,-21.63471],[-43.9612,-21.63536],[-43.95801,-21.63593],[-43.9571,-21.63505],[-43.95549,-21.6346],[-43.95344,-21.63607],[-43.9517,-21.63642],[-43.94932,-21.6364],[-43.94739,-21.63709],[-43.94441,-21.6373],[-43.94335,-21.6383],[-43.94328,-21.63898],[-43.94241,-21.63989],[-43.94203,-21.64197],[-43.94197,-21.64365],[-43.93864,-21.64617],[-43.93706,-21.646],[-43.93493,-21.64621],[-43.93316,-21.64714],[-43.93255,-21.64783],[-43.92996,-21.64936],[-43.92851,-21.65129],[-43.92726,-21.65214],[-43.92435,-21.65282],[-43.92381,-21.65334],[-43.92207,-21.65591],[-43.92133,-21.6565],[-43.92102,-21.65747],[-43.91954,-21.65847],[-43.91801,-21.65869],[-43.91638,-21.65931],[-43.91487,-21.66067],[-43.91325,-21.66144],[-43.9109,-21.66149],[-43.9103,-21.66197],[-43.90875,-21.66226],[-43.90808,-21.66325],[-43.90689,-21.66627],[-43.90405,-21.67001],[-43.90286,-21.67046],[-43.90141,-21.67035],[-43.90016,-21.67273],[-43.89923,-21.67358],[-43.89838,-21.67538],[-43.89425,-21.67717],[-43.89357,-21.67842],[-43.89039,-21.68014],[-43.8868,-21.68374],[-43.88579,-21.68197],[-43.88507,-21.6794],[-43.88502,-21.67794],[-43.8854,-21.67607],[-43.88619,-21.67433],[-43.88719,-21.67289],[-43.88751,-21.67104],[-43.88832,-21.67],[-43.88965,-21.66905],[-43.88953,-21.66332],[-43.88974,-21.66165],[-43.89073,-21.6591],[-43.8901,-21.65871],[-43.88833,-21.65911],[-43.88717,-21.65837],[-43.88752,-21.65592],[-43.88878,-21.65294],[-43.88966,-21.65137],[-43.88952,-21.65039],[-43.88737,-21.64867],[-43.88718,-21.64704],[-43.88891,-21.64365],[-43.8916,-21.64207],[-43.89041,-21.64168],[-43.88944,-21.64091],[-43.88808,-21.63792],[-43.88775,-21.63547],[-43.88874,-21.63057],[-43.88791,-21.62732],[-43.88798,-21.62634],[-43.88905,-21.62316],[-43.88985,-21.61997],[-43.88986,-21.61928],[-43.88845,-21.61804],[-43.88678,-21.61737],[-43.88579,-21.61302],[-43.8851,-21.6119],[-43.88345,-21.61101],[-43.88152,-21.61112],[-43.87854,-21.61223],[-43.87679,-21.61189],[-43.87596,-21.61104],[-43.87605,-21.60987],[-43.87713,-21.6081],[-43.87771,-21.60762],[-43.87993,-21.60776],[-43.88098,-21.60751],[-43.88201,-21.60674],[-43.88257,-21.60411],[-43.88345,-21.60144],[-43.88426,-21.60007],[-43.8855,-21.59903],[-43.88651,-21.59906],[-43.88958,-21.59979],[-43.89201,-21.59829],[-43.8941,-21.59651],[-43.89524,-21.59417],[-43.89524,-21.59035],[-43.89492,-21.58961],[-43.89382,-21.58909],[-43.892,-21.58759],[-43.89202,-21.58716],[-43.8937,-21.58462],[-43.89391,-21.58385],[-43.89349,-21.58294],[-43.89151,-21.58014],[-43.88879,-21.57895],[-43.88861,-21.57825],[-43.88924,-21.57674],[-43.88946,-21.57545],[-43.8892,-21.57355],[-43.88854,-21.57206],[-43.88732,-21.5702],[-43.88757,-21.56863],[-43.88736,-21.56503],[-43.88693,-21.5629],[-43.88709,-21.56113],[-43.88673,-21.56079],[-43.88494,-21.56081],[-43.88426,-21.56049],[-43.88416,-21.55922],[-43.88585,-21.55669],[-43.88583,-21.55484],[-43.88552,-21.55261],[-43.88685,-21.55021],[-43.88677,-21.54811],[-43.88512,-21.54509],[-43.88507,-21.54396],[-43.88679,-21.54126],[-43.88659,-21.53785],[-43.88718,-21.53667],[-43.88688,-21.53472],[-43.88686,-21.53196],[-43.88601,-21.5297],[-43.8839,-21.52707],[-43.88493,-21.52662],[-43.88636,-21.52651],[-43.88745,-21.52576],[-43.88887,-21.52682],[-43.89419,-21.52741],[-43.89567,-21.52858],[-43.89609,-21.52829],[-43.8987,-21.52812],[-43.89958,-21.52898],[-43.90078,-21.52808],[-43.90162,-21.52579],[-43.90214,-21.52556],[-43.90322,-21.52387],[-43.90525,-21.52323],[-43.90574,-21.52108],[-43.90546,-21.51883],[-43.90508,-21.5179],[-43.90397,-21.51764],[-43.90278,-21.51786],[-43.90169,-21.51622],[-43.89943,-21.51458],[-43.89898,-21.51387],[-43.9001,-21.51348],[-43.90128,-21.51174],[-43.90333,-21.51123],[-43.90424,-21.51162],[-43.90553,-21.51147],[-43.90575,-21.5108],[-43.90705,-21.50989],[-43.90765,-21.50853],[-43.909,-21.50785],[-43.90872,-21.50693],[-43.90919,-21.50608],[-43.9101,-21.50569],[-43.91102,-21.50438],[-43.91307,-21.50462],[-43.91367,-21.50651],[-43.91598,-21.50734],[-43.91889,-21.50565],[-43.91873,-21.50498],[-43.92065,-21.50329],[-43.92194,-21.50276],[-43.92296,-21.50341],[-43.92532,-21.50352],[-43.92598,-21.50479],[-43.92779,-21.50499],[-43.92883,-21.50547],[-43.92946,-21.5063],[-43.9306,-21.51006],[-43.93198,-21.51155],[-43.93308,-21.51651],[-43.93377,-21.51787],[-43.9353,-21.51887],[-43.93624,-21.52036],[-43.93629,-21.52257],[-43.93561,-21.5239],[-43.93577,-21.52481],[-43.93701,-21.52497],[-43.94011,-21.52348],[-43.94131,-21.52267],[-43.9431,-21.52033],[-43.94464,-21.51944],[-43.94527,-21.51814],[-43.94641,-21.51771],[-43.95137,-21.5198],[-43.95242,-21.52004],[-43.95612,-21.52288],[-43.9574,-21.52477],[-43.95929,-21.52559],[-43.96067,-21.52573],[-43.96415,-21.52679],[-43.96657,-21.52679],[-43.9679,-21.527],[-43.96907,-21.52843],[-43.96928,-21.52946],[-43.97006,-21.53042],[-43.97104,-21.53092],[-43.97327,-21.53295],[-43.97463,-21.53501],[-43.97488,-21.53802],[-43.97497,-21.54116],[-43.97643,-21.5427],[-43.97874,-21.54358],[-43.98242,-21.54384],[-43.9864,-21.54339],[-43.98774,-21.54295],[-43.98939,-21.54196],[-43.99022,-21.54204],[-43.99277,-21.54313],[-43.9943,-21.54333],[-43.99673,-21.5421],[-43.99902,-21.54214],[-43.99951,-21.54163],[-43.9995,-21.54048],[-44.00031,-21.53956],[-44.00021,-21.53771],[-43.99971,-21.53627],[-43.99903,-21.53529],[-43.99924,-21.53387],[-44.00062,-21.53263],[-44.00198,-21.53058],[-44.00282,-21.53003],[-44.00369,-21.53025],[-44.00405,-21.53237],[-44.00452,-21.53262],[-44.00725,-21.53238],[-44.009,-21.53267],[-44.01023,-21.5338],[-44.01088,-21.53505],[-44.01092,-21.53606],[-44.01225,-21.53717],[-44.01185,-21.53875],[-44.01293,-21.53907],[-44.01343,-21.53775],[-44.01489,-21.5381],[-44.0159,-21.53708],[-44.01806,-21.53751],[-44.01883,-21.53687],[-44.01868,-21.53571],[-44.02217,-21.53574],[-44.02504,-21.53491],[-44.02634,-21.53499],[-44.02689,-21.53424],[-44.02584,-21.53302],[-44.02666,-21.53195],[-44.02865,-21.53148],[-44.02854,-21.53076],[-44.0312,-21.52698],[-44.03347,-21.5273],[-44.03428,-21.52784],[-44.03798,-21.52829],[-44.03904,-21.52776],[-44.04135,-21.52807],[-44.04202,-21.52784],[-44.04289,-21.52671],[-44.04415,-21.52613],[-44.0438,-21.52406],[-44.04516,-21.52391],[-44.04575,-21.52239],[-44.0452,-21.52083],[-44.04733,-21.51971],[-44.04799,-21.52078],[-44.04908,-21.52173],[-44.05027,-21.5209],[-44.05122,-21.51882],[-44.05357,-21.51839],[-44.05471,-21.51754]]]},"properties":{"codigo":"315940705","name":"Santa Rita de Ibitipoca","population":2354,"households":1269,"areaKm2":216.6283,"density":10.9}},{"type":"Feature","geometry":{"type":"Polygon","coordinates":[[[-43.83687,-21.58474],[-43.83975,-21.58464],[-43.8424,-21.58477],[-43.84458,-21.58245],[-43.84532,-21.58124],[-43.84557,-21.57817],[-43.84492,-21.57751],[-43.84491,-21.57628],[-43.84536,-21.57514],[-43.84603,-21.57488],[-43.84571,-21.57135],[-43.84613,-21.56994],[-43.84764,-21.56996],[-43.84843,-21.56939],[-43.84889,-21.56789],[-43.849,-21.5663],[-43.84991,-21.56559],[-43.85258,-21.56571],[-43.85336,-21.56683],[-43.85421,-21.56724],[-43.8547,-21.56874],[-43.85528,-21.56869],[-43.85852,-21.57207],[-43.85929,-21.57353],[-43.86012,-21.57662],[-43.86132,-21.57811],[-43.86351,-21.57923],[-43.86599,-21.58137],[-43.8685,-21.58225],[-43.86985,-21.58209],[-43.87313,-21.58233],[-43.87561,-21.58203],[-43.87618,-21.58312],[-43.87622,-21.58458],[-43.87551,-21.58699],[-43.87631,-21.58814],[-43.87733,-21.58848],[-43.87942,-21.58979],[-43.88046,-21.59004],[-43.88257,-21.58989],[-43.88404,-21.59036],[-43.88806,-21.59],[-43.88948,-21.58907],[-43.89089,-21.58855],[-43.892,-21.58759],[-43.89382,-21.58909],[-43.89492,-21.58961],[-43.89524,-21.59035],[-43.89524,-21.59417],[-43.8941,-21.59651],[-43.89201,-21.59829],[-43.88958,-21.59979],[-43.88651,-21.59906],[-43.8855,-21.59903],[-43.88426,-21.60007],[-43.88345,-21.60144],[-43.88257,-21.60411],[-43.88201,-21.60674],[-43.88098,-21.60751],[-43.87993,-21.60776],[-43.87771,-21.60762],[-43.87713,-21.6081],[-43.87605,-21.60987],[-43.87596,-21.61104],[-43.87679,-21.61189],[-43.87854,-21.61223],[-43.88152,-21.61112],[-43.88345,-21.61101],[-43.8851,-21.6119],[-43.88579,-21.61302],[-43.88678,-21.61737],[-43.88845,-21.61804],[-43.88986,-21.61928],[-43.88985,-21.61997],[-43.88905,-21.62316],[-43.88798,-21.62634],[-43.88791,-21.62732],[-43.88874,-21.63057],[-43.88775,-21.63547],[-43.88808,-21.63792],[-43.88944,-21.64091],[-43.89041,-21.64168],[-43.8916,-21.64207],[-43.88891,-21.64365],[-43.88718,-21.64704],[-43.88737,-21.64867],[-43.88952,-21.65039],[-43.88966,-21.65137],[-43.88878,-21.65294],[-43.88752,-21.65592],[-43.88717,-21.65837],[-43.88833,-21.65911],[-43.8901,-21.65871],[-43.89073,-21.6591],[-43.88974,-21.66165],[-43.88953,-21.66332],[-43.88965,-21.66905],[-43.88832,-21.67],[-43.88751,-21.67104],[-43.88719,-21.67289],[-43.88619,-21.67433],[-43.8854,-21.67607],[-43.88502,-21.67794],[-43.88507,-21.6794],[-43.88579,-21.68197],[-43.8868,-21.68374],[-43.88454,-21.68431],[-43.883,-21.68432],[-43.87952,-21.6833],[-43.87704,-21.68288],[-43.87554,-21.68184],[-43.87517,-21.68117],[-43.87302,-21.67884],[-43.87266,-21.67712],[-43.87162,-21.67595],[-43.87152,-21.67458],[-43.8719,-21.6734],[-43.87163,-21.67213],[-43.86996,-21.67019],[-43.86982,-21.66913],[-43.87036,-21.66681],[-43.87038,-21.66556],[-43.8692,-21.66301],[-43.86661,-21.66057],[-43.86504,-21.65877],[-43.86426,-21.65753],[-43.86192,-21.65496],[-43.86101,-21.65351],[-43.85986,-21.65249],[-43.85922,-21.65143],[-43.85916,-21.64914],[-43.85792,-21.64624],[-43.85735,-21.64542],[-43.85505,-21.64326],[-43.85289,-21.64185],[-43.85001,-21.63901],[-43.84872,-21.63804],[-43.8467,-21.63706],[-43.84513,-21.63598],[-43.84307,-21.6341],[-43.8422,-21.63232],[-43.84096,-21.63181],[-43.83962,-21.63287],[-43.83833,-21.63303],[-43.8356,-21.63257],[-43.83497,-21.63191],[-43.83541,-21.6306],[-43.83547,-21.62926],[-43.83517,-21.62779],[-43.83405,-21.62551],[-43.83337,-21.62367],[-43.83317,-21.62207],[-43.83259,-21.62024],[-43.83152,-21.61594],[-43.8312,-21.61294],[-43.83092,-21.61212],[-43.82813,-21.61064],[-43.82759,-21.60745],[-43.82722,-21.60679],[-43.82745,-21.60471],[-43.82838,-21.602],[-43.8304,-21.60121],[-43.83079,-21.60005],[-43.83144,-21.59981],[-43.83191,-21.59849],[-43.83203,-21.59655],[-43.83138,-21.59624],[-43.83125,-21.59482],[-43.8326,-21.59424],[-43.83242,-21.5934],[-43.83432,-21.59347],[-43.83474,-21.59258],[-43.83395,-21.59167],[-43.834,-21.59098],[-43.83659,-21.58694],[-43.83745,-21.58589],[-43.83687,-21.58474]]]},"properties":{"codigo":"315940710","name":"Bom Jesus do Vermelho","population":361,"households":247,"areaKm2":47.7806,"density":7.6}},{"type":"Feature","geometry":{"type":"Polygon","coordinates":[[[-43.82292,-21.5097],[-43.82343,-21.50918],[-43.82452,-21.50922],[-43.82739,-21.50781],[-43.82929,-21.5054],[-43.83083,-21.50452],[-43.83125,-21.50147],[-43.83211,-21.50088],[-43.83361,-21.50042],[-43.83452,-21.5008],[-43.83549,-21.5025],[-43.83561,-21.50371],[-43.83531,-21.5049],[-43.83716,-21.50685],[-43.83751,-21.50962],[-43.83837,-21.50992],[-43.83962,-21.50969],[-43.84187,-21.50875],[-43.84621,-21.50782],[-43.8472,-21.50735],[-43.8453,-21.50411],[-43.84722,-21.50329],[-43.849,-21.50288],[-43.85011,-21.50366],[-43.85088,-21.5037],[-43.8536,-21.50045],[-43.85372,-21.49888],[-43.85466,-21.49816],[-43.85565,-21.49687],[-43.85712,-21.49674],[-43.85737,-21.49875],[-43.85716,-21.49978],[-43.8585,-21.50203],[-43.8606,-21.50378],[-43.86202,-21.50415],[-43.8637,-21.5016],[-43.86477,-21.50095],[-43.8671,-21.50053],[-43.86838,-21.49928],[-43.86862,-21.49705],[-43.86953,-21.49631],[-43.8713,-21.49636],[-43.8719,-21.49599],[-43.87227,-21.49456],[-43.87292,-21.49416],[-43.87525,-21.49451],[-43.87569,-21.49509],[-43.87629,-21.49805],[-43.87631,-21.49897],[-43.87468,-21.50244],[-43.87654,-21.50404],[-43.87903,-21.50504],[-43.88025,-21.50472],[-43.88141,-21.50513],[-43.88239,-21.50638],[-43.88397,-21.50718],[-43.88622,-21.50702],[-43.88725,-21.50756],[-43.88826,-21.50912],[-43.89043,-21.50981],[-43.89337,-21.51177],[-43.89616,-21.51211],[-43.89738,-21.51169],[-43.89919,-21.51217],[-43.90128,-21.51174],[-43.9001,-21.51348],[-43.89898,-21.51387],[-43.89943,-21.51458],[-43.90169,-21.51622],[-43.90278,-21.51786],[-43.90397,-21.51764],[-43.90508,-21.5179],[-43.90546,-21.51883],[-43.90574,-21.52108],[-43.90525,-21.52323],[-43.90322,-21.52387],[-43.90214,-21.52556],[-43.90162,-21.52579],[-43.90078,-21.52808],[-43.89958,-21.52898],[-43.8987,-21.52812],[-43.89609,-21.52829],[-43.89567,-21.52858],[-43.89419,-21.52741],[-43.88887,-21.52682],[-43.88745,-21.52576],[-43.88636,-21.52651],[-43.88493,-21.52662],[-43.8839,-21.52707],[-43.88601,-21.5297],[-43.88686,-21.53196],[-43.88688,-21.53472],[-43.88718,-21.53667],[-43.88659,-21.53785],[-43.88679,-21.54126],[-43.88507,-21.54396],[-43.88512,-21.54509],[-43.88677,-21.54811],[-43.88685,-21.55021],[-43.88552,-21.55261],[-43.88583,-21.55484],[-43.88585,-21.55669],[-43.88416,-21.55922],[-43.88426,-21.56049],[-43.88494,-21.56081],[-43.88673,-21.56079],[-43.88709,-21.56113],[-43.88693,-21.5629],[-43.88736,-21.56503],[-43.88757,-21.56863],[-43.88732,-21.5702],[-43.88854,-21.57206],[-43.8892,-21.57355],[-43.88946,-21.57545],[-43.88924,-21.57674],[-43.88861,-21.57825],[-43.88879,-21.57895],[-43.89151,-21.58014],[-43.89349,-21.58294],[-43.89391,-21.58385],[-43.8937,-21.58462],[-43.89202,-21.58716],[-43.892,-21.58759],[-43.89089,-21.58855],[-43.88948,-21.58907],[-43.88806,-21.59],[-43.88404,-21.59036],[-43.88257,-21.58989],[-43.88046,-21.59004],[-43.87942,-21.58979],[-43.87733,-21.58848],[-43.87631,-21.58814],[-43.87551,-21.58699],[-43.87622,-21.58458],[-43.87618,-21.58312],[-43.87561,-21.58203],[-43.87313,-21.58233],[-43.86985,-21.58209],[-43.8685,-21.58225],[-43.86599,-21.58137],[-43.86351,-21.57923],[-43.86132,-21.57811],[-43.86012,-21.57662],[-43.85929,-21.57353],[-43.85852,-21.57207],[-43.85528,-21.56869],[-43.8547,-21.56874],[-43.85421,-21.56724],[-43.85336,-21.56683],[-43.85258,-21.56571],[-43.84991,-21.56559],[-43.849,-21.5663],[-43.84889,-21.56789],[-43.84843,-21.56939],[-43.84764,-21.56996],[-43.84613,-21.56994],[-43.84571,-21.57135],[-43.84603,-21.57488],[-43.84536,-21.57514],[-43.84491,-21.57628],[-43.84492,-21.57751],[-43.84557,-21.57817],[-43.84532,-21.58124],[-43.84458,-21.58245],[-43.8424,-21.58477],[-43.83975,-21.58464],[-43.83687,-21.58474],[-43.83685,-21.58408],[-43.83851,-21.58263],[-43.84047,-21.58244],[-43.84123,-21.5818],[-43.8413,-21.58033],[-43.84025,-21.57744],[-43.83857,-21.57584],[-43.83737,-21.57555],[-43.83627,-21.57422],[-43.83644,-21.57213],[-43.83637,-21.57007],[-43.83574,-21.56894],[-43.83402,-21.56841],[-43.83274,-21.56732],[-43.83215,-21.56567],[-43.83217,-21.56368],[-43.83165,-21.56134],[-43.83202,-21.55961],[-43.8321,-21.55633],[-43.82932,-21.55319],[-43.82867,-21.55282],[-43.82663,-21.55315],[-43.8252,-21.55385],[-43.82396,-21.55506],[-43.82287,-21.55563],[-43.81934,-21.55516],[-43.81605,-21.5569],[-43.81508,-21.55649],[-43.81632,-21.55526],[-43.81698,-21.55416],[-43.81623,-21.54867],[-43.81544,-21.54669],[-43.81546,-21.54382],[-43.81514,-21.5422],[-43.81381,-21.54016],[-43.81385,-21.53939],[-43.81472,-21.53737],[-43.81451,-21.53566],[-43.81501,-21.5341],[-43.8148,-21.53318],[-43.81374,-21.53183],[-43.81416,-21.52977],[-43.81488,-21.52737],[-43.81462,-21.52616],[-43.81464,-21.52499],[-43.81515,-21.52334],[-43.81605,-21.52254],[-43.81616,-21.52162],[-43.81523,-21.51938],[-43.81559,-21.51796],[-43.81636,-21.51655],[-43.81772,-21.51521],[-43.81858,-21.51328],[-43.82031,-21.51166],[-43.82111,-21.51045],[-43.82292,-21.5097]]]},"properties":{"codigo":"315940715","name":"Paraíso Garcia","population":586,"households":410,"areaKm2":59.8249,"density":9.8}}]}