{"type":"FeatureCollection","features":[{"type":"Feature","geometry":{"type":"Polygon","coordinates":[[[-44.65911,-16.08066],[-44.65751,-16.08051],[-44.65612,-16.07985],[-44.6549,-16.07877],[-44.65387,-16.07748],[-44.65322,-16.0755],[-44.65335,-16.07368],[-44.65503,-16.07249],[-44.66298,-16.06626],[-44.66332,-16.06608],[-44.66908,-16.06501],[-44.67377,-16.06354],[-44.67663,-16.06299],[-44.68124,-16.06067],[-44.6825,-16.05992],[-44.68776,-16.05831],[-44.69016,-16.05714],[-44.69272,-16.05561],[-44.69478,-16.05334],[-44.6958,-16.052],[-44.6985,-16.04899],[-44.70047,-16.04737],[-44.70272,-16.04429],[-44.70335,-16.0423],[-44.70364,-16.03804],[-44.70358,-16.03636],[-44.70381,-16.03401],[-44.70349,-16.0319],[-44.70228,-16.03164],[-44.70128,-16.03104],[-44.7013,-16.02975],[-44.69972,-16.02755],[-44.69857,-16.0267],[-44.69597,-16.02665],[-44.69339,-16.02445],[-44.69435,-16.02291],[-44.69502,-16.02101],[-44.69608,-16.01474],[-44.69415,-16.01106],[-44.69183,-16.00952],[-44.68928,-16.00862],[-44.68621,-16.00847],[-44.68232,-16.0086],[-44.67829,-16.00743],[-44.67731,-16.00669],[-44.67661,-16.00531],[-44.67651,-16.0043],[-44.67722,-16.00257],[-44.67904,-16.00035],[-44.68102,-15.99873],[-44.6812,-15.99635],[-44.68058,-15.99446],[-44.67849,-15.99072],[-44.67563,-15.98796],[-44.67513,-15.98611],[-44.67503,-15.9848],[-44.67451,-15.98236],[-44.6728,-15.97747],[-44.67151,-15.97542],[-44.67077,-15.97461],[-44.66763,-15.97277],[-44.66465,-15.97023],[-44.66341,-15.96867],[-44.66139,-15.96572],[-44.66048,-15.96371],[-44.66013,-15.96037],[-44.6601,-15.95841],[-44.65958,-15.95539],[-44.65846,-15.95235],[-44.65663,-15.94965],[-44.65544,-15.94816],[-44.65291,-15.94544],[-44.64984,-15.94274],[-44.64763,-15.94122],[-44.64586,-15.9406],[-44.64678,-15.93851],[-44.64901,-15.93646],[-44.65073,-15.93356],[-44.65468,-15.93056],[-44.65532,-15.9298],[-44.65664,-15.92909],[-44.65781,-15.92702],[-44.65803,-15.92603],[-44.65938,-15.92223],[-44.65946,-15.92128],[-44.65893,-15.92036],[-44.65673,-15.91793],[-44.65645,-15.91638],[-44.65724,-15.91576],[-44.65762,-15.91438],[-44.65875,-15.91171],[-44.65983,-15.91012],[-44.6611,-15.90944],[-44.6627,-15.90799],[-44.66442,-15.90677],[-44.6659,-15.90632],[-44.66842,-15.90688],[-44.66935,-15.90688],[-44.67181,-15.90583],[-44.67246,-15.90447],[-44.67389,-15.90436],[-44.67591,-15.90386],[-44.67682,-15.90276],[-44.67857,-15.90161],[-44.67878,-15.90012],[-44.67945,-15.89893],[-44.68041,-15.89802],[-44.6831,-15.89809],[-44.68512,-15.90103],[-44.68586,-15.90101],[-44.6864,-15.90263],[-44.68793,-15.90252],[-44.68932,-15.90277],[-44.69051,-15.90209],[-44.69069,-15.90117],[-44.69153,-15.90016],[-44.69114,-15.89741],[-44.69241,-15.89587],[-44.69535,-15.89309],[-44.69618,-15.89268],[-44.69738,-15.89102],[-44.6986,-15.88893],[-44.69958,-15.88905],[-44.70134,-15.88995],[-44.70272,-15.88945],[-44.70358,-15.88818],[-44.70556,-15.88727],[-44.70692,-15.88695],[-44.70869,-15.88458],[-44.71022,-15.88394],[-44.71192,-15.88226],[-44.71347,-15.88116],[-44.71543,-15.88052],[-44.71645,-15.88045],[-44.71733,-15.88092],[-44.71878,-15.88224],[-44.71964,-15.88268],[-44.72161,-15.88268],[-44.72392,-15.88361],[-44.72585,-15.88351],[-44.72702,-15.88187],[-44.72817,-15.88107],[-44.7296,-15.88082],[-44.73094,-15.88018],[-44.73254,-15.87742],[-44.73279,-15.87562],[-44.73169,-15.87476],[-44.73206,-15.8728],[-44.73402,-15.87046],[-44.73493,-15.86885],[-44.73629,-15.8679],[-44.73729,-15.86768],[-44.73865,-15.86796],[-44.74017,-15.86978],[-44.74219,-15.86938],[-44.74324,-15.87035],[-44.74507,-15.87121],[-44.74652,-15.87156],[-44.74864,-15.87143],[-44.74936,-15.8708],[-44.74926,-15.86578],[-44.74976,-15.86541],[-44.75032,-15.86131],[-44.74956,-15.85944],[-44.74857,-15.85803],[-44.74831,-15.85663],[-44.74884,-15.85529],[-44.75075,-15.85305],[-44.75249,-15.85225],[-44.75345,-15.85232],[-44.7554,-15.85148],[-44.75724,-15.84925],[-44.75779,-15.84906],[-44.75935,-15.84646],[-44.75919,-15.84549],[-44.76017,-15.84432],[-44.76224,-15.84299],[-44.76318,-15.84184],[-44.76466,-15.84053],[-44.76547,-15.83786],[-44.76538,-15.83668],[-44.76577,-15.83468],[-44.7667,-15.83346],[-44.7669,-15.83157],[-44.76798,-15.83003],[-44.76962,-15.82885],[-44.77135,-15.82409],[-44.77238,-15.82252],[-44.77446,-15.82045],[-44.77609,-15.81906],[-44.77824,-15.81571],[-44.77886,-15.81438],[-44.78077,-15.81277],[-44.78197,-15.81081],[-44.78238,-15.80943],[-44.78222,-15.8088],[-44.78236,-15.8084],[-44.78328,-15.80944],[-44.7849,-15.81188],[-44.78709,-15.81433],[-44.78926,-15.81757],[-44.79117,-15.81997],[-44.79395,-15.82303],[-44.79645,-15.82748],[-44.80115,-15.83382],[-44.80532,-15.83851],[-44.80939,-15.84427],[-44.81234,-15.84764],[-44.81494,-15.85003],[-44.82025,-15.85321],[-44.82158,-15.85468],[-44.82428,-15.85881],[-44.82633,-15.86337],[-44.82754,-15.86537],[-44.82835,-15.86728],[-44.831,-15.87157],[-44.83162,-15.87281],[-44.83312,-15.87696],[-44.83386,-15.87864],[-44.83705,-15.8833],[-44.83984,-15.88834],[-44.84094,-15.89249],[-44.84175,-15.89735],[-44.84216,-15.8985],[-44.84347,-15.90345],[-44.84474,-15.90723],[-44.84581,-15.90926],[-44.85079,-15.91769],[-44.85444,-15.92502],[-44.85542,-15.929],[-44.85599,-15.93042],[-44.85818,-15.93274],[-44.86021,-15.93602],[-44.86139,-15.93771],[-44.8637,-15.94141],[-44.86534,-15.94349],[-44.86885,-15.94662],[-44.87431,-15.95289],[-44.87576,-15.95436],[-44.88432,-15.96196],[-44.88797,-15.96456],[-44.8919,-15.9669],[-44.89688,-15.9693],[-44.89883,-15.96983],[-44.90124,-15.97019],[-44.90636,-15.97058],[-44.90824,-15.97058],[-44.91158,-15.97094],[-44.91525,-15.97098],[-44.92072,-15.97068],[-44.9277,-15.97072],[-44.92929,-15.97041],[-44.92888,-15.97245],[-44.9293,-15.97603],[-44.93063,-15.97836],[-44.93131,-15.97784],[-44.93336,-15.97879],[-44.93405,-15.98285],[-44.93046,-15.98528],[-44.93008,-15.98741],[-44.9304,-15.99086],[-44.93071,-15.99187],[-44.92931,-15.99567],[-44.92838,-15.99753],[-44.92715,-16.00056],[-44.92514,-16.0048],[-44.92447,-16.00813],[-44.92295,-16.01254],[-44.92244,-16.01672],[-44.92212,-16.01836],[-44.92084,-16.0205],[-44.9198,-16.01997],[-44.91731,-16.01704],[-44.90696,-15.99794],[-44.9054,-15.99699],[-44.90404,-15.99335],[-44.90293,-15.99178],[-44.90026,-15.99007],[-44.89951,-15.98911],[-44.89831,-15.98619],[-44.89768,-15.98509],[-44.8969,-15.98775],[-44.89574,-15.98926],[-44.895,-15.99142],[-44.89566,-15.99228],[-44.89636,-15.99406],[-44.89642,-15.99493],[-44.89551,-15.99743],[-44.89425,-15.9989],[-44.89189,-16.00005],[-44.89084,-16.00138],[-44.88999,-16.00189],[-44.88813,-16.00225],[-44.88682,-16.00296],[-44.88651,-16.00386],[-44.88432,-16.005],[-44.88329,-16.00656],[-44.88343,-16.00748],[-44.88511,-16.01036],[-44.88504,-16.01177],[-44.88466,-16.01264],[-44.88339,-16.0133],[-44.88154,-16.01344],[-44.88042,-16.01468],[-44.87975,-16.01605],[-44.87901,-16.01624],[-44.87803,-16.01856],[-44.87684,-16.02003],[-44.87678,-16.02173],[-44.87459,-16.02368],[-44.87464,-16.02423],[-44.8762,-16.02538],[-44.87579,-16.02766],[-44.87486,-16.02814],[-44.87256,-16.02837],[-44.87182,-16.02896],[-44.86991,-16.02958],[-44.86778,-16.02863],[-44.86673,-16.0289],[-44.86582,-16.03007],[-44.86434,-16.03129],[-44.86292,-16.03117],[-44.86168,-16.03052],[-44.86023,-16.0304],[-44.8592,-16.03201],[-44.85699,-16.03396],[-44.85684,-16.03488],[-44.85734,-16.03672],[-44.85688,-16.03755],[-44.8545,-16.03816],[-44.85255,-16.03818],[-44.85094,-16.0376],[-44.84899,-16.03769],[-44.84751,-16.03746],[-44.8467,-16.03695],[-44.84652,-16.03603],[-44.84566,-16.03566],[-44.8429,-16.03682],[-44.84121,-16.03693],[-44.84119,-16.03592],[-44.83994,-16.0336],[-44.83856,-16.03299],[-44.83758,-16.03301],[-44.83587,-16.03407],[-44.83513,-16.03522],[-44.83469,-16.03798],[-44.83366,-16.03931],[-44.83368,-16.04023],[-44.83314,-16.04098],[-44.83073,-16.04185],[-44.82943,-16.04056],[-44.82752,-16.04113],[-44.82814,-16.043],[-44.82925,-16.04408],[-44.82889,-16.04631],[-44.82753,-16.04759],[-44.82505,-16.04747],[-44.82429,-16.048],[-44.8241,-16.0489],[-44.82338,-16.04942],[-44.82255,-16.04901],[-44.82055,-16.04879],[-44.81859,-16.04952],[-44.81646,-16.05166],[-44.81598,-16.05186],[-44.81355,-16.05154],[-44.81258,-16.05181],[-44.81074,-16.05323],[-44.80912,-16.05334],[-44.80836,-16.05396],[-44.80742,-16.05798],[-44.80635,-16.05892],[-44.8054,-16.05901],[-44.8023,-16.06001],[-44.79961,-16.06226],[-44.79477,-16.06542],[-44.79391,-16.06579],[-44.79136,-16.06803],[-44.78945,-16.07118],[-44.78959,-16.07162],[-44.78882,-16.07431],[-44.78812,-16.07568],[-44.78712,-16.07679],[-44.78669,-16.07862],[-44.78604,-16.07993],[-44.78454,-16.08103],[-44.78251,-16.08165],[-44.78142,-16.08243],[-44.77939,-16.08284],[-44.77706,-16.08398],[-44.7753,-16.08285],[-44.77261,-16.08272],[-44.77169,-16.08235],[-44.76867,-16.08248],[-44.76817,-16.08227],[-44.76557,-16.083],[-44.76155,-16.08497],[-44.75973,-16.08625],[-44.75699,-16.0873],[-44.75509,-16.0869],[-44.75295,-16.08768],[-44.75167,-16.08701],[-44.75062,-16.08712],[-44.7473,-16.09035],[-44.74489,-16.09203],[-44.7428,-16.09264],[-44.74142,-16.09236],[-44.73904,-16.09281],[-44.73627,-16.09545],[-44.73524,-16.09611],[-44.73357,-16.09857],[-44.7335,-16.09907],[-44.73152,-16.10098],[-44.72872,-16.10403],[-44.72744,-16.10471],[-44.72629,-16.10473],[-44.72322,-16.10548],[-44.72106,-16.10575],[-44.71796,-16.10551],[-44.71502,-16.10373],[-44.71198,-16.10273],[-44.71103,-16.10211],[-44.7097,-16.1007],[-44.70842,-16.10003],[-44.70635,-16.09931],[-44.70093,-16.09959],[-44.69948,-16.09834],[-44.69853,-16.09809],[-44.6975,-16.09843],[-44.69691,-16.09916],[-44.694,-16.10066],[-44.69301,-16.09971],[-44.69161,-16.09765],[-44.69048,-16.09634],[-44.68937,-16.09351],[-44.68868,-16.09238],[-44.6853,-16.08885],[-44.68281,-16.08702],[-44.68206,-16.08562],[-44.68136,-16.08339],[-44.68042,-16.08116],[-44.67967,-16.07851],[-44.67683,-16.07502],[-44.67523,-16.07337],[-44.67408,-16.07287],[-44.67163,-16.07267],[-44.67051,-16.07282],[-44.66841,-16.07354],[-44.66515,-16.07388],[-44.66203,-16.07484],[-44.65931,-16.07865],[-44.65877,-16.08016],[-44.65911,-16.08066]]]},"properties":{"codigo":"316110605","name":"São Francisco","population":36774,"households":14409,"areaKm2":496.5582,"density":74.1}},{"type":"Feature","geometry":{"type":"Polygon","coordinates":[[[-44.49076,-16.01649],[-44.49136,-16.01435],[-44.49122,-16.0134],[-44.49029,-16.0131],[-44.49029,-16.01165],[-44.48919,-16.01078],[-44.48741,-16.00997],[-44.4852,-16.00859],[-44.4832,-16.00865],[-44.48258,-16.00808],[-44.48282,-16.00513],[-44.48165,-16.00469],[-44.48072,-16.00354],[-44.48025,-16.00204],[-44.47899,-16.0014],[-44.47878,-16.00004],[-44.47804,-15.99922],[-44.47809,-15.99832],[-44.47768,-15.99598],[-44.47662,-15.9942],[-44.47591,-15.99356],[-44.474,-15.99343],[-44.47112,-15.99233],[-44.46962,-15.99222],[-44.46633,-15.9937],[-44.46491,-15.99409],[-44.46293,-15.99387],[-44.46104,-15.99249],[-44.45957,-15.9936],[-44.45755,-15.994],[-44.45647,-15.99195],[-44.45573,-15.99147],[-44.45352,-15.99258],[-44.4525,-15.9924],[-44.44963,-15.99079],[-44.44947,-15.99038],[-44.45161,-15.98943],[-44.4517,-15.98892],[-44.45079,-15.98768],[-44.44733,-15.98545],[-44.44562,-15.98403],[-44.44323,-15.9829],[-44.44102,-15.98371],[-44.43909,-15.98213],[-44.43813,-15.98043],[-44.43715,-15.97935],[-44.43443,-15.97781],[-44.43369,-15.97703],[-44.43357,-15.97562],[-44.43309,-15.97477],[-44.43145,-15.97367],[-44.43018,-15.97318],[-44.43061,-15.97111],[-44.43149,-15.96952],[-44.43153,-15.9686],[-44.43043,-15.96699],[-44.4306,-15.96588],[-44.43295,-15.96362],[-44.43356,-15.9597],[-44.43389,-15.95867],[-44.43493,-15.95747],[-44.43543,-15.95618],[-44.43472,-15.95565],[-44.43326,-15.95533],[-44.4325,-15.95459],[-44.43264,-15.95363],[-44.43223,-15.95268],[-44.43121,-15.95218],[-44.42921,-15.95197],[-44.42694,-15.95011],[-44.42682,-15.94919],[-44.42746,-15.9485],[-44.42884,-15.94792],[-44.42893,-15.94746],[-44.42641,-15.94592],[-44.4249,-15.94457],[-44.42321,-15.94335],[-44.41968,-15.94145],[-44.4178,-15.93977],[-44.41532,-15.93795],[-44.4136,-15.93561],[-44.41345,-15.93425],[-44.41262,-15.9331],[-44.41252,-15.93075],[-44.41159,-15.92971],[-44.41144,-15.92875],[-44.41208,-15.9272],[-44.41275,-15.9264],[-44.41453,-15.92561],[-44.41479,-15.92517],[-44.41466,-15.92238],[-44.41492,-15.9213],[-44.41668,-15.91971],[-44.41891,-15.91721],[-44.41929,-15.91629],[-44.41964,-15.9138],[-44.42017,-15.91242],[-44.4224,-15.90977],[-44.42275,-15.90848],[-44.42253,-15.90698],[-44.42174,-15.90463],[-44.42126,-15.90212],[-44.42071,-15.90023],[-44.42016,-15.89945],[-44.4178,-15.89858],[-44.41673,-15.89845],[-44.41475,-15.8967],[-44.41329,-15.89479],[-44.41201,-15.89383],[-44.41148,-15.89302],[-44.41178,-15.8888],[-44.41111,-15.88655],[-44.41175,-15.88574],[-44.4128,-15.88542],[-44.41415,-15.88392],[-44.41576,-15.87919],[-44.41609,-15.87668],[-44.41701,-15.87483],[-44.41767,-15.87274],[-44.4175,-15.87103],[-44.4153,-15.86777],[-44.41506,-15.86682],[-44.41592,-15.86465],[-44.41869,-15.86168],[-44.41983,-15.85983],[-44.42568,-15.85544],[-44.42677,-15.8553],[-44.42841,-15.85426],[-44.42934,-15.85444],[-44.43079,-15.85578],[-44.4331,-15.85658],[-44.43417,-15.85651],[-44.43543,-15.85501],[-44.43493,-15.85266],[-44.43509,-15.8513],[-44.43556,-15.85038],[-44.43651,-15.85014],[-44.43856,-15.85106],[-44.43973,-15.85207],[-44.44068,-15.85232],[-44.44416,-15.85236],[-44.44487,-15.85176],[-44.4452,-15.85079],[-44.44543,-15.84842],[-44.4465,-15.84446],[-44.44771,-15.843],[-44.44973,-15.84203],[-44.45415,-15.83965],[-44.45569,-15.83815],[-44.45849,-15.8359],[-44.45975,-15.83521],[-44.46094,-15.83406],[-44.4607,-15.83251],[-44.45976,-15.83134],[-44.46038,-15.83069],[-44.46212,-15.83011],[-44.46345,-15.82841],[-44.46403,-15.82603],[-44.46587,-15.8255],[-44.46713,-15.82614],[-44.46808,-15.82609],[-44.46872,-15.82545],[-44.46919,-15.82268],[-44.46976,-15.82173],[-44.47118,-15.82042],[-44.47275,-15.81804],[-44.47291,-15.81712],[-44.47236,-15.8159],[-44.47124,-15.81489],[-44.47197,-15.81376],[-44.47495,-15.81265],[-44.47654,-15.8128],[-44.47897,-15.81439],[-44.48038,-15.81452],[-44.48218,-15.8138],[-44.48382,-15.81214],[-44.48358,-15.81163],[-44.48025,-15.81116],[-44.47949,-15.81068],[-44.47979,-15.8098],[-44.48141,-15.80828],[-44.48224,-15.80779],[-44.4829,-15.80652],[-44.48371,-15.80592],[-44.48606,-15.80486],[-44.48699,-15.80522],[-44.48825,-15.80658],[-44.48875,-15.80662],[-44.49011,-15.80519],[-44.49074,-15.80372],[-44.49014,-15.80148],[-44.49007,-15.79953],[-44.48957,-15.7987],[-44.48844,-15.7978],[-44.48763,-15.79601],[-44.48598,-15.79401],[-44.48491,-15.79173],[-44.48497,-15.78991],[-44.48592,-15.78698],[-44.48622,-15.78479],[-44.48667,-15.78375],[-44.48961,-15.78094],[-44.49102,-15.78015],[-44.49213,-15.77906],[-44.49712,-15.77693],[-44.49933,-15.77545],[-44.50062,-15.77513],[-44.5026,-15.77563],[-44.50422,-15.77711],[-44.5055,-15.77889],[-44.50728,-15.78002],[-44.5104,-15.78071],[-44.51337,-15.78078],[-44.51604,-15.78108],[-44.52223,-15.78093],[-44.52385,-15.78061],[-44.52608,-15.78047],[-44.52846,-15.78082],[-44.53158,-15.7819],[-44.53313,-15.78264],[-44.53838,-15.78361],[-44.54017,-15.7841],[-44.54267,-15.78505],[-44.54581,-15.78661],[-44.55092,-15.78961],[-44.55366,-15.79187],[-44.55639,-15.79559],[-44.55758,-15.79911],[-44.55865,-15.80165],[-44.56176,-15.80771],[-44.56205,-15.80912],[-44.56233,-15.81214],[-44.56216,-15.81665],[-44.56187,-15.81875],[-44.56225,-15.82161],[-44.56342,-15.82458],[-44.5647,-15.82712],[-44.56563,-15.82965],[-44.56641,-15.83313],[-44.56639,-15.83435],[-44.56543,-15.8408],[-44.56514,-15.84387],[-44.56459,-15.84677],[-44.5634,-15.8505],[-44.56306,-15.85285],[-44.56292,-15.8553],[-44.5623,-15.85691],[-44.56049,-15.85898],[-44.55663,-15.86112],[-44.5548,-15.86333],[-44.55356,-15.86608],[-44.55151,-15.86817],[-44.54953,-15.86879],[-44.54786,-15.86904],[-44.54334,-15.86923],[-44.54084,-15.86982],[-44.53831,-15.87136],[-44.53724,-15.87256],[-44.53665,-15.87401],[-44.53653,-15.8754],[-44.53676,-15.87735],[-44.53781,-15.87982],[-44.5379,-15.8821],[-44.53678,-15.88448],[-44.53587,-15.88722],[-44.53537,-15.88994],[-44.53525,-15.89236],[-44.53549,-15.89383],[-44.53682,-15.8968],[-44.5386,-15.89932],[-44.53967,-15.90118],[-44.54112,-15.90245],[-44.54372,-15.90358],[-44.54554,-15.90259],[-44.54979,-15.90124],[-44.55186,-15.89983],[-44.55332,-15.8991],[-44.55627,-15.89857],[-44.55937,-15.89871],[-44.5617,-15.89947],[-44.56394,-15.90079],[-44.56444,-15.90157],[-44.56615,-15.90254],[-44.56913,-15.90224],[-44.57008,-15.90252],[-44.57213,-15.9025],[-44.57336,-15.90333],[-44.57429,-15.90319],[-44.57591,-15.90395],[-44.57675,-15.90337],[-44.57741,-15.90409],[-44.58156,-15.90488],[-44.58432,-15.90584],[-44.58534,-15.9075],[-44.58705,-15.90843],[-44.5886,-15.90963],[-44.59081,-15.91207],[-44.59205,-15.91403],[-44.59453,-15.91472],[-44.59638,-15.91629],[-44.59739,-15.91627],[-44.598,-15.91694],[-44.59815,-15.91802],[-44.60012,-15.91827],[-44.60131,-15.91982],[-44.60326,-15.92127],[-44.60353,-15.9227],[-44.60593,-15.92293],[-44.60681,-15.92252],[-44.60907,-15.92296],[-44.61191,-15.92418],[-44.61334,-15.92462],[-44.61522,-15.92556],[-44.61772,-15.92727],[-44.61877,-15.92741],[-44.62017,-15.92699],[-44.62136,-15.92764],[-44.623,-15.92785],[-44.62686,-15.92898],[-44.62779,-15.92882],[-44.62851,-15.92817],[-44.62932,-15.92836],[-44.6316,-15.93149],[-44.63248,-15.93356],[-44.63386,-15.93555],[-44.63541,-15.93732],[-44.63656,-15.93828],[-44.63598,-15.93843],[-44.63377,-15.9402],[-44.63076,-15.94011],[-44.62998,-15.94061],[-44.62917,-15.94174],[-44.62824,-15.94223],[-44.62702,-15.94382],[-44.62502,-15.944],[-44.62197,-15.94462],[-44.61835,-15.94626],[-44.6165,-15.94665],[-44.61602,-15.94794],[-44.61642,-15.9505],[-44.61413,-15.95211],[-44.61359,-15.95393],[-44.61123,-15.95416],[-44.61018,-15.95446],[-44.6072,-15.95598],[-44.60663,-15.9577],[-44.60696,-15.9592],[-44.6081,-15.96088],[-44.60972,-15.96238],[-44.61015,-15.96331],[-44.61015,-15.96563],[-44.61048,-15.96653],[-44.61148,-15.96771],[-44.61151,-15.96865],[-44.61065,-15.96985],[-44.60796,-15.97116],[-44.60615,-15.97335],[-44.60417,-15.9734],[-44.60303,-15.97252],[-44.602,-15.97268],[-44.60024,-15.97478],[-44.59945,-15.97526],[-44.59709,-15.97584],[-44.59645,-15.97713],[-44.59426,-15.97814],[-44.59409,-15.97908],[-44.59318,-15.97957],[-44.59164,-15.97947],[-44.59075,-15.98056],[-44.58944,-15.98019],[-44.58863,-15.98058],[-44.58854,-15.98221],[-44.58782,-15.98284],[-44.58777,-15.98403],[-44.58508,-15.98143],[-44.5832,-15.98129],[-44.58222,-15.98362],[-44.58156,-15.98426],[-44.58167,-15.98521],[-44.58051,-15.98654],[-44.57967,-15.98836],[-44.5801,-15.99007],[-44.58098,-15.99057],[-44.58005,-15.992],[-44.58007,-15.99355],[-44.57941,-15.9953],[-44.57797,-15.99728],[-44.57469,-16.00019],[-44.5741,-16.00199],[-44.57282,-16.00264],[-44.57268,-16.00407],[-44.57311,-16.0049],[-44.57123,-16.00514],[-44.57115,-16.00712],[-44.57208,-16.00848],[-44.57121,-16.01009],[-44.57127,-16.01249],[-44.57099,-16.01383],[-44.56997,-16.01498],[-44.56997,-16.01597],[-44.56893,-16.01708],[-44.568,-16.01716],[-44.56685,-16.02094],[-44.5675,-16.0217],[-44.5672,-16.02366],[-44.5673,-16.02463],[-44.56605,-16.02691],[-44.56512,-16.02798],[-44.56394,-16.02881],[-44.5637,-16.03017],[-44.56374,-16.03222],[-44.56174,-16.03366],[-44.56074,-16.03376],[-44.55948,-16.03445],[-44.55743,-16.03421],[-44.55548,-16.03475],[-44.55324,-16.03379],[-44.55215,-16.03497],[-44.55146,-16.03649],[-44.55077,-16.03728],[-44.54861,-16.03821],[-44.54752,-16.03921],[-44.54674,-16.04147],[-44.54716,-16.04492],[-44.54632,-16.047],[-44.54639,-16.04861],[-44.54603,-16.05182],[-44.54549,-16.05438],[-44.54391,-16.05869],[-44.54406,-16.06015],[-44.54484,-16.06258],[-44.54485,-16.0642],[-44.54331,-16.0678],[-44.54033,-16.07231],[-44.53887,-16.07623],[-44.53905,-16.07844],[-44.5394,-16.07944],[-44.53643,-16.0788],[-44.53285,-16.07884],[-44.52839,-16.0765],[-44.52576,-16.07612],[-44.52352,-16.07611],[-44.52137,-16.07563],[-44.51877,-16.0747],[-44.51774,-16.07376],[-44.51449,-16.07145],[-44.51308,-16.07083],[-44.51215,-16.07081],[-44.50927,-16.07131],[-44.50784,-16.0709],[-44.50698,-16.06963],[-44.50633,-16.06791],[-44.50484,-16.06533],[-44.50338,-16.06483],[-44.5013,-16.06353],[-44.49996,-16.06157],[-44.50009,-16.05966],[-44.49913,-16.05828],[-44.4978,-16.05807],[-44.49756,-16.05703],[-44.49835,-16.05636],[-44.49854,-16.05551],[-44.49806,-16.05463],[-44.49861,-16.05288],[-44.50037,-16.05093],[-44.50134,-16.05032],[-44.50169,-16.04947],[-44.50154,-16.0471],[-44.50249,-16.04564],[-44.50213,-16.04479],[-44.50221,-16.04253],[-44.50261,-16.04163],[-44.50275,-16.03942],[-44.50191,-16.03882],[-44.50109,-16.0371],[-44.5008,-16.03528],[-44.50134,-16.03399],[-44.50043,-16.03367],[-44.49837,-16.03241],[-44.49768,-16.0316],[-44.49777,-16.03066],[-44.49861,-16.02953],[-44.49847,-16.0273],[-44.49756,-16.02608],[-44.49671,-16.02433],[-44.49692,-16.02338],[-44.49654,-16.02064],[-44.49597,-16.01993],[-44.49411,-16.02032],[-44.49076,-16.01649]]]},"properties":{"codigo":"316110612","name":"Lapa do Espírito Santo","population":1334,"households":612,"areaKm2":402.9807,"density":3.3}},{"type":"Feature","geometry":{"type":"Polygon","coordinates":[[[-44.65957,-16.13392],[-44.65815,-16.13509],[-44.65333,-16.13546],[-44.65203,-16.13494],[-44.6513,-16.13402],[-44.65284,-16.13208],[-44.65326,-16.13081],[-44.65247,-16.13035],[-44.65111,-16.1302],[-44.65132,-16.1284],[-44.65072,-16.12711],[-44.64948,-16.12746],[-44.64914,-16.1268],[-44.64971,-16.12608],[-44.64929,-16.12375],[-44.64772,-16.12415],[-44.64785,-16.12503],[-44.64718,-16.12549],[-44.64563,-16.12444],[-44.64493,-16.12322],[-44.64426,-16.12387],[-44.64291,-16.12392],[-44.64226,-16.12316],[-44.6418,-16.12165],[-44.6415,-16.11967],[-44.641,-16.11882],[-44.63968,-16.11806],[-44.6372,-16.11803],[-44.63577,-16.11771],[-44.6344,-16.11587],[-44.63295,-16.11574],[-44.63282,-16.11438],[-44.63188,-16.11268],[-44.63076,-16.11184],[-44.62933,-16.11198],[-44.62804,-16.11132],[-44.62665,-16.11105],[-44.62548,-16.11015],[-44.62453,-16.11025],[-44.62388,-16.10959],[-44.6239,-16.10751],[-44.62334,-16.1068],[-44.62143,-16.10632],[-44.62039,-16.10642],[-44.61934,-16.10739],[-44.61891,-16.10604],[-44.61688,-16.10552],[-44.61637,-16.10434],[-44.61568,-16.10372],[-44.6137,-16.10415],[-44.61079,-16.10359],[-44.60902,-16.10302],[-44.60769,-16.10353],[-44.60683,-16.10335],[-44.60532,-16.10101],[-44.60543,-16.09907],[-44.60514,-16.09767],[-44.60396,-16.09682],[-44.60253,-16.09666],[-44.60045,-16.09541],[-44.599,-16.09514],[-44.59775,-16.09436],[-44.59577,-16.094],[-44.592,-16.0927],[-44.59112,-16.09208],[-44.58949,-16.0902],[-44.589,-16.08882],[-44.58728,-16.08807],[-44.58613,-16.08593],[-44.58464,-16.08414],[-44.58421,-16.0832],[-44.5828,-16.0832],[-44.58101,-16.08268],[-44.58017,-16.08153],[-44.57886,-16.08099],[-44.57705,-16.08199],[-44.57648,-16.08127],[-44.57488,-16.08093],[-44.57361,-16.08023],[-44.57183,-16.08063],[-44.57149,-16.07975],[-44.57054,-16.07953],[-44.56928,-16.07999],[-44.56605,-16.07759],[-44.56029,-16.07528],[-44.5585,-16.07518],[-44.55641,-16.07583],[-44.55463,-16.07678],[-44.55099,-16.078],[-44.54946,-16.07865],[-44.54732,-16.07891],[-44.54392,-16.08012],[-44.5394,-16.07944],[-44.53905,-16.07844],[-44.53887,-16.07623],[-44.54033,-16.07231],[-44.54331,-16.0678],[-44.54485,-16.0642],[-44.54484,-16.06258],[-44.54406,-16.06015],[-44.54391,-16.05869],[-44.54549,-16.05438],[-44.54603,-16.05182],[-44.54639,-16.04861],[-44.54632,-16.047],[-44.54716,-16.04492],[-44.54674,-16.04147],[-44.54752,-16.03921],[-44.54861,-16.03821],[-44.55077,-16.03728],[-44.55146,-16.03649],[-44.55215,-16.03497],[-44.55324,-16.03379],[-44.55548,-16.03475],[-44.55743,-16.03421],[-44.55948,-16.03445],[-44.56074,-16.03376],[-44.56174,-16.03366],[-44.56374,-16.03222],[-44.5637,-16.03017],[-44.56394,-16.02881],[-44.56512,-16.02798],[-44.56605,-16.02691],[-44.5673,-16.02463],[-44.5672,-16.02366],[-44.5675,-16.0217],[-44.56685,-16.02094],[-44.568,-16.01716],[-44.56893,-16.01708],[-44.56997,-16.01597],[-44.56997,-16.01498],[-44.57099,-16.01383],[-44.57127,-16.01249],[-44.57121,-16.01009],[-44.57208,-16.00848],[-44.57115,-16.00712],[-44.57123,-16.00514],[-44.57311,-16.0049],[-44.57268,-16.00407],[-44.57282,-16.00264],[-44.5741,-16.00199],[-44.57469,-16.00019],[-44.57797,-15.99728],[-44.57941,-15.9953],[-44.58007,-15.99355],[-44.58005,-15.992],[-44.58098,-15.99057],[-44.5801,-15.99007],[-44.57967,-15.98836],[-44.58051,-15.98654],[-44.58167,-15.98521],[-44.58156,-15.98426],[-44.58222,-15.98362],[-44.5832,-15.98129],[-44.58508,-15.98143],[-44.58777,-15.98403],[-44.58782,-15.98284],[-44.58854,-15.98221],[-44.58863,-15.98058],[-44.58944,-15.98019],[-44.59075,-15.98056],[-44.59164,-15.97947],[-44.59318,-15.97957],[-44.59409,-15.97908],[-44.59426,-15.97814],[-44.59645,-15.97713],[-44.59709,-15.97584],[-44.59945,-15.97526],[-44.60024,-15.97478],[-44.602,-15.97268],[-44.60303,-15.97252],[-44.60417,-15.9734],[-44.60615,-15.97335],[-44.60796,-15.97116],[-44.61065,-15.96985],[-44.61151,-15.96865],[-44.61148,-15.96771],[-44.61048,-15.96653],[-44.61015,-15.96563],[-44.61015,-15.96331],[-44.60972,-15.96238],[-44.6081,-15.96088],[-44.60696,-15.9592],[-44.60663,-15.9577],[-44.6072,-15.95598],[-44.61018,-15.95446],[-44.61123,-15.95416],[-44.61359,-15.95393],[-44.61413,-15.95211],[-44.61642,-15.9505],[-44.61602,-15.94794],[-44.6165,-15.94665],[-44.61835,-15.94626],[-44.62197,-15.94462],[-44.62502,-15.944],[-44.62702,-15.94382],[-44.62824,-15.94223],[-44.62917,-15.94174],[-44.62998,-15.94061],[-44.63076,-15.94011],[-44.63377,-15.9402],[-44.63598,-15.93843],[-44.63656,-15.93828],[-44.63862,-15.93947],[-44.64096,-15.93979],[-44.64367,-15.9408],[-44.64586,-15.9406],[-44.64763,-15.94122],[-44.64984,-15.94274],[-44.65291,-15.94544],[-44.65544,-15.94816],[-44.65663,-15.94965],[-44.65846,-15.95235],[-44.65958,-15.95539],[-44.6601,-15.95841],[-44.66013,-15.96037],[-44.66048,-15.96371],[-44.66139,-15.96572],[-44.66341,-15.96867],[-44.66465,-15.97023],[-44.66763,-15.97277],[-44.67077,-15.97461],[-44.67151,-15.97542],[-44.6728,-15.97747],[-44.67451,-15.98236],[-44.67503,-15.9848],[-44.67513,-15.98611],[-44.67563,-15.98796],[-44.67849,-15.99072],[-44.68058,-15.99446],[-44.6812,-15.99635],[-44.68102,-15.99873],[-44.67904,-16.00035],[-44.67722,-16.00257],[-44.67651,-16.0043],[-44.67661,-16.00531],[-44.67731,-16.00669],[-44.67829,-16.00743],[-44.68232,-16.0086],[-44.68621,-16.00847],[-44.68928,-16.00862],[-44.69183,-16.00952],[-44.69415,-16.01106],[-44.69608,-16.01474],[-44.69502,-16.02101],[-44.69435,-16.02291],[-44.69339,-16.02445],[-44.69597,-16.02665],[-44.69857,-16.0267],[-44.69972,-16.02755],[-44.7013,-16.02975],[-44.70128,-16.03104],[-44.70228,-16.03164],[-44.70349,-16.0319],[-44.70381,-16.03401],[-44.70358,-16.03636],[-44.70364,-16.03804],[-44.70335,-16.0423],[-44.70272,-16.04429],[-44.70047,-16.04737],[-44.6985,-16.04899],[-44.6958,-16.052],[-44.69478,-16.05334],[-44.69272,-16.05561],[-44.69016,-16.05714],[-44.68776,-16.05831],[-44.6825,-16.05992],[-44.68124,-16.06067],[-44.67663,-16.06299],[-44.67377,-16.06354],[-44.66908,-16.06501],[-44.66332,-16.06608],[-44.66298,-16.06626],[-44.65503,-16.07249],[-44.65335,-16.07368],[-44.65322,-16.0755],[-44.65387,-16.07748],[-44.6549,-16.07877],[-44.65612,-16.07985],[-44.65751,-16.08051],[-44.65911,-16.08066],[-44.65983,-16.08119],[-44.66128,-16.08143],[-44.66378,-16.08138],[-44.66717,-16.08244],[-44.66887,-16.08349],[-44.6704,-16.08372],[-44.67308,-16.08571],[-44.67328,-16.08753],[-44.67293,-16.09],[-44.67385,-16.09262],[-44.67345,-16.09398],[-44.67185,-16.09659],[-44.66981,-16.09944],[-44.66813,-16.10145],[-44.66709,-16.10309],[-44.66677,-16.10503],[-44.66554,-16.10727],[-44.66569,-16.10913],[-44.6654,-16.11291],[-44.66615,-16.11478],[-44.66594,-16.11621],[-44.66649,-16.1171],[-44.6661,-16.11992],[-44.66623,-16.12178],[-44.66483,-16.12313],[-44.66434,-16.12458],[-44.66421,-16.12608],[-44.66317,-16.12783],[-44.66303,-16.12887],[-44.66236,-16.12961],[-44.66103,-16.12941],[-44.66042,-16.1311],[-44.65885,-16.13216],[-44.65957,-16.13392]]]},"properties":{"codigo":"316110615","name":"Morro","population":3039,"households":1226,"areaKm2":201.8052,"density":15.1}},{"type":"Feature","geometry":{"type":"Polygon","coordinates":[[[-44.93136,-16.14955],[-44.93192,-16.14894],[-44.93368,-16.1486],[-44.93576,-16.14752],[-44.9381,-16.14481],[-44.9396,-16.14351],[-44.94303,-16.14151],[-44.9442,-16.14053],[-44.94499,-16.13885],[-44.94543,-16.13144],[-44.94493,-16.13048],[-44.94482,-16.12907],[-44.94333,-16.12472],[-44.94245,-16.12343],[-44.94036,-16.12182],[-44.93924,-16.12156],[-44.9377,-16.11974],[-44.93659,-16.11792],[-44.93517,-16.11507],[-44.93448,-16.11313],[-44.93318,-16.11157],[-44.93275,-16.1106],[-44.93059,-16.10804],[-44.93088,-16.10767],[-44.92924,-16.10631],[-44.92813,-16.10327],[-44.92702,-16.09925],[-44.92654,-16.09906],[-44.92614,-16.09662],[-44.92553,-16.09519],[-44.92278,-16.09165],[-44.92114,-16.09008],[-44.92148,-16.08934],[-44.92034,-16.08764],[-44.9207,-16.08534],[-44.9203,-16.08511],[-44.92059,-16.08265],[-44.92012,-16.08129],[-44.91872,-16.07896],[-44.91784,-16.07788],[-44.91606,-16.07629],[-44.91594,-16.0747],[-44.91436,-16.07194],[-44.91317,-16.07115],[-44.91099,-16.06756],[-44.91004,-16.06659],[-44.90719,-16.06566],[-44.90569,-16.06545],[-44.90391,-16.06476],[-44.90189,-16.06303],[-44.90163,-16.06158],[-44.90045,-16.0584],[-44.9007,-16.05486],[-44.9028,-16.05167],[-44.90311,-16.05077],[-44.90345,-16.04834],[-44.9031,-16.04631],[-44.90391,-16.04401],[-44.90494,-16.04342],[-44.90749,-16.04027],[-44.91073,-16.03805],[-44.91173,-16.03773],[-44.91371,-16.03603],[-44.91476,-16.03431],[-44.91505,-16.03254],[-44.91677,-16.03017],[-44.91786,-16.02967],[-44.91998,-16.0273],[-44.92027,-16.02586],[-44.91936,-16.02367],[-44.91932,-16.02266],[-44.9198,-16.01997],[-44.92084,-16.0205],[-44.92212,-16.01836],[-44.92244,-16.01672],[-44.92295,-16.01254],[-44.92447,-16.00813],[-44.92514,-16.0048],[-44.92715,-16.00056],[-44.92838,-15.99753],[-44.92931,-15.99567],[-44.93071,-15.99187],[-44.9304,-15.99086],[-44.93008,-15.98741],[-44.93046,-15.98528],[-44.93405,-15.98285],[-44.93336,-15.97879],[-44.93131,-15.97784],[-44.93063,-15.97836],[-44.9293,-15.97603],[-44.92888,-15.97245],[-44.92929,-15.97041],[-44.93159,-15.97007],[-44.93656,-15.96974],[-44.94135,-15.96957],[-44.94576,-15.9686],[-44.9484,-15.96844],[-44.95221,-15.96876],[-44.95531,-15.96956],[-44.95834,-15.97059],[-44.96063,-15.97105],[-44.96294,-15.97183],[-44.96665,-15.97434],[-44.96764,-15.97485],[-44.97288,-15.97707],[-44.97438,-15.97722],[-44.98029,-15.97939],[-44.98181,-15.97971],[-44.98413,-15.97957],[-44.9887,-15.978],[-44.99124,-15.977],[-44.99555,-15.97626],[-44.99906,-15.97508],[-45.00108,-15.97483],[-45.0064,-15.97508],[-45.00985,-15.975],[-45.01107,-15.97515],[-45.01465,-15.97509],[-45.01908,-15.97523],[-45.02231,-15.9758],[-45.02598,-15.97583],[-45.02937,-15.97641],[-45.032,-15.9773],[-45.03504,-15.97909],[-45.03913,-15.98214],[-45.04093,-15.98437],[-45.04224,-15.98792],[-45.04305,-15.98939],[-45.04413,-15.99065],[-45.04328,-15.99165],[-45.04298,-15.99387],[-45.04332,-15.9959],[-45.04317,-16.00005],[-45.0422,-16.00164],[-45.04137,-16.0051],[-45.04121,-16.00793],[-45.04178,-16.01247],[-45.04291,-16.01507],[-45.04389,-16.01795],[-45.04463,-16.01965],[-45.0463,-16.02241],[-45.04723,-16.02428],[-45.05057,-16.02985],[-45.05207,-16.03215],[-45.05302,-16.03514],[-45.0541,-16.03917],[-45.05694,-16.04516],[-45.05928,-16.04942],[-45.06116,-16.0531],[-45.06448,-16.05757],[-45.06682,-16.06127],[-45.06758,-16.06392],[-45.06775,-16.06565],[-45.06797,-16.07074],[-45.06884,-16.07578],[-45.06996,-16.0805],[-45.07092,-16.08386],[-45.07388,-16.09063],[-45.07507,-16.09413],[-45.07641,-16.09754],[-45.07756,-16.10122],[-45.07861,-16.10544],[-45.07938,-16.10806],[-45.0795,-16.11106],[-45.07917,-16.11332],[-45.07917,-16.11758],[-45.07956,-16.12165],[-45.0777,-16.12085],[-45.07656,-16.12071],[-45.07496,-16.12131],[-45.07213,-16.12311],[-45.07015,-16.12503],[-45.06951,-16.12595],[-45.06856,-16.12823],[-45.06823,-16.13482],[-45.06788,-16.13576],[-45.06597,-16.13652],[-45.06344,-16.13653],[-45.06037,-16.13572],[-45.05934,-16.13602],[-45.05734,-16.13766],[-45.05637,-16.13803],[-45.05473,-16.13921],[-45.05337,-16.14063],[-45.04961,-16.14398],[-45.0447,-16.14606],[-45.0421,-16.14606],[-45.0406,-16.14629],[-45.0397,-16.14599],[-45.0381,-16.14648],[-45.03705,-16.14634],[-45.03605,-16.14574],[-45.03343,-16.14563],[-45.03033,-16.1451],[-45.02788,-16.14605],[-45.02392,-16.14665],[-45.02201,-16.14736],[-45.02113,-16.14861],[-45.01963,-16.14935],[-45.01618,-16.1497],[-45.01429,-16.14949],[-45.01334,-16.14972],[-45.01122,-16.15103],[-45.00834,-16.15364],[-45.00524,-16.15548],[-45.00443,-16.15625],[-45.00324,-16.15887],[-45.00246,-16.15936],[-44.99957,-16.15864],[-44.99622,-16.1576],[-44.99527,-16.15752],[-44.99393,-16.15796],[-44.99258,-16.15883],[-44.99163,-16.15902],[-44.98892,-16.1577],[-44.98797,-16.15823],[-44.98712,-16.15946],[-44.98637,-16.15999],[-44.98244,-16.16064],[-44.97999,-16.16234],[-44.97618,-16.16299],[-44.97359,-16.161],[-44.97166,-16.16039],[-44.9697,-16.16038],[-44.96807,-16.15942],[-44.9672,-16.15749],[-44.96655,-16.15682],[-44.96495,-16.15656],[-44.96403,-16.15696],[-44.96186,-16.15711],[-44.96026,-16.15679],[-44.95367,-16.15631],[-44.95224,-16.15592],[-44.94904,-16.15444],[-44.94784,-16.15427],[-44.94539,-16.15504],[-44.94205,-16.15453],[-44.93708,-16.15256],[-44.93452,-16.15193],[-44.93399,-16.1512],[-44.93411,-16.15027],[-44.93329,-16.14979],[-44.93136,-16.14955]]]},"properties":{"codigo":"316110618","name":"Retiro","population":3995,"households":1765,"areaKm2":285.9565,"density":14}},{"type":"Feature","geometry":{"type":"Polygon","coordinates":[[[-45.22563,-15.84348],[-45.22473,-15.84296],[-45.22109,-15.84388],[-45.21971,-15.84463],[-45.218,-15.84468],[-45.21552,-15.84419],[-45.21039,-15.84433],[-45.20968,-15.84523],[-45.20954,-15.84611],[-45.21055,-15.84707],[-45.21046,-15.84786],[-45.20908,-15.84854],[-45.20852,-15.84985],[-45.20761,-15.85032],[-45.2052,-15.84962],[-45.20361,-15.84986],[-45.20146,-15.85063],[-45.19958,-15.84999],[-45.19862,-15.85007],[-45.19679,-15.85072],[-45.19546,-15.85174],[-45.19384,-15.85196],[-45.19204,-15.85345],[-45.19138,-15.85532],[-45.19175,-15.85785],[-45.19184,-15.86005],[-45.19046,-15.86081],[-45.18938,-15.85978],[-45.1893,-15.85768],[-45.18806,-15.85723],[-45.18744,-15.85806],[-45.18616,-15.85881],[-45.18334,-15.85882],[-45.18218,-15.8597],[-45.1819,-15.8612],[-45.18044,-15.8647],[-45.18,-15.86654],[-45.17896,-15.86768],[-45.17696,-15.86815],[-45.176,-15.86809],[-45.17515,-15.86876],[-45.17263,-15.86988],[-45.17209,-15.87067],[-45.17196,-15.8733],[-45.17216,-15.87519],[-45.17067,-15.87746],[-45.16968,-15.87938],[-45.16722,-15.88017],[-45.16647,-15.88142],[-45.16636,-15.88302],[-45.16567,-15.88434],[-45.16477,-15.88469],[-45.16262,-15.884],[-45.16152,-15.88417],[-45.16034,-15.88505],[-45.1595,-15.88467],[-45.15928,-15.88303],[-45.1587,-15.88218],[-45.15648,-15.88159],[-45.15513,-15.88261],[-45.15484,-15.88617],[-45.1542,-15.88758],[-45.15299,-15.88915],[-45.15224,-15.89206],[-45.15116,-15.89465],[-45.15026,-15.89611],[-45.14917,-15.89727],[-45.14717,-15.89816],[-45.14558,-15.8983],[-45.14467,-15.89875],[-45.14434,-15.89958],[-45.14463,-15.90488],[-45.14429,-15.90692],[-45.14332,-15.90814],[-45.14132,-15.90905],[-45.13951,-15.91033],[-45.13843,-15.91364],[-45.13677,-15.9156],[-45.13699,-15.91701],[-45.13676,-15.91812],[-45.13529,-15.92018],[-45.13446,-15.9206],[-45.13346,-15.91957],[-45.13361,-15.91804],[-45.1328,-15.91775],[-45.13214,-15.9184],[-45.13122,-15.92022],[-45.13134,-15.92154],[-45.13278,-15.92178],[-45.13361,-15.9225],[-45.13372,-15.92381],[-45.13312,-15.92481],[-45.13165,-15.92604],[-45.13091,-15.92832],[-45.13036,-15.93008],[-45.12913,-15.93258],[-45.12807,-15.93411],[-45.12633,-15.93527],[-45.12543,-15.93643],[-45.12546,-15.93698],[-45.12711,-15.93826],[-45.1275,-15.93925],[-45.12639,-15.94166],[-45.12623,-15.94267],[-45.12702,-15.94336],[-45.13029,-15.94404],[-45.13251,-15.94421],[-45.1342,-15.94467],[-45.13614,-15.94549],[-45.13877,-15.94695],[-45.13901,-15.94783],[-45.13833,-15.94862],[-45.13725,-15.94754],[-45.13544,-15.94745],[-45.13482,-15.94891],[-45.13021,-15.95214],[-45.12772,-15.9534],[-45.12569,-15.95389],[-45.12511,-15.95283],[-45.1261,-15.95052],[-45.12617,-15.94946],[-45.12542,-15.94762],[-45.12333,-15.94511],[-45.12037,-15.94321],[-45.11812,-15.94285],[-45.11436,-15.94375],[-45.11375,-15.94513],[-45.11679,-15.94909],[-45.11814,-15.95162],[-45.11767,-15.95255],[-45.11655,-15.95315],[-45.11558,-15.95431],[-45.1145,-15.95701],[-45.1135,-15.9584],[-45.10977,-15.96047],[-45.10636,-15.96109],[-45.10436,-15.96161],[-45.10281,-15.96159],[-45.10156,-15.96044],[-45.10064,-15.96075],[-45.10053,-15.96252],[-45.09979,-15.96311],[-45.09809,-15.96224],[-45.09733,-15.96272],[-45.09722,-15.96386],[-45.09661,-15.96575],[-45.09481,-15.9647],[-45.09437,-15.96622],[-45.09365,-15.96703],[-45.09347,-15.96793],[-45.09445,-15.96839],[-45.09655,-15.96847],[-45.09791,-15.96911],[-45.09799,-15.97006],[-45.09747,-15.97091],[-45.09793,-15.97294],[-45.0955,-15.9739],[-45.09479,-15.97464],[-45.09425,-15.97596],[-45.09492,-15.97663],[-45.09488,-15.97766],[-45.09402,-15.97831],[-45.09374,-15.97975],[-45.0931,-15.98063],[-45.09132,-15.98232],[-45.0913,-15.98329],[-45.09052,-15.9838],[-45.08854,-15.98429],[-45.08726,-15.98536],[-45.08506,-15.98514],[-45.08361,-15.98535],[-45.08297,-15.98716],[-45.08198,-15.98813],[-45.08057,-15.98844],[-45.07905,-15.98568],[-45.07817,-15.98603],[-45.07856,-15.9878],[-45.07749,-15.98843],[-45.07666,-15.98792],[-45.07523,-15.98929],[-45.07421,-15.98967],[-45.0733,-15.98863],[-45.07237,-15.98857],[-45.07237,-15.98947],[-45.0713,-15.98998],[-45.07025,-15.99003],[-45.06934,-15.9887],[-45.06784,-15.98921],[-45.06674,-15.98885],[-45.06547,-15.98738],[-45.06468,-15.98756],[-45.06543,-15.98947],[-45.06459,-15.9898],[-45.06292,-15.98935],[-45.06209,-15.98877],[-45.06165,-15.98785],[-45.06025,-15.9886],[-45.05922,-15.98805],[-45.05998,-15.98685],[-45.05919,-15.98643],[-45.05781,-15.98812],[-45.05693,-15.98841],[-45.05659,-15.98755],[-45.05564,-15.98717],[-45.05455,-15.98934],[-45.05312,-15.98918],[-45.05133,-15.98855],[-45.05114,-15.98991],[-45.05153,-15.99078],[-45.04979,-15.99146],[-45.04909,-15.99082],[-45.04906,-15.98946],[-45.04953,-15.98763],[-45.04845,-15.98584],[-45.04745,-15.98651],[-45.04741,-15.98753],[-45.04656,-15.98921],[-45.04413,-15.99065],[-45.04305,-15.98939],[-45.04224,-15.98792],[-45.04093,-15.98437],[-45.03913,-15.98214],[-45.03504,-15.97909],[-45.032,-15.9773],[-45.02937,-15.97641],[-45.02598,-15.97583],[-45.02231,-15.9758],[-45.01908,-15.97523],[-45.01465,-15.97509],[-45.01107,-15.97515],[-45.00985,-15.975],[-45.0064,-15.97508],[-45.00108,-15.97483],[-44.99906,-15.97508],[-44.99555,-15.97626],[-44.99124,-15.977],[-44.9887,-15.978],[-44.98413,-15.97957],[-44.98181,-15.97971],[-44.98029,-15.97939],[-44.97438,-15.97722],[-44.97288,-15.97707],[-44.96764,-15.97485],[-44.96665,-15.97434],[-44.96294,-15.97183],[-44.96063,-15.97105],[-44.95834,-15.97059],[-44.95531,-15.96956],[-44.95221,-15.96876],[-44.9484,-15.96844],[-44.94576,-15.9686],[-44.94135,-15.96957],[-44.93656,-15.96974],[-44.93159,-15.97007],[-44.92929,-15.97041],[-44.9277,-15.97072],[-44.92072,-15.97068],[-44.91525,-15.97098],[-44.91158,-15.97094],[-44.90824,-15.97058],[-44.90636,-15.97058],[-44.90124,-15.97019],[-44.89883,-15.96983],[-44.89688,-15.9693],[-44.8919,-15.9669],[-44.88797,-15.96456],[-44.88432,-15.96196],[-44.87576,-15.95436],[-44.87431,-15.95289],[-44.86885,-15.94662],[-44.86534,-15.94349],[-44.8637,-15.94141],[-44.86139,-15.93771],[-44.86021,-15.93602],[-44.85818,-15.93274],[-44.85599,-15.93042],[-44.85542,-15.929],[-44.85444,-15.92502],[-44.85079,-15.91769],[-44.84581,-15.90926],[-44.84474,-15.90723],[-44.84347,-15.90345],[-44.84216,-15.8985],[-44.84175,-15.89735],[-44.84094,-15.89249],[-44.83984,-15.88834],[-44.83705,-15.8833],[-44.83386,-15.87864],[-44.83312,-15.87696],[-44.83162,-15.87281],[-44.831,-15.87157],[-44.82835,-15.86728],[-44.82754,-15.86537],[-44.82633,-15.86337],[-44.82428,-15.85881],[-44.82158,-15.85468],[-44.82025,-15.85321],[-44.81494,-15.85003],[-44.81234,-15.84764],[-44.80939,-15.84427],[-44.80532,-15.83851],[-44.80115,-15.83382],[-44.79645,-15.82748],[-44.79395,-15.82303],[-44.79117,-15.81997],[-44.78926,-15.81757],[-44.78709,-15.81433],[-44.7849,-15.81188],[-44.78328,-15.80944],[-44.78236,-15.8084],[-44.78209,-15.80656],[-44.78095,-15.80414],[-44.77997,-15.80294],[-44.77869,-15.80087],[-44.77742,-15.79967],[-44.77461,-15.7976],[-44.77414,-15.79564],[-44.77552,-15.79412],[-44.77645,-15.79394],[-44.7779,-15.79458],[-44.77973,-15.79474],[-44.78116,-15.79449],[-44.7832,-15.79299],[-44.78423,-15.79297],[-44.78511,-15.79349],[-44.78592,-15.79478],[-44.78768,-15.79448],[-44.78808,-15.79345],[-44.78694,-15.79181],[-44.78673,-15.79066],[-44.78806,-15.78937],[-44.78958,-15.7887],[-44.79194,-15.78725],[-44.79272,-15.78609],[-44.79313,-15.78423],[-44.79508,-15.78112],[-44.79662,-15.77948],[-44.79724,-15.77821],[-44.79745,-15.77664],[-44.79681,-15.77473],[-44.79679,-15.77372],[-44.79743,-15.77245],[-44.80095,-15.77176],[-44.80276,-15.77067],[-44.80376,-15.76908],[-44.8039,-15.76816],[-44.8034,-15.76535],[-44.80385,-15.76443],[-44.80518,-15.7633],[-44.80823,-15.76311],[-44.80932,-15.76219],[-44.8098,-15.76037],[-44.81082,-15.75979],[-44.81168,-15.76099],[-44.81215,-15.7623],[-44.81303,-15.76274],[-44.81417,-15.76196],[-44.81432,-15.7609],[-44.8137,-15.7588],[-44.81284,-15.75707],[-44.81374,-15.75594],[-44.81665,-15.75465],[-44.81822,-15.75426],[-44.81936,-15.7543],[-44.82071,-15.75485],[-44.82164,-15.7546],[-44.82198,-15.75372],[-44.82178,-15.75114],[-44.82266,-15.7499],[-44.82423,-15.74955],[-44.82745,-15.74923],[-44.8289,-15.74884],[-44.83104,-15.74757],[-44.83396,-15.74544],[-44.83439,-15.74464],[-44.83467,-15.7427],[-44.8361,-15.74185],[-44.8372,-15.74187],[-44.83927,-15.74258],[-44.84177,-15.74249],[-44.84355,-15.74205],[-44.84771,-15.73991],[-44.85061,-15.73744],[-44.85392,-15.73575],[-44.85696,-15.73587],[-44.85799,-15.7357],[-44.85851,-15.73494],[-44.85908,-15.73285],[-44.86008,-15.73183],[-44.86184,-15.73088],[-44.86322,-15.73047],[-44.86433,-15.72908],[-44.86431,-15.72586],[-44.86512,-15.72441],[-44.86595,-15.72365],[-44.86697,-15.72369],[-44.86821,-15.72539],[-44.86916,-15.72585],[-44.87018,-15.72479],[-44.87014,-15.72383],[-44.86906,-15.7221],[-44.86928,-15.72102],[-44.87085,-15.72053],[-44.87308,-15.72069],[-44.87482,-15.71984],[-44.8761,-15.71622],[-44.87672,-15.71534],[-44.87845,-15.71368],[-44.88009,-15.71289],[-44.88116,-15.71197],[-44.88159,-15.71107],[-44.88126,-15.70971],[-44.87969,-15.70872],[-44.879,-15.70741],[-44.87904,-15.70594],[-44.88006,-15.70243],[-44.88015,-15.69983],[-44.88049,-15.6975],[-44.88129,-15.69621],[-44.8826,-15.6963],[-44.88505,-15.69925],[-44.88591,-15.69969],[-44.88739,-15.69952],[-44.88881,-15.69789],[-44.88879,-15.6953],[-44.88826,-15.69337],[-44.88745,-15.69201],[-44.88745,-15.69136],[-44.88819,-15.68989],[-44.88909,-15.68931],[-44.89068,-15.68954],[-44.89185,-15.69039],[-44.89316,-15.69041],[-44.89447,-15.68945],[-44.89553,-15.68756],[-44.89637,-15.68696],[-44.89803,-15.68679],[-44.89908,-15.68702],[-44.90338,-15.68711],[-44.90464,-15.68644],[-44.9059,-15.68437],[-44.90623,-15.6828],[-44.90695,-15.68141],[-44.90787,-15.68088],[-44.91054,-15.6807],[-44.91149,-15.68021],[-44.91344,-15.6782],[-44.91455,-15.67661],[-44.91417,-15.67576],[-44.91227,-15.67505],[-44.9117,-15.67422],[-44.91215,-15.67339],[-44.91341,-15.67277],[-44.91538,-15.67313],[-44.91626,-15.67269],[-44.91583,-15.67129],[-44.91338,-15.66963],[-44.91286,-15.66818],[-44.91354,-15.66696],[-44.91457,-15.66661],[-44.91787,-15.66903],[-44.91961,-15.67013],[-44.92106,-15.67006],[-44.92116,-15.66813],[-44.92011,-15.66474],[-44.9202,-15.66377],[-44.92108,-15.6631],[-44.92315,-15.66333],[-44.9255,-15.66427],[-44.92646,-15.66427],[-44.92769,-15.66346],[-44.92869,-15.6619],[-44.9314,-15.65862],[-44.93175,-15.65777],[-44.93446,-15.65461],[-44.93536,-15.65382],[-44.93807,-15.65239],[-44.93871,-15.65152],[-44.93878,-15.65048],[-44.93776,-15.6482],[-44.93771,-15.64711],[-44.93814,-15.64617],[-44.9402,-15.64446],[-44.94082,-15.64439],[-44.94277,-15.64538],[-44.94366,-15.64658],[-44.94489,-15.64718],[-44.94575,-15.64658],[-44.94558,-15.6457],[-44.94484,-15.64473],[-44.94472,-15.64363],[-44.94565,-15.64259],[-44.94627,-15.64254],[-44.94936,-15.64337],[-44.95041,-15.64314],[-44.951,-15.64162],[-44.95055,-15.64065],[-44.94821,-15.63791],[-44.94866,-15.63664],[-44.95085,-15.63666],[-44.95183,-15.63705],[-44.95339,-15.63673],[-44.95639,-15.63292],[-44.95667,-15.63126],[-44.95686,-15.6281],[-44.9575,-15.62704],[-44.96028,-15.62669],[-44.96132,-15.62559],[-44.9598,-15.62448],[-44.9592,-15.62319],[-44.96001,-15.62123],[-44.9617,-15.62049],[-44.966,-15.62051],[-44.96712,-15.62031],[-44.96928,-15.61972],[-44.97225,-15.61815],[-44.97517,-15.61635],[-44.97636,-15.61508],[-44.97752,-15.61197],[-44.97835,-15.61151],[-44.98033,-15.61162],[-44.98204,-15.61141],[-44.98313,-15.6104],[-44.98315,-15.60934],[-44.98132,-15.6056],[-44.98108,-15.60443],[-44.98148,-15.60309],[-44.98302,-15.60109],[-44.9835,-15.59922],[-44.98335,-15.59795],[-44.98271,-15.59641],[-44.98209,-15.59291],[-44.98115,-15.59028],[-44.98184,-15.58906],[-44.98379,-15.58972],[-44.98474,-15.58968],[-44.98598,-15.58875],[-44.98691,-15.58762],[-44.98795,-15.58714],[-44.98961,-15.58716],[-44.99383,-15.58849],[-44.99651,-15.58996],[-44.99804,-15.58984],[-44.99844,-15.58887],[-44.99982,-15.58438],[-45.00295,-15.58231],[-45.00399,-15.58066],[-45.00417,-15.57905],[-45.003,-15.57633],[-45.00249,-15.57449],[-45.00255,-15.57336],[-45.00405,-15.57194],[-45.00557,-15.57187],[-45.00779,-15.57283],[-45.00857,-15.57176],[-45.00818,-15.57091],[-45.00858,-15.56952],[-45.01014,-15.56649],[-45.01053,-15.56416],[-45.01186,-15.5621],[-45.01333,-15.56212],[-45.01474,-15.56327],[-45.01603,-15.56386],[-45.01781,-15.56291],[-45.01826,-15.56141],[-45.01942,-15.55992],[-45.02217,-15.55871],[-45.02496,-15.5587],[-45.02713,-15.55901],[-45.0281,-15.5588],[-45.02993,-15.55787],[-45.03185,-15.55643],[-45.03443,-15.55414],[-45.03529,-15.55365],[-45.03619,-15.55376],[-45.03637,-15.55523],[-45.0374,-15.55717],[-45.03782,-15.55952],[-45.0388,-15.56065],[-45.03975,-15.5609],[-45.04101,-15.56018],[-45.04252,-15.55825],[-45.04497,-15.55702],[-45.04634,-15.5551],[-45.04757,-15.55382],[-45.04895,-15.55435],[-45.0497,-15.55589],[-45.05033,-15.5582],[-45.05172,-15.55983],[-45.05213,-15.56089],[-45.05303,-15.56141],[-45.05451,-15.56157],[-45.05556,-15.56205],[-45.05702,-15.56352],[-45.058,-15.56381],[-45.06052,-15.5635],[-45.06242,-15.56375],[-45.06317,-15.56435],[-45.0644,-15.56759],[-45.06518,-15.56814],[-45.06719,-15.5686],[-45.06895,-15.57004],[-45.07079,-15.57038],[-45.07339,-15.57224],[-45.07485,-15.5726],[-45.07563,-15.57326],[-45.076,-15.57469],[-45.07706,-15.57656],[-45.07778,-15.57856],[-45.07855,-15.57978],[-45.07971,-15.58005],[-45.08169,-15.57984],[-45.08269,-15.58011],[-45.08372,-15.58126],[-45.0844,-15.58308],[-45.08638,-15.58473],[-45.08872,-15.58555],[-45.09419,-15.58676],[-45.09494,-15.58739],[-45.09638,-15.58999],[-45.09812,-15.59079],[-45.09937,-15.59224],[-45.10085,-15.59359],[-45.10302,-15.5949],[-45.10495,-15.5939],[-45.10669,-15.59472],[-45.10763,-15.59688],[-45.10899,-15.59761],[-45.10952,-15.59842],[-45.10884,-15.6002],[-45.10924,-15.6011],[-45.10969,-15.60479],[-45.11053,-15.60614],[-45.11273,-15.60752],[-45.11343,-15.60895],[-45.11406,-15.61123],[-45.11581,-15.61325],[-45.11631,-15.61459],[-45.11643,-15.61855],[-45.11681,-15.61948],[-45.11882,-15.62085],[-45.12045,-15.62273],[-45.12119,-15.62412],[-45.12178,-15.62605],[-45.12335,-15.62759],[-45.1262,-15.62901],[-45.12866,-15.63107],[-45.13167,-15.63325],[-45.13562,-15.63766],[-45.13772,-15.63896],[-45.14037,-15.63994],[-45.14283,-15.64014],[-45.14426,-15.6405],[-45.14655,-15.64164],[-45.14886,-15.64244],[-45.1508,-15.64352],[-45.15441,-15.64627],[-45.15625,-15.64739],[-45.15847,-15.64913],[-45.16007,-15.64998],[-45.16163,-15.65128],[-45.16378,-15.65342],[-45.16612,-15.65477],[-45.16782,-15.65654],[-45.17157,-15.6588],[-45.17612,-15.66307],[-45.17727,-15.66434],[-45.18,-15.66635],[-45.18352,-15.67051],[-45.1862,-15.67306],[-45.1891,-15.67711],[-45.19031,-15.67936],[-45.19165,-15.68104],[-45.19347,-15.68237],[-45.19686,-15.68514],[-45.20189,-15.69022],[-45.20448,-15.69245],[-45.20654,-15.69439],[-45.20948,-15.69694],[-45.21176,-15.70018],[-45.2143,-15.7025],[-45.21548,-15.70413],[-45.21609,-15.70717],[-45.21684,-15.70945],[-45.21811,-15.71164],[-45.21924,-15.71271],[-45.22077,-15.71317],[-45.2226,-15.71318],[-45.22568,-15.71363],[-45.2273,-15.71431],[-45.22862,-15.71539],[-45.23039,-15.71734],[-45.23211,-15.71848],[-45.23423,-15.71847],[-45.23562,-15.71927],[-45.23908,-15.72085],[-45.24057,-15.72215],[-45.24124,-15.72312],[-45.24284,-15.72454],[-45.24337,-15.72542],[-45.24365,-15.72775],[-45.24498,-15.73152],[-45.2458,-15.73283],[-45.24741,-15.73647],[-45.24773,-15.73804],[-45.24865,-15.74002],[-45.25045,-15.7419],[-45.25281,-15.74283],[-45.25526,-15.74268],[-45.25644,-15.74362],[-45.25747,-15.74537],[-45.25765,-15.74818],[-45.25684,-15.75243],[-45.25503,-15.75641],[-45.25278,-15.75758],[-45.25085,-15.75816],[-45.24941,-15.76023],[-45.2488,-15.76261],[-45.24926,-15.76369],[-45.24975,-15.76611],[-45.25077,-15.76848],[-45.2506,-15.7695],[-45.2498,-15.77132],[-45.24951,-15.77331],[-45.24873,-15.7752],[-45.24717,-15.77706],[-45.24715,-15.77819],[-45.24783,-15.78091],[-45.24774,-15.78197],[-45.24529,-15.78639],[-45.24513,-15.78801],[-45.24541,-15.79022],[-45.24518,-15.79228],[-45.24345,-15.79427],[-45.24256,-15.79612],[-45.23972,-15.8004],[-45.23878,-15.80283],[-45.23791,-15.80397],[-45.23784,-15.80787],[-45.23865,-15.8083],[-45.23892,-15.80918],[-45.23814,-15.81105],[-45.23667,-15.81272],[-45.23544,-15.81356],[-45.23387,-15.81546],[-45.23412,-15.81649],[-45.23523,-15.81877],[-45.2354,-15.81974],[-45.23522,-15.82163],[-45.23409,-15.82351],[-45.2333,-15.82404],[-45.23326,-15.82483],[-45.23458,-15.82558],[-45.23487,-15.82706],[-45.23378,-15.82822],[-45.23429,-15.82916],[-45.23358,-15.83039],[-45.23305,-15.83376],[-45.23236,-15.83445],[-45.23036,-15.83539],[-45.22911,-15.83627],[-45.22781,-15.83815],[-45.22789,-15.84052],[-45.22671,-15.84254],[-45.22563,-15.84348]]]},"properties":{"codigo":"316110630","name":"Santa Isabel de Minas","population":3384,"households":1715,"areaKm2":1483.7644,"density":2.3}},{"type":"Feature","geometry":{"type":"Polygon","coordinates":[[[-44.694,-16.10066],[-44.69691,-16.09916],[-44.6975,-16.09843],[-44.69853,-16.09809],[-44.69948,-16.09834],[-44.70093,-16.09959],[-44.70635,-16.09931],[-44.70842,-16.10003],[-44.7097,-16.1007],[-44.71103,-16.10211],[-44.71198,-16.10273],[-44.71502,-16.10373],[-44.71796,-16.10551],[-44.72106,-16.10575],[-44.72322,-16.10548],[-44.72629,-16.10473],[-44.72744,-16.10471],[-44.72872,-16.10403],[-44.73152,-16.10098],[-44.7335,-16.09907],[-44.73357,-16.09857],[-44.73524,-16.09611],[-44.73627,-16.09545],[-44.73904,-16.09281],[-44.74142,-16.09236],[-44.7428,-16.09264],[-44.74489,-16.09203],[-44.7473,-16.09035],[-44.75062,-16.08712],[-44.75167,-16.08701],[-44.75295,-16.08768],[-44.75509,-16.0869],[-44.75699,-16.0873],[-44.75973,-16.08625],[-44.76155,-16.08497],[-44.76557,-16.083],[-44.76817,-16.08227],[-44.76867,-16.08248],[-44.77169,-16.08235],[-44.77261,-16.08272],[-44.7753,-16.08285],[-44.77706,-16.08398],[-44.77939,-16.08284],[-44.78142,-16.08243],[-44.78251,-16.08165],[-44.78454,-16.08103],[-44.78604,-16.07993],[-44.78669,-16.07862],[-44.78712,-16.07679],[-44.78812,-16.07568],[-44.78882,-16.07431],[-44.78959,-16.07162],[-44.78945,-16.07118],[-44.79136,-16.06803],[-44.79391,-16.06579],[-44.79477,-16.06542],[-44.79961,-16.06226],[-44.8023,-16.06001],[-44.8054,-16.05901],[-44.80635,-16.05892],[-44.80742,-16.05798],[-44.80836,-16.05396],[-44.80912,-16.05334],[-44.81074,-16.05323],[-44.81258,-16.05181],[-44.81355,-16.05154],[-44.81598,-16.05186],[-44.81646,-16.05166],[-44.81859,-16.04952],[-44.82055,-16.04879],[-44.82255,-16.04901],[-44.82338,-16.04942],[-44.8241,-16.0489],[-44.82429,-16.048],[-44.82505,-16.04747],[-44.82753,-16.04759],[-44.82889,-16.04631],[-44.82925,-16.04408],[-44.82814,-16.043],[-44.82752,-16.04113],[-44.82943,-16.04056],[-44.83073,-16.04185],[-44.83314,-16.04098],[-44.83368,-16.04023],[-44.83366,-16.03931],[-44.83469,-16.03798],[-44.83513,-16.03522],[-44.83587,-16.03407],[-44.83758,-16.03301],[-44.83856,-16.03299],[-44.83994,-16.0336],[-44.84119,-16.03592],[-44.84121,-16.03693],[-44.8429,-16.03682],[-44.84566,-16.03566],[-44.84652,-16.03603],[-44.8467,-16.03695],[-44.84751,-16.03746],[-44.84899,-16.03769],[-44.85094,-16.0376],[-44.85255,-16.03818],[-44.8545,-16.03816],[-44.85688,-16.03755],[-44.85734,-16.03672],[-44.85684,-16.03488],[-44.85699,-16.03396],[-44.8592,-16.03201],[-44.86023,-16.0304],[-44.86168,-16.03052],[-44.86292,-16.03117],[-44.86434,-16.03129],[-44.86582,-16.03007],[-44.86673,-16.0289],[-44.86778,-16.02863],[-44.86991,-16.02958],[-44.87182,-16.02896],[-44.87256,-16.02837],[-44.87486,-16.02814],[-44.87579,-16.02766],[-44.8762,-16.02538],[-44.87464,-16.02423],[-44.87459,-16.02368],[-44.87678,-16.02173],[-44.87684,-16.02003],[-44.87803,-16.01856],[-44.87901,-16.01624],[-44.87975,-16.01605],[-44.88042,-16.01468],[-44.88154,-16.01344],[-44.88339,-16.0133],[-44.88466,-16.01264],[-44.88504,-16.01177],[-44.88511,-16.01036],[-44.88343,-16.00748],[-44.88329,-16.00656],[-44.88432,-16.005],[-44.88651,-16.00386],[-44.88682,-16.00296],[-44.88813,-16.00225],[-44.88999,-16.00189],[-44.89084,-16.00138],[-44.89189,-16.00005],[-44.89425,-15.9989],[-44.89551,-15.99743],[-44.89642,-15.99493],[-44.89636,-15.99406],[-44.89566,-15.99228],[-44.895,-15.99142],[-44.89574,-15.98926],[-44.8969,-15.98775],[-44.89768,-15.98509],[-44.89831,-15.98619],[-44.89951,-15.98911],[-44.90026,-15.99007],[-44.90293,-15.99178],[-44.90404,-15.99335],[-44.9054,-15.99699],[-44.90696,-15.99794],[-44.91731,-16.01704],[-44.9198,-16.01997],[-44.91932,-16.02266],[-44.91936,-16.02367],[-44.92027,-16.02586],[-44.91998,-16.0273],[-44.91786,-16.02967],[-44.91677,-16.03017],[-44.91505,-16.03254],[-44.91476,-16.03431],[-44.91371,-16.03603],[-44.91173,-16.03773],[-44.91073,-16.03805],[-44.90749,-16.04027],[-44.90494,-16.04342],[-44.90391,-16.04401],[-44.9031,-16.04631],[-44.90345,-16.04834],[-44.90311,-16.05077],[-44.9028,-16.05167],[-44.9007,-16.05486],[-44.90045,-16.0584],[-44.90163,-16.06158],[-44.90189,-16.06303],[-44.90391,-16.06476],[-44.90569,-16.06545],[-44.90719,-16.06566],[-44.91004,-16.06659],[-44.91099,-16.06756],[-44.91317,-16.07115],[-44.91436,-16.07194],[-44.91594,-16.0747],[-44.91606,-16.07629],[-44.91784,-16.07788],[-44.91872,-16.07896],[-44.92012,-16.08129],[-44.92059,-16.08265],[-44.9203,-16.08511],[-44.9207,-16.08534],[-44.92034,-16.08764],[-44.92148,-16.08934],[-44.92114,-16.09008],[-44.92278,-16.09165],[-44.92553,-16.09519],[-44.92614,-16.09662],[-44.92654,-16.09906],[-44.92702,-16.09925],[-44.92813,-16.10327],[-44.92924,-16.10631],[-44.93088,-16.10767],[-44.93059,-16.10804],[-44.93275,-16.1106],[-44.93318,-16.11157],[-44.93448,-16.11313],[-44.93517,-16.11507],[-44.93659,-16.11792],[-44.9377,-16.11974],[-44.93924,-16.12156],[-44.94036,-16.12182],[-44.94245,-16.12343],[-44.94333,-16.12472],[-44.94482,-16.12907],[-44.94493,-16.13048],[-44.94543,-16.13144],[-44.94499,-16.13885],[-44.9442,-16.14053],[-44.94303,-16.14151],[-44.9396,-16.14351],[-44.9381,-16.14481],[-44.93576,-16.14752],[-44.93368,-16.1486],[-44.93192,-16.14894],[-44.93136,-16.14955],[-44.92849,-16.14879],[-44.92727,-16.14787],[-44.9253,-16.14556],[-44.92439,-16.14522],[-44.9234,-16.14677],[-44.92224,-16.14774],[-44.92019,-16.1478],[-44.9178,-16.14618],[-44.91626,-16.14492],[-44.91447,-16.14417],[-44.91344,-16.14427],[-44.91216,-16.14492],[-44.91133,-16.14472],[-44.91012,-16.14247],[-44.90949,-16.14171],[-44.9082,-16.14112],[-44.90678,-16.14157],[-44.90532,-16.14167],[-44.90107,-16.14033],[-44.89959,-16.14027],[-44.89754,-16.14051],[-44.89566,-16.14119],[-44.894,-16.1421],[-44.89302,-16.14227],[-44.89054,-16.14222],[-44.8861,-16.14084],[-44.88517,-16.14089],[-44.88428,-16.14274],[-44.88316,-16.14355],[-44.88225,-16.1433],[-44.88043,-16.14168],[-44.87952,-16.14034],[-44.87768,-16.13648],[-44.87593,-16.13424],[-44.87208,-16.13258],[-44.87054,-16.13005],[-44.86881,-16.12884],[-44.86738,-16.12825],[-44.86545,-16.12791],[-44.86213,-16.12772],[-44.85944,-16.12818],[-44.85644,-16.12902],[-44.85333,-16.13024],[-44.85195,-16.13112],[-44.84913,-16.13372],[-44.84779,-16.13424],[-44.84484,-16.13488],[-44.84335,-16.13627],[-44.84259,-16.13763],[-44.8411,-16.13953],[-44.83868,-16.14164],[-44.83659,-16.14278],[-44.83373,-16.14287],[-44.83127,-16.14226],[-44.8296,-16.1422],[-44.82753,-16.14258],[-44.82492,-16.14434],[-44.82282,-16.14786],[-44.82024,-16.15059],[-44.81981,-16.1508],[-44.81796,-16.15302],[-44.81701,-16.15374],[-44.81445,-16.15519],[-44.81314,-16.15568],[-44.81071,-16.15583],[-44.8097,-16.15547],[-44.80848,-16.15439],[-44.80367,-16.15126],[-44.80229,-16.15087],[-44.79988,-16.15089],[-44.7979,-16.15069],[-44.79585,-16.15073],[-44.79415,-16.15041],[-44.79136,-16.1505],[-44.78979,-16.15115],[-44.7869,-16.15331],[-44.78504,-16.15438],[-44.78267,-16.15647],[-44.78099,-16.15774],[-44.77937,-16.15863],[-44.77637,-16.15996],[-44.77425,-16.16013],[-44.77244,-16.15938],[-44.77004,-16.15789],[-44.76779,-16.15595],[-44.76604,-16.1542],[-44.76346,-16.15302],[-44.76162,-16.15271],[-44.7582,-16.15132],[-44.75658,-16.15015],[-44.75415,-16.14749],[-44.75204,-16.14455],[-44.74984,-16.14014],[-44.74831,-16.13851],[-44.74734,-16.13665],[-44.7459,-16.13461],[-44.74404,-16.13367],[-44.74237,-16.13324],[-44.74117,-16.13325],[-44.73652,-16.13281],[-44.73188,-16.13318],[-44.72822,-16.13221],[-44.72617,-16.1319],[-44.72376,-16.1306],[-44.7216,-16.12872],[-44.71923,-16.12714],[-44.71791,-16.12563],[-44.71532,-16.12193],[-44.71171,-16.116],[-44.71101,-16.11513],[-44.70915,-16.1141],[-44.70621,-16.11331],[-44.70358,-16.11194],[-44.70272,-16.11024],[-44.70227,-16.10778],[-44.70112,-16.10596],[-44.69969,-16.10523],[-44.694,-16.10066]]]},"properties":{"codigo":"316110635","name":"Santana de São Francisco","population":3004,"households":1273,"areaKm2":224.9446,"density":13.4}},{"type":"Feature","geometry":{"type":"Polygon","coordinates":[[[-44.78222,-15.8088],[-44.78238,-15.80943],[-44.78197,-15.81081],[-44.78077,-15.81277],[-44.77886,-15.81438],[-44.77824,-15.81571],[-44.77609,-15.81906],[-44.77446,-15.82045],[-44.77238,-15.82252],[-44.77135,-15.82409],[-44.76962,-15.82885],[-44.76798,-15.83003],[-44.7669,-15.83157],[-44.7667,-15.83346],[-44.76577,-15.83468],[-44.76538,-15.83668],[-44.76547,-15.83786],[-44.76466,-15.84053],[-44.76318,-15.84184],[-44.76224,-15.84299],[-44.76017,-15.84432],[-44.75919,-15.84549],[-44.75935,-15.84646],[-44.75779,-15.84906],[-44.75724,-15.84925],[-44.7554,-15.85148],[-44.75345,-15.85232],[-44.75249,-15.85225],[-44.75075,-15.85305],[-44.74884,-15.85529],[-44.74831,-15.85663],[-44.74857,-15.85803],[-44.74956,-15.85944],[-44.75032,-15.86131],[-44.74976,-15.86541],[-44.74926,-15.86578],[-44.74936,-15.8708],[-44.74864,-15.87143],[-44.74652,-15.87156],[-44.74507,-15.87121],[-44.74324,-15.87035],[-44.74219,-15.86938],[-44.74017,-15.86978],[-44.73865,-15.86796],[-44.73729,-15.86768],[-44.73629,-15.8679],[-44.73493,-15.86885],[-44.73402,-15.87046],[-44.73206,-15.8728],[-44.73169,-15.87476],[-44.73279,-15.87562],[-44.73254,-15.87742],[-44.73094,-15.88018],[-44.7296,-15.88082],[-44.72817,-15.88107],[-44.72702,-15.88187],[-44.72585,-15.88351],[-44.72392,-15.88361],[-44.72161,-15.88268],[-44.71964,-15.88268],[-44.71878,-15.88224],[-44.71733,-15.88092],[-44.71645,-15.88045],[-44.71543,-15.88052],[-44.71347,-15.88116],[-44.71192,-15.88226],[-44.71022,-15.88394],[-44.70869,-15.88458],[-44.70692,-15.88695],[-44.70556,-15.88727],[-44.70358,-15.88818],[-44.70272,-15.88945],[-44.70134,-15.88995],[-44.69958,-15.88905],[-44.6986,-15.88893],[-44.69738,-15.89102],[-44.69618,-15.89268],[-44.69535,-15.89309],[-44.69241,-15.89587],[-44.69114,-15.89741],[-44.69153,-15.90016],[-44.69069,-15.90117],[-44.69051,-15.90209],[-44.68932,-15.90277],[-44.68793,-15.90252],[-44.6864,-15.90263],[-44.68586,-15.90101],[-44.68512,-15.90103],[-44.6831,-15.89809],[-44.68041,-15.89802],[-44.67945,-15.89893],[-44.67878,-15.90012],[-44.67857,-15.90161],[-44.67682,-15.90276],[-44.67591,-15.90386],[-44.67389,-15.90436],[-44.67246,-15.90447],[-44.67181,-15.90583],[-44.66935,-15.90688],[-44.66842,-15.90688],[-44.6659,-15.90632],[-44.66442,-15.90677],[-44.6627,-15.90799],[-44.6611,-15.90944],[-44.65983,-15.91012],[-44.65875,-15.91171],[-44.65762,-15.91438],[-44.65724,-15.91576],[-44.65645,-15.91638],[-44.65673,-15.91793],[-44.65893,-15.92036],[-44.65946,-15.92128],[-44.65938,-15.92223],[-44.65803,-15.92603],[-44.65781,-15.92702],[-44.65664,-15.92909],[-44.65532,-15.9298],[-44.65468,-15.93056],[-44.65073,-15.93356],[-44.64901,-15.93646],[-44.64678,-15.93851],[-44.64586,-15.9406],[-44.64367,-15.9408],[-44.64096,-15.93979],[-44.63862,-15.93947],[-44.63656,-15.93828],[-44.63541,-15.93732],[-44.63386,-15.93555],[-44.63248,-15.93356],[-44.6316,-15.93149],[-44.62932,-15.92836],[-44.62851,-15.92817],[-44.62779,-15.92882],[-44.62686,-15.92898],[-44.623,-15.92785],[-44.62136,-15.92764],[-44.62017,-15.92699],[-44.61877,-15.92741],[-44.61772,-15.92727],[-44.61522,-15.92556],[-44.61334,-15.92462],[-44.61191,-15.92418],[-44.60907,-15.92296],[-44.60681,-15.92252],[-44.60593,-15.92293],[-44.60353,-15.9227],[-44.60326,-15.92127],[-44.60131,-15.91982],[-44.60012,-15.91827],[-44.59815,-15.91802],[-44.598,-15.91694],[-44.59739,-15.91627],[-44.59638,-15.91629],[-44.59453,-15.91472],[-44.59205,-15.91403],[-44.59081,-15.91207],[-44.5886,-15.90963],[-44.58705,-15.90843],[-44.58534,-15.9075],[-44.58432,-15.90584],[-44.58156,-15.90488],[-44.57741,-15.90409],[-44.57675,-15.90337],[-44.57591,-15.90395],[-44.57429,-15.90319],[-44.57336,-15.90333],[-44.57213,-15.9025],[-44.57008,-15.90252],[-44.56913,-15.90224],[-44.56615,-15.90254],[-44.56444,-15.90157],[-44.56394,-15.90079],[-44.5617,-15.89947],[-44.55937,-15.89871],[-44.55627,-15.89857],[-44.55332,-15.8991],[-44.55186,-15.89983],[-44.54979,-15.90124],[-44.54554,-15.90259],[-44.54958,-15.89831],[-44.55094,-15.8973],[-44.55368,-15.89423],[-44.55585,-15.89136],[-44.5578,-15.89032],[-44.55902,-15.89021],[-44.56216,-15.8903],[-44.56394,-15.89019],[-44.56611,-15.88952],[-44.56749,-15.8886],[-44.57064,-15.88535],[-44.57443,-15.88176],[-44.57624,-15.8804],[-44.57721,-15.87927],[-44.57805,-15.87724],[-44.57936,-15.87029],[-44.58189,-15.86644],[-44.5831,-15.86538],[-44.58553,-15.86377],[-44.5872,-15.86188],[-44.58834,-15.86091],[-44.59077,-15.85969],[-44.59206,-15.85819],[-44.59175,-15.85679],[-44.5933,-15.85499],[-44.59561,-15.85407],[-44.59651,-15.85303],[-44.5968,-15.85218],[-44.59801,-15.8508],[-44.59797,-15.84896],[-44.59892,-15.84711],[-44.60085,-15.84619],[-44.60271,-15.84652],[-44.60416,-15.84617],[-44.6054,-15.8467],[-44.60628,-15.84437],[-44.60683,-15.84232],[-44.61249,-15.8376],[-44.61392,-15.83548],[-44.61483,-15.83511],[-44.61771,-15.83482],[-44.61926,-15.83336],[-44.6204,-15.83263],[-44.62325,-15.83302],[-44.62466,-15.83304],[-44.62733,-15.83062],[-44.62842,-15.82933],[-44.62971,-15.82857],[-44.63125,-15.82957],[-44.63268,-15.83003],[-44.63528,-15.83],[-44.63616,-15.82968],[-44.63832,-15.82828],[-44.63973,-15.82687],[-44.64106,-15.82489],[-44.64204,-15.82473],[-44.64559,-15.82547],[-44.64711,-15.82565],[-44.64899,-15.82503],[-44.65261,-15.82558],[-44.65361,-15.82535],[-44.65394,-15.82453],[-44.65406,-15.8201],[-44.65492,-15.81888],[-44.65661,-15.81773],[-44.65727,-15.8169],[-44.65725,-15.81595],[-44.65937,-15.81323],[-44.65999,-15.81105],[-44.65985,-15.80842],[-44.66009,-15.80745],[-44.66166,-15.80494],[-44.66199,-15.80346],[-44.66251,-15.80261],[-44.66439,-15.80162],[-44.66582,-15.80026],[-44.66846,-15.79678],[-44.6698,-15.7957],[-44.67194,-15.79441],[-44.6747,-15.79141],[-44.67599,-15.79038],[-44.67744,-15.78782],[-44.6788,-15.7845],[-44.67977,-15.78245],[-44.68165,-15.77922],[-44.68333,-15.77589],[-44.68882,-15.77678],[-44.69096,-15.77683],[-44.69553,-15.77844],[-44.69838,-15.77906],[-44.70121,-15.77902],[-44.7065,-15.77717],[-44.71,-15.77609],[-44.71235,-15.77581],[-44.71561,-15.776],[-44.71987,-15.77697],[-44.72375,-15.77849],[-44.72692,-15.78008],[-44.72942,-15.78109],[-44.7336,-15.78335],[-44.73739,-15.78491],[-44.7411,-15.78689],[-44.74503,-15.78952],[-44.74705,-15.79118],[-44.74886,-15.79199],[-44.75322,-15.79443],[-44.75629,-15.79558],[-44.75888,-15.79685],[-44.76043,-15.79802],[-44.76307,-15.80044],[-44.765,-15.80152],[-44.76938,-15.80316],[-44.77112,-15.80392],[-44.77457,-15.80571],[-44.77683,-15.80652],[-44.77859,-15.80742],[-44.78052,-15.80928],[-44.78157,-15.8093],[-44.78222,-15.8088]]]},"properties":{"codigo":"316110640","name":"Travessão de Minas","population":1232,"households":607,"areaKm2":212.0904,"density":5.8}}]}