{"type":"FeatureCollection","features":[{"type":"Feature","geometry":{"type":"Polygon","coordinates":[[[-42.98972,-20.00938],[-42.98864,-20.00932],[-42.98649,-20.00811],[-42.9857,-20.00797],[-42.98411,-20.00685],[-42.98366,-20.00525],[-42.98304,-20.00446],[-42.98049,-20.00423],[-42.97875,-20.00357],[-42.97816,-20.00289],[-42.97799,-20.00089],[-42.97947,-19.99929],[-42.97961,-19.99789],[-42.97874,-19.99456],[-42.97867,-19.99348],[-42.97919,-19.99157],[-42.9808,-19.98998],[-42.98456,-19.9881],[-42.98522,-19.98743],[-42.98582,-19.98587],[-42.98591,-19.98373],[-42.985,-19.98145],[-42.98424,-19.98044],[-42.98158,-19.97815],[-42.98092,-19.9767],[-42.98086,-19.97518],[-42.98027,-19.97323],[-42.97959,-19.97245],[-42.97397,-19.96775],[-42.97284,-19.9652],[-42.97303,-19.96239],[-42.97202,-19.9612],[-42.97007,-19.96049],[-42.96701,-19.95965],[-42.96513,-19.95867],[-42.96369,-19.95741],[-42.95996,-19.95464],[-42.96039,-19.95378],[-42.96084,-19.9498],[-42.9616,-19.94633],[-42.96108,-19.94442],[-42.96006,-19.94318],[-42.95864,-19.94238],[-42.9573,-19.94125],[-42.95574,-19.94043],[-42.95101,-19.93729],[-42.94677,-19.93411],[-42.94562,-19.93255],[-42.94461,-19.93062],[-42.94441,-19.92958],[-42.94464,-19.9262],[-42.94383,-19.92271],[-42.94062,-19.91754],[-42.93915,-19.91419],[-42.93661,-19.91044],[-42.93477,-19.90732],[-42.93382,-19.90491],[-42.93255,-19.90378],[-42.93133,-19.90335],[-42.93031,-19.90342],[-42.92737,-19.90479],[-42.92361,-19.90772],[-42.92115,-19.90815],[-42.91916,-19.90778],[-42.91696,-19.90648],[-42.91572,-19.90404],[-42.91288,-19.89973],[-42.91205,-19.89913],[-42.91005,-19.89861],[-42.90755,-19.89933],[-42.90417,-19.8998],[-42.90201,-19.89957],[-42.89979,-19.89862],[-42.8986,-19.89878],[-42.89515,-19.90095],[-42.89415,-19.90091],[-42.89162,-19.8997],[-42.88917,-19.90026],[-42.88681,-19.90164],[-42.88474,-19.90209],[-42.88289,-19.90087],[-42.8814,-19.8995],[-42.87999,-19.89932],[-42.87846,-19.89999],[-42.87684,-19.90107],[-42.87499,-19.90322],[-42.87193,-19.90495],[-42.86849,-19.90638],[-42.86493,-19.9044],[-42.86431,-19.9029],[-42.86379,-19.8998],[-42.86274,-19.89561],[-42.8619,-19.89382],[-42.86187,-19.89309],[-42.86372,-19.89248],[-42.86583,-19.88896],[-42.86509,-19.88588],[-42.86372,-19.88353],[-42.86167,-19.88124],[-42.85775,-19.8787],[-42.85343,-19.87486],[-42.85272,-19.87365],[-42.85345,-19.87291],[-42.85493,-19.87267],[-42.85972,-19.87278],[-42.86196,-19.87153],[-42.86278,-19.87086],[-42.86491,-19.86763],[-42.86549,-19.86482],[-42.86506,-19.86361],[-42.86751,-19.85953],[-42.87008,-19.85699],[-42.87289,-19.85332],[-42.87408,-19.85141],[-42.87531,-19.84795],[-42.87709,-19.84441],[-42.87753,-19.84307],[-42.87867,-19.84189],[-42.88017,-19.84182],[-42.88253,-19.84098],[-42.88342,-19.83972],[-42.88352,-19.83864],[-42.88271,-19.8359],[-42.8828,-19.83482],[-42.88391,-19.83318],[-42.88505,-19.83214],[-42.88655,-19.83021],[-42.88706,-19.82894],[-42.88756,-19.82673],[-42.8876,-19.82296],[-42.88735,-19.82008],[-42.88751,-19.81835],[-42.8888,-19.81667],[-42.89069,-19.81611],[-42.89405,-19.81705],[-42.89718,-19.81706],[-42.90029,-19.81675],[-42.90175,-19.81617],[-42.90321,-19.81488],[-42.90626,-19.81273],[-42.90726,-19.81263],[-42.91069,-19.81396],[-42.91308,-19.81448],[-42.91318,-19.81509],[-42.9142,-19.81615],[-42.91527,-19.81596],[-42.919,-19.81181],[-42.92079,-19.81054],[-42.92434,-19.80961],[-42.92689,-19.80953],[-42.93185,-19.81025],[-42.93406,-19.81006],[-42.93654,-19.80835],[-42.93797,-19.80772],[-42.93943,-19.80746],[-42.94132,-19.80762],[-42.94344,-19.80904],[-42.94522,-19.81055],[-42.94673,-19.81133],[-42.94875,-19.81143],[-42.95018,-19.81074],[-42.95316,-19.8079],[-42.95514,-19.80495],[-42.95686,-19.80386],[-42.95962,-19.80157],[-42.96152,-19.80055],[-42.96392,-19.79974],[-42.96591,-19.79969],[-42.96776,-19.80062],[-42.96891,-19.80156],[-42.97122,-19.80254],[-42.97312,-19.80406],[-42.97405,-19.8052],[-42.97506,-19.80748],[-42.97541,-19.80952],[-42.97641,-19.81233],[-42.97749,-19.81327],[-42.97829,-19.81448],[-42.97951,-19.81531],[-42.98095,-19.81519],[-42.98473,-19.81377],[-42.98706,-19.81245],[-42.9898,-19.81145],[-42.99374,-19.81146],[-42.99513,-19.81191],[-42.99579,-19.81258],[-42.9965,-19.81488],[-42.99714,-19.81563],[-42.99859,-19.81565],[-42.99962,-19.81498],[-43.00191,-19.81483],[-43.00341,-19.81612],[-43.00376,-19.81724],[-43.00301,-19.8201],[-43.00223,-19.8215],[-43.00151,-19.82343],[-43.00092,-19.82428],[-43.00034,-19.82608],[-43.00015,-19.82767],[-43.00049,-19.82847],[-43.00164,-19.82881],[-43.00326,-19.82881],[-43.00793,-19.82749],[-43.00917,-19.82765],[-43.01021,-19.82956],[-43.01146,-19.83103],[-43.01214,-19.83144],[-43.01467,-19.83395],[-43.01776,-19.83587],[-43.01958,-19.83608],[-43.0233,-19.83782],[-43.02498,-19.84009],[-43.02511,-19.84168],[-43.02392,-19.84348],[-43.02361,-19.84497],[-43.02538,-19.84637],[-43.02716,-19.84662],[-43.03068,-19.84669],[-43.03537,-19.84718],[-43.03681,-19.84691],[-43.03843,-19.84437],[-43.03889,-19.84267],[-43.03986,-19.84182],[-43.04129,-19.84196],[-43.04227,-19.84276],[-43.04472,-19.84342],[-43.04696,-19.84484],[-43.0492,-19.84705],[-43.05071,-19.84967],[-43.05207,-19.85077],[-43.05349,-19.85134],[-43.05801,-19.85163],[-43.05874,-19.85211],[-43.0603,-19.85384],[-43.06118,-19.85687],[-43.06155,-19.85986],[-43.06067,-19.86117],[-43.05961,-19.862],[-43.05864,-19.86414],[-43.05881,-19.8655],[-43.05816,-19.86649],[-43.05663,-19.86794],[-43.05675,-19.86881],[-43.05755,-19.86973],[-43.05865,-19.87194],[-43.0589,-19.87286],[-43.05851,-19.87472],[-43.05898,-19.87663],[-43.05985,-19.87778],[-43.06158,-19.87934],[-43.06229,-19.88039],[-43.06317,-19.88315],[-43.06279,-19.88586],[-43.06153,-19.88764],[-43.0598,-19.88888],[-43.05861,-19.89052],[-43.05838,-19.89413],[-43.05967,-19.89537],[-43.0612,-19.89592],[-43.06227,-19.89713],[-43.06359,-19.90003],[-43.06466,-19.90145],[-43.06649,-19.90265],[-43.06817,-19.90326],[-43.06951,-19.90485],[-43.06971,-19.90715],[-43.06854,-19.90809],[-43.06721,-19.90849],[-43.06393,-19.91125],[-43.06344,-19.91236],[-43.06296,-19.91599],[-43.06226,-19.91726],[-43.06068,-19.91836],[-43.06008,-19.91944],[-43.05855,-19.92103],[-43.05709,-19.92306],[-43.05712,-19.92412],[-43.0578,-19.9257],[-43.05914,-19.92775],[-43.05963,-19.93016],[-43.05964,-19.93216],[-43.05988,-19.93274],[-43.05942,-19.93455],[-43.05799,-19.93582],[-43.05505,-19.93714],[-43.05338,-19.93836],[-43.05194,-19.94002],[-43.05117,-19.94211],[-43.05088,-19.94528],[-43.05111,-19.94832],[-43.05191,-19.95018],[-43.05301,-19.9516],[-43.05562,-19.95441],[-43.058,-19.9562],[-43.05835,-19.95698],[-43.05825,-19.95836],[-43.05563,-19.96064],[-43.05507,-19.96241],[-43.05493,-19.96657],[-43.05477,-19.96712],[-43.05297,-19.9689],[-43.05263,-19.96998],[-43.05307,-19.97092],[-43.05431,-19.97202],[-43.0576,-19.97365],[-43.05826,-19.97489],[-43.05943,-19.97588],[-43.06104,-19.97772],[-43.06099,-19.97932],[-43.05946,-19.98039],[-43.05671,-19.98184],[-43.05411,-19.98421],[-43.05326,-19.98532],[-43.05179,-19.98785],[-43.05186,-19.99015],[-43.05123,-19.99171],[-43.04924,-19.99224],[-43.04737,-19.99188],[-43.04398,-19.99186],[-43.04267,-19.99209],[-43.038,-19.99383],[-43.03477,-19.99399],[-43.03375,-19.9945],[-43.03338,-19.99551],[-43.03375,-19.99698],[-43.03353,-19.99809],[-43.03533,-20.00036],[-43.03619,-20.00091],[-43.03639,-20.00163],[-43.03509,-20.0032],[-43.03381,-20.00433],[-43.03365,-20.00559],[-43.03417,-20.00662],[-43.0352,-20.00764],[-43.03715,-20.01019],[-43.03702,-20.01123],[-43.03641,-20.01171],[-43.0348,-20.0119],[-43.03291,-20.01175],[-43.03,-20.01207],[-43.0286,-20.01258],[-43.02598,-20.01238],[-43.02467,-20.01253],[-43.02311,-20.01374],[-43.0225,-20.01374],[-43.02107,-20.01256],[-43.01741,-20.01235],[-43.0156,-20.01178],[-43.01351,-20.01009],[-43.00994,-20.00761],[-43.00921,-20.00575],[-43.00821,-20.00503],[-43.00664,-20.00558],[-43.00364,-20.00578],[-43.00199,-20.00573],[-43.00055,-20.00461],[-42.99831,-20.00418],[-42.99692,-20.00626],[-42.99609,-20.00682],[-42.99406,-20.00672],[-42.99241,-20.00835],[-42.99031,-20.00895],[-42.98972,-20.00938]]]},"properties":{"codigo":"316100705","name":"São Domingos do Prata","population":13203,"households":6318,"areaKm2":291.1799,"density":45.3}},{"type":"Feature","geometry":{"type":"Polygon","coordinates":[[[-42.92753,-20.03495],[-42.92562,-20.03676],[-42.92212,-20.03763],[-42.92023,-20.03787],[-42.91791,-20.03756],[-42.91671,-20.0376],[-42.91488,-20.03825],[-42.91143,-20.03814],[-42.90998,-20.03873],[-42.90598,-20.04154],[-42.90482,-20.04357],[-42.90472,-20.04467],[-42.90387,-20.04573],[-42.90218,-20.0463],[-42.89907,-20.04571],[-42.89766,-20.04475],[-42.89606,-20.04248],[-42.895,-20.04223],[-42.89206,-20.04239],[-42.8905,-20.04148],[-42.88908,-20.03991],[-42.88828,-20.03489],[-42.8878,-20.03313],[-42.88734,-20.03256],[-42.88585,-20.0322],[-42.88287,-20.03288],[-42.87994,-20.03432],[-42.87733,-20.0344],[-42.87661,-20.03278],[-42.87541,-20.03119],[-42.87338,-20.02703],[-42.87346,-20.02559],[-42.87537,-20.02172],[-42.87538,-20.02072],[-42.87478,-20.01926],[-42.87364,-20.01807],[-42.87193,-20.01707],[-42.86919,-20.01418],[-42.86776,-20.01217],[-42.86548,-20.01025],[-42.8642,-20.00784],[-42.86452,-20.00515],[-42.86426,-20.00289],[-42.86384,-20.0014],[-42.86296,-20.00003],[-42.86324,-19.99691],[-42.8637,-19.9953],[-42.86435,-19.99443],[-42.86595,-19.99309],[-42.86741,-19.99147],[-42.86762,-19.98897],[-42.8671,-19.98664],[-42.86622,-19.9846],[-42.86584,-19.98246],[-42.86911,-19.98222],[-42.87789,-19.98215],[-42.88223,-19.98246],[-42.88449,-19.98245],[-42.88853,-19.98221],[-42.89342,-19.98231],[-42.90036,-19.98209],[-42.90391,-19.98316],[-42.9053,-19.98292],[-42.90785,-19.9816],[-42.90948,-19.98135],[-42.91593,-19.98232],[-42.91919,-19.98214],[-42.92304,-19.98321],[-42.92728,-19.98479],[-42.92903,-19.98508],[-42.93145,-19.98579],[-42.93486,-19.98741],[-42.93676,-19.98922],[-42.9403,-19.99062],[-42.94193,-19.99047],[-42.94292,-19.98996],[-42.94333,-19.98858],[-42.94291,-19.98555],[-42.94353,-19.98306],[-42.94416,-19.98147],[-42.94415,-19.97903],[-42.94371,-19.97696],[-42.94355,-19.97448],[-42.94366,-19.97231],[-42.94358,-19.96925],[-42.9444,-19.96702],[-42.94614,-19.96474],[-42.94712,-19.96464],[-42.94987,-19.96544],[-42.95111,-19.96557],[-42.95403,-19.96536],[-42.95532,-19.96489],[-42.95736,-19.9632],[-42.95848,-19.95786],[-42.95996,-19.95464],[-42.96369,-19.95741],[-42.96513,-19.95867],[-42.96701,-19.95965],[-42.97007,-19.96049],[-42.97202,-19.9612],[-42.97303,-19.96239],[-42.97284,-19.9652],[-42.97397,-19.96775],[-42.97959,-19.97245],[-42.98027,-19.97323],[-42.98086,-19.97518],[-42.98092,-19.9767],[-42.98158,-19.97815],[-42.98424,-19.98044],[-42.985,-19.98145],[-42.98591,-19.98373],[-42.98582,-19.98587],[-42.98522,-19.98743],[-42.98456,-19.9881],[-42.9808,-19.98998],[-42.97919,-19.99157],[-42.97867,-19.99348],[-42.97874,-19.99456],[-42.97961,-19.99789],[-42.97947,-19.99929],[-42.97799,-20.00089],[-42.97816,-20.00289],[-42.97875,-20.00357],[-42.98049,-20.00423],[-42.98304,-20.00446],[-42.98366,-20.00525],[-42.98411,-20.00685],[-42.9857,-20.00797],[-42.98649,-20.00811],[-42.98864,-20.00932],[-42.98972,-20.00938],[-42.98911,-20.01009],[-42.98748,-20.01291],[-42.9866,-20.01375],[-42.98513,-20.01377],[-42.9828,-20.01324],[-42.98124,-20.01509],[-42.97734,-20.01686],[-42.97443,-20.01771],[-42.97166,-20.01792],[-42.97081,-20.01731],[-42.96911,-20.01343],[-42.9681,-20.01224],[-42.96608,-20.01134],[-42.96472,-20.01042],[-42.96296,-20.00967],[-42.96117,-20.00848],[-42.95958,-20.00789],[-42.95801,-20.00769],[-42.95685,-20.00681],[-42.95434,-20.00747],[-42.95126,-20.00651],[-42.95054,-20.00722],[-42.94989,-20.0091],[-42.94843,-20.01137],[-42.94656,-20.01242],[-42.94708,-20.01502],[-42.94638,-20.01613],[-42.94505,-20.01701],[-42.94392,-20.01813],[-42.94035,-20.01865],[-42.93881,-20.01842],[-42.93838,-20.02013],[-42.93789,-20.02088],[-42.93737,-20.02282],[-42.93359,-20.0252],[-42.93155,-20.02674],[-42.93055,-20.02803],[-42.92956,-20.02991],[-42.92873,-20.032],[-42.92802,-20.03449],[-42.92753,-20.03495]]]},"properties":{"codigo":"316100710","name":"Cônego João Pio","population":829,"households":581,"areaKm2":66.5077,"density":12.5}},{"type":"Feature","geometry":{"type":"Polygon","coordinates":[[[-42.87374,-20.0366],[-42.86964,-20.03237],[-42.86796,-20.03123],[-42.8657,-20.03006],[-42.86169,-20.02948],[-42.85996,-20.02804],[-42.85943,-20.02695],[-42.85933,-20.02463],[-42.85856,-20.0231],[-42.85597,-20.02175],[-42.85438,-20.02054],[-42.85305,-20.02046],[-42.85003,-20.01975],[-42.84814,-20.01975],[-42.84482,-20.02163],[-42.84212,-20.02165],[-42.84032,-20.01934],[-42.84102,-20.01689],[-42.84046,-20.0156],[-42.83844,-20.01416],[-42.83609,-20.01378],[-42.83425,-20.01425],[-42.83209,-20.01541],[-42.8305,-20.01676],[-42.82812,-20.01806],[-42.82716,-20.01803],[-42.82587,-20.01745],[-42.82415,-20.01561],[-42.82143,-20.0157],[-42.81983,-20.0168],[-42.81778,-20.01697],[-42.81502,-20.01788],[-42.81146,-20.01803],[-42.80945,-20.01852],[-42.80697,-20.01974],[-42.80572,-20.02096],[-42.80396,-20.02106],[-42.80237,-20.02058],[-42.80044,-20.01957],[-42.79918,-20.01983],[-42.79727,-20.0212],[-42.79646,-20.02208],[-42.79572,-20.02413],[-42.79411,-20.02567],[-42.79323,-20.02706],[-42.79233,-20.02792],[-42.7891,-20.02853],[-42.78791,-20.02913],[-42.78693,-20.02898],[-42.78498,-20.02753],[-42.78364,-20.0254],[-42.78248,-20.02415],[-42.77992,-20.02367],[-42.77858,-20.02011],[-42.77813,-20.01832],[-42.77626,-20.01566],[-42.77465,-20.01466],[-42.77305,-20.01435],[-42.77214,-20.01348],[-42.77175,-20.01123],[-42.77106,-20.01011],[-42.76894,-20.00969],[-42.76763,-20.00858],[-42.76717,-20.00758],[-42.76565,-20.00821],[-42.76501,-20.01099],[-42.76569,-20.01177],[-42.76717,-20.01171],[-42.76736,-20.01228],[-42.76626,-20.01362],[-42.76615,-20.01514],[-42.76647,-20.01821],[-42.76533,-20.01792],[-42.76537,-20.01897],[-42.76469,-20.02013],[-42.76334,-20.02091],[-42.76223,-20.02023],[-42.76091,-20.02087],[-42.75944,-20.02068],[-42.75853,-20.0199],[-42.75679,-20.01937],[-42.75503,-20.02025],[-42.75383,-20.01896],[-42.75179,-20.01925],[-42.75037,-20.02109],[-42.74953,-20.02275],[-42.74898,-20.02313],[-42.74558,-20.0239],[-42.74498,-20.02336],[-42.74472,-20.02027],[-42.74412,-20.01734],[-42.74334,-20.01039],[-42.74219,-20.00748],[-42.74056,-20.00518],[-42.73972,-20.00361],[-42.73819,-20.0017],[-42.73698,-20.00051],[-42.73578,-20.00036],[-42.73435,-20.00079],[-42.73326,-20.00185],[-42.73116,-20.00443],[-42.72878,-20.00807],[-42.72873,-20.00566],[-42.72842,-20.00445],[-42.72914,-20.00279],[-42.72904,-20.00129],[-42.72976,-20.00015],[-42.72975,-19.99833],[-42.73128,-19.99658],[-42.73215,-19.99331],[-42.73358,-19.98995],[-42.73321,-19.98696],[-42.7341,-19.98534],[-42.73585,-19.98447],[-42.73668,-19.98193],[-42.73657,-19.97966],[-42.73708,-19.97683],[-42.73824,-19.97533],[-42.73987,-19.97415],[-42.74169,-19.9735],[-42.74473,-19.97327],[-42.74663,-19.97372],[-42.74807,-19.9737],[-42.75145,-19.97151],[-42.75268,-19.9704],[-42.75409,-19.97003],[-42.75614,-19.97131],[-42.7577,-19.9717],[-42.76147,-19.97195],[-42.76439,-19.97254],[-42.76639,-19.97233],[-42.76899,-19.9717],[-42.77215,-19.96964],[-42.77302,-19.96796],[-42.77318,-19.96449],[-42.77575,-19.96101],[-42.77738,-19.95847],[-42.77733,-19.95738],[-42.77886,-19.95636],[-42.7808,-19.95584],[-42.78333,-19.95591],[-42.78455,-19.95517],[-42.78498,-19.95169],[-42.78677,-19.94994],[-42.78784,-19.94966],[-42.79059,-19.94968],[-42.79446,-19.95027],[-42.79887,-19.95231],[-42.80035,-19.95279],[-42.80313,-19.95266],[-42.80541,-19.95206],[-42.80809,-19.95309],[-42.81216,-19.95317],[-42.81437,-19.95284],[-42.81802,-19.95286],[-42.82293,-19.95312],[-42.82398,-19.95291],[-42.82697,-19.95152],[-42.82972,-19.95138],[-42.83145,-19.95165],[-42.83689,-19.95067],[-42.83901,-19.94887],[-42.84114,-19.94647],[-42.84245,-19.94557],[-42.8435,-19.94555],[-42.84684,-19.948],[-42.84823,-19.94938],[-42.85002,-19.95337],[-42.85312,-19.9544],[-42.8546,-19.95543],[-42.85699,-19.95784],[-42.85863,-19.96048],[-42.85958,-19.96299],[-42.86225,-19.96915],[-42.86311,-19.97151],[-42.86348,-19.97317],[-42.86478,-19.9768],[-42.86528,-19.97869],[-42.86584,-19.98246],[-42.86622,-19.9846],[-42.8671,-19.98664],[-42.86762,-19.98897],[-42.86741,-19.99147],[-42.86595,-19.99309],[-42.86435,-19.99443],[-42.8637,-19.9953],[-42.86324,-19.99691],[-42.86296,-20.00003],[-42.86384,-20.0014],[-42.86426,-20.00289],[-42.86452,-20.00515],[-42.8642,-20.00784],[-42.86548,-20.01025],[-42.86776,-20.01217],[-42.86919,-20.01418],[-42.87193,-20.01707],[-42.87364,-20.01807],[-42.87478,-20.01926],[-42.87538,-20.02072],[-42.87537,-20.02172],[-42.87346,-20.02559],[-42.87338,-20.02703],[-42.87541,-20.03119],[-42.87661,-20.03278],[-42.87733,-20.0344],[-42.8757,-20.03555],[-42.87374,-20.0366]]]},"properties":{"codigo":"316100715","name":"Ilhéus do Prata","population":455,"households":366,"areaKm2":92.7331,"density":4.9}},{"type":"Feature","geometry":{"type":"Polygon","coordinates":[[[-42.86187,-19.89309],[-42.8619,-19.89382],[-42.86274,-19.89561],[-42.86379,-19.8998],[-42.86431,-19.9029],[-42.86493,-19.9044],[-42.86849,-19.90638],[-42.86971,-19.908],[-42.87091,-19.9128],[-42.87172,-19.91395],[-42.8725,-19.91572],[-42.87393,-19.92073],[-42.8742,-19.92264],[-42.87382,-19.92414],[-42.87285,-19.92591],[-42.87147,-19.92688],[-42.86847,-19.92661],[-42.86665,-19.92758],[-42.86532,-19.92927],[-42.86474,-19.93063],[-42.86484,-19.9315],[-42.86572,-19.93364],[-42.8667,-19.93525],[-42.86697,-19.93674],[-42.86603,-19.93927],[-42.86453,-19.94112],[-42.86181,-19.94336],[-42.85844,-19.94668],[-42.85645,-19.94802],[-42.85407,-19.94994],[-42.85233,-19.95249],[-42.85312,-19.9544],[-42.85002,-19.95337],[-42.84823,-19.94938],[-42.84684,-19.948],[-42.8435,-19.94555],[-42.84245,-19.94557],[-42.84114,-19.94647],[-42.83901,-19.94887],[-42.83689,-19.95067],[-42.83145,-19.95165],[-42.82972,-19.95138],[-42.82697,-19.95152],[-42.82398,-19.95291],[-42.82293,-19.95312],[-42.81802,-19.95286],[-42.81437,-19.95284],[-42.81216,-19.95317],[-42.80809,-19.95309],[-42.80541,-19.95206],[-42.80313,-19.95266],[-42.80035,-19.95279],[-42.79887,-19.95231],[-42.79446,-19.95027],[-42.79059,-19.94968],[-42.78784,-19.94966],[-42.78677,-19.94994],[-42.78498,-19.95169],[-42.78455,-19.95517],[-42.78333,-19.95591],[-42.7808,-19.95584],[-42.77886,-19.95636],[-42.77733,-19.95738],[-42.77664,-19.95611],[-42.77449,-19.95409],[-42.77157,-19.95225],[-42.76801,-19.94876],[-42.76537,-19.94493],[-42.76391,-19.94169],[-42.76364,-19.94061],[-42.76434,-19.93833],[-42.76438,-19.93658],[-42.76416,-19.93444],[-42.76565,-19.93055],[-42.76521,-19.92756],[-42.76533,-19.92625],[-42.76503,-19.9253],[-42.76181,-19.92087],[-42.76045,-19.91945],[-42.75966,-19.91683],[-42.75863,-19.91455],[-42.75652,-19.91414],[-42.75504,-19.91502],[-42.75469,-19.91463],[-42.75498,-19.9132],[-42.75569,-19.9124],[-42.75619,-19.91094],[-42.75556,-19.90869],[-42.75565,-19.90724],[-42.75528,-19.90635],[-42.75321,-19.90492],[-42.7528,-19.90412],[-42.75337,-19.90163],[-42.75507,-19.89864],[-42.75536,-19.89763],[-42.75586,-19.89282],[-42.75661,-19.89102],[-42.75767,-19.89001],[-42.76365,-19.88719],[-42.77128,-19.88517],[-42.77267,-19.88459],[-42.77483,-19.88318],[-42.77577,-19.8821],[-42.77609,-19.88111],[-42.77613,-19.87685],[-42.77741,-19.87485],[-42.78025,-19.87272],[-42.78186,-19.87199],[-42.78414,-19.87235],[-42.78787,-19.87496],[-42.79052,-19.87636],[-42.79152,-19.87748],[-42.79369,-19.87902],[-42.79513,-19.88033],[-42.79591,-19.88276],[-42.79708,-19.88472],[-42.79801,-19.88554],[-42.80142,-19.88754],[-42.80274,-19.88848],[-42.80413,-19.8914],[-42.80484,-19.89222],[-42.80632,-19.89295],[-42.80788,-19.89336],[-42.80927,-19.89467],[-42.80991,-19.89656],[-42.8103,-19.8986],[-42.81101,-19.89927],[-42.8133,-19.90064],[-42.81445,-19.90165],[-42.81406,-19.90391],[-42.81489,-19.90434],[-42.81744,-19.90344],[-42.81842,-19.90337],[-42.82024,-19.90415],[-42.82073,-19.90491],[-42.82064,-19.90728],[-42.8204,-19.90829],[-42.8208,-19.91008],[-42.82216,-19.91091],[-42.82467,-19.91145],[-42.82596,-19.91113],[-42.82678,-19.9105],[-42.82891,-19.90696],[-42.83088,-19.90497],[-42.8334,-19.90404],[-42.83574,-19.90402],[-42.8371,-19.90337],[-42.83753,-19.90254],[-42.83753,-19.8998],[-42.83708,-19.89626],[-42.83739,-19.89492],[-42.83848,-19.89391],[-42.83989,-19.89361],[-42.84203,-19.89365],[-42.84383,-19.89403],[-42.84583,-19.89366],[-42.84845,-19.89195],[-42.85005,-19.89144],[-42.85124,-19.8915],[-42.85448,-19.89306],[-42.85641,-19.89349],[-42.85901,-19.89309],[-42.86187,-19.89309]]]},"properties":{"codigo":"316100720","name":"Juiraçu","population":435,"households":325,"areaKm2":74.0277,"density":5.9}},{"type":"Feature","geometry":{"type":"Polygon","coordinates":[[[-42.90842,-19.74973],[-42.90792,-19.75162],[-42.90826,-19.75245],[-42.90948,-19.75398],[-42.90949,-19.75493],[-42.90869,-19.75633],[-42.90888,-19.76038],[-42.90971,-19.76277],[-42.9111,-19.76486],[-42.91514,-19.76708],[-42.91641,-19.76878],[-42.91749,-19.76974],[-42.91774,-19.77121],[-42.91747,-19.77206],[-42.9133,-19.77353],[-42.91235,-19.77371],[-42.91026,-19.7736],[-42.90834,-19.77432],[-42.90779,-19.77665],[-42.90756,-19.78107],[-42.9087,-19.785],[-42.90919,-19.78626],[-42.909,-19.78863],[-42.90847,-19.79006],[-42.90857,-19.79107],[-42.91009,-19.79311],[-42.9123,-19.7949],[-42.91461,-19.79547],[-42.91593,-19.79675],[-42.91635,-19.79815],[-42.91609,-19.79935],[-42.91524,-19.80073],[-42.91316,-19.80283],[-42.91268,-19.80433],[-42.91388,-19.80658],[-42.91405,-19.80835],[-42.9134,-19.81033],[-42.91308,-19.81448],[-42.91069,-19.81396],[-42.90726,-19.81263],[-42.90626,-19.81273],[-42.90321,-19.81488],[-42.90175,-19.81617],[-42.90029,-19.81675],[-42.89718,-19.81706],[-42.89405,-19.81705],[-42.89069,-19.81611],[-42.8888,-19.81667],[-42.88751,-19.81835],[-42.88735,-19.82008],[-42.8876,-19.82296],[-42.88756,-19.82673],[-42.88706,-19.82894],[-42.88655,-19.83021],[-42.88505,-19.83214],[-42.88391,-19.83318],[-42.8828,-19.83482],[-42.88271,-19.8359],[-42.88352,-19.83864],[-42.88342,-19.83972],[-42.88253,-19.84098],[-42.88017,-19.84182],[-42.87867,-19.84189],[-42.87753,-19.84307],[-42.87709,-19.84441],[-42.87531,-19.84795],[-42.87408,-19.85141],[-42.87289,-19.85332],[-42.87008,-19.85699],[-42.86751,-19.85953],[-42.86506,-19.86361],[-42.86429,-19.86248],[-42.86295,-19.86168],[-42.86088,-19.86111],[-42.85786,-19.86172],[-42.85463,-19.86154],[-42.8521,-19.86079],[-42.85103,-19.86081],[-42.84661,-19.86172],[-42.84527,-19.86249],[-42.84316,-19.86263],[-42.84237,-19.8619],[-42.84269,-19.86049],[-42.84373,-19.85876],[-42.84469,-19.856],[-42.84515,-19.85411],[-42.84566,-19.85305],[-42.84738,-19.85167],[-42.84774,-19.85081],[-42.84608,-19.84955],[-42.84511,-19.84928],[-42.84304,-19.84793],[-42.84253,-19.84694],[-42.8425,-19.84593],[-42.84327,-19.84464],[-42.84242,-19.84354],[-42.84045,-19.84303],[-42.83787,-19.84263],[-42.83431,-19.83967],[-42.83088,-19.83807],[-42.82849,-19.83573],[-42.82739,-19.83396],[-42.82624,-19.83102],[-42.82565,-19.8303],[-42.82097,-19.82661],[-42.81837,-19.82501],[-42.81645,-19.82481],[-42.8136,-19.82373],[-42.81221,-19.82348],[-42.80925,-19.8234],[-42.80774,-19.82267],[-42.80613,-19.82035],[-42.80581,-19.81945],[-42.80434,-19.81805],[-42.79965,-19.81834],[-42.79878,-19.8188],[-42.79679,-19.81894],[-42.7955,-19.81823],[-42.79437,-19.81662],[-42.79345,-19.81624],[-42.79262,-19.8152],[-42.79271,-19.8117],[-42.79246,-19.81007],[-42.79185,-19.80925],[-42.78803,-19.80734],[-42.78727,-19.80553],[-42.78432,-19.80376],[-42.78148,-19.80356],[-42.77907,-19.80419],[-42.77657,-19.80381],[-42.77525,-19.80231],[-42.7752,-19.80073],[-42.77461,-19.79815],[-42.77548,-19.79691],[-42.77738,-19.79484],[-42.78104,-19.79271],[-42.78322,-19.79157],[-42.78927,-19.7893],[-42.79274,-19.78838],[-42.79466,-19.78773],[-42.79743,-19.78761],[-42.79899,-19.78808],[-42.80159,-19.78826],[-42.80329,-19.7881],[-42.80492,-19.78749],[-42.80596,-19.78625],[-42.80612,-19.78487],[-42.80585,-19.78393],[-42.80367,-19.77811],[-42.80367,-19.77657],[-42.80471,-19.77392],[-42.80446,-19.77296],[-42.80196,-19.77211],[-42.80091,-19.77055],[-42.80246,-19.76847],[-42.80311,-19.76608],[-42.80291,-19.76399],[-42.80373,-19.76272],[-42.80514,-19.76212],[-42.80885,-19.76137],[-42.80965,-19.7607],[-42.80998,-19.75771],[-42.81049,-19.75578],[-42.8116,-19.7549],[-42.81209,-19.75287],[-42.81157,-19.75154],[-42.81047,-19.74982],[-42.80772,-19.74693],[-42.80696,-19.74511],[-42.80739,-19.74272],[-42.80617,-19.74056],[-42.80546,-19.73975],[-42.80329,-19.73629],[-42.80268,-19.73553],[-42.80056,-19.73413],[-42.7992,-19.73363],[-42.79796,-19.73282],[-42.79798,-19.73142],[-42.79844,-19.72992],[-42.80083,-19.72573],[-42.8016,-19.72398],[-42.80172,-19.72297],[-42.80104,-19.72129],[-42.79936,-19.71962],[-42.79699,-19.71661],[-42.79674,-19.71433],[-42.7973,-19.71295],[-42.79783,-19.71228],[-42.80009,-19.71153],[-42.80088,-19.71211],[-42.80421,-19.71316],[-42.80712,-19.71315],[-42.8109,-19.71678],[-42.81401,-19.71758],[-42.81635,-19.71865],[-42.81708,-19.71987],[-42.81783,-19.72042],[-42.81978,-19.7206],[-42.82155,-19.71967],[-42.82344,-19.71941],[-42.82748,-19.72177],[-42.8285,-19.72186],[-42.82942,-19.72144],[-42.83151,-19.71971],[-42.83434,-19.71669],[-42.83643,-19.71625],[-42.83847,-19.71659],[-42.84046,-19.7158],[-42.84196,-19.71462],[-42.84334,-19.71414],[-42.8449,-19.71459],[-42.8475,-19.71502],[-42.85095,-19.71515],[-42.85379,-19.71484],[-42.85782,-19.71375],[-42.85884,-19.71398],[-42.85957,-19.71563],[-42.85864,-19.71998],[-42.85846,-19.72276],[-42.8587,-19.72375],[-42.85985,-19.72644],[-42.85981,-19.72784],[-42.85916,-19.72865],[-42.85588,-19.7296],[-42.85501,-19.73009],[-42.85421,-19.73228],[-42.85218,-19.73378],[-42.85109,-19.73606],[-42.85165,-19.73684],[-42.85364,-19.73739],[-42.85535,-19.73848],[-42.85671,-19.73991],[-42.8581,-19.74036],[-42.86065,-19.74068],[-42.86427,-19.7406],[-42.86828,-19.74137],[-42.87139,-19.74161],[-42.87706,-19.74387],[-42.88108,-19.74621],[-42.88251,-19.74645],[-42.8838,-19.7459],[-42.88426,-19.74482],[-42.88435,-19.74286],[-42.884,-19.7413],[-42.88429,-19.73982],[-42.88583,-19.73692],[-42.88702,-19.73595],[-42.88871,-19.73344],[-42.88995,-19.73265],[-42.89209,-19.73248],[-42.89408,-19.73413],[-42.89705,-19.73585],[-42.90017,-19.73885],[-42.90086,-19.74067],[-42.90203,-19.74216],[-42.90505,-19.74445],[-42.90688,-19.74672],[-42.90842,-19.74973]]]},"properties":{"codigo":"316100725","name":"Santana do Alfié","population":1057,"households":649,"areaKm2":140.9683,"density":7.5}},{"type":"Feature","geometry":{"type":"Polygon","coordinates":[[[-42.95996,-19.95464],[-42.95848,-19.95786],[-42.95736,-19.9632],[-42.95532,-19.96489],[-42.95403,-19.96536],[-42.95111,-19.96557],[-42.94987,-19.96544],[-42.94712,-19.96464],[-42.94614,-19.96474],[-42.9444,-19.96702],[-42.94358,-19.96925],[-42.94366,-19.97231],[-42.94355,-19.97448],[-42.94371,-19.97696],[-42.94415,-19.97903],[-42.94416,-19.98147],[-42.94353,-19.98306],[-42.94291,-19.98555],[-42.94333,-19.98858],[-42.94292,-19.98996],[-42.94193,-19.99047],[-42.9403,-19.99062],[-42.93676,-19.98922],[-42.93486,-19.98741],[-42.93145,-19.98579],[-42.92903,-19.98508],[-42.92728,-19.98479],[-42.92304,-19.98321],[-42.91919,-19.98214],[-42.91593,-19.98232],[-42.90948,-19.98135],[-42.90785,-19.9816],[-42.9053,-19.98292],[-42.90391,-19.98316],[-42.90036,-19.98209],[-42.89342,-19.98231],[-42.88853,-19.98221],[-42.88449,-19.98245],[-42.88223,-19.98246],[-42.87789,-19.98215],[-42.86911,-19.98222],[-42.86584,-19.98246],[-42.86528,-19.97869],[-42.86478,-19.9768],[-42.86348,-19.97317],[-42.86311,-19.97151],[-42.86225,-19.96915],[-42.85958,-19.96299],[-42.85863,-19.96048],[-42.85699,-19.95784],[-42.8546,-19.95543],[-42.85312,-19.9544],[-42.85233,-19.95249],[-42.85407,-19.94994],[-42.85645,-19.94802],[-42.85844,-19.94668],[-42.86181,-19.94336],[-42.86453,-19.94112],[-42.86603,-19.93927],[-42.86697,-19.93674],[-42.8667,-19.93525],[-42.86572,-19.93364],[-42.86484,-19.9315],[-42.86474,-19.93063],[-42.86532,-19.92927],[-42.86665,-19.92758],[-42.86847,-19.92661],[-42.87147,-19.92688],[-42.87285,-19.92591],[-42.87382,-19.92414],[-42.8742,-19.92264],[-42.87393,-19.92073],[-42.8725,-19.91572],[-42.87172,-19.91395],[-42.87091,-19.9128],[-42.86971,-19.908],[-42.86849,-19.90638],[-42.87193,-19.90495],[-42.87499,-19.90322],[-42.87684,-19.90107],[-42.87846,-19.89999],[-42.87999,-19.89932],[-42.8814,-19.8995],[-42.88289,-19.90087],[-42.88474,-19.90209],[-42.88681,-19.90164],[-42.88917,-19.90026],[-42.89162,-19.8997],[-42.89415,-19.90091],[-42.89515,-19.90095],[-42.8986,-19.89878],[-42.89979,-19.89862],[-42.90201,-19.89957],[-42.90417,-19.8998],[-42.90755,-19.89933],[-42.91005,-19.89861],[-42.91205,-19.89913],[-42.91288,-19.89973],[-42.91572,-19.90404],[-42.91696,-19.90648],[-42.91916,-19.90778],[-42.92115,-19.90815],[-42.92361,-19.90772],[-42.92737,-19.90479],[-42.93031,-19.90342],[-42.93133,-19.90335],[-42.93255,-19.90378],[-42.93382,-19.90491],[-42.93477,-19.90732],[-42.93661,-19.91044],[-42.93915,-19.91419],[-42.94062,-19.91754],[-42.94383,-19.92271],[-42.94464,-19.9262],[-42.94441,-19.92958],[-42.94461,-19.93062],[-42.94562,-19.93255],[-42.94677,-19.93411],[-42.95101,-19.93729],[-42.95574,-19.94043],[-42.9573,-19.94125],[-42.95864,-19.94238],[-42.96006,-19.94318],[-42.96108,-19.94442],[-42.9616,-19.94633],[-42.96084,-19.9498],[-42.96039,-19.95378],[-42.95996,-19.95464]]]},"properties":{"codigo":"316100730","name":"Vargem Linda","population":1413,"households":884,"areaKm2":78.3512,"density":18}}]}