{"type":"FeatureCollection","features":[{"type":"Feature","geometry":{"type":"Polygon","coordinates":[[[-43.05232,-21.48088],[-43.05149,-21.48175],[-43.05145,-21.48309],[-43.05189,-21.48502],[-43.053,-21.48674],[-43.05396,-21.49079],[-43.05447,-21.49177],[-43.05656,-21.49317],[-43.05973,-21.49661],[-43.05984,-21.49792],[-43.05923,-21.49974],[-43.05856,-21.50056],[-43.05702,-21.50136],[-43.05621,-21.50135],[-43.05463,-21.50224],[-43.05417,-21.50324],[-43.05645,-21.50609],[-43.05999,-21.51164],[-43.06123,-21.51678],[-43.06211,-21.51838],[-43.06467,-21.51878],[-43.06549,-21.51837],[-43.06658,-21.51703],[-43.06779,-21.51698],[-43.07034,-21.51911],[-43.07182,-21.51974],[-43.07427,-21.51944],[-43.0753,-21.51996],[-43.07641,-21.5217],[-43.07688,-21.52294],[-43.07913,-21.52318],[-43.08188,-21.5232],[-43.08211,-21.52415],[-43.0815,-21.52558],[-43.08204,-21.52748],[-43.08208,-21.52878],[-43.08121,-21.52996],[-43.07903,-21.53158],[-43.07839,-21.53335],[-43.07841,-21.53565],[-43.07749,-21.53709],[-43.07615,-21.53859],[-43.07632,-21.5393],[-43.08086,-21.54092],[-43.0841,-21.54459],[-43.08658,-21.54914],[-43.08764,-21.55147],[-43.08589,-21.55137],[-43.08358,-21.55254],[-43.08229,-21.5538],[-43.0814,-21.55571],[-43.08134,-21.55648],[-43.08287,-21.55748],[-43.08358,-21.55859],[-43.08353,-21.56047],[-43.08458,-21.5621],[-43.08474,-21.56597],[-43.08428,-21.56687],[-43.081,-21.56877],[-43.08007,-21.57021],[-43.07889,-21.57108],[-43.07548,-21.57212],[-43.07411,-21.57431],[-43.07455,-21.57595],[-43.07439,-21.57719],[-43.07366,-21.57873],[-43.07408,-21.58138],[-43.07384,-21.58219],[-43.07185,-21.58312],[-43.07127,-21.58363],[-43.07099,-21.58547],[-43.07171,-21.58664],[-43.07208,-21.5887],[-43.07424,-21.59024],[-43.07477,-21.59249],[-43.07577,-21.59442],[-43.07632,-21.59678],[-43.07493,-21.59743],[-43.07393,-21.59692],[-43.07192,-21.59512],[-43.07105,-21.59458],[-43.06931,-21.59472],[-43.06828,-21.59432],[-43.06713,-21.59262],[-43.0667,-21.59154],[-43.0652,-21.59097],[-43.06319,-21.59186],[-43.06238,-21.59184],[-43.0611,-21.59114],[-43.05843,-21.59017],[-43.05739,-21.59047],[-43.05666,-21.59123],[-43.05588,-21.59086],[-43.05455,-21.5889],[-43.05179,-21.58858],[-43.05002,-21.58739],[-43.04845,-21.58588],[-43.04744,-21.58552],[-43.04528,-21.58593],[-43.04229,-21.58778],[-43.03949,-21.58797],[-43.0373,-21.58724],[-43.03479,-21.58798],[-43.03387,-21.58884],[-43.03124,-21.59073],[-43.02972,-21.59018],[-43.02747,-21.59146],[-43.0245,-21.59017],[-43.02347,-21.58924],[-43.02254,-21.58682],[-43.02128,-21.58524],[-43.02051,-21.58482],[-43.02155,-21.58203],[-43.02165,-21.57981],[-43.02203,-21.57729],[-43.02215,-21.57317],[-43.02142,-21.57239],[-43.01859,-21.57126],[-43.01547,-21.56872],[-43.01292,-21.56521],[-43.01177,-21.56451],[-43.00919,-21.56438],[-43.00813,-21.56413],[-43.00656,-21.56312],[-43.00403,-21.5635],[-43.00246,-21.56354],[-43.00124,-21.56274],[-42.99975,-21.55974],[-42.99918,-21.55716],[-42.99818,-21.55631],[-42.99686,-21.55206],[-42.99461,-21.55215],[-42.99351,-21.55157],[-42.99226,-21.54987],[-42.99156,-21.54945],[-42.98993,-21.54945],[-42.98878,-21.54986],[-42.98452,-21.55063],[-42.98177,-21.54989],[-42.97975,-21.54888],[-42.97659,-21.54612],[-42.9749,-21.54533],[-42.97055,-21.54793],[-42.96953,-21.54908],[-42.96782,-21.55011],[-42.9655,-21.55076],[-42.96395,-21.55173],[-42.96057,-21.55202],[-42.9588,-21.55191],[-42.95673,-21.55279],[-42.95408,-21.5526],[-42.95213,-21.55298],[-42.95193,-21.55128],[-42.95009,-21.55066],[-42.95039,-21.55004],[-42.95003,-21.54861],[-42.94872,-21.54826],[-42.94826,-21.54724],[-42.94925,-21.54702],[-42.94829,-21.54562],[-42.94711,-21.5453],[-42.94628,-21.54453],[-42.94485,-21.54407],[-42.94459,-21.54325],[-42.94296,-21.54223],[-42.94342,-21.54122],[-42.94305,-21.54031],[-42.94307,-21.53859],[-42.94187,-21.53847],[-42.94057,-21.53693],[-42.93997,-21.537],[-42.93948,-21.53587],[-42.93819,-21.53564],[-42.93829,-21.5344],[-42.93929,-21.53312],[-42.9392,-21.53221],[-42.93983,-21.53156],[-42.93937,-21.52973],[-42.93805,-21.52822],[-42.93717,-21.52769],[-42.93715,-21.52661],[-42.93589,-21.5255],[-42.93505,-21.52372],[-42.93404,-21.52315],[-42.93372,-21.52191],[-42.93389,-21.52025],[-42.93308,-21.51922],[-42.93532,-21.51962],[-42.93691,-21.5197],[-42.93917,-21.51905],[-42.94018,-21.51926],[-42.94236,-21.51913],[-42.94427,-21.51817],[-42.94505,-21.51573],[-42.9467,-21.5148],[-42.94777,-21.51505],[-42.94825,-21.51653],[-42.95166,-21.51954],[-42.95274,-21.51984],[-42.95475,-21.51971],[-42.95487,-21.51905],[-42.95392,-21.51775],[-42.95305,-21.516],[-42.95339,-21.51432],[-42.95544,-21.51261],[-42.95733,-21.51038],[-42.9576,-21.50882],[-42.95879,-21.50856],[-42.95894,-21.50766],[-42.95834,-21.5051],[-42.95918,-21.50233],[-42.95916,-21.50136],[-42.96002,-21.49956],[-42.96175,-21.49928],[-42.96397,-21.49814],[-42.96601,-21.49807],[-42.96737,-21.49869],[-42.96871,-21.50081],[-42.96979,-21.50135],[-42.97361,-21.50039],[-42.97479,-21.50117],[-42.97625,-21.50157],[-42.97716,-21.50244],[-42.97988,-21.50202],[-42.98113,-21.50091],[-42.98148,-21.49926],[-42.98241,-21.49815],[-42.98534,-21.49841],[-42.98584,-21.497],[-42.98528,-21.49581],[-42.9838,-21.49483],[-42.98347,-21.4937],[-42.98475,-21.4924],[-42.98485,-21.49168],[-42.98423,-21.49063],[-42.98478,-21.48959],[-42.98601,-21.48893],[-42.98822,-21.48833],[-42.99305,-21.48889],[-42.99403,-21.48855],[-42.99504,-21.48768],[-42.99672,-21.48797],[-42.99731,-21.49008],[-42.99849,-21.49196],[-42.9995,-21.49194],[-43.00025,-21.49117],[-43.00116,-21.48939],[-43.00192,-21.48966],[-43.00362,-21.49149],[-43.00528,-21.49219],[-43.00711,-21.49234],[-43.00776,-21.4933],[-43.0077,-21.49449],[-43.00858,-21.49493],[-43.0087,-21.49607],[-43.01088,-21.49889],[-43.01246,-21.50015],[-43.01415,-21.50029],[-43.01713,-21.50108],[-43.0193,-21.50523],[-43.02231,-21.50454],[-43.0233,-21.50451],[-43.02449,-21.50499],[-43.0263,-21.50419],[-43.02778,-21.50395],[-43.02718,-21.50144],[-43.02633,-21.49993],[-43.02585,-21.49799],[-43.02401,-21.49573],[-43.02453,-21.49462],[-43.02657,-21.49478],[-43.02877,-21.49571],[-43.02947,-21.49572],[-43.03047,-21.49494],[-43.03179,-21.49451],[-43.03223,-21.49369],[-43.03235,-21.49225],[-43.03212,-21.49025],[-43.0325,-21.48899],[-43.03333,-21.48802],[-43.03506,-21.48506],[-43.03561,-21.48459],[-43.03693,-21.48456],[-43.03873,-21.48543],[-43.03972,-21.48533],[-43.04173,-21.48384],[-43.04339,-21.48316],[-43.04619,-21.48254],[-43.04965,-21.48064],[-43.05232,-21.48088]]]},"properties":{"codigo":"316290605","name":"São João Nepomuceno","population":23656,"households":11444,"areaKm2":109.6132,"density":215.8}},{"type":"Feature","geometry":{"type":"Polygon","coordinates":[[[-43.09151,-21.66018],[-43.09135,-21.65964],[-43.08968,-21.65771],[-43.08895,-21.6547],[-43.08832,-21.65384],[-43.08703,-21.65284],[-43.08664,-21.65117],[-43.08606,-21.65012],[-43.08443,-21.64803],[-43.08348,-21.64719],[-43.08317,-21.64617],[-43.0835,-21.6438],[-43.0845,-21.64112],[-43.08424,-21.6407],[-43.08137,-21.63949],[-43.08013,-21.63851],[-43.07858,-21.63962],[-43.07793,-21.64094],[-43.07695,-21.64367],[-43.07592,-21.64487],[-43.0744,-21.64477],[-43.07308,-21.64399],[-43.07035,-21.64287],[-43.06952,-21.64214],[-43.06835,-21.6402],[-43.06843,-21.63846],[-43.06999,-21.638],[-43.07203,-21.63625],[-43.07206,-21.63391],[-43.07364,-21.63021],[-43.07505,-21.62745],[-43.07478,-21.6265],[-43.07244,-21.62513],[-43.06892,-21.62443],[-43.06802,-21.62399],[-43.06574,-21.62395],[-43.06318,-21.62459],[-43.06173,-21.62586],[-43.05988,-21.62684],[-43.05896,-21.62784],[-43.05834,-21.62706],[-43.05684,-21.62674],[-43.05525,-21.62407],[-43.05437,-21.6205],[-43.05376,-21.61965],[-43.05251,-21.61897],[-43.05283,-21.61652],[-43.05242,-21.61467],[-43.05139,-21.61323],[-43.04949,-21.61184],[-43.0479,-21.61005],[-43.04703,-21.60962],[-43.04442,-21.60962],[-43.04277,-21.61028],[-43.04133,-21.61162],[-43.03954,-21.61066],[-43.0384,-21.60812],[-43.0381,-21.60687],[-43.03715,-21.605],[-43.03538,-21.60319],[-43.03369,-21.60077],[-43.03219,-21.599],[-43.02998,-21.59694],[-43.02978,-21.59514],[-43.03013,-21.59342],[-43.03124,-21.59073],[-43.03387,-21.58884],[-43.03479,-21.58798],[-43.0373,-21.58724],[-43.03949,-21.58797],[-43.04229,-21.58778],[-43.04528,-21.58593],[-43.04744,-21.58552],[-43.04845,-21.58588],[-43.05002,-21.58739],[-43.05179,-21.58858],[-43.05455,-21.5889],[-43.05588,-21.59086],[-43.05666,-21.59123],[-43.05739,-21.59047],[-43.05843,-21.59017],[-43.0611,-21.59114],[-43.06238,-21.59184],[-43.06319,-21.59186],[-43.0652,-21.59097],[-43.0667,-21.59154],[-43.06713,-21.59262],[-43.06828,-21.59432],[-43.06931,-21.59472],[-43.07105,-21.59458],[-43.07192,-21.59512],[-43.07393,-21.59692],[-43.07493,-21.59743],[-43.07632,-21.59678],[-43.07577,-21.59442],[-43.07477,-21.59249],[-43.07424,-21.59024],[-43.07208,-21.5887],[-43.07171,-21.58664],[-43.07099,-21.58547],[-43.07127,-21.58363],[-43.07185,-21.58312],[-43.07384,-21.58219],[-43.07408,-21.58138],[-43.07366,-21.57873],[-43.07439,-21.57719],[-43.07455,-21.57595],[-43.07411,-21.57431],[-43.07548,-21.57212],[-43.07889,-21.57108],[-43.08007,-21.57021],[-43.081,-21.56877],[-43.08428,-21.56687],[-43.08474,-21.56597],[-43.08458,-21.5621],[-43.08353,-21.56047],[-43.08358,-21.55859],[-43.08287,-21.55748],[-43.08134,-21.55648],[-43.0814,-21.55571],[-43.08229,-21.5538],[-43.08358,-21.55254],[-43.08589,-21.55137],[-43.08764,-21.55147],[-43.08885,-21.5539],[-43.09043,-21.55666],[-43.09116,-21.55729],[-43.09353,-21.55741],[-43.09401,-21.5577],[-43.09887,-21.55825],[-43.10045,-21.55803],[-43.10135,-21.55698],[-43.10141,-21.55549],[-43.10217,-21.55399],[-43.10297,-21.55379],[-43.10623,-21.55455],[-43.10724,-21.55509],[-43.10823,-21.55712],[-43.10923,-21.55826],[-43.11039,-21.56131],[-43.11187,-21.56195],[-43.11427,-21.56247],[-43.11521,-21.56288],[-43.11737,-21.56556],[-43.11828,-21.566],[-43.1193,-21.56776],[-43.12071,-21.56897],[-43.12222,-21.56976],[-43.12318,-21.57101],[-43.1227,-21.57378],[-43.1221,-21.57498],[-43.12176,-21.57705],[-43.12459,-21.58084],[-43.12542,-21.58252],[-43.1267,-21.58662],[-43.12751,-21.58765],[-43.1279,-21.589],[-43.12911,-21.58956],[-43.13141,-21.58976],[-43.13253,-21.5896],[-43.13287,-21.59166],[-43.13291,-21.59411],[-43.1347,-21.59817],[-43.13791,-21.59755],[-43.14016,-21.59837],[-43.14165,-21.59954],[-43.14321,-21.59981],[-43.1453,-21.59981],[-43.1471,-21.59939],[-43.1484,-21.59848],[-43.14899,-21.59755],[-43.15077,-21.59639],[-43.15211,-21.59645],[-43.15424,-21.59722],[-43.15459,-21.59899],[-43.1554,-21.60103],[-43.15659,-21.60245],[-43.15812,-21.60362],[-43.16108,-21.60543],[-43.16283,-21.6056],[-43.16416,-21.60638],[-43.16564,-21.60651],[-43.16605,-21.60706],[-43.16644,-21.61037],[-43.16441,-21.61267],[-43.16358,-21.61414],[-43.16403,-21.6158],[-43.16514,-21.61644],[-43.16642,-21.61643],[-43.1684,-21.61766],[-43.16924,-21.61762],[-43.17085,-21.61789],[-43.17146,-21.61863],[-43.17125,-21.62025],[-43.17008,-21.62246],[-43.17012,-21.62364],[-43.17064,-21.62489],[-43.17232,-21.62599],[-43.17281,-21.62705],[-43.17167,-21.62843],[-43.16954,-21.63053],[-43.16933,-21.63314],[-43.16956,-21.63355],[-43.17154,-21.634],[-43.17245,-21.63451],[-43.17396,-21.63652],[-43.17405,-21.63774],[-43.17344,-21.63916],[-43.17419,-21.64026],[-43.17554,-21.64092],[-43.17651,-21.64302],[-43.17626,-21.64648],[-43.17678,-21.647],[-43.17896,-21.64712],[-43.17935,-21.6474],[-43.1792,-21.64893],[-43.17848,-21.65113],[-43.17734,-21.65271],[-43.17547,-21.65328],[-43.17389,-21.65285],[-43.1721,-21.65157],[-43.17069,-21.6513],[-43.16952,-21.65256],[-43.16991,-21.65554],[-43.17061,-21.65765],[-43.17018,-21.65982],[-43.16942,-21.66106],[-43.16938,-21.66267],[-43.16847,-21.66379],[-43.16664,-21.66463],[-43.16456,-21.66489],[-43.16272,-21.66568],[-43.16147,-21.66575],[-43.16125,-21.66492],[-43.16153,-21.66249],[-43.1626,-21.66037],[-43.1625,-21.65873],[-43.16208,-21.65763],[-43.16109,-21.65694],[-43.15904,-21.65717],[-43.15732,-21.65863],[-43.1567,-21.66003],[-43.15549,-21.66109],[-43.15363,-21.65944],[-43.1506,-21.6587],[-43.14982,-21.66075],[-43.14688,-21.66175],[-43.14539,-21.66304],[-43.14275,-21.66269],[-43.14066,-21.66285],[-43.13834,-21.66493],[-43.13799,-21.66557],[-43.13805,-21.66793],[-43.13756,-21.66878],[-43.13623,-21.66986],[-43.1363,-21.67203],[-43.13663,-21.67331],[-43.13634,-21.67547],[-43.13733,-21.67645],[-43.13977,-21.67673],[-43.14055,-21.67798],[-43.13966,-21.67879],[-43.13827,-21.68123],[-43.1389,-21.68331],[-43.13881,-21.68575],[-43.13795,-21.6875],[-43.13621,-21.69249],[-43.13483,-21.69344],[-43.13375,-21.69454],[-43.13299,-21.69469],[-43.13248,-21.69461],[-43.13103,-21.693],[-43.13038,-21.69193],[-43.12826,-21.69146],[-43.12663,-21.69073],[-43.12561,-21.68839],[-43.12467,-21.68813],[-43.12335,-21.6883],[-43.12042,-21.68831],[-43.11863,-21.68778],[-43.11807,-21.68731],[-43.11693,-21.68535],[-43.11511,-21.68385],[-43.11255,-21.68326],[-43.1112,-21.68217],[-43.10976,-21.68169],[-43.10862,-21.68068],[-43.10701,-21.67748],[-43.1067,-21.67633],[-43.10512,-21.67489],[-43.10362,-21.67477],[-43.10291,-21.67436],[-43.10139,-21.67144],[-43.10112,-21.67009],[-43.09921,-21.66777],[-43.09829,-21.66524],[-43.09657,-21.66282],[-43.0953,-21.66153],[-43.0922,-21.66078],[-43.09151,-21.66018]]]},"properties":{"codigo":"316290610","name":"Carlos Alves","population":445,"households":431,"areaKm2":112.69,"density":3.9}},{"type":"Feature","geometry":{"type":"Polygon","coordinates":[[[-42.93308,-21.51922],[-42.93389,-21.52025],[-42.93372,-21.52191],[-42.93404,-21.52315],[-42.93505,-21.52372],[-42.93589,-21.5255],[-42.93715,-21.52661],[-42.93717,-21.52769],[-42.93805,-21.52822],[-42.93937,-21.52973],[-42.93983,-21.53156],[-42.9392,-21.53221],[-42.93929,-21.53312],[-42.93829,-21.5344],[-42.93819,-21.53564],[-42.93948,-21.53587],[-42.93997,-21.537],[-42.94057,-21.53693],[-42.94187,-21.53847],[-42.94307,-21.53859],[-42.94305,-21.54031],[-42.94342,-21.54122],[-42.94296,-21.54223],[-42.94459,-21.54325],[-42.94485,-21.54407],[-42.94628,-21.54453],[-42.94711,-21.5453],[-42.94829,-21.54562],[-42.94925,-21.54702],[-42.94826,-21.54724],[-42.94872,-21.54826],[-42.95003,-21.54861],[-42.95039,-21.55004],[-42.95009,-21.55066],[-42.95193,-21.55128],[-42.95213,-21.55298],[-42.95157,-21.55548],[-42.95021,-21.55663],[-42.94747,-21.55744],[-42.94501,-21.55849],[-42.94322,-21.55887],[-42.94256,-21.55987],[-42.94241,-21.5613],[-42.94255,-21.56466],[-42.94291,-21.56712],[-42.94282,-21.56846],[-42.94143,-21.56996],[-42.9408,-21.57102],[-42.94056,-21.57224],[-42.9415,-21.57388],[-42.94269,-21.57479],[-42.94419,-21.57547],[-42.94644,-21.57562],[-42.9474,-21.57649],[-42.94727,-21.57744],[-42.94597,-21.57919],[-42.94626,-21.58166],[-42.94603,-21.5837],[-42.9454,-21.5849],[-42.94467,-21.58448],[-42.94187,-21.5843],[-42.94024,-21.58463],[-42.93948,-21.5854],[-42.93885,-21.58667],[-42.93725,-21.58867],[-42.93462,-21.59105],[-42.93322,-21.59104],[-42.93249,-21.59066],[-42.93133,-21.58904],[-42.93002,-21.58766],[-42.92658,-21.58534],[-42.9231,-21.58552],[-42.92143,-21.58614],[-42.92035,-21.58623],[-42.91637,-21.58806],[-42.91379,-21.58973],[-42.91103,-21.59052],[-42.90981,-21.59178],[-42.9088,-21.59196],[-42.9063,-21.59095],[-42.90427,-21.5893],[-42.90236,-21.58934],[-42.90096,-21.58791],[-42.89989,-21.58761],[-42.89743,-21.58639],[-42.89639,-21.58506],[-42.89654,-21.58401],[-42.89725,-21.58298],[-42.89687,-21.58079],[-42.89484,-21.57783],[-42.89353,-21.57715],[-42.89215,-21.57687],[-42.88888,-21.57694],[-42.88649,-21.57662],[-42.88466,-21.57568],[-42.88219,-21.57526],[-42.8792,-21.57368],[-42.87865,-21.57307],[-42.87676,-21.57204],[-42.87477,-21.57256],[-42.87336,-21.57258],[-42.87079,-21.57103],[-42.86955,-21.57103],[-42.86753,-21.57156],[-42.8646,-21.57152],[-42.86344,-21.57173],[-42.86375,-21.57031],[-42.86336,-21.56822],[-42.86195,-21.5662],[-42.86069,-21.5655],[-42.86018,-21.56411],[-42.85994,-21.56172],[-42.8595,-21.56005],[-42.8582,-21.55869],[-42.85795,-21.55739],[-42.85718,-21.55609],[-42.85734,-21.55449],[-42.85683,-21.55347],[-42.85632,-21.54832],[-42.8564,-21.54642],[-42.85589,-21.54565],[-42.85419,-21.54507],[-42.85525,-21.54357],[-42.85518,-21.54255],[-42.85397,-21.54133],[-42.85391,-21.53901],[-42.85365,-21.53807],[-42.8525,-21.53738],[-42.85168,-21.53737],[-42.84843,-21.53662],[-42.84673,-21.53546],[-42.84676,-21.53338],[-42.8474,-21.5315],[-42.84731,-21.53001],[-42.84766,-21.52855],[-42.84974,-21.52629],[-42.8513,-21.52409],[-42.85392,-21.51942],[-42.85422,-21.5184],[-42.8558,-21.51649],[-42.85698,-21.51648],[-42.85801,-21.516],[-42.85844,-21.51655],[-42.85864,-21.51817],[-42.86088,-21.51799],[-42.86233,-21.51698],[-42.86176,-21.51589],[-42.86197,-21.51503],[-42.8605,-21.51335],[-42.86029,-21.51265],[-42.86111,-21.51176],[-42.86025,-21.50926],[-42.86175,-21.50971],[-42.86317,-21.50969],[-42.86522,-21.50904],[-42.86678,-21.5092],[-42.86765,-21.51024],[-42.86912,-21.51143],[-42.8743,-21.51244],[-42.8757,-21.51353],[-42.87756,-21.5145],[-42.87837,-21.51542],[-42.87873,-21.51658],[-42.87982,-21.51776],[-42.88046,-21.51913],[-42.88019,-21.52224],[-42.88099,-21.5229],[-42.88408,-21.52375],[-42.88619,-21.52546],[-42.88824,-21.52668],[-42.8891,-21.52763],[-42.89114,-21.52883],[-42.89259,-21.52939],[-42.89394,-21.52923],[-42.89424,-21.52855],[-42.8943,-21.52588],[-42.89537,-21.52354],[-42.8967,-21.52174],[-42.89628,-21.52047],[-42.89537,-21.51902],[-42.89733,-21.5179],[-42.89911,-21.51724],[-42.90224,-21.51732],[-42.90575,-21.5168],[-42.90722,-21.51619],[-42.9095,-21.51625],[-42.90971,-21.51586],[-42.90983,-21.51794],[-42.91169,-21.51823],[-42.91331,-21.51753],[-42.91464,-21.51746],[-42.91724,-21.51814],[-42.91785,-21.51853],[-42.91823,-21.51961],[-42.91792,-21.52413],[-42.91847,-21.52527],[-42.9196,-21.526],[-42.92194,-21.52631],[-42.9231,-21.52576],[-42.92485,-21.52411],[-42.92513,-21.52238],[-42.92499,-21.52019],[-42.92548,-21.51936],[-42.92692,-21.51836],[-42.92824,-21.51822],[-42.9323,-21.51886],[-42.93308,-21.51922]]]},"properties":{"codigo":"316290615","name":"Ituí","population":279,"households":419,"areaKm2":63.3384,"density":4.4}},{"type":"Feature","geometry":{"type":"Polygon","coordinates":[[[-42.97726,-21.64485],[-42.97669,-21.64519],[-42.9748,-21.64499],[-42.97329,-21.64386],[-42.97239,-21.64212],[-42.97152,-21.64168],[-42.96896,-21.64185],[-42.96716,-21.64086],[-42.96539,-21.63833],[-42.96259,-21.63648],[-42.96191,-21.63528],[-42.95954,-21.63432],[-42.95816,-21.63176],[-42.95457,-21.62917],[-42.9544,-21.62844],[-42.95576,-21.62562],[-42.95533,-21.62306],[-42.95554,-21.62119],[-42.95839,-21.62051],[-42.96183,-21.61871],[-42.96337,-21.61757],[-42.96452,-21.61585],[-42.96498,-21.61356],[-42.96492,-21.6128],[-42.96261,-21.61126],[-42.95926,-21.60742],[-42.95827,-21.60379],[-42.95746,-21.60305],[-42.95544,-21.60207],[-42.9538,-21.6004],[-42.95307,-21.59914],[-42.95125,-21.59753],[-42.95095,-21.59636],[-42.95166,-21.59291],[-42.95163,-21.59042],[-42.95007,-21.58903],[-42.94798,-21.58862],[-42.94656,-21.58684],[-42.9454,-21.5849],[-42.94603,-21.5837],[-42.94626,-21.58166],[-42.94597,-21.57919],[-42.94727,-21.57744],[-42.9474,-21.57649],[-42.94644,-21.57562],[-42.94419,-21.57547],[-42.94269,-21.57479],[-42.9415,-21.57388],[-42.94056,-21.57224],[-42.9408,-21.57102],[-42.94143,-21.56996],[-42.94282,-21.56846],[-42.94291,-21.56712],[-42.94255,-21.56466],[-42.94241,-21.5613],[-42.94256,-21.55987],[-42.94322,-21.55887],[-42.94501,-21.55849],[-42.94747,-21.55744],[-42.95021,-21.55663],[-42.95157,-21.55548],[-42.95213,-21.55298],[-42.95408,-21.5526],[-42.95673,-21.55279],[-42.9588,-21.55191],[-42.96057,-21.55202],[-42.96395,-21.55173],[-42.9655,-21.55076],[-42.96782,-21.55011],[-42.96953,-21.54908],[-42.97055,-21.54793],[-42.9749,-21.54533],[-42.97659,-21.54612],[-42.97975,-21.54888],[-42.98177,-21.54989],[-42.98452,-21.55063],[-42.98878,-21.54986],[-42.98993,-21.54945],[-42.99156,-21.54945],[-42.99226,-21.54987],[-42.99351,-21.55157],[-42.99461,-21.55215],[-42.99686,-21.55206],[-42.99818,-21.55631],[-42.99918,-21.55716],[-42.99975,-21.55974],[-43.00124,-21.56274],[-43.00246,-21.56354],[-43.00403,-21.5635],[-43.00656,-21.56312],[-43.00813,-21.56413],[-43.00919,-21.56438],[-43.01177,-21.56451],[-43.01292,-21.56521],[-43.01547,-21.56872],[-43.01859,-21.57126],[-43.02142,-21.57239],[-43.02215,-21.57317],[-43.02203,-21.57729],[-43.02165,-21.57981],[-43.02155,-21.58203],[-43.02051,-21.58482],[-43.01525,-21.58694],[-43.01222,-21.58967],[-43.01137,-21.59157],[-43.00884,-21.59327],[-43.00761,-21.59502],[-43.00583,-21.59626],[-43.00474,-21.59793],[-43.00311,-21.59603],[-43.00182,-21.59504],[-42.9992,-21.5951],[-42.99805,-21.59451],[-42.9965,-21.59487],[-42.99578,-21.59673],[-42.99468,-21.59779],[-42.99267,-21.59845],[-42.99165,-21.59912],[-42.98995,-21.5995],[-42.9887,-21.60017],[-42.98824,-21.60104],[-42.98623,-21.60147],[-42.9852,-21.60284],[-42.98465,-21.60707],[-42.9838,-21.60826],[-42.98329,-21.61066],[-42.9835,-21.61294],[-42.98296,-21.61435],[-42.98173,-21.61544],[-42.98107,-21.61743],[-42.98198,-21.61939],[-42.98193,-21.62185],[-42.98152,-21.62385],[-42.98169,-21.62502],[-42.98296,-21.62553],[-42.98362,-21.62623],[-42.98363,-21.62771],[-42.9816,-21.62956],[-42.98149,-21.6311],[-42.98309,-21.63305],[-42.98333,-21.63403],[-42.98319,-21.63565],[-42.98266,-21.63681],[-42.98124,-21.63801],[-42.97981,-21.6386],[-42.97928,-21.63951],[-42.97919,-21.64091],[-42.97781,-21.64291],[-42.97726,-21.64485]]]},"properties":{"codigo":"316290620","name":"Roça Grande","population":648,"households":419,"areaKm2":47.2016,"density":13.7}},{"type":"Feature","geometry":{"type":"Polygon","coordinates":[[[-42.86569,-21.58458],[-42.866,-21.58289],[-42.86528,-21.58219],[-42.86484,-21.58025],[-42.86262,-21.57869],[-42.8615,-21.57821],[-42.86107,-21.57712],[-42.86225,-21.57579],[-42.86266,-21.57336],[-42.86344,-21.57173],[-42.8646,-21.57152],[-42.86753,-21.57156],[-42.86955,-21.57103],[-42.87079,-21.57103],[-42.87336,-21.57258],[-42.87477,-21.57256],[-42.87676,-21.57204],[-42.87865,-21.57307],[-42.8792,-21.57368],[-42.88219,-21.57526],[-42.88466,-21.57568],[-42.88649,-21.57662],[-42.88888,-21.57694],[-42.89215,-21.57687],[-42.89353,-21.57715],[-42.89484,-21.57783],[-42.89687,-21.58079],[-42.89725,-21.58298],[-42.89654,-21.58401],[-42.89639,-21.58506],[-42.89743,-21.58639],[-42.89989,-21.58761],[-42.90096,-21.58791],[-42.90236,-21.58934],[-42.90427,-21.5893],[-42.9063,-21.59095],[-42.9088,-21.59196],[-42.90981,-21.59178],[-42.91103,-21.59052],[-42.91379,-21.58973],[-42.91637,-21.58806],[-42.92035,-21.58623],[-42.92143,-21.58614],[-42.9231,-21.58552],[-42.92658,-21.58534],[-42.93002,-21.58766],[-42.93133,-21.58904],[-42.93249,-21.59066],[-42.93322,-21.59104],[-42.93462,-21.59105],[-42.93725,-21.58867],[-42.93885,-21.58667],[-42.93948,-21.5854],[-42.94024,-21.58463],[-42.94187,-21.5843],[-42.94467,-21.58448],[-42.9454,-21.5849],[-42.94656,-21.58684],[-42.94798,-21.58862],[-42.95007,-21.58903],[-42.95163,-21.59042],[-42.95166,-21.59291],[-42.95095,-21.59636],[-42.95125,-21.59753],[-42.95307,-21.59914],[-42.9538,-21.6004],[-42.95544,-21.60207],[-42.95746,-21.60305],[-42.95827,-21.60379],[-42.95926,-21.60742],[-42.96261,-21.61126],[-42.96492,-21.6128],[-42.96498,-21.61356],[-42.96452,-21.61585],[-42.96337,-21.61757],[-42.96183,-21.61871],[-42.95839,-21.62051],[-42.95554,-21.62119],[-42.95533,-21.62306],[-42.95576,-21.62562],[-42.9544,-21.62844],[-42.95457,-21.62917],[-42.95816,-21.63176],[-42.95954,-21.63432],[-42.96191,-21.63528],[-42.96259,-21.63648],[-42.96539,-21.63833],[-42.96716,-21.64086],[-42.96896,-21.64185],[-42.97152,-21.64168],[-42.97239,-21.64212],[-42.97329,-21.64386],[-42.9748,-21.64499],[-42.97669,-21.64519],[-42.97726,-21.64485],[-42.9786,-21.64679],[-42.98047,-21.64771],[-42.98162,-21.64909],[-42.98131,-21.64983],[-42.97987,-21.65119],[-42.97953,-21.65226],[-42.97809,-21.6535],[-42.97717,-21.65722],[-42.97674,-21.6581],[-42.97572,-21.65888],[-42.97462,-21.66078],[-42.97364,-21.66167],[-42.97082,-21.66214],[-42.96941,-21.66308],[-42.96866,-21.66425],[-42.96593,-21.66574],[-42.96162,-21.66715],[-42.96087,-21.66776],[-42.96049,-21.66879],[-42.95818,-21.66995],[-42.95688,-21.66919],[-42.95629,-21.66666],[-42.95569,-21.66526],[-42.95496,-21.66462],[-42.95192,-21.66351],[-42.95001,-21.66184],[-42.94658,-21.66001],[-42.94472,-21.65794],[-42.94385,-21.65732],[-42.94018,-21.65614],[-42.93863,-21.65516],[-42.93677,-21.65499],[-42.93527,-21.6555],[-42.93264,-21.65676],[-42.93075,-21.65698],[-42.92893,-21.65503],[-42.92717,-21.65456],[-42.92532,-21.65628],[-42.92438,-21.65674],[-42.92224,-21.65719],[-42.92073,-21.65855],[-42.91711,-21.66045],[-42.91521,-21.66024],[-42.91483,-21.66057],[-42.9133,-21.66396],[-42.91199,-21.66221],[-42.91036,-21.6615],[-42.91081,-21.65981],[-42.91075,-21.65884],[-42.90928,-21.65846],[-42.90822,-21.6574],[-42.90569,-21.65754],[-42.90414,-21.65686],[-42.90293,-21.6546],[-42.90221,-21.65449],[-42.90065,-21.65584],[-42.89998,-21.65581],[-42.89983,-21.65403],[-42.89928,-21.65272],[-42.89769,-21.6509],[-42.89673,-21.65071],[-42.89463,-21.65114],[-42.89262,-21.6489],[-42.89239,-21.6482],[-42.89257,-21.64608],[-42.89191,-21.64499],[-42.89076,-21.64448],[-42.88795,-21.64425],[-42.88598,-21.64385],[-42.88466,-21.64233],[-42.8843,-21.64017],[-42.88367,-21.63813],[-42.88177,-21.63574],[-42.8814,-21.63401],[-42.8807,-21.63334],[-42.87894,-21.63314],[-42.87806,-21.63269],[-42.87727,-21.63149],[-42.87692,-21.63033],[-42.87756,-21.6288],[-42.87791,-21.62648],[-42.87767,-21.62251],[-42.87503,-21.62229],[-42.87415,-21.62123],[-42.8741,-21.6194],[-42.87304,-21.61773],[-42.87174,-21.61695],[-42.86916,-21.61634],[-42.86844,-21.61563],[-42.86777,-21.61275],[-42.86946,-21.61112],[-42.86963,-21.60995],[-42.86808,-21.60795],[-42.86836,-21.60707],[-42.87021,-21.60583],[-42.87137,-21.60392],[-42.87296,-21.60311],[-42.87243,-21.60027],[-42.8701,-21.59703],[-42.86921,-21.5952],[-42.86826,-21.59419],[-42.86665,-21.59155],[-42.86579,-21.59051],[-42.86522,-21.5892],[-42.86569,-21.58458]]]},"properties":{"codigo":"316290625","name":"Taruaçu","population":537,"households":388,"areaKm2":74.5839,"density":7.2}}]}