{"type":"FeatureCollection","features":[{"type":"Feature","geometry":{"type":"Polygon","coordinates":[[[-42.86971,-20.14475],[-42.86361,-20.14511],[-42.86284,-20.14582],[-42.86273,-20.14808],[-42.8616,-20.15094],[-42.85907,-20.15416],[-42.8577,-20.15478],[-42.85147,-20.15458],[-42.84878,-20.15597],[-42.84589,-20.15618],[-42.84298,-20.15565],[-42.84176,-20.15486],[-42.83983,-20.1524],[-42.83906,-20.15182],[-42.83743,-20.15153],[-42.83712,-20.14902],[-42.83645,-20.14866],[-42.8343,-20.14877],[-42.83135,-20.1486],[-42.83016,-20.14883],[-42.82863,-20.14864],[-42.82628,-20.14706],[-42.82573,-20.14644],[-42.82404,-20.14573],[-42.82155,-20.14578],[-42.81691,-20.14693],[-42.81541,-20.14742],[-42.81284,-20.14726],[-42.81096,-20.14559],[-42.80958,-20.14352],[-42.8088,-20.1418],[-42.80797,-20.13896],[-42.80685,-20.1377],[-42.80376,-20.13703],[-42.79939,-20.13705],[-42.79792,-20.13655],[-42.79726,-20.1358],[-42.79708,-20.13313],[-42.79785,-20.13013],[-42.79863,-20.12843],[-42.79818,-20.12726],[-42.79708,-20.12651],[-42.7955,-20.12706],[-42.79358,-20.12864],[-42.78966,-20.1291],[-42.7869,-20.12913],[-42.78513,-20.12889],[-42.78335,-20.128],[-42.78233,-20.12707],[-42.77793,-20.12399],[-42.77373,-20.12214],[-42.77072,-20.12143],[-42.76774,-20.1216],[-42.76519,-20.12235],[-42.76463,-20.12229],[-42.7625,-20.12302],[-42.76153,-20.12282],[-42.76215,-20.12032],[-42.76231,-20.11859],[-42.7634,-20.11561],[-42.76314,-20.1138],[-42.76137,-20.11297],[-42.759,-20.11322],[-42.7576,-20.11239],[-42.75671,-20.11101],[-42.75564,-20.10708],[-42.75561,-20.10496],[-42.75599,-20.10267],[-42.75742,-20.10045],[-42.75964,-20.09924],[-42.75995,-20.09881],[-42.76167,-20.09824],[-42.76298,-20.09679],[-42.7623,-20.09575],[-42.76012,-20.09475],[-42.75917,-20.09384],[-42.75967,-20.09206],[-42.76314,-20.09103],[-42.76404,-20.08968],[-42.76417,-20.08864],[-42.76383,-20.08665],[-42.76272,-20.08446],[-42.76167,-20.0831],[-42.7601,-20.07988],[-42.75977,-20.07634],[-42.75975,-20.07275],[-42.7599,-20.07169],[-42.76075,-20.07039],[-42.76249,-20.07023],[-42.7635,-20.07059],[-42.76674,-20.07099],[-42.77157,-20.07078],[-42.77487,-20.07032],[-42.77723,-20.06953],[-42.77897,-20.06811],[-42.7803,-20.06668],[-42.7814,-20.06651],[-42.78217,-20.06686],[-42.78261,-20.06884],[-42.78413,-20.06965],[-42.78559,-20.06886],[-42.78595,-20.06941],[-42.78553,-20.07046],[-42.78657,-20.07067],[-42.78729,-20.07014],[-42.7894,-20.06958],[-42.78968,-20.07033],[-42.79138,-20.0705],[-42.79205,-20.07019],[-42.79217,-20.06912],[-42.79393,-20.07095],[-42.79455,-20.07021],[-42.7952,-20.07099],[-42.79637,-20.07167],[-42.7972,-20.07157],[-42.7978,-20.06947],[-42.79701,-20.06797],[-42.79787,-20.06719],[-42.7991,-20.06752],[-42.80014,-20.06893],[-42.80131,-20.06907],[-42.80255,-20.07002],[-42.80192,-20.07207],[-42.80253,-20.07345],[-42.80336,-20.07441],[-42.80504,-20.07556],[-42.80762,-20.07436],[-42.80914,-20.07501],[-42.81001,-20.07465],[-42.81121,-20.07359],[-42.81183,-20.07369],[-42.81378,-20.07305],[-42.81431,-20.07175],[-42.81706,-20.07052],[-42.81843,-20.07037],[-42.82009,-20.07118],[-42.82069,-20.07082],[-42.82193,-20.07218],[-42.82387,-20.07197],[-42.82528,-20.07223],[-42.82638,-20.07198],[-42.82947,-20.07253],[-42.83067,-20.07332],[-42.83065,-20.07488],[-42.8312,-20.07576],[-42.83324,-20.07812],[-42.8343,-20.07907],[-42.83731,-20.07806],[-42.84072,-20.07819],[-42.84126,-20.07765],[-42.84167,-20.07562],[-42.84343,-20.07463],[-42.84434,-20.07319],[-42.84616,-20.07249],[-42.84736,-20.0715],[-42.84896,-20.07138],[-42.85094,-20.07243],[-42.85162,-20.0734],[-42.85247,-20.07349],[-42.8557,-20.07306],[-42.85751,-20.07316],[-42.8617,-20.07256],[-42.86384,-20.0717],[-42.86426,-20.07114],[-42.86318,-20.07038],[-42.86285,-20.06915],[-42.86494,-20.06949],[-42.86868,-20.06928],[-42.86899,-20.06976],[-42.87162,-20.07057],[-42.87335,-20.07146],[-42.87549,-20.07191],[-42.87633,-20.07231],[-42.87996,-20.07271],[-42.88176,-20.07211],[-42.88279,-20.07088],[-42.88367,-20.06868],[-42.88445,-20.06791],[-42.88631,-20.0675],[-42.8889,-20.06754],[-42.89077,-20.068],[-42.89218,-20.06756],[-42.89247,-20.06626],[-42.89316,-20.0655],[-42.89415,-20.06358],[-42.89491,-20.06417],[-42.89803,-20.06443],[-42.89833,-20.06507],[-42.89835,-20.06681],[-42.89873,-20.06789],[-42.8987,-20.07101],[-42.89826,-20.07371],[-42.89886,-20.07503],[-42.90019,-20.07592],[-42.90458,-20.07735],[-42.90572,-20.07849],[-42.90414,-20.08119],[-42.90314,-20.08187],[-42.9022,-20.08354],[-42.90094,-20.08406],[-42.89984,-20.08508],[-42.89877,-20.08747],[-42.89844,-20.0902],[-42.89766,-20.09281],[-42.89791,-20.0955],[-42.89943,-20.09995],[-42.90034,-20.10499],[-42.8999,-20.1064],[-42.89745,-20.11024],[-42.89704,-20.11162],[-42.89708,-20.11434],[-42.8967,-20.11531],[-42.89657,-20.117],[-42.89569,-20.11881],[-42.89359,-20.1197],[-42.89207,-20.11983],[-42.88996,-20.11921],[-42.88766,-20.11715],[-42.88672,-20.11672],[-42.88469,-20.11667],[-42.88351,-20.11707],[-42.88038,-20.12008],[-42.88029,-20.12288],[-42.87989,-20.12384],[-42.87872,-20.12415],[-42.87721,-20.12279],[-42.87542,-20.11952],[-42.87315,-20.11706],[-42.87173,-20.11727],[-42.87013,-20.11886],[-42.86894,-20.11911],[-42.86764,-20.11889],[-42.86647,-20.11926],[-42.8659,-20.12125],[-42.86701,-20.12288],[-42.86744,-20.12306],[-42.86924,-20.12552],[-42.86944,-20.12734],[-42.86879,-20.12863],[-42.86652,-20.13093],[-42.86599,-20.13275],[-42.86646,-20.13432],[-42.86813,-20.13675],[-42.8681,-20.13859],[-42.86738,-20.13991],[-42.86733,-20.14109],[-42.86971,-20.14475]]]},"properties":{"codigo":"316556005","name":"Sem-Peixe","population":1992,"households":1025,"areaKm2":102.9858,"density":19.3}},{"type":"Feature","geometry":{"type":"Polygon","coordinates":[[[-42.89415,-20.06358],[-42.89316,-20.0655],[-42.89247,-20.06626],[-42.89218,-20.06756],[-42.89077,-20.068],[-42.8889,-20.06754],[-42.88631,-20.0675],[-42.88445,-20.06791],[-42.88367,-20.06868],[-42.88279,-20.07088],[-42.88176,-20.07211],[-42.87996,-20.07271],[-42.87633,-20.07231],[-42.87549,-20.07191],[-42.87335,-20.07146],[-42.87162,-20.07057],[-42.86899,-20.06976],[-42.86868,-20.06928],[-42.86494,-20.06949],[-42.86285,-20.06915],[-42.86318,-20.07038],[-42.86426,-20.07114],[-42.86384,-20.0717],[-42.8617,-20.07256],[-42.85751,-20.07316],[-42.8557,-20.07306],[-42.85247,-20.07349],[-42.85162,-20.0734],[-42.85094,-20.07243],[-42.84896,-20.07138],[-42.84736,-20.0715],[-42.84616,-20.07249],[-42.84434,-20.07319],[-42.84343,-20.07463],[-42.84167,-20.07562],[-42.84126,-20.07765],[-42.84072,-20.07819],[-42.83731,-20.07806],[-42.8343,-20.07907],[-42.83324,-20.07812],[-42.8312,-20.07576],[-42.83065,-20.07488],[-42.83067,-20.07332],[-42.82947,-20.07253],[-42.82638,-20.07198],[-42.82528,-20.07223],[-42.82387,-20.07197],[-42.82193,-20.07218],[-42.82069,-20.07082],[-42.82009,-20.07118],[-42.81843,-20.07037],[-42.81706,-20.07052],[-42.81431,-20.07175],[-42.81378,-20.07305],[-42.81183,-20.07369],[-42.81121,-20.07359],[-42.81001,-20.07465],[-42.80914,-20.07501],[-42.80762,-20.07436],[-42.80504,-20.07556],[-42.80336,-20.07441],[-42.80253,-20.07345],[-42.80192,-20.07207],[-42.80255,-20.07002],[-42.80131,-20.06907],[-42.80014,-20.06893],[-42.7991,-20.06752],[-42.79787,-20.06719],[-42.79701,-20.06797],[-42.7978,-20.06947],[-42.7972,-20.07157],[-42.79637,-20.07167],[-42.7952,-20.07099],[-42.79455,-20.07021],[-42.79393,-20.07095],[-42.79217,-20.06912],[-42.79205,-20.07019],[-42.79138,-20.0705],[-42.78968,-20.07033],[-42.7894,-20.06958],[-42.78729,-20.07014],[-42.78657,-20.07067],[-42.78553,-20.07046],[-42.78595,-20.06941],[-42.78559,-20.06886],[-42.78413,-20.06965],[-42.78261,-20.06884],[-42.78217,-20.06686],[-42.7814,-20.06651],[-42.7803,-20.06668],[-42.78232,-20.06492],[-42.78438,-20.06246],[-42.78447,-20.06178],[-42.78307,-20.06115],[-42.77944,-20.06253],[-42.77597,-20.06291],[-42.77381,-20.06224],[-42.7715,-20.0607],[-42.7702,-20.05904],[-42.76958,-20.05718],[-42.77058,-20.05685],[-42.77236,-20.05767],[-42.77393,-20.05758],[-42.77457,-20.05672],[-42.77446,-20.05575],[-42.77348,-20.05453],[-42.77114,-20.05254],[-42.7689,-20.05179],[-42.76617,-20.0518],[-42.76363,-20.05211],[-42.75884,-20.05209],[-42.75689,-20.05178],[-42.75136,-20.05123],[-42.74974,-20.05191],[-42.74655,-20.05227],[-42.74418,-20.05116],[-42.74277,-20.0494],[-42.74201,-20.04729],[-42.74199,-20.04533],[-42.74296,-20.04071],[-42.7445,-20.03773],[-42.74585,-20.03279],[-42.74778,-20.02856],[-42.74887,-20.02709],[-42.75397,-20.024],[-42.75496,-20.02288],[-42.7553,-20.02187],[-42.75503,-20.02025],[-42.75679,-20.01937],[-42.75853,-20.0199],[-42.75944,-20.02068],[-42.76091,-20.02087],[-42.76223,-20.02023],[-42.76334,-20.02091],[-42.76469,-20.02013],[-42.76537,-20.01897],[-42.76533,-20.01792],[-42.76647,-20.01821],[-42.76615,-20.01514],[-42.76626,-20.01362],[-42.76736,-20.01228],[-42.76717,-20.01171],[-42.76569,-20.01177],[-42.76501,-20.01099],[-42.76565,-20.00821],[-42.76717,-20.00758],[-42.76763,-20.00858],[-42.76894,-20.00969],[-42.77106,-20.01011],[-42.77175,-20.01123],[-42.77214,-20.01348],[-42.77305,-20.01435],[-42.77465,-20.01466],[-42.77626,-20.01566],[-42.77813,-20.01832],[-42.77858,-20.02011],[-42.77992,-20.02367],[-42.78248,-20.02415],[-42.78364,-20.0254],[-42.78498,-20.02753],[-42.78693,-20.02898],[-42.78791,-20.02913],[-42.7891,-20.02853],[-42.79233,-20.02792],[-42.79323,-20.02706],[-42.79411,-20.02567],[-42.79572,-20.02413],[-42.79646,-20.02208],[-42.79727,-20.0212],[-42.79918,-20.01983],[-42.80044,-20.01957],[-42.80237,-20.02058],[-42.80396,-20.02106],[-42.80572,-20.02096],[-42.80697,-20.01974],[-42.80945,-20.01852],[-42.81146,-20.01803],[-42.81502,-20.01788],[-42.81778,-20.01697],[-42.81983,-20.0168],[-42.82143,-20.0157],[-42.82415,-20.01561],[-42.82587,-20.01745],[-42.82716,-20.01803],[-42.82812,-20.01806],[-42.8305,-20.01676],[-42.83209,-20.01541],[-42.83425,-20.01425],[-42.83609,-20.01378],[-42.83844,-20.01416],[-42.84046,-20.0156],[-42.84102,-20.01689],[-42.84032,-20.01934],[-42.84212,-20.02165],[-42.84482,-20.02163],[-42.84814,-20.01975],[-42.85003,-20.01975],[-42.85305,-20.02046],[-42.85438,-20.02054],[-42.85597,-20.02175],[-42.85856,-20.0231],[-42.85933,-20.02463],[-42.85943,-20.02695],[-42.85996,-20.02804],[-42.86169,-20.02948],[-42.8657,-20.03006],[-42.86796,-20.03123],[-42.86964,-20.03237],[-42.87374,-20.0366],[-42.87569,-20.03777],[-42.87677,-20.03785],[-42.87816,-20.03845],[-42.87963,-20.0413],[-42.87898,-20.04171],[-42.87756,-20.04105],[-42.87615,-20.04131],[-42.8753,-20.04285],[-42.87539,-20.04434],[-42.87598,-20.0465],[-42.87643,-20.04711],[-42.87999,-20.0479],[-42.88112,-20.0496],[-42.88313,-20.04974],[-42.88516,-20.05108],[-42.88562,-20.05105],[-42.88683,-20.0536],[-42.88865,-20.05443],[-42.88999,-20.05448],[-42.89258,-20.05384],[-42.89385,-20.05497],[-42.89408,-20.05695],[-42.89328,-20.06146],[-42.89415,-20.06358]]]},"properties":{"codigo":"316556030","name":"São Bartolomeu de Sem Peixe","population":441,"households":332,"areaKm2":73.6482,"density":6}}]}