{"type":"FeatureCollection","features":[{"type":"Feature","geometry":{"type":"Polygon","coordinates":[[[-43.26639,-20.80352],[-43.26712,-20.80034],[-43.26768,-20.79866],[-43.26784,-20.79718],[-43.26845,-20.79605],[-43.27066,-20.79509],[-43.2712,-20.79324],[-43.27356,-20.79284],[-43.27443,-20.79225],[-43.27533,-20.79004],[-43.27682,-20.78814],[-43.27818,-20.78675],[-43.2794,-20.78588],[-43.28009,-20.78487],[-43.28004,-20.78408],[-43.27845,-20.78411],[-43.27665,-20.78284],[-43.27875,-20.77983],[-43.27654,-20.77841],[-43.27521,-20.77828],[-43.27452,-20.77724],[-43.27496,-20.77635],[-43.27593,-20.77597],[-43.27868,-20.77419],[-43.27975,-20.77239],[-43.28,-20.76756],[-43.28082,-20.76695],[-43.28113,-20.7646],[-43.27984,-20.76334],[-43.28012,-20.76187],[-43.27988,-20.76111],[-43.27986,-20.75855],[-43.27877,-20.7565],[-43.27862,-20.75531],[-43.27723,-20.7537],[-43.27758,-20.75133],[-43.2784,-20.74871],[-43.28168,-20.74794],[-43.28472,-20.74425],[-43.28642,-20.74352],[-43.28843,-20.74216],[-43.29008,-20.74044],[-43.29078,-20.73888],[-43.29146,-20.73835],[-43.29283,-20.73846],[-43.2941,-20.74021],[-43.29565,-20.74007],[-43.29722,-20.74088],[-43.29905,-20.7426],[-43.2995,-20.74436],[-43.30052,-20.74469],[-43.30238,-20.74413],[-43.30334,-20.74461],[-43.30473,-20.7448],[-43.30759,-20.74579],[-43.30949,-20.74812],[-43.31013,-20.74855],[-43.31198,-20.75118],[-43.3129,-20.75292],[-43.31516,-20.75341],[-43.3171,-20.75499],[-43.31932,-20.75633],[-43.32253,-20.75631],[-43.32382,-20.75504],[-43.32379,-20.75289],[-43.32471,-20.74988],[-43.32539,-20.74926],[-43.32716,-20.74835],[-43.32726,-20.74741],[-43.32672,-20.74572],[-43.32717,-20.74446],[-43.32897,-20.74436],[-43.3302,-20.74489],[-43.33195,-20.74491],[-43.33335,-20.74466],[-43.33582,-20.74284],[-43.33887,-20.74229],[-43.3412,-20.74216],[-43.34341,-20.74061],[-43.34425,-20.74051],[-43.34708,-20.74097],[-43.34991,-20.74069],[-43.35207,-20.74109],[-43.35308,-20.74209],[-43.35532,-20.74193],[-43.35969,-20.74056],[-43.36204,-20.73889],[-43.36392,-20.73905],[-43.36498,-20.73889],[-43.36636,-20.73814],[-43.36745,-20.7381],[-43.36803,-20.73865],[-43.36826,-20.73985],[-43.36829,-20.74368],[-43.36792,-20.74464],[-43.36846,-20.74917],[-43.36918,-20.7505],[-43.37226,-20.75382],[-43.37323,-20.75425],[-43.37521,-20.75357],[-43.37462,-20.75575],[-43.37455,-20.75729],[-43.37486,-20.75873],[-43.37399,-20.7598],[-43.3718,-20.76049],[-43.37071,-20.76144],[-43.36896,-20.76441],[-43.36864,-20.76764],[-43.36865,-20.77046],[-43.37087,-20.77072],[-43.3718,-20.77114],[-43.37504,-20.77347],[-43.37644,-20.77315],[-43.37758,-20.77381],[-43.37854,-20.77381],[-43.38077,-20.77583],[-43.38168,-20.77758],[-43.38107,-20.77917],[-43.38092,-20.78046],[-43.38129,-20.78147],[-43.38089,-20.78238],[-43.38082,-20.78521],[-43.38119,-20.78622],[-43.38297,-20.78799],[-43.38297,-20.78964],[-43.38377,-20.79262],[-43.38343,-20.79453],[-43.38213,-20.79621],[-43.38096,-20.79877],[-43.38091,-20.80175],[-43.38318,-20.80181],[-43.38409,-20.80255],[-43.38847,-20.80185],[-43.3916,-20.80079],[-43.39433,-20.80046],[-43.39608,-20.79954],[-43.39815,-20.79901],[-43.40052,-20.79898],[-43.40379,-20.79615],[-43.40526,-20.79529],[-43.40606,-20.79329],[-43.40704,-20.79265],[-43.40941,-20.79229],[-43.41177,-20.79161],[-43.41261,-20.79186],[-43.4121,-20.79433],[-43.41326,-20.79706],[-43.41353,-20.79907],[-43.41415,-20.80042],[-43.41886,-20.80135],[-43.42021,-20.80215],[-43.42319,-20.80314],[-43.42495,-20.80341],[-43.42808,-20.80336],[-43.43023,-20.80413],[-43.43116,-20.8065],[-43.43083,-20.80773],[-43.4294,-20.80817],[-43.42814,-20.80923],[-43.4279,-20.81053],[-43.4286,-20.8123],[-43.42993,-20.81312],[-43.43126,-20.8131],[-43.43283,-20.81416],[-43.43286,-20.81539],[-43.43174,-20.81676],[-43.4329,-20.81753],[-43.43363,-20.81861],[-43.43307,-20.81967],[-43.43145,-20.8198],[-43.43008,-20.82048],[-43.42427,-20.82144],[-43.42374,-20.82193],[-43.42413,-20.82337],[-43.42512,-20.8237],[-43.42635,-20.826],[-43.42844,-20.82755],[-43.4284,-20.8288],[-43.42702,-20.82966],[-43.42552,-20.82952],[-43.42402,-20.82902],[-43.42287,-20.82906],[-43.42059,-20.82826],[-43.41922,-20.82828],[-43.4179,-20.8288],[-43.41562,-20.82874],[-43.41134,-20.82939],[-43.41059,-20.83001],[-43.41067,-20.83141],[-43.41183,-20.83382],[-43.4119,-20.83492],[-43.41065,-20.8363],[-43.40943,-20.83686],[-43.40791,-20.83873],[-43.40631,-20.83943],[-43.40462,-20.84155],[-43.402,-20.84286],[-43.40081,-20.84302],[-43.39928,-20.8437],[-43.39771,-20.84393],[-43.39607,-20.84478],[-43.39552,-20.84569],[-43.39517,-20.84778],[-43.3946,-20.84834],[-43.39316,-20.84886],[-43.39284,-20.84976],[-43.39022,-20.85419],[-43.38816,-20.85726],[-43.38719,-20.85759],[-43.3856,-20.85631],[-43.38431,-20.85608],[-43.38275,-20.85654],[-43.38065,-20.856],[-43.37961,-20.85603],[-43.37901,-20.85662],[-43.37766,-20.86001],[-43.37671,-20.85842],[-43.37561,-20.85771],[-43.3728,-20.8577],[-43.37141,-20.85724],[-43.37096,-20.85646],[-43.37244,-20.85475],[-43.37287,-20.85246],[-43.37336,-20.8515],[-43.373,-20.85053],[-43.37021,-20.84852],[-43.36882,-20.84553],[-43.36772,-20.84394],[-43.3662,-20.84268],[-43.36601,-20.84025],[-43.36397,-20.8372],[-43.36111,-20.83489],[-43.35986,-20.83363],[-43.36197,-20.82865],[-43.36173,-20.82748],[-43.36187,-20.82472],[-43.36055,-20.82393],[-43.3571,-20.82395],[-43.35506,-20.82382],[-43.35236,-20.82188],[-43.34976,-20.82132],[-43.34733,-20.82114],[-43.34426,-20.82006],[-43.34309,-20.81925],[-43.34205,-20.81757],[-43.3405,-20.81699],[-43.33932,-20.81807],[-43.33778,-20.81776],[-43.33602,-20.819],[-43.33504,-20.81935],[-43.33511,-20.82136],[-43.33551,-20.8221],[-43.33547,-20.82553],[-43.33574,-20.8261],[-43.33488,-20.82696],[-43.33302,-20.82732],[-43.33265,-20.82797],[-43.33085,-20.82856],[-43.32938,-20.82992],[-43.32945,-20.83116],[-43.32889,-20.83289],[-43.3273,-20.83457],[-43.32712,-20.8359],[-43.32502,-20.83715],[-43.32479,-20.83833],[-43.32386,-20.83901],[-43.32225,-20.84128],[-43.32129,-20.84192],[-43.32107,-20.84284],[-43.32018,-20.84308],[-43.31922,-20.84253],[-43.31684,-20.84325],[-43.31497,-20.84263],[-43.31434,-20.84494],[-43.31495,-20.84555],[-43.31341,-20.84717],[-43.31253,-20.84738],[-43.31172,-20.84917],[-43.31226,-20.85005],[-43.31203,-20.85127],[-43.31107,-20.85284],[-43.30999,-20.85238],[-43.30754,-20.85309],[-43.30513,-20.8531],[-43.303,-20.85382],[-43.30198,-20.85377],[-43.30029,-20.85279],[-43.2993,-20.85274],[-43.29688,-20.85182],[-43.29599,-20.85205],[-43.29516,-20.85335],[-43.2953,-20.85096],[-43.29605,-20.84772],[-43.2965,-20.84709],[-43.29805,-20.84617],[-43.30135,-20.84495],[-43.30397,-20.8451],[-43.3073,-20.84367],[-43.3085,-20.8425],[-43.30825,-20.84072],[-43.30649,-20.83882],[-43.30459,-20.83776],[-43.3041,-20.83649],[-43.30635,-20.83405],[-43.30636,-20.83331],[-43.30384,-20.82924],[-43.30358,-20.82857],[-43.30393,-20.82686],[-43.30348,-20.82623],[-43.30229,-20.82568],[-43.30158,-20.82494],[-43.30156,-20.82378],[-43.30352,-20.82224],[-43.30386,-20.82075],[-43.30369,-20.81981],[-43.3028,-20.81848],[-43.30012,-20.81703],[-43.29945,-20.81583],[-43.29793,-20.81573],[-43.29629,-20.81657],[-43.2947,-20.81524],[-43.29295,-20.8148],[-43.29175,-20.81409],[-43.28956,-20.81569],[-43.28773,-20.81651],[-43.28403,-20.8162],[-43.28323,-20.81576],[-43.2803,-20.81589],[-43.27983,-20.81573],[-43.28,-20.81278],[-43.27911,-20.81183],[-43.2772,-20.81194],[-43.27565,-20.8102],[-43.27551,-20.80972],[-43.27626,-20.80709],[-43.27599,-20.8062],[-43.27429,-20.80609],[-43.27312,-20.80573],[-43.27241,-20.80353],[-43.26904,-20.80323],[-43.26639,-20.80352]]]},"properties":{"codigo":"316600605","name":"Senhora de Oliveira","population":4375,"households":2242,"areaKm2":124.3114,"density":35.2}},{"type":"Feature","geometry":{"type":"Polygon","coordinates":[[[-43.31107,-20.85284],[-43.31203,-20.85127],[-43.31226,-20.85005],[-43.31172,-20.84917],[-43.31253,-20.84738],[-43.31341,-20.84717],[-43.31495,-20.84555],[-43.31434,-20.84494],[-43.31497,-20.84263],[-43.31684,-20.84325],[-43.31922,-20.84253],[-43.32018,-20.84308],[-43.32107,-20.84284],[-43.32129,-20.84192],[-43.32225,-20.84128],[-43.32386,-20.83901],[-43.32479,-20.83833],[-43.32502,-20.83715],[-43.32712,-20.8359],[-43.3273,-20.83457],[-43.32889,-20.83289],[-43.32945,-20.83116],[-43.32938,-20.82992],[-43.33085,-20.82856],[-43.33265,-20.82797],[-43.33302,-20.82732],[-43.33488,-20.82696],[-43.33574,-20.8261],[-43.33547,-20.82553],[-43.33551,-20.8221],[-43.33511,-20.82136],[-43.33504,-20.81935],[-43.33602,-20.819],[-43.33778,-20.81776],[-43.33932,-20.81807],[-43.3405,-20.81699],[-43.34205,-20.81757],[-43.34309,-20.81925],[-43.34426,-20.82006],[-43.34733,-20.82114],[-43.34976,-20.82132],[-43.35236,-20.82188],[-43.35506,-20.82382],[-43.3571,-20.82395],[-43.36055,-20.82393],[-43.36187,-20.82472],[-43.36173,-20.82748],[-43.36197,-20.82865],[-43.35986,-20.83363],[-43.36111,-20.83489],[-43.36397,-20.8372],[-43.36601,-20.84025],[-43.3662,-20.84268],[-43.36772,-20.84394],[-43.36882,-20.84553],[-43.37021,-20.84852],[-43.373,-20.85053],[-43.37336,-20.8515],[-43.37287,-20.85246],[-43.37244,-20.85475],[-43.37096,-20.85646],[-43.37141,-20.85724],[-43.3728,-20.8577],[-43.37561,-20.85771],[-43.37671,-20.85842],[-43.37766,-20.86001],[-43.37635,-20.8617],[-43.37635,-20.86377],[-43.37505,-20.86591],[-43.37292,-20.8672],[-43.37252,-20.86688],[-43.36906,-20.86614],[-43.36744,-20.86554],[-43.36601,-20.86457],[-43.36383,-20.86572],[-43.36316,-20.8657],[-43.36122,-20.86445],[-43.35983,-20.8643],[-43.3577,-20.86588],[-43.35448,-20.86677],[-43.3522,-20.86702],[-43.35011,-20.86762],[-43.34668,-20.86776],[-43.34556,-20.86702],[-43.34389,-20.86701],[-43.34203,-20.86784],[-43.34046,-20.86794],[-43.33853,-20.86718],[-43.33745,-20.86629],[-43.33591,-20.86572],[-43.3339,-20.86557],[-43.32895,-20.86597],[-43.32729,-20.86705],[-43.32583,-20.86743],[-43.32298,-20.8692],[-43.32242,-20.87004],[-43.32258,-20.87203],[-43.32391,-20.87451],[-43.32384,-20.87659],[-43.32296,-20.87738],[-43.3195,-20.87922],[-43.3185,-20.87956],[-43.31877,-20.87781],[-43.32,-20.8759],[-43.31953,-20.87261],[-43.31916,-20.87233],[-43.31731,-20.87242],[-43.31541,-20.87121],[-43.31439,-20.86968],[-43.31415,-20.86805],[-43.31414,-20.86599],[-43.31386,-20.86516],[-43.31257,-20.86356],[-43.3123,-20.86215],[-43.31322,-20.85963],[-43.31448,-20.85756],[-43.31512,-20.85609],[-43.31511,-20.855],[-43.31435,-20.85431],[-43.31107,-20.85284]]]},"properties":{"codigo":"316600610","name":"Santana de Piraguara","population":340,"households":214,"areaKm2":25.4091,"density":13.4}},{"type":"Feature","geometry":{"type":"Polygon","coordinates":[[[-43.41261,-20.79186],[-43.41177,-20.79161],[-43.40941,-20.79229],[-43.40704,-20.79265],[-43.40606,-20.79329],[-43.40526,-20.79529],[-43.40379,-20.79615],[-43.40052,-20.79898],[-43.39815,-20.79901],[-43.39608,-20.79954],[-43.39433,-20.80046],[-43.3916,-20.80079],[-43.38847,-20.80185],[-43.38409,-20.80255],[-43.38318,-20.80181],[-43.38091,-20.80175],[-43.38096,-20.79877],[-43.38213,-20.79621],[-43.38343,-20.79453],[-43.38377,-20.79262],[-43.38297,-20.78964],[-43.38297,-20.78799],[-43.38119,-20.78622],[-43.38082,-20.78521],[-43.38089,-20.78238],[-43.38129,-20.78147],[-43.38092,-20.78046],[-43.38107,-20.77917],[-43.38168,-20.77758],[-43.38077,-20.77583],[-43.37854,-20.77381],[-43.37758,-20.77381],[-43.37644,-20.77315],[-43.37504,-20.77347],[-43.3718,-20.77114],[-43.37087,-20.77072],[-43.36865,-20.77046],[-43.36864,-20.76764],[-43.36896,-20.76441],[-43.37071,-20.76144],[-43.3718,-20.76049],[-43.37399,-20.7598],[-43.37486,-20.75873],[-43.37455,-20.75729],[-43.37462,-20.75575],[-43.37521,-20.75357],[-43.37636,-20.75411],[-43.37855,-20.75407],[-43.38036,-20.75336],[-43.38104,-20.75202],[-43.38046,-20.75058],[-43.38087,-20.74925],[-43.38357,-20.74736],[-43.38413,-20.74595],[-43.38701,-20.74545],[-43.38943,-20.7458],[-43.39253,-20.74687],[-43.39351,-20.74692],[-43.39453,-20.74639],[-43.39582,-20.74639],[-43.39781,-20.74699],[-43.40022,-20.74607],[-43.40084,-20.74604],[-43.40251,-20.74807],[-43.40863,-20.7489],[-43.41104,-20.75056],[-43.40927,-20.75178],[-43.40771,-20.75223],[-43.40706,-20.75341],[-43.40678,-20.75546],[-43.40786,-20.75646],[-43.40945,-20.75668],[-43.4101,-20.75722],[-43.41112,-20.75902],[-43.41231,-20.75981],[-43.41346,-20.76004],[-43.415,-20.76079],[-43.41487,-20.76325],[-43.41442,-20.7639],[-43.41417,-20.76549],[-43.41465,-20.76649],[-43.41638,-20.76774],[-43.41811,-20.76842],[-43.41864,-20.76994],[-43.41988,-20.77239],[-43.41927,-20.77287],[-43.41741,-20.7734],[-43.41669,-20.77427],[-43.41409,-20.77549],[-43.41376,-20.77712],[-43.41415,-20.77854],[-43.41386,-20.7801],[-43.41328,-20.78116],[-43.41314,-20.78235],[-43.41445,-20.7848],[-43.41556,-20.78625],[-43.41553,-20.78714],[-43.41349,-20.78939],[-43.41261,-20.79186]]]},"properties":{"codigo":"316600615","name":"Prudentes","population":768,"households":306,"areaKm2":21.0284,"density":36.5}}]}