{"type":"FeatureCollection","features":[{"type":"Feature","geometry":{"type":"Polygon","coordinates":[[[-44.22449,-21.07474],[-44.22393,-21.07613],[-44.22432,-21.07825],[-44.2238,-21.08241],[-44.22284,-21.08534],[-44.2215,-21.086],[-44.21943,-21.08738],[-44.21764,-21.08816],[-44.21382,-21.08877],[-44.20824,-21.08879],[-44.20797,-21.09074],[-44.20674,-21.0928],[-44.20622,-21.09452],[-44.20701,-21.09686],[-44.2068,-21.09891],[-44.20573,-21.10012],[-44.20392,-21.10088],[-44.2034,-21.10189],[-44.20537,-21.10353],[-44.20624,-21.10574],[-44.2048,-21.10871],[-44.20551,-21.11017],[-44.20542,-21.11122],[-44.20388,-21.11302],[-44.20373,-21.11401],[-44.20468,-21.11546],[-44.20168,-21.11601],[-44.20027,-21.11558],[-44.19929,-21.11415],[-44.19884,-21.11591],[-44.19887,-21.11711],[-44.19952,-21.11968],[-44.19994,-21.12048],[-44.19981,-21.12276],[-44.19806,-21.12338],[-44.19739,-21.12303],[-44.19578,-21.1238],[-44.19419,-21.12264],[-44.19273,-21.12279],[-44.1921,-21.1232],[-44.19169,-21.12444],[-44.19142,-21.12701],[-44.19003,-21.12774],[-44.18559,-21.12733],[-44.18406,-21.12707],[-44.18173,-21.12843],[-44.18033,-21.12977],[-44.17909,-21.13137],[-44.1772,-21.13229],[-44.17488,-21.13226],[-44.17347,-21.13195],[-44.17252,-21.13123],[-44.17209,-21.13231],[-44.17114,-21.13244],[-44.1697,-21.13348],[-44.16887,-21.13317],[-44.16682,-21.13387],[-44.16527,-21.13375],[-44.16448,-21.13225],[-44.16302,-21.13284],[-44.16254,-21.13373],[-44.16295,-21.13471],[-44.16471,-21.13457],[-44.16513,-21.13521],[-44.16506,-21.13671],[-44.16391,-21.13605],[-44.16288,-21.13644],[-44.16339,-21.13848],[-44.16221,-21.13889],[-44.16061,-21.13868],[-44.15679,-21.13765],[-44.15381,-21.13749],[-44.15131,-21.13775],[-44.14939,-21.13833],[-44.14738,-21.13958],[-44.14611,-21.14058],[-44.14513,-21.14093],[-44.14394,-21.14002],[-44.14276,-21.13665],[-44.14164,-21.1365],[-44.14004,-21.13806],[-44.14061,-21.13471],[-44.14112,-21.13405],[-44.14138,-21.13245],[-44.14227,-21.13057],[-44.14258,-21.12849],[-44.14375,-21.12633],[-44.14495,-21.12592],[-44.1451,-21.12465],[-44.14702,-21.12319],[-44.14789,-21.12197],[-44.14779,-21.12102],[-44.14698,-21.12025],[-44.14649,-21.11871],[-44.14499,-21.11833],[-44.1445,-21.11756],[-44.1437,-21.11745],[-44.14147,-21.11891],[-44.14011,-21.11877],[-44.13854,-21.11805],[-44.13599,-21.11768],[-44.13583,-21.11671],[-44.13642,-21.11571],[-44.1361,-21.11466],[-44.13514,-21.11391],[-44.13524,-21.11301],[-44.13352,-21.1118],[-44.13219,-21.11181],[-44.13139,-21.11045],[-44.13052,-21.11132],[-44.12962,-21.11161],[-44.12832,-21.11119],[-44.12703,-21.1118],[-44.12634,-21.11412],[-44.1284,-21.11591],[-44.12803,-21.11711],[-44.12688,-21.11827],[-44.12428,-21.11709],[-44.12342,-21.11696],[-44.12189,-21.11733],[-44.12078,-21.11649],[-44.12184,-21.11477],[-44.12204,-21.11367],[-44.12202,-21.10987],[-44.12421,-21.10438],[-44.12446,-21.10284],[-44.12534,-21.10141],[-44.1287,-21.0972],[-44.13023,-21.09585],[-44.13113,-21.09465],[-44.13199,-21.09409],[-44.13278,-21.09457],[-44.13285,-21.09742],[-44.13313,-21.09782],[-44.13534,-21.09724],[-44.13854,-21.09682],[-44.14035,-21.09735],[-44.14156,-21.09736],[-44.14243,-21.09681],[-44.14311,-21.09558],[-44.14319,-21.0935],[-44.14419,-21.09168],[-44.14409,-21.09094],[-44.14299,-21.08975],[-44.14226,-21.08806],[-44.14155,-21.08731],[-44.14103,-21.08545],[-44.13993,-21.08303],[-44.13983,-21.07991],[-44.14044,-21.07675],[-44.14294,-21.07335],[-44.1462,-21.07355],[-44.14685,-21.07344],[-44.14908,-21.0741],[-44.15077,-21.07543],[-44.1529,-21.07666],[-44.15315,-21.0771],[-44.1566,-21.07841],[-44.16135,-21.08115],[-44.16341,-21.08318],[-44.16695,-21.08564],[-44.16927,-21.08683],[-44.17318,-21.09003],[-44.17542,-21.09145],[-44.17627,-21.0917],[-44.17804,-21.09297],[-44.18021,-21.09392],[-44.18182,-21.0938],[-44.18322,-21.09288],[-44.18353,-21.09184],[-44.18332,-21.09082],[-44.18228,-21.0894],[-44.18078,-21.08796],[-44.17975,-21.08755],[-44.17765,-21.08594],[-44.17432,-21.08298],[-44.17293,-21.08024],[-44.17284,-21.07782],[-44.17325,-21.07457],[-44.17277,-21.07319],[-44.17314,-21.07175],[-44.17643,-21.0689],[-44.17726,-21.0663],[-44.17801,-21.06621],[-44.1796,-21.06713],[-44.18112,-21.06695],[-44.18312,-21.06748],[-44.18551,-21.06835],[-44.18892,-21.0679],[-44.19255,-21.0679],[-44.1933,-21.06685],[-44.19414,-21.06649],[-44.19831,-21.066],[-44.19957,-21.06512],[-44.2002,-21.06176],[-44.20142,-21.06129],[-44.20363,-21.06087],[-44.20408,-21.05873],[-44.20333,-21.05551],[-44.20338,-21.05482],[-44.20484,-21.05451],[-44.20856,-21.05505],[-44.20934,-21.05483],[-44.21264,-21.05272],[-44.21444,-21.05242],[-44.2159,-21.05506],[-44.21602,-21.05702],[-44.21649,-21.0576],[-44.219,-21.05803],[-44.21945,-21.05853],[-44.21859,-21.05967],[-44.21871,-21.06038],[-44.21965,-21.06078],[-44.21823,-21.06188],[-44.21816,-21.063],[-44.21911,-21.06284],[-44.22048,-21.06384],[-44.22052,-21.06503],[-44.22143,-21.06678],[-44.22213,-21.06944],[-44.22226,-21.07137],[-44.22077,-21.07073],[-44.21985,-21.07102],[-44.21908,-21.07251],[-44.21775,-21.07405],[-44.21877,-21.07698],[-44.21983,-21.07782],[-44.22137,-21.07725],[-44.22261,-21.07757],[-44.22328,-21.07707],[-44.22323,-21.07542],[-44.22356,-21.07473],[-44.22449,-21.07474]]]},"properties":{"codigo":"316880405","name":"Tiradentes","population":7256,"households":4117,"areaKm2":51.2728,"density":141.5}},{"type":"Feature","geometry":{"type":"Polygon","coordinates":[[[-44.12078,-21.11649],[-44.12189,-21.11733],[-44.12342,-21.11696],[-44.12428,-21.11709],[-44.12688,-21.11827],[-44.12803,-21.11711],[-44.1284,-21.11591],[-44.12634,-21.11412],[-44.12703,-21.1118],[-44.12832,-21.11119],[-44.12962,-21.11161],[-44.13052,-21.11132],[-44.13139,-21.11045],[-44.13219,-21.11181],[-44.13352,-21.1118],[-44.13524,-21.11301],[-44.13514,-21.11391],[-44.1361,-21.11466],[-44.13642,-21.11571],[-44.13583,-21.11671],[-44.13599,-21.11768],[-44.13854,-21.11805],[-44.14011,-21.11877],[-44.14147,-21.11891],[-44.1437,-21.11745],[-44.1445,-21.11756],[-44.14499,-21.11833],[-44.14649,-21.11871],[-44.14698,-21.12025],[-44.14779,-21.12102],[-44.14789,-21.12197],[-44.14702,-21.12319],[-44.1451,-21.12465],[-44.14495,-21.12592],[-44.14375,-21.12633],[-44.14258,-21.12849],[-44.14227,-21.13057],[-44.14138,-21.13245],[-44.14112,-21.13405],[-44.14061,-21.13471],[-44.14004,-21.13806],[-44.13816,-21.13749],[-44.13724,-21.13789],[-44.13652,-21.13966],[-44.13578,-21.14077],[-44.13438,-21.14074],[-44.1333,-21.13933],[-44.13139,-21.13997],[-44.1306,-21.14135],[-44.12848,-21.14347],[-44.12681,-21.14695],[-44.12468,-21.15093],[-44.12364,-21.15128],[-44.12127,-21.15275],[-44.11828,-21.15302],[-44.11738,-21.15277],[-44.11421,-21.15041],[-44.11288,-21.14877],[-44.111,-21.14918],[-44.10999,-21.1486],[-44.10965,-21.15047],[-44.10857,-21.15124],[-44.1077,-21.15334],[-44.10697,-21.15361],[-44.10548,-21.15488],[-44.10388,-21.1553],[-44.103,-21.15519],[-44.10195,-21.15593],[-44.10098,-21.15602],[-44.09926,-21.15692],[-44.09763,-21.15807],[-44.09413,-21.15869],[-44.09305,-21.15725],[-44.0929,-21.15631],[-44.09491,-21.15236],[-44.09543,-21.15035],[-44.09431,-21.14852],[-44.09394,-21.14718],[-44.09436,-21.14398],[-44.09471,-21.14335],[-44.09622,-21.14266],[-44.09632,-21.14173],[-44.09496,-21.13954],[-44.0949,-21.13858],[-44.09539,-21.13761],[-44.09661,-21.13619],[-44.09844,-21.13236],[-44.09874,-21.13009],[-44.09728,-21.12807],[-44.09734,-21.12659],[-44.09874,-21.12552],[-44.09957,-21.12291],[-44.10063,-21.12058],[-44.10166,-21.11964],[-44.10518,-21.11917],[-44.10708,-21.11845],[-44.1093,-21.11649],[-44.10984,-21.11469],[-44.11076,-21.11485],[-44.11017,-21.11826],[-44.10959,-21.11909],[-44.10977,-21.11978],[-44.111,-21.12012],[-44.11075,-21.1221],[-44.11093,-21.12322],[-44.11305,-21.12227],[-44.11505,-21.12235],[-44.11541,-21.12184],[-44.11537,-21.12026],[-44.11574,-21.11959],[-44.11739,-21.11936],[-44.11881,-21.11999],[-44.11968,-21.11963],[-44.11966,-21.11853],[-44.11891,-21.11699],[-44.11922,-21.1165],[-44.12078,-21.11649]]]},"properties":{"codigo":"316880412","name":"Caixa D'Água da Esperança","population":154,"households":122,"areaKm2":16.6883,"density":9.2}},{"type":"Feature","geometry":{"type":"Polygon","coordinates":[[[-44.09413,-21.15869],[-44.09763,-21.15807],[-44.09926,-21.15692],[-44.10098,-21.15602],[-44.10195,-21.15593],[-44.103,-21.15519],[-44.10388,-21.1553],[-44.10548,-21.15488],[-44.10697,-21.15361],[-44.1077,-21.15334],[-44.10857,-21.15124],[-44.10965,-21.15047],[-44.10999,-21.1486],[-44.111,-21.14918],[-44.11288,-21.14877],[-44.11421,-21.15041],[-44.11738,-21.15277],[-44.11828,-21.15302],[-44.12127,-21.15275],[-44.12364,-21.15128],[-44.12468,-21.15093],[-44.12681,-21.14695],[-44.12848,-21.14347],[-44.1306,-21.14135],[-44.13139,-21.13997],[-44.1333,-21.13933],[-44.13438,-21.14074],[-44.13578,-21.14077],[-44.13652,-21.13966],[-44.13724,-21.13789],[-44.13816,-21.13749],[-44.14004,-21.13806],[-44.14164,-21.1365],[-44.14276,-21.13665],[-44.14394,-21.14002],[-44.14513,-21.14093],[-44.14611,-21.14058],[-44.14738,-21.13958],[-44.14939,-21.13833],[-44.15131,-21.13775],[-44.15381,-21.13749],[-44.15679,-21.13765],[-44.16061,-21.13868],[-44.16221,-21.13889],[-44.16263,-21.13996],[-44.16186,-21.14054],[-44.16212,-21.14203],[-44.16178,-21.14272],[-44.1618,-21.14422],[-44.16058,-21.14523],[-44.16018,-21.14454],[-44.15882,-21.14449],[-44.1587,-21.14551],[-44.1578,-21.14713],[-44.15662,-21.14625],[-44.15561,-21.14707],[-44.15515,-21.14806],[-44.15381,-21.1477],[-44.15204,-21.15038],[-44.15099,-21.15045],[-44.14965,-21.14969],[-44.14785,-21.14967],[-44.14633,-21.14937],[-44.14497,-21.14994],[-44.14407,-21.15207],[-44.14541,-21.15261],[-44.1466,-21.15256],[-44.14632,-21.15371],[-44.14434,-21.15413],[-44.14552,-21.15552],[-44.14425,-21.15647],[-44.14426,-21.15781],[-44.14272,-21.15915],[-44.14222,-21.15827],[-44.14116,-21.15867],[-44.1407,-21.16071],[-44.1385,-21.162],[-44.1373,-21.16199],[-44.13642,-21.16295],[-44.13582,-21.16432],[-44.13543,-21.16624],[-44.13542,-21.1675],[-44.13618,-21.16868],[-44.13485,-21.16894],[-44.13456,-21.16994],[-44.13646,-21.1703],[-44.13645,-21.17099],[-44.13368,-21.17134],[-44.13248,-21.17121],[-44.13237,-21.1726],[-44.13171,-21.1737],[-44.13111,-21.17214],[-44.12912,-21.17206],[-44.12992,-21.17343],[-44.12851,-21.17332],[-44.1273,-21.17433],[-44.12631,-21.17451],[-44.12682,-21.17565],[-44.12594,-21.17626],[-44.12534,-21.17585],[-44.12466,-21.17692],[-44.12285,-21.17673],[-44.12139,-21.17779],[-44.12136,-21.17877],[-44.11861,-21.17831],[-44.11593,-21.17846],[-44.11453,-21.17727],[-44.11388,-21.17549],[-44.11323,-21.17463],[-44.11195,-21.17377],[-44.11112,-21.17183],[-44.11027,-21.17137],[-44.10296,-21.17188],[-44.10076,-21.17219],[-44.09958,-21.17177],[-44.09809,-21.17047],[-44.09766,-21.16884],[-44.0962,-21.1669],[-44.0955,-21.16509],[-44.09241,-21.16346],[-44.09192,-21.16283],[-44.09239,-21.16096],[-44.09397,-21.16],[-44.09413,-21.15869]]]},"properties":{"codigo":"316880415","name":"Elvas","population":334,"households":287,"areaKm2":15.0865,"density":22.1}}]}