{"type":"FeatureCollection","features":[{"type":"Feature","geometry":{"type":"Polygon","coordinates":[[[-40.74768,-20.34464],[-40.74764,-20.34417],[-40.74531,-20.34321],[-40.74369,-20.34419],[-40.74264,-20.34379],[-40.74184,-20.34453],[-40.73838,-20.34447],[-40.73735,-20.34554],[-40.7349,-20.34656],[-40.73293,-20.34698],[-40.73217,-20.3484],[-40.73247,-20.35196],[-40.73406,-20.35318],[-40.73494,-20.35475],[-40.73488,-20.35724],[-40.73464,-20.35827],[-40.73582,-20.36036],[-40.73838,-20.36331],[-40.73902,-20.36532],[-40.73879,-20.36662],[-40.73609,-20.36969],[-40.73594,-20.37033],[-40.73661,-20.37366],[-40.73737,-20.37509],[-40.7388,-20.37557],[-40.73927,-20.3768],[-40.7415,-20.37991],[-40.74169,-20.38053],[-40.74111,-20.38167],[-40.73995,-20.38229],[-40.73949,-20.3831],[-40.73953,-20.38409],[-40.7404,-20.38539],[-40.73943,-20.38584],[-40.73774,-20.38586],[-40.73379,-20.38773],[-40.73205,-20.38905],[-40.72973,-20.38933],[-40.72647,-20.38764],[-40.72528,-20.38653],[-40.72358,-20.3867],[-40.72135,-20.38841],[-40.71916,-20.38709],[-40.71828,-20.38484],[-40.71727,-20.38417],[-40.71686,-20.3819],[-40.71707,-20.3809],[-40.71788,-20.37967],[-40.7171,-20.37867],[-40.715,-20.37895],[-40.71309,-20.37801],[-40.71205,-20.37721],[-40.70936,-20.3782],[-40.70838,-20.3809],[-40.70811,-20.38387],[-40.7069,-20.38622],[-40.70453,-20.3873],[-40.70348,-20.38744],[-40.70293,-20.38886],[-40.70208,-20.3896],[-40.69993,-20.38947],[-40.69683,-20.39007],[-40.69603,-20.38988],[-40.69488,-20.39057],[-40.69457,-20.39141],[-40.69295,-20.39289],[-40.69215,-20.39311],[-40.69001,-20.39303],[-40.6897,-20.39151],[-40.69052,-20.38914],[-40.68883,-20.38751],[-40.68745,-20.38786],[-40.68168,-20.388],[-40.68022,-20.38792],[-40.67919,-20.38846],[-40.67633,-20.38831],[-40.6751,-20.38751],[-40.67405,-20.38603],[-40.67331,-20.3859],[-40.6722,-20.38646],[-40.67086,-20.3864],[-40.6704,-20.38793],[-40.66886,-20.38871],[-40.66592,-20.38435],[-40.66473,-20.38394],[-40.66359,-20.38453],[-40.66234,-20.38465],[-40.65985,-20.38412],[-40.65807,-20.38425],[-40.65598,-20.38572],[-40.65505,-20.38596],[-40.65403,-20.38537],[-40.65292,-20.38524],[-40.65031,-20.38612],[-40.64918,-20.38566],[-40.64793,-20.38616],[-40.64697,-20.38616],[-40.64546,-20.38723],[-40.64392,-20.39136],[-40.64425,-20.39229],[-40.64559,-20.3929],[-40.64601,-20.39412],[-40.64496,-20.39587],[-40.64508,-20.39664],[-40.64593,-20.39732],[-40.64553,-20.39855],[-40.6468,-20.39959],[-40.64748,-20.40092],[-40.64709,-20.40158],[-40.64299,-20.40441],[-40.64175,-20.40578],[-40.64127,-20.40393],[-40.64048,-20.40258],[-40.63799,-20.40202],[-40.63638,-20.40303],[-40.63384,-20.40368],[-40.63271,-20.4036],[-40.63193,-20.40307],[-40.62968,-20.40302],[-40.62834,-20.40323],[-40.6274,-20.4027],[-40.62687,-20.40124],[-40.62497,-20.39972],[-40.62465,-20.3989],[-40.62799,-20.39711],[-40.63041,-20.39611],[-40.63151,-20.39545],[-40.63228,-20.39412],[-40.63337,-20.39045],[-40.6344,-20.38976],[-40.63559,-20.38768],[-40.63459,-20.38603],[-40.63513,-20.38329],[-40.63566,-20.38166],[-40.63559,-20.38049],[-40.6365,-20.37814],[-40.6372,-20.37579],[-40.6372,-20.37387],[-40.63776,-20.37274],[-40.63835,-20.37034],[-40.63896,-20.36927],[-40.63933,-20.36729],[-40.63983,-20.36606],[-40.63884,-20.36495],[-40.63949,-20.3627],[-40.63923,-20.36059],[-40.63958,-20.35931],[-40.64085,-20.35696],[-40.64167,-20.35612],[-40.64198,-20.35405],[-40.64176,-20.35317],[-40.6405,-20.35119],[-40.63858,-20.34966],[-40.63599,-20.34691],[-40.63499,-20.34507],[-40.63153,-20.34274],[-40.63073,-20.34036],[-40.62975,-20.33829],[-40.62897,-20.33767],[-40.62849,-20.3366],[-40.62963,-20.33515],[-40.63063,-20.33321],[-40.62971,-20.33164],[-40.62515,-20.33066],[-40.62402,-20.3286],[-40.62316,-20.32602],[-40.62248,-20.3249],[-40.62218,-20.32362],[-40.62264,-20.32278],[-40.62546,-20.32085],[-40.62548,-20.31827],[-40.62591,-20.31683],[-40.62853,-20.3151],[-40.62805,-20.31408],[-40.6262,-20.31295],[-40.62474,-20.31126],[-40.62452,-20.30936],[-40.62377,-20.30732],[-40.62285,-20.30608],[-40.62135,-20.30507],[-40.62051,-20.3042],[-40.61883,-20.30173],[-40.61774,-20.29903],[-40.6158,-20.29593],[-40.61507,-20.29289],[-40.61516,-20.29113],[-40.61427,-20.29046],[-40.61248,-20.29184],[-40.61024,-20.29233],[-40.60899,-20.292],[-40.60701,-20.29031],[-40.60471,-20.28996],[-40.60373,-20.29026],[-40.60124,-20.28887],[-40.59925,-20.29128],[-40.59998,-20.28684],[-40.60164,-20.28456],[-40.60405,-20.28302],[-40.60861,-20.28188],[-40.60896,-20.28144],[-40.6084,-20.27701],[-40.60916,-20.27337],[-40.61103,-20.2695],[-40.61171,-20.26776],[-40.61041,-20.26197],[-40.61032,-20.26],[-40.61051,-20.25868],[-40.61127,-20.25711],[-40.61151,-20.25594],[-40.6113,-20.25487],[-40.60964,-20.25228],[-40.61035,-20.2517],[-40.61073,-20.24914],[-40.61166,-20.24834],[-40.61397,-20.248],[-40.61401,-20.24737],[-40.61583,-20.24695],[-40.61667,-20.24598],[-40.61699,-20.24493],[-40.61589,-20.24418],[-40.61558,-20.24183],[-40.61609,-20.24136],[-40.61753,-20.24138],[-40.61975,-20.24079],[-40.62041,-20.24007],[-40.62198,-20.23972],[-40.62356,-20.238],[-40.62489,-20.23772],[-40.62639,-20.23671],[-40.62547,-20.23377],[-40.62578,-20.23194],[-40.6249,-20.2304],[-40.62477,-20.2288],[-40.62616,-20.22788],[-40.6265,-20.22702],[-40.62763,-20.22579],[-40.63004,-20.22594],[-40.63163,-20.22465],[-40.63372,-20.22376],[-40.63405,-20.22306],[-40.63402,-20.22161],[-40.63357,-20.21962],[-40.63294,-20.21873],[-40.63356,-20.21723],[-40.63385,-20.21588],[-40.63443,-20.21592],[-40.6359,-20.21816],[-40.63688,-20.2192],[-40.63777,-20.21907],[-40.6402,-20.21585],[-40.64099,-20.21582],[-40.64595,-20.21665],[-40.64689,-20.2161],[-40.64853,-20.21598],[-40.64935,-20.21648],[-40.65203,-20.21579],[-40.65444,-20.21806],[-40.65567,-20.21805],[-40.6566,-20.21671],[-40.65756,-20.21647],[-40.6592,-20.21682],[-40.66038,-20.21752],[-40.66098,-20.21842],[-40.66211,-20.21859],[-40.66451,-20.21763],[-40.66345,-20.21584],[-40.66337,-20.21499],[-40.66418,-20.21406],[-40.66349,-20.21326],[-40.66319,-20.21221],[-40.66387,-20.21084],[-40.6637,-20.21023],[-40.66177,-20.20886],[-40.66028,-20.2074],[-40.66022,-20.20672],[-40.66217,-20.20533],[-40.66453,-20.20504],[-40.66588,-20.20325],[-40.6668,-20.20317],[-40.66789,-20.20247],[-40.67071,-20.20219],[-40.67161,-20.20145],[-40.67173,-20.19908],[-40.67295,-20.19892],[-40.67458,-20.19559],[-40.6755,-20.19449],[-40.67842,-20.19357],[-40.67924,-20.19366],[-40.68057,-20.19158],[-40.68139,-20.18865],[-40.68304,-20.18902],[-40.6842,-20.18886],[-40.68565,-20.18803],[-40.68942,-20.18791],[-40.68713,-20.19204],[-40.68632,-20.19274],[-40.68496,-20.19311],[-40.68383,-20.19399],[-40.68224,-20.1934],[-40.68105,-20.19475],[-40.67748,-20.19529],[-40.67702,-20.19562],[-40.67597,-20.19741],[-40.67645,-20.19858],[-40.67651,-20.20224],[-40.67674,-20.20377],[-40.6765,-20.20572],[-40.67509,-20.20741],[-40.6748,-20.20866],[-40.67559,-20.21028],[-40.67512,-20.21281],[-40.67664,-20.21405],[-40.67754,-20.21424],[-40.67832,-20.21573],[-40.67785,-20.2175],[-40.67799,-20.21851],[-40.67718,-20.2192],[-40.67538,-20.21918],[-40.67497,-20.2204],[-40.67412,-20.22113],[-40.67331,-20.22322],[-40.67371,-20.22443],[-40.67346,-20.22577],[-40.67382,-20.22727],[-40.67514,-20.22841],[-40.67624,-20.23127],[-40.67642,-20.23232],[-40.67582,-20.23433],[-40.67485,-20.23498],[-40.67511,-20.23575],[-40.67615,-20.23671],[-40.67625,-20.23788],[-40.67544,-20.23874],[-40.67484,-20.24034],[-40.6742,-20.24071],[-40.6728,-20.2423],[-40.67312,-20.24376],[-40.67263,-20.24435],[-40.67181,-20.24747],[-40.67045,-20.24805],[-40.66998,-20.24907],[-40.66964,-20.25488],[-40.67021,-20.256],[-40.67133,-20.25656],[-40.6721,-20.25815],[-40.67417,-20.26011],[-40.67452,-20.2608],[-40.67418,-20.26292],[-40.67445,-20.26369],[-40.67427,-20.26721],[-40.67523,-20.26874],[-40.67389,-20.26983],[-40.67388,-20.2729],[-40.67299,-20.2738],[-40.67392,-20.2745],[-40.67325,-20.27539],[-40.67498,-20.27768],[-40.67472,-20.27864],[-40.67641,-20.28081],[-40.6771,-20.28132],[-40.67673,-20.28291],[-40.67692,-20.28424],[-40.67591,-20.28807],[-40.67666,-20.29013],[-40.67616,-20.29094],[-40.67623,-20.29189],[-40.6774,-20.29289],[-40.67808,-20.29625],[-40.67897,-20.29751],[-40.67795,-20.29845],[-40.67835,-20.2995],[-40.67951,-20.29977],[-40.68074,-20.29891],[-40.68109,-20.29788],[-40.68088,-20.29424],[-40.68233,-20.29285],[-40.68299,-20.29266],[-40.68488,-20.29345],[-40.68596,-20.29421],[-40.68576,-20.29554],[-40.68489,-20.2965],[-40.68589,-20.2973],[-40.68799,-20.29769],[-40.69018,-20.29759],[-40.69132,-20.29812],[-40.69578,-20.2986],[-40.69631,-20.30001],[-40.69723,-20.30007],[-40.69853,-20.29771],[-40.6983,-20.29573],[-40.69924,-20.29351],[-40.70102,-20.29167],[-40.7031,-20.2902],[-40.70523,-20.29052],[-40.70672,-20.28949],[-40.70773,-20.28847],[-40.70961,-20.28556],[-40.71174,-20.28469],[-40.71229,-20.28416],[-40.71232,-20.28246],[-40.71081,-20.28027],[-40.71118,-20.27889],[-40.71204,-20.27856],[-40.71447,-20.27981],[-40.71692,-20.28003],[-40.71682,-20.2793],[-40.71522,-20.27729],[-40.71471,-20.27631],[-40.71434,-20.27364],[-40.71476,-20.27271],[-40.71621,-20.27229],[-40.71739,-20.27258],[-40.71892,-20.27487],[-40.72017,-20.27571],[-40.72275,-20.27473],[-40.72434,-20.2714],[-40.72344,-20.27088],[-40.72168,-20.27074],[-40.71988,-20.269],[-40.7197,-20.26783],[-40.72031,-20.26527],[-40.72264,-20.2649],[-40.72321,-20.26563],[-40.72458,-20.26622],[-40.72547,-20.26504],[-40.72602,-20.26594],[-40.72633,-20.26736],[-40.72826,-20.26758],[-40.73053,-20.26727],[-40.73241,-20.26853],[-40.73378,-20.26892],[-40.73552,-20.2672],[-40.73649,-20.26754],[-40.73715,-20.26883],[-40.7384,-20.26995],[-40.73928,-20.27131],[-40.7413,-20.27046],[-40.74219,-20.26973],[-40.74367,-20.26769],[-40.74574,-20.26672],[-40.74698,-20.26695],[-40.74834,-20.26568],[-40.75025,-20.26445],[-40.75126,-20.26494],[-40.75145,-20.26603],[-40.75017,-20.26657],[-40.75018,-20.26726],[-40.75138,-20.26781],[-40.75343,-20.26915],[-40.75601,-20.26981],[-40.75754,-20.26854],[-40.76073,-20.26857],[-40.76138,-20.26897],[-40.76286,-20.27081],[-40.76446,-20.27201],[-40.76533,-20.27178],[-40.76698,-20.27015],[-40.76985,-20.26995],[-40.77076,-20.26863],[-40.77142,-20.26644],[-40.77197,-20.26603],[-40.77345,-20.26832],[-40.77498,-20.26901],[-40.77672,-20.27057],[-40.77751,-20.27226],[-40.77643,-20.27375],[-40.77765,-20.27528],[-40.77932,-20.27562],[-40.78062,-20.2767],[-40.78099,-20.27745],[-40.78085,-20.28044],[-40.78211,-20.28185],[-40.78399,-20.28274],[-40.78435,-20.28387],[-40.78681,-20.28788],[-40.78564,-20.28854],[-40.7866,-20.28949],[-40.78719,-20.28928],[-40.78785,-20.29221],[-40.78847,-20.2926],[-40.78854,-20.29376],[-40.78793,-20.29527],[-40.78689,-20.29588],[-40.78691,-20.297],[-40.78392,-20.29832],[-40.78213,-20.29879],[-40.78079,-20.30023],[-40.77858,-20.30063],[-40.77736,-20.30138],[-40.77697,-20.30262],[-40.7769,-20.30518],[-40.77791,-20.30828],[-40.77894,-20.31027],[-40.77837,-20.31279],[-40.77731,-20.31285],[-40.77547,-20.31194],[-40.77344,-20.31049],[-40.77258,-20.31012],[-40.76937,-20.31167],[-40.76745,-20.31314],[-40.76521,-20.3152],[-40.76383,-20.3174],[-40.76334,-20.31902],[-40.76295,-20.32233],[-40.76216,-20.32338],[-40.75961,-20.32483],[-40.75843,-20.32506],[-40.75583,-20.32646],[-40.75423,-20.32781],[-40.75424,-20.3288],[-40.75486,-20.33172],[-40.75669,-20.33384],[-40.75785,-20.33575],[-40.75791,-20.33689],[-40.75727,-20.33813],[-40.75548,-20.34038],[-40.75408,-20.34139],[-40.7497,-20.34331],[-40.74768,-20.34464]]]},"properties":{"codigo":"320190205","name":"Domingos Martins","population":10252,"households":5832,"areaKm2":208.8423,"density":49.1}},{"type":"Feature","geometry":{"type":"Polygon","coordinates":[[[-41.12548,-20.2658],[-41.12579,-20.26567],[-41.12824,-20.26746],[-41.12919,-20.26889],[-41.1293,-20.27113],[-41.12961,-20.27297],[-41.13036,-20.27546],[-41.13158,-20.27754],[-41.13166,-20.28013],[-41.13252,-20.28403],[-41.13519,-20.28548],[-41.13566,-20.28662],[-41.13666,-20.28768],[-41.13679,-20.28939],[-41.13453,-20.29257],[-41.13365,-20.29293],[-41.13171,-20.29281],[-41.13076,-20.29436],[-41.12898,-20.29516],[-41.12276,-20.29478],[-41.11993,-20.29599],[-41.1187,-20.29672],[-41.11698,-20.29632],[-41.11511,-20.29666],[-41.11447,-20.29716],[-41.11194,-20.29749],[-41.11116,-20.29866],[-41.10956,-20.29905],[-41.10875,-20.30157],[-41.10794,-20.30211],[-41.10573,-20.30301],[-41.10489,-20.30422],[-41.10417,-20.30806],[-41.10471,-20.30973],[-41.10479,-20.31151],[-41.10545,-20.31197],[-41.10536,-20.3134],[-41.1036,-20.31529],[-41.10374,-20.31663],[-41.10324,-20.31738],[-41.10366,-20.31965],[-41.1047,-20.32154],[-41.10489,-20.3225],[-41.10062,-20.32488],[-41.09818,-20.32648],[-41.0976,-20.32725],[-41.09743,-20.32866],[-41.09503,-20.33026],[-41.09385,-20.33363],[-41.09302,-20.33415],[-41.09301,-20.33617],[-41.09352,-20.33694],[-41.0959,-20.33774],[-41.09676,-20.33846],[-41.09685,-20.34],[-41.09845,-20.34046],[-41.09928,-20.34199],[-41.09843,-20.34402],[-41.09626,-20.3457],[-41.09491,-20.34641],[-41.09284,-20.34833],[-41.09081,-20.34984],[-41.08975,-20.35018],[-41.08788,-20.35161],[-41.08718,-20.35296],[-41.08781,-20.35482],[-41.08888,-20.35527],[-41.08977,-20.35721],[-41.08911,-20.35898],[-41.08921,-20.35995],[-41.09023,-20.36042],[-41.08988,-20.36205],[-41.09023,-20.36419],[-41.09004,-20.3651],[-41.09091,-20.36793],[-41.09109,-20.36878],[-41.09028,-20.36967],[-41.08989,-20.37076],[-41.09102,-20.37208],[-41.09153,-20.37411],[-41.09136,-20.37494],[-41.09052,-20.37558],[-41.09092,-20.37695],[-41.09233,-20.37943],[-41.09249,-20.3803],[-41.09098,-20.38115],[-41.0883,-20.38069],[-41.08781,-20.38086],[-41.08674,-20.38281],[-41.08454,-20.38365],[-41.0819,-20.38369],[-41.08033,-20.38339],[-41.07842,-20.38357],[-41.07752,-20.38467],[-41.0775,-20.38546],[-41.07569,-20.38701],[-41.07375,-20.38748],[-41.07303,-20.38792],[-41.07145,-20.38988],[-41.07158,-20.39073],[-41.07261,-20.39187],[-41.07109,-20.39413],[-41.07041,-20.39548],[-41.07083,-20.39728],[-41.07196,-20.39805],[-41.07262,-20.39934],[-41.07429,-20.40004],[-41.07491,-20.40261],[-41.07489,-20.40374],[-41.07436,-20.40507],[-41.07197,-20.40559],[-41.07054,-20.40614],[-41.06764,-20.40781],[-41.06759,-20.40842],[-41.06378,-20.41],[-41.06349,-20.41059],[-41.0644,-20.41307],[-41.06394,-20.41535],[-41.06425,-20.41661],[-41.06494,-20.41744],[-41.06671,-20.42193],[-41.06384,-20.42216],[-41.06331,-20.42238],[-41.06197,-20.4219],[-41.06108,-20.42238],[-41.05998,-20.42386],[-41.06037,-20.42545],[-41.05916,-20.42582],[-41.05756,-20.42804],[-41.05754,-20.42894],[-41.05826,-20.43061],[-41.05748,-20.43199],[-41.05593,-20.43278],[-41.05476,-20.43453],[-41.05359,-20.43583],[-41.05311,-20.43798],[-41.05234,-20.43929],[-41.05243,-20.44095],[-41.052,-20.445],[-41.05271,-20.44775],[-41.05095,-20.44862],[-41.04978,-20.45052],[-41.05017,-20.45174],[-41.05123,-20.4521],[-41.05142,-20.45289],[-41.04973,-20.4539],[-41.04861,-20.45513],[-41.04705,-20.45579],[-41.04564,-20.45705],[-41.0458,-20.45856],[-41.04664,-20.45905],[-41.04722,-20.46077],[-41.04782,-20.46089],[-41.05074,-20.46049],[-41.05162,-20.45963],[-41.05284,-20.45991],[-41.05313,-20.46191],[-41.05283,-20.46378],[-41.05338,-20.46536],[-41.05538,-20.46684],[-41.0562,-20.46854],[-41.05621,-20.46917],[-41.05467,-20.47005],[-41.05454,-20.47152],[-41.0535,-20.47225],[-41.05388,-20.47292],[-41.05203,-20.47416],[-41.05236,-20.47526],[-41.05134,-20.47721],[-41.05103,-20.4796],[-41.05125,-20.48054],[-41.05038,-20.48107],[-41.04793,-20.47974],[-41.04727,-20.47757],[-41.04627,-20.47668],[-41.04463,-20.47707],[-41.04401,-20.47933],[-41.04264,-20.48119],[-41.04163,-20.4817],[-41.03947,-20.48379],[-41.03857,-20.48397],[-41.03678,-20.48311],[-41.03458,-20.48322],[-41.03303,-20.48287],[-41.02921,-20.48279],[-41.02837,-20.48442],[-41.02669,-20.48424],[-41.02563,-20.48372],[-41.02278,-20.48369],[-41.02166,-20.48328],[-41.02013,-20.48373],[-41.01855,-20.4835],[-41.01805,-20.48287],[-41.01827,-20.48156],[-41.01949,-20.47958],[-41.01939,-20.47801],[-41.01655,-20.47711],[-41.01568,-20.47566],[-41.0147,-20.47496],[-41.01205,-20.47445],[-41.01044,-20.47371],[-41.01016,-20.47325],[-41.00788,-20.47207],[-41.00674,-20.47119],[-41.005,-20.47048],[-41.0042,-20.46823],[-41.00583,-20.46721],[-41.00629,-20.46568],[-41.0065,-20.46326],[-41.00921,-20.46052],[-41.01065,-20.45803],[-41.01047,-20.45655],[-41.00887,-20.45501],[-41.00858,-20.45286],[-41.00744,-20.45049],[-41.00776,-20.44937],[-41.00792,-20.44703],[-41.00764,-20.4458],[-41.00779,-20.444],[-41.00859,-20.44244],[-41.00841,-20.4407],[-41.00902,-20.43927],[-41.0093,-20.43747],[-41.01011,-20.43564],[-41.01038,-20.43376],[-41.00822,-20.43303],[-41.00656,-20.4317],[-41.00629,-20.431],[-41.00445,-20.42962],[-41.00257,-20.42746],[-41.00179,-20.42622],[-41.00026,-20.42592],[-40.99873,-20.42631],[-40.99508,-20.42791],[-40.9932,-20.4293],[-40.99197,-20.43067],[-40.98961,-20.43088],[-40.98864,-20.43207],[-40.98824,-20.43322],[-40.98803,-20.43525],[-40.98811,-20.43684],[-40.98671,-20.43502],[-40.98319,-20.43431],[-40.98146,-20.43423],[-40.9798,-20.43385],[-40.97614,-20.43468],[-40.97474,-20.43613],[-40.97213,-20.43647],[-40.97045,-20.43617],[-40.96866,-20.43537],[-40.96743,-20.43454],[-40.96583,-20.43554],[-40.96402,-20.43491],[-40.96317,-20.43526],[-40.96271,-20.43411],[-40.96319,-20.43244],[-40.96282,-20.43074],[-40.96166,-20.43001],[-40.96028,-20.43027],[-40.95927,-20.4316],[-40.95922,-20.43275],[-40.95519,-20.43574],[-40.95378,-20.4365],[-40.95294,-20.43631],[-40.95223,-20.43554],[-40.95108,-20.43536],[-40.94855,-20.43563],[-40.9483,-20.43588],[-40.94773,-20.43918],[-40.94568,-20.44011],[-40.94423,-20.43843],[-40.94109,-20.43971],[-40.9403,-20.43905],[-40.94,-20.43773],[-40.93904,-20.4375],[-40.93782,-20.43634],[-40.93679,-20.43672],[-40.93562,-20.43642],[-40.93399,-20.43671],[-40.93296,-20.4364],[-40.92998,-20.43685],[-40.92913,-20.43757],[-40.92748,-20.44044],[-40.92755,-20.44235],[-40.92636,-20.44189],[-40.92505,-20.4424],[-40.92378,-20.44197],[-40.92193,-20.44217],[-40.92081,-20.44196],[-40.91934,-20.44274],[-40.91819,-20.44403],[-40.9193,-20.44532],[-40.91941,-20.44725],[-40.91847,-20.44736],[-40.91529,-20.44676],[-40.9139,-20.44575],[-40.91268,-20.44426],[-40.91206,-20.44084],[-40.90981,-20.43951],[-40.90837,-20.43778],[-40.90713,-20.43739],[-40.90719,-20.43588],[-40.90871,-20.43413],[-40.90909,-20.43297],[-40.90831,-20.43154],[-40.90762,-20.431],[-40.90761,-20.43018],[-40.90616,-20.42918],[-40.90541,-20.4269],[-40.90437,-20.42537],[-40.90299,-20.4249],[-40.9023,-20.42329],[-40.90258,-20.42249],[-40.90206,-20.42161],[-40.90048,-20.42016],[-40.90035,-20.41821],[-40.89933,-20.4168],[-40.89902,-20.41519],[-40.9015,-20.41578],[-40.90251,-20.41421],[-40.90341,-20.41345],[-40.90365,-20.41228],[-40.90386,-20.40852],[-40.90309,-20.40368],[-40.90458,-20.39923],[-40.90435,-20.39834],[-40.90201,-20.39721],[-40.90012,-20.39546],[-40.89923,-20.39078],[-40.89918,-20.38935],[-40.89944,-20.38577],[-40.89924,-20.38402],[-40.89968,-20.38037],[-40.90016,-20.37814],[-40.90098,-20.37687],[-40.90153,-20.37385],[-40.90147,-20.37068],[-40.90225,-20.36965],[-40.90572,-20.36858],[-40.90762,-20.36817],[-40.90981,-20.36927],[-40.91072,-20.36944],[-40.9118,-20.36881],[-40.91188,-20.36739],[-40.91299,-20.36676],[-40.91399,-20.36493],[-40.91574,-20.36317],[-40.91731,-20.35947],[-40.9202,-20.35838],[-40.92016,-20.35665],[-40.92054,-20.35497],[-40.92038,-20.35425],[-40.92123,-20.35229],[-40.92093,-20.35036],[-40.92426,-20.34618],[-40.92432,-20.3457],[-40.92325,-20.34299],[-40.92306,-20.34207],[-40.92189,-20.34123],[-40.92216,-20.33951],[-40.92316,-20.33854],[-40.92294,-20.33689],[-40.92398,-20.3354],[-40.92253,-20.33248],[-40.92128,-20.33122],[-40.91984,-20.33081],[-40.92446,-20.32857],[-40.92712,-20.32679],[-40.92824,-20.32536],[-40.92921,-20.32463],[-40.92969,-20.32233],[-40.92865,-20.32012],[-40.93038,-20.31806],[-40.92989,-20.31663],[-40.92987,-20.31509],[-40.93097,-20.31306],[-40.93263,-20.31357],[-40.93519,-20.31269],[-40.93909,-20.3153],[-40.9408,-20.31593],[-40.94356,-20.3135],[-40.94448,-20.31175],[-40.94465,-20.31065],[-40.94573,-20.3085],[-40.94666,-20.30736],[-40.94765,-20.30553],[-40.9472,-20.30461],[-40.94525,-20.30335],[-40.94276,-20.30143],[-40.94231,-20.30044],[-40.93989,-20.29675],[-40.93704,-20.29627],[-40.93521,-20.29681],[-40.93349,-20.29705],[-40.93279,-20.29562],[-40.93269,-20.29353],[-40.9317,-20.29164],[-40.93147,-20.29041],[-40.93219,-20.29006],[-40.93347,-20.29107],[-40.93478,-20.29113],[-40.93574,-20.29158],[-40.93733,-20.2907],[-40.93841,-20.29045],[-40.9389,-20.28853],[-40.94032,-20.28771],[-40.94142,-20.28856],[-40.94539,-20.29026],[-40.94783,-20.28973],[-40.95015,-20.28991],[-40.95296,-20.29081],[-40.95473,-20.29197],[-40.95604,-20.29192],[-40.95657,-20.28839],[-40.95687,-20.28778],[-40.9594,-20.2868],[-40.96109,-20.28592],[-40.96227,-20.28481],[-40.96202,-20.28336],[-40.96218,-20.28168],[-40.96339,-20.27962],[-40.9627,-20.27889],[-40.96391,-20.27706],[-40.96342,-20.27505],[-40.96341,-20.2728],[-40.9627,-20.27117],[-40.96471,-20.2694],[-40.9657,-20.26882],[-40.96655,-20.26751],[-40.96663,-20.26539],[-40.96607,-20.26403],[-40.96523,-20.26322],[-40.96472,-20.26153],[-40.96557,-20.26005],[-40.96573,-20.25448],[-40.96595,-20.25171],[-40.96671,-20.25105],[-40.96663,-20.24973],[-40.96746,-20.24856],[-40.96871,-20.24752],[-40.96972,-20.24547],[-40.97144,-20.24384],[-40.97225,-20.24222],[-40.9722,-20.24116],[-40.97124,-20.24008],[-40.97085,-20.2387],[-40.96849,-20.23609],[-40.96686,-20.23451],[-40.96411,-20.23465],[-40.96287,-20.23442],[-40.96225,-20.23368],[-40.96234,-20.23241],[-40.96282,-20.2317],[-40.96409,-20.23213],[-40.96707,-20.23275],[-40.96849,-20.23277],[-40.97157,-20.23165],[-40.97282,-20.23003],[-40.97182,-20.22826],[-40.97112,-20.2263],[-40.97307,-20.22546],[-40.97415,-20.22469],[-40.97443,-20.22366],[-40.9746,-20.22072],[-40.97731,-20.22093],[-40.97833,-20.22175],[-40.98062,-20.22618],[-40.98066,-20.22744],[-40.98227,-20.22728],[-40.98447,-20.2263],[-40.98484,-20.22583],[-40.98417,-20.22446],[-40.98462,-20.22301],[-40.98585,-20.22272],[-40.98721,-20.22088],[-40.98757,-20.219],[-40.98728,-20.21729],[-40.98815,-20.21678],[-40.99006,-20.21661],[-40.99062,-20.21794],[-40.99225,-20.21994],[-40.99287,-20.21997],[-40.99425,-20.21869],[-40.99649,-20.21801],[-40.99716,-20.21689],[-40.99908,-20.21527],[-40.99978,-20.21563],[-41.00054,-20.21506],[-41.00266,-20.21444],[-41.00385,-20.2139],[-41.00519,-20.2137],[-41.00552,-20.21231],[-41.00637,-20.21229],[-41.00854,-20.21289],[-41.01152,-20.21203],[-41.01239,-20.21151],[-41.01365,-20.21177],[-41.01508,-20.21249],[-41.01808,-20.21253],[-41.02043,-20.21334],[-41.02208,-20.21241],[-41.02322,-20.21223],[-41.02578,-20.21245],[-41.02604,-20.21337],[-41.027,-20.21451],[-41.02662,-20.21638],[-41.02509,-20.21801],[-41.02449,-20.21973],[-41.02397,-20.22001],[-41.02387,-20.22187],[-41.0248,-20.22306],[-41.0263,-20.22347],[-41.02624,-20.22479],[-41.02749,-20.22589],[-41.02817,-20.2271],[-41.0268,-20.22839],[-41.02611,-20.22941],[-41.02594,-20.23098],[-41.03028,-20.23115],[-41.03123,-20.2304],[-41.03203,-20.22924],[-41.03285,-20.22933],[-41.03374,-20.2288],[-41.03454,-20.22895],[-41.03657,-20.22763],[-41.03745,-20.22736],[-41.03898,-20.22911],[-41.03949,-20.22908],[-41.04129,-20.23044],[-41.04312,-20.23212],[-41.04424,-20.23242],[-41.04448,-20.23359],[-41.04393,-20.23503],[-41.04418,-20.23554],[-41.04606,-20.23594],[-41.049,-20.23551],[-41.04995,-20.23604],[-41.05103,-20.23594],[-41.05194,-20.23503],[-41.05297,-20.2354],[-41.05706,-20.23229],[-41.05733,-20.23021],[-41.05745,-20.22679],[-41.05831,-20.22435],[-41.05918,-20.22348],[-41.05927,-20.2228],[-41.05862,-20.2219],[-41.0602,-20.22031],[-41.06182,-20.21968],[-41.06498,-20.21953],[-41.06633,-20.22013],[-41.06715,-20.22003],[-41.06827,-20.22098],[-41.06949,-20.22205],[-41.06805,-20.22351],[-41.06696,-20.22612],[-41.06765,-20.22721],[-41.06771,-20.22853],[-41.06902,-20.23016],[-41.06869,-20.23099],[-41.06659,-20.23272],[-41.06623,-20.23448],[-41.06678,-20.23545],[-41.06824,-20.23619],[-41.06919,-20.23737],[-41.06938,-20.23855],[-41.06902,-20.23943],[-41.06925,-20.24076],[-41.06906,-20.24305],[-41.06854,-20.2439],[-41.06872,-20.24504],[-41.07029,-20.24613],[-41.07018,-20.24852],[-41.07075,-20.25041],[-41.07209,-20.25151],[-41.07475,-20.25208],[-41.07638,-20.2529],[-41.07896,-20.25496],[-41.07978,-20.25675],[-41.07954,-20.25902],[-41.08004,-20.26072],[-41.08084,-20.26249],[-41.08258,-20.26306],[-41.08358,-20.26428],[-41.08655,-20.26695],[-41.08975,-20.26632],[-41.09076,-20.26706],[-41.09073,-20.26861],[-41.09317,-20.26906],[-41.09471,-20.26791],[-41.09667,-20.26759],[-41.09797,-20.26699],[-41.09828,-20.26629],[-41.09968,-20.2659],[-41.10075,-20.26788],[-41.10078,-20.26938],[-41.09961,-20.27],[-41.09994,-20.27135],[-41.10127,-20.2719],[-41.10157,-20.27434],[-41.10294,-20.27514],[-41.10434,-20.27467],[-41.10519,-20.27335],[-41.10521,-20.27268],[-41.10806,-20.27234],[-41.10873,-20.27187],[-41.10872,-20.27092],[-41.11074,-20.2696],[-41.11327,-20.26939],[-41.11385,-20.2674],[-41.11588,-20.26633],[-41.11748,-20.26663],[-41.11951,-20.26862],[-41.12126,-20.26876],[-41.12316,-20.26829],[-41.12421,-20.26618],[-41.12548,-20.2658]]]},"properties":{"codigo":"320190210","name":"Aracê","population":8731,"households":4954,"areaKm2":409.0635,"density":21.3}},{"type":"Feature","geometry":{"type":"Polygon","coordinates":[[[-40.59459,-20.24529],[-40.59606,-20.24346],[-40.59704,-20.24338],[-40.59844,-20.24479],[-40.59926,-20.24525],[-40.60136,-20.24715],[-40.6027,-20.24812],[-40.60453,-20.24838],[-40.60595,-20.25041],[-40.60787,-20.25095],[-40.60836,-20.25202],[-40.60964,-20.25228],[-40.6113,-20.25487],[-40.61151,-20.25594],[-40.61127,-20.25711],[-40.61051,-20.25868],[-40.61032,-20.26],[-40.61041,-20.26197],[-40.61171,-20.26776],[-40.61103,-20.2695],[-40.60916,-20.27337],[-40.6084,-20.27701],[-40.60896,-20.28144],[-40.60861,-20.28188],[-40.60405,-20.28302],[-40.60164,-20.28456],[-40.59998,-20.28684],[-40.59925,-20.29128],[-40.60124,-20.28887],[-40.60373,-20.29026],[-40.60471,-20.28996],[-40.60701,-20.29031],[-40.60899,-20.292],[-40.61024,-20.29233],[-40.61248,-20.29184],[-40.61427,-20.29046],[-40.61516,-20.29113],[-40.61507,-20.29289],[-40.6158,-20.29593],[-40.61774,-20.29903],[-40.61883,-20.30173],[-40.62051,-20.3042],[-40.62135,-20.30507],[-40.62285,-20.30608],[-40.62377,-20.30732],[-40.62452,-20.30936],[-40.62474,-20.31126],[-40.6262,-20.31295],[-40.62805,-20.31408],[-40.62853,-20.3151],[-40.62591,-20.31683],[-40.62548,-20.31827],[-40.62546,-20.32085],[-40.62264,-20.32278],[-40.62218,-20.32362],[-40.62248,-20.3249],[-40.62316,-20.32602],[-40.62402,-20.3286],[-40.62515,-20.33066],[-40.62971,-20.33164],[-40.63063,-20.33321],[-40.62963,-20.33515],[-40.62753,-20.33522],[-40.62601,-20.33571],[-40.62463,-20.33775],[-40.62433,-20.33888],[-40.62258,-20.34032],[-40.6199,-20.34135],[-40.61741,-20.3426],[-40.61149,-20.3448],[-40.61047,-20.3454],[-40.60477,-20.34831],[-40.6017,-20.3496],[-40.60059,-20.35069],[-40.59968,-20.355],[-40.59897,-20.35515],[-40.5971,-20.3544],[-40.59676,-20.35339],[-40.59567,-20.35161],[-40.59439,-20.3511],[-40.59291,-20.34978],[-40.59082,-20.34884],[-40.58881,-20.34954],[-40.58872,-20.34903],[-40.58794,-20.34861],[-40.58627,-20.34939],[-40.58561,-20.34881],[-40.58604,-20.34662],[-40.58544,-20.3457],[-40.58396,-20.34594],[-40.58384,-20.34469],[-40.5822,-20.34353],[-40.58264,-20.34281],[-40.58383,-20.3427],[-40.58512,-20.34207],[-40.58564,-20.34115],[-40.58484,-20.33991],[-40.5843,-20.33838],[-40.58345,-20.33775],[-40.58448,-20.33699],[-40.58566,-20.33696],[-40.58649,-20.33601],[-40.58604,-20.33498],[-40.58425,-20.33456],[-40.58443,-20.33292],[-40.58396,-20.33141],[-40.58385,-20.32946],[-40.58268,-20.32734],[-40.58264,-20.32552],[-40.58122,-20.32512],[-40.58086,-20.32353],[-40.58003,-20.32295],[-40.5797,-20.32207],[-40.58014,-20.32107],[-40.58047,-20.31728],[-40.5804,-20.31593],[-40.58092,-20.31488],[-40.58125,-20.31295],[-40.58231,-20.31188],[-40.58162,-20.30742],[-40.58261,-20.30543],[-40.58201,-20.29946],[-40.58095,-20.29778],[-40.58139,-20.29632],[-40.58123,-20.29541],[-40.58238,-20.29211],[-40.58502,-20.29347],[-40.58928,-20.28863],[-40.59054,-20.28749],[-40.59205,-20.2867],[-40.59205,-20.28557],[-40.59326,-20.28448],[-40.59415,-20.28409],[-40.59635,-20.28143],[-40.59796,-20.28029],[-40.60008,-20.2782],[-40.59936,-20.27735],[-40.59836,-20.27705],[-40.5986,-20.27603],[-40.60115,-20.27191],[-40.60221,-20.26985],[-40.60232,-20.26912],[-40.60341,-20.26916],[-40.60457,-20.26733],[-40.60471,-20.26611],[-40.60397,-20.26546],[-40.60466,-20.2645],[-40.60437,-20.26256],[-40.60495,-20.26086],[-40.60456,-20.25643],[-40.60416,-20.25574],[-40.60519,-20.25353],[-40.60471,-20.25096],[-40.60285,-20.24981],[-40.60115,-20.24908],[-40.59627,-20.2461],[-40.59459,-20.24529]]]},"properties":{"codigo":"320190213","name":"Biriricas","population":668,"households":494,"areaKm2":30.3826,"density":22}},{"type":"Feature","geometry":{"type":"Polygon","coordinates":[[[-40.64175,-20.40578],[-40.64084,-20.40842],[-40.63928,-20.41132],[-40.63809,-20.41206],[-40.63739,-20.41309],[-40.63748,-20.41437],[-40.63698,-20.41557],[-40.63617,-20.41616],[-40.63505,-20.41864],[-40.63467,-20.419],[-40.63236,-20.41974],[-40.63035,-20.42107],[-40.62944,-20.42136],[-40.62861,-20.42322],[-40.62816,-20.42353],[-40.62526,-20.42425],[-40.62481,-20.42297],[-40.62232,-20.42345],[-40.61795,-20.42332],[-40.61761,-20.422],[-40.61623,-20.42184],[-40.6167,-20.42083],[-40.61652,-20.42002],[-40.61535,-20.41789],[-40.61507,-20.4163],[-40.61402,-20.41609],[-40.61519,-20.41454],[-40.61477,-20.41378],[-40.61277,-20.41336],[-40.61082,-20.41319],[-40.61066,-20.41265],[-40.60891,-20.413],[-40.60799,-20.41264],[-40.60602,-20.41324],[-40.60426,-20.41414],[-40.60318,-20.41376],[-40.6023,-20.41407],[-40.60144,-20.41494],[-40.59879,-20.41554],[-40.59721,-20.41466],[-40.59513,-20.41411],[-40.59236,-20.41424],[-40.58926,-20.41497],[-40.58686,-20.41492],[-40.58514,-20.41446],[-40.58195,-20.41311],[-40.57993,-20.41292],[-40.57908,-20.41308],[-40.57668,-20.41233],[-40.57547,-20.41135],[-40.57394,-20.41095],[-40.57255,-20.41176],[-40.57102,-20.41085],[-40.56967,-20.411],[-40.56931,-20.41025],[-40.56793,-20.41097],[-40.56548,-20.40977],[-40.56376,-20.41019],[-40.56205,-20.40942],[-40.56027,-20.4097],[-40.55957,-20.40923],[-40.55737,-20.40887],[-40.55619,-20.409],[-40.55554,-20.40767],[-40.55653,-20.40667],[-40.55515,-20.4062],[-40.55297,-20.4042],[-40.55057,-20.40463],[-40.5497,-20.40422],[-40.54602,-20.4038],[-40.54345,-20.40277],[-40.543,-20.40226],[-40.54406,-20.40155],[-40.54587,-20.40175],[-40.54788,-20.40068],[-40.548,-20.40011],[-40.54484,-20.39858],[-40.54326,-20.39703],[-40.54155,-20.39415],[-40.5394,-20.39182],[-40.53871,-20.39142],[-40.53478,-20.39096],[-40.53381,-20.39019],[-40.53448,-20.38912],[-40.53752,-20.38903],[-40.53911,-20.38831],[-40.53923,-20.38722],[-40.54028,-20.38582],[-40.54299,-20.3854],[-40.54447,-20.38456],[-40.54551,-20.38507],[-40.5466,-20.38633],[-40.54959,-20.38692],[-40.5506,-20.38812],[-40.55178,-20.3888],[-40.55391,-20.38869],[-40.55483,-20.38903],[-40.55599,-20.38848],[-40.55702,-20.3874],[-40.55937,-20.38732],[-40.55961,-20.38802],[-40.5613,-20.38858],[-40.56347,-20.38633],[-40.56252,-20.38462],[-40.56197,-20.38446],[-40.56075,-20.38277],[-40.56084,-20.38061],[-40.56191,-20.37883],[-40.5616,-20.37714],[-40.55955,-20.37542],[-40.55829,-20.37315],[-40.55882,-20.37256],[-40.56032,-20.37221],[-40.56258,-20.37316],[-40.56358,-20.37321],[-40.56462,-20.37277],[-40.56551,-20.37331],[-40.56571,-20.37543],[-40.56658,-20.37638],[-40.56774,-20.37582],[-40.56897,-20.3762],[-40.56958,-20.37765],[-40.57077,-20.3774],[-40.57069,-20.37615],[-40.57176,-20.37501],[-40.57194,-20.37231],[-40.57284,-20.37197],[-40.57533,-20.37238],[-40.57636,-20.37004],[-40.57763,-20.36926],[-40.57979,-20.36928],[-40.58065,-20.36781],[-40.58057,-20.36718],[-40.57928,-20.36501],[-40.57856,-20.36337],[-40.57958,-20.36253],[-40.58123,-20.36236],[-40.58316,-20.36372],[-40.58316,-20.3649],[-40.58407,-20.36613],[-40.58518,-20.36683],[-40.58579,-20.36769],[-40.58804,-20.36828],[-40.5892,-20.3683],[-40.59166,-20.36768],[-40.59253,-20.36715],[-40.59346,-20.36531],[-40.59293,-20.3641],[-40.5946,-20.36258],[-40.59408,-20.36082],[-40.59293,-20.35943],[-40.59222,-20.35934],[-40.59151,-20.35799],[-40.5918,-20.35724],[-40.59274,-20.35685],[-40.59252,-20.35608],[-40.59139,-20.35488],[-40.59032,-20.35426],[-40.58943,-20.35261],[-40.58934,-20.35183],[-40.588,-20.3502],[-40.58872,-20.34903],[-40.58881,-20.34954],[-40.59082,-20.34884],[-40.59291,-20.34978],[-40.59439,-20.3511],[-40.59567,-20.35161],[-40.59676,-20.35339],[-40.5971,-20.3544],[-40.59897,-20.35515],[-40.59968,-20.355],[-40.60059,-20.35069],[-40.6017,-20.3496],[-40.60477,-20.34831],[-40.61047,-20.3454],[-40.61149,-20.3448],[-40.61741,-20.3426],[-40.6199,-20.34135],[-40.62258,-20.34032],[-40.62433,-20.33888],[-40.62463,-20.33775],[-40.62601,-20.33571],[-40.62753,-20.33522],[-40.62963,-20.33515],[-40.62849,-20.3366],[-40.62897,-20.33767],[-40.62975,-20.33829],[-40.63073,-20.34036],[-40.63153,-20.34274],[-40.63499,-20.34507],[-40.63599,-20.34691],[-40.63858,-20.34966],[-40.6405,-20.35119],[-40.64176,-20.35317],[-40.64198,-20.35405],[-40.64167,-20.35612],[-40.64085,-20.35696],[-40.63958,-20.35931],[-40.63923,-20.36059],[-40.63949,-20.3627],[-40.63884,-20.36495],[-40.63983,-20.36606],[-40.63933,-20.36729],[-40.63896,-20.36927],[-40.63835,-20.37034],[-40.63776,-20.37274],[-40.6372,-20.37387],[-40.6372,-20.37579],[-40.6365,-20.37814],[-40.63559,-20.38049],[-40.63566,-20.38166],[-40.63513,-20.38329],[-40.63459,-20.38603],[-40.63559,-20.38768],[-40.6344,-20.38976],[-40.63337,-20.39045],[-40.63228,-20.39412],[-40.63151,-20.39545],[-40.63041,-20.39611],[-40.62799,-20.39711],[-40.62465,-20.3989],[-40.62497,-20.39972],[-40.62687,-20.40124],[-40.6274,-20.4027],[-40.62834,-20.40323],[-40.62968,-20.40302],[-40.63193,-20.40307],[-40.63271,-20.4036],[-40.63384,-20.40368],[-40.63638,-20.40303],[-40.63799,-20.40202],[-40.64048,-20.40258],[-40.64127,-20.40393],[-40.64175,-20.40578]]]},"properties":{"codigo":"320190220","name":"Isabel","population":1830,"households":1220,"areaKm2":56.7433,"density":32.3}},{"type":"Feature","geometry":{"type":"Polygon","coordinates":[[[-40.68942,-20.18791],[-40.69225,-20.18819],[-40.69365,-20.18944],[-40.69516,-20.19007],[-40.69694,-20.19017],[-40.6979,-20.18723],[-40.69919,-20.18745],[-40.69937,-20.18876],[-40.70087,-20.18957],[-40.7024,-20.18942],[-40.70377,-20.18773],[-40.70453,-20.18731],[-40.7068,-20.18816],[-40.70754,-20.1878],[-40.71,-20.18549],[-40.71158,-20.18601],[-40.71366,-20.18615],[-40.71636,-20.18475],[-40.71695,-20.18388],[-40.71824,-20.18329],[-40.71957,-20.18394],[-40.72208,-20.18344],[-40.72384,-20.184],[-40.72641,-20.18415],[-40.72732,-20.18331],[-40.73166,-20.18411],[-40.73601,-20.18597],[-40.73767,-20.18714],[-40.73821,-20.18812],[-40.73962,-20.18823],[-40.74119,-20.18959],[-40.74229,-20.18963],[-40.74371,-20.1888],[-40.74528,-20.18884],[-40.74633,-20.18734],[-40.74759,-20.18656],[-40.74796,-20.18389],[-40.74905,-20.18296],[-40.74917,-20.18238],[-40.75023,-20.18142],[-40.75098,-20.17993],[-40.75192,-20.17874],[-40.75206,-20.17618],[-40.75065,-20.17355],[-40.75139,-20.17323],[-40.75331,-20.17333],[-40.7541,-20.17403],[-40.75545,-20.17423],[-40.75695,-20.17347],[-40.75844,-20.1713],[-40.75922,-20.16959],[-40.75935,-20.16813],[-40.76038,-20.16788],[-40.76114,-20.16826],[-40.76445,-20.16779],[-40.7658,-20.16787],[-40.76701,-20.16614],[-40.76669,-20.16397],[-40.76566,-20.16317],[-40.76573,-20.16132],[-40.76387,-20.16101],[-40.76345,-20.16026],[-40.76262,-20.15751],[-40.76299,-20.15566],[-40.76504,-20.1544],[-40.766,-20.15253],[-40.76694,-20.15245],[-40.76695,-20.15349],[-40.76757,-20.15693],[-40.76961,-20.15744],[-40.77049,-20.15974],[-40.77115,-20.16076],[-40.77233,-20.16085],[-40.77423,-20.16002],[-40.77531,-20.15997],[-40.77576,-20.1606],[-40.77554,-20.16228],[-40.77699,-20.16267],[-40.778,-20.16259],[-40.77942,-20.16183],[-40.78082,-20.16197],[-40.78177,-20.16248],[-40.78278,-20.16183],[-40.78321,-20.16079],[-40.78563,-20.15917],[-40.78789,-20.15994],[-40.7883,-20.16058],[-40.78779,-20.16161],[-40.7885,-20.16434],[-40.78901,-20.1645],[-40.79126,-20.16425],[-40.79223,-20.16292],[-40.79309,-20.16282],[-40.7959,-20.1643],[-40.79684,-20.16413],[-40.79733,-20.16482],[-40.79881,-20.16433],[-40.80115,-20.16485],[-40.80309,-20.16573],[-40.8034,-20.16633],[-40.80339,-20.16809],[-40.80257,-20.16972],[-40.80371,-20.17164],[-40.80522,-20.1734],[-40.80719,-20.17364],[-40.80905,-20.1748],[-40.81075,-20.17474],[-40.81247,-20.1741],[-40.81444,-20.174],[-40.81553,-20.17292],[-40.81765,-20.17272],[-40.81645,-20.17007],[-40.81546,-20.16854],[-40.81685,-20.16841],[-40.81689,-20.16697],[-40.81789,-20.1659],[-40.81969,-20.16508],[-40.82035,-20.16379],[-40.8232,-20.16525],[-40.82449,-20.16722],[-40.82608,-20.1677],[-40.82708,-20.1671],[-40.83141,-20.16934],[-40.83319,-20.16957],[-40.83449,-20.17163],[-40.83407,-20.17288],[-40.83415,-20.17678],[-40.83491,-20.1775],[-40.83628,-20.17711],[-40.83733,-20.17806],[-40.83869,-20.17826],[-40.83997,-20.17922],[-40.84298,-20.1808],[-40.84474,-20.18271],[-40.84647,-20.18304],[-40.84802,-20.18269],[-40.84819,-20.18372],[-40.85008,-20.18383],[-40.85273,-20.18435],[-40.85376,-20.18517],[-40.85416,-20.18639],[-40.85392,-20.18891],[-40.85552,-20.19038],[-40.85593,-20.19205],[-40.85748,-20.19185],[-40.85713,-20.18915],[-40.85767,-20.18868],[-40.86029,-20.18814],[-40.86133,-20.19128],[-40.86292,-20.1925],[-40.86455,-20.19277],[-40.86564,-20.19265],[-40.86669,-20.19209],[-40.86983,-20.18855],[-40.87215,-20.18833],[-40.8726,-20.18878],[-40.87207,-20.19139],[-40.87148,-20.19194],[-40.87243,-20.19276],[-40.87508,-20.19308],[-40.876,-20.1919],[-40.87894,-20.19266],[-40.88017,-20.19368],[-40.88202,-20.19411],[-40.88317,-20.19397],[-40.88396,-20.19323],[-40.8848,-20.19412],[-40.88536,-20.19607],[-40.8865,-20.19563],[-40.88463,-20.19738],[-40.88328,-20.1981],[-40.88223,-20.19821],[-40.87818,-20.20015],[-40.87719,-20.20164],[-40.87648,-20.20333],[-40.87549,-20.20828],[-40.87507,-20.20883],[-40.87366,-20.20894],[-40.87013,-20.20855],[-40.86858,-20.20909],[-40.86479,-20.21188],[-40.86318,-20.21364],[-40.86314,-20.21473],[-40.86381,-20.21558],[-40.86608,-20.2165],[-40.86699,-20.21711],[-40.86719,-20.21837],[-40.8663,-20.21975],[-40.86656,-20.22051],[-40.86917,-20.22433],[-40.87052,-20.22591],[-40.87048,-20.227],[-40.8688,-20.22911],[-40.8692,-20.23098],[-40.87174,-20.23352],[-40.87177,-20.23561],[-40.87157,-20.23824],[-40.87109,-20.24005],[-40.8705,-20.24087],[-40.87056,-20.24191],[-40.87199,-20.24356],[-40.87233,-20.24534],[-40.87357,-20.24737],[-40.87233,-20.24895],[-40.87012,-20.24954],[-40.86911,-20.25071],[-40.86681,-20.25193],[-40.86551,-20.25313],[-40.86455,-20.25238],[-40.86339,-20.25056],[-40.8629,-20.24748],[-40.85956,-20.24505],[-40.85899,-20.24386],[-40.85713,-20.24168],[-40.85615,-20.23988],[-40.85523,-20.2387],[-40.85351,-20.23988],[-40.85145,-20.24014],[-40.8504,-20.24092],[-40.84967,-20.24249],[-40.84912,-20.24278],[-40.84808,-20.24177],[-40.84756,-20.24049],[-40.84685,-20.24022],[-40.84565,-20.24075],[-40.84382,-20.24372],[-40.84337,-20.24607],[-40.84157,-20.24633],[-40.84082,-20.24705],[-40.84039,-20.24933],[-40.83987,-20.25012],[-40.83843,-20.25099],[-40.83637,-20.25177],[-40.83472,-20.25203],[-40.83351,-20.25251],[-40.83169,-20.25379],[-40.83102,-20.25656],[-40.83023,-20.25737],[-40.82838,-20.25825],[-40.82475,-20.2603],[-40.82413,-20.26254],[-40.82397,-20.26409],[-40.82288,-20.2659],[-40.8228,-20.26723],[-40.82201,-20.26871],[-40.82197,-20.26947],[-40.82086,-20.27141],[-40.81814,-20.27139],[-40.81637,-20.27286],[-40.81421,-20.27274],[-40.81391,-20.27298],[-40.81278,-20.27575],[-40.81253,-20.27753],[-40.81153,-20.27778],[-40.80931,-20.27728],[-40.8073,-20.27796],[-40.80677,-20.27723],[-40.80771,-20.27622],[-40.80609,-20.27524],[-40.80225,-20.27804],[-40.80053,-20.27969],[-40.79781,-20.27953],[-40.79689,-20.27788],[-40.79465,-20.27759],[-40.79267,-20.27657],[-40.79197,-20.2771],[-40.79127,-20.28176],[-40.79055,-20.28284],[-40.7896,-20.28313],[-40.78778,-20.28239],[-40.78698,-20.2824],[-40.78522,-20.28313],[-40.78399,-20.28274],[-40.78211,-20.28185],[-40.78085,-20.28044],[-40.78099,-20.27745],[-40.78062,-20.2767],[-40.77932,-20.27562],[-40.77765,-20.27528],[-40.77643,-20.27375],[-40.77751,-20.27226],[-40.77672,-20.27057],[-40.77498,-20.26901],[-40.77345,-20.26832],[-40.77197,-20.26603],[-40.77142,-20.26644],[-40.77076,-20.26863],[-40.76985,-20.26995],[-40.76698,-20.27015],[-40.76533,-20.27178],[-40.76446,-20.27201],[-40.76286,-20.27081],[-40.76138,-20.26897],[-40.76073,-20.26857],[-40.75754,-20.26854],[-40.75601,-20.26981],[-40.75343,-20.26915],[-40.75138,-20.26781],[-40.75018,-20.26726],[-40.75017,-20.26657],[-40.75145,-20.26603],[-40.75126,-20.26494],[-40.75025,-20.26445],[-40.74834,-20.26568],[-40.74698,-20.26695],[-40.74574,-20.26672],[-40.74367,-20.26769],[-40.74219,-20.26973],[-40.7413,-20.27046],[-40.73928,-20.27131],[-40.7384,-20.26995],[-40.73715,-20.26883],[-40.73649,-20.26754],[-40.73552,-20.2672],[-40.73378,-20.26892],[-40.73241,-20.26853],[-40.73053,-20.26727],[-40.72826,-20.26758],[-40.72633,-20.26736],[-40.72602,-20.26594],[-40.72547,-20.26504],[-40.72458,-20.26622],[-40.72321,-20.26563],[-40.72264,-20.2649],[-40.72031,-20.26527],[-40.7197,-20.26783],[-40.71988,-20.269],[-40.72168,-20.27074],[-40.72344,-20.27088],[-40.72434,-20.2714],[-40.72275,-20.27473],[-40.72017,-20.27571],[-40.71892,-20.27487],[-40.71739,-20.27258],[-40.71621,-20.27229],[-40.71476,-20.27271],[-40.71434,-20.27364],[-40.71471,-20.27631],[-40.71522,-20.27729],[-40.71682,-20.2793],[-40.71692,-20.28003],[-40.71447,-20.27981],[-40.71204,-20.27856],[-40.71118,-20.27889],[-40.71081,-20.28027],[-40.71232,-20.28246],[-40.71229,-20.28416],[-40.71174,-20.28469],[-40.70961,-20.28556],[-40.70773,-20.28847],[-40.70672,-20.28949],[-40.70523,-20.29052],[-40.7031,-20.2902],[-40.70102,-20.29167],[-40.69924,-20.29351],[-40.6983,-20.29573],[-40.69853,-20.29771],[-40.69723,-20.30007],[-40.69631,-20.30001],[-40.69578,-20.2986],[-40.69132,-20.29812],[-40.69018,-20.29759],[-40.68799,-20.29769],[-40.68589,-20.2973],[-40.68489,-20.2965],[-40.68576,-20.29554],[-40.68596,-20.29421],[-40.68488,-20.29345],[-40.68299,-20.29266],[-40.68233,-20.29285],[-40.68088,-20.29424],[-40.68109,-20.29788],[-40.68074,-20.29891],[-40.67951,-20.29977],[-40.67835,-20.2995],[-40.67795,-20.29845],[-40.67897,-20.29751],[-40.67808,-20.29625],[-40.6774,-20.29289],[-40.67623,-20.29189],[-40.67616,-20.29094],[-40.67666,-20.29013],[-40.67591,-20.28807],[-40.67692,-20.28424],[-40.67673,-20.28291],[-40.6771,-20.28132],[-40.67641,-20.28081],[-40.67472,-20.27864],[-40.67498,-20.27768],[-40.67325,-20.27539],[-40.67392,-20.2745],[-40.67299,-20.2738],[-40.67388,-20.2729],[-40.67389,-20.26983],[-40.67523,-20.26874],[-40.67427,-20.26721],[-40.67445,-20.26369],[-40.67418,-20.26292],[-40.67452,-20.2608],[-40.67417,-20.26011],[-40.6721,-20.25815],[-40.67133,-20.25656],[-40.67021,-20.256],[-40.66964,-20.25488],[-40.66998,-20.24907],[-40.67045,-20.24805],[-40.67181,-20.24747],[-40.67263,-20.24435],[-40.67312,-20.24376],[-40.6728,-20.2423],[-40.6742,-20.24071],[-40.67484,-20.24034],[-40.67544,-20.23874],[-40.67625,-20.23788],[-40.67615,-20.23671],[-40.67511,-20.23575],[-40.67485,-20.23498],[-40.67582,-20.23433],[-40.67642,-20.23232],[-40.67624,-20.23127],[-40.67514,-20.22841],[-40.67382,-20.22727],[-40.67346,-20.22577],[-40.67371,-20.22443],[-40.67331,-20.22322],[-40.67412,-20.22113],[-40.67497,-20.2204],[-40.67538,-20.21918],[-40.67718,-20.2192],[-40.67799,-20.21851],[-40.67785,-20.2175],[-40.67832,-20.21573],[-40.67754,-20.21424],[-40.67664,-20.21405],[-40.67512,-20.21281],[-40.67559,-20.21028],[-40.6748,-20.20866],[-40.67509,-20.20741],[-40.6765,-20.20572],[-40.67674,-20.20377],[-40.67651,-20.20224],[-40.67645,-20.19858],[-40.67597,-20.19741],[-40.67702,-20.19562],[-40.67748,-20.19529],[-40.68105,-20.19475],[-40.68224,-20.1934],[-40.68383,-20.19399],[-40.68496,-20.19311],[-40.68632,-20.19274],[-40.68713,-20.19204],[-40.68942,-20.18791]]]},"properties":{"codigo":"320190230","name":"Melgaço","population":4877,"households":2573,"areaKm2":211.2379,"density":23.1}},{"type":"Feature","geometry":{"type":"Polygon","coordinates":[[[-40.91245,-20.44868],[-40.91096,-20.44853],[-40.91096,-20.448],[-40.90998,-20.44647],[-40.90849,-20.44637],[-40.90574,-20.44661],[-40.90497,-20.4474],[-40.90358,-20.4478],[-40.90208,-20.44954],[-40.90036,-20.44757],[-40.90204,-20.44582],[-40.90261,-20.44365],[-40.90234,-20.44284],[-40.90289,-20.43921],[-40.90364,-20.43737],[-40.90277,-20.43549],[-40.90213,-20.43531],[-40.90078,-20.43578],[-40.89896,-20.43393],[-40.8987,-20.4316],[-40.89841,-20.43083],[-40.89879,-20.42963],[-40.89799,-20.42738],[-40.89977,-20.42657],[-40.89997,-20.42507],[-40.89925,-20.42343],[-40.89809,-20.42249],[-40.89615,-20.42179],[-40.8925,-20.42106],[-40.88879,-20.42176],[-40.88816,-20.41911],[-40.88898,-20.41812],[-40.88862,-20.41578],[-40.8871,-20.41368],[-40.88742,-20.41214],[-40.8868,-20.41172],[-40.88674,-20.40964],[-40.88813,-20.40795],[-40.88866,-20.40493],[-40.88998,-20.40338],[-40.89181,-20.40314],[-40.8926,-20.40247],[-40.8946,-20.39979],[-40.89485,-20.3988],[-40.89323,-20.39827],[-40.89292,-20.39715],[-40.89149,-20.39626],[-40.88899,-20.39664],[-40.88747,-20.39732],[-40.88596,-20.39632],[-40.88535,-20.39496],[-40.88408,-20.39384],[-40.88413,-20.39247],[-40.88121,-20.39252],[-40.87991,-20.39092],[-40.87986,-20.38968],[-40.87916,-20.38855],[-40.87661,-20.38768],[-40.87647,-20.38683],[-40.87542,-20.38636],[-40.87281,-20.38664],[-40.87228,-20.38557],[-40.8726,-20.38363],[-40.87098,-20.38269],[-40.86998,-20.38257],[-40.86863,-20.38166],[-40.86658,-20.38256],[-40.86514,-20.38163],[-40.86351,-20.38205],[-40.85902,-20.38119],[-40.85729,-20.38153],[-40.85617,-20.38364],[-40.85582,-20.38547],[-40.85531,-20.38549],[-40.85283,-20.38374],[-40.85183,-20.38278],[-40.8499,-20.38286],[-40.84913,-20.38323],[-40.84758,-20.38194],[-40.84719,-20.38102],[-40.84589,-20.38007],[-40.84557,-20.37946],[-40.84329,-20.37856],[-40.8422,-20.37792],[-40.84081,-20.37767],[-40.83885,-20.37646],[-40.83624,-20.37617],[-40.83557,-20.37541],[-40.83421,-20.37546],[-40.83324,-20.37848],[-40.83203,-20.38007],[-40.83026,-20.38058],[-40.82949,-20.38178],[-40.82945,-20.38283],[-40.82713,-20.38521],[-40.82458,-20.38553],[-40.82408,-20.38682],[-40.82452,-20.38826],[-40.82526,-20.38935],[-40.82513,-20.39006],[-40.82158,-20.39186],[-40.82121,-20.3927],[-40.81996,-20.3934],[-40.81842,-20.39322],[-40.81673,-20.39257],[-40.8144,-20.3931],[-40.81231,-20.39413],[-40.80964,-20.39422],[-40.80848,-20.39535],[-40.80659,-20.39655],[-40.80312,-20.39633],[-40.80073,-20.39917],[-40.79949,-20.39914],[-40.79902,-20.39991],[-40.79705,-20.40169],[-40.79461,-20.4021],[-40.79344,-20.4027],[-40.79231,-20.40454],[-40.79054,-20.40634],[-40.78944,-20.4062],[-40.78878,-20.40486],[-40.78862,-20.40352],[-40.78776,-20.40169],[-40.78684,-20.40105],[-40.78688,-20.39921],[-40.78607,-20.397],[-40.78763,-20.3945],[-40.78896,-20.39312],[-40.78833,-20.3911],[-40.78829,-20.38958],[-40.78793,-20.38842],[-40.78837,-20.38754],[-40.78718,-20.38603],[-40.78683,-20.38516],[-40.78699,-20.38337],[-40.78481,-20.38249],[-40.78389,-20.38188],[-40.78385,-20.38066],[-40.7821,-20.38043],[-40.78062,-20.37935],[-40.78053,-20.3785],[-40.78253,-20.37365],[-40.78219,-20.37291],[-40.78116,-20.3722],[-40.78052,-20.37125],[-40.77866,-20.37049],[-40.77713,-20.37025],[-40.77693,-20.36938],[-40.77805,-20.36822],[-40.77805,-20.36541],[-40.77658,-20.36471],[-40.77616,-20.36328],[-40.77498,-20.36276],[-40.774,-20.36336],[-40.77061,-20.36176],[-40.7672,-20.35958],[-40.76715,-20.35787],[-40.76657,-20.35693],[-40.76447,-20.35573],[-40.76416,-20.35412],[-40.76478,-20.35307],[-40.76228,-20.35183],[-40.7611,-20.34992],[-40.76138,-20.3488],[-40.76046,-20.3479],[-40.7587,-20.34704],[-40.75462,-20.34703],[-40.75239,-20.34766],[-40.75053,-20.34669],[-40.74946,-20.34553],[-40.74768,-20.34464],[-40.7497,-20.34331],[-40.75408,-20.34139],[-40.75548,-20.34038],[-40.75727,-20.33813],[-40.75791,-20.33689],[-40.75785,-20.33575],[-40.75669,-20.33384],[-40.75486,-20.33172],[-40.75424,-20.3288],[-40.75423,-20.32781],[-40.75583,-20.32646],[-40.75843,-20.32506],[-40.75961,-20.32483],[-40.76216,-20.32338],[-40.76295,-20.32233],[-40.76334,-20.31902],[-40.76383,-20.3174],[-40.76521,-20.3152],[-40.76745,-20.31314],[-40.76937,-20.31167],[-40.77258,-20.31012],[-40.77344,-20.31049],[-40.77547,-20.31194],[-40.77731,-20.31285],[-40.77837,-20.31279],[-40.77894,-20.31027],[-40.77791,-20.30828],[-40.7769,-20.30518],[-40.77697,-20.30262],[-40.77736,-20.30138],[-40.77858,-20.30063],[-40.78079,-20.30023],[-40.78213,-20.29879],[-40.78392,-20.29832],[-40.78691,-20.297],[-40.78689,-20.29588],[-40.78793,-20.29527],[-40.78854,-20.29376],[-40.78847,-20.2926],[-40.78785,-20.29221],[-40.78719,-20.28928],[-40.7866,-20.28949],[-40.78564,-20.28854],[-40.78681,-20.28788],[-40.78435,-20.28387],[-40.78399,-20.28274],[-40.78522,-20.28313],[-40.78698,-20.2824],[-40.78778,-20.28239],[-40.7896,-20.28313],[-40.79055,-20.28284],[-40.79127,-20.28176],[-40.79197,-20.2771],[-40.79267,-20.27657],[-40.79465,-20.27759],[-40.79689,-20.27788],[-40.79781,-20.27953],[-40.80053,-20.27969],[-40.80225,-20.27804],[-40.80609,-20.27524],[-40.80771,-20.27622],[-40.80677,-20.27723],[-40.8073,-20.27796],[-40.80931,-20.27728],[-40.81153,-20.27778],[-40.81253,-20.27753],[-40.81278,-20.27575],[-40.81391,-20.27298],[-40.81421,-20.27274],[-40.81637,-20.27286],[-40.81814,-20.27139],[-40.82086,-20.27141],[-40.82197,-20.26947],[-40.82201,-20.26871],[-40.8228,-20.26723],[-40.82288,-20.2659],[-40.82397,-20.26409],[-40.82413,-20.26254],[-40.82475,-20.2603],[-40.82838,-20.25825],[-40.83023,-20.25737],[-40.83102,-20.25656],[-40.83169,-20.25379],[-40.83351,-20.25251],[-40.83472,-20.25203],[-40.83637,-20.25177],[-40.83843,-20.25099],[-40.83987,-20.25012],[-40.84039,-20.24933],[-40.84082,-20.24705],[-40.84157,-20.24633],[-40.84337,-20.24607],[-40.84382,-20.24372],[-40.84565,-20.24075],[-40.84685,-20.24022],[-40.84756,-20.24049],[-40.84808,-20.24177],[-40.84912,-20.24278],[-40.84967,-20.24249],[-40.8504,-20.24092],[-40.85145,-20.24014],[-40.85351,-20.23988],[-40.85523,-20.2387],[-40.85615,-20.23988],[-40.85713,-20.24168],[-40.85899,-20.24386],[-40.85956,-20.24505],[-40.8629,-20.24748],[-40.86339,-20.25056],[-40.86455,-20.25238],[-40.86551,-20.25313],[-40.86681,-20.25193],[-40.86911,-20.25071],[-40.87012,-20.24954],[-40.87233,-20.24895],[-40.87357,-20.24737],[-40.87233,-20.24534],[-40.87199,-20.24356],[-40.87056,-20.24191],[-40.8705,-20.24087],[-40.87109,-20.24005],[-40.87157,-20.23824],[-40.87177,-20.23561],[-40.87174,-20.23352],[-40.8692,-20.23098],[-40.8688,-20.22911],[-40.87048,-20.227],[-40.87052,-20.22591],[-40.86917,-20.22433],[-40.86656,-20.22051],[-40.8663,-20.21975],[-40.86719,-20.21837],[-40.86699,-20.21711],[-40.86608,-20.2165],[-40.86381,-20.21558],[-40.86314,-20.21473],[-40.86318,-20.21364],[-40.86479,-20.21188],[-40.86858,-20.20909],[-40.87013,-20.20855],[-40.87366,-20.20894],[-40.87507,-20.20883],[-40.87549,-20.20828],[-40.87648,-20.20333],[-40.87719,-20.20164],[-40.87818,-20.20015],[-40.88223,-20.19821],[-40.88328,-20.1981],[-40.88463,-20.19738],[-40.8865,-20.19563],[-40.88701,-20.19572],[-40.88743,-20.19711],[-40.88995,-20.19638],[-40.8915,-20.1969],[-40.89248,-20.19669],[-40.89503,-20.19853],[-40.89618,-20.19977],[-40.89591,-20.20116],[-40.8952,-20.20258],[-40.89584,-20.20329],[-40.89916,-20.2036],[-40.8998,-20.20331],[-40.90056,-20.2013],[-40.90263,-20.1996],[-40.90291,-20.19865],[-40.90387,-20.19845],[-40.90611,-20.2002],[-40.90693,-20.20011],[-40.90864,-20.20067],[-40.9106,-20.20045],[-40.9126,-20.20209],[-40.91365,-20.20228],[-40.91443,-20.20151],[-40.91562,-20.20102],[-40.91717,-20.2013],[-40.91928,-20.20273],[-40.92046,-20.20386],[-40.92177,-20.20306],[-40.92379,-20.20261],[-40.92464,-20.19979],[-40.92556,-20.19808],[-40.92652,-20.19708],[-40.92857,-20.19661],[-40.9318,-20.1971],[-40.93275,-20.19848],[-40.9339,-20.19884],[-40.93805,-20.19914],[-40.94023,-20.19952],[-40.94221,-20.19912],[-40.94655,-20.19616],[-40.94787,-20.19581],[-40.95026,-20.19426],[-40.95296,-20.19384],[-40.95477,-20.19264],[-40.95574,-20.19035],[-40.95705,-20.18883],[-40.95787,-20.18843],[-40.96069,-20.18926],[-40.96219,-20.19035],[-40.96462,-20.1905],[-40.967,-20.19033],[-40.96784,-20.19101],[-40.96946,-20.19369],[-40.97084,-20.19405],[-40.97191,-20.19724],[-40.97292,-20.19845],[-40.97345,-20.20041],[-40.97278,-20.20199],[-40.97186,-20.203],[-40.97005,-20.20351],[-40.96976,-20.20394],[-40.96977,-20.20594],[-40.9694,-20.20778],[-40.96976,-20.20887],[-40.9697,-20.21076],[-40.96864,-20.21195],[-40.96948,-20.21329],[-40.96959,-20.21431],[-40.97073,-20.21535],[-40.97185,-20.21684],[-40.97241,-20.21926],[-40.97342,-20.22048],[-40.9746,-20.22072],[-40.97443,-20.22366],[-40.97415,-20.22469],[-40.97307,-20.22546],[-40.97112,-20.2263],[-40.97182,-20.22826],[-40.97282,-20.23003],[-40.97157,-20.23165],[-40.96849,-20.23277],[-40.96707,-20.23275],[-40.96409,-20.23213],[-40.96282,-20.2317],[-40.96234,-20.23241],[-40.96225,-20.23368],[-40.96287,-20.23442],[-40.96411,-20.23465],[-40.96686,-20.23451],[-40.96849,-20.23609],[-40.97085,-20.2387],[-40.97124,-20.24008],[-40.9722,-20.24116],[-40.97225,-20.24222],[-40.97144,-20.24384],[-40.96972,-20.24547],[-40.96871,-20.24752],[-40.96746,-20.24856],[-40.96663,-20.24973],[-40.96671,-20.25105],[-40.96595,-20.25171],[-40.96573,-20.25448],[-40.96557,-20.26005],[-40.96472,-20.26153],[-40.96523,-20.26322],[-40.96607,-20.26403],[-40.96663,-20.26539],[-40.96655,-20.26751],[-40.9657,-20.26882],[-40.96471,-20.2694],[-40.9627,-20.27117],[-40.96341,-20.2728],[-40.96342,-20.27505],[-40.96391,-20.27706],[-40.9627,-20.27889],[-40.96339,-20.27962],[-40.96218,-20.28168],[-40.96202,-20.28336],[-40.96227,-20.28481],[-40.96109,-20.28592],[-40.9594,-20.2868],[-40.95687,-20.28778],[-40.95657,-20.28839],[-40.95604,-20.29192],[-40.95473,-20.29197],[-40.95296,-20.29081],[-40.95015,-20.28991],[-40.94783,-20.28973],[-40.94539,-20.29026],[-40.94142,-20.28856],[-40.94032,-20.28771],[-40.9389,-20.28853],[-40.93841,-20.29045],[-40.93733,-20.2907],[-40.93574,-20.29158],[-40.93478,-20.29113],[-40.93347,-20.29107],[-40.93219,-20.29006],[-40.93147,-20.29041],[-40.9317,-20.29164],[-40.93269,-20.29353],[-40.93279,-20.29562],[-40.93349,-20.29705],[-40.93521,-20.29681],[-40.93704,-20.29627],[-40.93989,-20.29675],[-40.94231,-20.30044],[-40.94276,-20.30143],[-40.94525,-20.30335],[-40.9472,-20.30461],[-40.94765,-20.30553],[-40.94666,-20.30736],[-40.94573,-20.3085],[-40.94465,-20.31065],[-40.94448,-20.31175],[-40.94356,-20.3135],[-40.9408,-20.31593],[-40.93909,-20.3153],[-40.93519,-20.31269],[-40.93263,-20.31357],[-40.93097,-20.31306],[-40.92987,-20.31509],[-40.92989,-20.31663],[-40.93038,-20.31806],[-40.92865,-20.32012],[-40.92969,-20.32233],[-40.92921,-20.32463],[-40.92824,-20.32536],[-40.92712,-20.32679],[-40.92446,-20.32857],[-40.91984,-20.33081],[-40.92128,-20.33122],[-40.92253,-20.33248],[-40.92398,-20.3354],[-40.92294,-20.33689],[-40.92316,-20.33854],[-40.92216,-20.33951],[-40.92189,-20.34123],[-40.92306,-20.34207],[-40.92325,-20.34299],[-40.92432,-20.3457],[-40.92426,-20.34618],[-40.92093,-20.35036],[-40.92123,-20.35229],[-40.92038,-20.35425],[-40.92054,-20.35497],[-40.92016,-20.35665],[-40.9202,-20.35838],[-40.91731,-20.35947],[-40.91574,-20.36317],[-40.91399,-20.36493],[-40.91299,-20.36676],[-40.91188,-20.36739],[-40.9118,-20.36881],[-40.91072,-20.36944],[-40.90981,-20.36927],[-40.90762,-20.36817],[-40.90572,-20.36858],[-40.90225,-20.36965],[-40.90147,-20.37068],[-40.90153,-20.37385],[-40.90098,-20.37687],[-40.90016,-20.37814],[-40.89968,-20.38037],[-40.89924,-20.38402],[-40.89944,-20.38577],[-40.89918,-20.38935],[-40.89923,-20.39078],[-40.90012,-20.39546],[-40.90201,-20.39721],[-40.90435,-20.39834],[-40.90458,-20.39923],[-40.90309,-20.40368],[-40.90386,-20.40852],[-40.90365,-20.41228],[-40.90341,-20.41345],[-40.90251,-20.41421],[-40.9015,-20.41578],[-40.89902,-20.41519],[-40.89933,-20.4168],[-40.90035,-20.41821],[-40.90048,-20.42016],[-40.90206,-20.42161],[-40.90258,-20.42249],[-40.9023,-20.42329],[-40.90299,-20.4249],[-40.90437,-20.42537],[-40.90541,-20.4269],[-40.90616,-20.42918],[-40.90761,-20.43018],[-40.90762,-20.431],[-40.90831,-20.43154],[-40.90909,-20.43297],[-40.90871,-20.43413],[-40.90719,-20.43588],[-40.90713,-20.43739],[-40.90837,-20.43778],[-40.90981,-20.43951],[-40.91206,-20.44084],[-40.91268,-20.44426],[-40.9139,-20.44575],[-40.91529,-20.44676],[-40.91847,-20.44736],[-40.91941,-20.44725],[-40.9194,-20.44828],[-40.91883,-20.44885],[-40.91667,-20.4491],[-40.91461,-20.44977],[-40.91372,-20.44892],[-40.91245,-20.44868]]]},"properties":{"codigo":"320190235","name":"Paraju","population":9058,"households":4758,"areaKm2":312.9405,"density":28.9}}]}