{"type":"FeatureCollection","features":[{"type":"Feature","geometry":{"type":"Polygon","coordinates":[[[-40.28427,-18.5768],[-40.28252,-18.57681],[-40.28092,-18.57595],[-40.2788,-18.5744],[-40.27788,-18.57397],[-40.2761,-18.57433],[-40.2754,-18.5753],[-40.27515,-18.57722],[-40.27446,-18.57761],[-40.27287,-18.57762],[-40.27028,-18.5757],[-40.26872,-18.57541],[-40.26624,-18.57581],[-40.26438,-18.57653],[-40.26291,-18.57611],[-40.26284,-18.57523],[-40.26481,-18.57349],[-40.26582,-18.57287],[-40.26619,-18.57206],[-40.26597,-18.57113],[-40.26362,-18.56981],[-40.26168,-18.56918],[-40.2601,-18.56892],[-40.25705,-18.56793],[-40.25554,-18.5671],[-40.25468,-18.56696],[-40.25286,-18.56777],[-40.25187,-18.56876],[-40.2502,-18.56891],[-40.24663,-18.56826],[-40.24562,-18.56863],[-40.24545,-18.57028],[-40.24301,-18.57335],[-40.24019,-18.57467],[-40.23906,-18.57636],[-40.23887,-18.57771],[-40.24084,-18.5797],[-40.24065,-18.58048],[-40.23739,-18.5809],[-40.23453,-18.58187],[-40.23361,-18.58243],[-40.23254,-18.58209],[-40.23003,-18.58264],[-40.22901,-18.58209],[-40.22807,-18.57992],[-40.22698,-18.57947],[-40.22502,-18.57961],[-40.22392,-18.58096],[-40.22419,-18.58395],[-40.22377,-18.58497],[-40.22238,-18.5862],[-40.22078,-18.58639],[-40.22145,-18.58218],[-40.22107,-18.58031],[-40.21923,-18.57791],[-40.21852,-18.57761],[-40.21758,-18.57809],[-40.21604,-18.58086],[-40.21483,-18.58194],[-40.21346,-18.58251],[-40.21034,-18.58286],[-40.20757,-18.58274],[-40.20815,-18.57607],[-40.20821,-18.57413],[-40.20861,-18.57139],[-40.16743,-18.54614],[-40.16677,-18.54595],[-40.16502,-18.54434],[-40.16453,-18.54325],[-40.16497,-18.54018],[-40.16409,-18.53818],[-40.1627,-18.53674],[-40.16189,-18.53451],[-40.16254,-18.53324],[-40.16415,-18.53174],[-40.16421,-18.52896],[-40.16452,-18.52655],[-40.16535,-18.52447],[-40.16549,-18.52336],[-40.16515,-18.52158],[-40.1654,-18.52029],[-40.16501,-18.51972],[-40.16431,-18.51741],[-40.16119,-18.51541],[-40.1609,-18.51471],[-40.15978,-18.51394],[-40.15909,-18.51281],[-40.15886,-18.51103],[-40.15785,-18.50995],[-40.15519,-18.50949],[-40.15406,-18.50891],[-40.15229,-18.50916],[-40.14981,-18.50821],[-40.14773,-18.50609],[-40.14571,-18.50536],[-40.14473,-18.50469],[-40.14282,-18.50254],[-40.1414,-18.5026],[-40.13978,-18.50177],[-40.13911,-18.50032],[-40.13612,-18.49964],[-40.13491,-18.49792],[-40.13277,-18.49751],[-40.13122,-18.49545],[-40.12939,-18.49413],[-40.12833,-18.4925],[-40.12679,-18.49106],[-40.12537,-18.48913],[-40.12458,-18.48854],[-40.12552,-18.48814],[-40.12777,-18.48768],[-40.13033,-18.48799],[-40.13114,-18.48772],[-40.13184,-18.48668],[-40.13386,-18.48678],[-40.13649,-18.48646],[-40.13748,-18.48571],[-40.13875,-18.48523],[-40.13913,-18.48439],[-40.14312,-18.48358],[-40.14358,-18.48271],[-40.1452,-18.48205],[-40.14738,-18.48264],[-40.14759,-18.482],[-40.15007,-18.48098],[-40.15168,-18.48069],[-40.15224,-18.47879],[-40.15316,-18.47791],[-40.15456,-18.47756],[-40.15689,-18.47647],[-40.15802,-18.47522],[-40.16008,-18.47471],[-40.16101,-18.47526],[-40.16207,-18.47495],[-40.1631,-18.47556],[-40.16424,-18.47498],[-40.16458,-18.47388],[-40.16543,-18.47334],[-40.16643,-18.47434],[-40.16897,-18.47303],[-40.17169,-18.47311],[-40.17411,-18.47211],[-40.17665,-18.47141],[-40.17653,-18.47276],[-40.17682,-18.4737],[-40.17876,-18.47455],[-40.18089,-18.47378],[-40.18383,-18.47352],[-40.18384,-18.47414],[-40.18592,-18.47512],[-40.18744,-18.47607],[-40.19019,-18.47833],[-40.19082,-18.47861],[-40.1915,-18.48004],[-40.19237,-18.48053],[-40.19316,-18.4803],[-40.19363,-18.48179],[-40.19593,-18.48356],[-40.19735,-18.48439],[-40.19789,-18.48561],[-40.19976,-18.48674],[-40.20146,-18.48695],[-40.20235,-18.48647],[-40.20296,-18.48737],[-40.20495,-18.48862],[-40.20526,-18.48934],[-40.20656,-18.4902],[-40.20887,-18.49066],[-40.21117,-18.49034],[-40.21233,-18.49101],[-40.21369,-18.49111],[-40.21475,-18.49209],[-40.21956,-18.49199],[-40.2201,-18.4923],[-40.22153,-18.49219],[-40.22209,-18.49295],[-40.22282,-18.49251],[-40.22452,-18.4931],[-40.22625,-18.49295],[-40.22748,-18.49221],[-40.22859,-18.49291],[-40.22831,-18.49343],[-40.22934,-18.49423],[-40.23099,-18.49469],[-40.23612,-18.49489],[-40.23908,-18.49576],[-40.24024,-18.49552],[-40.24129,-18.49484],[-40.24328,-18.49468],[-40.24394,-18.49593],[-40.24489,-18.49543],[-40.2463,-18.49588],[-40.24717,-18.49665],[-40.24886,-18.49593],[-40.24926,-18.49628],[-40.25096,-18.49584],[-40.2521,-18.49594],[-40.25253,-18.49583],[-40.25369,-18.49684],[-40.25489,-18.4967],[-40.25512,-18.49568],[-40.25731,-18.49491],[-40.25815,-18.49532],[-40.26095,-18.49584],[-40.26156,-18.49548],[-40.26385,-18.49556],[-40.26441,-18.49609],[-40.26533,-18.49574],[-40.26814,-18.49573],[-40.2703,-18.49439],[-40.27212,-18.49436],[-40.27226,-18.49351],[-40.27311,-18.49209],[-40.27455,-18.49178],[-40.27647,-18.49096],[-40.27603,-18.49021],[-40.27724,-18.48979],[-40.28025,-18.48754],[-40.28094,-18.48726],[-40.28162,-18.48596],[-40.28238,-18.48523],[-40.28234,-18.48446],[-40.28437,-18.48347],[-40.28657,-18.4844],[-40.2873,-18.48528],[-40.28848,-18.4853],[-40.28879,-18.48374],[-40.29003,-18.48361],[-40.29187,-18.48684],[-40.29592,-18.48869],[-40.302,-18.49046],[-40.31019,-18.49223],[-40.31513,-18.49292],[-40.3176,-18.49317],[-40.31995,-18.49361],[-40.32173,-18.49423],[-40.32382,-18.49552],[-40.32544,-18.4975],[-40.3204,-18.49951],[-40.31771,-18.50041],[-40.31721,-18.50083],[-40.31561,-18.5044],[-40.31361,-18.50402],[-40.31324,-18.50478],[-40.31294,-18.50706],[-40.31251,-18.50796],[-40.31091,-18.50897],[-40.30968,-18.51109],[-40.3088,-18.51325],[-40.30839,-18.51509],[-40.31214,-18.51586],[-40.31644,-18.51692],[-40.32043,-18.51848],[-40.32387,-18.51945],[-40.32741,-18.51963],[-40.33105,-18.5193],[-40.33546,-18.51937],[-40.33846,-18.51995],[-40.33977,-18.52267],[-40.34001,-18.52525],[-40.34132,-18.52822],[-40.34345,-18.53103],[-40.34453,-18.53172],[-40.34551,-18.5337],[-40.34622,-18.53739],[-40.34618,-18.54123],[-40.34541,-18.54375],[-40.34586,-18.54534],[-40.34748,-18.54768],[-40.34786,-18.54932],[-40.34611,-18.55092],[-40.3447,-18.553],[-40.34383,-18.55331],[-40.34205,-18.55317],[-40.34111,-18.55361],[-40.33984,-18.55576],[-40.33686,-18.55722],[-40.33519,-18.55876],[-40.33251,-18.55953],[-40.33207,-18.56043],[-40.3367,-18.56515],[-40.33765,-18.56699],[-40.33824,-18.56934],[-40.33777,-18.57258],[-40.33696,-18.57448],[-40.33417,-18.57847],[-40.33197,-18.58072],[-40.33084,-18.58083],[-40.32901,-18.57848],[-40.32781,-18.57774],[-40.32388,-18.57824],[-40.32023,-18.57795],[-40.31686,-18.57494],[-40.31463,-18.57444],[-40.31279,-18.57455],[-40.30996,-18.57537],[-40.30807,-18.57646],[-40.30691,-18.57688],[-40.3058,-18.57634],[-40.30508,-18.57493],[-40.30424,-18.57451],[-40.30209,-18.57277],[-40.29999,-18.57232],[-40.29948,-18.57262],[-40.29952,-18.5745],[-40.29789,-18.57552],[-40.29598,-18.5756],[-40.29108,-18.57371],[-40.28934,-18.57346],[-40.28817,-18.57407],[-40.28658,-18.57626],[-40.28575,-18.57681],[-40.28427,-18.5768]]]},"properties":{"codigo":"320100105","name":"Boa Esperança","population":9605,"households":4265,"areaKm2":173.009,"density":55.5}},{"type":"Feature","geometry":{"type":"Polygon","coordinates":[[[-40.29003,-18.48361],[-40.29012,-18.48212],[-40.29091,-18.48135],[-40.29204,-18.48143],[-40.29342,-18.47875],[-40.29272,-18.47607],[-40.29371,-18.47339],[-40.29472,-18.47222],[-40.29484,-18.4712],[-40.29587,-18.47066],[-40.29774,-18.46796],[-40.2988,-18.46693],[-40.29954,-18.46425],[-40.30175,-18.46437],[-40.30312,-18.46223],[-40.30298,-18.46179],[-40.30498,-18.46099],[-40.30573,-18.46015],[-40.3056,-18.4579],[-40.30741,-18.4582],[-40.30825,-18.4568],[-40.30828,-18.45434],[-40.30669,-18.45076],[-40.30557,-18.44776],[-40.30565,-18.44655],[-40.30746,-18.44551],[-40.30789,-18.44495],[-40.30753,-18.44369],[-40.30952,-18.44271],[-40.3096,-18.44183],[-40.3126,-18.44213],[-40.31345,-18.44186],[-40.31505,-18.44192],[-40.31592,-18.44094],[-40.31889,-18.44004],[-40.31948,-18.43853],[-40.31899,-18.43707],[-40.321,-18.43101],[-40.3205,-18.42868],[-40.32099,-18.42801],[-40.32112,-18.42659],[-40.32184,-18.42588],[-40.32163,-18.42419],[-40.32586,-18.42329],[-40.32763,-18.42336],[-40.3301,-18.42383],[-40.33645,-18.42411],[-40.33962,-18.4236],[-40.34296,-18.4226],[-40.34507,-18.4216],[-40.34789,-18.42076],[-40.35035,-18.41944],[-40.35298,-18.41828],[-40.35439,-18.41696],[-40.35508,-18.41565],[-40.35579,-18.41605],[-40.36836,-18.44904],[-40.37648,-18.4498],[-40.38371,-18.44926],[-40.389,-18.44938],[-40.39307,-18.45115],[-40.39737,-18.45937],[-40.40288,-18.46374],[-40.40995,-18.46516],[-40.41509,-18.46871],[-40.41838,-18.47352],[-40.41773,-18.47956],[-40.41767,-18.48173],[-40.41643,-18.4833],[-40.41589,-18.48483],[-40.41503,-18.48571],[-40.41517,-18.48745],[-40.41885,-18.4915],[-40.42067,-18.4944],[-40.42257,-18.49641],[-40.42485,-18.49741],[-40.42581,-18.49922],[-40.42631,-18.50263],[-40.42673,-18.5044],[-40.42632,-18.50632],[-40.42478,-18.50895],[-40.42068,-18.51064],[-40.41965,-18.5112],[-40.41615,-18.51466],[-40.41595,-18.51717],[-40.4172,-18.51876],[-40.41838,-18.51934],[-40.42189,-18.52001],[-40.42467,-18.52115],[-40.42518,-18.52159],[-40.42655,-18.52513],[-40.42664,-18.52586],[-40.42538,-18.52747],[-40.42429,-18.53049],[-40.42369,-18.53323],[-40.42406,-18.53475],[-40.42395,-18.53573],[-40.42273,-18.53683],[-40.42186,-18.53841],[-40.42138,-18.5399],[-40.42117,-18.54171],[-40.42046,-18.54251],[-40.41805,-18.5433],[-40.41642,-18.54336],[-40.41437,-18.54226],[-40.41266,-18.54328],[-40.41075,-18.54321],[-40.40886,-18.54424],[-40.40738,-18.54423],[-40.40605,-18.54373],[-40.40332,-18.54226],[-40.40196,-18.54211],[-40.40001,-18.54275],[-40.39886,-18.54406],[-40.3977,-18.544],[-40.39517,-18.54465],[-40.39308,-18.54569],[-40.39176,-18.54557],[-40.3905,-18.54445],[-40.38876,-18.5423],[-40.38657,-18.53987],[-40.38512,-18.53927],[-40.38306,-18.53902],[-40.38198,-18.53938],[-40.38017,-18.54048],[-40.37758,-18.54171],[-40.37612,-18.54302],[-40.37473,-18.54485],[-40.37349,-18.54536],[-40.37097,-18.54585],[-40.37002,-18.54633],[-40.36966,-18.54729],[-40.37106,-18.54967],[-40.371,-18.55124],[-40.36923,-18.55206],[-40.36714,-18.55211],[-40.36545,-18.55046],[-40.36093,-18.54726],[-40.35854,-18.5459],[-40.35646,-18.54641],[-40.35539,-18.54761],[-40.35329,-18.54912],[-40.352,-18.54927],[-40.34845,-18.54771],[-40.34748,-18.54768],[-40.34586,-18.54534],[-40.34541,-18.54375],[-40.34618,-18.54123],[-40.34622,-18.53739],[-40.34551,-18.5337],[-40.34453,-18.53172],[-40.34345,-18.53103],[-40.34132,-18.52822],[-40.34001,-18.52525],[-40.33977,-18.52267],[-40.33846,-18.51995],[-40.33546,-18.51937],[-40.33105,-18.5193],[-40.32741,-18.51963],[-40.32387,-18.51945],[-40.32043,-18.51848],[-40.31644,-18.51692],[-40.31214,-18.51586],[-40.30839,-18.51509],[-40.3088,-18.51325],[-40.30968,-18.51109],[-40.31091,-18.50897],[-40.31251,-18.50796],[-40.31294,-18.50706],[-40.31324,-18.50478],[-40.31361,-18.50402],[-40.31561,-18.5044],[-40.31721,-18.50083],[-40.31771,-18.50041],[-40.3204,-18.49951],[-40.32544,-18.4975],[-40.32382,-18.49552],[-40.32173,-18.49423],[-40.31995,-18.49361],[-40.3176,-18.49317],[-40.31513,-18.49292],[-40.31019,-18.49223],[-40.302,-18.49046],[-40.29592,-18.48869],[-40.29187,-18.48684],[-40.29003,-18.48361]]]},"properties":{"codigo":"320100140","name":"Santo Antônio do Pousalegre","population":2214,"households":984,"areaKm2":127.8611,"density":17.3}},{"type":"Feature","geometry":{"type":"Polygon","coordinates":[[[-40.32163,-18.42419],[-40.32182,-18.42308],[-40.32319,-18.42106],[-40.32333,-18.41933],[-40.32283,-18.41789],[-40.3239,-18.41445],[-40.32491,-18.41301],[-40.32514,-18.41062],[-40.32804,-18.40898],[-40.32813,-18.4083],[-40.32956,-18.4078],[-40.32929,-18.40605],[-40.33005,-18.40554],[-40.32937,-18.40406],[-40.32991,-18.40185],[-40.33073,-18.40007],[-40.3312,-18.40039],[-40.33247,-18.39915],[-40.33347,-18.39887],[-40.33575,-18.39727],[-40.33668,-18.39717],[-40.3375,-18.39622],[-40.34003,-18.39624],[-40.34019,-18.39453],[-40.3393,-18.39313],[-40.3393,-18.39223],[-40.34038,-18.38863],[-40.34155,-18.38983],[-40.34286,-18.38902],[-40.34412,-18.38878],[-40.34393,-18.3875],[-40.3452,-18.38726],[-40.34594,-18.38799],[-40.34701,-18.38757],[-40.34803,-18.38635],[-40.34896,-18.38449],[-40.34864,-18.38366],[-40.35014,-18.38188],[-40.35227,-18.38275],[-40.35359,-18.37994],[-40.35476,-18.37794],[-40.35541,-18.37802],[-40.35867,-18.37722],[-40.35944,-18.3783],[-40.36124,-18.37807],[-40.36157,-18.37741],[-40.36366,-18.37751],[-40.36523,-18.3779],[-40.36644,-18.37687],[-40.36771,-18.37679],[-40.36996,-18.37766],[-40.37059,-18.37694],[-40.37164,-18.37803],[-40.37369,-18.37856],[-40.37441,-18.37968],[-40.37678,-18.38031],[-40.37791,-18.3798],[-40.38281,-18.38208],[-40.38408,-18.38134],[-40.3842,-18.38062],[-40.38526,-18.38022],[-40.38625,-18.37935],[-40.38661,-18.38002],[-40.38759,-18.38015],[-40.38915,-18.38136],[-40.39171,-18.38202],[-40.39259,-18.38173],[-40.39464,-18.38189],[-40.39887,-18.38349],[-40.39964,-18.3842],[-40.40006,-18.3853],[-40.40083,-18.38553],[-40.40285,-18.38533],[-40.40434,-18.38423],[-40.40584,-18.38371],[-40.4081,-18.38261],[-40.40895,-18.38117],[-40.41156,-18.37906],[-40.4119,-18.37647],[-40.41274,-18.37535],[-40.41435,-18.37389],[-40.41483,-18.3741],[-40.41751,-18.37299],[-40.41841,-18.37183],[-40.41918,-18.37016],[-40.42061,-18.37015],[-40.42174,-18.36963],[-40.42253,-18.36745],[-40.42383,-18.36539],[-40.42534,-18.36532],[-40.42859,-18.36406],[-40.42967,-18.3625],[-40.43226,-18.3616],[-40.43488,-18.36133],[-40.43571,-18.36178],[-40.43596,-18.3629],[-40.43763,-18.36446],[-40.43893,-18.36455],[-40.44051,-18.36415],[-40.44149,-18.36298],[-40.44348,-18.36211],[-40.4448,-18.36292],[-40.44788,-18.36584],[-40.44855,-18.36679],[-40.44959,-18.36743],[-40.45133,-18.36785],[-40.45363,-18.36982],[-40.45379,-18.37116],[-40.45462,-18.37263],[-40.45671,-18.37503],[-40.45792,-18.3752],[-40.4596,-18.37371],[-40.46239,-18.37223],[-40.46506,-18.37272],[-40.46707,-18.37408],[-40.46863,-18.37375],[-40.46979,-18.3739],[-40.4717,-18.37563],[-40.47261,-18.37611],[-40.47506,-18.37591],[-40.47632,-18.37416],[-40.47649,-18.37221],[-40.47718,-18.37187],[-40.47822,-18.37035],[-40.48045,-18.36899],[-40.48136,-18.36814],[-40.48335,-18.36757],[-40.48499,-18.3667],[-40.48629,-18.36639],[-40.487,-18.37736],[-40.45091,-18.40672],[-40.45612,-18.41198],[-40.45449,-18.41342],[-40.45348,-18.41392],[-40.45169,-18.41364],[-40.44767,-18.41392],[-40.44717,-18.41448],[-40.44832,-18.41716],[-40.44851,-18.41879],[-40.44936,-18.42029],[-40.45058,-18.42125],[-40.45321,-18.42109],[-40.45382,-18.42135],[-40.45574,-18.42397],[-40.45805,-18.42512],[-40.45833,-18.42553],[-40.45868,-18.42779],[-40.45918,-18.42948],[-40.46479,-18.43095],[-40.46574,-18.43172],[-40.46575,-18.43305],[-40.46657,-18.43585],[-40.46628,-18.43706],[-40.46546,-18.43703],[-40.46441,-18.43633],[-40.46375,-18.43658],[-40.46195,-18.43806],[-40.46116,-18.43836],[-40.46024,-18.43959],[-40.4586,-18.44046],[-40.45799,-18.44225],[-40.45622,-18.44373],[-40.45553,-18.44462],[-40.45555,-18.44584],[-40.45625,-18.44762],[-40.45591,-18.44972],[-40.4552,-18.45085],[-40.4535,-18.45174],[-40.45214,-18.45283],[-40.45096,-18.45421],[-40.45092,-18.45517],[-40.4519,-18.45623],[-40.45372,-18.45654],[-40.45544,-18.45563],[-40.45671,-18.45545],[-40.4579,-18.45569],[-40.46002,-18.45693],[-40.46127,-18.45974],[-40.46161,-18.46096],[-40.46096,-18.46232],[-40.45871,-18.46247],[-40.45762,-18.46282],[-40.45621,-18.46373],[-40.45485,-18.46569],[-40.45355,-18.46826],[-40.45304,-18.47205],[-40.45332,-18.47297],[-40.45355,-18.47587],[-40.45298,-18.47661],[-40.45513,-18.47835],[-40.45549,-18.47949],[-40.45528,-18.48092],[-40.45643,-18.48421],[-40.45556,-18.48561],[-40.45302,-18.48603],[-40.45138,-18.48724],[-40.44868,-18.48809],[-40.44874,-18.48922],[-40.45052,-18.49073],[-40.45035,-18.49273],[-40.44939,-18.49523],[-40.44895,-18.49565],[-40.44585,-18.49642],[-40.44509,-18.4969],[-40.4433,-18.49991],[-40.44189,-18.50102],[-40.43865,-18.50216],[-40.43799,-18.50223],[-40.43548,-18.50133],[-40.43416,-18.50051],[-40.43296,-18.50013],[-40.43108,-18.50059],[-40.42895,-18.5029],[-40.42673,-18.5044],[-40.42631,-18.50263],[-40.42581,-18.49922],[-40.42485,-18.49741],[-40.42257,-18.49641],[-40.42067,-18.4944],[-40.41885,-18.4915],[-40.41517,-18.48745],[-40.41503,-18.48571],[-40.41589,-18.48483],[-40.41643,-18.4833],[-40.41767,-18.48173],[-40.41773,-18.47956],[-40.41838,-18.47352],[-40.41509,-18.46871],[-40.40995,-18.46516],[-40.40288,-18.46374],[-40.39737,-18.45937],[-40.39307,-18.45115],[-40.389,-18.44938],[-40.38371,-18.44926],[-40.37648,-18.4498],[-40.36836,-18.44904],[-40.35579,-18.41605],[-40.35508,-18.41565],[-40.35439,-18.41696],[-40.35298,-18.41828],[-40.35035,-18.41944],[-40.34789,-18.42076],[-40.34507,-18.4216],[-40.34296,-18.4226],[-40.33962,-18.4236],[-40.33645,-18.42411],[-40.3301,-18.42383],[-40.32763,-18.42336],[-40.32586,-18.42329],[-40.32163,-18.42419]]]},"properties":{"codigo":"320100145","name":"São José do Sobradinho","population":1789,"households":762,"areaKm2":127.8464,"density":14}}]}