{"type":"FeatureCollection","features":[{"type":"Feature","geometry":{"type":"Polygon","coordinates":[[[-41.6482,-20.35267],[-41.64756,-20.35279],[-41.64742,-20.35195],[-41.64743,-20.35088],[-41.64637,-20.34968],[-41.64586,-20.3489],[-41.64676,-20.34811],[-41.64836,-20.3511],[-41.64848,-20.35257],[-41.6482,-20.35267]]]},"properties":{"codigo":"3202652005","name":"Carolino Barrosa","population":331,"households":146,"areaKm2":0.0504,"density":6561.9}},{"type":"Feature","geometry":{"type":"Polygon","coordinates":[[[-41.64676,-20.34811],[-41.64646,-20.34765],[-41.6474,-20.34723],[-41.64775,-20.34783],[-41.64817,-20.34797],[-41.64892,-20.34763],[-41.64965,-20.34871],[-41.64973,-20.34938],[-41.64886,-20.34984],[-41.64991,-20.35168],[-41.65268,-20.35034],[-41.65328,-20.35102],[-41.65218,-20.35163],[-41.6519,-20.35119],[-41.65064,-20.35183],[-41.65063,-20.35223],[-41.65016,-20.3528],[-41.64896,-20.35364],[-41.6482,-20.35267],[-41.64848,-20.35257],[-41.64836,-20.3511],[-41.64676,-20.34811]]]},"properties":{"codigo":"3202652003","name":"João Butica","population":658,"households":252,"areaKm2":0.1424,"density":4621.7}},{"type":"Feature","geometry":{"type":"Polygon","coordinates":[[[-41.63475,-20.34262],[-41.63556,-20.34197],[-41.63664,-20.34202],[-41.63622,-20.34133],[-41.63542,-20.34049],[-41.63374,-20.34069],[-41.63325,-20.34038],[-41.63321,-20.33992],[-41.63487,-20.33979],[-41.63578,-20.33999],[-41.63655,-20.34075],[-41.63676,-20.3415],[-41.63707,-20.34186],[-41.63891,-20.34319],[-41.63928,-20.3438],[-41.63915,-20.34478],[-41.63724,-20.34391],[-41.63706,-20.34366],[-41.63582,-20.34338],[-41.63532,-20.34342],[-41.63475,-20.34262]]]},"properties":{"codigo":"3202652001","name":"Wilson Fernandes Pereira","population":195,"households":77,"areaKm2":0.1108,"density":1759.4}},{"type":"Feature","geometry":{"type":"Polygon","coordinates":[[[-41.63851,-20.34682],[-41.64379,-20.3506],[-41.6433,-20.35498],[-41.63645,-20.35544],[-41.63464,-20.35268],[-41.63294,-20.35141],[-41.63339,-20.35069],[-41.63449,-20.35048],[-41.63561,-20.34877],[-41.63637,-20.34735],[-41.63696,-20.34594],[-41.63757,-20.34655],[-41.63807,-20.34646],[-41.63851,-20.34682]]]},"properties":{"codigo":"3202652004","name":"João Tomaz","population":941,"households":407,"areaKm2":0.7292,"density":1290.5}},{"type":"Feature","geometry":{"type":"Polygon","coordinates":[[[-41.64363,-20.34292],[-41.64288,-20.34241],[-41.64193,-20.34201],[-41.642,-20.34148],[-41.64283,-20.34172],[-41.64397,-20.33874],[-41.64347,-20.33865],[-41.64235,-20.33791],[-41.63984,-20.33654],[-41.63808,-20.33572],[-41.63636,-20.33538],[-41.63531,-20.33554],[-41.63589,-20.33357],[-41.64275,-20.33659],[-41.64448,-20.33685],[-41.64606,-20.33679],[-41.64682,-20.3355],[-41.64839,-20.33316],[-41.64945,-20.33368],[-41.64888,-20.3351],[-41.64852,-20.33684],[-41.64815,-20.33729],[-41.64729,-20.33783],[-41.64526,-20.3378],[-41.64529,-20.3384],[-41.64496,-20.33933],[-41.64516,-20.34022],[-41.6444,-20.3404],[-41.644,-20.34159],[-41.64549,-20.34273],[-41.64507,-20.34333],[-41.64433,-20.34262],[-41.64383,-20.34301],[-41.64363,-20.34292]]]},"properties":{"codigo":"3202652006","name":"Laurentino Antônio de Faria","population":214,"households":86,"areaKm2":0.3503,"density":611}},{"type":"Feature","geometry":{"type":"Polygon","coordinates":[[[-41.64383,-20.34301],[-41.64366,-20.34341],[-41.64355,-20.34505],[-41.64269,-20.34439],[-41.64327,-20.3437],[-41.64363,-20.34292],[-41.64383,-20.34301]]]},"properties":{"codigo":"3202652002","name":"Bom Pastor","population":133,"households":52,"areaKm2":0.011,"density":12089.5}}]}