{"type":"FeatureCollection","features":[{"type":"Feature","geometry":{"type":"Polygon","coordinates":[[[-40.93539,-19.22269],[-40.93224,-19.22541],[-40.92874,-19.22598],[-40.92606,-19.22707],[-40.92542,-19.22949],[-40.92379,-19.23113],[-40.92391,-19.23202],[-40.91724,-19.23395],[-40.91619,-19.23356],[-40.91505,-19.2338],[-40.91353,-19.2337],[-40.91177,-19.23555],[-40.91009,-19.23684],[-40.9076,-19.23629],[-40.90492,-19.23632],[-40.90185,-19.23453],[-40.90096,-19.23436],[-40.89928,-19.23474],[-40.89822,-19.23417],[-40.89512,-19.23436],[-40.89194,-19.23568],[-40.89025,-19.23539],[-40.88835,-19.23566],[-40.88697,-19.2353],[-40.88583,-19.23462],[-40.88444,-19.23432],[-40.8818,-19.23435],[-40.88158,-19.2331],[-40.87853,-19.23246],[-40.87784,-19.23299],[-40.87609,-19.23503],[-40.87384,-19.23672],[-40.87377,-19.23762],[-40.87447,-19.23859],[-40.87596,-19.23843],[-40.87674,-19.23916],[-40.87707,-19.24035],[-40.88062,-19.24181],[-40.88088,-19.24334],[-40.88158,-19.24495],[-40.8824,-19.24498],[-40.8841,-19.24443],[-40.88621,-19.24331],[-40.88753,-19.24236],[-40.8883,-19.24242],[-40.89164,-19.24371],[-40.89073,-19.24625],[-40.89045,-19.24933],[-40.88982,-19.25143],[-40.88925,-19.25173],[-40.88718,-19.25177],[-40.8862,-19.2523],[-40.88381,-19.25457],[-40.88208,-19.25513],[-40.88021,-19.25518],[-40.87886,-19.25663],[-40.87843,-19.25764],[-40.87918,-19.25926],[-40.87895,-19.26023],[-40.87818,-19.26083],[-40.87654,-19.26335],[-40.87539,-19.26473],[-40.87784,-19.26897],[-40.88026,-19.27087],[-40.88252,-19.2722],[-40.88388,-19.27322],[-40.88609,-19.27412],[-40.88883,-19.27958],[-40.89232,-19.28076],[-40.89418,-19.28122],[-40.89384,-19.28481],[-40.8949,-19.28657],[-40.89421,-19.2877],[-40.88989,-19.28815],[-40.88881,-19.28857],[-40.88764,-19.28847],[-40.88484,-19.28753],[-40.88323,-19.28758],[-40.88083,-19.28809],[-40.87758,-19.2895],[-40.87574,-19.29093],[-40.87345,-19.29239],[-40.87265,-19.29363],[-40.86652,-19.29586],[-40.86684,-19.29681],[-40.86443,-19.29948],[-40.86391,-19.29947],[-40.86258,-19.30043],[-40.86167,-19.30228],[-40.86168,-19.30309],[-40.86071,-19.30566],[-40.86159,-19.30641],[-40.86236,-19.3077],[-40.86409,-19.3083],[-40.86628,-19.30974],[-40.8676,-19.30997],[-40.8712,-19.31196],[-40.87274,-19.31183],[-40.87409,-19.31206],[-40.87504,-19.31287],[-40.87617,-19.31487],[-40.87664,-19.31616],[-40.87597,-19.31684],[-40.87649,-19.31788],[-40.87775,-19.31886],[-40.87705,-19.32068],[-40.8771,-19.32198],[-40.87819,-19.32332],[-40.88001,-19.32429],[-40.88053,-19.32551],[-40.88077,-19.33069],[-40.88108,-19.33154],[-40.87902,-19.33197],[-40.87705,-19.33443],[-40.87407,-19.33356],[-40.87308,-19.33357],[-40.87024,-19.33431],[-40.86676,-19.33143],[-40.8663,-19.33151],[-40.86392,-19.33082],[-40.86332,-19.33025],[-40.86301,-19.32643],[-40.86141,-19.32593],[-40.86073,-19.32527],[-40.86102,-19.32335],[-40.86078,-19.32283],[-40.85834,-19.32289],[-40.85579,-19.32257],[-40.85446,-19.32267],[-40.85392,-19.32444],[-40.85519,-19.32562],[-40.85547,-19.32689],[-40.85474,-19.32748],[-40.85317,-19.3274],[-40.85302,-19.3282],[-40.85142,-19.32824],[-40.85122,-19.32908],[-40.85213,-19.33114],[-40.85306,-19.33256],[-40.8517,-19.3346],[-40.84998,-19.33507],[-40.84918,-19.33474],[-40.84714,-19.33532],[-40.84519,-19.33366],[-40.84321,-19.33366],[-40.84174,-19.33478],[-40.84149,-19.33587],[-40.84065,-19.33644],[-40.83898,-19.33677],[-40.83754,-19.33756],[-40.83391,-19.33684],[-40.83308,-19.33762],[-40.83144,-19.33851],[-40.82982,-19.33858],[-40.83039,-19.34104],[-40.83022,-19.34242],[-40.83049,-19.34347],[-40.8303,-19.34467],[-40.82835,-19.34795],[-40.82847,-19.34894],[-40.82756,-19.35005],[-40.82706,-19.35121],[-40.8273,-19.35246],[-40.82838,-19.35308],[-40.82856,-19.35472],[-40.8282,-19.3557],[-40.82678,-19.35637],[-40.82312,-19.35691],[-40.82142,-19.35669],[-40.82042,-19.35685],[-40.81908,-19.35628],[-40.81932,-19.35295],[-40.81992,-19.35233],[-40.81981,-19.35023],[-40.81835,-19.3499],[-40.81649,-19.35019],[-40.81492,-19.34949],[-40.81439,-19.34811],[-40.81429,-19.34543],[-40.81568,-19.34399],[-40.81561,-19.3415],[-40.81612,-19.34018],[-40.81551,-19.33795],[-40.81609,-19.33639],[-40.81504,-19.33553],[-40.81484,-19.33413],[-40.81361,-19.3341],[-40.81269,-19.33345],[-40.81353,-19.33252],[-40.81351,-19.33136],[-40.81629,-19.33098],[-40.81725,-19.3296],[-40.81779,-19.32813],[-40.81718,-19.32563],[-40.81599,-19.32346],[-40.81312,-19.32073],[-40.8118,-19.3191],[-40.811,-19.31727],[-40.80978,-19.31672],[-40.80891,-19.31691],[-40.80824,-19.31328],[-40.81025,-19.31069],[-40.81054,-19.30934],[-40.81038,-19.30811],[-40.80979,-19.30699],[-40.80799,-19.30566],[-40.80854,-19.3042],[-40.80817,-19.30343],[-40.80685,-19.30293],[-40.80472,-19.3025],[-40.80264,-19.30283],[-40.80274,-19.30124],[-40.80243,-19.30073],[-40.79947,-19.30018],[-40.79785,-19.30108],[-40.79579,-19.30035],[-40.79311,-19.29986],[-40.79182,-19.29865],[-40.79071,-19.29858],[-40.78888,-19.29795],[-40.7871,-19.29798],[-40.78653,-19.29605],[-40.7845,-19.29415],[-40.78402,-19.29232],[-40.78148,-19.29204],[-40.77923,-19.29251],[-40.77677,-19.29379],[-40.77598,-19.29493],[-40.77519,-19.29546],[-40.7741,-19.29547],[-40.773,-19.29367],[-40.76879,-19.29369],[-40.76698,-19.29457],[-40.76473,-19.29667],[-40.76352,-19.29743],[-40.76116,-19.29786],[-40.75827,-19.29756],[-40.75658,-19.29779],[-40.75434,-19.2972],[-40.75221,-19.29594],[-40.75114,-19.29488],[-40.75032,-19.29339],[-40.74649,-19.29353],[-40.74451,-19.29239],[-40.74184,-19.29225],[-40.73786,-19.29182],[-40.73735,-19.29142],[-40.73725,-19.29022],[-40.736,-19.2889],[-40.73342,-19.28807],[-40.73168,-19.28801],[-40.73077,-19.28743],[-40.72948,-19.28725],[-40.72679,-19.28927],[-40.72637,-19.29069],[-40.72525,-19.29085],[-40.72357,-19.29043],[-40.72284,-19.29169],[-40.72183,-19.29259],[-40.72139,-19.29566],[-40.72279,-19.29739],[-40.72237,-19.29808],[-40.72097,-19.2986],[-40.72004,-19.29831],[-40.71898,-19.29728],[-40.71737,-19.29738],[-40.71602,-19.29582],[-40.71453,-19.29364],[-40.7145,-19.29231],[-40.71095,-19.29045],[-40.71088,-19.28976],[-40.71002,-19.28857],[-40.7099,-19.28709],[-40.70943,-19.28504],[-40.70897,-19.28424],[-40.70847,-19.28237],[-40.70833,-19.28084],[-40.70862,-19.27974],[-40.7084,-19.27862],[-40.7092,-19.27717],[-40.70893,-19.27494],[-40.70946,-19.27225],[-40.70864,-19.26947],[-40.7087,-19.26633],[-40.70822,-19.26187],[-40.70622,-19.26094],[-40.70559,-19.26025],[-40.70433,-19.25663],[-40.69843,-19.25648],[-40.69599,-19.25661],[-40.69493,-19.25584],[-40.69563,-19.25319],[-40.69719,-19.25047],[-40.69938,-19.24934],[-40.69929,-19.24704],[-40.69985,-19.24447],[-40.70107,-19.24259],[-40.70116,-19.24159],[-40.69918,-19.23985],[-40.69741,-19.23867],[-40.69614,-19.23813],[-40.69267,-19.23744],[-40.69089,-19.23665],[-40.68774,-19.23588],[-40.68514,-19.23706],[-40.68438,-19.23825],[-40.68362,-19.23836],[-40.6832,-19.23991],[-40.67941,-19.2401],[-40.67893,-19.23983],[-40.67606,-19.24036],[-40.673,-19.23988],[-40.67322,-19.23831],[-40.67406,-19.23633],[-40.6741,-19.23471],[-40.67307,-19.23211],[-40.67162,-19.2312],[-40.67087,-19.22975],[-40.66981,-19.22856],[-40.66771,-19.22858],[-40.66586,-19.22978],[-40.66482,-19.23002],[-40.66481,-19.22822],[-40.66532,-19.2241],[-40.66442,-19.22268],[-40.66388,-19.21906],[-40.6635,-19.21826],[-40.66235,-19.21787],[-40.66094,-19.21613],[-40.65893,-19.21263],[-40.6588,-19.21077],[-40.65972,-19.20725],[-40.6593,-19.20612],[-40.65782,-19.20465],[-40.65733,-19.20282],[-40.65937,-19.20241],[-40.6618,-19.20691],[-40.66398,-19.20779],[-40.6662,-19.21092],[-40.6681,-19.21159],[-40.67041,-19.21305],[-40.6725,-19.21478],[-40.67421,-19.21791],[-40.67621,-19.21904],[-40.67835,-19.21947],[-40.68205,-19.22149],[-40.68379,-19.22132],[-40.68608,-19.2216],[-40.68761,-19.22317],[-40.6903,-19.22534],[-40.69169,-19.22685],[-40.69446,-19.22846],[-40.69793,-19.22905],[-40.69926,-19.23015],[-40.70291,-19.23008],[-40.70499,-19.23071],[-40.7057,-19.23343],[-40.70685,-19.23353],[-40.70828,-19.23303],[-40.7091,-19.23422],[-40.71036,-19.23421],[-40.71242,-19.23375],[-40.71415,-19.23494],[-40.71681,-19.23611],[-40.72054,-19.23681],[-40.72216,-19.23788],[-40.72368,-19.24005],[-40.72585,-19.23981],[-40.7271,-19.23871],[-40.72976,-19.23988],[-40.73114,-19.2414],[-40.73344,-19.24284],[-40.73756,-19.24384],[-40.74152,-19.24406],[-40.74358,-19.24495],[-40.74339,-19.24645],[-40.74272,-19.24915],[-40.74526,-19.25021],[-40.74586,-19.24629],[-40.74858,-19.24424],[-40.75447,-19.24006],[-40.75744,-19.23653],[-40.76168,-19.22992],[-40.77073,-19.22009],[-40.77527,-19.21582],[-40.77891,-19.21111],[-40.78216,-19.20874],[-40.78735,-19.20804],[-40.78985,-19.20587],[-40.79007,-19.20054],[-40.78932,-19.19496],[-40.79611,-19.18404],[-40.79906,-19.17855],[-40.80133,-19.17398],[-40.80411,-19.17207],[-40.80834,-19.17125],[-40.8109,-19.16824],[-40.81264,-19.16484],[-40.81151,-19.15504],[-40.81352,-19.15164],[-40.81762,-19.15147],[-40.82173,-19.15273],[-40.82439,-19.15199],[-40.82578,-19.14197],[-40.8275,-19.13688],[-40.82834,-19.13252],[-40.82966,-19.1277],[-40.82935,-19.12432],[-40.82808,-19.12096],[-40.82928,-19.11847],[-40.83125,-19.11722],[-40.8325,-19.11864],[-40.83321,-19.12123],[-40.83446,-19.12317],[-40.83678,-19.12288],[-40.83913,-19.11955],[-40.8391,-19.1163],[-40.83988,-19.11278],[-40.84232,-19.1112],[-40.84772,-19.11212],[-40.85002,-19.10963],[-40.85271,-19.10596],[-40.85501,-19.10429],[-40.85871,-19.10503],[-40.86084,-19.10624],[-40.86075,-19.10988],[-40.86514,-19.11244],[-40.87217,-19.11165],[-40.87888,-19.11249],[-40.88584,-19.11255],[-40.89243,-19.11469],[-40.8936,-19.11617],[-40.89216,-19.12139],[-40.88973,-19.12388],[-40.88935,-19.12662],[-40.89225,-19.12905],[-40.89126,-19.13264],[-40.88322,-19.13363],[-40.87707,-19.13395],[-40.8734,-19.1362],[-40.8731,-19.13965],[-40.87409,-19.14237],[-40.87779,-19.1435],[-40.88299,-19.1437],[-40.88486,-19.14648],[-40.88138,-19.15249],[-40.88263,-19.15469],[-40.88981,-19.15442],[-40.89483,-19.15177],[-40.90961,-19.14781],[-40.91262,-19.14804],[-40.91385,-19.14944],[-40.91237,-19.15338],[-40.9104,-19.15586],[-40.91282,-19.15734],[-40.91492,-19.15553],[-40.91879,-19.15459],[-40.92722,-19.15715],[-40.9316,-19.1589],[-40.93397,-19.161],[-40.93684,-19.16499],[-40.94111,-19.16833],[-40.94125,-19.16963],[-40.941,-19.17264],[-40.9421,-19.17536],[-40.94109,-19.18057],[-40.9396,-19.18266],[-40.93835,-19.18337],[-40.93727,-19.18295],[-40.93463,-19.18047],[-40.93366,-19.18045],[-40.93197,-19.1816],[-40.93145,-19.18244],[-40.93197,-19.18406],[-40.93278,-19.18529],[-40.93258,-19.18629],[-40.93002,-19.18794],[-40.92764,-19.18792],[-40.9265,-19.18855],[-40.92593,-19.1897],[-40.92853,-19.1923],[-40.92938,-19.19387],[-40.92969,-19.1964],[-40.92955,-19.19786],[-40.92791,-19.20019],[-40.92519,-19.20229],[-40.923,-19.20307],[-40.92267,-19.20409],[-40.92336,-19.20499],[-40.92539,-19.20619],[-40.92758,-19.20888],[-40.9297,-19.21365],[-40.93085,-19.2188],[-40.93055,-19.22139],[-40.93102,-19.22242],[-40.93234,-19.22276],[-40.93539,-19.22269]]]},"properties":{"codigo":"320400505","name":"Pancas","population":9936,"households":4625,"areaKm2":320.7297,"density":31}},{"type":"Feature","geometry":{"type":"Polygon","coordinates":[[[-40.94111,-19.16833],[-40.93684,-19.16499],[-40.93397,-19.161],[-40.9316,-19.1589],[-40.92722,-19.15715],[-40.91879,-19.15459],[-40.91492,-19.15553],[-40.91282,-19.15734],[-40.9104,-19.15586],[-40.91237,-19.15338],[-40.91385,-19.14944],[-40.91262,-19.14804],[-40.90961,-19.14781],[-40.89483,-19.15177],[-40.88981,-19.15442],[-40.88263,-19.15469],[-40.88138,-19.15249],[-40.88486,-19.14648],[-40.88299,-19.1437],[-40.87779,-19.1435],[-40.87409,-19.14237],[-40.8731,-19.13965],[-40.8734,-19.1362],[-40.87707,-19.13395],[-40.88322,-19.13363],[-40.89126,-19.13264],[-40.89225,-19.12905],[-40.88935,-19.12662],[-40.88973,-19.12388],[-40.89216,-19.12139],[-40.8936,-19.11617],[-40.89243,-19.11469],[-40.88584,-19.11255],[-40.87888,-19.11249],[-40.87217,-19.11165],[-40.86514,-19.11244],[-40.86075,-19.10988],[-40.86084,-19.10624],[-40.85871,-19.10503],[-40.85501,-19.10429],[-40.85271,-19.10596],[-40.85002,-19.10963],[-40.84772,-19.11212],[-40.84232,-19.1112],[-40.83988,-19.11278],[-40.8391,-19.1163],[-40.83913,-19.11955],[-40.83678,-19.12288],[-40.83446,-19.12317],[-40.83321,-19.12123],[-40.8325,-19.11864],[-40.83125,-19.11722],[-40.82928,-19.11847],[-40.82808,-19.12096],[-40.82935,-19.12432],[-40.82966,-19.1277],[-40.82834,-19.13252],[-40.8275,-19.13688],[-40.82578,-19.14197],[-40.82439,-19.15199],[-40.82173,-19.15273],[-40.81762,-19.15147],[-40.81352,-19.15164],[-40.81151,-19.15504],[-40.81264,-19.16484],[-40.8109,-19.16824],[-40.80834,-19.17125],[-40.80411,-19.17207],[-40.80133,-19.17398],[-40.79906,-19.17855],[-40.79611,-19.18404],[-40.78932,-19.19496],[-40.79007,-19.20054],[-40.78985,-19.20587],[-40.78735,-19.20804],[-40.78216,-19.20874],[-40.77891,-19.21111],[-40.77527,-19.21582],[-40.77073,-19.22009],[-40.76168,-19.22992],[-40.75744,-19.23653],[-40.75447,-19.24006],[-40.74858,-19.24424],[-40.74586,-19.24629],[-40.74526,-19.25021],[-40.74272,-19.24915],[-40.74339,-19.24645],[-40.74358,-19.24495],[-40.74152,-19.24406],[-40.73756,-19.24384],[-40.73344,-19.24284],[-40.73114,-19.2414],[-40.72976,-19.23988],[-40.7271,-19.23871],[-40.72585,-19.23981],[-40.72368,-19.24005],[-40.72216,-19.23788],[-40.72054,-19.23681],[-40.71681,-19.23611],[-40.71415,-19.23494],[-40.71242,-19.23375],[-40.71036,-19.23421],[-40.7091,-19.23422],[-40.70828,-19.23303],[-40.70685,-19.23353],[-40.7057,-19.23343],[-40.70499,-19.23071],[-40.70291,-19.23008],[-40.69926,-19.23015],[-40.69793,-19.22905],[-40.69446,-19.22846],[-40.69169,-19.22685],[-40.6903,-19.22534],[-40.68761,-19.22317],[-40.68608,-19.2216],[-40.68379,-19.22132],[-40.68205,-19.22149],[-40.67835,-19.21947],[-40.67621,-19.21904],[-40.67421,-19.21791],[-40.6725,-19.21478],[-40.67041,-19.21305],[-40.6681,-19.21159],[-40.6662,-19.21092],[-40.66398,-19.20779],[-40.6618,-19.20691],[-40.65937,-19.20241],[-40.66275,-19.2024],[-40.66449,-19.20287],[-40.66597,-19.20384],[-40.66842,-19.20411],[-40.67067,-19.20226],[-40.67031,-19.20007],[-40.66966,-19.19904],[-40.66967,-19.19771],[-40.66859,-19.19552],[-40.66765,-19.19478],[-40.66544,-19.19415],[-40.66477,-19.19354],[-40.66326,-19.19116],[-40.66182,-19.18991],[-40.66277,-19.18787],[-40.66343,-19.18583],[-40.66132,-19.18333],[-40.65897,-19.18274],[-40.65761,-19.18123],[-40.6567,-19.18069],[-40.65505,-19.17891],[-40.65516,-19.17783],[-40.65774,-19.17455],[-40.65847,-19.17405],[-40.65777,-19.17281],[-40.65615,-19.17207],[-40.65606,-19.16896],[-40.65658,-19.16722],[-40.65766,-19.16665],[-40.6608,-19.16689],[-40.66276,-19.16732],[-40.66405,-19.16808],[-40.66633,-19.16801],[-40.66792,-19.16666],[-40.66705,-19.16148],[-40.66716,-19.16053],[-40.67018,-19.159],[-40.67189,-19.15915],[-40.67308,-19.16004],[-40.67438,-19.16034],[-40.67594,-19.15923],[-40.67748,-19.15884],[-40.67831,-19.15699],[-40.6779,-19.15542],[-40.6783,-19.15308],[-40.67811,-19.14993],[-40.679,-19.1484],[-40.67948,-19.1466],[-40.67786,-19.1439],[-40.67765,-19.14273],[-40.67885,-19.14227],[-40.67996,-19.1424],[-40.6818,-19.14383],[-40.68432,-19.14449],[-40.68491,-19.14529],[-40.68552,-19.14748],[-40.68685,-19.14985],[-40.68748,-19.15132],[-40.68899,-19.15156],[-40.68982,-19.15075],[-40.69125,-19.14993],[-40.69166,-19.14942],[-40.6915,-19.14826],[-40.69202,-19.14684],[-40.69227,-19.14252],[-40.69156,-19.14171],[-40.69176,-19.14082],[-40.69266,-19.1395],[-40.69368,-19.13925],[-40.69518,-19.14012],[-40.6952,-19.14204],[-40.69603,-19.14249],[-40.69762,-19.14277],[-40.6985,-19.1426],[-40.70089,-19.14125],[-40.70127,-19.1401],[-40.70084,-19.13917],[-40.70009,-19.13512],[-40.6992,-19.13267],[-40.69803,-19.13183],[-40.69581,-19.13169],[-40.69442,-19.13027],[-40.69465,-19.12971],[-40.69402,-19.12762],[-40.69212,-19.12777],[-40.69063,-19.1273],[-40.68902,-19.12716],[-40.68834,-19.12532],[-40.68856,-19.12375],[-40.68774,-19.12181],[-40.6872,-19.11758],[-40.68667,-19.1149],[-40.68612,-19.11119],[-40.68571,-19.11041],[-40.6878,-19.10899],[-40.68859,-19.10959],[-40.691,-19.11029],[-40.69342,-19.11052],[-40.6957,-19.1094],[-40.69752,-19.10822],[-40.7007,-19.10759],[-40.70235,-19.10793],[-40.7046,-19.10945],[-40.70681,-19.10923],[-40.70899,-19.10939],[-40.71115,-19.10823],[-40.71259,-19.10856],[-40.71313,-19.10823],[-40.71326,-19.10643],[-40.71447,-19.10546],[-40.71529,-19.10404],[-40.71365,-19.10288],[-40.71398,-19.10053],[-40.71571,-19.09964],[-40.71589,-19.0989],[-40.71751,-19.09744],[-40.71735,-19.09494],[-40.71673,-19.09447],[-40.71623,-19.09323],[-40.7162,-19.09157],[-40.71754,-19.08942],[-40.71748,-19.0876],[-40.71705,-19.0857],[-40.71601,-19.08362],[-40.71628,-19.0826],[-40.7159,-19.08005],[-40.71471,-19.07758],[-40.71375,-19.07649],[-40.71194,-19.07529],[-40.711,-19.07394],[-40.70894,-19.07278],[-40.70744,-19.0729],[-40.70465,-19.07596],[-40.70357,-19.07618],[-40.70159,-19.07588],[-40.70049,-19.07502],[-40.70088,-19.07403],[-40.70214,-19.07286],[-40.7022,-19.07048],[-40.70426,-19.06902],[-40.70567,-19.06687],[-40.7055,-19.06599],[-40.70447,-19.0643],[-40.70358,-19.06096],[-40.70601,-19.05895],[-40.70851,-19.05897],[-40.71077,-19.05673],[-40.712,-19.05591],[-40.71382,-19.05592],[-40.71526,-19.05669],[-40.71693,-19.05696],[-40.71801,-19.05659],[-40.71921,-19.05703],[-40.71979,-19.05667],[-40.72038,-19.05409],[-40.72321,-19.054],[-40.72417,-19.05432],[-40.72494,-19.05064],[-40.72569,-19.04859],[-40.72703,-19.04635],[-40.72668,-19.04245],[-40.72833,-19.04217],[-40.72961,-19.04081],[-40.72943,-19.03917],[-40.72875,-19.03738],[-40.7294,-19.03609],[-40.72972,-19.03442],[-40.73197,-19.03425],[-40.73278,-19.03377],[-40.73466,-19.03201],[-40.73707,-19.03113],[-40.73794,-19.0306],[-40.73957,-19.0306],[-40.74019,-19.02922],[-40.73914,-19.02727],[-40.73997,-19.02437],[-40.74075,-19.02296],[-40.74228,-19.02261],[-40.74384,-19.02175],[-40.74441,-19.01914],[-40.7453,-19.01838],[-40.74575,-19.01707],[-40.74903,-19.01484],[-40.7516,-19.01172],[-40.7514,-19.00923],[-40.75163,-19.00807],[-40.75332,-19.00558],[-40.75388,-19.00429],[-40.75578,-19.00353],[-40.75615,-19.00243],[-40.7565,-19.00005],[-40.75754,-18.99844],[-40.7592,-18.998],[-40.76047,-18.99663],[-40.76187,-18.99582],[-40.76336,-18.99592],[-40.7652,-18.99492],[-40.76653,-18.99447],[-40.76847,-18.99492],[-40.77065,-18.99661],[-40.77242,-18.99826],[-40.7751,-18.99969],[-40.77601,-19.00125],[-40.77869,-19.00177],[-40.78037,-19.0039],[-40.78135,-19.00581],[-40.78203,-19.00644],[-40.7837,-19.00658],[-40.78562,-19.00766],[-40.78624,-19.00962],[-40.78576,-19.0102],[-40.78291,-19.01102],[-40.78186,-19.01157],[-40.78222,-19.01356],[-40.78151,-19.01568],[-40.78329,-19.01746],[-40.78341,-19.01903],[-40.78307,-19.02097],[-40.78646,-19.02209],[-40.78756,-19.02259],[-40.78887,-19.02578],[-40.79067,-19.02527],[-40.79367,-19.02573],[-40.79482,-19.02546],[-40.79745,-19.02553],[-40.80111,-19.02424],[-40.80396,-19.02389],[-40.8064,-19.02191],[-40.80883,-19.01975],[-40.81239,-19.01809],[-40.81456,-19.01734],[-40.81512,-19.01495],[-40.81564,-19.01505],[-40.81685,-19.0163],[-40.81967,-19.01765],[-40.82103,-19.01796],[-40.82353,-19.01755],[-40.82461,-19.01778],[-40.82758,-19.01917],[-40.82897,-19.02056],[-40.83091,-19.02054],[-40.83162,-19.02011],[-40.83375,-19.01964],[-40.83474,-19.0197],[-40.83522,-19.02075],[-40.83844,-19.02225],[-40.84012,-19.02235],[-40.84187,-19.02162],[-40.84455,-19.02114],[-40.84593,-19.02115],[-40.84688,-19.02012],[-40.84715,-19.01915],[-40.84941,-19.01958],[-40.85313,-19.02191],[-40.85412,-19.01986],[-40.85525,-19.01953],[-40.85657,-19.02005],[-40.85875,-19.02167],[-40.86162,-19.02245],[-40.86355,-19.02493],[-40.86691,-19.02559],[-40.87158,-19.02582],[-40.87589,-19.02682],[-40.88221,-19.03106],[-40.88211,-19.03523],[-40.87989,-19.03823],[-40.87977,-19.04073],[-40.88868,-19.04203],[-40.89059,-19.0434],[-40.88983,-19.04709],[-40.8865,-19.04906],[-40.88535,-19.05088],[-40.88844,-19.05321],[-40.895,-19.05231],[-40.89957,-19.0511],[-40.90163,-19.05223],[-40.90269,-19.05356],[-40.90501,-19.05456],[-40.90805,-19.05654],[-40.90934,-19.05647],[-40.91162,-19.05746],[-40.91204,-19.05819],[-40.91291,-19.06119],[-40.91052,-19.06269],[-40.91129,-19.06345],[-40.91445,-19.06463],[-40.9166,-19.0648],[-40.91733,-19.06514],[-40.91881,-19.06504],[-40.92116,-19.0652],[-40.92444,-19.06571],[-40.92568,-19.06707],[-40.92695,-19.06772],[-40.92804,-19.0679],[-40.9294,-19.06878],[-40.92997,-19.07019],[-40.93273,-19.0717],[-40.93642,-19.07311],[-40.93745,-19.073],[-40.93869,-19.07348],[-40.93938,-19.07417],[-40.94019,-19.0742],[-40.94059,-19.07557],[-40.94174,-19.0765],[-40.94341,-19.07729],[-40.94806,-19.07864],[-40.9496,-19.07922],[-40.94962,-19.07978],[-40.94808,-19.08222],[-40.94756,-19.08336],[-40.94747,-19.08553],[-40.94693,-19.0867],[-40.94616,-19.08697],[-40.94372,-19.08688],[-40.94165,-19.08619],[-40.93877,-19.08718],[-40.93894,-19.08952],[-40.93796,-19.09166],[-40.93879,-19.09383],[-40.94164,-19.09488],[-40.94488,-19.09552],[-40.94568,-19.09704],[-40.9488,-19.09742],[-40.94926,-19.09785],[-40.94959,-19.10086],[-40.95255,-19.10149],[-40.95519,-19.10367],[-40.95828,-19.10235],[-40.95966,-19.10338],[-40.96195,-19.10325],[-40.96307,-19.10682],[-40.96299,-19.10812],[-40.96347,-19.11085],[-40.96358,-19.11246],[-40.96418,-19.11302],[-40.96431,-19.11401],[-40.9636,-19.11642],[-40.96266,-19.11785],[-40.9625,-19.11895],[-40.96426,-19.12214],[-40.96288,-19.12189],[-40.96124,-19.12233],[-40.96062,-19.12293],[-40.95965,-19.12572],[-40.95817,-19.12834],[-40.95612,-19.12911],[-40.95607,-19.13037],[-40.95708,-19.13177],[-40.959,-19.13639],[-40.95997,-19.13735],[-40.96098,-19.13784],[-40.96213,-19.1395],[-40.96236,-19.14173],[-40.96195,-19.14406],[-40.95989,-19.14574],[-40.95819,-19.14592],[-40.95566,-19.14524],[-40.94808,-19.14161],[-40.94694,-19.14176],[-40.944,-19.144],[-40.94355,-19.14484],[-40.94358,-19.14636],[-40.94401,-19.14738],[-40.94574,-19.14978],[-40.94818,-19.15108],[-40.94886,-19.15328],[-40.94673,-19.15637],[-40.94291,-19.15866],[-40.94056,-19.1633],[-40.94111,-19.16833]]]},"properties":{"codigo":"320400515","name":"Lajinha","population":7109,"households":3433,"areaKm2":438.2813,"density":16.2}},{"type":"Feature","geometry":{"type":"Polygon","coordinates":[[[-40.906,-18.94046],[-40.91659,-18.94077],[-40.91643,-18.94244],[-40.91787,-18.94286],[-40.92021,-18.94275],[-40.92158,-18.94346],[-40.92268,-18.94482],[-40.92335,-18.94515],[-40.92669,-18.94469],[-40.93012,-18.94438],[-40.93185,-18.94391],[-40.93429,-18.94487],[-40.93505,-18.94579],[-40.93795,-18.94702],[-40.93927,-18.94625],[-40.94002,-18.94661],[-40.94175,-18.94618],[-40.94265,-18.94661],[-40.94476,-18.94543],[-40.94688,-18.94506],[-40.94837,-18.94509],[-40.94841,-18.94571],[-40.9496,-18.94727],[-40.94926,-18.94903],[-40.94828,-18.95093],[-40.94709,-18.95142],[-40.94675,-18.95363],[-40.94619,-18.9555],[-40.94623,-18.95855],[-40.94502,-18.95965],[-40.94889,-18.9909],[-40.95079,-19.00619],[-40.94891,-19.00465],[-40.94584,-19.00323],[-40.94634,-19.00135],[-40.94557,-18.99992],[-40.94422,-18.99806],[-40.94329,-18.99807],[-40.9417,-18.99898],[-40.93905,-18.99918],[-40.9385,-18.99875],[-40.93688,-18.99913],[-40.93638,-18.99959],[-40.93446,-18.99971],[-40.93313,-18.99865],[-40.93049,-18.9977],[-40.92831,-18.99787],[-40.92718,-18.99913],[-40.92571,-18.9993],[-40.92502,-18.99999],[-40.92614,-19.00148],[-40.92369,-19.00371],[-40.92352,-19.00538],[-40.92291,-19.0073],[-40.9217,-19.00844],[-40.91922,-19.00992],[-40.91848,-19.01015],[-40.91723,-19.01008],[-40.91602,-19.01071],[-40.91482,-19.01019],[-40.9148,-19.00958],[-40.91309,-19.01011],[-40.91157,-19.00864],[-40.91052,-19.00823],[-40.90967,-19.00868],[-40.90764,-19.00734],[-40.90663,-19.00906],[-40.9057,-19.00921],[-40.90495,-19.00878],[-40.90417,-19.00726],[-40.90311,-19.00738],[-40.90207,-19.00855],[-40.90065,-19.00724],[-40.90012,-19.0062],[-40.8989,-19.00656],[-40.89778,-19.00517],[-40.89571,-19.00552],[-40.89572,-19.00736],[-40.89713,-19.00781],[-40.89743,-19.00956],[-40.89637,-19.01053],[-40.89564,-19.01304],[-40.8954,-19.01643],[-40.89557,-19.01863],[-40.89607,-19.02115],[-40.89508,-19.02276],[-40.89497,-19.02456],[-40.89524,-19.02593],[-40.89635,-19.02687],[-40.89854,-19.02943],[-40.89916,-19.03185],[-40.89887,-19.03263],[-40.89879,-19.03451],[-40.89919,-19.03634],[-40.90087,-19.03709],[-40.90216,-19.03858],[-40.90208,-19.0403],[-40.90109,-19.04191],[-40.89864,-19.04379],[-40.89781,-19.04475],[-40.89637,-19.04528],[-40.89638,-19.04637],[-40.89791,-19.04812],[-40.89901,-19.05055],[-40.89957,-19.0511],[-40.895,-19.05231],[-40.88844,-19.05321],[-40.88535,-19.05088],[-40.8865,-19.04906],[-40.88983,-19.04709],[-40.89059,-19.0434],[-40.88868,-19.04203],[-40.87977,-19.04073],[-40.87989,-19.03823],[-40.88211,-19.03523],[-40.88221,-19.03106],[-40.87589,-19.02682],[-40.87158,-19.02582],[-40.86691,-19.02559],[-40.86355,-19.02493],[-40.86162,-19.02245],[-40.85875,-19.02167],[-40.85808,-18.96101],[-40.85785,-18.94037],[-40.906,-18.94046]]]},"properties":{"codigo":"320400525","name":"Vila Verde","population":1848,"households":972,"areaKm2":78.8315,"density":23.4}}]}