{"type":"FeatureCollection","features":[{"type":"Feature","geometry":{"type":"Polygon","coordinates":[[[-41.61355,-21.03318],[-41.61416,-21.03253],[-41.61646,-21.03118],[-41.61765,-21.03085],[-41.61844,-21.03009],[-41.62233,-21.02815],[-41.62378,-21.02763],[-41.6282,-21.02512],[-41.63096,-21.02332],[-41.63468,-21.01973],[-41.63607,-21.02027],[-41.63923,-21.01935],[-41.64321,-21.01785],[-41.64431,-21.01854],[-41.64409,-21.01929],[-41.64442,-21.02049],[-41.64715,-21.02199],[-41.64733,-21.01966],[-41.64938,-21.01831],[-41.64776,-21.01469],[-41.64747,-21.01346],[-41.64703,-21.00878],[-41.64691,-21.00559],[-41.64723,-21.0032],[-41.64643,-21.00031],[-41.64607,-21.0005],[-41.64434,-20.99908],[-41.64408,-20.9965],[-41.6437,-20.99468],[-41.64218,-20.99276],[-41.64181,-20.99111],[-41.64199,-20.98794],[-41.64127,-20.98544],[-41.6421,-20.98249],[-41.64121,-20.98021],[-41.64126,-20.97867],[-41.64219,-20.97579],[-41.64218,-20.97509],[-41.64142,-20.97245],[-41.64071,-20.97064],[-41.63924,-20.96792],[-41.63863,-20.96426],[-41.63917,-20.96059],[-41.63913,-20.96001],[-41.63679,-20.9561],[-41.63642,-20.954],[-41.63727,-20.95181],[-41.63812,-20.95127],[-41.6407,-20.95098],[-41.64373,-20.95255],[-41.64483,-20.95456],[-41.64628,-20.95644],[-41.64681,-20.95784],[-41.64658,-20.9594],[-41.64522,-20.96177],[-41.6451,-20.96282],[-41.66264,-20.96308],[-41.66471,-20.96452],[-41.66635,-20.96419],[-41.66789,-20.96287],[-41.67145,-20.96236],[-41.67389,-20.9633],[-41.67541,-20.96652],[-41.67634,-20.96924],[-41.67819,-20.97019],[-41.6797,-20.97035],[-41.68236,-20.96667],[-41.68387,-20.96632],[-41.68543,-20.9653],[-41.68825,-20.96689],[-41.69018,-20.96865],[-41.69191,-20.97059],[-41.69255,-20.97298],[-41.69445,-20.97513],[-41.69553,-20.97672],[-41.69379,-20.98247],[-41.69255,-20.98799],[-41.69205,-20.98929],[-41.6919,-20.99333],[-41.69194,-20.99554],[-41.69921,-20.99392],[-41.70206,-20.99227],[-41.7051,-20.99099],[-41.71035,-20.98984],[-41.71007,-20.99131],[-41.71072,-20.99186],[-41.71227,-20.99191],[-41.71557,-20.99131],[-41.7163,-20.99265],[-41.71747,-20.99383],[-41.7175,-20.99722],[-41.71715,-20.99778],[-41.71747,-20.9993],[-41.71854,-20.99937],[-41.71912,-20.99991],[-41.72019,-20.99963],[-41.72076,-21.00006],[-41.72142,-21.00201],[-41.72114,-21.00525],[-41.7217,-21.00616],[-41.72242,-21.00916],[-41.72175,-21.01108],[-41.72097,-21.01189],[-41.71963,-21.01253],[-41.71776,-21.01302],[-41.71455,-21.01541],[-41.71554,-21.01636],[-41.71588,-21.01877],[-41.71532,-21.02091],[-41.71543,-21.02233],[-41.71744,-21.02235],[-41.7178,-21.02425],[-41.71931,-21.02342],[-41.72002,-21.02406],[-41.72066,-21.0259],[-41.72315,-21.02595],[-41.72387,-21.02721],[-41.72482,-21.02998],[-41.7252,-21.03289],[-41.72456,-21.03531],[-41.72386,-21.03695],[-41.72253,-21.03849],[-41.72148,-21.0405],[-41.722,-21.04182],[-41.72182,-21.04305],[-41.71922,-21.04497],[-41.71853,-21.04455],[-41.71725,-21.04502],[-41.71741,-21.04641],[-41.71621,-21.04681],[-41.71691,-21.05052],[-41.71785,-21.05075],[-41.71914,-21.05409],[-41.72134,-21.05437],[-41.72216,-21.05531],[-41.72377,-21.05567],[-41.72455,-21.05484],[-41.72404,-21.05434],[-41.72505,-21.05297],[-41.72681,-21.05256],[-41.72722,-21.05022],[-41.72854,-21.04905],[-41.72935,-21.04963],[-41.72896,-21.05078],[-41.7295,-21.05209],[-41.72954,-21.05348],[-41.73038,-21.05709],[-41.73034,-21.05774],[-41.73171,-21.06059],[-41.73288,-21.06338],[-41.73299,-21.06421],[-41.73264,-21.0664],[-41.7317,-21.06697],[-41.72958,-21.06626],[-41.72746,-21.06708],[-41.72672,-21.06707],[-41.72585,-21.06601],[-41.7252,-21.06712],[-41.72346,-21.06699],[-41.722,-21.06795],[-41.72183,-21.06874],[-41.72224,-21.07045],[-41.72156,-21.0733],[-41.72314,-21.07528],[-41.72332,-21.07715],[-41.72403,-21.07748],[-41.72468,-21.07992],[-41.72566,-21.08216],[-41.72706,-21.0834],[-41.72823,-21.08519],[-41.72935,-21.08575],[-41.73034,-21.08563],[-41.73127,-21.08731],[-41.73178,-21.08972],[-41.732,-21.09234],[-41.73389,-21.09424],[-41.73444,-21.09521],[-41.73458,-21.09682],[-41.73362,-21.09784],[-41.73454,-21.09873],[-41.73547,-21.10019],[-41.73616,-21.101],[-41.73594,-21.1026],[-41.73401,-21.10344],[-41.73247,-21.1045],[-41.7317,-21.10445],[-41.73056,-21.10528],[-41.72875,-21.10716],[-41.72722,-21.1073],[-41.72629,-21.10683],[-41.72567,-21.10518],[-41.72329,-21.10364],[-41.72107,-21.10476],[-41.71992,-21.10643],[-41.71921,-21.10692],[-41.71694,-21.10509],[-41.71706,-21.10359],[-41.7163,-21.10319],[-41.71619,-21.10167],[-41.71513,-21.10064],[-41.71384,-21.09995],[-41.71281,-21.09902],[-41.71223,-21.09694],[-41.71127,-21.09545],[-41.71107,-21.09444],[-41.70967,-21.09278],[-41.70955,-21.09177],[-41.70857,-21.09085],[-41.70639,-21.09186],[-41.70366,-21.09229],[-41.70195,-21.09281],[-41.70114,-21.09041],[-41.7002,-21.08997],[-41.69729,-21.09065],[-41.69724,-21.08973],[-41.69618,-21.09001],[-41.6944,-21.08939],[-41.69392,-21.0874],[-41.69274,-21.08676],[-41.68398,-21.09072],[-41.68066,-21.08792],[-41.67862,-21.08523],[-41.67863,-21.08455],[-41.67956,-21.08285],[-41.67876,-21.08166],[-41.67834,-21.08024],[-41.67652,-21.08005],[-41.67592,-21.07906],[-41.67452,-21.07871],[-41.67264,-21.07982],[-41.6715,-21.07975],[-41.67066,-21.07617],[-41.67008,-21.07526],[-41.669,-21.07511],[-41.66704,-21.07763],[-41.66657,-21.07891],[-41.66534,-21.07889],[-41.66452,-21.07844],[-41.66266,-21.07863],[-41.6609,-21.0792],[-41.65846,-21.08045],[-41.65715,-21.08226],[-41.65769,-21.08409],[-41.65724,-21.08502],[-41.65598,-21.08581],[-41.65275,-21.08588],[-41.65147,-21.08515],[-41.65134,-21.08388],[-41.65037,-21.0825],[-41.64963,-21.08219],[-41.64872,-21.08108],[-41.64925,-21.07976],[-41.64836,-21.07885],[-41.64626,-21.07925],[-41.64495,-21.08013],[-41.64369,-21.07993],[-41.64262,-21.07792],[-41.64146,-21.0767],[-41.64025,-21.07645],[-41.63911,-21.07539],[-41.63692,-21.07436],[-41.63607,-21.07428],[-41.6346,-21.07487],[-41.63286,-21.07492],[-41.63196,-21.07345],[-41.63136,-21.07169],[-41.63149,-21.07023],[-41.63282,-21.06996],[-41.63182,-21.06791],[-41.63234,-21.06724],[-41.63106,-21.06588],[-41.62949,-21.06119],[-41.62995,-21.05987],[-41.62978,-21.05786],[-41.62839,-21.05635],[-41.62677,-21.05634],[-41.62533,-21.05579],[-41.62341,-21.05447],[-41.62235,-21.05311],[-41.62082,-21.05185],[-41.6215,-21.05059],[-41.62115,-21.04876],[-41.61959,-21.04641],[-41.61934,-21.04515],[-41.61748,-21.04262],[-41.61717,-21.04069],[-41.61678,-21.03986],[-41.61678,-21.03786],[-41.61707,-21.03701],[-41.61815,-21.03552],[-41.61809,-21.03388],[-41.61742,-21.03323],[-41.61631,-21.03321],[-41.61441,-21.03373],[-41.61355,-21.03318]]]},"properties":{"codigo":"320480705","name":"São José do Calçado","population":8291,"households":4186,"areaKm2":117.5121,"density":70.6}},{"type":"Feature","geometry":{"type":"Polygon","coordinates":[[[-41.73377,-20.94334],[-41.73163,-20.94533],[-41.73095,-20.94697],[-41.72906,-20.9475],[-41.72868,-20.94864],[-41.72593,-20.95058],[-41.72434,-20.95052],[-41.72179,-20.95144],[-41.71971,-20.95182],[-41.71882,-20.95266],[-41.71734,-20.95323],[-41.71758,-20.95708],[-41.71812,-20.96059],[-41.71802,-20.96504],[-41.7178,-20.96653],[-41.7173,-20.96748],[-41.71681,-20.97005],[-41.71629,-20.97176],[-41.71648,-20.97396],[-41.71598,-20.97557],[-41.71508,-20.97734],[-41.71334,-20.97843],[-41.71244,-20.98006],[-41.71159,-20.98104],[-41.71155,-20.98254],[-41.71065,-20.98684],[-41.7107,-20.98806],[-41.71035,-20.98984],[-41.7051,-20.99099],[-41.70206,-20.99227],[-41.69921,-20.99392],[-41.69194,-20.99554],[-41.6919,-20.99333],[-41.69205,-20.98929],[-41.69255,-20.98799],[-41.69379,-20.98247],[-41.69553,-20.97672],[-41.69445,-20.97513],[-41.69255,-20.97298],[-41.69191,-20.97059],[-41.69018,-20.96865],[-41.68825,-20.96689],[-41.68543,-20.9653],[-41.68387,-20.96632],[-41.68236,-20.96667],[-41.6797,-20.97035],[-41.67819,-20.97019],[-41.67634,-20.96924],[-41.67541,-20.96652],[-41.67389,-20.9633],[-41.67145,-20.96236],[-41.66789,-20.96287],[-41.66635,-20.96419],[-41.66471,-20.96452],[-41.66264,-20.96308],[-41.66174,-20.96128],[-41.66082,-20.95729],[-41.66079,-20.95563],[-41.66144,-20.95337],[-41.66558,-20.95085],[-41.66701,-20.94815],[-41.66734,-20.94464],[-41.67051,-20.94049],[-41.67212,-20.93949],[-41.67353,-20.93756],[-41.67381,-20.93503],[-41.67172,-20.93331],[-41.67157,-20.93202],[-41.67544,-20.9287],[-41.67497,-20.92652],[-41.67072,-20.92308],[-41.66927,-20.92036],[-41.66858,-20.91834],[-41.67018,-20.91628],[-41.66942,-20.91433],[-41.66759,-20.91223],[-41.66725,-20.91048],[-41.66783,-20.90862],[-41.66924,-20.90724],[-41.67025,-20.90727],[-41.6717,-20.90819],[-41.67233,-20.90796],[-41.67266,-20.90459],[-41.67386,-20.90189],[-41.67553,-20.90295],[-41.67573,-20.9044],[-41.6767,-20.9062],[-41.67779,-20.90752],[-41.67852,-20.90795],[-41.68,-20.90792],[-41.68178,-20.90855],[-41.68244,-20.90905],[-41.68303,-20.91247],[-41.68387,-20.91511],[-41.6847,-20.91653],[-41.68458,-20.91838],[-41.68382,-20.91958],[-41.68328,-20.9222],[-41.68459,-20.92373],[-41.68459,-20.92543],[-41.68519,-20.92645],[-41.68667,-20.92802],[-41.68687,-20.92935],[-41.68758,-20.93001],[-41.68853,-20.92966],[-41.69016,-20.93013],[-41.69089,-20.92966],[-41.69169,-20.92838],[-41.69162,-20.92633],[-41.69203,-20.92535],[-41.69175,-20.92386],[-41.69211,-20.92268],[-41.69326,-20.92244],[-41.6941,-20.92157],[-41.69506,-20.92139],[-41.69614,-20.92064],[-41.69781,-20.92139],[-41.69894,-20.92289],[-41.70163,-20.92321],[-41.70341,-20.92168],[-41.7055,-20.92144],[-41.70814,-20.92356],[-41.70901,-20.92492],[-41.70903,-20.92565],[-41.70971,-20.92723],[-41.71273,-20.93094],[-41.71352,-20.93122],[-41.71462,-20.93056],[-41.71568,-20.93046],[-41.71868,-20.93128],[-41.71983,-20.93318],[-41.7212,-20.93429],[-41.72291,-20.93503],[-41.72301,-20.93555],[-41.72123,-20.93598],[-41.7208,-20.93652],[-41.72161,-20.94015],[-41.72372,-20.94174],[-41.72776,-20.94013],[-41.7297,-20.94055],[-41.73051,-20.94204],[-41.73149,-20.94268],[-41.73321,-20.9428],[-41.73377,-20.94334]]]},"properties":{"codigo":"320480710","name":"Airituba","population":667,"households":385,"areaKm2":34.6106,"density":19.3}},{"type":"Feature","geometry":{"type":"Polygon","coordinates":[[[-41.62823,-20.86183],[-41.62895,-20.86161],[-41.63008,-20.86037],[-41.63126,-20.85838],[-41.63195,-20.8533],[-41.63148,-20.85232],[-41.6319,-20.85042],[-41.63261,-20.8496],[-41.63288,-20.84844],[-41.63472,-20.84672],[-41.63476,-20.84488],[-41.63553,-20.84428],[-41.63867,-20.84419],[-41.63911,-20.84486],[-41.63782,-20.84659],[-41.63809,-20.84845],[-41.63956,-20.85063],[-41.64108,-20.85082],[-41.64335,-20.85031],[-41.6441,-20.85182],[-41.64532,-20.85291],[-41.64572,-20.85454],[-41.64501,-20.85644],[-41.64539,-20.85787],[-41.64656,-20.85871],[-41.64624,-20.86192],[-41.64539,-20.86357],[-41.64567,-20.86503],[-41.64449,-20.86863],[-41.64474,-20.86992],[-41.64611,-20.87154],[-41.6472,-20.87535],[-41.64765,-20.87592],[-41.64943,-20.8766],[-41.65014,-20.87745],[-41.6497,-20.87935],[-41.64992,-20.88163],[-41.64978,-20.88232],[-41.6504,-20.88381],[-41.65214,-20.88458],[-41.65277,-20.88634],[-41.65145,-20.88841],[-41.65231,-20.88916],[-41.65259,-20.89023],[-41.65201,-20.89122],[-41.65258,-20.89198],[-41.65413,-20.89267],[-41.65512,-20.89278],[-41.6577,-20.89191],[-41.65825,-20.8941],[-41.65887,-20.89499],[-41.65998,-20.89488],[-41.66164,-20.89135],[-41.66228,-20.88866],[-41.66393,-20.8884],[-41.66659,-20.88879],[-41.67069,-20.88977],[-41.6708,-20.89023],[-41.66969,-20.89166],[-41.66974,-20.89411],[-41.67019,-20.89534],[-41.67121,-20.8966],[-41.67197,-20.89683],[-41.67261,-20.89796],[-41.67447,-20.89901],[-41.67449,-20.90043],[-41.67386,-20.90189],[-41.67266,-20.90459],[-41.67233,-20.90796],[-41.6717,-20.90819],[-41.67025,-20.90727],[-41.66924,-20.90724],[-41.66783,-20.90862],[-41.66725,-20.91048],[-41.66759,-20.91223],[-41.66942,-20.91433],[-41.67018,-20.91628],[-41.66858,-20.91834],[-41.66927,-20.92036],[-41.67072,-20.92308],[-41.67497,-20.92652],[-41.67544,-20.9287],[-41.67157,-20.93202],[-41.67172,-20.93331],[-41.67381,-20.93503],[-41.67353,-20.93756],[-41.67212,-20.93949],[-41.67051,-20.94049],[-41.66734,-20.94464],[-41.66701,-20.94815],[-41.66558,-20.95085],[-41.66144,-20.95337],[-41.66079,-20.95563],[-41.66082,-20.95729],[-41.66174,-20.96128],[-41.66264,-20.96308],[-41.6451,-20.96282],[-41.64522,-20.96177],[-41.64658,-20.9594],[-41.64681,-20.95784],[-41.64628,-20.95644],[-41.64483,-20.95456],[-41.64373,-20.95255],[-41.6407,-20.95098],[-41.63812,-20.95127],[-41.63727,-20.95181],[-41.63482,-20.95182],[-41.63226,-20.94964],[-41.63071,-20.95202],[-41.62951,-20.95304],[-41.62955,-20.95411],[-41.62828,-20.95671],[-41.62817,-20.95774],[-41.62679,-20.95941],[-41.62622,-20.96077],[-41.62407,-20.96197],[-41.62399,-20.96309],[-41.62506,-20.96698],[-41.62624,-20.96897],[-41.62604,-20.97012],[-41.62133,-20.96917],[-41.61996,-20.96766],[-41.61772,-20.96715],[-41.61603,-20.96718],[-41.61535,-20.96622],[-41.61422,-20.96556],[-41.61278,-20.96579],[-41.61032,-20.96543],[-41.60876,-20.96583],[-41.60594,-20.9669],[-41.60582,-20.96893],[-41.60504,-20.97031],[-41.60204,-20.97018],[-41.59954,-20.97031],[-41.59877,-20.97132],[-41.5982,-20.97337],[-41.59816,-20.97475],[-41.59771,-20.97611],[-41.5957,-20.97732],[-41.59433,-20.97757],[-41.59122,-20.97761],[-41.58964,-20.97684],[-41.58698,-20.97638],[-41.58326,-20.97774],[-41.58201,-20.97774],[-41.58081,-20.97663],[-41.58089,-20.97605],[-41.58358,-20.97485],[-41.58453,-20.97383],[-41.58534,-20.97364],[-41.58456,-20.97084],[-41.58379,-20.96987],[-41.58057,-20.96841],[-41.58001,-20.96646],[-41.58029,-20.96492],[-41.58013,-20.96366],[-41.57931,-20.96219],[-41.57926,-20.96095],[-41.57692,-20.95845],[-41.5747,-20.95704],[-41.574,-20.95701],[-41.57247,-20.95782],[-41.57145,-20.95677],[-41.57185,-20.95383],[-41.57284,-20.9513],[-41.57298,-20.94956],[-41.57346,-20.94916],[-41.57525,-20.94909],[-41.57636,-20.94846],[-41.57916,-20.94857],[-41.58172,-20.94792],[-41.58279,-20.94742],[-41.58346,-20.94624],[-41.58329,-20.94499],[-41.58216,-20.94323],[-41.58184,-20.94172],[-41.5825,-20.93997],[-41.58381,-20.93893],[-41.5858,-20.93787],[-41.58723,-20.936],[-41.58732,-20.93507],[-41.58596,-20.93392],[-41.58627,-20.93199],[-41.58697,-20.93069],[-41.5871,-20.9292],[-41.58612,-20.92736],[-41.5857,-20.92594],[-41.58338,-20.926],[-41.58311,-20.92495],[-41.58368,-20.92438],[-41.58287,-20.92363],[-41.5834,-20.92181],[-41.5817,-20.9218],[-41.57831,-20.92041],[-41.57834,-20.91727],[-41.57874,-20.91574],[-41.57973,-20.91516],[-41.58036,-20.91416],[-41.58074,-20.91226],[-41.57975,-20.9114],[-41.58056,-20.91048],[-41.58034,-20.90884],[-41.58062,-20.90812],[-41.58058,-20.90623],[-41.58176,-20.90456],[-41.58195,-20.90337],[-41.58285,-20.90222],[-41.58301,-20.90074],[-41.58414,-20.8994],[-41.58615,-20.89846],[-41.58686,-20.89751],[-41.59108,-20.89591],[-41.59245,-20.89556],[-41.59351,-20.89435],[-41.59328,-20.89286],[-41.59385,-20.89186],[-41.59482,-20.89142],[-41.5965,-20.89149],[-41.59877,-20.89091],[-41.5994,-20.89172],[-41.5994,-20.89489],[-41.59994,-20.89693],[-41.60059,-20.89752],[-41.60105,-20.90023],[-41.60152,-20.90091],[-41.60257,-20.90078],[-41.60396,-20.90008],[-41.60714,-20.89939],[-41.61026,-20.89988],[-41.61158,-20.90072],[-41.6133,-20.90026],[-41.61415,-20.89868],[-41.61536,-20.89792],[-41.61548,-20.89692],[-41.61457,-20.89659],[-41.6135,-20.89545],[-41.61225,-20.89275],[-41.61122,-20.89237],[-41.61123,-20.88866],[-41.61203,-20.88816],[-41.61247,-20.88696],[-41.61324,-20.88653],[-41.61414,-20.88513],[-41.6151,-20.88439],[-41.61697,-20.88045],[-41.61621,-20.8796],[-41.61711,-20.87645],[-41.61809,-20.87524],[-41.61907,-20.87491],[-41.62032,-20.87507],[-41.62123,-20.87462],[-41.62245,-20.87046],[-41.6233,-20.86814],[-41.62442,-20.86649],[-41.62515,-20.86598],[-41.6261,-20.86433],[-41.62742,-20.86375],[-41.62823,-20.86183]]]},"properties":{"codigo":"320480715","name":"Alto Calçado","population":1377,"households":782,"areaKm2":84.7852,"density":16.2}},{"type":"Feature","geometry":{"type":"Polygon","coordinates":[[[-41.58201,-20.97774],[-41.58326,-20.97774],[-41.58698,-20.97638],[-41.58964,-20.97684],[-41.59122,-20.97761],[-41.59433,-20.97757],[-41.5957,-20.97732],[-41.59771,-20.97611],[-41.59816,-20.97475],[-41.5982,-20.97337],[-41.59877,-20.97132],[-41.59954,-20.97031],[-41.60204,-20.97018],[-41.60504,-20.97031],[-41.60582,-20.96893],[-41.60594,-20.9669],[-41.60876,-20.96583],[-41.61032,-20.96543],[-41.61278,-20.96579],[-41.61422,-20.96556],[-41.61535,-20.96622],[-41.61603,-20.96718],[-41.61772,-20.96715],[-41.61996,-20.96766],[-41.62133,-20.96917],[-41.62604,-20.97012],[-41.62624,-20.96897],[-41.62506,-20.96698],[-41.62399,-20.96309],[-41.62407,-20.96197],[-41.62622,-20.96077],[-41.62679,-20.95941],[-41.62817,-20.95774],[-41.62828,-20.95671],[-41.62955,-20.95411],[-41.62951,-20.95304],[-41.63071,-20.95202],[-41.63226,-20.94964],[-41.63482,-20.95182],[-41.63727,-20.95181],[-41.63642,-20.954],[-41.63679,-20.9561],[-41.63913,-20.96001],[-41.63917,-20.96059],[-41.63863,-20.96426],[-41.63924,-20.96792],[-41.64071,-20.97064],[-41.64142,-20.97245],[-41.64218,-20.97509],[-41.64219,-20.97579],[-41.64126,-20.97867],[-41.64121,-20.98021],[-41.6421,-20.98249],[-41.64127,-20.98544],[-41.64199,-20.98794],[-41.64181,-20.99111],[-41.64218,-20.99276],[-41.6437,-20.99468],[-41.64408,-20.9965],[-41.64434,-20.99908],[-41.64607,-21.0005],[-41.64643,-21.00031],[-41.64723,-21.0032],[-41.64691,-21.00559],[-41.64703,-21.00878],[-41.64747,-21.01346],[-41.64776,-21.01469],[-41.64938,-21.01831],[-41.64733,-21.01966],[-41.64715,-21.02199],[-41.64442,-21.02049],[-41.64409,-21.01929],[-41.64431,-21.01854],[-41.64321,-21.01785],[-41.63923,-21.01935],[-41.63607,-21.02027],[-41.63468,-21.01973],[-41.63096,-21.02332],[-41.6282,-21.02512],[-41.62378,-21.02763],[-41.62233,-21.02815],[-41.61844,-21.03009],[-41.61765,-21.03085],[-41.61646,-21.03118],[-41.61416,-21.03253],[-41.61355,-21.03318],[-41.61285,-21.03228],[-41.6123,-21.03015],[-41.61214,-21.02757],[-41.61167,-21.02686],[-41.60871,-21.02615],[-41.60826,-21.02446],[-41.60812,-21.02287],[-41.60756,-21.02067],[-41.60638,-21.01897],[-41.60485,-21.01879],[-41.6019,-21.01981],[-41.60073,-21.02038],[-41.59924,-21.0203],[-41.59823,-21.02114],[-41.59721,-21.02068],[-41.59673,-21.01787],[-41.59705,-21.01625],[-41.59663,-21.01534],[-41.5958,-21.015],[-41.5954,-21.01372],[-41.59557,-21.01305],[-41.59493,-21.01232],[-41.59509,-21.01076],[-41.59311,-21.00892],[-41.59308,-21.00844],[-41.59139,-21.00767],[-41.59133,-21.0063],[-41.59086,-21.00477],[-41.59099,-21.00293],[-41.58905,-21.00156],[-41.58893,-20.99948],[-41.58814,-20.99869],[-41.58705,-20.99872],[-41.58561,-20.99804],[-41.5853,-20.9968],[-41.58581,-20.99536],[-41.58556,-20.99447],[-41.58392,-20.99326],[-41.58296,-20.99166],[-41.5819,-20.99064],[-41.58155,-20.98988],[-41.5821,-20.98875],[-41.58325,-20.98768],[-41.58344,-20.98623],[-41.58307,-20.98528],[-41.58304,-20.9838],[-41.5843,-20.98049],[-41.58431,-20.97996],[-41.58201,-20.97774]]]},"properties":{"codigo":"320480720","name":"Divino Espírito Santo","population":543,"households":390,"areaKm2":36.5813,"density":14.8}}]}