{"type":"FeatureCollection","features":[{"type":"Feature","geometry":{"type":"Polygon","coordinates":[[[-42.43109,-22.18265],[-42.42913,-22.18434],[-42.42686,-22.18485],[-42.4257,-22.18358],[-42.42172,-22.18141],[-42.41847,-22.17996],[-42.41706,-22.17915],[-42.41547,-22.17897],[-42.41378,-22.17941],[-42.412,-22.1804],[-42.40809,-22.1833],[-42.40696,-22.18451],[-42.405,-22.18469],[-42.40163,-22.18789],[-42.40053,-22.18834],[-42.39801,-22.18838],[-42.39702,-22.18781],[-42.39434,-22.18761],[-42.3929,-22.18798],[-42.38943,-22.18964],[-42.38732,-22.19047],[-42.38615,-22.19045],[-42.38498,-22.18996],[-42.38391,-22.18901],[-42.38008,-22.18738],[-42.37619,-22.18467],[-42.37495,-22.18348],[-42.37346,-22.18251],[-42.37212,-22.18218],[-42.37063,-22.18122],[-42.36981,-22.18003],[-42.36866,-22.179],[-42.36625,-22.1774],[-42.3661,-22.17662],[-42.36696,-22.17538],[-42.3691,-22.17315],[-42.37014,-22.17153],[-42.37132,-22.17092],[-42.37375,-22.17128],[-42.37594,-22.17092],[-42.37654,-22.17023],[-42.37656,-22.1689],[-42.37734,-22.16759],[-42.3771,-22.16688],[-42.37602,-22.16639],[-42.37384,-22.16636],[-42.37173,-22.16711],[-42.37056,-22.16669],[-42.36906,-22.16659],[-42.36726,-22.16407],[-42.36778,-22.16298],[-42.3657,-22.16201],[-42.36439,-22.16043],[-42.36356,-22.15995],[-42.3592,-22.15995],[-42.35819,-22.16017],[-42.35601,-22.16014],[-42.35491,-22.16043],[-42.35363,-22.16142],[-42.3517,-22.16147],[-42.35087,-22.16115],[-42.34981,-22.15949],[-42.34966,-22.1587],[-42.34995,-22.15644],[-42.35113,-22.15607],[-42.35191,-22.15515],[-42.3527,-22.15305],[-42.35246,-22.15266],[-42.35019,-22.15255],[-42.34929,-22.15152],[-42.34997,-22.1509],[-42.35291,-22.15056],[-42.3539,-22.15151],[-42.35525,-22.15122],[-42.35511,-22.14989],[-42.35589,-22.14834],[-42.35457,-22.14739],[-42.35376,-22.14581],[-42.35243,-22.14524],[-42.34998,-22.1459],[-42.34905,-22.14651],[-42.34763,-22.14618],[-42.34749,-22.14469],[-42.34819,-22.14291],[-42.34929,-22.14254],[-42.3505,-22.14092],[-42.35126,-22.14054],[-42.35189,-22.13813],[-42.35088,-22.13699],[-42.35015,-22.13685],[-42.34813,-22.1376],[-42.34609,-22.13905],[-42.34514,-22.1402],[-42.34241,-22.14258],[-42.33874,-22.1415],[-42.33773,-22.14172],[-42.33501,-22.14371],[-42.33445,-22.14253],[-42.3328,-22.14102],[-42.33223,-22.13976],[-42.33402,-22.13838],[-42.33404,-22.13752],[-42.33035,-22.13723],[-42.32902,-22.1369],[-42.32971,-22.13581],[-42.32901,-22.13284],[-42.32749,-22.13344],[-42.32679,-22.13499],[-42.32586,-22.1352],[-42.32508,-22.13246],[-42.32504,-22.12988],[-42.32656,-22.12959],[-42.32641,-22.12866],[-42.32376,-22.12674],[-42.32209,-22.12609],[-42.321,-22.12622],[-42.3195,-22.12596],[-42.31906,-22.1269],[-42.31904,-22.12807],[-42.31843,-22.12899],[-42.31709,-22.12905],[-42.31377,-22.12743],[-42.3138,-22.12595],[-42.31431,-22.1251],[-42.31626,-22.1242],[-42.31865,-22.12174],[-42.31892,-22.1208],[-42.31804,-22.11899],[-42.31511,-22.11848],[-42.31434,-22.1194],[-42.31329,-22.12196],[-42.31244,-22.12249],[-42.31059,-22.12238],[-42.31008,-22.12277],[-42.3087,-22.12477],[-42.30794,-22.12515],[-42.30648,-22.12677],[-42.30386,-22.12782],[-42.30181,-22.12989],[-42.2997,-22.13071],[-42.29769,-22.13084],[-42.29698,-22.13262],[-42.29638,-22.13331],[-42.29453,-22.13375],[-42.29376,-22.13452],[-42.29275,-22.13482],[-42.2915,-22.13448],[-42.28977,-22.1325],[-42.2884,-22.12975],[-42.28787,-22.12685],[-42.28865,-22.1253],[-42.28872,-22.12194],[-42.28941,-22.12094],[-42.29051,-22.1201],[-42.29129,-22.11894],[-42.29309,-22.1171],[-42.29597,-22.11503],[-42.29679,-22.11609],[-42.29786,-22.1166],[-42.29949,-22.11929],[-42.29971,-22.12043],[-42.30056,-22.12197],[-42.30196,-22.12057],[-42.30369,-22.11963],[-42.30437,-22.11833],[-42.30652,-22.11707],[-42.30836,-22.11751],[-42.30904,-22.1172],[-42.30981,-22.11401],[-42.3105,-22.1127],[-42.31076,-22.11113],[-42.31211,-22.11065],[-42.31493,-22.11007],[-42.31595,-22.10951],[-42.31736,-22.11093],[-42.31915,-22.11212],[-42.32004,-22.11198],[-42.32137,-22.11368],[-42.32434,-22.1147],[-42.32361,-22.1178],[-42.32425,-22.11998],[-42.32593,-22.11956],[-42.32822,-22.12209],[-42.32936,-22.12154],[-42.33074,-22.12153],[-42.33188,-22.12269],[-42.3325,-22.12394],[-42.3342,-22.12538],[-42.33531,-22.12515],[-42.33648,-22.12372],[-42.33755,-22.12361],[-42.33866,-22.12452],[-42.34136,-22.12399],[-42.34274,-22.12431],[-42.34334,-22.12293],[-42.34275,-22.1218],[-42.343,-22.11983],[-42.34356,-22.11909],[-42.34309,-22.11717],[-42.34262,-22.11631],[-42.34319,-22.1158],[-42.34334,-22.1129],[-42.34369,-22.11207],[-42.34506,-22.11129],[-42.34733,-22.10941],[-42.34813,-22.10788],[-42.34854,-22.10844],[-42.352,-22.11007],[-42.35254,-22.11052],[-42.35562,-22.11119],[-42.35666,-22.11297],[-42.35883,-22.11302],[-42.36143,-22.11394],[-42.36197,-22.11516],[-42.36594,-22.11607],[-42.36719,-22.11436],[-42.36797,-22.11431],[-42.37205,-22.11549],[-42.37337,-22.11657],[-42.37455,-22.11679],[-42.37585,-22.11758],[-42.3763,-22.11895],[-42.37733,-22.11981],[-42.37817,-22.12171],[-42.37783,-22.12358],[-42.37832,-22.12432],[-42.38049,-22.12566],[-42.38313,-22.12622],[-42.38401,-22.12703],[-42.38579,-22.12749],[-42.38633,-22.12848],[-42.38787,-22.13014],[-42.38879,-22.12927],[-42.39377,-22.12826],[-42.39365,-22.12644],[-42.39322,-22.12446],[-42.39189,-22.12349],[-42.39209,-22.12279],[-42.39661,-22.11969],[-42.39767,-22.11988],[-42.39972,-22.11952],[-42.40127,-22.12008],[-42.40201,-22.11989],[-42.40239,-22.11902],[-42.40385,-22.11844],[-42.40516,-22.11973],[-42.40736,-22.12013],[-42.40911,-22.11905],[-42.40946,-22.11821],[-42.41232,-22.11636],[-42.41512,-22.1166],[-42.41556,-22.11712],[-42.41775,-22.11702],[-42.41845,-22.11737],[-42.42083,-22.11644],[-42.42164,-22.11778],[-42.42308,-22.11905],[-42.42343,-22.11834],[-42.4235,-22.11468],[-42.42416,-22.11453],[-42.42644,-22.11493],[-42.42754,-22.1142],[-42.42919,-22.11503],[-42.43018,-22.11694],[-42.43298,-22.1184],[-42.4339,-22.11973],[-42.43568,-22.12087],[-42.4373,-22.12129],[-42.43959,-22.12262],[-42.44112,-22.1213],[-42.44272,-22.11949],[-42.44381,-22.11903],[-42.44443,-22.1179],[-42.44642,-22.11701],[-42.44794,-22.11781],[-42.44904,-22.11801],[-42.45001,-22.11705],[-42.4522,-22.11689],[-42.45455,-22.11735],[-42.45492,-22.11572],[-42.45929,-22.11395],[-42.46147,-22.1141],[-42.46225,-22.11376],[-42.46418,-22.1136],[-42.46543,-22.11288],[-42.46735,-22.1113],[-42.47055,-22.11261],[-42.47123,-22.11327],[-42.47192,-22.11561],[-42.4717,-22.11749],[-42.47039,-22.11992],[-42.46944,-22.12041],[-42.46935,-22.12227],[-42.4689,-22.12436],[-42.46725,-22.12655],[-42.46585,-22.12769],[-42.46349,-22.12828],[-42.4636,-22.12889],[-42.46535,-22.13065],[-42.4669,-22.13143],[-42.46588,-22.13283],[-42.46384,-22.13436],[-42.46168,-22.13738],[-42.46045,-22.14079],[-42.45932,-22.1428],[-42.45852,-22.14529],[-42.45756,-22.14738],[-42.45662,-22.14831],[-42.45299,-22.15004],[-42.45146,-22.15119],[-42.45026,-22.1525],[-42.44938,-22.15483],[-42.44866,-22.15763],[-42.44831,-22.16163],[-42.44787,-22.1641],[-42.44718,-22.16495],[-42.44346,-22.16645],[-42.44227,-22.16721],[-42.4397,-22.17045],[-42.43944,-22.17115],[-42.43948,-22.17349],[-42.43845,-22.17465],[-42.4366,-22.17493],[-42.43616,-22.17594],[-42.4363,-22.17766],[-42.43569,-22.17867],[-42.43383,-22.17965],[-42.43187,-22.18134],[-42.43109,-22.18265]]]},"properties":{"codigo":"330050605","name":"Bom Jardim","population":16023,"households":7583,"areaKm2":83.3327,"density":192.3}},{"type":"Feature","geometry":{"type":"Polygon","coordinates":[[[-42.4669,-22.13143],[-42.50182,-22.14947],[-42.52211,-22.15995],[-42.48567,-22.19378],[-42.48458,-22.19614],[-42.48549,-22.20017],[-42.48508,-22.20058],[-42.48236,-22.20192],[-42.48153,-22.20294],[-42.48059,-22.20297],[-42.48037,-22.20381],[-42.47918,-22.20379],[-42.47701,-22.20625],[-42.47632,-22.2075],[-42.47532,-22.20822],[-42.47365,-22.20989],[-42.47195,-22.21113],[-42.47169,-22.21182],[-42.47253,-22.21485],[-42.47245,-22.21651],[-42.47166,-22.21907],[-42.47192,-22.22059],[-42.47247,-22.22182],[-42.47336,-22.2223],[-42.47512,-22.22221],[-42.47507,-22.22322],[-42.47402,-22.22437],[-42.47342,-22.22478],[-42.46873,-22.22373],[-42.46819,-22.22256],[-42.46817,-22.2197],[-42.46695,-22.2183],[-42.46526,-22.21759],[-42.46038,-22.21642],[-42.45749,-22.21541],[-42.45227,-22.2128],[-42.44497,-22.20888],[-42.44415,-22.20816],[-42.44109,-22.2048],[-42.43726,-22.20159],[-42.43122,-22.19872],[-42.43123,-22.19834],[-42.43313,-22.19684],[-42.43437,-22.19527],[-42.43501,-22.19338],[-42.43623,-22.18853],[-42.43622,-22.18742],[-42.43507,-22.186],[-42.43109,-22.18265],[-42.43187,-22.18134],[-42.43383,-22.17965],[-42.43569,-22.17867],[-42.4363,-22.17766],[-42.43616,-22.17594],[-42.4366,-22.17493],[-42.43845,-22.17465],[-42.43948,-22.17349],[-42.43944,-22.17115],[-42.4397,-22.17045],[-42.44227,-22.16721],[-42.44346,-22.16645],[-42.44718,-22.16495],[-42.44787,-22.1641],[-42.44831,-22.16163],[-42.44866,-22.15763],[-42.44938,-22.15483],[-42.45026,-22.1525],[-42.45146,-22.15119],[-42.45299,-22.15004],[-42.45662,-22.14831],[-42.45756,-22.14738],[-42.45852,-22.14529],[-42.45932,-22.1428],[-42.46045,-22.14079],[-42.46168,-22.13738],[-42.46384,-22.13436],[-42.46588,-22.13283],[-42.4669,-22.13143]]]},"properties":{"codigo":"330050610","name":"Banquete","population":3021,"households":1641,"areaKm2":47.4551,"density":63.7}},{"type":"Feature","geometry":{"type":"Polygon","coordinates":[[[-42.35088,-22.13699],[-42.35052,-22.13795],[-42.34854,-22.14003],[-42.34698,-22.14101],[-42.34554,-22.14254],[-42.34512,-22.14378],[-42.34283,-22.14773],[-42.34071,-22.15021],[-42.34015,-22.15114],[-42.33923,-22.15399],[-42.33914,-22.15511],[-42.33802,-22.15784],[-42.33665,-22.15925],[-42.3357,-22.15986],[-42.33365,-22.16189],[-42.33097,-22.16296],[-42.32927,-22.16418],[-42.32817,-22.16572],[-42.32808,-22.16672],[-42.32952,-22.16857],[-42.3313,-22.17041],[-42.33186,-22.17241],[-42.33143,-22.1739],[-42.32969,-22.17718],[-42.32959,-22.17886],[-42.3286,-22.18544],[-42.32842,-22.18762],[-42.32766,-22.18923],[-42.32767,-22.19187],[-42.32877,-22.19374],[-42.33155,-22.19927],[-42.33274,-22.20366],[-42.33285,-22.20478],[-42.33443,-22.20662],[-42.33657,-22.21002],[-42.33351,-22.21241],[-42.33242,-22.21357],[-42.3322,-22.21444],[-42.33303,-22.21664],[-42.33626,-22.2195],[-42.3375,-22.22145],[-42.33705,-22.2235],[-42.33664,-22.22412],[-42.3325,-22.22711],[-42.32901,-22.2273],[-42.32704,-22.22833],[-42.32423,-22.23165],[-42.3216,-22.23585],[-42.32125,-22.23672],[-42.32204,-22.23735],[-42.32573,-22.23748],[-42.32915,-22.23722],[-42.33118,-22.23669],[-42.33304,-22.23722],[-42.3341,-22.2378],[-42.33399,-22.24029],[-42.33422,-22.24242],[-42.33531,-22.24506],[-42.33746,-22.24815],[-42.3379,-22.24984],[-42.33894,-22.25148],[-42.34059,-22.25294],[-42.34144,-22.25414],[-42.34207,-22.25621],[-42.34151,-22.2572],[-42.34181,-22.25901],[-42.34227,-22.25995],[-42.34325,-22.26091],[-42.3437,-22.26204],[-42.34361,-22.26328],[-42.34149,-22.26574],[-42.34804,-22.27034],[-42.34856,-22.27484],[-42.34863,-22.27783],[-42.34821,-22.27889],[-42.3457,-22.28047],[-42.34415,-22.28088],[-42.34261,-22.28098],[-42.3394,-22.2803],[-42.33648,-22.27895],[-42.33614,-22.27941],[-42.33829,-22.28203],[-42.33985,-22.28493],[-42.34093,-22.288],[-42.34251,-22.28952],[-42.34457,-22.29043],[-42.34695,-22.29222],[-42.34873,-22.29399],[-42.34983,-22.29638],[-42.35113,-22.29968],[-42.34878,-22.3023],[-42.34632,-22.3028],[-42.34576,-22.30364],[-42.34365,-22.30424],[-42.34112,-22.30285],[-42.33874,-22.30226],[-42.33782,-22.3005],[-42.33612,-22.30005],[-42.33472,-22.29922],[-42.33281,-22.29895],[-42.3291,-22.29972],[-42.32706,-22.29914],[-42.32655,-22.29819],[-42.32466,-22.29839],[-42.32312,-22.29886],[-42.32037,-22.29888],[-42.31825,-22.29841],[-42.31756,-22.29786],[-42.31593,-22.29778],[-42.31436,-22.29647],[-42.31256,-22.29551],[-42.30928,-22.29497],[-42.30824,-22.29425],[-42.30562,-22.29322],[-42.30372,-22.29313],[-42.30279,-22.29354],[-42.3015,-22.29345],[-42.30024,-22.29476],[-42.29897,-22.29543],[-42.29809,-22.29528],[-42.29553,-22.29595],[-42.29487,-22.29564],[-42.29463,-22.29465],[-42.29274,-22.29352],[-42.29042,-22.29272],[-42.28917,-22.29296],[-42.28754,-22.29216],[-42.28764,-22.29103],[-42.28626,-22.29045],[-42.28614,-22.28875],[-42.28992,-22.2884],[-42.29106,-22.28896],[-42.29232,-22.28837],[-42.29309,-22.28849],[-42.29486,-22.28583],[-42.29435,-22.28386],[-42.29358,-22.28329],[-42.29284,-22.28191],[-42.29149,-22.28054],[-42.28954,-22.2797],[-42.28714,-22.27937],[-42.28593,-22.27959],[-42.28399,-22.27908],[-42.28329,-22.27865],[-42.28152,-22.27832],[-42.28028,-22.27583],[-42.28142,-22.27455],[-42.28182,-22.2733],[-42.28043,-22.27183],[-42.2789,-22.27217],[-42.27805,-22.27111],[-42.27642,-22.27096],[-42.27504,-22.27038],[-42.27395,-22.27049],[-42.27155,-22.26757],[-42.27003,-22.26692],[-42.26892,-22.26727],[-42.26808,-22.26683],[-42.26459,-22.26635],[-42.26291,-22.26495],[-42.26238,-22.26394],[-42.26072,-22.26238],[-42.26055,-22.25954],[-42.26005,-22.25872],[-42.25822,-22.25825],[-42.25646,-22.25734],[-42.25301,-22.25705],[-42.25149,-22.25585],[-42.25406,-22.25223],[-42.253,-22.25033],[-42.25166,-22.2491],[-42.25059,-22.24857],[-42.24859,-22.24813],[-42.24853,-22.24649],[-42.24769,-22.24495],[-42.24842,-22.24348],[-42.24818,-22.24268],[-42.24845,-22.24091],[-42.24908,-22.23942],[-42.24984,-22.23879],[-42.25026,-22.23736],[-42.24569,-22.23672],[-42.24506,-22.23602],[-42.24373,-22.23584],[-42.24191,-22.23485],[-42.24007,-22.23525],[-42.23872,-22.23394],[-42.23897,-22.232],[-42.23882,-22.23129],[-42.23681,-22.22787],[-42.23572,-22.22722],[-42.23433,-22.22762],[-42.23347,-22.22649],[-42.23346,-22.22466],[-42.23646,-22.22518],[-42.23831,-22.225],[-42.23894,-22.22394],[-42.23998,-22.22326],[-42.24183,-22.22349],[-42.24304,-22.22216],[-42.2444,-22.22166],[-42.24572,-22.22206],[-42.25033,-22.22202],[-42.25224,-22.22105],[-42.25331,-22.21971],[-42.25427,-22.21911],[-42.25565,-22.21699],[-42.2566,-22.21622],[-42.25839,-22.2158],[-42.26096,-22.21595],[-42.26224,-22.21669],[-42.26513,-22.21677],[-42.26631,-22.21508],[-42.26818,-22.2151],[-42.26912,-22.21338],[-42.2706,-22.212],[-42.272,-22.21179],[-42.27348,-22.20969],[-42.27397,-22.20822],[-42.27523,-22.20827],[-42.27757,-22.20884],[-42.27941,-22.20907],[-42.28107,-22.2079],[-42.28212,-22.20625],[-42.2828,-22.20589],[-42.2835,-22.20365],[-42.28426,-22.20265],[-42.28558,-22.20165],[-42.28608,-22.20083],[-42.28395,-22.19955],[-42.28286,-22.19789],[-42.28418,-22.19707],[-42.28518,-22.19592],[-42.28377,-22.19521],[-42.28317,-22.19434],[-42.28035,-22.19352],[-42.27857,-22.19384],[-42.27826,-22.193],[-42.27993,-22.19184],[-42.28069,-22.19013],[-42.28021,-22.18884],[-42.28047,-22.18723],[-42.28119,-22.18662],[-42.28214,-22.18425],[-42.28271,-22.18372],[-42.28267,-22.18274],[-42.28204,-22.18168],[-42.28281,-22.18017],[-42.28389,-22.17908],[-42.28458,-22.17885],[-42.28566,-22.17516],[-42.28656,-22.17429],[-42.28688,-22.17323],[-42.28858,-22.17335],[-42.28882,-22.17255],[-42.28986,-22.17159],[-42.29189,-22.17068],[-42.2924,-22.16788],[-42.29316,-22.16682],[-42.2939,-22.16509],[-42.29336,-22.16283],[-42.29228,-22.16204],[-42.29172,-22.16021],[-42.29315,-22.15972],[-42.29436,-22.15701],[-42.29423,-22.15487],[-42.29575,-22.15392],[-42.29655,-22.15383],[-42.2975,-22.15222],[-42.29762,-22.15127],[-42.29645,-22.14856],[-42.29543,-22.14782],[-42.29458,-22.14673],[-42.29442,-22.1456],[-42.29463,-22.14303],[-42.2938,-22.14164],[-42.293,-22.14139],[-42.291,-22.13966],[-42.28996,-22.13941],[-42.28836,-22.13984],[-42.28656,-22.1409],[-42.28602,-22.14086],[-42.28502,-22.14187],[-42.28361,-22.14232],[-42.27983,-22.14171],[-42.27909,-22.14026],[-42.27847,-22.1361],[-42.27889,-22.13522],[-42.27865,-22.13355],[-42.27707,-22.13189],[-42.27777,-22.13001],[-42.27799,-22.12725],[-42.27869,-22.12656],[-42.27905,-22.1246],[-42.27881,-22.12368],[-42.28034,-22.12282],[-42.28235,-22.12211],[-42.28369,-22.12202],[-42.28373,-22.12099],[-42.28535,-22.11936],[-42.2857,-22.11859],[-42.28695,-22.11744],[-42.28779,-22.11725],[-42.28838,-22.11616],[-42.28914,-22.11568],[-42.29069,-22.1155],[-42.29404,-22.11454],[-42.29467,-22.11433],[-42.29597,-22.11503],[-42.29309,-22.1171],[-42.29129,-22.11894],[-42.29051,-22.1201],[-42.28941,-22.12094],[-42.28872,-22.12194],[-42.28865,-22.1253],[-42.28787,-22.12685],[-42.2884,-22.12975],[-42.28977,-22.1325],[-42.2915,-22.13448],[-42.29275,-22.13482],[-42.29376,-22.13452],[-42.29453,-22.13375],[-42.29638,-22.13331],[-42.29698,-22.13262],[-42.29769,-22.13084],[-42.2997,-22.13071],[-42.30181,-22.12989],[-42.30386,-22.12782],[-42.30648,-22.12677],[-42.30794,-22.12515],[-42.3087,-22.12477],[-42.31008,-22.12277],[-42.31059,-22.12238],[-42.31244,-22.12249],[-42.31329,-22.12196],[-42.31434,-22.1194],[-42.31511,-22.11848],[-42.31804,-22.11899],[-42.31892,-22.1208],[-42.31865,-22.12174],[-42.31626,-22.1242],[-42.31431,-22.1251],[-42.3138,-22.12595],[-42.31377,-22.12743],[-42.31709,-22.12905],[-42.31843,-22.12899],[-42.31904,-22.12807],[-42.31906,-22.1269],[-42.3195,-22.12596],[-42.321,-22.12622],[-42.32209,-22.12609],[-42.32376,-22.12674],[-42.32641,-22.12866],[-42.32656,-22.12959],[-42.32504,-22.12988],[-42.32508,-22.13246],[-42.32586,-22.1352],[-42.32679,-22.13499],[-42.32749,-22.13344],[-42.32901,-22.13284],[-42.32971,-22.13581],[-42.32902,-22.1369],[-42.33035,-22.13723],[-42.33404,-22.13752],[-42.33402,-22.13838],[-42.33223,-22.13976],[-42.3328,-22.14102],[-42.33445,-22.14253],[-42.33501,-22.14371],[-42.33773,-22.14172],[-42.33874,-22.1415],[-42.34241,-22.14258],[-42.34514,-22.1402],[-42.34609,-22.13905],[-42.34813,-22.1376],[-42.35015,-22.13685],[-42.35088,-22.13699]]]},"properties":{"codigo":"330050615","name":"Barra Alegre","population":2829,"households":1632,"areaKm2":119.8114,"density":23.6}},{"type":"Feature","geometry":{"type":"Polygon","coordinates":[[[-42.43109,-22.18265],[-42.43507,-22.186],[-42.43622,-22.18742],[-42.43623,-22.18853],[-42.43501,-22.19338],[-42.43437,-22.19527],[-42.43313,-22.19684],[-42.43123,-22.19834],[-42.43122,-22.19872],[-42.43726,-22.20159],[-42.44109,-22.2048],[-42.44415,-22.20816],[-42.44497,-22.20888],[-42.45227,-22.2128],[-42.45749,-22.21541],[-42.46038,-22.21642],[-42.46526,-22.21759],[-42.46695,-22.2183],[-42.46817,-22.2197],[-42.46819,-22.22256],[-42.46873,-22.22373],[-42.47342,-22.22478],[-42.43765,-22.24874],[-42.40747,-22.26897],[-42.35864,-22.30169],[-42.35674,-22.30145],[-42.35359,-22.29993],[-42.35196,-22.29935],[-42.35113,-22.29968],[-42.34983,-22.29638],[-42.34873,-22.29399],[-42.34695,-22.29222],[-42.34457,-22.29043],[-42.34251,-22.28952],[-42.34093,-22.288],[-42.33985,-22.28493],[-42.33829,-22.28203],[-42.33614,-22.27941],[-42.33648,-22.27895],[-42.3394,-22.2803],[-42.34261,-22.28098],[-42.34415,-22.28088],[-42.3457,-22.28047],[-42.34821,-22.27889],[-42.34863,-22.27783],[-42.34856,-22.27484],[-42.34804,-22.27034],[-42.34149,-22.26574],[-42.34361,-22.26328],[-42.3437,-22.26204],[-42.34325,-22.26091],[-42.34227,-22.25995],[-42.34181,-22.25901],[-42.34151,-22.2572],[-42.34207,-22.25621],[-42.34144,-22.25414],[-42.34059,-22.25294],[-42.33894,-22.25148],[-42.3379,-22.24984],[-42.33746,-22.24815],[-42.33531,-22.24506],[-42.33422,-22.24242],[-42.33399,-22.24029],[-42.3341,-22.2378],[-42.33304,-22.23722],[-42.33118,-22.23669],[-42.32915,-22.23722],[-42.32573,-22.23748],[-42.32204,-22.23735],[-42.32125,-22.23672],[-42.3216,-22.23585],[-42.32423,-22.23165],[-42.32704,-22.22833],[-42.32901,-22.2273],[-42.3325,-22.22711],[-42.33664,-22.22412],[-42.33705,-22.2235],[-42.3375,-22.22145],[-42.33626,-22.2195],[-42.33303,-22.21664],[-42.3322,-22.21444],[-42.33242,-22.21357],[-42.33351,-22.21241],[-42.33657,-22.21002],[-42.33443,-22.20662],[-42.33285,-22.20478],[-42.33274,-22.20366],[-42.33155,-22.19927],[-42.32877,-22.19374],[-42.32767,-22.19187],[-42.32766,-22.18923],[-42.32842,-22.18762],[-42.3286,-22.18544],[-42.32959,-22.17886],[-42.32969,-22.17718],[-42.33143,-22.1739],[-42.33186,-22.17241],[-42.3313,-22.17041],[-42.32952,-22.16857],[-42.32808,-22.16672],[-42.32817,-22.16572],[-42.32927,-22.16418],[-42.33097,-22.16296],[-42.33365,-22.16189],[-42.3357,-22.15986],[-42.33665,-22.15925],[-42.33802,-22.15784],[-42.33914,-22.15511],[-42.33923,-22.15399],[-42.34015,-22.15114],[-42.34071,-22.15021],[-42.34283,-22.14773],[-42.34512,-22.14378],[-42.34554,-22.14254],[-42.34698,-22.14101],[-42.34854,-22.14003],[-42.35052,-22.13795],[-42.35088,-22.13699],[-42.35189,-22.13813],[-42.35126,-22.14054],[-42.3505,-22.14092],[-42.34929,-22.14254],[-42.34819,-22.14291],[-42.34749,-22.14469],[-42.34763,-22.14618],[-42.34905,-22.14651],[-42.34998,-22.1459],[-42.35243,-22.14524],[-42.35376,-22.14581],[-42.35457,-22.14739],[-42.35589,-22.14834],[-42.35511,-22.14989],[-42.35525,-22.15122],[-42.3539,-22.15151],[-42.35291,-22.15056],[-42.34997,-22.1509],[-42.34929,-22.15152],[-42.35019,-22.15255],[-42.35246,-22.15266],[-42.3527,-22.15305],[-42.35191,-22.15515],[-42.35113,-22.15607],[-42.34995,-22.15644],[-42.34966,-22.1587],[-42.34981,-22.15949],[-42.35087,-22.16115],[-42.3517,-22.16147],[-42.35363,-22.16142],[-42.35491,-22.16043],[-42.35601,-22.16014],[-42.35819,-22.16017],[-42.3592,-22.15995],[-42.36356,-22.15995],[-42.36439,-22.16043],[-42.3657,-22.16201],[-42.36778,-22.16298],[-42.36726,-22.16407],[-42.36906,-22.16659],[-42.37056,-22.16669],[-42.37173,-22.16711],[-42.37384,-22.16636],[-42.37602,-22.16639],[-42.3771,-22.16688],[-42.37734,-22.16759],[-42.37656,-22.1689],[-42.37654,-22.17023],[-42.37594,-22.17092],[-42.37375,-22.17128],[-42.37132,-22.17092],[-42.37014,-22.17153],[-42.3691,-22.17315],[-42.36696,-22.17538],[-42.3661,-22.17662],[-42.36625,-22.1774],[-42.36866,-22.179],[-42.36981,-22.18003],[-42.37063,-22.18122],[-42.37212,-22.18218],[-42.37346,-22.18251],[-42.37495,-22.18348],[-42.37619,-22.18467],[-42.38008,-22.18738],[-42.38391,-22.18901],[-42.38498,-22.18996],[-42.38615,-22.19045],[-42.38732,-22.19047],[-42.38943,-22.18964],[-42.3929,-22.18798],[-42.39434,-22.18761],[-42.39702,-22.18781],[-42.39801,-22.18838],[-42.40053,-22.18834],[-42.40163,-22.18789],[-42.405,-22.18469],[-42.40696,-22.18451],[-42.40809,-22.1833],[-42.412,-22.1804],[-42.41378,-22.17941],[-42.41547,-22.17897],[-42.41706,-22.17915],[-42.41847,-22.17996],[-42.42172,-22.18141],[-42.4257,-22.18358],[-42.42686,-22.18485],[-42.42913,-22.18434],[-42.43109,-22.18265]]]},"properties":{"codigo":"330050620","name":"São José do Ribeirão","population":6229,"households":3280,"areaKm2":131.8311,"density":47.2}}]}