{"type":"FeatureCollection","features":[{"type":"Feature","geometry":{"type":"Polygon","coordinates":[[[-43.39327,-22.71938],[-43.38897,-22.71805],[-43.38815,-22.7176],[-43.3846,-22.71988],[-43.38337,-22.71731],[-43.38051,-22.71355],[-43.37987,-22.7125],[-43.37867,-22.71099],[-43.37744,-22.70941],[-43.37565,-22.70761],[-43.37468,-22.70698],[-43.36955,-22.70322],[-43.37298,-22.70302],[-43.37454,-22.70265],[-43.37582,-22.70199],[-43.37669,-22.70135],[-43.37566,-22.69976],[-43.37505,-22.69809],[-43.37434,-22.69651],[-43.37338,-22.6957],[-43.37047,-22.69444],[-43.3703,-22.69426],[-43.37168,-22.69444],[-43.37247,-22.69444],[-43.3731,-22.69415],[-43.37407,-22.69339],[-43.3758,-22.69331],[-43.37656,-22.693],[-43.37694,-22.69264],[-43.37771,-22.69122],[-43.37853,-22.69068],[-43.37935,-22.69066],[-43.38015,-22.69088],[-43.38121,-22.69066],[-43.38104,-22.68999],[-43.38062,-22.68965],[-43.38053,-22.68908],[-43.38136,-22.68893],[-43.38182,-22.68923],[-43.38261,-22.6906],[-43.38344,-22.69118],[-43.38392,-22.69188],[-43.38453,-22.69217],[-43.38515,-22.69209],[-43.38646,-22.6913],[-43.387,-22.68999],[-43.38806,-22.691],[-43.39101,-22.69184],[-43.39228,-22.69184],[-43.39392,-22.69134],[-43.39439,-22.69148],[-43.39497,-22.69208],[-43.39514,-22.69286],[-43.39578,-22.69346],[-43.39745,-22.69413],[-43.3991,-22.69435],[-43.40012,-22.69463],[-43.40224,-22.69545],[-43.4035,-22.69536],[-43.4046,-22.69491],[-43.40722,-22.69429],[-43.40798,-22.69439],[-43.40837,-22.69487],[-43.40929,-22.69639],[-43.41017,-22.69753],[-43.41024,-22.69851],[-43.41008,-22.69924],[-43.41025,-22.69978],[-43.41132,-22.70111],[-43.41224,-22.70156],[-43.41087,-22.70276],[-43.4104,-22.70332],[-43.41045,-22.70444],[-43.40998,-22.70564],[-43.40991,-22.70668],[-43.40956,-22.70797],[-43.40896,-22.70851],[-43.40801,-22.70969],[-43.40758,-22.70984],[-43.40681,-22.70961],[-43.4059,-22.70971],[-43.40519,-22.71021],[-43.40316,-22.71093],[-43.40271,-22.71148],[-43.40279,-22.71242],[-43.40186,-22.71306],[-43.40033,-22.71366],[-43.39884,-22.714],[-43.39791,-22.71452],[-43.39694,-22.71468],[-43.39605,-22.71445],[-43.39571,-22.71454],[-43.39472,-22.71542],[-43.39377,-22.71674],[-43.39365,-22.71753],[-43.39322,-22.71747],[-43.39343,-22.71831],[-43.39381,-22.71871],[-43.39327,-22.71938]]]},"properties":{"codigo":"3300456008","name":"Recantus","population":9330,"households":4134,"areaKm2":8.6882,"density":1073.9}},{"type":"Feature","geometry":{"type":"Polygon","coordinates":[[[-43.3846,-22.71988],[-43.38262,-22.72129],[-43.3796,-22.72379],[-43.37671,-22.72591],[-43.37602,-22.72546],[-43.37432,-22.72559],[-43.37241,-22.72589],[-43.37195,-22.72609],[-43.37109,-22.72689],[-43.36948,-22.72914],[-43.36763,-22.73162],[-43.3666,-22.73246],[-43.36546,-22.73271],[-43.3644,-22.7325],[-43.36061,-22.73087],[-43.35851,-22.72991],[-43.35703,-22.72951],[-43.35611,-22.72976],[-43.35539,-22.72908],[-43.35725,-22.72788],[-43.35682,-22.72564],[-43.35695,-22.7249],[-43.36214,-22.72458],[-43.36248,-22.72482],[-43.36613,-22.72177],[-43.36659,-22.7223],[-43.37202,-22.71852],[-43.37155,-22.71698],[-43.37368,-22.71702],[-43.3742,-22.71676],[-43.37492,-22.71586],[-43.37503,-22.71549],[-43.3746,-22.71429],[-43.37867,-22.71099],[-43.37987,-22.7125],[-43.38051,-22.71355],[-43.38337,-22.71731],[-43.3846,-22.71988]]]},"properties":{"codigo":"3300456028","name":"São Vicente","population":21933,"households":9032,"areaKm2":2.6831,"density":8174.5}},{"type":"Feature","geometry":{"type":"Polygon","coordinates":[[[-43.39182,-22.74347],[-43.39374,-22.744],[-43.39432,-22.7439],[-43.39481,-22.74423],[-43.4007,-22.74635],[-43.40182,-22.74649],[-43.40157,-22.74443],[-43.40126,-22.7443],[-43.40282,-22.74423],[-43.40439,-22.74394],[-43.40611,-22.74452],[-43.4043,-22.74709],[-43.40423,-22.74822],[-43.40373,-22.75055],[-43.4036,-22.7518],[-43.40316,-22.75369],[-43.40165,-22.75659],[-43.40151,-22.75711],[-43.40148,-22.7591],[-43.4011,-22.75883],[-43.40118,-22.7579],[-43.40065,-22.75672],[-43.39923,-22.75583],[-43.39802,-22.75414],[-43.39751,-22.75301],[-43.39602,-22.75118],[-43.39506,-22.75008],[-43.39392,-22.74931],[-43.39298,-22.7489],[-43.39233,-22.74844],[-43.39181,-22.74767],[-43.39168,-22.74606],[-43.39192,-22.74448],[-43.39182,-22.74347]]]},"properties":{"codigo":"3300456006","name":"Piam","population":13760,"households":5414,"areaKm2":1.1594,"density":11868.7}},{"type":"Feature","geometry":{"type":"Polygon","coordinates":[[[-43.41599,-22.76499],[-43.41337,-22.76638],[-43.4108,-22.76803],[-43.41006,-22.76792],[-43.40943,-22.76802],[-43.40827,-22.76894],[-43.40763,-22.76837],[-43.40791,-22.76812],[-43.4072,-22.76739],[-43.40641,-22.76592],[-43.40909,-22.76488],[-43.40734,-22.76087],[-43.40767,-22.76067],[-43.40908,-22.76085],[-43.40946,-22.75918],[-43.40898,-22.75727],[-43.40844,-22.75739],[-43.40695,-22.75591],[-43.40724,-22.75512],[-43.40755,-22.7534],[-43.40785,-22.75199],[-43.40814,-22.75167],[-43.41096,-22.75299],[-43.41444,-22.75455],[-43.41391,-22.75563],[-43.41384,-22.75626],[-43.41403,-22.75713],[-43.41576,-22.76337],[-43.41599,-22.76499]]]},"properties":{"codigo":"3300456002","name":"Santo Antônio da Prata","population":13851,"households":5649,"areaKm2":1.1082,"density":12498.7}},{"type":"Feature","geometry":{"type":"Polygon","coordinates":[[[-43.41224,-22.70156],[-43.41321,-22.70161],[-43.41508,-22.70111],[-43.41558,-22.70113],[-43.41644,-22.70175],[-43.41655,-22.70255],[-43.41791,-22.70367],[-43.41892,-22.70395],[-43.41961,-22.70449],[-43.42152,-22.7063],[-43.42253,-22.70771],[-43.42121,-22.71021],[-43.42116,-22.7108],[-43.42219,-22.71128],[-43.42187,-22.7119],[-43.42273,-22.71223],[-43.42496,-22.71272],[-43.42491,-22.71407],[-43.42749,-22.71466],[-43.42723,-22.71524],[-43.42731,-22.71634],[-43.42759,-22.71686],[-43.4273,-22.71686],[-43.42724,-22.71898],[-43.42699,-22.71941],[-43.42569,-22.72056],[-43.42525,-22.7215],[-43.42452,-22.72228],[-43.42356,-22.72515],[-43.42271,-22.72719],[-43.42232,-22.72757],[-43.42118,-22.72995],[-43.42096,-22.73027],[-43.42038,-22.73015],[-43.41919,-22.72845],[-43.4181,-22.72792],[-43.41687,-22.72705],[-43.4158,-22.72691],[-43.41469,-22.72604],[-43.41453,-22.72566],[-43.41368,-22.72482],[-43.41267,-22.72418],[-43.41061,-22.72355],[-43.40919,-22.72284],[-43.40768,-22.72198],[-43.40722,-22.72057],[-43.40506,-22.71802],[-43.4043,-22.71689],[-43.40456,-22.71585],[-43.40398,-22.71393],[-43.4032,-22.71309],[-43.40279,-22.71242],[-43.40271,-22.71148],[-43.40316,-22.71093],[-43.40519,-22.71021],[-43.4059,-22.70971],[-43.40681,-22.70961],[-43.40758,-22.70984],[-43.40801,-22.70969],[-43.40896,-22.70851],[-43.40956,-22.70797],[-43.40991,-22.70668],[-43.40998,-22.70564],[-43.41045,-22.70444],[-43.4104,-22.70332],[-43.41087,-22.70276],[-43.41224,-22.70156]]]},"properties":{"codigo":"3300456013","name":"Shangri-lá","population":23638,"households":9054,"areaKm2":4.5606,"density":5183.1}},{"type":"Feature","geometry":{"type":"Polygon","coordinates":[[[-43.36581,-22.76304],[-43.36765,-22.75739],[-43.36765,-22.75672],[-43.36558,-22.75291],[-43.36578,-22.75192],[-43.36558,-22.75143],[-43.36434,-22.75011],[-43.36435,-22.74924],[-43.36454,-22.74778],[-43.36488,-22.74638],[-43.36559,-22.74507],[-43.36587,-22.74413],[-43.366,-22.74324],[-43.36683,-22.74325],[-43.36805,-22.74282],[-43.36843,-22.74238],[-43.36949,-22.74076],[-43.37015,-22.74049],[-43.37123,-22.74098],[-43.37505,-22.74409],[-43.37571,-22.74467],[-43.37837,-22.74679],[-43.38109,-22.74913],[-43.38174,-22.74958],[-43.3833,-22.7507],[-43.38572,-22.75272],[-43.3872,-22.75387],[-43.38785,-22.7545],[-43.3899,-22.75616],[-43.38851,-22.76002],[-43.38856,-22.76094],[-43.3891,-22.76264],[-43.39021,-22.76378],[-43.39065,-22.76448],[-43.39109,-22.76477],[-43.39406,-22.76515],[-43.39503,-22.7652],[-43.39515,-22.76568],[-43.39581,-22.76612],[-43.39719,-22.76665],[-43.39745,-22.76681],[-43.3946,-22.76979],[-43.39318,-22.77118],[-43.39178,-22.77267],[-43.39086,-22.77173],[-43.39026,-22.77096],[-43.38913,-22.76985],[-43.38538,-22.76657],[-43.38484,-22.76638],[-43.38271,-22.76605],[-43.38144,-22.76585],[-43.38062,-22.76589],[-43.37789,-22.76529],[-43.37595,-22.76497],[-43.374,-22.76453],[-43.37341,-22.76426],[-43.37213,-22.76407],[-43.37121,-22.76417],[-43.36581,-22.76304]]]},"properties":{"codigo":"3300456015","name":"Bom Pastor","population":21785,"households":8586,"areaKm2":5.3759,"density":4052.4}},{"type":"Feature","geometry":{"type":"Polygon","coordinates":[[[-43.34884,-22.73678],[-43.34641,-22.73677],[-43.34454,-22.73697],[-43.34371,-22.73729],[-43.34348,-22.73789],[-43.3423,-22.73851],[-43.34098,-22.73869],[-43.33844,-22.74022],[-43.33799,-22.74019],[-43.33655,-22.73965],[-43.33527,-22.73961],[-43.33451,-22.73918],[-43.3334,-22.7391],[-43.33249,-22.73945],[-43.33206,-22.74018],[-43.332,-22.74141],[-43.33151,-22.74255],[-43.32891,-22.74495],[-43.32877,-22.74223],[-43.32845,-22.73714],[-43.32843,-22.73162],[-43.3284,-22.73037],[-43.32796,-22.72742],[-43.32919,-22.7271],[-43.32975,-22.72724],[-43.33093,-22.72812],[-43.33222,-22.72705],[-43.33321,-22.72701],[-43.33412,-22.72827],[-43.3349,-22.72788],[-43.33581,-22.72692],[-43.33654,-22.72634],[-43.33838,-22.72573],[-43.33921,-22.72578],[-43.3393,-22.72668],[-43.33989,-22.72771],[-43.34109,-22.72832],[-43.34263,-22.72962],[-43.3431,-22.7296],[-43.34395,-22.72995],[-43.34509,-22.73059],[-43.34591,-22.73071],[-43.34647,-22.73103],[-43.34843,-22.73269],[-43.34931,-22.73314],[-43.34909,-22.73517],[-43.34884,-22.73678]]]},"properties":{"codigo":"3300456022","name":"São José","population":20182,"households":8693,"areaKm2":2.552,"density":7908.2}},{"type":"Feature","geometry":{"type":"Polygon","coordinates":[[[-43.4011,-22.75883],[-43.39986,-22.76351],[-43.39859,-22.76513],[-43.39719,-22.76665],[-43.39581,-22.76612],[-43.39515,-22.76568],[-43.39503,-22.7652],[-43.39406,-22.76515],[-43.39109,-22.76477],[-43.39065,-22.76448],[-43.39021,-22.76378],[-43.3891,-22.76264],[-43.38856,-22.76094],[-43.38851,-22.76002],[-43.3899,-22.75616],[-43.39053,-22.75445],[-43.39092,-22.75393],[-43.39233,-22.75288],[-43.39602,-22.75118],[-43.39751,-22.75301],[-43.39802,-22.75414],[-43.39923,-22.75583],[-43.40065,-22.75672],[-43.40118,-22.7579],[-43.4011,-22.75883]]]},"properties":{"codigo":"3300456016","name":"das Graças","population":9787,"households":4346,"areaKm2":1.4928,"density":6555.9}},{"type":"Feature","geometry":{"type":"Polygon","coordinates":[[[-43.39602,-22.75118],[-43.39233,-22.75288],[-43.39092,-22.75393],[-43.39053,-22.75445],[-43.3899,-22.75616],[-43.38785,-22.7545],[-43.3872,-22.75387],[-43.38572,-22.75272],[-43.3833,-22.7507],[-43.38174,-22.74958],[-43.38219,-22.74813],[-43.38312,-22.74592],[-43.38147,-22.74491],[-43.38335,-22.74359],[-43.38415,-22.7418],[-43.38495,-22.74119],[-43.38522,-22.74011],[-43.38595,-22.73951],[-43.38658,-22.7399],[-43.38774,-22.73897],[-43.3893,-22.73993],[-43.38995,-22.74064],[-43.39182,-22.74347],[-43.39192,-22.74448],[-43.39168,-22.74606],[-43.39181,-22.74767],[-43.39233,-22.74844],[-43.39298,-22.7489],[-43.39392,-22.74931],[-43.39506,-22.75008],[-43.39602,-22.75118]]]},"properties":{"codigo":"3300456017","name":"Santa Amélia","population":13367,"households":5784,"areaKm2":1.4533,"density":9197.4}},{"type":"Feature","geometry":{"type":"Polygon","coordinates":[[[-43.42598,-22.74333],[-43.42501,-22.745],[-43.42235,-22.74996],[-43.42147,-22.75091],[-43.42037,-22.75157],[-43.41714,-22.75281],[-43.41728,-22.75073],[-43.41756,-22.74989],[-43.41663,-22.74947],[-43.41704,-22.74883],[-43.41835,-22.74621],[-43.41881,-22.74432],[-43.41839,-22.74412],[-43.41956,-22.7423],[-43.42081,-22.74182],[-43.42131,-22.74182],[-43.42179,-22.74145],[-43.42316,-22.7388],[-43.42417,-22.73702],[-43.42654,-22.73257],[-43.42712,-22.73134],[-43.42826,-22.73186],[-43.43011,-22.73285],[-43.42813,-22.73791],[-43.42661,-22.7419],[-43.42598,-22.74333]]]},"properties":{"codigo":"3300456004","name":"Andrade Araújo","population":15229,"households":5503,"areaKm2":1.1655,"density":13066.9}},{"type":"Feature","geometry":{"type":"Polygon","coordinates":[[[-43.32109,-22.71193],[-43.31978,-22.7094],[-43.32267,-22.70704],[-43.32375,-22.70663],[-43.32535,-22.70658],[-43.32614,-22.70642],[-43.32679,-22.70598],[-43.32719,-22.70647],[-43.32761,-22.70653],[-43.33196,-22.7062],[-43.33288,-22.70572],[-43.33319,-22.70813],[-43.33363,-22.70792],[-43.33525,-22.70984],[-43.33655,-22.71128],[-43.33702,-22.71294],[-43.33601,-22.71461],[-43.33328,-22.71879],[-43.33139,-22.71803],[-43.33001,-22.71705],[-43.32822,-22.71507],[-43.32616,-22.71493],[-43.32492,-22.71463],[-43.32109,-22.71193]]]},"properties":{"codigo":"3300456024","name":"Lote XV","population":12134,"households":5146,"areaKm2":1.5059,"density":8057.6}},{"type":"Feature","geometry":{"type":"Polygon","coordinates":[[[-43.37867,-22.71099],[-43.3746,-22.71429],[-43.37503,-22.71549],[-43.37492,-22.71586],[-43.3742,-22.71676],[-43.37368,-22.71702],[-43.37155,-22.71698],[-43.37202,-22.71852],[-43.36659,-22.7223],[-43.36613,-22.72177],[-43.36248,-22.72482],[-43.36214,-22.72458],[-43.35695,-22.7249],[-43.35682,-22.72564],[-43.35725,-22.72788],[-43.35539,-22.72908],[-43.35611,-22.72976],[-43.3551,-22.73038],[-43.35417,-22.73126],[-43.35294,-22.73215],[-43.35117,-22.73217],[-43.34981,-22.7331],[-43.34931,-22.73314],[-43.34843,-22.73269],[-43.34647,-22.73103],[-43.34925,-22.72814],[-43.35038,-22.72703],[-43.35241,-22.72548],[-43.35259,-22.72501],[-43.35236,-22.7231],[-43.35191,-22.72221],[-43.35067,-22.72113],[-43.35301,-22.72045],[-43.35367,-22.7202],[-43.35203,-22.7175],[-43.35153,-22.71696],[-43.34738,-22.71369],[-43.34524,-22.71187],[-43.34798,-22.71097],[-43.34867,-22.71138],[-43.34964,-22.71136],[-43.35189,-22.71006],[-43.35424,-22.70928],[-43.35543,-22.70938],[-43.35632,-22.70888],[-43.3564,-22.70819],[-43.357,-22.70717],[-43.35717,-22.70659],[-43.35719,-22.70551],[-43.35613,-22.70475],[-43.35529,-22.70449],[-43.35423,-22.70378],[-43.35348,-22.70262],[-43.35261,-22.70101],[-43.35198,-22.70077],[-43.35054,-22.70046],[-43.35024,-22.69994],[-43.35146,-22.70009],[-43.35228,-22.70002],[-43.35514,-22.69875],[-43.35628,-22.69833],[-43.35786,-22.69817],[-43.35815,-22.69785],[-43.35194,-22.69671],[-43.36028,-22.68935],[-43.36277,-22.68731],[-43.3637,-22.6864],[-43.36535,-22.68511],[-43.36537,-22.68513],[-43.36715,-22.68654],[-43.3677,-22.68734],[-43.36815,-22.69027],[-43.36986,-22.69375],[-43.3703,-22.69426],[-43.37047,-22.69444],[-43.37338,-22.6957],[-43.37434,-22.69651],[-43.37505,-22.69809],[-43.37566,-22.69976],[-43.37669,-22.70135],[-43.37582,-22.70199],[-43.37454,-22.70265],[-43.37298,-22.70302],[-43.36955,-22.70322],[-43.37468,-22.70698],[-43.37565,-22.70761],[-43.37744,-22.70941],[-43.37867,-22.71099]]]},"properties":{"codigo":"3300456027","name":"Maringá","population":18337,"households":7578,"areaKm2":8.5502,"density":2144.6}},{"type":"Feature","geometry":{"type":"Polygon","coordinates":[[[-43.38415,-22.7418],[-43.38147,-22.74357],[-43.38008,-22.7432],[-43.37852,-22.74145],[-43.37853,-22.73977],[-43.37752,-22.73746],[-43.3779,-22.7364],[-43.37552,-22.73544],[-43.37595,-22.73398],[-43.37668,-22.73443],[-43.37826,-22.73431],[-43.37989,-22.73254],[-43.38037,-22.73295],[-43.38247,-22.73337],[-43.38448,-22.73379],[-43.38493,-22.73398],[-43.38525,-22.7347],[-43.38557,-22.73671],[-43.38588,-22.73763],[-43.38651,-22.73824],[-43.38774,-22.73897],[-43.38658,-22.7399],[-43.38595,-22.73951],[-43.38522,-22.74011],[-43.38495,-22.74119],[-43.38415,-22.7418]]]},"properties":{"codigo":"3300456018","name":"Barro Vermelho","population":7131,"households":2826,"areaKm2":0.8308,"density":8583.5}},{"type":"Feature","geometry":{"type":"Polygon","coordinates":[[[-43.39182,-22.74347],[-43.38995,-22.74064],[-43.3893,-22.73993],[-43.38774,-22.73897],[-43.38651,-22.73824],[-43.38588,-22.73763],[-43.38557,-22.73671],[-43.38525,-22.7347],[-43.39004,-22.73417],[-43.39115,-22.73409],[-43.39143,-22.73389],[-43.39352,-22.73656],[-43.39425,-22.73757],[-43.39649,-22.74015],[-43.39697,-22.74087],[-43.39821,-22.74147],[-43.39872,-22.74158],[-43.40023,-22.74148],[-43.40099,-22.74155],[-43.40115,-22.74215],[-43.40126,-22.7443],[-43.40157,-22.74443],[-43.40182,-22.74649],[-43.4007,-22.74635],[-43.39481,-22.74423],[-43.39432,-22.7439],[-43.39374,-22.744],[-43.39182,-22.74347]]]},"properties":{"codigo":"3300456007","name":"Nova Piam","population":9564,"households":3973,"areaKm2":0.9992,"density":9571.5}},{"type":"Feature","geometry":{"type":"Polygon","coordinates":[[[-43.38247,-22.73337],[-43.38716,-22.72571],[-43.3882,-22.72794],[-43.3888,-22.72951],[-43.38991,-22.732],[-43.39089,-22.73333],[-43.39143,-22.73389],[-43.39115,-22.73409],[-43.39004,-22.73417],[-43.38525,-22.7347],[-43.38493,-22.73398],[-43.38448,-22.73379],[-43.38247,-22.73337]]]},"properties":{"codigo":"3300456030","name":"São Bernardo","population":3581,"households":1386,"areaKm2":0.4325,"density":8279.6}},{"type":"Feature","geometry":{"type":"Polygon","coordinates":[[[-43.40279,-22.71242],[-43.4032,-22.71309],[-43.40398,-22.71393],[-43.40456,-22.71585],[-43.4043,-22.71689],[-43.40506,-22.71802],[-43.40722,-22.72057],[-43.40768,-22.72198],[-43.40919,-22.72284],[-43.40769,-22.72392],[-43.40562,-22.7227],[-43.40491,-22.72379],[-43.40456,-22.72497],[-43.40405,-22.72553],[-43.4008,-22.72655],[-43.40089,-22.72855],[-43.40046,-22.72869],[-43.40005,-22.72913],[-43.39913,-22.72859],[-43.39801,-22.72689],[-43.39747,-22.72639],[-43.39623,-22.72627],[-43.39496,-22.72635],[-43.39442,-22.72625],[-43.39361,-22.72643],[-43.39197,-22.72588],[-43.39039,-22.72553],[-43.38966,-22.72487],[-43.38908,-22.72402],[-43.38895,-22.72328],[-43.39005,-22.72206],[-43.39227,-22.72068],[-43.39327,-22.71938],[-43.39381,-22.71871],[-43.39343,-22.71831],[-43.39322,-22.71747],[-43.39365,-22.71753],[-43.39377,-22.71674],[-43.39472,-22.71542],[-43.39571,-22.71454],[-43.39605,-22.71445],[-43.39694,-22.71468],[-43.39791,-22.71452],[-43.39884,-22.714],[-43.40033,-22.71366],[-43.40186,-22.71306],[-43.40279,-22.71242]]]},"properties":{"codigo":"3300456009","name":"Nova Aurora","population":14264,"households":5793,"areaKm2":1.9588,"density":7281.9}},{"type":"Feature","geometry":{"type":"Polygon","coordinates":[[[-43.42759,-22.71686],[-43.42965,-22.72045],[-43.42995,-22.72082],[-43.4313,-22.72195],[-43.43204,-22.72324],[-43.43237,-22.72354],[-43.43408,-22.72454],[-43.43253,-22.72712],[-43.43191,-22.72842],[-43.43012,-22.73282],[-43.43011,-22.73285],[-43.42826,-22.73186],[-43.42712,-22.73134],[-43.42597,-22.73146],[-43.42515,-22.73218],[-43.42405,-22.73284],[-43.42358,-22.73279],[-43.42256,-22.73217],[-43.42263,-22.73057],[-43.42118,-22.72995],[-43.42232,-22.72757],[-43.42271,-22.72719],[-43.42356,-22.72515],[-43.42452,-22.72228],[-43.42525,-22.7215],[-43.42569,-22.72056],[-43.42699,-22.71941],[-43.42724,-22.71898],[-43.4273,-22.71686],[-43.42759,-22.71686]]]},"properties":{"codigo":"3300456012","name":"Itaipu","population":9707,"households":3528,"areaKm2":1.2145,"density":7992.5}},{"type":"Feature","geometry":{"type":"Polygon","coordinates":[[[-43.40126,-22.7443],[-43.40115,-22.74215],[-43.40099,-22.74155],[-43.4015,-22.74146],[-43.40243,-22.74187],[-43.40276,-22.74179],[-43.40326,-22.74119],[-43.40415,-22.74052],[-43.40432,-22.73953],[-43.40565,-22.73859],[-43.4066,-22.73851],[-43.40794,-22.73819],[-43.40899,-22.73808],[-43.41084,-22.73754],[-43.41118,-22.73674],[-43.41166,-22.73641],[-43.41256,-22.73625],[-43.41327,-22.73656],[-43.41368,-22.7355],[-43.41464,-22.73403],[-43.41508,-22.73392],[-43.41589,-22.73471],[-43.41668,-22.73491],[-43.41689,-22.73441],[-43.41733,-22.73427],[-43.41831,-22.73449],[-43.41915,-22.73453],[-43.42033,-22.73414],[-43.42088,-22.73382],[-43.4212,-22.73329],[-43.42164,-22.73201],[-43.42256,-22.73217],[-43.42358,-22.73279],[-43.42405,-22.73284],[-43.42515,-22.73218],[-43.42597,-22.73146],[-43.42712,-22.73134],[-43.42654,-22.73257],[-43.42417,-22.73702],[-43.42316,-22.7388],[-43.42179,-22.74145],[-43.42131,-22.74182],[-43.42081,-22.74182],[-43.41956,-22.7423],[-43.41839,-22.74412],[-43.41743,-22.7453],[-43.41682,-22.74543],[-43.41507,-22.74526],[-43.41455,-22.7453],[-43.41335,-22.74591],[-43.41257,-22.74556],[-43.41158,-22.74565],[-43.41065,-22.74524],[-43.40906,-22.74599],[-43.40734,-22.74607],[-43.40685,-22.74565],[-43.40685,-22.74511],[-43.40611,-22.74452],[-43.40439,-22.74394],[-43.40282,-22.74423],[-43.40126,-22.7443]]]},"properties":{"codigo":"3300456005","name":"Heliópolis","population":22811,"households":9796,"areaKm2":2.078,"density":10977.2}},{"type":"Feature","geometry":{"type":"Polygon","coordinates":[[[-43.32679,-22.70598],[-43.32723,-22.7053],[-43.32728,-22.70481],[-43.32689,-22.70372],[-43.32643,-22.70289],[-43.32621,-22.7021],[-43.32623,-22.69853],[-43.3266,-22.69753],[-43.32733,-22.69635],[-43.32814,-22.69535],[-43.3292,-22.69477],[-43.33027,-22.69479],[-43.33132,-22.69511],[-43.33464,-22.69642],[-43.33586,-22.69644],[-43.33683,-22.69602],[-43.33922,-22.69473],[-43.34043,-22.69444],[-43.34085,-22.69448],[-43.34149,-22.6948],[-43.34294,-22.69647],[-43.34361,-22.69686],[-43.34489,-22.69736],[-43.34654,-22.6984],[-43.34725,-22.69864],[-43.34816,-22.69852],[-43.35065,-22.69753],[-43.35194,-22.69671],[-43.35815,-22.69785],[-43.35786,-22.69817],[-43.35628,-22.69833],[-43.35514,-22.69875],[-43.35228,-22.70002],[-43.35146,-22.70009],[-43.35024,-22.69994],[-43.35054,-22.70046],[-43.35198,-22.70077],[-43.35261,-22.70101],[-43.35348,-22.70262],[-43.35423,-22.70378],[-43.35529,-22.70449],[-43.35613,-22.70475],[-43.35719,-22.70551],[-43.35717,-22.70659],[-43.357,-22.70717],[-43.3564,-22.70819],[-43.35632,-22.70888],[-43.35543,-22.70938],[-43.35424,-22.70928],[-43.35189,-22.71006],[-43.34964,-22.71136],[-43.34867,-22.71138],[-43.34798,-22.71097],[-43.34524,-22.71187],[-43.3404,-22.71324],[-43.33601,-22.71461],[-43.33702,-22.71294],[-43.33655,-22.71128],[-43.33525,-22.70984],[-43.33363,-22.70792],[-43.33319,-22.70813],[-43.33288,-22.70572],[-43.33196,-22.7062],[-43.32761,-22.70653],[-43.32719,-22.70647],[-43.32679,-22.70598]]]},"properties":{"codigo":"3300456025","name":"Vale do Ipê","population":19694,"households":8302,"areaKm2":4.5003,"density":4376.2}},{"type":"Feature","geometry":{"type":"Polygon","coordinates":[[[-43.39327,-22.71938],[-43.39227,-22.72068],[-43.39005,-22.72206],[-43.38895,-22.72328],[-43.38908,-22.72402],[-43.38966,-22.72487],[-43.39039,-22.72553],[-43.39197,-22.72588],[-43.39361,-22.72643],[-43.39442,-22.72625],[-43.39496,-22.72635],[-43.39623,-22.72627],[-43.39747,-22.72639],[-43.39801,-22.72689],[-43.39913,-22.72859],[-43.40005,-22.72913],[-43.40046,-22.72869],[-43.40049,-22.73064],[-43.40013,-22.73197],[-43.39965,-22.73297],[-43.39955,-22.73349],[-43.39981,-22.73439],[-43.40079,-22.73576],[-43.4033,-22.73685],[-43.40389,-22.73704],[-43.40552,-22.73721],[-43.4064,-22.73689],[-43.40772,-22.7378],[-43.40786,-22.73807],[-43.40673,-22.73834],[-43.40589,-22.73837],[-43.40508,-22.7388],[-43.40447,-22.73877],[-43.4041,-22.74024],[-43.40281,-22.74166],[-43.40249,-22.74175],[-43.40136,-22.74135],[-43.40099,-22.74155],[-43.40023,-22.74148],[-43.39872,-22.74158],[-43.39821,-22.74147],[-43.39697,-22.74087],[-43.39649,-22.74015],[-43.39425,-22.73757],[-43.39352,-22.73656],[-43.39143,-22.73389],[-43.39089,-22.73333],[-43.38991,-22.732],[-43.3888,-22.72951],[-43.3882,-22.72794],[-43.38716,-22.72571],[-43.38561,-22.72206],[-43.3846,-22.71988],[-43.38815,-22.7176],[-43.38897,-22.71805],[-43.39327,-22.71938]]]},"properties":{"codigo":"3300456010","name":"Xavantes","population":17896,"households":7431,"areaKm2":2.1193,"density":8444.5}},{"type":"Feature","geometry":{"type":"Polygon","coordinates":[[[-43.32796,-22.72742],[-43.3272,-22.72397],[-43.32665,-22.72273],[-43.32602,-22.72178],[-43.32425,-22.71822],[-43.32215,-22.71398],[-43.32109,-22.71193],[-43.32492,-22.71463],[-43.32616,-22.71493],[-43.32822,-22.71507],[-43.33001,-22.71705],[-43.33139,-22.71803],[-43.33328,-22.71879],[-43.33442,-22.71926],[-43.3385,-22.72147],[-43.33944,-22.72302],[-43.3394,-22.72475],[-43.33921,-22.72578],[-43.33838,-22.72573],[-43.33654,-22.72634],[-43.33581,-22.72692],[-43.3349,-22.72788],[-43.33412,-22.72827],[-43.33321,-22.72701],[-43.33222,-22.72705],[-43.33093,-22.72812],[-43.32975,-22.72724],[-43.32919,-22.7271],[-43.32796,-22.72742]]]},"properties":{"codigo":"3300456023","name":"Parque dos Ferreiras","population":12575,"households":5303,"areaKm2":1.4353,"density":8761}},{"type":"Feature","geometry":{"type":"Polygon","coordinates":[[[-43.33921,-22.72578],[-43.3394,-22.72475],[-43.33944,-22.72302],[-43.3385,-22.72147],[-43.33442,-22.71926],[-43.33328,-22.71879],[-43.33601,-22.71461],[-43.3404,-22.71324],[-43.34524,-22.71187],[-43.34738,-22.71369],[-43.35153,-22.71696],[-43.35203,-22.7175],[-43.35367,-22.7202],[-43.35301,-22.72045],[-43.35067,-22.72113],[-43.35191,-22.72221],[-43.35236,-22.7231],[-43.35259,-22.72501],[-43.35241,-22.72548],[-43.35038,-22.72703],[-43.34925,-22.72814],[-43.34647,-22.73103],[-43.34591,-22.73071],[-43.34509,-22.73059],[-43.34395,-22.72995],[-43.3431,-22.7296],[-43.34263,-22.72962],[-43.34109,-22.72832],[-43.33989,-22.72771],[-43.3393,-22.72668],[-43.33921,-22.72578]]]},"properties":{"codigo":"3300456026","name":"Wona","population":18596,"households":7651,"areaKm2":2.5656,"density":7248.1}},{"type":"Feature","geometry":{"type":"Polygon","coordinates":[[[-43.42118,-22.72995],[-43.42263,-22.73057],[-43.42256,-22.73217],[-43.42164,-22.73201],[-43.4212,-22.73329],[-43.42088,-22.73382],[-43.42033,-22.73414],[-43.41915,-22.73453],[-43.41831,-22.73449],[-43.41733,-22.73427],[-43.41689,-22.73441],[-43.41668,-22.73491],[-43.41589,-22.73471],[-43.41508,-22.73392],[-43.41464,-22.73403],[-43.41368,-22.7355],[-43.41327,-22.73656],[-43.41256,-22.73625],[-43.41166,-22.73641],[-43.41118,-22.73674],[-43.41084,-22.73754],[-43.40899,-22.73808],[-43.40794,-22.73819],[-43.4066,-22.73851],[-43.40565,-22.73859],[-43.40432,-22.73953],[-43.40415,-22.74052],[-43.40326,-22.74119],[-43.40276,-22.74179],[-43.40243,-22.74187],[-43.4015,-22.74146],[-43.40099,-22.74155],[-43.40136,-22.74135],[-43.40249,-22.74175],[-43.40281,-22.74166],[-43.4041,-22.74024],[-43.40447,-22.73877],[-43.40508,-22.7388],[-43.40589,-22.73837],[-43.40673,-22.73834],[-43.40786,-22.73807],[-43.40772,-22.7378],[-43.4064,-22.73689],[-43.40552,-22.73721],[-43.40389,-22.73704],[-43.4033,-22.73685],[-43.40079,-22.73576],[-43.39981,-22.73439],[-43.39955,-22.73349],[-43.39965,-22.73297],[-43.40013,-22.73197],[-43.40049,-22.73064],[-43.40046,-22.72869],[-43.40089,-22.72855],[-43.4008,-22.72655],[-43.40405,-22.72553],[-43.40456,-22.72497],[-43.40491,-22.72379],[-43.40562,-22.7227],[-43.40769,-22.72392],[-43.40919,-22.72284],[-43.41061,-22.72355],[-43.41267,-22.72418],[-43.41368,-22.72482],[-43.41453,-22.72566],[-43.41469,-22.72604],[-43.4158,-22.72691],[-43.41687,-22.72705],[-43.4181,-22.72792],[-43.41919,-22.72845],[-43.42038,-22.73015],[-43.42096,-22.73027],[-43.42118,-22.72995]]]},"properties":{"codigo":"3300456011","name":"São Francisco de Assis","population":19104,"households":7570,"areaKm2":2.5352,"density":7535.5}},{"type":"Feature","geometry":{"type":"Polygon","coordinates":[[[-43.32918,-22.75045],[-43.3299,-22.75083],[-43.33106,-22.75104],[-43.33253,-22.75205],[-43.33329,-22.75232],[-43.33461,-22.75061],[-43.33477,-22.75024],[-43.33642,-22.74896],[-43.33761,-22.74823],[-43.33842,-22.74876],[-43.3386,-22.74938],[-43.33972,-22.75024],[-43.34057,-22.75013],[-43.34129,-22.74933],[-43.34235,-22.74924],[-43.34267,-22.74889],[-43.34319,-22.74977],[-43.34442,-22.74877],[-43.3454,-22.75014],[-43.34594,-22.75062],[-43.34685,-22.75086],[-43.3475,-22.75008],[-43.34799,-22.74991],[-43.34916,-22.7501],[-43.35061,-22.75055],[-43.35169,-22.7516],[-43.35336,-22.75291],[-43.35457,-22.75328],[-43.35521,-22.75307],[-43.35774,-22.75295],[-43.35947,-22.75269],[-43.36083,-22.7531],[-43.3619,-22.75426],[-43.36213,-22.75484],[-43.36224,-22.75637],[-43.36207,-22.75843],[-43.3622,-22.76246],[-43.35548,-22.76114],[-43.35346,-22.76079],[-43.34959,-22.76011],[-43.34355,-22.75892],[-43.33617,-22.75755],[-43.33374,-22.75686],[-43.32929,-22.7559],[-43.32918,-22.75045]]]},"properties":{"codigo":"3300456020","name":"Glaucia","population":19632,"households":9435,"areaKm2":3.0828,"density":6368.2}},{"type":"Feature","geometry":{"type":"Polygon","coordinates":[[[-43.36581,-22.76304],[-43.3622,-22.76246],[-43.36207,-22.75843],[-43.36224,-22.75637],[-43.36213,-22.75484],[-43.3619,-22.75426],[-43.36083,-22.7531],[-43.36013,-22.75218],[-43.35976,-22.75138],[-43.35796,-22.74863],[-43.35588,-22.74665],[-43.35409,-22.74448],[-43.35556,-22.74306],[-43.35736,-22.74193],[-43.35833,-22.74079],[-43.35908,-22.74044],[-43.36033,-22.73899],[-43.36075,-22.73942],[-43.36166,-22.74235],[-43.36223,-22.74319],[-43.36277,-22.74362],[-43.36359,-22.74382],[-43.36474,-22.74372],[-43.36587,-22.74413],[-43.36559,-22.74507],[-43.36488,-22.74638],[-43.36454,-22.74778],[-43.36435,-22.74924],[-43.36434,-22.75011],[-43.36558,-22.75143],[-43.36578,-22.75192],[-43.36558,-22.75291],[-43.36765,-22.75672],[-43.36765,-22.75739],[-43.36581,-22.76304]]]},"properties":{"codigo":"3300456014","name":"Redentor","population":8484,"households":3206,"areaKm2":1.5267,"density":5557.1}},{"type":"Feature","geometry":{"type":"Polygon","coordinates":[[[-43.3846,-22.71988],[-43.38561,-22.72206],[-43.38716,-22.72571],[-43.38247,-22.73337],[-43.38037,-22.73295],[-43.37989,-22.73254],[-43.37937,-22.73177],[-43.37924,-22.73041],[-43.37865,-22.72992],[-43.37765,-22.72943],[-43.37655,-22.72869],[-43.37653,-22.72815],[-43.37688,-22.72776],[-43.37702,-22.72656],[-43.37671,-22.72591],[-43.3796,-22.72379],[-43.38262,-22.72129],[-43.3846,-22.71988]]]},"properties":{"codigo":"3300456029","name":"Santa Maria","population":8154,"households":3259,"areaKm2":0.9136,"density":8925.3}},{"type":"Feature","geometry":{"type":"Polygon","coordinates":[[[-43.40316,-22.75369],[-43.40353,-22.75368],[-43.40546,-22.7542],[-43.40755,-22.7534],[-43.40724,-22.75512],[-43.40695,-22.75591],[-43.40844,-22.75739],[-43.40898,-22.75727],[-43.40946,-22.75918],[-43.40908,-22.76085],[-43.40767,-22.76067],[-43.40734,-22.76087],[-43.40909,-22.76488],[-43.40641,-22.76592],[-43.4072,-22.76739],[-43.40791,-22.76812],[-43.40763,-22.76837],[-43.40827,-22.76894],[-43.40943,-22.76802],[-43.41006,-22.76792],[-43.4108,-22.76803],[-43.41074,-22.76807],[-43.40218,-22.77407],[-43.39714,-22.77759],[-43.39713,-22.77758],[-43.39554,-22.77604],[-43.39418,-22.77505],[-43.39273,-22.77345],[-43.39178,-22.77267],[-43.39318,-22.77118],[-43.3946,-22.76979],[-43.39745,-22.76681],[-43.39719,-22.76665],[-43.39859,-22.76513],[-43.39986,-22.76351],[-43.4011,-22.75883],[-43.40148,-22.7591],[-43.40151,-22.75711],[-43.40165,-22.75659],[-43.40316,-22.75369]]]},"properties":{"codigo":"3300456001","name":"Centro","population":24648,"households":10430,"areaKm2":2.3066,"density":10685.6}},{"type":"Feature","geometry":{"type":"Polygon","coordinates":[[[-43.34884,-22.73678],[-43.34876,-22.73773],[-43.34907,-22.73905],[-43.35,-22.74033],[-43.35409,-22.74448],[-43.35588,-22.74665],[-43.35796,-22.74863],[-43.35976,-22.75138],[-43.36013,-22.75218],[-43.36083,-22.7531],[-43.35947,-22.75269],[-43.35774,-22.75295],[-43.35521,-22.75307],[-43.35457,-22.75328],[-43.35336,-22.75291],[-43.35169,-22.7516],[-43.35061,-22.75055],[-43.34916,-22.7501],[-43.34799,-22.74991],[-43.3475,-22.75008],[-43.34685,-22.75086],[-43.34594,-22.75062],[-43.3454,-22.75014],[-43.34442,-22.74877],[-43.34319,-22.74977],[-43.34267,-22.74889],[-43.34235,-22.74924],[-43.34129,-22.74933],[-43.34057,-22.75013],[-43.33972,-22.75024],[-43.3386,-22.74938],[-43.33842,-22.74876],[-43.33761,-22.74823],[-43.33642,-22.74896],[-43.33477,-22.75024],[-43.33461,-22.75061],[-43.33329,-22.75232],[-43.33253,-22.75205],[-43.33106,-22.75104],[-43.3299,-22.75083],[-43.32918,-22.75045],[-43.32891,-22.74495],[-43.33151,-22.74255],[-43.332,-22.74141],[-43.33206,-22.74018],[-43.33249,-22.73945],[-43.3334,-22.7391],[-43.33451,-22.73918],[-43.33527,-22.73961],[-43.33655,-22.73965],[-43.33799,-22.74019],[-43.33844,-22.74022],[-43.34098,-22.73869],[-43.3423,-22.73851],[-43.34348,-22.73789],[-43.34371,-22.73729],[-43.34454,-22.73697],[-43.34641,-22.73677],[-43.34884,-22.73678]]]},"properties":{"codigo":"3300456021","name":"Santa Tereza","population":19126,"households":8192,"areaKm2":3.3633,"density":5686.6}},{"type":"Feature","geometry":{"type":"Polygon","coordinates":[[[-43.37671,-22.72591],[-43.37702,-22.72656],[-43.37688,-22.72776],[-43.37653,-22.72815],[-43.37655,-22.72869],[-43.37765,-22.72943],[-43.37865,-22.72992],[-43.37924,-22.73041],[-43.37937,-22.73177],[-43.37989,-22.73254],[-43.37826,-22.73431],[-43.37668,-22.73443],[-43.37595,-22.73398],[-43.37552,-22.73544],[-43.3779,-22.7364],[-43.37752,-22.73746],[-43.37853,-22.73977],[-43.37852,-22.74145],[-43.38008,-22.7432],[-43.38147,-22.74357],[-43.38415,-22.7418],[-43.38335,-22.74359],[-43.38147,-22.74491],[-43.38312,-22.74592],[-43.38219,-22.74813],[-43.38174,-22.74958],[-43.38109,-22.74913],[-43.37837,-22.74679],[-43.37571,-22.74467],[-43.37505,-22.74409],[-43.37123,-22.74098],[-43.37015,-22.74049],[-43.36949,-22.74076],[-43.36843,-22.74238],[-43.36805,-22.74282],[-43.36683,-22.74325],[-43.366,-22.74324],[-43.36587,-22.74413],[-43.36474,-22.74372],[-43.36359,-22.74382],[-43.36277,-22.74362],[-43.36223,-22.74319],[-43.36166,-22.74235],[-43.36075,-22.73942],[-43.36033,-22.73899],[-43.35908,-22.74044],[-43.35833,-22.74079],[-43.35736,-22.74193],[-43.35556,-22.74306],[-43.35409,-22.74448],[-43.35,-22.74033],[-43.34907,-22.73905],[-43.34876,-22.73773],[-43.34884,-22.73678],[-43.34909,-22.73517],[-43.34931,-22.73314],[-43.34981,-22.7331],[-43.35117,-22.73217],[-43.35294,-22.73215],[-43.35417,-22.73126],[-43.3551,-22.73038],[-43.35611,-22.72976],[-43.35703,-22.72951],[-43.35851,-22.72991],[-43.36061,-22.73087],[-43.3644,-22.7325],[-43.36546,-22.73271],[-43.3666,-22.73246],[-43.36763,-22.73162],[-43.36948,-22.72914],[-43.37109,-22.72689],[-43.37195,-22.72609],[-43.37241,-22.72589],[-43.37432,-22.72559],[-43.37602,-22.72546],[-43.37671,-22.72591]]]},"properties":{"codigo":"3300456019","name":"Pauline","population":27085,"households":11799,"areaKm2":4.4475,"density":6090}},{"type":"Feature","geometry":{"type":"Polygon","coordinates":[[[-43.40611,-22.74452],[-43.40685,-22.74511],[-43.40685,-22.74565],[-43.40734,-22.74607],[-43.40906,-22.74599],[-43.41065,-22.74524],[-43.41158,-22.74565],[-43.41257,-22.74556],[-43.41335,-22.74591],[-43.41455,-22.7453],[-43.41507,-22.74526],[-43.41682,-22.74543],[-43.41743,-22.7453],[-43.41839,-22.74412],[-43.41881,-22.74432],[-43.41835,-22.74621],[-43.41704,-22.74883],[-43.41663,-22.74947],[-43.41756,-22.74989],[-43.41728,-22.75073],[-43.41714,-22.75281],[-43.41641,-22.75307],[-43.41499,-22.75379],[-43.41444,-22.75455],[-43.41096,-22.75299],[-43.40814,-22.75167],[-43.40785,-22.75199],[-43.40755,-22.7534],[-43.40546,-22.7542],[-43.40353,-22.75368],[-43.40316,-22.75369],[-43.4036,-22.7518],[-43.40373,-22.75055],[-43.40423,-22.74822],[-43.4043,-22.74709],[-43.40611,-22.74452]]]},"properties":{"codigo":"3300456003","name":"Areia Branca","population":16011,"households":6237,"areaKm2":1.2095,"density":13237.8}}]}