{"type":"FeatureCollection","features":[{"type":"Feature","geometry":{"type":"Polygon","coordinates":[[[-44.27621,-22.41529],[-44.2772,-22.4174],[-44.2777,-22.41878],[-44.27861,-22.4207],[-44.27972,-22.42188],[-44.28289,-22.42394],[-44.28459,-22.42516],[-44.28349,-22.42612],[-44.2852,-22.42765],[-44.28354,-22.42774],[-44.28267,-22.42854],[-44.28211,-22.42788],[-44.28232,-22.42739],[-44.28184,-22.4269],[-44.28013,-22.42752],[-44.278,-22.42689],[-44.27707,-22.42722],[-44.27539,-22.42703],[-44.27398,-22.42528],[-44.27586,-22.42393],[-44.27587,-22.42353],[-44.27452,-22.42187],[-44.27523,-22.42134],[-44.27452,-22.42037],[-44.27441,-22.41791],[-44.27359,-22.41624],[-44.27317,-22.4164],[-44.27289,-22.41574],[-44.27224,-22.41693],[-44.27342,-22.41851],[-44.27334,-22.41891],[-44.27207,-22.41955],[-44.27189,-22.42067],[-44.27272,-22.42153],[-44.27181,-22.42239],[-44.27083,-22.42235],[-44.27057,-22.42186],[-44.27067,-22.42131],[-44.27021,-22.42108],[-44.27009,-22.42059],[-44.27035,-22.4202],[-44.27123,-22.41969],[-44.27128,-22.41915],[-44.27067,-22.4185],[-44.27161,-22.41699],[-44.27147,-22.41642],[-44.27083,-22.41606],[-44.27076,-22.41553],[-44.2691,-22.41456],[-44.26918,-22.41336],[-44.27018,-22.41404],[-44.27152,-22.41445],[-44.27229,-22.41401],[-44.27264,-22.41412],[-44.2732,-22.41346],[-44.27358,-22.41345],[-44.27416,-22.41475],[-44.27468,-22.4151],[-44.27549,-22.41532],[-44.27621,-22.41529]]]},"properties":{"codigo":"3304128003","name":"Barrinha","population":224,"households":154,"areaKm2":0.9669,"density":231.7}},{"type":"Feature","geometry":{"type":"Polygon","coordinates":[[[-44.25069,-22.40227],[-44.25057,-22.4031],[-44.24914,-22.40323],[-44.24901,-22.40363],[-44.24813,-22.40395],[-44.24805,-22.40468],[-44.2472,-22.40487],[-44.24692,-22.40446],[-44.2469,-22.40369],[-44.24607,-22.40375],[-44.24605,-22.40326],[-44.24661,-22.40322],[-44.2472,-22.4028],[-44.24466,-22.4013],[-44.24335,-22.40112],[-44.24262,-22.40016],[-44.24364,-22.40051],[-44.24557,-22.40078],[-44.24642,-22.40119],[-44.24663,-22.40172],[-44.24816,-22.40232],[-44.24886,-22.40226],[-44.24952,-22.40243],[-44.24996,-22.40209],[-44.25069,-22.40227]]]},"properties":{"codigo":"3304128001","name":"Água Espalhada","population":277,"households":123,"areaKm2":0.1141,"density":2427.2}},{"type":"Feature","geometry":{"type":"Polygon","coordinates":[[[-44.27229,-22.41401],[-44.27167,-22.41356],[-44.27168,-22.41245],[-44.27056,-22.41193],[-44.27021,-22.41141],[-44.27037,-22.41094],[-44.26978,-22.40992],[-44.26848,-22.40877],[-44.26791,-22.4089],[-44.26719,-22.40821],[-44.26664,-22.40839],[-44.26642,-22.4088],[-44.26584,-22.40874],[-44.26421,-22.40841],[-44.26383,-22.40813],[-44.26265,-22.408],[-44.26195,-22.40753],[-44.26128,-22.40624],[-44.26136,-22.40607],[-44.26147,-22.40551],[-44.26189,-22.40532],[-44.26221,-22.40474],[-44.26188,-22.40418],[-44.26223,-22.4031],[-44.26619,-22.40363],[-44.26767,-22.40425],[-44.26816,-22.404],[-44.27505,-22.4044],[-44.27455,-22.40485],[-44.27404,-22.40594],[-44.27398,-22.40761],[-44.2743,-22.40977],[-44.27521,-22.41269],[-44.27621,-22.41529],[-44.27549,-22.41532],[-44.27468,-22.4151],[-44.27416,-22.41475],[-44.27358,-22.41345],[-44.2732,-22.41346],[-44.27264,-22.41412],[-44.27229,-22.41401]]]},"properties":{"codigo":"3304128013","name":"Pilotos","population":1244,"households":529,"areaKm2":0.9401,"density":1323.3}},{"type":"Feature","geometry":{"type":"Polygon","coordinates":[[[-44.26918,-22.41336],[-44.26856,-22.41312],[-44.26842,-22.41206],[-44.26693,-22.41176],[-44.2654,-22.41111],[-44.26551,-22.41057],[-44.26421,-22.40995],[-44.26518,-22.40887],[-44.26584,-22.40874],[-44.26642,-22.4088],[-44.26664,-22.40839],[-44.26719,-22.40821],[-44.26791,-22.4089],[-44.26848,-22.40877],[-44.26978,-22.40992],[-44.27037,-22.41094],[-44.27021,-22.41141],[-44.27056,-22.41193],[-44.27168,-22.41245],[-44.27167,-22.41356],[-44.27229,-22.41401],[-44.27152,-22.41445],[-44.27018,-22.41404],[-44.26918,-22.41336]]]},"properties":{"codigo":"3304128011","name":"Mirandópolis","population":1120,"households":520,"areaKm2":0.2398,"density":4669.8}},{"type":"Feature","geometry":{"type":"Polygon","coordinates":[[[-44.25277,-22.40404],[-44.25362,-22.4047],[-44.25416,-22.40537],[-44.2555,-22.40615],[-44.25796,-22.40805],[-44.25841,-22.40855],[-44.25806,-22.40863],[-44.25747,-22.4083],[-44.25638,-22.40842],[-44.25498,-22.40776],[-44.25359,-22.40747],[-44.25237,-22.40675],[-44.25139,-22.40578],[-44.2522,-22.40391],[-44.25251,-22.40381],[-44.25277,-22.40404]]]},"properties":{"codigo":"3304128009","name":"Jardim Independência","population":1030,"households":450,"areaKm2":0.1407,"density":7323.1}},{"type":"Feature","geometry":{"type":"Polygon","coordinates":[[[-44.2852,-22.42765],[-44.28734,-22.42979],[-44.28813,-22.43037],[-44.28347,-22.43444],[-44.28129,-22.43186],[-44.28178,-22.42931],[-44.28267,-22.42854],[-44.28354,-22.42774],[-44.2852,-22.42765]]]},"properties":{"codigo":"3304128008","name":"Industrial","population":5,"households":4,"areaKm2":0.3068,"density":16.3}},{"type":"Feature","geometry":{"type":"Polygon","coordinates":[[[-44.25884,-22.4217],[-44.25899,-22.42144],[-44.26076,-22.42229],[-44.26113,-22.42273],[-44.26369,-22.42337],[-44.26335,-22.42379],[-44.26227,-22.42435],[-44.26043,-22.42617],[-44.25942,-22.42612],[-44.25709,-22.42428],[-44.25757,-22.42302],[-44.25856,-22.42228],[-44.25884,-22.4217]]]},"properties":{"codigo":"3304128004","name":"Bela Vista","population":18,"households":10,"areaKm2":0.188,"density":95.7}},{"type":"Feature","geometry":{"type":"Polygon","coordinates":[[[-44.26584,-22.40874],[-44.26518,-22.40887],[-44.26421,-22.40995],[-44.26551,-22.41057],[-44.2654,-22.41111],[-44.26455,-22.41111],[-44.26389,-22.41144],[-44.26387,-22.41232],[-44.26289,-22.41225],[-44.26163,-22.41284],[-44.2611,-22.41291],[-44.25964,-22.41262],[-44.25875,-22.41184],[-44.2583,-22.41201],[-44.25818,-22.41121],[-44.25739,-22.41034],[-44.25729,-22.40973],[-44.25806,-22.40863],[-44.25841,-22.40855],[-44.25917,-22.40821],[-44.25922,-22.40747],[-44.26054,-22.4071],[-44.26195,-22.40753],[-44.26265,-22.408],[-44.26383,-22.40813],[-44.26421,-22.40841],[-44.26584,-22.40874]]]},"properties":{"codigo":"3304128007","name":"Centro","population":1103,"households":593,"areaKm2":0.3614,"density":3051.7}},{"type":"Feature","geometry":{"type":"Polygon","coordinates":[[[-44.25638,-22.40842],[-44.25591,-22.40909],[-44.25501,-22.40976],[-44.25417,-22.4096],[-44.2522,-22.40996],[-44.25198,-22.40931],[-44.25103,-22.40955],[-44.25089,-22.40895],[-44.25153,-22.40879],[-44.25179,-22.40841],[-44.25237,-22.40675],[-44.25359,-22.40747],[-44.25498,-22.40776],[-44.25638,-22.40842]]]},"properties":{"codigo":"3304128014","name":"Santa Bárbara","population":736,"households":260,"areaKm2":0.1073,"density":6860.8}},{"type":"Feature","geometry":{"type":"Polygon","coordinates":[[[-44.25251,-22.40381],[-44.25264,-22.40329],[-44.2519,-22.40167],[-44.2533,-22.40166],[-44.25417,-22.40154],[-44.25602,-22.40246],[-44.25634,-22.40161],[-44.25744,-22.40218],[-44.25695,-22.40302],[-44.25796,-22.40374],[-44.25698,-22.40483],[-44.25634,-22.40536],[-44.25564,-22.40504],[-44.2551,-22.40506],[-44.25418,-22.4047],[-44.25299,-22.40381],[-44.25277,-22.40404],[-44.25251,-22.40381]]]},"properties":{"codigo":"3304128012","name":"Nossa Senhora do Rosário","population":1923,"households":733,"areaKm2":0.1649,"density":11659}},{"type":"Feature","geometry":{"type":"Polygon","coordinates":[[[-44.26195,-22.40753],[-44.26054,-22.4071],[-44.25922,-22.40747],[-44.25917,-22.40821],[-44.25841,-22.40855],[-44.25796,-22.40805],[-44.25827,-22.40751],[-44.25731,-22.40607],[-44.25634,-22.40536],[-44.25698,-22.40483],[-44.25796,-22.40374],[-44.25928,-22.40304],[-44.26079,-22.40499],[-44.26136,-22.40607],[-44.26128,-22.40624],[-44.26195,-22.40753]]]},"properties":{"codigo":"3304128016","name":"São Benedito","population":952,"households":387,"areaKm2":0.1678,"density":5673.3}},{"type":"Feature","geometry":{"type":"Polygon","coordinates":[[[-44.26856,-22.41312],[-44.26758,-22.41345],[-44.26481,-22.41564],[-44.26497,-22.41583],[-44.26397,-22.41657],[-44.26375,-22.416],[-44.26316,-22.41563],[-44.26304,-22.41498],[-44.26222,-22.41375],[-44.26198,-22.41289],[-44.26163,-22.41284],[-44.26289,-22.41225],[-44.26387,-22.41232],[-44.26389,-22.41144],[-44.26455,-22.41111],[-44.2654,-22.41111],[-44.26693,-22.41176],[-44.26842,-22.41206],[-44.26856,-22.41312]]]},"properties":{"codigo":"3304128010","name":"Jardim Polastri","population":766,"households":346,"areaKm2":0.2178,"density":3517.7}},{"type":"Feature","geometry":{"type":"Polygon","coordinates":[[[-44.25277,-22.40404],[-44.25299,-22.40381],[-44.25418,-22.4047],[-44.2551,-22.40506],[-44.25564,-22.40504],[-44.25634,-22.40536],[-44.25731,-22.40607],[-44.25827,-22.40751],[-44.25796,-22.40805],[-44.2555,-22.40615],[-44.25416,-22.40537],[-44.25362,-22.4047],[-44.25277,-22.40404]]]},"properties":{"codigo":"3304128015","name":"Santo Antônio","population":900,"households":356,"areaKm2":0.0605,"density":14865.2}},{"type":"Feature","geometry":{"type":"Polygon","coordinates":[[[-44.25069,-22.40227],[-44.2519,-22.40167],[-44.25264,-22.40329],[-44.25251,-22.40381],[-44.2522,-22.40391],[-44.25139,-22.40578],[-44.25045,-22.40464],[-44.25057,-22.4031],[-44.25069,-22.40227]]]},"properties":{"codigo":"3304128005","name":"Boa Vista","population":250,"households":111,"areaKm2":0.0611,"density":4091.9}},{"type":"Feature","geometry":{"type":"Polygon","coordinates":[[[-44.25417,-22.40154],[-44.25435,-22.40051],[-44.25466,-22.40022],[-44.25595,-22.40065],[-44.25664,-22.40072],[-44.25634,-22.40161],[-44.25602,-22.40246],[-44.25417,-22.40154]]]},"properties":{"codigo":"3304128002","name":"Alto Paraíso","population":484,"households":193,"areaKm2":0.0379,"density":12774.5}},{"type":"Feature","geometry":{"type":"Polygon","coordinates":[[[-44.25884,-22.4217],[-44.25698,-22.42076],[-44.25627,-22.41989],[-44.25638,-22.41867],[-44.25575,-22.41736],[-44.25574,-22.41662],[-44.25662,-22.41334],[-44.25708,-22.41139],[-44.25711,-22.41037],[-44.25729,-22.40973],[-44.25739,-22.41034],[-44.25818,-22.41121],[-44.2583,-22.41201],[-44.25875,-22.41184],[-44.25964,-22.41262],[-44.2611,-22.41291],[-44.26163,-22.41284],[-44.26198,-22.41289],[-44.26222,-22.41375],[-44.26304,-22.41498],[-44.26316,-22.41563],[-44.26375,-22.416],[-44.26397,-22.41657],[-44.26397,-22.41735],[-44.26233,-22.41852],[-44.26137,-22.41892],[-44.25994,-22.41875],[-44.26039,-22.4196],[-44.26034,-22.41995],[-44.25947,-22.42054],[-44.25899,-22.42144],[-44.25884,-22.4217]]]},"properties":{"codigo":"3304128006","name":"Bondarovsky","population":1353,"households":640,"areaKm2":0.6047,"density":2237.6}}]}