{"type":"FeatureCollection","features":[{"type":"Feature","geometry":{"type":"Polygon","coordinates":[[[-46.46847,-23.14317],[-46.46905,-23.14427],[-46.46686,-23.14437],[-46.46506,-23.14509],[-46.46476,-23.14427],[-46.46461,-23.1425],[-46.46759,-23.14134],[-46.46847,-23.14317]]]},"properties":{"codigo":"3507100002","name":"Jardim Real","population":696,"households":264,"areaKm2":0.1132,"density":6146.1}},{"type":"Feature","geometry":{"type":"Polygon","coordinates":[[[-46.48003,-23.12582],[-46.47837,-23.12685],[-46.47759,-23.12755],[-46.47679,-23.12805],[-46.47592,-23.12755],[-46.47439,-23.12734],[-46.47355,-23.12701],[-46.47249,-23.12688],[-46.47199,-23.12664],[-46.47036,-23.12622],[-46.47061,-23.12524],[-46.47187,-23.12288],[-46.47205,-23.12251],[-46.47445,-23.12049],[-46.47817,-23.11802],[-46.47816,-23.11866],[-46.47863,-23.11973],[-46.47862,-23.1205],[-46.47787,-23.12261],[-46.47719,-23.12389],[-46.47737,-23.12416],[-46.47828,-23.12457],[-46.479,-23.12509],[-46.4791,-23.12549],[-46.48003,-23.12582]]]},"properties":{"codigo":"3507100011","name":"Parque das Hortências","population":4410,"households":1619,"areaKm2":0.5673,"density":7773.2}},{"type":"Feature","geometry":{"type":"Polygon","coordinates":[[[-46.4613,-23.13948],[-46.46028,-23.14177],[-46.45784,-23.1413],[-46.46125,-23.13303],[-46.46245,-23.13381],[-46.46182,-23.13459],[-46.46367,-23.13585],[-46.46332,-23.1363],[-46.46201,-23.13644],[-46.46191,-23.1381],[-46.4613,-23.13948]]]},"properties":{"codigo":"3507100005","name":"Vila São José","population":953,"households":399,"areaKm2":0.2293,"density":4156.5}},{"type":"Feature","geometry":{"type":"Polygon","coordinates":[[[-46.46466,-23.17218],[-46.46057,-23.17222],[-46.45674,-23.17236],[-46.4542,-23.17253],[-46.45256,-23.17278],[-46.45197,-23.17122],[-46.45171,-23.16892],[-46.45104,-23.16813],[-46.45114,-23.16703],[-46.45167,-23.16581],[-46.4517,-23.16513],[-46.4511,-23.16445],[-46.45271,-23.16419],[-46.45399,-23.16386],[-46.45467,-23.16388],[-46.45823,-23.16495],[-46.45963,-23.16516],[-46.46399,-23.16527],[-46.46457,-23.16525],[-46.46457,-23.16739],[-46.46465,-23.17012],[-46.46466,-23.17218]]]},"properties":{"codigo":"3507100015","name":"Serra Negra","population":309,"households":316,"areaKm2":1.1227,"density":275.2}},{"type":"Feature","geometry":{"type":"Polygon","coordinates":[[[-46.44587,-23.16159],[-46.44567,-23.16136],[-46.44479,-23.16133],[-46.44403,-23.16038],[-46.44288,-23.15991],[-46.44133,-23.15994],[-46.44045,-23.16053],[-46.43982,-23.16068],[-46.43818,-23.16013],[-46.43717,-23.15993],[-46.43611,-23.15989],[-46.43465,-23.16008],[-46.43438,-23.15913],[-46.43394,-23.15877],[-46.43329,-23.15787],[-46.43304,-23.15713],[-46.43284,-23.15518],[-46.43352,-23.15361],[-46.43467,-23.15237],[-46.43646,-23.15138],[-46.43938,-23.15175],[-46.4413,-23.15187],[-46.44243,-23.15218],[-46.44268,-23.15286],[-46.4428,-23.15414],[-46.44427,-23.15473],[-46.44557,-23.15511],[-46.44629,-23.15504],[-46.44686,-23.15434],[-46.44735,-23.15499],[-46.44722,-23.15552],[-46.44799,-23.15545],[-46.448,-23.15595],[-46.44841,-23.15658],[-46.44721,-23.15651],[-46.4471,-23.15707],[-46.44738,-23.1574],[-46.44677,-23.15771],[-46.44626,-23.15837],[-46.44657,-23.15885],[-46.44594,-23.15992],[-46.44633,-23.16069],[-46.44587,-23.16159]]]},"properties":{"codigo":"3507100014","name":"Alpes de Bom Jesus","population":222,"households":222,"areaKm2":1.1532,"density":192.5}},{"type":"Feature","geometry":{"type":"Polygon","coordinates":[[[-46.46028,-23.14177],[-46.45947,-23.14352],[-46.4593,-23.14422],[-46.45939,-23.14662],[-46.45933,-23.14799],[-46.45912,-23.14886],[-46.45872,-23.14952],[-46.45672,-23.15222],[-46.45583,-23.15261],[-46.45418,-23.15411],[-46.45256,-23.15543],[-46.452,-23.15608],[-46.45055,-23.15833],[-46.45006,-23.1581],[-46.44703,-23.16284],[-46.44619,-23.16247],[-46.44587,-23.16159],[-46.44633,-23.16069],[-46.44594,-23.15992],[-46.44657,-23.15885],[-46.44626,-23.15837],[-46.44677,-23.15771],[-46.44738,-23.1574],[-46.4471,-23.15707],[-46.44721,-23.15651],[-46.44841,-23.15658],[-46.448,-23.15595],[-46.44799,-23.15545],[-46.44722,-23.15552],[-46.44735,-23.15499],[-46.44686,-23.15434],[-46.44689,-23.15355],[-46.4479,-23.15326],[-46.44751,-23.15286],[-46.44787,-23.15243],[-46.4481,-23.15157],[-46.44779,-23.1512],[-46.44851,-23.15061],[-46.44913,-23.15121],[-46.44997,-23.15078],[-46.45044,-23.15108],[-46.45085,-23.15048],[-46.45035,-23.1503],[-46.45199,-23.14904],[-46.45204,-23.14789],[-46.45259,-23.14718],[-46.45317,-23.14738],[-46.45428,-23.14732],[-46.45414,-23.14686],[-46.4544,-23.14624],[-46.45443,-23.14557],[-46.45618,-23.14534],[-46.45784,-23.1413],[-46.46028,-23.14177]]]},"properties":{"codigo":"3507100004","name":"Distrito Industrial","population":40,"households":20,"areaKm2":1.1695,"density":34.2}},{"type":"Feature","geometry":{"type":"Polygon","coordinates":[[[-46.47036,-23.12622],[-46.47011,-23.12676],[-46.46922,-23.12746],[-46.47375,-23.12966],[-46.47215,-23.13093],[-46.47073,-23.13157],[-46.46862,-23.13188],[-46.4677,-23.13274],[-46.46661,-23.13316],[-46.46599,-23.13245],[-46.46371,-23.13072],[-46.46349,-23.13011],[-46.47187,-23.12288],[-46.47061,-23.12524],[-46.47036,-23.12622]]]},"properties":{"codigo":"3507100009","name":"Jardim Bela Vista","population":2076,"households":882,"areaKm2":0.4587,"density":4526}},{"type":"Feature","geometry":{"type":"Polygon","coordinates":[[[-46.49506,-23.12238],[-46.49357,-23.12274],[-46.49233,-23.12324],[-46.4917,-23.12333],[-46.49032,-23.12305],[-46.48934,-23.12257],[-46.48878,-23.12249],[-46.48741,-23.12326],[-46.48695,-23.12338],[-46.48489,-23.12297],[-46.48413,-23.12358],[-46.48337,-23.12386],[-46.48276,-23.12461],[-46.4812,-23.12511],[-46.48003,-23.12582],[-46.4791,-23.12549],[-46.479,-23.12509],[-46.47828,-23.12457],[-46.47737,-23.12416],[-46.47719,-23.12389],[-46.47787,-23.12261],[-46.47862,-23.1205],[-46.47863,-23.11973],[-46.47816,-23.11866],[-46.47817,-23.11802],[-46.47926,-23.11736],[-46.48042,-23.1168],[-46.48187,-23.11629],[-46.48598,-23.11519],[-46.48722,-23.11472],[-46.48847,-23.11409],[-46.4885,-23.11428],[-46.48829,-23.11496],[-46.48885,-23.1156],[-46.48976,-23.11588],[-46.49039,-23.1164],[-46.49141,-23.11695],[-46.49191,-23.11767],[-46.49213,-23.11846],[-46.49262,-23.11919],[-46.49338,-23.11973],[-46.49332,-23.12009],[-46.49375,-23.12073],[-46.49423,-23.12193],[-46.49506,-23.12238]]]},"properties":{"codigo":"3507100012","name":"Laranja Azeda","population":1712,"households":773,"areaKm2":1.3057,"density":1311.2}},{"type":"Feature","geometry":{"type":"Polygon","coordinates":[[[-46.46759,-23.14134],[-46.46649,-23.13815],[-46.46587,-23.13633],[-46.46681,-23.13686],[-46.46857,-23.13719],[-46.46924,-23.13683],[-46.46982,-23.13699],[-46.47176,-23.13689],[-46.47297,-23.13759],[-46.47431,-23.13807],[-46.47463,-23.13877],[-46.47442,-23.14222],[-46.47391,-23.14252],[-46.47254,-23.14295],[-46.47163,-23.14338],[-46.4714,-23.14376],[-46.47064,-23.14411],[-46.46847,-23.14317],[-46.46759,-23.14134]]]},"properties":{"codigo":"3507100006","name":"Jardim Conforto","population":643,"households":299,"areaKm2":0.5055,"density":1272.1}},{"type":"Feature","geometry":{"type":"Polygon","coordinates":[[[-46.46862,-23.13188],[-46.46944,-23.13249],[-46.47289,-23.13299],[-46.47341,-23.13321],[-46.47558,-23.13381],[-46.47431,-23.13807],[-46.47297,-23.13759],[-46.47176,-23.13689],[-46.46982,-23.13699],[-46.46924,-23.13683],[-46.46857,-23.13719],[-46.46806,-23.136],[-46.4681,-23.13529],[-46.46753,-23.13448],[-46.4671,-23.13349],[-46.4677,-23.13274],[-46.46862,-23.13188]]]},"properties":{"codigo":"3507100008","name":"Jardim das Palmeiras","population":2192,"households":863,"areaKm2":0.3635,"density":6030.5}},{"type":"Feature","geometry":{"type":"Polygon","coordinates":[[[-46.47679,-23.12805],[-46.47525,-23.12862],[-46.47448,-23.12934],[-46.47375,-23.12966],[-46.46922,-23.12746],[-46.47011,-23.12676],[-46.47036,-23.12622],[-46.47199,-23.12664],[-46.47249,-23.12688],[-46.47355,-23.12701],[-46.47439,-23.12734],[-46.47592,-23.12755],[-46.47679,-23.12805]]]},"properties":{"codigo":"3507100010","name":"Jardim Palmas","population":502,"households":176,"areaKm2":0.1382,"density":3631.8}},{"type":"Feature","geometry":{"type":"Polygon","coordinates":[[[-46.46125,-23.13303],[-46.46203,-23.13163],[-46.46349,-23.13011],[-46.46371,-23.13072],[-46.46599,-23.13245],[-46.46661,-23.13316],[-46.4677,-23.13274],[-46.4671,-23.13349],[-46.46753,-23.13448],[-46.4681,-23.13529],[-46.46806,-23.136],[-46.46857,-23.13719],[-46.46681,-23.13686],[-46.46587,-23.13633],[-46.46649,-23.13815],[-46.46604,-23.1387],[-46.46358,-23.13696],[-46.4614,-23.13972],[-46.4613,-23.13948],[-46.46191,-23.1381],[-46.46201,-23.13644],[-46.46332,-23.1363],[-46.46367,-23.13585],[-46.46182,-23.13459],[-46.46245,-23.13381],[-46.46125,-23.13303]]]},"properties":{"codigo":"3507100007","name":"Centro","population":1288,"households":612,"areaKm2":0.3801,"density":3388.9}},{"type":"Feature","geometry":{"type":"Polygon","coordinates":[[[-46.46847,-23.14317],[-46.47064,-23.14411],[-46.4714,-23.14376],[-46.47163,-23.14338],[-46.47254,-23.14295],[-46.47391,-23.14252],[-46.47442,-23.14222],[-46.47515,-23.14372],[-46.47601,-23.1446],[-46.47572,-23.14574],[-46.47493,-23.14735],[-46.47422,-23.14712],[-46.47216,-23.14868],[-46.47139,-23.14824],[-46.47046,-23.14792],[-46.46958,-23.14845],[-46.46944,-23.14794],[-46.4682,-23.1502],[-46.46787,-23.15063],[-46.46663,-23.14767],[-46.46572,-23.14599],[-46.46506,-23.14509],[-46.46686,-23.14437],[-46.46905,-23.14427],[-46.46847,-23.14317]]]},"properties":{"codigo":"3507100001","name":"Vila Operária","population":2513,"households":1053,"areaKm2":0.5151,"density":4879}},{"type":"Feature","geometry":{"type":"Polygon","coordinates":[[[-46.46506,-23.14509],[-46.46572,-23.14599],[-46.46663,-23.14767],[-46.46787,-23.15063],[-46.46696,-23.15083],[-46.46674,-23.1512],[-46.46592,-23.15136],[-46.46561,-23.15033],[-46.46487,-23.1491],[-46.46431,-23.14752],[-46.46399,-23.1472],[-46.46285,-23.14688],[-46.46091,-23.14457],[-46.4593,-23.14422],[-46.45947,-23.14352],[-46.46028,-23.14177],[-46.4613,-23.13948],[-46.4614,-23.13972],[-46.46358,-23.13696],[-46.46604,-23.1387],[-46.46649,-23.13815],[-46.46759,-23.14134],[-46.46461,-23.1425],[-46.46476,-23.14427],[-46.46506,-23.14509]]]},"properties":{"codigo":"3507100003","name":"Cidade Nova","population":1193,"households":548,"areaKm2":0.6136,"density":1944.2}},{"type":"Feature","geometry":{"type":"MultiPolygon","coordinates":[[[[-46.48847,-23.11409],[-46.48722,-23.11472],[-46.48598,-23.11519],[-46.48187,-23.11629],[-46.48042,-23.1168],[-46.47926,-23.11736],[-46.47817,-23.11802],[-46.47445,-23.12049],[-46.47205,-23.12251],[-46.47187,-23.12288],[-46.46349,-23.13011],[-46.46203,-23.13163],[-46.46125,-23.13303],[-46.45784,-23.1413],[-46.45618,-23.14534],[-46.45443,-23.14557],[-46.45448,-23.14511],[-46.4534,-23.1447],[-46.45357,-23.1442],[-46.45337,-23.1438],[-46.4527,-23.1435],[-46.45254,-23.1431],[-46.45172,-23.14234],[-46.45222,-23.14184],[-46.45233,-23.14125],[-46.45149,-23.14161],[-46.4512,-23.14116],[-46.45073,-23.14099],[-46.45124,-23.13964],[-46.4507,-23.13951],[-46.45117,-23.13832],[-46.45168,-23.1378],[-46.45329,-23.13664],[-46.45349,-23.13616],[-46.45264,-23.13597],[-46.45353,-23.13539],[-46.45311,-23.13493],[-46.45224,-23.13474],[-46.45272,-23.13419],[-46.45262,-23.1336],[-46.45342,-23.13321],[-46.45304,-23.13209],[-46.45397,-23.13161],[-46.45412,-23.13119],[-46.45326,-23.13104],[-46.45408,-23.13041],[-46.45465,-23.12931],[-46.45598,-23.12916],[-46.45766,-23.12884],[-46.45779,-23.12841],[-46.45828,-23.12837],[-46.45879,-23.12757],[-46.45902,-23.12815],[-46.45977,-23.12819],[-46.4601,-23.12933],[-46.46052,-23.13009],[-46.46118,-23.13029],[-46.4614,-23.12969],[-46.46208,-23.12947],[-46.46298,-23.12975],[-46.46347,-23.12957],[-46.46352,-23.12833],[-46.46337,-23.12786],[-46.46428,-23.12772],[-46.46499,-23.12705],[-46.46588,-23.12728],[-46.4664,-23.12663],[-46.4662,-23.12618],[-46.46554,-23.12636],[-46.466,-23.1246],[-46.46545,-23.12485],[-46.46519,-23.1245],[-46.46569,-23.12411],[-46.46516,-23.12371],[-46.46546,-23.12322],[-46.46512,-23.12276],[-46.46581,-23.12183],[-46.46624,-23.12186],[-46.46656,-23.1213],[-46.46662,-23.12066],[-46.46719,-23.12061],[-46.46723,-23.12017],[-46.46825,-23.11985],[-46.46778,-23.11908],[-46.46805,-23.11892],[-46.46873,-23.11939],[-46.46987,-23.11958],[-46.47053,-23.11991],[-46.47145,-23.11986],[-46.47135,-23.1191],[-46.47194,-23.11854],[-46.4719,-23.11825],[-46.47259,-23.1176],[-46.4729,-23.11772],[-46.47268,-23.11929],[-46.47358,-23.11926],[-46.47385,-23.11948],[-46.47448,-23.11933],[-46.47528,-23.11837],[-46.47668,-23.11798],[-46.47698,-23.1172],[-46.47669,-23.11646],[-46.47721,-23.11564],[-46.47697,-23.11485],[-46.47731,-23.11447],[-46.47934,-23.11451],[-46.4795,-23.11354],[-46.47921,-23.11251],[-46.47985,-23.11224],[-46.47992,-23.11184],[-46.48165,-23.1122],[-46.48233,-23.1121],[-46.48268,-23.11229],[-46.48347,-23.11287],[-46.48399,-23.11279],[-46.48461,-23.11215],[-46.48549,-23.11234],[-46.48629,-23.1113],[-46.48766,-23.11134],[-46.48727,-23.11181],[-46.48726,-23.11278],[-46.4875,-23.11319],[-46.48822,-23.11358],[-46.48847,-23.11409]]],[[[-46.45379,-23.12246],[-46.45643,-23.12058],[-46.45713,-23.11998],[-46.45745,-23.12033],[-46.45908,-23.12143],[-46.46037,-23.1225],[-46.45863,-23.12382],[-46.45733,-23.12259],[-46.45564,-23.12466],[-46.45441,-23.12381],[-46.45338,-23.12346],[-46.45327,-23.12308],[-46.45379,-23.12246]]],[[[-46.4539,-23.11177],[-46.45569,-23.11273],[-46.45632,-23.11344],[-46.45725,-23.11364],[-46.45797,-23.11451],[-46.45895,-23.11487],[-46.45855,-23.1157],[-46.45859,-23.11663],[-46.45778,-23.11676],[-46.45601,-23.11859],[-46.45534,-23.1191],[-46.45383,-23.11791],[-46.45311,-23.11699],[-46.45237,-23.11486],[-46.45286,-23.11381],[-46.45339,-23.11304],[-46.4539,-23.11177]]],[[[-46.45432,-23.12891],[-46.45325,-23.12994],[-46.45254,-23.13078],[-46.45206,-23.13183],[-46.45125,-23.13253],[-46.4498,-23.13287],[-46.44916,-23.13237],[-46.44845,-23.13148],[-46.44959,-23.13055],[-46.45063,-23.12872],[-46.45113,-23.12805],[-46.45151,-23.12696],[-46.45432,-23.12891]]]]},"properties":{"codigo":"3507100013","name":"Guaxinduva","population":510,"households":503,"areaKm2":2.9568,"density":172.5}}]}