{"type":"FeatureCollection","features":[{"type":"Feature","geometry":{"type":"MultiPolygon","coordinates":[[[[-48.23969,-24.99142],[-48.23945,-24.99256],[-48.23747,-24.99322],[-48.23539,-24.99558],[-48.23543,-24.99664],[-48.23631,-24.99818],[-48.23386,-25.0007],[-48.22947,-25.00135],[-48.2312,-25.0026],[-48.23169,-25.00432],[-48.23363,-25.00639],[-48.23292,-25.00753],[-48.23153,-25.00749],[-48.23059,-25.00844],[-48.22894,-25.00858],[-48.22698,-25.00677],[-48.22522,-25.00727],[-48.224,-25.00804],[-48.22336,-25.00912],[-48.22503,-25.00958],[-48.22734,-25.01265],[-48.23195,-25.01536],[-48.233,-25.01789],[-48.23181,-25.0183],[-48.23111,-25.01943],[-48.23155,-25.02079],[-48.23036,-25.02115],[-48.22839,-25.02301],[-48.22531,-25.02251],[-48.22152,-25.02488],[-48.22001,-25.02704],[-48.21847,-25.02677],[-48.21619,-25.02908],[-48.21494,-25.02967],[-48.21339,-25.02922],[-48.21091,-25.02723],[-48.20947,-25.02718],[-48.20894,-25.02864],[-48.20865,-25.03194],[-48.21028,-25.03638],[-48.2118,-25.03825],[-48.21525,-25.0408],[-48.21556,-25.04255],[-48.21572,-25.04691],[-48.21512,-25.05046],[-48.2134,-25.05582],[-48.21294,-25.05767],[-48.2121,-25.05919],[-48.21276,-25.06199],[-48.21517,-25.06788],[-48.21347,-25.07187],[-48.21328,-25.07314],[-48.21461,-25.07395],[-48.21605,-25.07667],[-48.21516,-25.07766],[-48.21342,-25.07772],[-48.21209,-25.07834],[-48.21014,-25.08025],[-48.21134,-25.08156],[-48.21272,-25.08215],[-48.21289,-25.08337],[-48.2122,-25.08545],[-48.20886,-25.08807],[-48.20742,-25.08878],[-48.204,-25.09355],[-48.20372,-25.09522],[-48.20525,-25.09826],[-48.2045,-25.09966],[-48.20119,-25.10184],[-48.19855,-25.10328],[-48.19483,-25.10649],[-48.19486,-25.10834],[-48.19464,-25.10903],[-48.19495,-25.11234],[-48.19459,-25.11351],[-48.19355,-25.115],[-48.19039,-25.11636],[-48.18939,-25.11764],[-48.18903,-25.11899],[-48.18903,-25.12039],[-48.18808,-25.12193],[-48.18806,-25.12374],[-48.187,-25.12533],[-48.1856,-25.12646],[-48.18264,-25.12822],[-48.18169,-25.12922],[-48.18119,-25.13053],[-48.18163,-25.13212],[-48.18164,-25.13384],[-48.18022,-25.13492],[-48.17713,-25.13574],[-48.17511,-25.13873],[-48.17361,-25.1395],[-48.17133,-25.14226],[-48.17023,-25.1428],[-48.16699,-25.1438],[-48.12137,-25.13256],[-48.11472,-25.12896],[-48.10766,-25.13036],[-48.10268,-25.13843],[-48.07505,-25.16836],[-48.04945,-25.16232],[-48.00573,-25.15201],[-47.93631,-25.15895],[-47.93368,-25.15841],[-47.93089,-25.15638],[-47.93027,-25.1552],[-47.92895,-25.15493],[-47.92752,-25.1552],[-47.92598,-25.15636],[-47.92236,-25.15833],[-47.92198,-25.1559],[-47.92107,-25.15616],[-47.91783,-25.15936],[-47.91406,-25.15937],[-47.91237,-25.15596],[-47.91334,-25.15541],[-47.91539,-25.15569],[-47.917,-25.1565],[-47.91823,-25.15538],[-47.91932,-25.15299],[-47.91968,-25.15122],[-47.91932,-25.14665],[-47.9188,-25.14473],[-47.9182,-25.14405],[-47.91635,-25.14375],[-47.916,-25.14322],[-47.91557,-25.14118],[-47.91488,-25.13974],[-47.916,-25.1384],[-47.91478,-25.13664],[-47.91409,-25.13473],[-47.91361,-25.13165],[-47.91304,-25.13114],[-47.91241,-25.12942],[-47.91266,-25.12874],[-47.91113,-25.12667],[-47.91046,-25.12533],[-47.90999,-25.12352],[-47.90912,-25.12233],[-47.90885,-25.1208],[-47.90829,-25.11961],[-47.90803,-25.11813],[-47.90475,-25.11646],[-47.90387,-25.11558],[-47.90307,-25.11344],[-47.90209,-25.11195],[-47.90087,-25.11076],[-47.8978,-25.10834],[-47.8966,-25.10857],[-47.89525,-25.10813],[-47.89474,-25.10745],[-47.89512,-25.10597],[-47.89465,-25.10549],[-47.89609,-25.10402],[-47.89728,-25.10431],[-47.90046,-25.10406],[-47.90229,-25.10302],[-47.90335,-25.10172],[-47.90447,-25.09854],[-47.90473,-25.09542],[-47.9044,-25.09096],[-47.90341,-25.08794],[-47.90293,-25.08589],[-47.90273,-25.08143],[-47.90274,-25.07721],[-47.90255,-25.07493],[-47.90261,-25.06843],[-47.90238,-25.06567],[-47.90293,-25.06491],[-47.90593,-25.06332],[-47.90754,-25.06312],[-47.90872,-25.06343],[-47.90952,-25.05295],[-47.91305,-25.05307],[-47.91441,-25.0518],[-47.91477,-25.05022],[-47.91408,-25.04944],[-47.9137,-25.04814],[-47.91543,-25.0482],[-47.91582,-25.04743],[-47.91486,-25.04631],[-47.91349,-25.04569],[-47.91349,-25.04255],[-47.91306,-25.0401],[-47.91307,-25.03644],[-47.91347,-25.0344],[-47.91322,-25.03207],[-47.91338,-25.02999],[-47.91427,-25.02636],[-47.91602,-25.02368],[-47.91746,-25.02218],[-47.91849,-25.02043],[-47.91866,-25.01947],[-47.91853,-25.01739],[-47.91783,-25.01499],[-47.91633,-25.01346],[-47.91552,-25.01222],[-47.91238,-25.00988],[-47.90852,-25.00809],[-47.90653,-25.00758],[-47.90533,-25.00693],[-47.90191,-25.00588],[-47.90035,-25.0046],[-47.89782,-25.00168],[-47.89649,-24.99886],[-47.8958,-24.99695],[-47.8956,-24.99309],[-47.89524,-24.99154],[-47.89361,-24.98999],[-47.89359,-24.98733],[-47.89413,-24.98299],[-47.8962,-24.97734],[-47.89658,-24.9754],[-47.89747,-24.97321],[-47.89725,-24.9708],[-47.89671,-24.96802],[-47.89367,-24.96419],[-47.89152,-24.96275],[-47.88954,-24.9617],[-47.88722,-24.96153],[-47.88479,-24.96266],[-47.88239,-24.9645],[-47.88147,-24.9656],[-47.87883,-24.96713],[-47.87227,-24.96815],[-47.87052,-24.96796],[-47.86847,-24.96716],[-47.86619,-24.96576],[-47.86181,-24.96219],[-47.86094,-24.96088],[-47.8575,-24.95373],[-47.85482,-24.94711],[-47.85405,-24.94299],[-47.85294,-24.93983],[-47.85343,-24.93795],[-47.85491,-24.93845],[-47.85564,-24.93776],[-47.85533,-24.93675],[-47.85394,-24.93543],[-47.85122,-24.93334],[-47.84753,-24.93102],[-47.84636,-24.93064],[-47.84416,-24.92875],[-47.84302,-24.92753],[-47.84092,-24.92586],[-47.83705,-24.92609],[-47.83708,-24.92493],[-47.83641,-24.92439],[-47.83532,-24.92538],[-47.83472,-24.92537],[-47.83244,-24.92412],[-47.82914,-24.92104],[-47.82772,-24.91785],[-47.8271,-24.91438],[-47.82772,-24.912],[-47.82869,-24.91068],[-47.83043,-24.91027],[-47.83163,-24.90883],[-47.83459,-24.90925],[-47.83641,-24.908],[-47.83783,-24.9083],[-47.83911,-24.90802],[-47.83986,-24.90679],[-47.83958,-24.90477],[-47.83788,-24.90373],[-47.8366,-24.9038],[-47.83449,-24.90451],[-47.83199,-24.90494],[-47.83069,-24.9054],[-47.8283,-24.90692],[-47.82521,-24.90928],[-47.81904,-24.91239],[-47.81352,-24.91251],[-47.81008,-24.91166],[-47.80669,-24.90969],[-47.80492,-24.90786],[-47.80391,-24.90646],[-47.80297,-24.90379],[-47.8023,-24.8989],[-47.8031,-24.8957],[-47.80338,-24.89383],[-47.80266,-24.89142],[-47.80168,-24.89047],[-47.79762,-24.88792],[-47.79458,-24.88639],[-47.78924,-24.88336],[-47.78369,-24.88143],[-47.78,-24.88059],[-47.77671,-24.87895],[-47.77482,-24.87714],[-47.77241,-24.87237],[-47.77066,-24.87105],[-47.76949,-24.86982],[-47.76691,-24.86517],[-47.76486,-24.86228],[-47.7628,-24.85984],[-47.76333,-24.85923],[-47.76479,-24.8612],[-47.76606,-24.8617],[-47.76542,-24.85952],[-47.76477,-24.85885],[-47.76111,-24.85698],[-47.7598,-24.85671],[-47.75647,-24.85543],[-47.75219,-24.85414],[-47.74877,-24.85228],[-47.74697,-24.85156],[-47.74491,-24.8493],[-47.74396,-24.84775],[-47.74199,-24.84602],[-47.74099,-24.8454],[-47.73869,-24.84254],[-47.73654,-24.83851],[-47.73564,-24.83633],[-47.73436,-24.83568],[-47.73639,-24.83289],[-47.73723,-24.83079],[-47.738,-24.83015],[-47.73939,-24.82976],[-47.74085,-24.82995],[-47.74396,-24.83172],[-47.74789,-24.83169],[-47.74894,-24.83271],[-47.74889,-24.83359],[-47.74655,-24.83695],[-47.74665,-24.83866],[-47.7484,-24.84059],[-47.75006,-24.84155],[-47.75215,-24.84175],[-47.75639,-24.84115],[-47.75719,-24.84036],[-47.75717,-24.83939],[-47.7566,-24.838],[-47.75662,-24.83604],[-47.75742,-24.83509],[-47.7593,-24.83391],[-47.76163,-24.83297],[-47.7633,-24.83309],[-47.76426,-24.83366],[-47.76508,-24.83495],[-47.76458,-24.83574],[-47.76231,-24.83634],[-47.76282,-24.83745],[-47.76421,-24.83718],[-47.76596,-24.83814],[-47.76765,-24.84053],[-47.76864,-24.84061],[-47.77137,-24.83925],[-47.77203,-24.83989],[-47.76973,-24.84211],[-47.76986,-24.84465],[-47.77045,-24.84551],[-47.77146,-24.84502],[-47.77207,-24.84311],[-47.77328,-24.84225],[-47.77447,-24.84264],[-47.77464,-24.84385],[-47.77374,-24.84489],[-47.77373,-24.84588],[-47.77447,-24.84686],[-47.77546,-24.8471],[-47.77807,-24.84652],[-47.7786,-24.84601],[-47.77934,-24.84367],[-47.77921,-24.84106],[-47.77708,-24.83815],[-47.77665,-24.83602],[-47.77734,-24.83507],[-47.77833,-24.8348],[-47.77929,-24.83508],[-47.78063,-24.83406],[-47.78129,-24.83235],[-47.78263,-24.83218],[-47.78281,-24.83067],[-47.78218,-24.83011],[-47.78273,-24.82924],[-47.78245,-24.82834],[-47.77937,-24.82815],[-47.77974,-24.82669],[-47.77798,-24.82427],[-47.77636,-24.82299],[-47.77564,-24.82195],[-47.77508,-24.8204],[-47.77484,-24.81828],[-47.77365,-24.81651],[-47.77468,-24.81542],[-47.77586,-24.81298],[-47.77888,-24.81028],[-47.779,-24.80879],[-47.77837,-24.80803],[-47.78002,-24.80578],[-47.7805,-24.80438],[-47.78109,-24.80372],[-47.78113,-24.80273],[-47.78175,-24.80159],[-47.78401,-24.80051],[-47.78596,-24.80037],[-47.78778,-24.80114],[-47.78958,-24.79987],[-47.79083,-24.79942],[-47.7922,-24.79939],[-47.79289,-24.79898],[-47.79234,-24.79755],[-47.79254,-24.79655],[-47.79365,-24.79613],[-47.7954,-24.7944],[-47.79892,-24.79452],[-47.80027,-24.79269],[-47.80148,-24.7914],[-47.80235,-24.78999],[-47.80404,-24.78997],[-47.80439,-24.79126],[-47.80675,-24.79152],[-47.80834,-24.79082],[-47.80996,-24.78977],[-47.81104,-24.78844],[-47.81065,-24.78614],[-47.81111,-24.78514],[-47.81332,-24.7841],[-47.8164,-24.78105],[-47.81824,-24.7803],[-47.81942,-24.7792],[-47.82077,-24.7785],[-47.8223,-24.7772],[-47.82271,-24.77606],[-47.82254,-24.77497],[-47.82323,-24.77392],[-47.82441,-24.7711],[-47.82667,-24.76997],[-47.82665,-24.76859],[-47.82903,-24.76726],[-47.82947,-24.76475],[-47.82898,-24.76359],[-47.82964,-24.76179],[-47.82939,-24.75968],[-47.82973,-24.75756],[-47.8303,-24.75639],[-47.83116,-24.7566],[-47.83213,-24.75805],[-47.8349,-24.75992],[-47.8382,-24.76077],[-47.83956,-24.76129],[-47.84128,-24.76129],[-47.84304,-24.76185],[-47.84632,-24.76374],[-47.84872,-24.76461],[-47.85022,-24.76597],[-47.85048,-24.7669],[-47.85137,-24.76776],[-47.85298,-24.76801],[-47.85327,-24.76842],[-47.85225,-24.76948],[-47.85058,-24.7707],[-47.84958,-24.77181],[-47.84936,-24.77292],[-47.84966,-24.77816],[-47.84948,-24.77906],[-47.84839,-24.78033],[-47.84784,-24.78231],[-47.84678,-24.78335],[-47.84677,-24.78428],[-47.84765,-24.78547],[-47.84884,-24.78651],[-47.85081,-24.78777],[-47.85224,-24.78811],[-47.85464,-24.78793],[-47.85566,-24.78816],[-47.85754,-24.78917],[-47.85898,-24.7896],[-47.86115,-24.79104],[-47.86272,-24.79235],[-47.86464,-24.79324],[-47.86712,-24.79658],[-47.86692,-24.79747],[-47.86559,-24.79879],[-47.86598,-24.79932],[-47.86772,-24.79834],[-47.86907,-24.79796],[-47.87472,-24.79514],[-47.87837,-24.79469],[-47.88058,-24.79342],[-47.88128,-24.79193],[-47.88263,-24.79055],[-47.88501,-24.78894],[-47.88566,-24.78681],[-47.88656,-24.78638],[-47.88878,-24.78761],[-47.89017,-24.78678],[-47.89034,-24.78431],[-47.89095,-24.78158],[-47.89067,-24.77934],[-47.89179,-24.77551],[-47.89223,-24.77535],[-47.89451,-24.77659],[-47.89618,-24.77643],[-47.89772,-24.77679],[-47.90054,-24.77675],[-47.9017,-24.77609],[-47.90401,-24.77365],[-47.90529,-24.77286],[-47.90637,-24.77286],[-47.91077,-24.77407],[-47.91421,-24.77637],[-47.9166,-24.7772],[-47.9178,-24.77705],[-47.9205,-24.77616],[-47.92241,-24.77481],[-47.92663,-24.77471],[-47.92794,-24.77445],[-47.92945,-24.7736],[-47.93151,-24.7718],[-47.93538,-24.76879],[-47.93694,-24.76791],[-47.94062,-24.76756],[-47.94227,-24.76779],[-47.94309,-24.76719],[-47.94386,-24.76949],[-47.94536,-24.77196],[-47.94344,-24.77221],[-47.9407,-24.77357],[-47.93836,-24.77442],[-47.93716,-24.77589],[-47.93502,-24.77733],[-47.92955,-24.7795],[-47.92722,-24.78068],[-47.9275,-24.78252],[-47.93085,-24.78911],[-47.92727,-24.79165],[-47.92708,-24.79329],[-47.92591,-24.79507],[-47.92742,-24.79546],[-47.92858,-24.79706],[-47.92953,-24.79922],[-47.93044,-24.80033],[-47.93086,-24.80154],[-47.93099,-24.80366],[-47.93164,-24.8051],[-47.93363,-24.807],[-47.93681,-24.8089],[-47.93853,-24.81076],[-47.93752,-24.81313],[-47.93625,-24.81519],[-47.93541,-24.81615],[-47.93483,-24.8182],[-47.93288,-24.82077],[-47.93067,-24.82148],[-47.92935,-24.82223],[-47.92852,-24.82342],[-47.92744,-24.82596],[-47.92358,-24.8306],[-47.92272,-24.83197],[-47.91778,-24.83274],[-47.91586,-24.83394],[-47.91516,-24.83567],[-47.91371,-24.83728],[-47.91264,-24.83997],[-47.91286,-24.84131],[-47.91411,-24.84432],[-47.91419,-24.84604],[-47.91536,-24.84743],[-47.91641,-24.84804],[-47.91655,-24.84966],[-47.91583,-24.85175],[-47.91552,-24.8561],[-47.91782,-24.85705],[-47.91992,-24.85517],[-47.92124,-24.85433],[-47.92349,-24.85565],[-47.92372,-24.85379],[-47.92296,-24.85195],[-47.92264,-24.84992],[-47.92403,-24.84926],[-47.927,-24.84948],[-47.92883,-24.84991],[-47.93049,-24.84852],[-47.93305,-24.84743],[-47.9376,-24.84591],[-47.94072,-24.84446],[-47.94349,-24.84224],[-47.94488,-24.84036],[-47.94569,-24.83886],[-47.94864,-24.83528],[-47.94978,-24.83471],[-47.95111,-24.83492],[-47.95297,-24.83565],[-47.95488,-24.83598],[-47.95616,-24.83759],[-47.9563,-24.83903],[-47.95692,-24.8416],[-47.95822,-24.84365],[-47.95878,-24.84591],[-47.95727,-24.85199],[-47.95783,-24.85347],[-47.95808,-24.85506],[-47.95928,-24.85756],[-47.9613,-24.85843],[-47.96328,-24.86021],[-47.96289,-24.86234],[-47.96181,-24.86498],[-47.96153,-24.86643],[-47.95997,-24.86727],[-47.95866,-24.86889],[-47.95678,-24.87174],[-47.95732,-24.87342],[-47.95569,-24.87684],[-47.95969,-24.87871],[-47.96097,-24.87796],[-47.96355,-24.87548],[-47.96421,-24.87411],[-47.96769,-24.87211],[-47.97052,-24.87193],[-47.97314,-24.87129],[-47.97661,-24.86969],[-47.97827,-24.8684],[-47.98044,-24.86782],[-47.98303,-24.86619],[-47.98397,-24.86423],[-47.98533,-24.86281],[-47.98675,-24.86196],[-47.98766,-24.86096],[-47.98728,-24.85861],[-47.98622,-24.85705],[-47.98603,-24.85574],[-47.98658,-24.85356],[-47.98766,-24.85273],[-47.98858,-24.85041],[-47.98961,-24.84858],[-47.99159,-24.84656],[-47.99505,-24.84862],[-47.99647,-24.84841],[-47.99825,-24.84775],[-48.00005,-24.84867],[-48.00069,-24.85051],[-48.00348,-24.85339],[-48.00472,-24.85253],[-48.00575,-24.85119],[-48.00697,-24.85024],[-48.00847,-24.85041],[-48.00947,-24.85213],[-48.00995,-24.85365],[-48.01245,-24.85336],[-48.01406,-24.85281],[-48.01535,-24.85095],[-48.01864,-24.84983],[-48.02039,-24.84889],[-48.02134,-24.8479],[-48.02408,-24.84611],[-48.02583,-24.84539],[-48.02756,-24.8442],[-48.02858,-24.84307],[-48.03169,-24.84203],[-48.03317,-24.84184],[-48.03403,-24.84093],[-48.03411,-24.83899],[-48.03561,-24.83611],[-48.03844,-24.83563],[-48.03955,-24.83516],[-48.04072,-24.83411],[-48.04352,-24.83438],[-48.04514,-24.83564],[-48.047,-24.83542],[-48.04796,-24.8345],[-48.04917,-24.83419],[-48.05192,-24.83529],[-48.05214,-24.83735],[-48.05142,-24.83851],[-48.0518,-24.84],[-48.05363,-24.8424],[-48.05697,-24.84265],[-48.05739,-24.84403],[-48.05625,-24.84491],[-48.05635,-24.84644],[-48.05777,-24.84845],[-48.05658,-24.84883],[-48.05574,-24.85151],[-48.05149,-24.85179],[-48.05025,-24.85133],[-48.04913,-24.85202],[-48.04886,-24.85432],[-48.04892,-24.85568],[-48.0482,-24.85728],[-48.04475,-24.85862],[-48.04375,-24.85963],[-48.04289,-24.86183],[-48.04341,-24.86429],[-48.04349,-24.86596],[-48.04185,-24.86936],[-48.04153,-24.8714],[-48.04208,-24.87319],[-48.0433,-24.87392],[-48.04406,-24.87508],[-48.04274,-24.87903],[-48.04363,-24.88199],[-48.0435,-24.88328],[-48.04397,-24.88449],[-48.04291,-24.8872],[-48.04163,-24.88875],[-48.03524,-24.89187],[-48.03581,-24.89297],[-48.03797,-24.89606],[-48.03722,-24.89812],[-48.03783,-24.90061],[-48.03499,-24.90296],[-48.03482,-24.90584],[-48.03597,-24.90781],[-48.0365,-24.91041],[-48.03672,-24.91322],[-48.03559,-24.91674],[-48.03697,-24.91717],[-48.03794,-24.91812],[-48.03972,-24.91786],[-48.04153,-24.91853],[-48.04347,-24.91897],[-48.04644,-24.92169],[-48.04702,-24.92326],[-48.04683,-24.92459],[-48.04711,-24.92672],[-48.04616,-24.92818],[-48.04459,-24.92965],[-48.04322,-24.93025],[-48.04055,-24.93472],[-48.03907,-24.93503],[-48.03625,-24.93661],[-48.03469,-24.93805],[-48.03256,-24.93892],[-48.03063,-24.94069],[-48.02805,-24.94188],[-48.02719,-24.9431],[-48.02583,-24.94376],[-48.02597,-24.94545],[-48.02505,-24.94718],[-48.02578,-24.94885],[-48.02572,-24.95076],[-48.02497,-24.95205],[-48.02555,-24.95377],[-48.02816,-24.95517],[-48.02908,-24.95903],[-48.03058,-24.96106],[-48.0313,-24.96262],[-48.03427,-24.96379],[-48.03539,-24.96479],[-48.03569,-24.96631],[-48.03697,-24.96586],[-48.03995,-24.96375],[-48.04122,-24.96238],[-48.04297,-24.9613],[-48.04491,-24.95974],[-48.04983,-24.95906],[-48.05261,-24.958],[-48.05442,-24.95845],[-48.05561,-24.95801],[-48.05546,-24.95666],[-48.05725,-24.95601],[-48.06114,-24.95756],[-48.06228,-24.95849],[-48.06433,-24.95779],[-48.06614,-24.95522],[-48.06714,-24.9545],[-48.06853,-24.95423],[-48.07191,-24.95314],[-48.07558,-24.95376],[-48.07836,-24.95384],[-48.07958,-24.95469],[-48.08016,-24.95635],[-48.08011,-24.95762],[-48.08084,-24.9586],[-48.08244,-24.95886],[-48.08486,-24.95817],[-48.08724,-24.95787],[-48.08878,-24.9573],[-48.09047,-24.95749],[-48.09261,-24.95836],[-48.09525,-24.9606],[-48.0967,-24.96061],[-48.09819,-24.96188],[-48.09883,-24.96311],[-48.09898,-24.96524],[-48.09848,-24.9668],[-48.09745,-24.9686],[-48.09601,-24.97033],[-48.09611,-24.97162],[-48.09664,-24.97319],[-48.09759,-24.97412],[-48.09961,-24.97523],[-48.10527,-24.97606],[-48.10866,-24.97496],[-48.11114,-24.97357],[-48.11239,-24.97369],[-48.11357,-24.97496],[-48.11508,-24.97727],[-48.11636,-24.97781],[-48.11817,-24.97788],[-48.12011,-24.97861],[-48.12125,-24.97976],[-48.12403,-24.98138],[-48.12841,-24.98105],[-48.13189,-24.98037],[-48.13483,-24.97939],[-48.1358,-24.98041],[-48.13605,-24.98408],[-48.13745,-24.98435],[-48.13794,-24.9864],[-48.13947,-24.98633],[-48.1425,-24.9844],[-48.14441,-24.98464],[-48.14419,-24.98298],[-48.14589,-24.97918],[-48.14678,-24.97543],[-48.14808,-24.97475],[-48.14939,-24.97535],[-48.15061,-24.9749],[-48.15191,-24.97157],[-48.15283,-24.97047],[-48.15461,-24.97001],[-48.15586,-24.9688],[-48.1565,-24.96747],[-48.1578,-24.96695],[-48.15992,-24.96662],[-48.16117,-24.96599],[-48.1623,-24.96484],[-48.1637,-24.96531],[-48.16472,-24.96607],[-48.16627,-24.96638],[-48.1675,-24.96726],[-48.16886,-24.96887],[-48.17033,-24.9701],[-48.17156,-24.97017],[-48.17297,-24.96938],[-48.17503,-24.969],[-48.1767,-24.96965],[-48.17822,-24.97074],[-48.18042,-24.97058],[-48.18197,-24.96946],[-48.18389,-24.96903],[-48.18958,-24.9633],[-48.19189,-24.96172],[-48.20371,-24.96049],[-48.20761,-24.95924],[-48.20881,-24.9579],[-48.21047,-24.95693],[-48.21175,-24.95835],[-48.21352,-24.95819],[-48.21483,-24.95936],[-48.21644,-24.9598],[-48.21733,-24.96063],[-48.21764,-24.96244],[-48.21886,-24.96246],[-48.22036,-24.96303],[-48.2206,-24.96586],[-48.22153,-24.96759],[-48.22397,-24.96943],[-48.22361,-24.97077],[-48.22569,-24.97115],[-48.22875,-24.97277],[-48.22761,-24.97503],[-48.22867,-24.97659],[-48.23058,-24.97738],[-48.23103,-24.97876],[-48.22786,-24.98009],[-48.22664,-24.98094],[-48.22587,-24.98249],[-48.2267,-24.98354],[-48.22816,-24.98404],[-48.22939,-24.98529],[-48.23123,-24.98654],[-48.23253,-24.98836],[-48.23581,-24.98967],[-48.23716,-24.98982],[-48.23869,-24.99035],[-48.23969,-24.99142]]],[[[-48.03716,-25.35794],[-48.03541,-25.35682],[-48.03587,-25.35618],[-48.03747,-25.35599],[-48.03813,-25.35681],[-48.03716,-25.35794]]],[[[-47.95532,-25.27281],[-47.95693,-25.27255],[-47.95763,-25.27303],[-47.95591,-25.27443],[-47.95452,-25.27419],[-47.95334,-25.27446],[-47.95275,-25.27381],[-47.95283,-25.27274],[-47.95532,-25.27281]]],[[[-47.85315,-25.11583],[-47.85391,-25.11683],[-47.85516,-25.1163],[-47.85695,-25.11725],[-47.85861,-25.11764],[-47.85918,-25.1184],[-47.85978,-25.12039],[-47.86085,-25.12062],[-47.86188,-25.12007],[-47.86514,-25.12182],[-47.86615,-25.12319],[-47.86558,-25.12348],[-47.86488,-25.12623],[-47.86498,-25.12825],[-47.86399,-25.12829],[-47.86238,-25.12744],[-47.86181,-25.1276],[-47.8591,-25.12544],[-47.85846,-25.12449],[-47.85624,-25.12501],[-47.85514,-25.1237],[-47.85348,-25.12259],[-47.85228,-25.12028],[-47.85066,-25.12146],[-47.84948,-25.12089],[-47.8504,-25.12026],[-47.85005,-25.11782],[-47.85084,-25.11683],[-47.85231,-25.1166],[-47.85315,-25.11583]]],[[[-47.86027,-25.13316],[-47.85956,-25.13176],[-47.86025,-25.13092],[-47.86146,-25.13085],[-47.86218,-25.13227],[-47.86178,-25.13304],[-47.86027,-25.13316]]],[[[-47.90902,-25.16614],[-47.90901,-25.16528],[-47.91001,-25.16328],[-47.91142,-25.16285],[-47.91332,-25.16508],[-47.91403,-25.1652],[-47.91477,-25.16631],[-47.91398,-25.16716],[-47.91267,-25.16633],[-47.91172,-25.16636],[-47.90948,-25.16709],[-47.90902,-25.16614]]]]},"properties":{"codigo":"350990805","name":"Cananéia","population":11667,"households":6669,"areaKm2":1039.338,"density":11.2}},{"type":"Feature","geometry":{"type":"Polygon","coordinates":[[[-48.16699,-25.1438],[-48.16377,-25.1457],[-48.16245,-25.14606],[-48.16089,-25.14584],[-48.15969,-25.14453],[-48.15689,-25.14465],[-48.15778,-25.14814],[-48.1585,-25.14991],[-48.16011,-25.15091],[-48.16094,-25.15181],[-48.1622,-25.1542],[-48.16378,-25.15515],[-48.16552,-25.15546],[-48.16741,-25.15533],[-48.16872,-25.15654],[-48.1688,-25.15836],[-48.16848,-25.16053],[-48.16777,-25.16257],[-48.16672,-25.16455],[-48.16664,-25.16601],[-48.16772,-25.16791],[-48.16911,-25.16903],[-48.1713,-25.1712],[-48.17244,-25.17165],[-48.17383,-25.17382],[-48.176,-25.17794],[-48.17691,-25.17875],[-48.17872,-25.17961],[-48.17839,-25.18206],[-48.18209,-25.18483],[-48.18497,-25.18639],[-48.19104,-25.18832],[-48.19191,-25.18928],[-48.19336,-25.18987],[-48.19364,-25.19135],[-48.19317,-25.19339],[-48.19273,-25.19408],[-48.19136,-25.19624],[-48.1892,-25.19774],[-48.1865,-25.20033],[-48.18252,-25.205],[-48.1801,-25.20678],[-48.1752,-25.20938],[-48.17146,-25.21048],[-48.16864,-25.21021],[-48.16572,-25.20901],[-48.16272,-25.20984],[-48.16146,-25.21093],[-48.1605,-25.21408],[-48.15934,-25.21506],[-48.15593,-25.22055],[-48.1551,-25.22265],[-48.15306,-25.22499],[-48.15124,-25.22813],[-48.14795,-25.23085],[-48.14248,-25.23335],[-48.13313,-25.23982],[-48.12905,-25.2418],[-48.12568,-25.24193],[-48.12447,-25.24261],[-48.12333,-25.24374],[-48.12225,-25.24554],[-48.12044,-25.24614],[-48.11598,-25.24894],[-48.11488,-25.2507],[-48.113,-25.25087],[-48.11195,-25.25003],[-48.11072,-25.24975],[-48.10936,-25.24849],[-48.10872,-25.24569],[-48.10629,-25.24393],[-48.10438,-25.24343],[-48.1025,-25.2432],[-48.10036,-25.24379],[-48.09978,-25.24203],[-48.09858,-25.24125],[-48.09695,-25.24113],[-48.0957,-25.24139],[-48.09411,-25.24044],[-48.09241,-25.24004],[-48.0912,-25.24111],[-48.08972,-25.24185],[-48.08559,-25.24032],[-48.08392,-25.24062],[-48.08367,-25.24337],[-48.08141,-25.24418],[-48.0768,-25.24105],[-48.07511,-25.24063],[-48.06661,-25.23982],[-48.06433,-25.24017],[-48.06211,-25.24009],[-48.0587,-25.23814],[-48.057,-25.23308],[-48.05789,-25.23145],[-48.05889,-25.23073],[-48.05953,-25.22946],[-48.05933,-25.22756],[-48.05787,-25.22705],[-48.0572,-25.22604],[-48.05808,-25.22422],[-48.05839,-25.22222],[-48.05745,-25.21833],[-48.05585,-25.2196],[-48.05335,-25.22262],[-48.0498,-25.22552],[-48.04716,-25.22675],[-48.04552,-25.22634],[-48.04416,-25.22097],[-48.0403,-25.21874],[-48.03495,-25.21833],[-48.03225,-25.21847],[-48.02906,-25.21947],[-48.02755,-25.22051],[-48.02691,-25.22199],[-48.02905,-25.22376],[-48.02969,-25.2249],[-48.02994,-25.2262],[-48.029,-25.22751],[-48.02764,-25.22824],[-48.02394,-25.22914],[-48.02354,-25.23093],[-48.02469,-25.23276],[-48.02757,-25.23611],[-48.0307,-25.23877],[-48.05116,-25.25234],[-48.05314,-25.25501],[-48.05605,-25.26162],[-48.05748,-25.26327],[-48.06529,-25.26917],[-48.07325,-25.27406],[-48.08311,-25.282],[-48.0874,-25.28676],[-48.0908,-25.29095],[-48.09675,-25.29715],[-48.09846,-25.29968],[-48.09981,-25.30342],[-48.10039,-25.30729],[-48.09947,-25.31232],[-48.0961,-25.30887],[-48.09116,-25.30431],[-48.08428,-25.2968],[-48.07907,-25.2907],[-48.0704,-25.28119],[-48.06124,-25.27204],[-48.05276,-25.26389],[-48.04688,-25.25853],[-48.04314,-25.25536],[-48.03477,-25.24794],[-48.02532,-25.24026],[-48.01326,-25.23023],[-48.00229,-25.22165],[-47.9916,-25.21307],[-47.98368,-25.20626],[-47.97889,-25.20255],[-47.97817,-25.20215],[-47.977,-25.20229],[-47.97603,-25.20154],[-47.974,-25.20093],[-47.97219,-25.19972],[-47.97269,-25.19878],[-47.9726,-25.19778],[-47.97157,-25.19646],[-47.96884,-25.19384],[-47.96505,-25.19059],[-47.95979,-25.18596],[-47.95298,-25.18033],[-47.94599,-25.17432],[-47.94259,-25.17166],[-47.93635,-25.16736],[-47.93363,-25.16635],[-47.93178,-25.1662],[-47.93101,-25.16538],[-47.93086,-25.16427],[-47.92649,-25.16169],[-47.92376,-25.16052],[-47.9208,-25.15985],[-47.91988,-25.16026],[-47.91783,-25.15936],[-47.92107,-25.15616],[-47.92198,-25.1559],[-47.92236,-25.15833],[-47.92598,-25.15636],[-47.92752,-25.1552],[-47.92895,-25.15493],[-47.93027,-25.1552],[-47.93089,-25.15638],[-47.93368,-25.15841],[-47.93631,-25.15895],[-48.00573,-25.15201],[-48.04945,-25.16232],[-48.07505,-25.16836],[-48.10268,-25.13843],[-48.10766,-25.13036],[-48.11472,-25.12896],[-48.12137,-25.13256],[-48.16699,-25.1438]]]},"properties":{"codigo":"350990810","name":"Ariri","population":622,"households":367,"areaKm2":198.0161,"density":3.1}}]}