{"type":"FeatureCollection","features":[{"type":"Feature","geometry":{"type":"Polygon","coordinates":[[[-47.1004,-22.75],[-47.10111,-22.75219],[-47.10255,-22.75442],[-47.1027,-22.75562],[-47.10249,-22.75741],[-47.1004,-22.76052],[-47.09887,-22.76234],[-47.09559,-22.76405],[-47.09461,-22.76436],[-47.09181,-22.76415],[-47.08989,-22.76439],[-47.08711,-22.76549],[-47.08378,-22.76841],[-47.08032,-22.77105],[-47.07815,-22.7721],[-47.07441,-22.77282],[-47.07003,-22.77261],[-47.07154,-22.77486],[-47.07068,-22.77578],[-47.06962,-22.77761],[-47.06894,-22.78025],[-47.06872,-22.78303],[-47.0692,-22.78501],[-47.07119,-22.78947],[-47.07142,-22.79253],[-47.07064,-22.79554],[-47.06983,-22.79993],[-47.07009,-22.80443],[-47.06314,-22.80476],[-47.06102,-22.8053],[-47.05927,-22.80681],[-47.05698,-22.80852],[-47.05463,-22.81075],[-47.05052,-22.8144],[-47.05039,-22.8151],[-47.05192,-22.81857],[-47.05209,-22.82057],[-47.05119,-22.82268],[-47.05133,-22.82403],[-47.05284,-22.82596],[-47.05288,-22.82735],[-47.05207,-22.82856],[-47.05195,-22.82945],[-47.05216,-22.83243],[-47.05199,-22.83366],[-47.0523,-22.83686],[-47.05298,-22.83882],[-47.05296,-22.83979],[-47.05148,-22.8433],[-47.05076,-22.84412],[-47.05219,-22.84604],[-47.05351,-22.84695],[-47.0537,-22.84872],[-47.05292,-22.84994],[-47.05337,-22.85244],[-47.05344,-22.85425],[-47.05441,-22.855],[-47.05505,-22.85653],[-47.05635,-22.85763],[-47.05823,-22.85771],[-47.05948,-22.85631],[-47.06026,-22.85619],[-47.06237,-22.85701],[-47.06514,-22.85852],[-47.06625,-22.86194],[-47.06591,-22.86448],[-47.06482,-22.86639],[-47.06414,-22.86949],[-47.06891,-22.86916],[-47.07038,-22.86894],[-47.07171,-22.8684],[-47.07619,-22.86729],[-47.07683,-22.86687],[-47.07917,-22.86421],[-47.08172,-22.86089],[-47.08297,-22.86038],[-47.08597,-22.86038],[-47.08656,-22.86015],[-47.08763,-22.85879],[-47.0907,-22.85661],[-47.09204,-22.85595],[-47.09577,-22.85609],[-47.09615,-22.85405],[-47.09669,-22.85289],[-47.09798,-22.85182],[-47.10126,-22.85037],[-47.10336,-22.84992],[-47.10536,-22.84773],[-47.10747,-22.84702],[-47.10996,-22.84684],[-47.11238,-22.84698],[-47.11377,-22.84664],[-47.11674,-22.84501],[-47.11838,-22.84383],[-47.11901,-22.84141],[-47.1197,-22.84052],[-47.12079,-22.84043],[-47.12447,-22.84201],[-47.12728,-22.84248],[-47.12999,-22.84207],[-47.1295,-22.84348],[-47.12963,-22.84592],[-47.13069,-22.85003],[-47.13102,-22.85269],[-47.13226,-22.85511],[-47.13189,-22.85646],[-47.13205,-22.86011],[-47.13269,-22.86169],[-47.13247,-22.86331],[-47.13262,-22.86469],[-47.13307,-22.86528],[-47.13491,-22.86624],[-47.13537,-22.86615],[-47.13786,-22.86692],[-47.14252,-22.86803],[-47.14848,-22.87073],[-47.1497,-22.87149],[-47.15027,-22.87135],[-47.1527,-22.86926],[-47.15358,-22.86747],[-47.15478,-22.86635],[-47.15515,-22.86526],[-47.15414,-22.86312],[-47.15512,-22.86303],[-47.15656,-22.86226],[-47.15732,-22.8629],[-47.15674,-22.86717],[-47.15577,-22.87167],[-47.15605,-22.87339],[-47.15767,-22.87587],[-47.15994,-22.87817],[-47.15999,-22.87846],[-47.15755,-22.88202],[-47.15773,-22.88341],[-47.15707,-22.88593],[-47.15738,-22.8882],[-47.15828,-22.88911],[-47.16032,-22.88988],[-47.16182,-22.89392],[-47.16185,-22.89516],[-47.16392,-22.89763],[-47.16497,-22.89841],[-47.16563,-22.89947],[-47.1669,-22.90367],[-47.17156,-22.90616],[-47.1726,-22.90766],[-47.17433,-22.90827],[-47.17598,-22.90981],[-47.17849,-22.91167],[-47.1727,-22.91093],[-47.17011,-22.9107],[-47.16719,-22.9109],[-47.16389,-22.91185],[-47.15743,-22.91521],[-47.15353,-22.91711],[-47.1486,-22.91988],[-47.1463,-22.92083],[-47.14488,-22.9212],[-47.14192,-22.92131],[-47.13623,-22.9205],[-47.1348,-22.92091],[-47.13189,-22.92233],[-47.13021,-22.92437],[-47.12862,-22.92984],[-47.12643,-22.93789],[-47.12588,-22.941],[-47.12576,-22.94265],[-47.12554,-22.95568],[-47.12534,-22.95786],[-47.12485,-22.95929],[-47.12345,-22.96142],[-47.11767,-22.96846],[-47.11693,-22.9695],[-47.11264,-22.97677],[-47.11163,-22.97957],[-47.11105,-22.98987],[-47.11057,-22.99141],[-47.10957,-22.99271],[-47.1086,-22.99342],[-47.10963,-22.99687],[-47.1093,-22.99719],[-47.114,-23.00753],[-47.11818,-23.01527],[-47.11996,-23.01778],[-47.12342,-23.02194],[-47.12432,-23.02346],[-47.12385,-23.02588],[-47.12697,-23.0265],[-47.12881,-23.0284],[-47.13295,-23.03324],[-47.13369,-23.03426],[-47.13454,-23.03634],[-47.13548,-23.04117],[-47.13658,-23.04446],[-47.13778,-23.04646],[-47.13889,-23.04783],[-47.14626,-23.05501],[-47.14476,-23.05708],[-47.14383,-23.05782],[-47.14264,-23.05739],[-47.1401,-23.05575],[-47.13804,-23.05362],[-47.136,-23.05368],[-47.13457,-23.05426],[-47.13316,-23.05546],[-47.13206,-23.05354],[-47.13083,-23.05345],[-47.12991,-23.05281],[-47.12958,-23.054],[-47.12981,-23.05525],[-47.12917,-23.0561],[-47.12806,-23.05514],[-47.12653,-23.0568],[-47.12655,-23.05935],[-47.125,-23.05962],[-47.12424,-23.06007],[-47.12261,-23.05761],[-47.12058,-23.05642],[-47.11898,-23.05596],[-47.11707,-23.05601],[-47.11602,-23.05714],[-47.11504,-23.05772],[-47.1139,-23.05782],[-47.11174,-23.0585],[-47.11097,-23.06],[-47.10982,-23.06102],[-47.10861,-23.06119],[-47.10681,-23.05986],[-47.10521,-23.05907],[-47.10313,-23.05532],[-47.10195,-23.05408],[-47.10016,-23.05465],[-47.09768,-23.05444],[-47.09622,-23.05347],[-47.09585,-23.05222],[-47.09463,-23.05306],[-47.09381,-23.05272],[-47.09212,-23.05326],[-47.09182,-23.05451],[-47.09023,-23.05429],[-47.08956,-23.05518],[-47.08832,-23.05554],[-47.08708,-23.05623],[-47.08579,-23.0564],[-47.08386,-23.05583],[-47.08129,-23.05419],[-47.07999,-23.05365],[-47.078,-23.05333],[-47.07624,-23.05359],[-47.07386,-23.05275],[-47.07116,-23.05104],[-47.0709,-23.0488],[-47.07017,-23.04764],[-47.04856,-23.05138],[-47.0495,-23.0511],[-47.05023,-23.05014],[-47.05029,-23.04828],[-47.05075,-23.04787],[-47.05072,-23.04665],[-47.04992,-23.04632],[-47.05012,-23.04544],[-47.05111,-23.04546],[-47.05287,-23.04422],[-47.05336,-23.04331],[-47.05505,-23.0418],[-47.05435,-23.04018],[-47.05347,-23.03971],[-47.05391,-23.03882],[-47.05526,-23.03766],[-47.05624,-23.03588],[-47.05657,-23.03444],[-47.05814,-23.03426],[-47.05919,-23.03492],[-47.06045,-23.03447],[-47.06108,-23.03363],[-47.06056,-23.03205],[-47.06187,-23.03189],[-47.06238,-23.02907],[-47.06169,-23.02791],[-47.06272,-23.02728],[-47.0636,-23.02787],[-47.06513,-23.02735],[-47.06657,-23.02752],[-47.06802,-23.02685],[-47.06966,-23.02662],[-47.07057,-23.02714],[-47.07183,-23.02695],[-47.07124,-23.02599],[-47.07224,-23.02347],[-47.07258,-23.02179],[-47.07257,-23.02027],[-47.07217,-23.01947],[-47.07286,-23.01728],[-47.07462,-23.01522],[-47.07486,-23.01419],[-47.07462,-23.01287],[-47.07341,-23.01042],[-47.07197,-23.00892],[-47.06844,-23.00712],[-47.06784,-23.00587],[-47.068,-23.00416],[-47.06863,-23.00248],[-47.06812,-23.00093],[-47.06814,-22.99954],[-47.06737,-22.99799],[-47.06628,-22.99665],[-47.06662,-22.99517],[-47.06615,-22.99367],[-47.06436,-22.99201],[-47.06296,-22.99133],[-47.06115,-22.99091],[-47.05893,-22.9897],[-47.05609,-22.98925],[-47.05367,-22.98642],[-47.05246,-22.98555],[-47.04959,-22.98472],[-47.04803,-22.98404],[-47.04693,-22.98324],[-47.04477,-22.98112],[-47.04155,-22.97889],[-47.03958,-22.97693],[-47.0365,-22.97638],[-47.03476,-22.97575],[-47.03297,-22.97374],[-47.03138,-22.97122],[-47.02893,-22.96956],[-47.02855,-22.96745],[-47.02729,-22.96659],[-47.0265,-22.96504],[-47.02555,-22.96195],[-47.02367,-22.95806],[-47.02311,-22.95655],[-47.02347,-22.95549],[-47.02545,-22.95375],[-47.0257,-22.95298],[-47.02497,-22.95253],[-47.02155,-22.95193],[-47.01969,-22.95123],[-47.01792,-22.95024],[-47.0172,-22.94723],[-47.01646,-22.94557],[-47.01516,-22.94366],[-47.01434,-22.94288],[-47.01239,-22.94206],[-47.01045,-22.94037],[-47.00952,-22.93881],[-47.00836,-22.93774],[-47.00544,-22.93725],[-47.00514,-22.93679],[-47.00335,-22.93585],[-47.00154,-22.93539],[-47.00017,-22.93471],[-46.99834,-22.9348],[-46.99743,-22.93257],[-46.99639,-22.93156],[-46.99327,-22.92973],[-46.99162,-22.9282],[-46.99135,-22.92685],[-46.99153,-22.92376],[-46.99142,-22.92225],[-46.99199,-22.92092],[-46.9919,-22.91956],[-46.99039,-22.9167],[-46.99043,-22.91496],[-46.98984,-22.9137],[-46.98957,-22.91211],[-46.98887,-22.91089],[-46.98738,-22.9102],[-46.98609,-22.90847],[-46.98579,-22.90763],[-46.98433,-22.90682],[-46.98268,-22.9054],[-46.9821,-22.9042],[-46.98458,-22.90404],[-46.98639,-22.9024],[-46.98847,-22.90122],[-46.98986,-22.90117],[-46.99066,-22.90077],[-46.99538,-22.90048],[-46.99645,-22.89886],[-46.99674,-22.89796],[-46.9982,-22.89676],[-46.99543,-22.89467],[-46.9933,-22.89181],[-46.99336,-22.88914],[-46.99463,-22.88823],[-46.99532,-22.88677],[-46.99465,-22.88303],[-46.99363,-22.87993],[-46.99144,-22.87901],[-46.98983,-22.87554],[-46.98857,-22.87401],[-46.98813,-22.87279],[-46.98637,-22.87249],[-46.98549,-22.87141],[-46.98249,-22.86986],[-46.98332,-22.86888],[-46.98351,-22.86718],[-46.98337,-22.86479],[-46.98377,-22.86312],[-46.9834,-22.86217],[-46.98116,-22.86197],[-46.97892,-22.86306],[-46.97782,-22.86308],[-46.9766,-22.86251],[-46.9757,-22.86149],[-46.97375,-22.85766],[-46.97304,-22.85327],[-46.97129,-22.85059],[-46.96879,-22.84854],[-46.96628,-22.84563],[-46.96578,-22.84453],[-46.96495,-22.8411],[-46.96368,-22.8397],[-46.96319,-22.83868],[-46.96225,-22.83777],[-46.96049,-22.83682],[-46.95976,-22.83548],[-46.9598,-22.83482],[-46.95875,-22.83223],[-46.95867,-22.83102],[-46.95948,-22.82789],[-46.95852,-22.82601],[-46.95574,-22.82593],[-46.95239,-22.82417],[-46.94924,-22.82366],[-46.94432,-22.82405],[-46.94321,-22.82334],[-46.94221,-22.82175],[-46.93851,-22.8184],[-46.93614,-22.81569],[-46.93518,-22.81517],[-46.93286,-22.81319],[-46.93064,-22.81006],[-46.92807,-22.80828],[-46.92759,-22.80725],[-46.92555,-22.80606],[-46.92406,-22.80456],[-46.92182,-22.80136],[-46.92102,-22.80153],[-46.91972,-22.80246],[-46.9187,-22.8016],[-46.91557,-22.79686],[-46.91561,-22.7958],[-46.91633,-22.795],[-46.91549,-22.79424],[-46.91328,-22.79392],[-46.91192,-22.79419],[-46.91116,-22.79389],[-46.91033,-22.79285],[-46.91044,-22.79094],[-46.9083,-22.78916],[-46.90756,-22.78891],[-46.90715,-22.78777],[-46.90578,-22.78678],[-46.90578,-22.78561],[-46.90476,-22.785],[-46.90467,-22.78361],[-46.90293,-22.78225],[-46.90211,-22.78034],[-46.90072,-22.7799],[-46.89841,-22.77837],[-46.89829,-22.77756],[-46.89989,-22.77539],[-46.9005,-22.77592],[-46.90145,-22.7754],[-46.90191,-22.7745],[-46.90162,-22.77378],[-46.90256,-22.77214],[-46.90286,-22.77095],[-46.90203,-22.76837],[-46.90132,-22.76708],[-46.90221,-22.76664],[-46.90429,-22.76704],[-46.90529,-22.76662],[-46.90607,-22.76459],[-46.90493,-22.76284],[-46.9254,-22.75097],[-46.94187,-22.74074],[-46.943,-22.73921],[-46.94401,-22.73882],[-46.94483,-22.73902],[-46.94651,-22.73862],[-46.94709,-22.73693],[-46.94989,-22.73529],[-46.9506,-22.73362],[-46.95274,-22.73246],[-46.95433,-22.73059],[-46.95615,-22.73],[-46.95742,-22.72922],[-46.95975,-22.73072],[-46.96486,-22.73545],[-46.96513,-22.73626],[-46.9649,-22.73759],[-46.96331,-22.74072],[-46.96273,-22.7427],[-46.96342,-22.74359],[-46.9646,-22.74407],[-46.96647,-22.74534],[-46.96818,-22.74499],[-46.96876,-22.74433],[-46.97088,-22.74449],[-46.97233,-22.74402],[-46.97313,-22.74423],[-46.97574,-22.7442],[-46.97813,-22.74469],[-46.97915,-22.74532],[-46.98066,-22.74445],[-46.98186,-22.74427],[-46.98467,-22.74558],[-46.9879,-22.74562],[-46.9905,-22.74546],[-46.99129,-22.74437],[-46.99169,-22.74248],[-46.99383,-22.7431],[-46.99449,-22.74271],[-46.99527,-22.74105],[-46.99517,-22.74023],[-46.99589,-22.73869],[-46.9987,-22.73817],[-46.99961,-22.73859],[-47.00073,-22.73854],[-47.00149,-22.73995],[-47.00489,-22.73946],[-47.00608,-22.73875],[-47.00821,-22.73617],[-47.01037,-22.73511],[-47.01171,-22.73415],[-47.01331,-22.73399],[-47.01524,-22.73479],[-47.01725,-22.73726],[-47.02104,-22.73671],[-47.02219,-22.73606],[-47.02305,-22.73457],[-47.02483,-22.73442],[-47.02704,-22.73344],[-47.03113,-22.7319],[-47.03294,-22.73376],[-47.03473,-22.73288],[-47.03753,-22.73374],[-47.04099,-22.73513],[-47.04196,-22.73588],[-47.04312,-22.7374],[-47.04404,-22.73805],[-47.04552,-22.73847],[-47.04752,-22.73822],[-47.04855,-22.73967],[-47.04977,-22.74],[-47.05109,-22.73916],[-47.05188,-22.73693],[-47.05388,-22.73612],[-47.05513,-22.73707],[-47.05534,-22.7385],[-47.05714,-22.73841],[-47.05876,-22.73872],[-47.05933,-22.73769],[-47.05915,-22.73669],[-47.05795,-22.73563],[-47.05931,-22.73518],[-47.06063,-22.73571],[-47.06166,-22.73538],[-47.062,-22.73386],[-47.06385,-22.73354],[-47.0651,-22.73397],[-47.06605,-22.7317],[-47.06774,-22.73221],[-47.06831,-22.73139],[-47.06817,-22.73016],[-47.06904,-22.72957],[-47.0708,-22.73035],[-47.07198,-22.73134],[-47.07422,-22.73202],[-47.07588,-22.73198],[-47.07642,-22.73241],[-47.07684,-22.73515],[-47.07551,-22.73625],[-47.07555,-22.73697],[-47.07807,-22.73902],[-47.07835,-22.73971],[-47.07823,-22.74193],[-47.0774,-22.74316],[-47.07822,-22.74378],[-47.07891,-22.7435],[-47.07977,-22.74196],[-47.08102,-22.74168],[-47.08413,-22.74357],[-47.08528,-22.74365],[-47.0869,-22.74449],[-47.08657,-22.74606],[-47.0893,-22.74635],[-47.0901,-22.74688],[-47.08972,-22.74793],[-47.09153,-22.74841],[-47.09094,-22.74937],[-47.09159,-22.74976],[-47.0926,-22.74862],[-47.09369,-22.74883],[-47.09463,-22.74803],[-47.09664,-22.74851],[-47.09898,-22.74814],[-47.09922,-22.74973],[-47.1004,-22.75]]]},"properties":{"codigo":"350950205","name":"Campinas","population":774307,"households":354027,"areaKm2":433.7826,"density":1785}},{"type":"Feature","geometry":{"type":"Polygon","coordinates":[[[-47.1004,-22.75],[-47.10129,-22.75042],[-47.10353,-22.75144],[-47.10539,-22.75279],[-47.10829,-22.75437],[-47.10559,-22.75806],[-47.10525,-22.7589],[-47.10539,-22.76207],[-47.10583,-22.76393],[-47.105,-22.76497],[-47.10203,-22.7651],[-47.10001,-22.76594],[-47.09919,-22.76603],[-47.09703,-22.76828],[-47.09597,-22.76986],[-47.09648,-22.77199],[-47.09584,-22.7742],[-47.09449,-22.77661],[-47.09543,-22.78024],[-47.09612,-22.78116],[-47.09731,-22.78191],[-47.09889,-22.78369],[-47.09995,-22.78454],[-47.10139,-22.78628],[-47.10171,-22.78709],[-47.10152,-22.78872],[-47.10296,-22.79227],[-47.10306,-22.79365],[-47.10276,-22.79559],[-47.10302,-22.79668],[-47.10472,-22.79827],[-47.10857,-22.79946],[-47.1095,-22.80004],[-47.11009,-22.80123],[-47.10986,-22.80522],[-47.11063,-22.80842],[-47.10966,-22.8103],[-47.10925,-22.81163],[-47.10923,-22.81335],[-47.10884,-22.81702],[-47.11994,-22.81027],[-47.12149,-22.81328],[-47.12191,-22.8137],[-47.12455,-22.81374],[-47.12528,-22.81335],[-47.12661,-22.8114],[-47.12729,-22.81078],[-47.12892,-22.81066],[-47.12829,-22.80761],[-47.1362,-22.80728],[-47.13769,-22.8073],[-47.13868,-22.80793],[-47.14093,-22.80821],[-47.1423,-22.80956],[-47.14323,-22.80972],[-47.14533,-22.80926],[-47.14683,-22.80934],[-47.1482,-22.80979],[-47.15038,-22.80999],[-47.15242,-22.80964],[-47.15366,-22.80917],[-47.15622,-22.80781],[-47.15564,-22.80966],[-47.15746,-22.80797],[-47.15954,-22.80497],[-47.16034,-22.8044],[-47.16156,-22.80465],[-47.16222,-22.80542],[-47.16368,-22.80553],[-47.16258,-22.80596],[-47.16238,-22.8074],[-47.16166,-22.8092],[-47.16188,-22.81146],[-47.16036,-22.81204],[-47.16056,-22.81348],[-47.16022,-22.81655],[-47.15812,-22.81935],[-47.15817,-22.82109],[-47.15677,-22.82084],[-47.15409,-22.82202],[-47.15144,-22.82204],[-47.1503,-22.82172],[-47.14761,-22.82212],[-47.14679,-22.82175],[-47.14585,-22.82054],[-47.14439,-22.82001],[-47.14297,-22.82205],[-47.14043,-22.82381],[-47.13905,-22.82399],[-47.13867,-22.82457],[-47.13973,-22.82618],[-47.14023,-22.82642],[-47.1405,-22.82788],[-47.14112,-22.82892],[-47.14109,-22.83033],[-47.14174,-22.83207],[-47.14055,-22.83336],[-47.14025,-22.83521],[-47.13912,-22.8358],[-47.13804,-22.8351],[-47.13633,-22.83476],[-47.1353,-22.83542],[-47.13508,-22.83868],[-47.13485,-22.83987],[-47.13396,-22.84059],[-47.13305,-22.84071],[-47.1319,-22.84154],[-47.12999,-22.84207],[-47.12728,-22.84248],[-47.12447,-22.84201],[-47.12079,-22.84043],[-47.1197,-22.84052],[-47.11901,-22.84141],[-47.11838,-22.84383],[-47.11674,-22.84501],[-47.11377,-22.84664],[-47.11238,-22.84698],[-47.10996,-22.84684],[-47.10747,-22.84702],[-47.10536,-22.84773],[-47.10336,-22.84992],[-47.10126,-22.85037],[-47.09798,-22.85182],[-47.09669,-22.85289],[-47.09615,-22.85405],[-47.09577,-22.85609],[-47.09204,-22.85595],[-47.0907,-22.85661],[-47.08763,-22.85879],[-47.08656,-22.86015],[-47.08597,-22.86038],[-47.08297,-22.86038],[-47.08172,-22.86089],[-47.07917,-22.86421],[-47.07683,-22.86687],[-47.07619,-22.86729],[-47.07171,-22.8684],[-47.07038,-22.86894],[-47.06891,-22.86916],[-47.06414,-22.86949],[-47.06482,-22.86639],[-47.06591,-22.86448],[-47.06625,-22.86194],[-47.06514,-22.85852],[-47.06237,-22.85701],[-47.06026,-22.85619],[-47.05948,-22.85631],[-47.05823,-22.85771],[-47.05635,-22.85763],[-47.05505,-22.85653],[-47.05441,-22.855],[-47.05344,-22.85425],[-47.05337,-22.85244],[-47.05292,-22.84994],[-47.0537,-22.84872],[-47.05351,-22.84695],[-47.05219,-22.84604],[-47.05076,-22.84412],[-47.05148,-22.8433],[-47.05296,-22.83979],[-47.05298,-22.83882],[-47.0523,-22.83686],[-47.05199,-22.83366],[-47.05216,-22.83243],[-47.05195,-22.82945],[-47.05207,-22.82856],[-47.05288,-22.82735],[-47.05284,-22.82596],[-47.05133,-22.82403],[-47.05119,-22.82268],[-47.05209,-22.82057],[-47.05192,-22.81857],[-47.05039,-22.8151],[-47.05052,-22.8144],[-47.05463,-22.81075],[-47.05698,-22.80852],[-47.05927,-22.80681],[-47.06102,-22.8053],[-47.06314,-22.80476],[-47.07009,-22.80443],[-47.06983,-22.79993],[-47.07064,-22.79554],[-47.07142,-22.79253],[-47.07119,-22.78947],[-47.0692,-22.78501],[-47.06872,-22.78303],[-47.06894,-22.78025],[-47.06962,-22.77761],[-47.07068,-22.77578],[-47.07154,-22.77486],[-47.07003,-22.77261],[-47.07441,-22.77282],[-47.07815,-22.7721],[-47.08032,-22.77105],[-47.08378,-22.76841],[-47.08711,-22.76549],[-47.08989,-22.76439],[-47.09181,-22.76415],[-47.09461,-22.76436],[-47.09559,-22.76405],[-47.09887,-22.76234],[-47.1004,-22.76052],[-47.10249,-22.75741],[-47.1027,-22.75562],[-47.10255,-22.75442],[-47.10111,-22.75219],[-47.1004,-22.75]]]},"properties":{"codigo":"350950210","name":"Barão Geraldo","population":58822,"households":29011,"areaKm2":61.9186,"density":950}},{"type":"Feature","geometry":{"type":"Polygon","coordinates":[[[-46.88757,-22.81938],[-46.88862,-22.82023],[-46.88935,-22.82435],[-46.89003,-22.82559],[-46.88996,-22.8264],[-46.89065,-22.82727],[-46.89112,-22.82859],[-46.89151,-22.8308],[-46.8919,-22.83453],[-46.89262,-22.83672],[-46.89234,-22.83859],[-46.89282,-22.84073],[-46.89418,-22.84305],[-46.89268,-22.84356],[-46.89069,-22.84505],[-46.88847,-22.84787],[-46.88879,-22.84827],[-46.89191,-22.84849],[-46.896,-22.84901],[-46.8976,-22.84873],[-46.89721,-22.84995],[-46.89805,-22.85234],[-46.89698,-22.85438],[-46.89652,-22.85645],[-46.89661,-22.85735],[-46.8974,-22.85889],[-46.89911,-22.86134],[-46.90018,-22.8623],[-46.90082,-22.86358],[-46.90172,-22.86414],[-46.90258,-22.86353],[-46.90591,-22.86355],[-46.9067,-22.86394],[-46.90889,-22.86392],[-46.91019,-22.86438],[-46.91085,-22.86538],[-46.91181,-22.86573],[-46.91422,-22.86582],[-46.91389,-22.8638],[-46.91704,-22.86161],[-46.91831,-22.86121],[-46.92019,-22.86155],[-46.92069,-22.86226],[-46.92144,-22.86444],[-46.92317,-22.86527],[-46.92448,-22.86503],[-46.92596,-22.86552],[-46.927,-22.865],[-46.92989,-22.86517],[-46.93075,-22.86592],[-46.93052,-22.86693],[-46.93078,-22.86859],[-46.9317,-22.86922],[-46.93517,-22.86969],[-46.93595,-22.87037],[-46.93702,-22.87033],[-46.9385,-22.86927],[-46.93998,-22.86927],[-46.94157,-22.86995],[-46.94475,-22.87194],[-46.94605,-22.87246],[-46.94777,-22.87365],[-46.9489,-22.87574],[-46.94838,-22.87746],[-46.94822,-22.87918],[-46.94944,-22.88394],[-46.94872,-22.88651],[-46.94728,-22.88887],[-46.94717,-22.89165],[-46.94794,-22.89279],[-46.95003,-22.89424],[-46.95353,-22.89356],[-46.95683,-22.89381],[-46.9571,-22.89544],[-46.9584,-22.89703],[-46.95918,-22.89928],[-46.95921,-22.90175],[-46.95801,-22.90341],[-46.95886,-22.90452],[-46.95926,-22.90651],[-46.96059,-22.90786],[-46.96101,-22.91003],[-46.96018,-22.91166],[-46.95865,-22.91087],[-46.95552,-22.91135],[-46.95466,-22.91056],[-46.95409,-22.90891],[-46.9523,-22.90855],[-46.95079,-22.90975],[-46.94918,-22.91385],[-46.94875,-22.91442],[-46.94629,-22.91585],[-46.94388,-22.91774],[-46.94299,-22.91967],[-46.94127,-22.92088],[-46.94092,-22.92204],[-46.94143,-22.92385],[-46.93968,-22.92794],[-46.93829,-22.92905],[-46.93541,-22.93097],[-46.93414,-22.93092],[-46.93268,-22.92916],[-46.93207,-22.92889],[-46.92921,-22.92874],[-46.92701,-22.93041],[-46.92461,-22.93112],[-46.922,-22.93097],[-46.92207,-22.92964],[-46.92133,-22.92862],[-46.91858,-22.92878],[-46.91761,-22.9281],[-46.916,-22.92595],[-46.91582,-22.92484],[-46.91422,-22.92408],[-46.91233,-22.92407],[-46.909,-22.92534],[-46.90764,-22.92534],[-46.90578,-22.92581],[-46.90519,-22.92638],[-46.90524,-22.92773],[-46.90481,-22.92825],[-46.90275,-22.92828],[-46.89951,-22.92626],[-46.89881,-22.92721],[-46.89939,-22.92883],[-46.8991,-22.93215],[-46.8982,-22.93355],[-46.89677,-22.93332],[-46.89529,-22.93466],[-46.89466,-22.93456],[-46.89362,-22.93312],[-46.89193,-22.93275],[-46.88911,-22.93371],[-46.88807,-22.93426],[-46.88751,-22.93378],[-46.88721,-22.93241],[-46.8857,-22.93181],[-46.88332,-22.93196],[-46.88236,-22.93229],[-46.88137,-22.9334],[-46.88008,-22.93231],[-46.87912,-22.93204],[-46.87748,-22.9326],[-46.87636,-22.93193],[-46.87628,-22.93085],[-46.87849,-22.92746],[-46.87845,-22.92707],[-46.88079,-22.92704],[-46.88284,-22.9256],[-46.88442,-22.92519],[-46.88511,-22.92446],[-46.88634,-22.92436],[-46.88614,-22.92317],[-46.88714,-22.92066],[-46.88806,-22.9196],[-46.89123,-22.91745],[-46.89132,-22.91596],[-46.89088,-22.91321],[-46.89017,-22.91244],[-46.88959,-22.91005],[-46.88916,-22.90938],[-46.88696,-22.90834],[-46.88517,-22.90682],[-46.88204,-22.90666],[-46.88022,-22.90676],[-46.87817,-22.90608],[-46.87621,-22.90404],[-46.87552,-22.9038],[-46.87319,-22.90417],[-46.87209,-22.90383],[-46.87077,-22.90272],[-46.87062,-22.90093],[-46.87007,-22.89946],[-46.86906,-22.89882],[-46.86748,-22.89904],[-46.86551,-22.89856],[-46.86442,-22.89871],[-46.86282,-22.89989],[-46.86131,-22.90153],[-46.86116,-22.90267],[-46.86014,-22.90479],[-46.85921,-22.90558],[-46.85708,-22.90578],[-46.8541,-22.90501],[-46.85332,-22.90454],[-46.85302,-22.90338],[-46.85233,-22.90241],[-46.85146,-22.90236],[-46.84884,-22.90372],[-46.84529,-22.90383],[-46.8424,-22.90493],[-46.84051,-22.90436],[-46.83898,-22.90444],[-46.83688,-22.90501],[-46.8347,-22.90636],[-46.83173,-22.90694],[-46.83016,-22.90692],[-46.82898,-22.90642],[-46.82783,-22.905],[-46.82697,-22.90274],[-46.82616,-22.90177],[-46.82251,-22.90106],[-46.8207,-22.9005],[-46.8194,-22.89914],[-46.81782,-22.89855],[-46.81688,-22.89778],[-46.81593,-22.89567],[-46.81674,-22.89183],[-46.81545,-22.88967],[-46.81536,-22.88767],[-46.81594,-22.88636],[-46.81732,-22.88457],[-46.81891,-22.88356],[-46.81954,-22.88105],[-46.82107,-22.87962],[-46.82319,-22.87665],[-46.82414,-22.87498],[-46.82647,-22.87318],[-46.82759,-22.87292],[-46.82968,-22.87372],[-46.83124,-22.87364],[-46.83325,-22.87679],[-46.8336,-22.87894],[-46.83478,-22.88015],[-46.83725,-22.87988],[-46.83919,-22.88054],[-46.84115,-22.8801],[-46.84341,-22.87884],[-46.84546,-22.87884],[-46.84716,-22.87836],[-46.84853,-22.87731],[-46.85067,-22.87665],[-46.85117,-22.87606],[-46.85096,-22.8751],[-46.84992,-22.87364],[-46.85023,-22.872],[-46.85037,-22.86921],[-46.84903,-22.86756],[-46.84858,-22.86625],[-46.84905,-22.86269],[-46.84953,-22.86159],[-46.85098,-22.86088],[-46.85322,-22.86127],[-46.85429,-22.86107],[-46.8557,-22.8598],[-46.85685,-22.85737],[-46.8566,-22.85524],[-46.85682,-22.85328],[-46.85719,-22.85223],[-46.85819,-22.8507],[-46.86046,-22.8492],[-46.85928,-22.8476],[-46.85886,-22.84497],[-46.85912,-22.84375],[-46.85916,-22.8415],[-46.85814,-22.83968],[-46.85863,-22.8373],[-46.85838,-22.83618],[-46.8589,-22.83477],[-46.85975,-22.83447],[-46.8609,-22.83338],[-46.86074,-22.83138],[-46.86139,-22.82831],[-46.86109,-22.82655],[-46.86141,-22.82562],[-46.86307,-22.82471],[-46.86366,-22.82485],[-46.86472,-22.82685],[-46.86596,-22.82754],[-46.86716,-22.82725],[-46.86758,-22.82592],[-46.86744,-22.82207],[-46.8672,-22.82082],[-46.86732,-22.8186],[-46.86797,-22.81744],[-46.87035,-22.81763],[-46.87293,-22.8171],[-46.8759,-22.81778],[-46.87734,-22.81877],[-46.8781,-22.82059],[-46.88033,-22.82124],[-46.88142,-22.82108],[-46.88172,-22.81999],[-46.88324,-22.81858],[-46.8845,-22.81854],[-46.88662,-22.81941],[-46.88757,-22.81938]]]},"properties":{"codigo":"350950215","name":"Joaquim Egídio","population":1332,"households":1027,"areaKm2":89.3594,"density":14.9}},{"type":"Feature","geometry":{"type":"Polygon","coordinates":[[[-47.12999,-22.84207],[-47.1319,-22.84154],[-47.13305,-22.84071],[-47.13396,-22.84059],[-47.13485,-22.83987],[-47.13508,-22.83868],[-47.1353,-22.83542],[-47.13633,-22.83476],[-47.13804,-22.8351],[-47.13912,-22.8358],[-47.14025,-22.83521],[-47.14055,-22.83336],[-47.14174,-22.83207],[-47.14109,-22.83033],[-47.14112,-22.82892],[-47.1405,-22.82788],[-47.14023,-22.82642],[-47.13973,-22.82618],[-47.13867,-22.82457],[-47.13905,-22.82399],[-47.14043,-22.82381],[-47.14297,-22.82205],[-47.14439,-22.82001],[-47.14585,-22.82054],[-47.14679,-22.82175],[-47.14761,-22.82212],[-47.1503,-22.82172],[-47.15144,-22.82204],[-47.15409,-22.82202],[-47.15677,-22.82084],[-47.15817,-22.82109],[-47.15816,-22.82344],[-47.154,-22.83031],[-47.15344,-22.83192],[-47.15364,-22.83337],[-47.15433,-22.83424],[-47.15641,-22.83515],[-47.15768,-22.83971],[-47.15847,-22.84167],[-47.15601,-22.84351],[-47.15613,-22.845],[-47.15839,-22.84725],[-47.15962,-22.84985],[-47.16283,-22.85353],[-47.16045,-22.85532],[-47.15875,-22.85626],[-47.15834,-22.85795],[-47.15725,-22.85931],[-47.15612,-22.86012],[-47.15666,-22.86101],[-47.15771,-22.86089],[-47.15732,-22.8629],[-47.15656,-22.86226],[-47.15512,-22.86303],[-47.15414,-22.86312],[-47.15515,-22.86526],[-47.15478,-22.86635],[-47.15358,-22.86747],[-47.1527,-22.86926],[-47.15027,-22.87135],[-47.1497,-22.87149],[-47.14848,-22.87073],[-47.14252,-22.86803],[-47.13786,-22.86692],[-47.13537,-22.86615],[-47.13491,-22.86624],[-47.13307,-22.86528],[-47.13262,-22.86469],[-47.13247,-22.86331],[-47.13269,-22.86169],[-47.13205,-22.86011],[-47.13189,-22.85646],[-47.13226,-22.85511],[-47.13102,-22.85269],[-47.13069,-22.85003],[-47.12963,-22.84592],[-47.1295,-22.84348],[-47.12999,-22.84207]]]},"properties":{"codigo":"350950220","name":"Nova Aparecida","population":37384,"households":14759,"areaKm2":12.0005,"density":3115.2}},{"type":"Feature","geometry":{"type":"Polygon","coordinates":[[[-46.9821,-22.9042],[-46.98041,-22.90335],[-46.97931,-22.90321],[-46.97668,-22.9035],[-46.9749,-22.90434],[-46.97477,-22.90555],[-46.97369,-22.9057],[-46.96849,-22.90544],[-46.96585,-22.90648],[-46.9647,-22.90753],[-46.96253,-22.91155],[-46.96018,-22.91166],[-46.96101,-22.91003],[-46.96059,-22.90786],[-46.95926,-22.90651],[-46.95886,-22.90452],[-46.95801,-22.90341],[-46.95921,-22.90175],[-46.95918,-22.89928],[-46.9584,-22.89703],[-46.9571,-22.89544],[-46.95683,-22.89381],[-46.95353,-22.89356],[-46.95003,-22.89424],[-46.94794,-22.89279],[-46.94717,-22.89165],[-46.94728,-22.88887],[-46.94872,-22.88651],[-46.94944,-22.88394],[-46.94822,-22.87918],[-46.94838,-22.87746],[-46.9489,-22.87574],[-46.94777,-22.87365],[-46.94605,-22.87246],[-46.94475,-22.87194],[-46.94157,-22.86995],[-46.93998,-22.86927],[-46.9385,-22.86927],[-46.93702,-22.87033],[-46.93595,-22.87037],[-46.93517,-22.86969],[-46.9317,-22.86922],[-46.93078,-22.86859],[-46.93052,-22.86693],[-46.93075,-22.86592],[-46.92989,-22.86517],[-46.927,-22.865],[-46.92596,-22.86552],[-46.92448,-22.86503],[-46.92317,-22.86527],[-46.92144,-22.86444],[-46.92069,-22.86226],[-46.92019,-22.86155],[-46.91831,-22.86121],[-46.91704,-22.86161],[-46.91389,-22.8638],[-46.91422,-22.86582],[-46.91181,-22.86573],[-46.91085,-22.86538],[-46.91019,-22.86438],[-46.90889,-22.86392],[-46.9067,-22.86394],[-46.90591,-22.86355],[-46.90258,-22.86353],[-46.90172,-22.86414],[-46.90082,-22.86358],[-46.90018,-22.8623],[-46.89911,-22.86134],[-46.8974,-22.85889],[-46.89661,-22.85735],[-46.89652,-22.85645],[-46.89698,-22.85438],[-46.89805,-22.85234],[-46.89721,-22.84995],[-46.8976,-22.84873],[-46.896,-22.84901],[-46.89191,-22.84849],[-46.88879,-22.84827],[-46.88847,-22.84787],[-46.89069,-22.84505],[-46.89268,-22.84356],[-46.89418,-22.84305],[-46.89282,-22.84073],[-46.89234,-22.83859],[-46.89262,-22.83672],[-46.8919,-22.83453],[-46.89151,-22.8308],[-46.89112,-22.82859],[-46.89065,-22.82727],[-46.88996,-22.8264],[-46.89003,-22.82559],[-46.88935,-22.82435],[-46.88862,-22.82023],[-46.88757,-22.81938],[-46.88872,-22.81808],[-46.8908,-22.81707],[-46.89141,-22.81598],[-46.89142,-22.81457],[-46.89188,-22.81362],[-46.8931,-22.81228],[-46.8932,-22.81147],[-46.89424,-22.80905],[-46.89427,-22.80794],[-46.89482,-22.80698],[-46.89465,-22.80594],[-46.89319,-22.80424],[-46.89298,-22.80338],[-46.8944,-22.80229],[-46.89448,-22.80007],[-46.89276,-22.79878],[-46.89258,-22.79804],[-46.89388,-22.79732],[-46.8949,-22.79774],[-46.89608,-22.79706],[-46.89573,-22.79615],[-46.89636,-22.7937],[-46.89774,-22.79375],[-46.89875,-22.79308],[-46.89942,-22.79117],[-46.89948,-22.78997],[-46.89911,-22.78901],[-46.9002,-22.7882],[-46.90056,-22.78715],[-46.90314,-22.78631],[-46.90476,-22.785],[-46.90578,-22.78561],[-46.90578,-22.78678],[-46.90715,-22.78777],[-46.90756,-22.78891],[-46.9083,-22.78916],[-46.91044,-22.79094],[-46.91033,-22.79285],[-46.91116,-22.79389],[-46.91192,-22.79419],[-46.91328,-22.79392],[-46.91549,-22.79424],[-46.91633,-22.795],[-46.91561,-22.7958],[-46.91557,-22.79686],[-46.9187,-22.8016],[-46.91972,-22.80246],[-46.92102,-22.80153],[-46.92182,-22.80136],[-46.92406,-22.80456],[-46.92555,-22.80606],[-46.92759,-22.80725],[-46.92807,-22.80828],[-46.93064,-22.81006],[-46.93286,-22.81319],[-46.93518,-22.81517],[-46.93614,-22.81569],[-46.93851,-22.8184],[-46.94221,-22.82175],[-46.94321,-22.82334],[-46.94432,-22.82405],[-46.94924,-22.82366],[-46.95239,-22.82417],[-46.95574,-22.82593],[-46.95852,-22.82601],[-46.95948,-22.82789],[-46.95867,-22.83102],[-46.95875,-22.83223],[-46.9598,-22.83482],[-46.95976,-22.83548],[-46.96049,-22.83682],[-46.96225,-22.83777],[-46.96319,-22.83868],[-46.96368,-22.8397],[-46.96495,-22.8411],[-46.96578,-22.84453],[-46.96628,-22.84563],[-46.96879,-22.84854],[-46.97129,-22.85059],[-46.97304,-22.85327],[-46.97375,-22.85766],[-46.9757,-22.86149],[-46.9766,-22.86251],[-46.97782,-22.86308],[-46.97892,-22.86306],[-46.98116,-22.86197],[-46.9834,-22.86217],[-46.98377,-22.86312],[-46.98337,-22.86479],[-46.98351,-22.86718],[-46.98332,-22.86888],[-46.98249,-22.86986],[-46.98549,-22.87141],[-46.98637,-22.87249],[-46.98813,-22.87279],[-46.98857,-22.87401],[-46.98983,-22.87554],[-46.99144,-22.87901],[-46.99363,-22.87993],[-46.99465,-22.88303],[-46.99532,-22.88677],[-46.99463,-22.88823],[-46.99336,-22.88914],[-46.9933,-22.89181],[-46.99543,-22.89467],[-46.9982,-22.89676],[-46.99674,-22.89796],[-46.99645,-22.89886],[-46.99538,-22.90048],[-46.99066,-22.90077],[-46.98986,-22.90117],[-46.98847,-22.90122],[-46.98639,-22.9024],[-46.98458,-22.90404],[-46.9821,-22.9042]]]},"properties":{"codigo":"350950225","name":"Souzas","population":17565,"households":7501,"areaKm2":66.2799,"density":265}},{"type":"Feature","geometry":{"type":"Polygon","coordinates":[[[-47.12485,-22.95929],[-47.128,-22.96077],[-47.13039,-22.96046],[-47.13301,-22.96043],[-47.13392,-22.96104],[-47.135,-22.9612],[-47.1367,-22.96073],[-47.13894,-22.96139],[-47.14017,-22.96075],[-47.14133,-22.96074],[-47.14132,-22.95983],[-47.14287,-22.95933],[-47.14583,-22.95908],[-47.14648,-22.95845],[-47.14648,-22.95721],[-47.14774,-22.95651],[-47.14931,-22.95639],[-47.1512,-22.9556],[-47.15287,-22.95562],[-47.15489,-22.95478],[-47.15742,-22.95547],[-47.15825,-22.95549],[-47.15944,-22.95485],[-47.16118,-22.95541],[-47.16197,-22.95612],[-47.16368,-22.95606],[-47.16408,-22.9567],[-47.16579,-22.95808],[-47.1666,-22.95903],[-47.1699,-22.95957],[-47.17138,-22.96068],[-47.17287,-22.96241],[-47.17423,-22.96354],[-47.17501,-22.96475],[-47.17832,-22.96438],[-47.18086,-22.96455],[-47.18161,-22.96556],[-47.18342,-22.9667],[-47.1862,-22.96775],[-47.18634,-22.96997],[-47.18781,-22.96993],[-47.18965,-22.97077],[-47.19095,-22.97021],[-47.1934,-22.97076],[-47.19502,-22.97045],[-47.19641,-22.9692],[-47.19772,-22.9692],[-47.19886,-22.96958],[-47.19968,-22.97044],[-47.20079,-22.97029],[-47.20208,-22.97104],[-47.20284,-22.96998],[-47.20396,-22.96918],[-47.20631,-22.97009],[-47.20811,-22.9701],[-47.20651,-22.97152],[-47.20527,-22.97331],[-47.20521,-22.97548],[-47.20582,-22.97822],[-47.20573,-22.97923],[-47.20502,-22.98047],[-47.20443,-22.98227],[-47.20313,-22.98346],[-47.20175,-22.98429],[-47.20144,-22.98611],[-47.20172,-22.98712],[-47.20347,-22.98842],[-47.20502,-22.99032],[-47.20529,-22.99174],[-47.20654,-22.99436],[-47.20673,-22.99538],[-47.20601,-22.99606],[-47.20447,-22.99667],[-47.20276,-22.99815],[-47.20296,-22.99925],[-47.20421,-23.00015],[-47.20556,-22.99983],[-47.20674,-23.00012],[-47.21229,-23.00004],[-47.21469,-22.99966],[-47.21566,-22.99927],[-47.21796,-22.99973],[-47.21845,-22.99942],[-47.22062,-22.99998],[-47.22238,-23.00126],[-47.22512,-23.00125],[-47.22832,-23.00428],[-47.23129,-23.00539],[-47.23251,-23.00626],[-47.23313,-23.00724],[-47.23244,-23.00768],[-47.23192,-23.00961],[-47.22867,-23.0124],[-47.22801,-23.01322],[-47.22623,-23.01365],[-47.22514,-23.01426],[-47.22484,-23.01519],[-47.22315,-23.01604],[-47.22081,-23.01569],[-47.21986,-23.01614],[-47.21954,-23.01746],[-47.22006,-23.01835],[-47.2193,-23.01944],[-47.21874,-23.0192],[-47.21654,-23.02132],[-47.21523,-23.02181],[-47.21303,-23.0231],[-47.21158,-23.02324],[-47.21127,-23.02397],[-47.21,-23.02411],[-47.20905,-23.02549],[-47.20815,-23.02593],[-47.20689,-23.02914],[-47.2069,-23.02966],[-47.2047,-23.03113],[-47.20449,-23.03178],[-47.20297,-23.03207],[-47.20239,-23.03181],[-47.20116,-23.0322],[-47.19967,-23.03228],[-47.19781,-23.03121],[-47.1971,-23.03155],[-47.19352,-23.03171],[-47.19339,-23.03231],[-47.19181,-23.03317],[-47.18998,-23.03341],[-47.18848,-23.03305],[-47.18821,-23.03176],[-47.18758,-23.03184],[-47.18578,-23.03019],[-47.18411,-23.03069],[-47.1833,-23.02988],[-47.18168,-23.02993],[-47.18054,-23.03047],[-47.18016,-23.03113],[-47.17908,-23.03167],[-47.1767,-23.0312],[-47.17571,-23.03193],[-47.1741,-23.03195],[-47.17308,-23.03288],[-47.17125,-23.03321],[-47.16991,-23.03304],[-47.16921,-23.03213],[-47.16726,-23.03215],[-47.1655,-23.03386],[-47.16487,-23.03597],[-47.16397,-23.03648],[-47.16304,-23.03606],[-47.16156,-23.03668],[-47.16026,-23.03608],[-47.1602,-23.0375],[-47.15885,-23.03761],[-47.15831,-23.03863],[-47.15808,-23.04134],[-47.15731,-23.04178],[-47.1558,-23.04105],[-47.15482,-23.041],[-47.15331,-23.03846],[-47.15256,-23.03839],[-47.15176,-23.04012],[-47.15028,-23.04226],[-47.15033,-23.04365],[-47.14963,-23.04503],[-47.14915,-23.04754],[-47.1499,-23.04946],[-47.15025,-23.05107],[-47.14929,-23.05084],[-47.14797,-23.0516],[-47.14861,-23.05241],[-47.14747,-23.05308],[-47.14626,-23.05501],[-47.13889,-23.04783],[-47.13778,-23.04646],[-47.13658,-23.04446],[-47.13548,-23.04117],[-47.13454,-23.03634],[-47.13369,-23.03426],[-47.13295,-23.03324],[-47.12881,-23.0284],[-47.12697,-23.0265],[-47.12385,-23.02588],[-47.12432,-23.02346],[-47.12342,-23.02194],[-47.11996,-23.01778],[-47.11818,-23.01527],[-47.114,-23.00753],[-47.1093,-22.99719],[-47.10963,-22.99687],[-47.1086,-22.99342],[-47.10957,-22.99271],[-47.11057,-22.99141],[-47.11105,-22.98987],[-47.11163,-22.97957],[-47.11264,-22.97677],[-47.11693,-22.9695],[-47.11767,-22.96846],[-47.12345,-22.96142],[-47.12485,-22.95929]]]},"properties":{"codigo":"350950230","name":"Ouro Verde","population":124593,"households":48622,"areaKm2":80.0369,"density":1556.7}},{"type":"Feature","geometry":{"type":"Polygon","coordinates":[[[-47.17849,-22.91167],[-47.17946,-22.91214],[-47.18108,-22.91222],[-47.18423,-22.91158],[-47.18708,-22.91085],[-47.19155,-22.91079],[-47.19262,-22.91058],[-47.19629,-22.91149],[-47.2035,-22.91178],[-47.20436,-22.9119],[-47.20832,-22.91306],[-47.21254,-22.91307],[-47.21432,-22.91334],[-47.21566,-22.91327],[-47.21759,-22.91259],[-47.2187,-22.91173],[-47.22158,-22.90809],[-47.22247,-22.90613],[-47.22351,-22.90574],[-47.22872,-22.9056],[-47.22938,-22.90592],[-47.2325,-22.90879],[-47.23306,-22.91001],[-47.23409,-22.91007],[-47.23511,-22.90821],[-47.23719,-22.90826],[-47.24019,-22.90782],[-47.24677,-22.90948],[-47.24654,-22.91006],[-47.24457,-22.91261],[-47.24391,-22.91378],[-47.24194,-22.91492],[-47.24148,-22.91619],[-47.24021,-22.91747],[-47.23979,-22.91837],[-47.23808,-22.91965],[-47.237,-22.92109],[-47.20944,-22.9273],[-47.20711,-22.92744],[-47.20483,-22.92659],[-47.20304,-22.92698],[-47.20183,-22.93003],[-47.20216,-22.93186],[-47.20232,-22.9352],[-47.20305,-22.94088],[-47.20472,-22.94484],[-47.20504,-22.94594],[-47.20631,-22.94749],[-47.20801,-22.94876],[-47.20935,-22.95112],[-47.2099,-22.95169],[-47.21134,-22.95167],[-47.21441,-22.95037],[-47.21551,-22.95032],[-47.21838,-22.95116],[-47.21977,-22.95204],[-47.22591,-22.95428],[-47.22703,-22.95392],[-47.22808,-22.95312],[-47.22957,-22.95255],[-47.22758,-22.95503],[-47.2275,-22.95696],[-47.22561,-22.9577],[-47.2239,-22.9589],[-47.22305,-22.9602],[-47.2216,-22.96116],[-47.22079,-22.96239],[-47.2208,-22.96427],[-47.2172,-22.96521],[-47.2164,-22.96454],[-47.21416,-22.96469],[-47.21308,-22.96622],[-47.21163,-22.9678],[-47.21157,-22.96864],[-47.20811,-22.9701],[-47.20631,-22.97009],[-47.20396,-22.96918],[-47.20284,-22.96998],[-47.20208,-22.97104],[-47.20079,-22.97029],[-47.19968,-22.97044],[-47.19886,-22.96958],[-47.19772,-22.9692],[-47.19641,-22.9692],[-47.19502,-22.97045],[-47.1934,-22.97076],[-47.19095,-22.97021],[-47.18965,-22.97077],[-47.18781,-22.96993],[-47.18634,-22.96997],[-47.1862,-22.96775],[-47.18342,-22.9667],[-47.18161,-22.96556],[-47.18086,-22.96455],[-47.17832,-22.96438],[-47.17501,-22.96475],[-47.17423,-22.96354],[-47.17287,-22.96241],[-47.17138,-22.96068],[-47.1699,-22.95957],[-47.1666,-22.95903],[-47.16579,-22.95808],[-47.16408,-22.9567],[-47.16368,-22.95606],[-47.16197,-22.95612],[-47.16118,-22.95541],[-47.15944,-22.95485],[-47.15825,-22.95549],[-47.15742,-22.95547],[-47.15489,-22.95478],[-47.15287,-22.95562],[-47.1512,-22.9556],[-47.14931,-22.95639],[-47.14774,-22.95651],[-47.14648,-22.95721],[-47.14648,-22.95845],[-47.14583,-22.95908],[-47.14287,-22.95933],[-47.14132,-22.95983],[-47.14133,-22.96074],[-47.14017,-22.96075],[-47.13894,-22.96139],[-47.1367,-22.96073],[-47.135,-22.9612],[-47.13392,-22.96104],[-47.13301,-22.96043],[-47.13039,-22.96046],[-47.128,-22.96077],[-47.12485,-22.95929],[-47.12534,-22.95786],[-47.12554,-22.95568],[-47.12576,-22.94265],[-47.12588,-22.941],[-47.12643,-22.93789],[-47.12862,-22.92984],[-47.13021,-22.92437],[-47.13189,-22.92233],[-47.1348,-22.92091],[-47.13623,-22.9205],[-47.14192,-22.92131],[-47.14488,-22.9212],[-47.1463,-22.92083],[-47.1486,-22.91988],[-47.15353,-22.91711],[-47.15743,-22.91521],[-47.16389,-22.91185],[-47.16719,-22.9109],[-47.17011,-22.9107],[-47.1727,-22.91093],[-47.17849,-22.91167]]]},"properties":{"codigo":"350950235","name":"Campo Grande","population":125044,"households":47004,"areaKm2":51.1927,"density":2442.6}}]}