{"type":"FeatureCollection","features":[{"type":"Feature","geometry":{"type":"Polygon","coordinates":[[[-48.55166,-23.93469],[-48.55138,-23.93535],[-48.55017,-23.93581],[-48.55007,-23.93742],[-48.54736,-23.93809],[-48.54781,-23.93922],[-48.54983,-23.93971],[-48.54977,-23.94062],[-48.55154,-23.94119],[-48.55375,-23.94089],[-48.55481,-23.94111],[-48.55476,-23.94223],[-48.55575,-23.94222],[-48.55653,-23.94343],[-48.5565,-23.9443],[-48.55897,-23.94453],[-48.56233,-23.94569],[-48.56328,-23.94531],[-48.56576,-23.94519],[-48.56639,-23.9459],[-48.56683,-23.9474],[-48.56559,-23.94751],[-48.5642,-23.94912],[-48.56058,-23.95063],[-48.56059,-23.95167],[-48.56125,-23.95313],[-48.5627,-23.95442],[-48.56121,-23.95804],[-48.56095,-23.95959],[-48.56317,-23.96014],[-48.5635,-23.95936],[-48.56506,-23.95928],[-48.56569,-23.96034],[-48.56676,-23.96106],[-48.56723,-23.96199],[-48.56818,-23.9611],[-48.56924,-23.96107],[-48.57196,-23.95953],[-48.57404,-23.96059],[-48.57464,-23.96284],[-48.57597,-23.96443],[-48.57691,-23.96455],[-48.57823,-23.9637],[-48.57961,-23.96378],[-48.58053,-23.96436],[-48.58099,-23.9661],[-48.57974,-23.96663],[-48.57983,-23.96727],[-48.5781,-23.96878],[-48.57679,-23.96895],[-48.57645,-23.96984],[-48.57779,-23.9704],[-48.57831,-23.971],[-48.57752,-23.97164],[-48.57959,-23.97304],[-48.57931,-23.97392],[-48.5807,-23.9741],[-48.58162,-23.97345],[-48.58495,-23.97358],[-48.58669,-23.9748],[-48.58595,-23.9757],[-48.58485,-23.97544],[-48.58436,-23.97695],[-48.58549,-23.97761],[-48.5844,-23.97898],[-48.58436,-23.97984],[-48.58326,-23.98021],[-48.58282,-23.98158],[-48.58186,-23.9829],[-48.5821,-23.98401],[-48.58042,-23.98401],[-48.57923,-23.98596],[-48.57833,-23.98508],[-48.57778,-23.98365],[-48.57647,-23.98342],[-48.57341,-23.9844],[-48.57206,-23.98333],[-48.57129,-23.98448],[-48.57015,-23.98347],[-48.56907,-23.98381],[-48.56875,-23.98659],[-48.56762,-23.9864],[-48.56716,-23.98523],[-48.5659,-23.98581],[-48.56552,-23.98484],[-48.56403,-23.98599],[-48.5647,-23.98692],[-48.56404,-23.98781],[-48.56309,-23.98794],[-48.56397,-23.99013],[-48.56294,-23.99055],[-48.56341,-23.992],[-48.56239,-23.99281],[-48.56298,-23.99355],[-48.56201,-23.99407],[-48.56222,-23.99474],[-48.56045,-23.99503],[-48.56014,-23.99622],[-48.55921,-23.99565],[-48.55873,-23.99638],[-48.55766,-23.99665],[-48.55631,-23.99588],[-48.55581,-23.99644],[-48.55248,-23.99548],[-48.55164,-23.99618],[-48.55082,-23.99623],[-48.55052,-23.99774],[-48.54994,-23.99885],[-48.54901,-23.99935],[-48.54902,-24.0005],[-48.55002,-24.00131],[-48.54986,-24.00365],[-48.55144,-24.00536],[-48.55368,-24.00648],[-48.55453,-24.0078],[-48.55573,-24.00798],[-48.55752,-24.00657],[-48.55943,-24.00643],[-48.5601,-24.00765],[-48.56002,-24.00864],[-48.55846,-24.00988],[-48.55703,-24.00996],[-48.5562,-24.01093],[-48.55416,-24.0116],[-48.55387,-24.0122],[-48.55494,-24.0135],[-48.5554,-24.01479],[-48.55642,-24.0163],[-48.55868,-24.0191],[-48.5579,-24.01979],[-48.55697,-24.01934],[-48.55497,-24.01933],[-48.55354,-24.01798],[-48.55286,-24.01907],[-48.55475,-24.02139],[-48.55622,-24.0221],[-48.55566,-24.02357],[-48.54846,-24.02346],[-48.54913,-24.02518],[-48.54809,-24.02687],[-48.54741,-24.03003],[-48.54693,-24.03112],[-48.54621,-24.03168],[-48.54518,-24.03372],[-48.54376,-24.03439],[-48.54314,-24.03511],[-48.54185,-24.03534],[-48.54146,-24.03648],[-48.53994,-24.03754],[-48.5395,-24.03867],[-48.53817,-24.04095],[-48.53631,-24.04231],[-48.53442,-24.04288],[-48.5324,-24.04404],[-48.52976,-24.04292],[-48.52854,-24.04301],[-48.52668,-24.04431],[-48.52606,-24.0456],[-48.52391,-24.04677],[-48.52332,-24.04862],[-48.52384,-24.05036],[-48.52344,-24.05213],[-48.52364,-24.05691],[-48.5227,-24.05763],[-48.51928,-24.05821],[-48.51674,-24.05939],[-48.51467,-24.06097],[-48.51164,-24.06067],[-48.51033,-24.061],[-48.50981,-24.06159],[-48.51039,-24.06341],[-48.5105,-24.06552],[-48.50978,-24.07038],[-48.50988,-24.07164],[-48.51042,-24.07334],[-48.51043,-24.07541],[-48.51015,-24.0773],[-48.51068,-24.07957],[-48.5104,-24.09819],[-48.51073,-24.09937],[-48.51064,-24.10119],[-48.51234,-24.10298],[-48.5129,-24.10407],[-48.51428,-24.10472],[-48.51596,-24.10603],[-48.51791,-24.10845],[-48.52021,-24.11068],[-48.52083,-24.1118],[-48.52237,-24.1121],[-48.52299,-24.11345],[-48.50824,-24.12365],[-48.50638,-24.12431],[-48.50283,-24.12755],[-48.51335,-24.1351],[-48.51347,-24.137],[-48.51417,-24.138],[-48.51642,-24.13973],[-48.51293,-24.13896],[-48.51142,-24.13926],[-48.51057,-24.13901],[-48.50949,-24.13811],[-48.50616,-24.13829],[-48.5053,-24.13864],[-48.50461,-24.13958],[-48.50274,-24.13996],[-48.50132,-24.14143],[-48.4996,-24.14207],[-48.49963,-24.14509],[-48.50014,-24.14549],[-48.49943,-24.14672],[-48.49777,-24.14739],[-48.49698,-24.14867],[-48.4962,-24.1478],[-48.4968,-24.14678],[-48.49594,-24.14572],[-48.49378,-24.14719],[-48.49189,-24.14764],[-48.49068,-24.14866],[-48.4903,-24.14941],[-48.49077,-24.15083],[-48.49032,-24.1532],[-48.48845,-24.1534],[-48.48794,-24.15425],[-48.48624,-24.15413],[-48.48535,-24.15339],[-48.48327,-24.15331],[-48.48177,-24.15278],[-48.47933,-24.15437],[-48.47749,-24.15496],[-48.47703,-24.15599],[-48.47517,-24.15583],[-48.47422,-24.15606],[-48.47313,-24.15688],[-48.47469,-24.1581],[-48.4746,-24.16002],[-48.47331,-24.1602],[-48.47337,-24.16089],[-48.47458,-24.16301],[-48.47637,-24.1641],[-48.47576,-24.16527],[-48.47623,-24.1668],[-48.4753,-24.1681],[-48.47593,-24.1688],[-48.47513,-24.16939],[-48.47396,-24.16952],[-48.47267,-24.17156],[-48.47164,-24.17151],[-48.4712,-24.17214],[-48.47002,-24.17144],[-48.46896,-24.17142],[-48.46777,-24.17236],[-48.46674,-24.17248],[-48.4656,-24.17382],[-48.46476,-24.17381],[-48.46393,-24.17444],[-48.46241,-24.17431],[-48.4613,-24.17514],[-48.46065,-24.17514],[-48.45858,-24.17409],[-48.45631,-24.1739],[-48.45519,-24.17434],[-48.45379,-24.17411],[-48.45232,-24.17289],[-48.4502,-24.17156],[-48.44841,-24.17193],[-48.44654,-24.17202],[-48.4457,-24.17156],[-48.44509,-24.17235],[-48.443,-24.17243],[-48.44244,-24.17318],[-48.44104,-24.17256],[-48.43918,-24.17327],[-48.43786,-24.17335],[-48.43727,-24.17401],[-48.43589,-24.17412],[-48.43535,-24.17664],[-48.4347,-24.1779],[-48.43345,-24.17832],[-48.43247,-24.17923],[-48.4314,-24.17949],[-48.4306,-24.18059],[-48.42952,-24.18093],[-48.42881,-24.18178],[-48.42786,-24.18213],[-48.42714,-24.18301],[-48.42438,-24.1834],[-48.42354,-24.18301],[-48.42283,-24.18109],[-48.42222,-24.18053],[-48.42095,-24.1802],[-48.42086,-24.17937],[-48.41979,-24.178],[-48.41965,-24.17708],[-48.4216,-24.17481],[-48.422,-24.17377],[-48.42185,-24.1717],[-48.42252,-24.17094],[-48.42351,-24.17107],[-48.42482,-24.17028],[-48.42522,-24.16926],[-48.4249,-24.16793],[-48.4235,-24.16557],[-48.42365,-24.16204],[-48.42429,-24.16163],[-48.42687,-24.16208],[-48.42744,-24.16182],[-48.42786,-24.15998],[-48.42935,-24.15771],[-48.4291,-24.15644],[-48.42721,-24.15477],[-48.42488,-24.15231],[-48.42468,-24.15046],[-48.42233,-24.1481],[-48.42187,-24.14713],[-48.42338,-24.1443],[-48.42327,-24.14149],[-48.42341,-24.13937],[-48.42382,-24.13789],[-48.42181,-24.13727],[-48.4204,-24.13582],[-48.42068,-24.13461],[-48.42276,-24.13335],[-48.42315,-24.13237],[-48.42232,-24.13131],[-48.42127,-24.12888],[-48.42157,-24.12617],[-48.42057,-24.12347],[-48.4199,-24.12011],[-48.41863,-24.11794],[-48.41674,-24.11592],[-48.41605,-24.1147],[-48.4137,-24.1123],[-48.41118,-24.10805],[-48.41061,-24.10481],[-48.40985,-24.10276],[-48.40977,-24.10048],[-48.41029,-24.09675],[-48.41003,-24.09354],[-48.41028,-24.0915],[-48.41062,-24.0908],[-48.41272,-24.08868],[-48.41347,-24.08659],[-48.40842,-24.08664],[-48.40744,-24.08628],[-48.40754,-24.083],[-48.40798,-24.08203],[-48.40906,-24.08107],[-48.40944,-24.07942],[-48.40906,-24.0776],[-48.40976,-24.07646],[-48.41177,-24.0766],[-48.41269,-24.07637],[-48.41335,-24.07561],[-48.41334,-24.07425],[-48.41159,-24.07306],[-48.41021,-24.07282],[-48.40704,-24.0712],[-48.40544,-24.07058],[-48.40251,-24.06872],[-48.40011,-24.06837],[-48.39806,-24.06738],[-48.39448,-24.06704],[-48.39194,-24.06716],[-48.38882,-24.06709],[-48.38698,-24.0665],[-48.38417,-24.06729],[-48.3828,-24.0669],[-48.37999,-24.06751],[-48.37728,-24.06573],[-48.37634,-24.06593],[-48.37571,-24.06689],[-48.37302,-24.06634],[-48.37002,-24.06721],[-48.36852,-24.06724],[-48.36743,-24.06929],[-48.36501,-24.07178],[-48.36337,-24.07244],[-48.36173,-24.07174],[-48.36012,-24.07231],[-48.35924,-24.07096],[-48.35754,-24.0699],[-48.35639,-24.06987],[-48.35431,-24.06928],[-48.3542,-24.07147],[-48.35359,-24.07191],[-48.35086,-24.07286],[-48.34864,-24.07096],[-48.34702,-24.06985],[-48.34577,-24.06994],[-48.345,-24.06926],[-48.34525,-24.06844],[-48.34365,-24.06617],[-48.34243,-24.06639],[-48.34108,-24.06612],[-48.33866,-24.06431],[-48.33503,-24.06319],[-48.33419,-24.06224],[-48.33275,-24.06199],[-48.33152,-24.06232],[-48.32874,-24.05989],[-48.32662,-24.05922],[-48.32493,-24.05954],[-48.32281,-24.05938],[-48.32233,-24.05898],[-48.32074,-24.05873],[-48.31945,-24.05813],[-48.31888,-24.05908],[-48.31786,-24.05811],[-48.31722,-24.0559],[-48.31745,-24.05476],[-48.31689,-24.05437],[-48.31459,-24.05476],[-48.30957,-24.05229],[-48.30837,-24.05207],[-48.30571,-24.05322],[-48.30376,-24.05379],[-48.30335,-24.05429],[-48.30404,-24.05612],[-48.30433,-24.05762],[-48.30358,-24.05894],[-48.30269,-24.0598],[-48.30074,-24.06081],[-48.3006,-24.06192],[-48.30181,-24.06252],[-48.30143,-24.06461],[-48.30309,-24.06514],[-48.30329,-24.06637],[-48.30411,-24.06753],[-48.30341,-24.06843],[-48.30358,-24.06934],[-48.30244,-24.0709],[-48.30075,-24.07127],[-48.29995,-24.0721],[-48.30035,-24.07295],[-48.29929,-24.07353],[-48.29919,-24.0751],[-48.30081,-24.07653],[-48.30221,-24.07592],[-48.30449,-24.07633],[-48.30627,-24.07632],[-48.30582,-24.07709],[-48.30699,-24.07733],[-48.30626,-24.07861],[-48.30878,-24.07982],[-48.31045,-24.08185],[-48.31331,-24.08402],[-48.31236,-24.08475],[-48.31298,-24.08572],[-48.31255,-24.08705],[-48.31261,-24.08849],[-48.31209,-24.09029],[-48.31099,-24.09165],[-48.31308,-24.09487],[-48.31252,-24.09611],[-48.31267,-24.09706],[-48.3108,-24.09917],[-48.31113,-24.10036],[-48.31039,-24.1006],[-48.31098,-24.10168],[-48.31064,-24.10315],[-48.31099,-24.10577],[-48.31038,-24.10688],[-48.31205,-24.10781],[-48.31259,-24.10856],[-48.3116,-24.10894],[-48.31186,-24.11111],[-48.31296,-24.11274],[-48.31393,-24.11288],[-48.31501,-24.11223],[-48.31614,-24.1139],[-48.3153,-24.11428],[-48.31402,-24.11597],[-48.31258,-24.11503],[-48.31334,-24.11695],[-48.31271,-24.11793],[-48.31331,-24.11901],[-48.31322,-24.11975],[-48.31179,-24.12043],[-48.31192,-24.12147],[-48.31313,-24.12197],[-48.31353,-24.12259],[-48.31289,-24.12429],[-48.3111,-24.12459],[-48.3102,-24.12438],[-48.309,-24.12498],[-48.3096,-24.12606],[-48.30893,-24.12772],[-48.3082,-24.128],[-48.30849,-24.12896],[-48.30665,-24.12999],[-48.30781,-24.1307],[-48.30694,-24.13131],[-48.30594,-24.13091],[-48.30595,-24.13315],[-48.30515,-24.13395],[-48.30613,-24.13541],[-48.30513,-24.13697],[-48.30433,-24.13895],[-48.30322,-24.13936],[-48.30317,-24.14041],[-48.30203,-24.14088],[-48.30359,-24.14283],[-48.30465,-24.14339],[-48.30533,-24.14476],[-48.30465,-24.14616],[-48.30529,-24.14791],[-48.3064,-24.14856],[-48.30357,-24.15263],[-48.30264,-24.15349],[-48.30254,-24.15424],[-48.30336,-24.15549],[-48.30233,-24.15588],[-48.30166,-24.15716],[-48.29959,-24.15783],[-48.2987,-24.15855],[-48.29739,-24.15819],[-48.29342,-24.16043],[-48.29186,-24.16193],[-48.28997,-24.16311],[-48.29009,-24.16403],[-48.289,-24.16394],[-48.2891,-24.16485],[-48.29081,-24.16518],[-48.29351,-24.16655],[-48.29233,-24.16794],[-48.29134,-24.16822],[-48.29245,-24.1693],[-48.29414,-24.17009],[-48.29309,-24.17052],[-48.29314,-24.17116],[-48.29487,-24.17259],[-48.29619,-24.17485],[-48.29707,-24.1754],[-48.29815,-24.17665],[-48.29945,-24.17671],[-48.30105,-24.17579],[-48.30121,-24.17668],[-48.30284,-24.17696],[-48.30331,-24.17792],[-48.30264,-24.17875],[-48.30284,-24.18011],[-48.3017,-24.18131],[-48.30101,-24.18145],[-48.30233,-24.18299],[-48.30165,-24.18331],[-48.29935,-24.18226],[-48.29806,-24.18214],[-48.2981,-24.18313],[-48.29735,-24.18446],[-48.29638,-24.18527],[-48.29791,-24.18623],[-48.29777,-24.18696],[-48.29665,-24.18683],[-48.2955,-24.18916],[-48.29534,-24.18997],[-48.29293,-24.19061],[-48.29095,-24.1917],[-48.29061,-24.19244],[-48.28945,-24.19297],[-48.28954,-24.19519],[-48.28845,-24.19658],[-48.28902,-24.19799],[-48.29041,-24.19893],[-48.29189,-24.198],[-48.29423,-24.19918],[-48.29349,-24.20087],[-48.29467,-24.20097],[-48.29523,-24.20157],[-48.29419,-24.20405],[-48.29267,-24.20462],[-48.29118,-24.20471],[-48.2912,-24.20556],[-48.2924,-24.20667],[-48.29198,-24.20739],[-48.29048,-24.20734],[-48.29001,-24.20825],[-48.2891,-24.20838],[-48.28833,-24.20972],[-48.2892,-24.21023],[-48.29021,-24.2096],[-48.29109,-24.20984],[-48.29192,-24.21129],[-48.29238,-24.2145],[-48.29199,-24.21522],[-48.29086,-24.21557],[-48.28939,-24.21669],[-48.28833,-24.217],[-48.2868,-24.21687],[-48.28623,-24.21749],[-48.28541,-24.21683],[-48.28449,-24.21742],[-48.28448,-24.22107],[-48.28278,-24.22244],[-48.28281,-24.22377],[-48.28127,-24.22492],[-48.28148,-24.22578],[-48.28067,-24.22674],[-48.28098,-24.22843],[-48.28076,-24.22936],[-48.27864,-24.23064],[-48.27747,-24.23188],[-48.27825,-24.23473],[-48.2788,-24.23586],[-48.27971,-24.23675],[-48.28067,-24.23868],[-48.28292,-24.24068],[-48.28331,-24.24157],[-48.2825,-24.24323],[-48.2816,-24.24359],[-48.28109,-24.24446],[-48.27982,-24.24548],[-48.27849,-24.24603],[-48.27614,-24.24637],[-48.27593,-24.24717],[-48.27698,-24.24924],[-48.27844,-24.25012],[-48.28365,-24.25145],[-48.28538,-24.25213],[-48.28657,-24.25339],[-48.28658,-24.2542],[-48.28478,-24.25779],[-48.28384,-24.26081],[-48.28454,-24.2638],[-48.28709,-24.26717],[-48.28906,-24.2685],[-48.29246,-24.27166],[-48.29373,-24.27304],[-48.2935,-24.27452],[-48.29266,-24.27543],[-48.29041,-24.27661],[-48.28802,-24.27763],[-48.28305,-24.28044],[-48.28097,-24.28191],[-48.27981,-24.28105],[-48.2764,-24.27963],[-48.27507,-24.27888],[-48.2725,-24.27684],[-48.27103,-24.27615],[-48.26803,-24.27605],[-48.26702,-24.27562],[-48.26635,-24.27425],[-48.26565,-24.27381],[-48.26361,-24.27359],[-48.26309,-24.2731],[-48.26234,-24.27088],[-48.26033,-24.27029],[-48.25903,-24.26816],[-48.25745,-24.26688],[-48.25724,-24.26489],[-48.25629,-24.26363],[-48.25598,-24.2624],[-48.25425,-24.26098],[-48.25369,-24.26018],[-48.25308,-24.25819],[-48.25241,-24.25761],[-48.25122,-24.25861],[-48.24897,-24.25979],[-48.24722,-24.26001],[-48.24532,-24.25937],[-48.24395,-24.25936],[-48.24254,-24.25993],[-48.24224,-24.26226],[-48.24138,-24.26312],[-48.23835,-24.26383],[-48.2359,-24.26314],[-48.23342,-24.26343],[-48.23212,-24.26332],[-48.22949,-24.26402],[-48.22829,-24.26371],[-48.22696,-24.26264],[-48.22564,-24.26273],[-48.22348,-24.26377],[-48.22014,-24.26421],[-48.21792,-24.26246],[-48.21649,-24.2623],[-48.21497,-24.26213],[-48.21338,-24.26246],[-48.21124,-24.26209],[-48.21006,-24.26213],[-48.20856,-24.26295],[-48.20637,-24.26336],[-48.20494,-24.26329],[-48.20324,-24.26235],[-48.20154,-24.26236],[-48.20029,-24.26171],[-48.19962,-24.26072],[-48.19935,-24.25903],[-48.19783,-24.25666],[-48.19739,-24.25534],[-48.19557,-24.2545],[-48.19197,-24.25444],[-48.18998,-24.2533],[-48.1886,-24.25204],[-48.18703,-24.25172],[-48.18596,-24.25042],[-48.18466,-24.2495],[-48.18279,-24.249],[-48.18104,-24.24771],[-48.17974,-24.24736],[-48.17776,-24.24733],[-48.17618,-24.24688],[-48.17443,-24.24563],[-48.17293,-24.24558],[-48.17111,-24.24504],[-48.16792,-24.24201],[-48.16723,-24.24051],[-48.16614,-24.23948],[-48.16571,-24.23852],[-48.16169,-24.23692],[-48.15955,-24.23524],[-48.15757,-24.23295],[-48.1563,-24.23242],[-48.15501,-24.2325],[-48.15414,-24.23181],[-48.15385,-24.23095],[-48.15458,-24.22973],[-48.15385,-24.22923],[-48.15297,-24.22963],[-48.15043,-24.22909],[-48.14822,-24.22934],[-48.14817,-24.23063],[-48.14908,-24.2317],[-48.14884,-24.23306],[-48.1468,-24.23283],[-48.14491,-24.2317],[-48.14408,-24.23068],[-48.14362,-24.22945],[-48.14373,-24.22771],[-48.14443,-24.22709],[-48.1462,-24.22677],[-48.14682,-24.22612],[-48.14592,-24.22406],[-48.14433,-24.22223],[-48.14375,-24.22106],[-48.14383,-24.22],[-48.14471,-24.21935],[-48.14492,-24.2184],[-48.14457,-24.21679],[-48.14613,-24.21493],[-48.14633,-24.21382],[-48.14575,-24.21231],[-48.14358,-24.21128],[-48.14046,-24.21114],[-48.13912,-24.21033],[-48.13851,-24.20924],[-48.13859,-24.20771],[-48.14023,-24.2047],[-48.14214,-24.20379],[-48.14347,-24.20037],[-48.14248,-24.1984],[-48.14207,-24.1957],[-48.14126,-24.19452],[-48.13952,-24.19438],[-48.13782,-24.19523],[-48.13515,-24.19449],[-48.13303,-24.19447],[-48.13082,-24.19601],[-48.12894,-24.19657],[-48.12725,-24.1965],[-48.12522,-24.19738],[-48.12436,-24.19742],[-48.12172,-24.19568],[-48.11858,-24.19483],[-48.11683,-24.19555],[-48.11553,-24.19896],[-48.11389,-24.19988],[-48.11079,-24.20002],[-48.10908,-24.20027],[-48.10629,-24.20148],[-48.10349,-24.20182],[-48.10166,-24.2017],[-48.0995,-24.20207],[-48.09787,-24.20196],[-48.09659,-24.20153],[-48.09488,-24.20133],[-48.09399,-24.20074],[-48.09364,-24.19986],[-48.09344,-24.19757],[-48.09274,-24.19674],[-48.09297,-24.19569],[-48.09448,-24.19419],[-48.09392,-24.19346],[-48.09133,-24.19391],[-48.09009,-24.19368],[-48.08797,-24.19379],[-48.0852,-24.1913],[-48.08409,-24.19131],[-48.08303,-24.19312],[-48.08149,-24.19324],[-48.07967,-24.1919],[-48.07597,-24.19054],[-48.07424,-24.18897],[-48.07212,-24.18661],[-48.07098,-24.18588],[-48.06887,-24.18514],[-48.06782,-24.18373],[-48.06673,-24.18318],[-48.06268,-24.18233],[-48.06001,-24.18333],[-48.0597,-24.18288],[-48.0607,-24.18131],[-48.06087,-24.18022],[-48.0602,-24.17903],[-48.05815,-24.17719],[-48.05751,-24.17621],[-48.05776,-24.17547],[-48.05892,-24.17472],[-48.05897,-24.17378],[-48.05754,-24.1726],[-48.05815,-24.17029],[-48.0575,-24.1682],[-48.05771,-24.1668],[-48.05843,-24.16532],[-48.05796,-24.16446],[-48.05695,-24.16364],[-48.05888,-24.16189],[-48.06014,-24.15996],[-48.06014,-24.15913],[-48.05874,-24.15761],[-48.05802,-24.15718],[-48.0544,-24.15775],[-48.05262,-24.15698],[-48.05112,-24.15688],[-48.05059,-24.15629],[-48.05144,-24.15467],[-48.05188,-24.15228],[-48.05328,-24.14993],[-48.05388,-24.14938],[-48.05676,-24.14808],[-48.05728,-24.14739],[-48.05665,-24.14597],[-48.05287,-24.1439],[-48.0516,-24.14257],[-48.05091,-24.14057],[-48.05102,-24.13874],[-48.04935,-24.13762],[-48.0476,-24.13818],[-48.04502,-24.1378],[-48.0417,-24.13816],[-48.03903,-24.13721],[-48.03688,-24.1357],[-48.03585,-24.13544],[-48.0313,-24.13566],[-48.02988,-24.13585],[-48.02899,-24.13542],[-48.0272,-24.13395],[-48.0259,-24.13393],[-48.02544,-24.13468],[-48.02416,-24.13469],[-48.0234,-24.13386],[-48.02338,-24.13207],[-48.02242,-24.13066],[-48.01946,-24.12923],[-48.01741,-24.12865],[-48.01602,-24.12861],[-48.01429,-24.12899],[-48.01331,-24.12955],[-48.01199,-24.13095],[-48.01158,-24.13236],[-48.01164,-24.13351],[-48.01217,-24.13502],[-48.01141,-24.13528],[-48.00981,-24.13508],[-48.00875,-24.1354],[-48.00659,-24.13367],[-48.00596,-24.13284],[-48.00378,-24.13191],[-48.00173,-24.1296],[-48.00072,-24.12899],[-47.99716,-24.12574],[-47.99585,-24.12487],[-47.99282,-24.12372],[-47.9904,-24.12258],[-47.98898,-24.12155],[-47.98792,-24.12024],[-47.98709,-24.11753],[-47.98576,-24.11591],[-47.98386,-24.11528],[-47.98116,-24.11349],[-47.9805,-24.11342],[-47.9792,-24.1142],[-47.97796,-24.11434],[-47.97656,-24.11366],[-47.97504,-24.11364],[-47.97059,-24.11523],[-47.96788,-24.11562],[-47.96593,-24.1152],[-47.96397,-24.11506],[-47.96063,-24.11568],[-47.95779,-24.11537],[-47.95682,-24.11577],[-47.95505,-24.11813],[-47.95313,-24.11983],[-47.95362,-24.11766],[-47.95342,-24.11552],[-47.95362,-24.11364],[-47.95341,-24.11196],[-47.95443,-24.11024],[-47.95622,-24.10892],[-47.95847,-24.11013],[-47.95949,-24.10959],[-47.96153,-24.10928],[-47.96404,-24.10689],[-47.96502,-24.10549],[-47.96511,-24.10413],[-47.96451,-24.10321],[-47.96646,-24.10181],[-47.9693,-24.10078],[-47.9717,-24.0997],[-47.97069,-24.09865],[-47.97057,-24.09562],[-47.97017,-24.09454],[-47.97071,-24.09247],[-47.97011,-24.0918],[-47.97111,-24.09092],[-47.97102,-24.09003],[-47.97268,-24.08819],[-47.97366,-24.0877],[-47.9744,-24.08643],[-47.97403,-24.08508],[-47.97515,-24.08438],[-47.97641,-24.08262],[-47.97622,-24.08121],[-47.97654,-24.07983],[-47.97761,-24.07822],[-47.97948,-24.07726],[-47.97964,-24.07604],[-47.98035,-24.07545],[-47.98162,-24.07533],[-47.98321,-24.0747],[-47.9839,-24.07371],[-47.98593,-24.07277],[-47.98692,-24.072],[-47.98786,-24.0743],[-47.98968,-24.07515],[-47.99133,-24.07174],[-47.99243,-24.07101],[-47.99304,-24.07121],[-47.99317,-24.07229],[-47.99376,-24.07279],[-47.99497,-24.07275],[-47.99606,-24.07354],[-47.99767,-24.07394],[-47.99876,-24.07199],[-47.99838,-24.07089],[-48.00144,-24.06978],[-48.00024,-24.06775],[-48.00018,-24.06633],[-47.99963,-24.06429],[-47.99973,-24.0633],[-48.00042,-24.06279],[-48.0022,-24.06458],[-48.00087,-24.06502],[-48.00091,-24.06553],[-48.00227,-24.06633],[-48.00297,-24.06631],[-48.00472,-24.06698],[-48.00632,-24.06702],[-48.0075,-24.06516],[-48.00656,-24.06328],[-48.01041,-24.06182],[-48.01151,-24.06051],[-48.01263,-24.06048],[-48.01432,-24.05791],[-48.01452,-24.05682],[-48.0155,-24.05626],[-48.01467,-24.05516],[-48.01639,-24.05388],[-48.01785,-24.05331],[-48.0188,-24.05172],[-48.01871,-24.04941],[-48.01923,-24.04905],[-48.02023,-24.05004],[-48.02193,-24.04839],[-48.02283,-24.0483],[-48.02474,-24.04737],[-48.02559,-24.04734],[-48.02634,-24.04901],[-48.02744,-24.04962],[-48.02914,-24.04783],[-48.02945,-24.04693],[-48.03076,-24.04721],[-48.03234,-24.04559],[-48.0325,-24.04379],[-48.0335,-24.04424],[-48.03424,-24.04326],[-48.03349,-24.04173],[-48.03491,-24.04035],[-48.03474,-24.03899],[-48.03563,-24.0365],[-48.03655,-24.03531],[-48.03747,-24.03545],[-48.0383,-24.03748],[-48.03903,-24.03727],[-48.03871,-24.03545],[-48.03955,-24.03359],[-48.04023,-24.03271],[-48.03957,-24.03064],[-48.04171,-24.03015],[-48.04221,-24.029],[-48.04518,-24.02854],[-48.04548,-24.02803],[-48.04509,-24.02676],[-48.04645,-24.0257],[-48.04774,-24.02593],[-48.04929,-24.02429],[-48.0485,-24.02257],[-48.04973,-24.02225],[-48.05135,-24.02361],[-48.05238,-24.02497],[-48.05326,-24.02518],[-48.05509,-24.02413],[-48.0553,-24.02341],[-48.05458,-24.02157],[-48.05484,-24.02039],[-48.05685,-24.01804],[-48.05743,-24.01698],[-48.05917,-24.01668],[-48.05931,-24.01581],[-48.0619,-24.01528],[-48.06197,-24.01413],[-48.06362,-24.01366],[-48.06438,-24.01432],[-48.06619,-24.01465],[-48.06569,-24.01617],[-48.06696,-24.01705],[-48.0665,-24.01778],[-48.06815,-24.01863],[-48.06958,-24.01849],[-48.06943,-24.01713],[-48.07037,-24.01632],[-48.07238,-24.01638],[-48.07549,-24.01553],[-48.07628,-24.01494],[-48.07719,-24.01498],[-48.07692,-24.0127],[-48.07836,-24.01155],[-48.08007,-24.01053],[-48.0806,-24.00936],[-48.0797,-24.00824],[-48.08063,-24.00637],[-48.08156,-24.00595],[-48.08123,-24.00511],[-48.08227,-24.00468],[-48.08232,-24.00405],[-48.08357,-24.00354],[-48.08435,-24.00489],[-48.08554,-24.00566],[-48.08501,-24.00689],[-48.08509,-24.00774],[-48.08772,-24.00873],[-48.08932,-24.00861],[-48.09066,-24.00903],[-48.09176,-24.00988],[-48.09365,-24.01091],[-48.09409,-24.01168],[-48.09363,-24.01337],[-48.09455,-24.01387],[-48.09395,-24.01478],[-48.09562,-24.01574],[-48.09759,-24.0156],[-48.09804,-24.01621],[-48.10008,-24.01672],[-48.10064,-24.01558],[-48.10189,-24.01468],[-48.1033,-24.01307],[-48.10439,-24.01129],[-48.10457,-24.01044],[-48.10659,-24.00984],[-48.10839,-24.01118],[-48.11008,-24.01031],[-48.11071,-24.00946],[-48.11169,-24.00927],[-48.11327,-24.01081],[-48.11295,-24.01195],[-48.11465,-24.01257],[-48.11598,-24.01219],[-48.11753,-24.01243],[-48.11844,-24.01208],[-48.11998,-24.01312],[-48.12041,-24.01449],[-48.12031,-24.01561],[-48.12089,-24.01608],[-48.12261,-24.01444],[-48.12333,-24.01487],[-48.12514,-24.01428],[-48.12512,-24.01058],[-48.12591,-24.00985],[-48.12496,-24.00867],[-48.12371,-24.00642],[-48.12357,-24.00533],[-48.12437,-24.00306],[-48.12582,-24.00143],[-48.12601,-24.00029],[-48.12514,-23.9993],[-48.12246,-23.99728],[-48.12154,-23.99634],[-48.12126,-23.9948],[-48.12075,-23.99384],[-48.12084,-23.99287],[-48.12027,-23.99175],[-48.11768,-23.99007],[-48.11812,-23.98889],[-48.11997,-23.98831],[-48.12082,-23.98732],[-48.12098,-23.98566],[-48.12148,-23.98413],[-48.12253,-23.98292],[-48.12395,-23.98214],[-48.12547,-23.98027],[-48.12663,-23.97936],[-48.12697,-23.97827],[-48.1259,-23.97789],[-48.12475,-23.97689],[-48.12371,-23.97494],[-48.1233,-23.97297],[-48.12211,-23.96951],[-48.12119,-23.96775],[-48.12101,-23.96543],[-48.12156,-23.96389],[-48.1234,-23.96468],[-48.12429,-23.96468],[-48.12597,-23.96347],[-48.12772,-23.96016],[-48.12982,-23.95772],[-48.13003,-23.95673],[-48.12987,-23.95521],[-48.1325,-23.95429],[-48.13565,-23.95405],[-48.13781,-23.95326],[-48.13904,-23.95221],[-48.13976,-23.95107],[-48.13989,-23.95],[-48.13945,-23.94839],[-48.13989,-23.94749],[-48.1424,-23.94574],[-48.14421,-23.94514],[-48.14677,-23.94469],[-48.14759,-23.9442],[-48.14864,-23.94124],[-48.14982,-23.93931],[-48.15073,-23.93887],[-48.15303,-23.93916],[-48.15477,-23.93823],[-48.15528,-23.93748],[-48.15565,-23.93545],[-48.15752,-23.93335],[-48.15935,-23.93235],[-48.16089,-23.92894],[-48.16169,-23.92648],[-48.16567,-23.9236],[-48.16689,-23.92225],[-48.16687,-23.92018],[-48.1663,-23.91751],[-48.16641,-23.91576],[-48.16621,-23.91354],[-48.16694,-23.91097],[-48.16764,-23.90633],[-48.16809,-23.9043],[-48.16773,-23.90257],[-48.16787,-23.90061],[-48.16854,-23.89815],[-48.16988,-23.89569],[-48.17165,-23.89335],[-48.17237,-23.8907],[-48.17296,-23.89013],[-48.17365,-23.89005],[-48.17572,-23.88873],[-48.17653,-23.88903],[-48.17602,-23.89051],[-48.17834,-23.89365],[-48.18026,-23.89566],[-48.18087,-23.89577],[-48.18229,-23.8952],[-48.18329,-23.89434],[-48.18208,-23.89217],[-48.18287,-23.88914],[-48.1841,-23.88717],[-48.18518,-23.88642],[-48.18727,-23.88657],[-48.1885,-23.88705],[-48.19071,-23.8873],[-48.19157,-23.88635],[-48.19129,-23.88488],[-48.19037,-23.8837],[-48.18913,-23.88334],[-48.18894,-23.88257],[-48.18969,-23.88167],[-48.18978,-23.88],[-48.1894,-23.87863],[-48.18846,-23.87673],[-48.18469,-23.87293],[-48.1832,-23.87359],[-48.18302,-23.87298],[-48.18184,-23.87284],[-48.18265,-23.87153],[-48.18365,-23.87171],[-48.18406,-23.87068],[-48.18211,-23.86993],[-48.18306,-23.86802],[-48.1833,-23.86639],[-48.18411,-23.86568],[-48.18408,-23.86448],[-48.18509,-23.86308],[-48.18678,-23.863],[-48.18749,-23.86235],[-48.18915,-23.86186],[-48.18873,-23.8606],[-48.19042,-23.85978],[-48.18924,-23.85898],[-48.18843,-23.85672],[-48.18908,-23.85519],[-48.19044,-23.85527],[-48.19065,-23.85375],[-48.19258,-23.85317],[-48.19451,-23.85313],[-48.19511,-23.85162],[-48.19655,-23.85178],[-48.1981,-23.85246],[-48.19961,-23.85229],[-48.20128,-23.85257],[-48.20145,-23.85161],[-48.20272,-23.85165],[-48.2049,-23.85054],[-48.20721,-23.85071],[-48.20746,-23.84951],[-48.20824,-23.85048],[-48.20916,-23.85064],[-48.20933,-23.85219],[-48.21082,-23.85366],[-48.2116,-23.85305],[-48.21093,-23.85109],[-48.21204,-23.85078],[-48.21302,-23.85141],[-48.21681,-23.85277],[-48.21783,-23.85285],[-48.21882,-23.85235],[-48.21855,-23.85059],[-48.21945,-23.84928],[-48.22045,-23.84932],[-48.22123,-23.85032],[-48.22255,-23.85096],[-48.2241,-23.8511],[-48.22588,-23.85073],[-48.22805,-23.85081],[-48.22918,-23.8495],[-48.23031,-23.84946],[-48.23116,-23.84887],[-48.23153,-23.84999],[-48.2329,-23.85043],[-48.23155,-23.85257],[-48.23154,-23.85344],[-48.23278,-23.85306],[-48.23347,-23.85183],[-48.2372,-23.85233],[-48.23764,-23.8535],[-48.23713,-23.85505],[-48.23746,-23.85657],[-48.2403,-23.86138],[-48.24434,-23.86045],[-48.24582,-23.85985],[-48.24867,-23.85965],[-48.25179,-23.86051],[-48.25322,-23.85997],[-48.25367,-23.85779],[-48.25371,-23.85629],[-48.25419,-23.85565],[-48.25774,-23.85353],[-48.25933,-23.85316],[-48.26009,-23.85222],[-48.26152,-23.85229],[-48.26231,-23.8533],[-48.26296,-23.85177],[-48.26447,-23.85116],[-48.26569,-23.85238],[-48.26565,-23.8533],[-48.26493,-23.85472],[-48.26487,-23.85581],[-48.26562,-23.85656],[-48.26828,-23.8569],[-48.26996,-23.85636],[-48.27159,-23.85413],[-48.27173,-23.85313],[-48.27097,-23.85182],[-48.27532,-23.84883],[-48.27736,-23.84696],[-48.27766,-23.84589],[-48.2769,-23.84442],[-48.27652,-23.84251],[-48.27682,-23.84038],[-48.2798,-23.83909],[-48.28092,-23.838],[-48.28225,-23.83542],[-48.28375,-23.83464],[-48.28754,-23.83486],[-48.28827,-23.83402],[-48.28717,-23.83358],[-48.287,-23.83295],[-48.28804,-23.83248],[-48.28914,-23.83149],[-48.29044,-23.83298],[-48.29139,-23.83323],[-48.29273,-23.83417],[-48.29404,-23.83378],[-48.29543,-23.83173],[-48.29548,-23.82955],[-48.2946,-23.82637],[-48.29501,-23.82567],[-48.29612,-23.82513],[-48.29691,-23.82559],[-48.29703,-23.82639],[-48.29808,-23.82667],[-48.29988,-23.82836],[-48.30276,-23.82989],[-48.3041,-23.83137],[-48.30479,-23.83057],[-48.30709,-23.83159],[-48.30807,-23.83271],[-48.30838,-23.83406],[-48.30914,-23.8347],[-48.31222,-23.83439],[-48.31345,-23.83496],[-48.31494,-23.83424],[-48.31484,-23.83279],[-48.31607,-23.83256],[-48.31665,-23.83173],[-48.31533,-23.83064],[-48.31656,-23.82952],[-48.31769,-23.82929],[-48.31909,-23.82974],[-48.32196,-23.83201],[-48.32236,-23.83264],[-48.32207,-23.83374],[-48.32137,-23.83439],[-48.31867,-23.83568],[-48.31801,-23.83629],[-48.31754,-23.83757],[-48.31776,-23.84031],[-48.31589,-23.84279],[-48.31554,-23.84469],[-48.31633,-23.84586],[-48.31681,-23.84742],[-48.31809,-23.8492],[-48.31837,-23.85074],[-48.31923,-23.85102],[-48.32096,-23.84904],[-48.32234,-23.84869],[-48.32319,-23.84975],[-48.32324,-23.85096],[-48.32169,-23.85372],[-48.32217,-23.85466],[-48.32304,-23.85511],[-48.32488,-23.85494],[-48.32662,-23.85327],[-48.32757,-23.85192],[-48.32894,-23.85073],[-48.32979,-23.85041],[-48.3323,-23.85048],[-48.33432,-23.851],[-48.33609,-23.85223],[-48.33848,-23.85438],[-48.33958,-23.85481],[-48.34094,-23.85466],[-48.34321,-23.85317],[-48.34348,-23.85183],[-48.34275,-23.85041],[-48.34146,-23.84867],[-48.33986,-23.84693],[-48.33842,-23.84567],[-48.33601,-23.84392],[-48.33416,-23.84294],[-48.33164,-23.84193],[-48.33111,-23.84113],[-48.33152,-23.84057],[-48.33345,-23.83931],[-48.33642,-23.83682],[-48.33959,-23.8347],[-48.34293,-23.83197],[-48.34435,-23.83103],[-48.34608,-23.83056],[-48.34906,-23.83114],[-48.34873,-23.83176],[-48.34911,-23.83288],[-48.34909,-23.83514],[-48.35011,-23.83707],[-48.35307,-23.83926],[-48.35564,-23.84175],[-48.35749,-23.84231],[-48.35808,-23.84385],[-48.35995,-23.84384],[-48.36437,-23.84531],[-48.36968,-23.84869],[-48.37233,-23.84998],[-48.3738,-23.85109],[-48.37556,-23.85297],[-48.37712,-23.85517],[-48.37946,-23.85735],[-48.38218,-23.85899],[-48.38478,-23.86008],[-48.38623,-23.86032],[-48.38715,-23.86094],[-48.3879,-23.86069],[-48.3924,-23.86095],[-48.39455,-23.86185],[-48.39582,-23.86344],[-48.3987,-23.86298],[-48.40126,-23.86296],[-48.40205,-23.86137],[-48.40289,-23.86126],[-48.40309,-23.86312],[-48.40069,-23.86652],[-48.40084,-23.86714],[-48.40257,-23.86795],[-48.40627,-23.87004],[-48.40776,-23.87142],[-48.40894,-23.87203],[-48.41147,-23.87234],[-48.41245,-23.87275],[-48.4146,-23.87435],[-48.41704,-23.87544],[-48.41938,-23.8774],[-48.42023,-23.8786],[-48.42264,-23.88377],[-48.42408,-23.8853],[-48.42522,-23.88585],[-48.4268,-23.88721],[-48.42864,-23.88811],[-48.43148,-23.89022],[-48.43138,-23.8925],[-48.45268,-23.89303],[-48.46127,-23.88963],[-48.46478,-23.88852],[-48.46597,-23.88842],[-48.46948,-23.88859],[-48.47208,-23.88925],[-48.47523,-23.89037],[-48.49937,-23.90438],[-48.55166,-23.93469]]]},"properties":{"codigo":"351020305","name":"Capão Bonito","population":45839,"households":19163,"areaKm2":1586.117,"density":28.9}},{"type":"Feature","geometry":{"type":"Polygon","coordinates":[[[-48.55566,-24.02357],[-48.55693,-24.02519],[-48.55865,-24.02519],[-48.55914,-24.02448],[-48.56131,-24.02332],[-48.56204,-24.02366],[-48.56408,-24.02373],[-48.56464,-24.0245],[-48.56633,-24.0245],[-48.56773,-24.02504],[-48.56882,-24.02732],[-48.56999,-24.02721],[-48.5715,-24.02648],[-48.57271,-24.02435],[-48.57411,-24.02462],[-48.57417,-24.02551],[-48.57311,-24.02677],[-48.5726,-24.0282],[-48.57043,-24.02966],[-48.56856,-24.03054],[-48.56937,-24.03213],[-48.56968,-24.03609],[-48.57057,-24.0372],[-48.56998,-24.03899],[-48.56893,-24.03934],[-48.56847,-24.04008],[-48.56881,-24.04097],[-48.57035,-24.04274],[-48.57025,-24.04415],[-48.57063,-24.04612],[-48.57016,-24.04734],[-48.57061,-24.04815],[-48.57256,-24.04846],[-48.5737,-24.04774],[-48.5735,-24.04686],[-48.5727,-24.04624],[-48.57443,-24.04562],[-48.57604,-24.0444],[-48.5777,-24.04264],[-48.57856,-24.04273],[-48.57928,-24.04579],[-48.58152,-24.04615],[-48.58263,-24.04847],[-48.58261,-24.05011],[-48.58148,-24.05061],[-48.58176,-24.05195],[-48.58047,-24.05389],[-48.58072,-24.05676],[-48.579,-24.05804],[-48.57742,-24.05689],[-48.57486,-24.05686],[-48.57344,-24.05762],[-48.57342,-24.05932],[-48.57373,-24.06098],[-48.57505,-24.06093],[-48.57622,-24.0619],[-48.57506,-24.06284],[-48.5749,-24.06459],[-48.57555,-24.06573],[-48.57457,-24.06622],[-48.57463,-24.06759],[-48.57424,-24.06904],[-48.57569,-24.0697],[-48.57384,-24.07146],[-48.57464,-24.0728],[-48.57534,-24.07607],[-48.57453,-24.07738],[-48.57174,-24.07744],[-48.57202,-24.07846],[-48.5712,-24.07926],[-48.5703,-24.08078],[-48.57059,-24.0831],[-48.56893,-24.08404],[-48.56886,-24.08587],[-48.5693,-24.08632],[-48.57067,-24.08651],[-48.56968,-24.08762],[-48.56991,-24.08959],[-48.56935,-24.09061],[-48.56788,-24.09087],[-48.5668,-24.09151],[-48.56577,-24.09154],[-48.56498,-24.09258],[-48.56503,-24.09361],[-48.56382,-24.09386],[-48.56389,-24.09537],[-48.56259,-24.09519],[-48.56022,-24.09553],[-48.56073,-24.09763],[-48.55905,-24.09992],[-48.55716,-24.09974],[-48.55602,-24.10121],[-48.55502,-24.10185],[-48.55329,-24.10211],[-48.55242,-24.10322],[-48.55154,-24.10316],[-48.55115,-24.10443],[-48.55173,-24.10572],[-48.55072,-24.10605],[-48.54939,-24.10553],[-48.5481,-24.10718],[-48.54793,-24.108],[-48.54623,-24.10851],[-48.54648,-24.11057],[-48.54604,-24.1121],[-48.54717,-24.11374],[-48.54743,-24.11479],[-48.54638,-24.11578],[-48.54421,-24.1166],[-48.54189,-24.11917],[-48.53969,-24.11944],[-48.53897,-24.11983],[-48.53644,-24.11873],[-48.53567,-24.1197],[-48.53326,-24.1194],[-48.53034,-24.12145],[-48.52996,-24.12274],[-48.53014,-24.12453],[-48.52845,-24.12685],[-48.5289,-24.12799],[-48.53164,-24.12788],[-48.53156,-24.12861],[-48.53034,-24.12863],[-48.52875,-24.12953],[-48.52932,-24.13085],[-48.52916,-24.13183],[-48.52805,-24.13198],[-48.52771,-24.13255],[-48.52785,-24.13427],[-48.5268,-24.13472],[-48.52623,-24.1355],[-48.52471,-24.13606],[-48.52421,-24.13703],[-48.52328,-24.13774],[-48.52225,-24.13799],[-48.52081,-24.13728],[-48.52023,-24.13773],[-48.52065,-24.13954],[-48.52015,-24.13999],[-48.51889,-24.13958],[-48.51642,-24.13973],[-48.51417,-24.138],[-48.51347,-24.137],[-48.51335,-24.1351],[-48.50283,-24.12755],[-48.50638,-24.12431],[-48.50824,-24.12365],[-48.52299,-24.11345],[-48.52237,-24.1121],[-48.52083,-24.1118],[-48.52021,-24.11068],[-48.51791,-24.10845],[-48.51596,-24.10603],[-48.51428,-24.10472],[-48.5129,-24.10407],[-48.51234,-24.10298],[-48.51064,-24.10119],[-48.51073,-24.09937],[-48.5104,-24.09819],[-48.51068,-24.07957],[-48.51015,-24.0773],[-48.51043,-24.07541],[-48.51042,-24.07334],[-48.50988,-24.07164],[-48.50978,-24.07038],[-48.5105,-24.06552],[-48.51039,-24.06341],[-48.50981,-24.06159],[-48.51033,-24.061],[-48.51164,-24.06067],[-48.51467,-24.06097],[-48.51674,-24.05939],[-48.51928,-24.05821],[-48.5227,-24.05763],[-48.52364,-24.05691],[-48.52344,-24.05213],[-48.52384,-24.05036],[-48.52332,-24.04862],[-48.52391,-24.04677],[-48.52606,-24.0456],[-48.52668,-24.04431],[-48.52854,-24.04301],[-48.52976,-24.04292],[-48.5324,-24.04404],[-48.53442,-24.04288],[-48.53631,-24.04231],[-48.53817,-24.04095],[-48.5395,-24.03867],[-48.53994,-24.03754],[-48.54146,-24.03648],[-48.54185,-24.03534],[-48.54314,-24.03511],[-48.54376,-24.03439],[-48.54518,-24.03372],[-48.54621,-24.03168],[-48.54693,-24.03112],[-48.54741,-24.03003],[-48.54809,-24.02687],[-48.54913,-24.02518],[-48.54846,-24.02346],[-48.55566,-24.02357]]]},"properties":{"codigo":"351020308","name":"Apiaí-Mirim","population":498,"households":317,"areaKm2":54.1123,"density":9.2}}]}