{"type":"FeatureCollection","features":[{"type":"Feature","geometry":{"type":"Polygon","coordinates":[[[-46.4233,-23.91235],[-46.42299,-23.91286],[-46.42293,-23.914],[-46.4239,-23.91425],[-46.42403,-23.91469],[-46.42372,-23.91725],[-46.42482,-23.91826],[-46.42603,-23.91768],[-46.4284,-23.91716],[-46.42983,-23.91771],[-46.43015,-23.91814],[-46.43118,-23.91862],[-46.43217,-23.918],[-46.43272,-23.91726],[-46.43345,-23.91681],[-46.43415,-23.91696],[-46.43585,-23.91846],[-46.43678,-23.91908],[-46.43785,-23.91909],[-46.43478,-23.92292],[-46.43379,-23.92384],[-46.43255,-23.92451],[-46.43153,-23.92471],[-46.43077,-23.92471],[-46.42903,-23.92449],[-46.42525,-23.92323],[-46.42141,-23.92208],[-46.4191,-23.92138],[-46.41804,-23.92063],[-46.41625,-23.91878],[-46.4157,-23.91861],[-46.41882,-23.91643],[-46.42027,-23.91521],[-46.42124,-23.91421],[-46.42279,-23.91219],[-46.4233,-23.91235]]]},"properties":{"codigo":"3513504011","name":"Jardim Nova República","population":14053,"households":5048,"areaKm2":1.3789,"density":10191.5}},{"type":"Feature","geometry":{"type":"Polygon","coordinates":[[[-46.48769,-23.88456],[-46.48845,-23.88542],[-46.48945,-23.8873],[-46.49019,-23.88823],[-46.49227,-23.88999],[-46.49277,-23.89077],[-46.493,-23.89192],[-46.49286,-23.89316],[-46.49298,-23.8956],[-46.49326,-23.89621],[-46.4946,-23.89781],[-46.49615,-23.89913],[-46.49621,-23.89956],[-46.49386,-23.90032],[-46.49262,-23.90012],[-46.49235,-23.90034],[-46.49258,-23.90111],[-46.49313,-23.90212],[-46.49328,-23.90562],[-46.49284,-23.90644],[-46.48995,-23.90891],[-46.4868,-23.91111],[-46.48621,-23.91168],[-46.48457,-23.91149],[-46.48322,-23.91104],[-46.48145,-23.90864],[-46.48101,-23.90818],[-46.47953,-23.90745],[-46.47803,-23.90617],[-46.47691,-23.90544],[-46.47604,-23.9047],[-46.47407,-23.90379],[-46.47292,-23.90302],[-46.47142,-23.90173],[-46.47045,-23.9012],[-46.46866,-23.90105],[-46.46732,-23.90142],[-46.46628,-23.90122],[-46.46536,-23.90077],[-46.46325,-23.89898],[-46.46251,-23.89812],[-46.46115,-23.89746],[-46.46351,-23.8954],[-46.46306,-23.89489],[-46.4632,-23.89245],[-46.46209,-23.89141],[-46.46121,-23.89084],[-46.46026,-23.88968],[-46.45955,-23.88902],[-46.45823,-23.88835],[-46.45686,-23.88792],[-46.45484,-23.88607],[-46.45562,-23.88579],[-46.45654,-23.8858],[-46.45919,-23.88608],[-46.46056,-23.88642],[-46.46155,-23.88715],[-46.46358,-23.88678],[-46.46263,-23.88344],[-46.46054,-23.88104],[-46.46142,-23.88087],[-46.46201,-23.88033],[-46.46043,-23.87874],[-46.45961,-23.87822],[-46.45892,-23.87849],[-46.45822,-23.87921],[-46.45713,-23.87888],[-46.45736,-23.87763],[-46.45718,-23.87656],[-46.45653,-23.87649],[-46.45637,-23.87549],[-46.45704,-23.87412],[-46.45702,-23.87341],[-46.45675,-23.87318],[-46.45606,-23.87331],[-46.45557,-23.87404],[-46.45491,-23.87446],[-46.45396,-23.87434],[-46.45255,-23.87351],[-46.45049,-23.87318],[-46.45056,-23.87273],[-46.45005,-23.8724],[-46.45,-23.87193],[-46.44915,-23.87118],[-46.44962,-23.87033],[-46.44928,-23.86968],[-46.44879,-23.86969],[-46.44811,-23.87006],[-46.44695,-23.87042],[-46.44581,-23.87025],[-46.4457,-23.86969],[-46.44601,-23.86905],[-46.44586,-23.86853],[-46.44465,-23.86863],[-46.4436,-23.86892],[-46.44348,-23.86711],[-46.4428,-23.86639],[-46.4419,-23.86612],[-46.44121,-23.86572],[-46.44001,-23.86442],[-46.44146,-23.86413],[-46.44266,-23.86413],[-46.44344,-23.86354],[-46.44224,-23.86287],[-46.44124,-23.86355],[-46.44092,-23.86278],[-46.4398,-23.863],[-46.4394,-23.86279],[-46.43896,-23.86194],[-46.4385,-23.86222],[-46.43795,-23.86291],[-46.4374,-23.86319],[-46.43578,-23.86295],[-46.43585,-23.86277],[-46.43715,-23.86273],[-46.43762,-23.86256],[-46.43786,-23.862],[-46.43757,-23.86089],[-46.43825,-23.8604],[-46.43846,-23.85973],[-46.43917,-23.8593],[-46.44035,-23.85965],[-46.44105,-23.85926],[-46.44122,-23.85893],[-46.44228,-23.85872],[-46.44267,-23.85812],[-46.44409,-23.85754],[-46.44595,-23.85762],[-46.4463,-23.85837],[-46.44663,-23.85816],[-46.4466,-23.85732],[-46.44697,-23.85717],[-46.44764,-23.85783],[-46.44845,-23.85787],[-46.44851,-23.85836],[-46.44931,-23.8583],[-46.44966,-23.85966],[-46.45103,-23.85973],[-46.45077,-23.86033],[-46.44985,-23.8608],[-46.44834,-23.86099],[-46.44759,-23.86174],[-46.44769,-23.8627],[-46.44889,-23.86327],[-46.4498,-23.8632],[-46.45036,-23.86357],[-46.44986,-23.86512],[-46.45006,-23.86572],[-46.4508,-23.86573],[-46.45278,-23.86626],[-46.45303,-23.86705],[-46.45355,-23.86772],[-46.45348,-23.86901],[-46.45378,-23.86961],[-46.45434,-23.86999],[-46.4551,-23.87003],[-46.45601,-23.86983],[-46.45772,-23.87014],[-46.45852,-23.87014],[-46.45938,-23.87043],[-46.46049,-23.86928],[-46.46724,-23.86781],[-46.46729,-23.86927],[-46.46772,-23.87069],[-46.46811,-23.87113],[-46.46878,-23.8714],[-46.46938,-23.87293],[-46.46995,-23.87339],[-46.47085,-23.8733],[-46.47176,-23.87424],[-46.47262,-23.87448],[-46.47297,-23.87477],[-46.47342,-23.87597],[-46.47434,-23.8766],[-46.47443,-23.87778],[-46.47485,-23.87851],[-46.47589,-23.87912],[-46.47701,-23.87938],[-46.47781,-23.87914],[-46.47927,-23.88135],[-46.48017,-23.88215],[-46.4813,-23.88419],[-46.48203,-23.88519],[-46.48287,-23.88584],[-46.48377,-23.88595],[-46.48444,-23.88567],[-46.48458,-23.88507],[-46.4836,-23.88436],[-46.48368,-23.88394],[-46.48525,-23.88345],[-46.48582,-23.8835],[-46.48769,-23.88456]],[[-46.48018,-23.89186],[-46.47908,-23.89093],[-46.47674,-23.89124],[-46.47685,-23.89072],[-46.47576,-23.88968],[-46.47459,-23.88938],[-46.4736,-23.88956],[-46.47313,-23.88992],[-46.47201,-23.88982],[-46.47179,-23.88844],[-46.4713,-23.88792],[-46.46982,-23.88922],[-46.46938,-23.88949],[-46.46946,-23.89019],[-46.46888,-23.89026],[-46.46895,-23.89112],[-46.46922,-23.89165],[-46.47005,-23.89214],[-46.47266,-23.89331],[-46.47226,-23.8935],[-46.47194,-23.8941],[-46.47257,-23.89516],[-46.47369,-23.89507],[-46.47378,-23.89414],[-46.47605,-23.89417],[-46.47701,-23.89448],[-46.478,-23.89455],[-46.47811,-23.89376],[-46.47888,-23.89298],[-46.48018,-23.89186]]]},"properties":{"codigo":"3513504023","name":"Serra Pilões-Zanzalá","population":19,"households":11,"areaKm2":11.1478,"density":1.7}},{"type":"Feature","geometry":{"type":"Polygon","coordinates":[[[-46.44348,-23.86711],[-46.44127,-23.8682],[-46.44172,-23.8695],[-46.44007,-23.87003],[-46.4402,-23.8715],[-46.44074,-23.87153],[-46.44179,-23.8747],[-46.44184,-23.87511],[-46.44349,-23.87494],[-46.44468,-23.87516],[-46.44541,-23.87547],[-46.44599,-23.87598],[-46.44688,-23.87726],[-46.44743,-23.87777],[-46.44695,-23.87848],[-46.44671,-23.87916],[-46.4469,-23.87996],[-46.44658,-23.88084],[-46.44731,-23.88077],[-46.44789,-23.88103],[-46.44853,-23.88163],[-46.44952,-23.88231],[-46.45011,-23.88294],[-46.45203,-23.88413],[-46.45289,-23.8848],[-46.45306,-23.88504],[-46.45118,-23.88744],[-46.45133,-23.88773],[-46.45076,-23.88849],[-46.45003,-23.8883],[-46.44968,-23.88864],[-46.44914,-23.88809],[-46.448,-23.88736],[-46.44582,-23.88657],[-46.44519,-23.8867],[-46.44407,-23.88726],[-46.4426,-23.88868],[-46.44131,-23.88956],[-46.44171,-23.89074],[-46.44154,-23.89133],[-46.44108,-23.89192],[-46.44061,-23.89219],[-46.43668,-23.89316],[-46.43537,-23.89388],[-46.43475,-23.89487],[-46.43432,-23.89463],[-46.43309,-23.89561],[-46.4326,-23.89535],[-46.43445,-23.89342],[-46.43586,-23.89206],[-46.43543,-23.89116],[-46.43259,-23.88828],[-46.43221,-23.88784],[-46.43064,-23.88616],[-46.42964,-23.88566],[-46.42863,-23.88461],[-46.42669,-23.88035],[-46.4287,-23.87967],[-46.42793,-23.87899],[-46.42736,-23.87804],[-46.4275,-23.87778],[-46.42661,-23.87691],[-46.42657,-23.87646],[-46.42603,-23.87576],[-46.42512,-23.87681],[-46.42399,-23.87431],[-46.42331,-23.87321],[-46.41815,-23.86681],[-46.41839,-23.86614],[-46.41898,-23.86616],[-46.41888,-23.86175],[-46.41926,-23.86159],[-46.42182,-23.86158],[-46.42194,-23.86179],[-46.42353,-23.8617],[-46.42368,-23.86226],[-46.425,-23.86206],[-46.42531,-23.86215],[-46.42599,-23.86323],[-46.42647,-23.86374],[-46.42746,-23.86446],[-46.42852,-23.86468],[-46.42891,-23.86459],[-46.42936,-23.86399],[-46.43023,-23.86348],[-46.43146,-23.86318],[-46.43218,-23.86362],[-46.43255,-23.86326],[-46.43331,-23.86366],[-46.43357,-23.86319],[-46.4349,-23.86296],[-46.43539,-23.8632],[-46.43578,-23.86295],[-46.4374,-23.86319],[-46.43795,-23.86291],[-46.4385,-23.86222],[-46.43896,-23.86194],[-46.4394,-23.86279],[-46.4398,-23.863],[-46.44092,-23.86278],[-46.44124,-23.86355],[-46.44224,-23.86287],[-46.44344,-23.86354],[-46.44266,-23.86413],[-46.44146,-23.86413],[-46.44001,-23.86442],[-46.44121,-23.86572],[-46.4419,-23.86612],[-46.4428,-23.86639],[-46.44348,-23.86711]]]},"properties":{"codigo":"3513504039","name":"Cruzeiro Quinhentista","population":403,"households":184,"areaKm2":6.3064,"density":63.9}},{"type":"Feature","geometry":{"type":"Polygon","coordinates":[[[-46.43475,-23.89487],[-46.43466,-23.89607],[-46.43484,-23.89657],[-46.43547,-23.89744],[-46.43639,-23.898],[-46.4373,-23.8982],[-46.43881,-23.89805],[-46.43892,-23.89838],[-46.43787,-23.89859],[-46.43746,-23.89887],[-46.43714,-23.89967],[-46.43766,-23.89966],[-46.43774,-23.90011],[-46.43856,-23.90169],[-46.43825,-23.9032],[-46.43815,-23.90355],[-46.43731,-23.90412],[-46.43557,-23.90341],[-46.43473,-23.90295],[-46.43404,-23.90281],[-46.43392,-23.90234],[-46.43312,-23.9016],[-46.43243,-23.90143],[-46.4312,-23.90181],[-46.43045,-23.90174],[-46.4282,-23.90099],[-46.42751,-23.90065],[-46.42869,-23.89917],[-46.43039,-23.89762],[-46.4326,-23.89535],[-46.43309,-23.89561],[-46.43432,-23.89463],[-46.43475,-23.89487]]]},"properties":{"codigo":"3513504009","name":"Vila Natal","population":8081,"households":3078,"areaKm2":0.5884,"density":13733}},{"type":"Feature","geometry":{"type":"Polygon","coordinates":[[[-46.40249,-23.84165],[-46.40237,-23.84116],[-46.40289,-23.84073],[-46.40303,-23.83788],[-46.4039,-23.83844],[-46.40541,-23.83907],[-46.40721,-23.84032],[-46.40791,-23.8406],[-46.40727,-23.8387],[-46.40764,-23.83828],[-46.40785,-23.83718],[-46.40745,-23.83663],[-46.40755,-23.83591],[-46.40713,-23.83571],[-46.40674,-23.83467],[-46.40695,-23.83396],[-46.40802,-23.83381],[-46.40845,-23.83307],[-46.40995,-23.83409],[-46.41137,-23.83374],[-46.41194,-23.83443],[-46.41284,-23.8346],[-46.41391,-23.83395],[-46.41428,-23.83415],[-46.41451,-23.83512],[-46.41715,-23.83482],[-46.41776,-23.8352],[-46.41822,-23.83504],[-46.41836,-23.83566],[-46.41888,-23.8363],[-46.42005,-23.83669],[-46.42076,-23.83749],[-46.42143,-23.83786],[-46.42234,-23.83746],[-46.42251,-23.83688],[-46.42291,-23.83674],[-46.42331,-23.83751],[-46.42406,-23.83792],[-46.42163,-23.83914],[-46.42174,-23.84038],[-46.41986,-23.84051],[-46.41766,-23.83948],[-46.4172,-23.83883],[-46.41632,-23.83937],[-46.41548,-23.8391],[-46.41524,-23.83863],[-46.41385,-23.83871],[-46.41242,-23.83799],[-46.41199,-23.83803],[-46.41232,-23.839],[-46.41209,-23.83973],[-46.41144,-23.84003],[-46.41151,-23.84077],[-46.41149,-23.8428],[-46.41169,-23.84336],[-46.41241,-23.84408],[-46.41244,-23.84482],[-46.41187,-23.84561],[-46.41187,-23.84591],[-46.41316,-23.84617],[-46.41412,-23.84689],[-46.41417,-23.84736],[-46.41298,-23.84772],[-46.41279,-23.84796],[-46.41363,-23.84876],[-46.41465,-23.85046],[-46.41464,-23.85092],[-46.41379,-23.85096],[-46.41211,-23.85062],[-46.41159,-23.85037],[-46.41073,-23.84968],[-46.41016,-23.85042],[-46.40962,-23.85051],[-46.40927,-23.84884],[-46.40909,-23.8487],[-46.40787,-23.84931],[-46.40735,-23.84942],[-46.40689,-23.84887],[-46.40702,-23.84775],[-46.40631,-23.84769],[-46.40592,-23.84703],[-46.40507,-23.84633],[-46.40527,-23.84568],[-46.40455,-23.84541],[-46.40358,-23.84417],[-46.40292,-23.84292],[-46.40249,-23.84165]]]},"properties":{"codigo":"3513504025","name":"Parque Perequê","population":null,"households":null,"areaKm2":1.7264,"density":null}},{"type":"Feature","geometry":{"type":"Polygon","coordinates":[[[-46.46085,-23.90369],[-46.46357,-23.90227],[-46.46396,-23.90269],[-46.46405,-23.90331],[-46.46443,-23.90398],[-46.46536,-23.90398],[-46.46582,-23.90475],[-46.46628,-23.90606],[-46.46615,-23.90649],[-46.46546,-23.90724],[-46.46544,-23.90837],[-46.46671,-23.90846],[-46.4675,-23.908],[-46.46799,-23.90833],[-46.46798,-23.9093],[-46.46817,-23.90964],[-46.4693,-23.90969],[-46.46923,-23.91027],[-46.46987,-23.91068],[-46.47063,-23.91171],[-46.47039,-23.91287],[-46.47127,-23.9138],[-46.47129,-23.91423],[-46.47056,-23.91536],[-46.47032,-23.91609],[-46.46928,-23.9167],[-46.46915,-23.91699],[-46.46777,-23.91651],[-46.46844,-23.91577],[-46.46919,-23.91596],[-46.46983,-23.91588],[-46.46972,-23.91518],[-46.46891,-23.91441],[-46.46838,-23.91367],[-46.46809,-23.9126],[-46.46807,-23.912],[-46.4677,-23.9117],[-46.4666,-23.91139],[-46.46243,-23.91],[-46.46276,-23.90877],[-46.46267,-23.90715],[-46.46249,-23.90624],[-46.46181,-23.90472],[-46.46085,-23.90369]]]},"properties":{"codigo":"3513504038","name":"Mãe Maria","population":7,"households":4,"areaKm2":0.5251,"density":13.3}},{"type":"Feature","geometry":{"type":"Polygon","coordinates":[[[-46.48018,-23.89186],[-46.47888,-23.89298],[-46.47811,-23.89376],[-46.478,-23.89455],[-46.47701,-23.89448],[-46.47605,-23.89417],[-46.47378,-23.89414],[-46.47369,-23.89507],[-46.47257,-23.89516],[-46.47194,-23.8941],[-46.47226,-23.8935],[-46.47266,-23.89331],[-46.47005,-23.89214],[-46.46922,-23.89165],[-46.46895,-23.89112],[-46.46888,-23.89026],[-46.46946,-23.89019],[-46.46938,-23.88949],[-46.46982,-23.88922],[-46.4713,-23.88792],[-46.47179,-23.88844],[-46.47201,-23.88982],[-46.47313,-23.88992],[-46.4736,-23.88956],[-46.47459,-23.88938],[-46.47576,-23.88968],[-46.47685,-23.89072],[-46.47674,-23.89124],[-46.47908,-23.89093],[-46.48018,-23.89186]]]},"properties":{"codigo":"3513504019","name":"Cota 200","population":1812,"households":681,"areaKm2":0.4603,"density":3936.9}},{"type":"Feature","geometry":{"type":"Polygon","coordinates":[[[-46.46115,-23.89746],[-46.46071,-23.89676],[-46.45981,-23.89609],[-46.45913,-23.89524],[-46.45947,-23.89498],[-46.4581,-23.89325],[-46.45624,-23.89148],[-46.4558,-23.89181],[-46.45442,-23.8916],[-46.45416,-23.89312],[-46.45215,-23.89162],[-46.44993,-23.89035],[-46.44886,-23.88956],[-46.44968,-23.88864],[-46.45003,-23.8883],[-46.45076,-23.88849],[-46.45133,-23.88773],[-46.45118,-23.88744],[-46.45306,-23.88504],[-46.45289,-23.8848],[-46.45303,-23.88448],[-46.4535,-23.88481],[-46.45449,-23.88639],[-46.45484,-23.88607],[-46.45686,-23.88792],[-46.45823,-23.88835],[-46.45955,-23.88902],[-46.46026,-23.88968],[-46.46121,-23.89084],[-46.46209,-23.89141],[-46.4632,-23.89245],[-46.46306,-23.89489],[-46.46351,-23.8954],[-46.46115,-23.89746]]]},"properties":{"codigo":"3513504020","name":"Itutinga-Pilões","population":2467,"households":1030,"areaKm2":0.8007,"density":3080.9}},{"type":"Feature","geometry":{"type":"Polygon","coordinates":[[[-46.41815,-23.86681],[-46.41776,-23.8679],[-46.41664,-23.86924],[-46.41487,-23.87077],[-46.41422,-23.87175],[-46.41357,-23.87327],[-46.41335,-23.87421],[-46.41279,-23.87493],[-46.41162,-23.87777],[-46.41156,-23.87891],[-46.41172,-23.88042],[-46.41146,-23.88095],[-46.41064,-23.88177],[-46.4104,-23.88159],[-46.4097,-23.88222],[-46.40835,-23.88295],[-46.40643,-23.8833],[-46.40477,-23.88326],[-46.40455,-23.88265],[-46.40509,-23.88154],[-46.40554,-23.88098],[-46.40648,-23.8802],[-46.40656,-23.87966],[-46.40612,-23.87891],[-46.40669,-23.87816],[-46.40741,-23.87817],[-46.40833,-23.87787],[-46.40971,-23.87686],[-46.41023,-23.87563],[-46.41113,-23.87436],[-46.41004,-23.87171],[-46.41077,-23.87041],[-46.4103,-23.86936],[-46.41054,-23.86689],[-46.41138,-23.86681],[-46.41303,-23.8677],[-46.41447,-23.86641],[-46.41571,-23.86597],[-46.41585,-23.86539],[-46.41534,-23.86486],[-46.41412,-23.86451],[-46.41295,-23.86337],[-46.41158,-23.86182],[-46.41002,-23.85921],[-46.40909,-23.85813],[-46.40712,-23.85547],[-46.40419,-23.85356],[-46.40553,-23.85208],[-46.40735,-23.84942],[-46.40787,-23.84931],[-46.40909,-23.8487],[-46.40927,-23.84884],[-46.40962,-23.85051],[-46.41016,-23.85042],[-46.41073,-23.84968],[-46.41159,-23.85037],[-46.41211,-23.85062],[-46.41379,-23.85096],[-46.41464,-23.85092],[-46.41465,-23.85046],[-46.41363,-23.84876],[-46.41279,-23.84796],[-46.41298,-23.84772],[-46.41417,-23.84736],[-46.41412,-23.84689],[-46.41316,-23.84617],[-46.41187,-23.84591],[-46.41187,-23.84561],[-46.41244,-23.84482],[-46.41241,-23.84408],[-46.41169,-23.84336],[-46.41149,-23.8428],[-46.41151,-23.84077],[-46.41144,-23.84003],[-46.41209,-23.83973],[-46.41232,-23.839],[-46.41199,-23.83803],[-46.41242,-23.83799],[-46.41385,-23.83871],[-46.41524,-23.83863],[-46.41548,-23.8391],[-46.41632,-23.83937],[-46.4172,-23.83883],[-46.41766,-23.83948],[-46.41986,-23.84051],[-46.4183,-23.8405],[-46.41713,-23.84088],[-46.41626,-23.84083],[-46.41482,-23.84111],[-46.41429,-23.84159],[-46.41433,-23.8424],[-46.41463,-23.84348],[-46.41495,-23.8438],[-46.41654,-23.84403],[-46.41793,-23.84534],[-46.41811,-23.84575],[-46.41767,-23.84759],[-46.4182,-23.84876],[-46.41895,-23.84976],[-46.42023,-23.85119],[-46.42234,-23.85441],[-46.42232,-23.85469],[-46.42131,-23.85621],[-46.42186,-23.85752],[-46.42243,-23.85851],[-46.42301,-23.85887],[-46.42409,-23.85914],[-46.42395,-23.86016],[-46.42353,-23.8617],[-46.42194,-23.86179],[-46.42182,-23.86158],[-46.41926,-23.86159],[-46.41888,-23.86175],[-46.41898,-23.86616],[-46.41839,-23.86614],[-46.41815,-23.86681]]]},"properties":{"codigo":"3513504040","name":"Perequê","population":null,"households":null,"areaKm2":3.5531,"density":null}},{"type":"Feature","geometry":{"type":"Polygon","coordinates":[[[-46.43785,-23.91909],[-46.43855,-23.91944],[-46.43988,-23.91956],[-46.44228,-23.91906],[-46.44437,-23.91844],[-46.44561,-23.91845],[-46.44595,-23.91806],[-46.44697,-23.91788],[-46.44784,-23.91792],[-46.44909,-23.91849],[-46.44977,-23.91991],[-46.4506,-23.9233],[-46.45141,-23.92519],[-46.45251,-23.92917],[-46.45283,-23.93004],[-46.45337,-23.93232],[-46.45266,-23.93411],[-46.4521,-23.93466],[-46.45086,-23.93714],[-46.44858,-23.94014],[-46.44814,-23.94112],[-46.4468,-23.94137],[-46.44522,-23.94146],[-46.44506,-23.9403],[-46.44447,-23.93925],[-46.44396,-23.93865],[-46.44371,-23.93752],[-46.44271,-23.93699],[-46.44123,-23.93658],[-46.44007,-23.93636],[-46.43895,-23.93631],[-46.43747,-23.936],[-46.43664,-23.93622],[-46.43476,-23.93635],[-46.43454,-23.9351],[-46.43396,-23.93436],[-46.43342,-23.93404],[-46.43241,-23.93375],[-46.43214,-23.93139],[-46.43166,-23.9312],[-46.42938,-23.92974],[-46.43404,-23.92392],[-46.43478,-23.92292],[-46.43785,-23.91909]]]},"properties":{"codigo":"3513504034","name":"Ilha Nhapium","population":null,"households":null,"areaKm2":3.9396,"density":null}},{"type":"Feature","geometry":{"type":"Polygon","coordinates":[[[-46.48621,-23.91168],[-46.48278,-23.91495],[-46.48104,-23.91639],[-46.47951,-23.91736],[-46.47747,-23.91815],[-46.47555,-23.91852],[-46.47334,-23.91861],[-46.47171,-23.91854],[-46.46969,-23.91752],[-46.46915,-23.91699],[-46.46928,-23.9167],[-46.47032,-23.91609],[-46.47056,-23.91536],[-46.47129,-23.91423],[-46.47127,-23.9138],[-46.47039,-23.91287],[-46.47063,-23.91171],[-46.46987,-23.91068],[-46.46923,-23.91027],[-46.4693,-23.90969],[-46.46817,-23.90964],[-46.46798,-23.9093],[-46.46799,-23.90833],[-46.4675,-23.908],[-46.46671,-23.90846],[-46.46544,-23.90837],[-46.46546,-23.90724],[-46.46615,-23.90649],[-46.46628,-23.90606],[-46.46582,-23.90475],[-46.46536,-23.90398],[-46.46443,-23.90398],[-46.46405,-23.90331],[-46.46396,-23.90269],[-46.46357,-23.90227],[-46.46085,-23.90369],[-46.45981,-23.903],[-46.45776,-23.90229],[-46.45623,-23.90177],[-46.45509,-23.90119],[-46.4526,-23.89956],[-46.45085,-23.89894],[-46.44909,-23.89815],[-46.44837,-23.89802],[-46.44259,-23.89745],[-46.44117,-23.89749],[-46.43881,-23.89805],[-46.4373,-23.8982],[-46.43639,-23.898],[-46.43547,-23.89744],[-46.43484,-23.89657],[-46.43466,-23.89607],[-46.43475,-23.89487],[-46.43537,-23.89388],[-46.43668,-23.89316],[-46.44061,-23.89219],[-46.44108,-23.89192],[-46.44154,-23.89133],[-46.44171,-23.89074],[-46.44131,-23.88956],[-46.4426,-23.88868],[-46.44407,-23.88726],[-46.44519,-23.8867],[-46.44582,-23.88657],[-46.448,-23.88736],[-46.44914,-23.88809],[-46.44968,-23.88864],[-46.44886,-23.88956],[-46.44993,-23.89035],[-46.45215,-23.89162],[-46.45416,-23.89312],[-46.45442,-23.8916],[-46.4558,-23.89181],[-46.45624,-23.89148],[-46.4581,-23.89325],[-46.45947,-23.89498],[-46.45913,-23.89524],[-46.45981,-23.89609],[-46.46071,-23.89676],[-46.46115,-23.89746],[-46.46251,-23.89812],[-46.46325,-23.89898],[-46.46536,-23.90077],[-46.46628,-23.90122],[-46.46732,-23.90142],[-46.46866,-23.90105],[-46.47045,-23.9012],[-46.47142,-23.90173],[-46.47292,-23.90302],[-46.47407,-23.90379],[-46.47604,-23.9047],[-46.47691,-23.90544],[-46.47803,-23.90617],[-46.47953,-23.90745],[-46.48101,-23.90818],[-46.48145,-23.90864],[-46.48322,-23.91104],[-46.48457,-23.91149],[-46.48621,-23.91168]]]},"properties":{"codigo":"3513504037","name":"Marzagão","population":13,"households":5,"areaKm2":4.8195,"density":2.7}},{"type":"Feature","geometry":{"type":"Polygon","coordinates":[[[-46.43578,-23.86295],[-46.43539,-23.8632],[-46.4349,-23.86296],[-46.43357,-23.86319],[-46.43331,-23.86366],[-46.43255,-23.86326],[-46.43218,-23.86362],[-46.43146,-23.86318],[-46.43023,-23.86348],[-46.42936,-23.86399],[-46.42891,-23.86459],[-46.42852,-23.86468],[-46.42746,-23.86446],[-46.42647,-23.86374],[-46.42599,-23.86323],[-46.42531,-23.86215],[-46.425,-23.86206],[-46.42368,-23.86226],[-46.42353,-23.8617],[-46.42395,-23.86016],[-46.42409,-23.85914],[-46.42301,-23.85887],[-46.42243,-23.85851],[-46.42186,-23.85752],[-46.42131,-23.85621],[-46.42232,-23.85469],[-46.42234,-23.85441],[-46.42023,-23.85119],[-46.41895,-23.84976],[-46.4182,-23.84876],[-46.41767,-23.84759],[-46.41811,-23.84575],[-46.41793,-23.84534],[-46.41654,-23.84403],[-46.41495,-23.8438],[-46.41463,-23.84348],[-46.41433,-23.8424],[-46.41429,-23.84159],[-46.41482,-23.84111],[-46.41626,-23.84083],[-46.41713,-23.84088],[-46.4183,-23.8405],[-46.41986,-23.84051],[-46.42174,-23.84038],[-46.42163,-23.83914],[-46.42406,-23.83792],[-46.42616,-23.83821],[-46.42938,-23.83497],[-46.4339,-23.83268],[-46.4373,-23.82924],[-46.43819,-23.82966],[-46.43856,-23.82946],[-46.43887,-23.82863],[-46.43971,-23.82855],[-46.43994,-23.82951],[-46.44025,-23.82953],[-46.44083,-23.82887],[-46.44142,-23.82874],[-46.44183,-23.82894],[-46.44346,-23.82923],[-46.4443,-23.8291],[-46.44461,-23.82931],[-46.44394,-23.8307],[-46.44277,-23.83012],[-46.4416,-23.82984],[-46.44113,-23.83004],[-46.44067,-23.83069],[-46.44006,-23.83115],[-46.439,-23.83122],[-46.43904,-23.83182],[-46.44005,-23.83277],[-46.43945,-23.83339],[-46.4402,-23.83431],[-46.44118,-23.83491],[-46.44117,-23.83589],[-46.44183,-23.8368],[-46.44197,-23.83727],[-46.44196,-23.8388],[-46.44268,-23.84009],[-46.4438,-23.84089],[-46.4426,-23.8417],[-46.44174,-23.84067],[-46.43985,-23.83972],[-46.43901,-23.83983],[-46.43879,-23.8414],[-46.43796,-23.84225],[-46.43821,-23.84289],[-46.43902,-23.84333],[-46.43977,-23.84439],[-46.44027,-23.84558],[-46.44128,-23.84752],[-46.44229,-23.84831],[-46.44286,-23.84963],[-46.44355,-23.85017],[-46.44698,-23.85084],[-46.44816,-23.85147],[-46.44898,-23.85165],[-46.45071,-23.85134],[-46.45135,-23.85144],[-46.45191,-23.85178],[-46.45214,-23.85259],[-46.45289,-23.85313],[-46.45391,-23.85341],[-46.45455,-23.85391],[-46.45502,-23.85456],[-46.45534,-23.85545],[-46.45581,-23.85606],[-46.4561,-23.85719],[-46.45713,-23.85803],[-46.4571,-23.85894],[-46.45765,-23.86022],[-46.45858,-23.86045],[-46.4589,-23.86117],[-46.45895,-23.86246],[-46.45972,-23.86334],[-46.45973,-23.86463],[-46.45859,-23.86515],[-46.45837,-23.86586],[-46.45907,-23.86626],[-46.4599,-23.86609],[-46.46049,-23.86532],[-46.46174,-23.86474],[-46.46316,-23.86332],[-46.46422,-23.86249],[-46.4654,-23.86096],[-46.46583,-23.86101],[-46.46683,-23.86266],[-46.46728,-23.86407],[-46.46802,-23.86459],[-46.46788,-23.86533],[-46.4669,-23.86513],[-46.4664,-23.86558],[-46.46648,-23.86607],[-46.46713,-23.86732],[-46.46724,-23.86781],[-46.46049,-23.86928],[-46.45938,-23.87043],[-46.45852,-23.87014],[-46.45772,-23.87014],[-46.45601,-23.86983],[-46.4551,-23.87003],[-46.45434,-23.86999],[-46.45378,-23.86961],[-46.45348,-23.86901],[-46.45355,-23.86772],[-46.45303,-23.86705],[-46.45278,-23.86626],[-46.4508,-23.86573],[-46.45006,-23.86572],[-46.44986,-23.86512],[-46.45036,-23.86357],[-46.4498,-23.8632],[-46.44889,-23.86327],[-46.44769,-23.8627],[-46.44759,-23.86174],[-46.44834,-23.86099],[-46.44985,-23.8608],[-46.45077,-23.86033],[-46.45103,-23.85973],[-46.44966,-23.85966],[-46.44931,-23.8583],[-46.44851,-23.85836],[-46.44845,-23.85787],[-46.44764,-23.85783],[-46.44697,-23.85717],[-46.4466,-23.85732],[-46.44663,-23.85816],[-46.4463,-23.85837],[-46.44595,-23.85762],[-46.44409,-23.85754],[-46.44267,-23.85812],[-46.44228,-23.85872],[-46.44122,-23.85893],[-46.44105,-23.85926],[-46.44035,-23.85965],[-46.43917,-23.8593],[-46.43846,-23.85973],[-46.43825,-23.8604],[-46.43757,-23.86089],[-46.43786,-23.862],[-46.43762,-23.86256],[-46.43715,-23.86273],[-46.43585,-23.86277],[-46.43578,-23.86295]]]},"properties":{"codigo":"3513504024","name":"Caminho do Mar","population":null,"households":null,"areaKm2":9.3246,"density":null}},{"type":"Feature","geometry":{"type":"Polygon","coordinates":[[[-46.41156,-23.87891],[-46.41261,-23.87893],[-46.41369,-23.87978],[-46.41475,-23.8804],[-46.41592,-23.88136],[-46.41595,-23.8816],[-46.41876,-23.88212],[-46.41934,-23.88223],[-46.41886,-23.88515],[-46.41804,-23.88498],[-46.41733,-23.88581],[-46.41789,-23.88638],[-46.41771,-23.88748],[-46.41708,-23.88687],[-46.41098,-23.88204],[-46.41064,-23.88177],[-46.41146,-23.88095],[-46.41172,-23.88042],[-46.41156,-23.87891]]]},"properties":{"codigo":"3513504004","name":"Jardim São Francisco","population":2252,"households":1081,"areaKm2":0.3701,"density":6085}},{"type":"Feature","geometry":{"type":"Polygon","coordinates":[[[-46.39533,-23.93488],[-46.39497,-23.93408],[-46.39448,-23.93376],[-46.39303,-23.93384],[-46.39211,-23.93366],[-46.39036,-23.93314],[-46.39001,-23.93248],[-46.39003,-23.93083],[-46.39074,-23.92951],[-46.39209,-23.92784],[-46.39484,-23.92819],[-46.39604,-23.92828],[-46.39649,-23.93034],[-46.3975,-23.93013],[-46.39722,-23.93078],[-46.39631,-23.93234],[-46.39555,-23.93414],[-46.39533,-23.93488]]]},"properties":{"codigo":"3513504031","name":"Ilha Pompeva","population":null,"households":null,"areaKm2":0.379,"density":null}},{"type":"Feature","geometry":{"type":"Polygon","coordinates":[[[-46.42512,-23.87681],[-46.42362,-23.8783],[-46.42212,-23.8799],[-46.42148,-23.87839],[-46.42092,-23.87781],[-46.41983,-23.87727],[-46.41897,-23.8766],[-46.41771,-23.87523],[-46.41696,-23.87469],[-46.41571,-23.87411],[-46.41502,-23.87395],[-46.41399,-23.87395],[-46.41335,-23.87421],[-46.41357,-23.87327],[-46.41422,-23.87175],[-46.41487,-23.87077],[-46.41664,-23.86924],[-46.41776,-23.8679],[-46.41815,-23.86681],[-46.42331,-23.87321],[-46.42399,-23.87431],[-46.42512,-23.87681]]]},"properties":{"codigo":"3513504002","name":"Sítio Cafezal","population":30,"households":17,"areaKm2":0.7467,"density":40.2}},{"type":"Feature","geometry":{"type":"Polygon","coordinates":[[[-46.46777,-23.91651],[-46.46609,-23.916],[-46.46377,-23.91557],[-46.4632,-23.91528],[-46.46048,-23.91203],[-46.46243,-23.91],[-46.4666,-23.91139],[-46.4677,-23.9117],[-46.46807,-23.912],[-46.46809,-23.9126],[-46.46838,-23.91367],[-46.46891,-23.91441],[-46.46972,-23.91518],[-46.46983,-23.91588],[-46.46919,-23.91596],[-46.46844,-23.91577],[-46.46777,-23.91651]]]},"properties":{"codigo":"3513504015","name":"Vale Verde","population":2601,"households":1064,"areaKm2":0.3882,"density":6699.9}},{"type":"Feature","geometry":{"type":"MultiPolygon","coordinates":[[[[-46.40358,-23.91981],[-46.40419,-23.9192],[-46.40509,-23.91933],[-46.40481,-23.91868],[-46.40563,-23.91868],[-46.40706,-23.91889],[-46.40655,-23.91825],[-46.40712,-23.9178],[-46.40656,-23.9173],[-46.40746,-23.91659],[-46.40942,-23.9157],[-46.4108,-23.91568],[-46.41086,-23.91525],[-46.41022,-23.91446],[-46.41038,-23.91367],[-46.41065,-23.91331],[-46.41196,-23.91492],[-46.41292,-23.91582],[-46.41402,-23.91585],[-46.41471,-23.91572],[-46.41562,-23.91475],[-46.41547,-23.9143],[-46.41583,-23.91328],[-46.41672,-23.91238],[-46.41752,-23.91179],[-46.41828,-23.91165],[-46.41997,-23.91092],[-46.42088,-23.91083],[-46.42154,-23.91147],[-46.41902,-23.91522],[-46.41827,-23.91594],[-46.41492,-23.91786],[-46.41028,-23.9205],[-46.40943,-23.92108],[-46.40875,-23.92176],[-46.40787,-23.92046],[-46.40773,-23.91967],[-46.40704,-23.9198],[-46.40636,-23.92048],[-46.40569,-23.92074],[-46.40569,-23.92136],[-46.4054,-23.92185],[-46.40358,-23.91981]]],[[[-46.40909,-23.89581],[-46.41028,-23.8962],[-46.41127,-23.89602],[-46.41198,-23.89623],[-46.41242,-23.8968],[-46.41243,-23.89756],[-46.41279,-23.89794],[-46.4133,-23.89803],[-46.41381,-23.89857],[-46.41504,-23.89919],[-46.41613,-23.89948],[-46.41666,-23.90001],[-46.41613,-23.90125],[-46.41521,-23.90192],[-46.41394,-23.90332],[-46.41293,-23.90507],[-46.41247,-23.9054],[-46.41142,-23.90533],[-46.41094,-23.90571],[-46.41056,-23.90637],[-46.41045,-23.90699],[-46.41078,-23.90782],[-46.41065,-23.90824],[-46.40957,-23.90782],[-46.4087,-23.9078],[-46.40892,-23.9073],[-46.40855,-23.90697],[-46.40923,-23.90581],[-46.40922,-23.90517],[-46.40864,-23.9039],[-46.40733,-23.90265],[-46.40529,-23.901],[-46.40508,-23.90048],[-46.40445,-23.90038],[-46.4046,-23.89986],[-46.40546,-23.89944],[-46.40565,-23.90047],[-46.40609,-23.90081],[-46.40651,-23.90047],[-46.40663,-23.8999],[-46.40804,-23.90013],[-46.40873,-23.90014],[-46.40924,-23.89983],[-46.40934,-23.89884],[-46.40895,-23.89849],[-46.4092,-23.89786],[-46.40915,-23.89698],[-46.40942,-23.89633],[-46.40909,-23.89581]]],[[[-46.41771,-23.88748],[-46.4183,-23.88813],[-46.41918,-23.88966],[-46.4195,-23.89054],[-46.42051,-23.89426],[-46.42109,-23.89609],[-46.42289,-23.90248],[-46.42306,-23.90388],[-46.4231,-23.90829],[-46.42273,-23.90967],[-46.42167,-23.91128],[-46.42102,-23.91075],[-46.42043,-23.91059],[-46.419,-23.91054],[-46.41885,-23.91032],[-46.41982,-23.90896],[-46.42078,-23.90868],[-46.42161,-23.90805],[-46.42199,-23.90688],[-46.42246,-23.9064],[-46.42215,-23.90604],[-46.42158,-23.90694],[-46.42152,-23.90735],[-46.42086,-23.90771],[-46.42032,-23.90694],[-46.41994,-23.90593],[-46.41918,-23.90689],[-46.41991,-23.90803],[-46.41949,-23.90906],[-46.41864,-23.90849],[-46.41915,-23.90767],[-46.41822,-23.90709],[-46.41827,-23.90865],[-46.41914,-23.90927],[-46.41901,-23.90976],[-46.4185,-23.90984],[-46.41698,-23.91171],[-46.41573,-23.91183],[-46.4156,-23.91261],[-46.41481,-23.91283],[-46.41448,-23.9132],[-46.41482,-23.91384],[-46.41427,-23.91499],[-46.41281,-23.91455],[-46.41217,-23.91408],[-46.41165,-23.91336],[-46.41145,-23.91276],[-46.41206,-23.91248],[-46.41238,-23.91204],[-46.41236,-23.91025],[-46.41206,-23.90876],[-46.41167,-23.90737],[-46.41177,-23.90686],[-46.41467,-23.90504],[-46.41407,-23.90475],[-46.41433,-23.90401],[-46.41493,-23.90371],[-46.41552,-23.90286],[-46.41627,-23.90241],[-46.41745,-23.90113],[-46.41779,-23.90061],[-46.4178,-23.89959],[-46.41827,-23.89891],[-46.4174,-23.89886],[-46.41756,-23.89727],[-46.41817,-23.8971],[-46.41894,-23.89786],[-46.41928,-23.89767],[-46.41853,-23.89682],[-46.41723,-23.89643],[-46.41657,-23.89597],[-46.41592,-23.89584],[-46.41753,-23.89461],[-46.41858,-23.89417],[-46.41753,-23.89386],[-46.41685,-23.89266],[-46.41662,-23.89178],[-46.41755,-23.89082],[-46.41767,-23.89004],[-46.41709,-23.88966],[-46.41679,-23.89049],[-46.41588,-23.89115],[-46.41546,-23.89182],[-46.41434,-23.89243],[-46.4137,-23.89191],[-46.41419,-23.8911],[-46.4137,-23.89095],[-46.41278,-23.89134],[-46.41228,-23.89232],[-46.41193,-23.89265],[-46.4109,-23.89235],[-46.40997,-23.89332],[-46.40946,-23.8928],[-46.40885,-23.89249],[-46.40848,-23.892],[-46.40852,-23.89147],[-46.40927,-23.89113],[-46.40895,-23.89072],[-46.40953,-23.89028],[-46.41019,-23.89047],[-46.41074,-23.89016],[-46.41028,-23.8895],[-46.41147,-23.88878],[-46.4112,-23.88858],[-46.41182,-23.88773],[-46.41064,-23.88782],[-46.40986,-23.88766],[-46.40899,-23.88829],[-46.40835,-23.88817],[-46.40776,-23.88852],[-46.40826,-23.88969],[-46.40813,-23.89048],[-46.40747,-23.89163],[-46.40709,-23.89201],[-46.40707,-23.89263],[-46.40752,-23.8928],[-46.40816,-23.8926],[-46.40885,-23.89283],[-46.40868,-23.89365],[-46.40944,-23.89352],[-46.41007,-23.89368],[-46.41111,-23.89267],[-46.41166,-23.89322],[-46.41169,-23.89449],[-46.41144,-23.89514],[-46.41084,-23.89568],[-46.41036,-23.89577],[-46.40959,-23.89514],[-46.40883,-23.895],[-46.40803,-23.89545],[-46.40826,-23.89639],[-46.40817,-23.89885],[-46.40847,-23.89922],[-46.40786,-23.89948],[-46.40651,-23.89902],[-46.40486,-23.89858],[-46.40411,-23.89871],[-46.40356,-23.89929],[-46.40348,-23.89984],[-46.40386,-23.90068],[-46.40319,-23.90191],[-46.40245,-23.90254],[-46.40181,-23.90338],[-46.40073,-23.90239],[-46.39975,-23.90213],[-46.39915,-23.90177],[-46.39856,-23.90102],[-46.39847,-23.90002],[-46.39867,-23.89908],[-46.39991,-23.89807],[-46.40095,-23.89694],[-46.40119,-23.89621],[-46.40092,-23.89402],[-46.40072,-23.89372],[-46.4006,-23.89277],[-46.40092,-23.89227],[-46.40217,-23.89158],[-46.40281,-23.89089],[-46.40254,-23.88874],[-46.40288,-23.88774],[-46.40344,-23.88693],[-46.40442,-23.88463],[-46.40559,-23.88417],[-46.40799,-23.88368],[-46.40879,-23.88365],[-46.41008,-23.88323],[-46.41098,-23.88204],[-46.41708,-23.88687],[-46.41771,-23.88748]]],[[[-46.41626,-23.89681],[-46.41685,-23.89648],[-46.41756,-23.89694],[-46.41686,-23.89864],[-46.4161,-23.89883],[-46.41544,-23.89877],[-46.41486,-23.89825],[-46.41522,-23.89762],[-46.41626,-23.89681]]],[[[-46.41313,-23.89421],[-46.4132,-23.89331],[-46.41372,-23.89219],[-46.41481,-23.89316],[-46.4157,-23.89427],[-46.41582,-23.89467],[-46.41636,-23.89487],[-46.41631,-23.89533],[-46.41571,-23.8957],[-46.41559,-23.89619],[-46.41589,-23.89664],[-46.41574,-23.897],[-46.41466,-23.89786],[-46.41437,-23.89759],[-46.41339,-23.89762],[-46.41342,-23.89698],[-46.41301,-23.89634],[-46.41399,-23.89463],[-46.41313,-23.89421]]],[[[-46.40951,-23.8887],[-46.40975,-23.88955],[-46.41045,-23.88994],[-46.40991,-23.89027],[-46.40923,-23.8899],[-46.4091,-23.8895],[-46.40951,-23.8887]]],[[[-46.41219,-23.89423],[-46.41243,-23.89289],[-46.41293,-23.893],[-46.4128,-23.89413],[-46.41371,-23.89472],[-46.41306,-23.89569],[-46.41223,-23.89544],[-46.41185,-23.89497],[-46.41219,-23.89423]]],[[[-46.3931,-23.89574],[-46.39216,-23.89442],[-46.39386,-23.89464],[-46.39397,-23.89541],[-46.3931,-23.89574]]],[[[-46.40268,-23.88028],[-46.40338,-23.88006],[-46.40505,-23.87932],[-46.40589,-23.87944],[-46.40569,-23.88025],[-46.40496,-23.88065],[-46.40415,-23.88196],[-46.40428,-23.88365],[-46.40378,-23.88442],[-46.4037,-23.88498],[-46.40291,-23.88591],[-46.40263,-23.88644],[-46.40239,-23.88796],[-46.4021,-23.88818],[-46.40193,-23.88961],[-46.40214,-23.89077],[-46.40195,-23.89115],[-46.40054,-23.8917],[-46.40011,-23.89228],[-46.39996,-23.89442],[-46.39913,-23.89367],[-46.3971,-23.89317],[-46.39649,-23.89313],[-46.39568,-23.89337],[-46.39357,-23.89433],[-46.39155,-23.89413],[-46.39159,-23.89382],[-46.39254,-23.89358],[-46.39433,-23.89293],[-46.39472,-23.89261],[-46.39516,-23.89172],[-46.39546,-23.8906],[-46.39531,-23.88935],[-46.395,-23.88857],[-46.39387,-23.88717],[-46.394,-23.88619],[-46.39498,-23.88553],[-46.39635,-23.88543],[-46.39692,-23.88558],[-46.3976,-23.88686],[-46.39824,-23.88718],[-46.39915,-23.88701],[-46.39945,-23.88616],[-46.40014,-23.88527],[-46.40123,-23.88335],[-46.40173,-23.88194],[-46.40159,-23.88114],[-46.4017,-23.88061],[-46.40268,-23.88028]]],[[[-46.37945,-23.89853],[-46.3788,-23.8982],[-46.37836,-23.89733],[-46.37869,-23.89631],[-46.37941,-23.89624],[-46.37986,-23.89679],[-46.37956,-23.89746],[-46.3801,-23.89836],[-46.37945,-23.89853]]],[[[-46.39758,-23.89442],[-46.39667,-23.89417],[-46.39529,-23.89409],[-46.39621,-23.89363],[-46.39684,-23.8935],[-46.39775,-23.89357],[-46.39926,-23.894],[-46.3999,-23.89486],[-46.40004,-23.89642],[-46.39975,-23.89716],[-46.39929,-23.89774],[-46.3982,-23.89851],[-46.39796,-23.89883],[-46.39787,-23.9005],[-46.39807,-23.90139],[-46.39871,-23.9021],[-46.40046,-23.90319],[-46.40149,-23.90469],[-46.4015,-23.90538],[-46.40112,-23.90607],[-46.40034,-23.90554],[-46.39899,-23.90487],[-46.39663,-23.90459],[-46.39506,-23.90452],[-46.39436,-23.90472],[-46.39308,-23.90419],[-46.39179,-23.90409],[-46.39052,-23.90454],[-46.38863,-23.90638],[-46.38764,-23.90771],[-46.38716,-23.90852],[-46.38703,-23.90927],[-46.38758,-23.91139],[-46.38921,-23.91378],[-46.38981,-23.915],[-46.38993,-23.916],[-46.3893,-23.91663],[-46.38696,-23.9156],[-46.38593,-23.91484],[-46.38493,-23.91445],[-46.38406,-23.91429],[-46.38279,-23.91373],[-46.3816,-23.91363],[-46.38062,-23.91327],[-46.38013,-23.91252],[-46.37997,-23.91152],[-46.38011,-23.90964],[-46.37955,-23.90878],[-46.37964,-23.90833],[-46.37942,-23.9075],[-46.37902,-23.90723],[-46.37888,-23.90628],[-46.37819,-23.90331],[-46.37808,-23.90255],[-46.37835,-23.90126],[-46.37919,-23.89939],[-46.38045,-23.89893],[-46.38201,-23.90028],[-46.38307,-23.90082],[-46.38362,-23.90081],[-46.38608,-23.90129],[-46.38757,-23.90046],[-46.38777,-23.90018],[-46.38863,-23.90027],[-46.38889,-23.89974],[-46.38765,-23.89973],[-46.38709,-23.89896],[-46.38712,-23.89836],[-46.38822,-23.89793],[-46.38992,-23.89685],[-46.38976,-23.89634],[-46.38986,-23.89547],[-46.39014,-23.89465],[-46.39115,-23.89429],[-46.39198,-23.89466],[-46.39296,-23.89594],[-46.39427,-23.89596],[-46.39418,-23.89487],[-46.39464,-23.89439],[-46.39593,-23.89424],[-46.39675,-23.89446],[-46.39758,-23.89442]]],[[[-46.39563,-23.90571],[-46.39604,-23.9052],[-46.39737,-23.90531],[-46.39822,-23.90565],[-46.39899,-23.90655],[-46.39988,-23.90714],[-46.40084,-23.90715],[-46.40035,-23.90804],[-46.39974,-23.90854],[-46.39954,-23.90899],[-46.39871,-23.90956],[-46.3982,-23.90879],[-46.39818,-23.90814],[-46.39788,-23.90727],[-46.3974,-23.90673],[-46.3972,-23.90597],[-46.39673,-23.90614],[-46.3961,-23.90671],[-46.39563,-23.90571]]],[[[-46.40563,-23.90199],[-46.4076,-23.90365],[-46.40834,-23.9048],[-46.40805,-23.90586],[-46.40779,-23.90739],[-46.40828,-23.9082],[-46.41012,-23.90865],[-46.41102,-23.90926],[-46.41133,-23.90996],[-46.41112,-23.91216],[-46.41038,-23.912],[-46.40838,-23.91042],[-46.40688,-23.90982],[-46.40667,-23.90963],[-46.40491,-23.90922],[-46.40245,-23.90932],[-46.40185,-23.90925],[-46.40162,-23.90891],[-46.40181,-23.90818],[-46.40287,-23.90655],[-46.403,-23.90547],[-46.40246,-23.90446],[-46.40249,-23.90363],[-46.40497,-23.90202],[-46.40563,-23.90199]]],[[[-46.38913,-23.91053],[-46.38849,-23.90998],[-46.38851,-23.90928],[-46.38877,-23.90859],[-46.38976,-23.90711],[-46.39092,-23.90678],[-46.39187,-23.9062],[-46.3922,-23.90627],[-46.39276,-23.90689],[-46.39347,-23.90794],[-46.39396,-23.90892],[-46.39479,-23.90992],[-46.39535,-23.91026],[-46.39683,-23.91069],[-46.39743,-23.91051],[-46.39826,-23.91056],[-46.40101,-23.91048],[-46.40198,-23.91085],[-46.40305,-23.91106],[-46.40513,-23.91117],[-46.40623,-23.91105],[-46.40703,-23.91169],[-46.40908,-23.91271],[-46.40961,-23.91276],[-46.41019,-23.91322],[-46.4101,-23.91377],[-46.40969,-23.9139],[-46.40845,-23.91498],[-46.40772,-23.91584],[-46.40646,-23.91639],[-46.40581,-23.91691],[-46.40517,-23.91787],[-46.40443,-23.91765],[-46.40427,-23.91652],[-46.4035,-23.91638],[-46.40281,-23.91583],[-46.4025,-23.91609],[-46.40344,-23.9172],[-46.40462,-23.91814],[-46.40453,-23.91856],[-46.4029,-23.91923],[-46.40104,-23.91812],[-46.39938,-23.91767],[-46.39746,-23.9176],[-46.39434,-23.91794],[-46.39171,-23.91785],[-46.39083,-23.91768],[-46.39133,-23.91671],[-46.39173,-23.91514],[-46.39166,-23.9144],[-46.39101,-23.91295],[-46.39012,-23.91152],[-46.38913,-23.91053]]],[[[-46.38211,-23.91588],[-46.38397,-23.91596],[-46.38582,-23.91723],[-46.38699,-23.91775],[-46.38427,-23.91723],[-46.38069,-23.91647],[-46.38211,-23.91588]]]]},"properties":{"codigo":"3513504030","name":"Guará-Vermelho","population":54,"households":20,"areaKm2":10.9692,"density":4.9}},{"type":"Feature","geometry":{"type":"Polygon","coordinates":[[[-46.39209,-23.92784],[-46.39524,-23.927],[-46.39658,-23.92636],[-46.39673,-23.92604],[-46.39743,-23.92574],[-46.39925,-23.92527],[-46.40065,-23.92464],[-46.4019,-23.92397],[-46.40238,-23.92352],[-46.40342,-23.92301],[-46.40411,-23.92169],[-46.40365,-23.9204],[-46.40358,-23.91981],[-46.4054,-23.92185],[-46.40569,-23.92136],[-46.40569,-23.92074],[-46.40636,-23.92048],[-46.40704,-23.9198],[-46.40773,-23.91967],[-46.40787,-23.92046],[-46.40875,-23.92176],[-46.40943,-23.92108],[-46.41028,-23.9205],[-46.41492,-23.91786],[-46.4157,-23.91861],[-46.40764,-23.92422],[-46.4056,-23.92565],[-46.40324,-23.92695],[-46.40126,-23.92768],[-46.39999,-23.92799],[-46.39754,-23.9283],[-46.39604,-23.92828],[-46.39484,-23.92819],[-46.39209,-23.92784]]]},"properties":{"codigo":"3513504022","name":"Vila dos Pescadores","population":9894,"households":4071,"areaKm2":0.6678,"density":14816.6}},{"type":"Feature","geometry":{"type":"Polygon","coordinates":[[[-46.43881,-23.89805],[-46.44117,-23.89749],[-46.44259,-23.89745],[-46.44837,-23.89802],[-46.44909,-23.89815],[-46.45085,-23.89894],[-46.4526,-23.89956],[-46.45509,-23.90119],[-46.45623,-23.90177],[-46.45776,-23.90229],[-46.45569,-23.90223],[-46.45669,-23.90273],[-46.45972,-23.90377],[-46.46029,-23.90403],[-46.46146,-23.90515],[-46.46028,-23.90631],[-46.45878,-23.90626],[-46.45813,-23.9057],[-46.458,-23.90431],[-46.45601,-23.9034],[-46.45491,-23.90349],[-46.45297,-23.90387],[-46.45178,-23.90424],[-46.45021,-23.90536],[-46.44954,-23.90569],[-46.44931,-23.90498],[-46.44983,-23.90444],[-46.45136,-23.9033],[-46.4505,-23.90259],[-46.44854,-23.90333],[-46.44709,-23.90307],[-46.44529,-23.90368],[-46.4432,-23.90359],[-46.44277,-23.90467],[-46.44206,-23.90495],[-46.44142,-23.90458],[-46.44158,-23.90403],[-46.44199,-23.90358],[-46.44199,-23.90241],[-46.44143,-23.90176],[-46.44044,-23.90149],[-46.43967,-23.90144],[-46.43856,-23.90169],[-46.43774,-23.90011],[-46.43766,-23.89966],[-46.43714,-23.89967],[-46.43746,-23.89887],[-46.43787,-23.89859],[-46.43892,-23.89838],[-46.43881,-23.89805]]]},"properties":{"codigo":"3513504021","name":"Vila Esperança","population":16740,"households":7176,"areaKm2":1.0831,"density":15455.9}},{"type":"Feature","geometry":{"type":"Polygon","coordinates":[[[-46.42141,-23.92208],[-46.42105,-23.92306],[-46.42013,-23.92278],[-46.41979,-23.92337],[-46.41904,-23.92315],[-46.41846,-23.92433],[-46.41784,-23.92414],[-46.41736,-23.92469],[-46.41826,-23.92543],[-46.41682,-23.92691],[-46.41655,-23.92669],[-46.41576,-23.9273],[-46.417,-23.92868],[-46.41559,-23.92975],[-46.41554,-23.93048],[-46.4133,-23.93084],[-46.41043,-23.92744],[-46.40833,-23.92521],[-46.40839,-23.92455],[-46.40764,-23.92422],[-46.4157,-23.91861],[-46.41625,-23.91878],[-46.41804,-23.92063],[-46.4191,-23.92138],[-46.42141,-23.92208]]]},"properties":{"codigo":"3513504012","name":"Parque São Luis","population":7107,"households":2629,"areaKm2":0.9073,"density":7832.8}},{"type":"Feature","geometry":{"type":"Polygon","coordinates":[[[-46.41335,-23.87421],[-46.41399,-23.87395],[-46.41502,-23.87395],[-46.41571,-23.87411],[-46.41696,-23.87469],[-46.41771,-23.87523],[-46.41897,-23.8766],[-46.41983,-23.87727],[-46.42092,-23.87781],[-46.42148,-23.87839],[-46.42212,-23.8799],[-46.42157,-23.88092],[-46.42025,-23.88063],[-46.41969,-23.88096],[-46.41911,-23.88082],[-46.41876,-23.88212],[-46.41595,-23.8816],[-46.41592,-23.88136],[-46.41475,-23.8804],[-46.41369,-23.87978],[-46.41261,-23.87893],[-46.41156,-23.87891],[-46.41162,-23.87777],[-46.41279,-23.87493],[-46.41335,-23.87421]]]},"properties":{"codigo":"3513504003","name":"Jardim Anchieta","population":5911,"households":2442,"areaKm2":0.5821,"density":10155.2}},{"type":"Feature","geometry":{"type":"Polygon","coordinates":[[[-46.40612,-23.87891],[-46.40562,-23.87883],[-46.40422,-23.87904],[-46.40299,-23.87968],[-46.40185,-23.87997],[-46.40126,-23.87989],[-46.40096,-23.88043],[-46.40128,-23.8816],[-46.40118,-23.88257],[-46.40075,-23.88308],[-46.39952,-23.88486],[-46.39893,-23.88602],[-46.39816,-23.8864],[-46.39757,-23.88524],[-46.39596,-23.8848],[-46.39489,-23.88497],[-46.39324,-23.88611],[-46.39324,-23.88714],[-46.39402,-23.88815],[-46.39451,-23.88958],[-46.39452,-23.89026],[-46.39431,-23.89156],[-46.3939,-23.8922],[-46.3934,-23.89262],[-46.39142,-23.89306],[-46.38991,-23.89369],[-46.38925,-23.89438],[-46.38878,-23.8952],[-46.38825,-23.89693],[-46.38798,-23.89726],[-46.38669,-23.89757],[-46.38565,-23.89761],[-46.38382,-23.89847],[-46.38289,-23.89939],[-46.38225,-23.89957],[-46.38166,-23.89875],[-46.38177,-23.89805],[-46.38307,-23.89605],[-46.38329,-23.89518],[-46.38325,-23.89434],[-46.38278,-23.89262],[-46.38233,-23.89136],[-46.38168,-23.8902],[-46.38127,-23.89003],[-46.38044,-23.89022],[-46.37977,-23.88969],[-46.37828,-23.88897],[-46.37793,-23.88774],[-46.37747,-23.8875],[-46.37732,-23.88552],[-46.37759,-23.88496],[-46.3772,-23.88358],[-46.37752,-23.88229],[-46.37749,-23.87991],[-46.37768,-23.87894],[-46.37736,-23.87615],[-46.37906,-23.87361],[-46.3804,-23.87418],[-46.38121,-23.87473],[-46.38156,-23.87405],[-46.38098,-23.87254],[-46.38112,-23.87212],[-46.38033,-23.87151],[-46.37899,-23.87097],[-46.37796,-23.87115],[-46.37551,-23.87088],[-46.37531,-23.8697],[-46.37494,-23.86832],[-46.37458,-23.86804],[-46.37195,-23.86663],[-46.3711,-23.86606],[-46.36987,-23.86463],[-46.36941,-23.86381],[-46.36894,-23.86177],[-46.36945,-23.86066],[-46.36955,-23.86009],[-46.36924,-23.85935],[-46.36779,-23.85804],[-46.36733,-23.85737],[-46.36682,-23.856],[-46.36721,-23.85483],[-46.36796,-23.85362],[-46.36833,-23.85199],[-46.36836,-23.85121],[-46.36882,-23.85035],[-46.36893,-23.84977],[-46.36858,-23.84788],[-46.37401,-23.84819],[-46.37501,-23.84815],[-46.38508,-23.84953],[-46.38632,-23.8496],[-46.38694,-23.84944],[-46.38994,-23.84833],[-46.39114,-23.84955],[-46.392,-23.85064],[-46.39412,-23.85263],[-46.39474,-23.8535],[-46.39516,-23.85461],[-46.39524,-23.8564],[-46.39459,-23.85786],[-46.39438,-23.85929],[-46.39489,-23.86058],[-46.39602,-23.86172],[-46.39766,-23.86274],[-46.39872,-23.86399],[-46.39942,-23.86555],[-46.40142,-23.8705],[-46.4026,-23.87351],[-46.40283,-23.87425],[-46.40383,-23.87606],[-46.40465,-23.87698],[-46.40591,-23.87795],[-46.40669,-23.87816],[-46.40612,-23.87891]]]},"properties":{"codigo":"3513504042","name":"Piaçaguera","population":195,"households":92,"areaKm2":12.1746,"density":16}},{"type":"Feature","geometry":{"type":"Polygon","coordinates":[[[-46.43478,-23.92292],[-46.43404,-23.92392],[-46.42938,-23.92974],[-46.42536,-23.93476],[-46.42528,-23.93412],[-46.42705,-23.93183],[-46.4267,-23.93173],[-46.42567,-23.93297],[-46.42477,-23.93355],[-46.42425,-23.9343],[-46.42219,-23.93315],[-46.42061,-23.93305],[-46.41807,-23.93309],[-46.41745,-23.93252],[-46.41561,-23.93227],[-46.41478,-23.93255],[-46.41448,-23.93223],[-46.4133,-23.93084],[-46.41554,-23.93048],[-46.41559,-23.92975],[-46.417,-23.92868],[-46.41576,-23.9273],[-46.41655,-23.92669],[-46.41682,-23.92691],[-46.41826,-23.92543],[-46.41736,-23.92469],[-46.41784,-23.92414],[-46.41846,-23.92433],[-46.41904,-23.92315],[-46.41979,-23.92337],[-46.42013,-23.92278],[-46.42105,-23.92306],[-46.42141,-23.92208],[-46.42525,-23.92323],[-46.42903,-23.92449],[-46.43077,-23.92471],[-46.43153,-23.92471],[-46.43255,-23.92451],[-46.43379,-23.92384],[-46.43478,-23.92292]]]},"properties":{"codigo":"3513504032","name":"Ilha do Tatu","population":17,"households":6,"areaKm2":1.531,"density":11.1}},{"type":"Feature","geometry":{"type":"Polygon","coordinates":[[[-46.43221,-23.88784],[-46.42965,-23.88827],[-46.42802,-23.88872],[-46.42226,-23.88985],[-46.4223,-23.88926],[-46.42308,-23.88593],[-46.42369,-23.88293],[-46.42404,-23.88299],[-46.42431,-23.8813],[-46.42669,-23.88035],[-46.42863,-23.88461],[-46.42964,-23.88566],[-46.43064,-23.88616],[-46.43221,-23.88784]]]},"properties":{"codigo":"3513504006","name":"Vila Couto","population":1880,"households":1004,"areaKm2":0.5463,"density":3441.6}},{"type":"Feature","geometry":{"type":"Polygon","coordinates":[[[-46.40735,-23.84942],[-46.40553,-23.85208],[-46.40419,-23.85356],[-46.40117,-23.85166],[-46.39776,-23.84975],[-46.39654,-23.84969],[-46.39454,-23.85179],[-46.39412,-23.85263],[-46.392,-23.85064],[-46.39114,-23.84955],[-46.38994,-23.84833],[-46.38694,-23.84944],[-46.38632,-23.8496],[-46.38508,-23.84953],[-46.37501,-23.84815],[-46.37401,-23.84819],[-46.36858,-23.84788],[-46.36812,-23.84596],[-46.36812,-23.84477],[-46.36769,-23.84429],[-46.36648,-23.84336],[-46.36578,-23.84224],[-46.3658,-23.84097],[-46.36529,-23.84069],[-46.3655,-23.84011],[-46.36471,-23.83954],[-46.36448,-23.83892],[-46.3633,-23.83815],[-46.36337,-23.83748],[-46.36296,-23.83714],[-46.36192,-23.83672],[-46.36147,-23.83635],[-46.36136,-23.83514],[-46.36025,-23.83493],[-46.35974,-23.83404],[-46.36049,-23.83333],[-46.36008,-23.83307],[-46.35987,-23.83238],[-46.36013,-23.83137],[-46.35908,-23.83129],[-46.35915,-23.82974],[-46.35814,-23.82886],[-46.35767,-23.82742],[-46.35726,-23.82692],[-46.35624,-23.82692],[-46.35639,-23.82641],[-46.35613,-23.82548],[-46.35612,-23.82481],[-46.35497,-23.82303],[-46.35455,-23.82265],[-46.35362,-23.8224],[-46.35356,-23.82178],[-46.353,-23.82109],[-46.35334,-23.81907],[-46.35323,-23.81836],[-46.35294,-23.81809],[-46.35235,-23.81615],[-46.35171,-23.81557],[-46.35031,-23.81491],[-46.35017,-23.81436],[-46.3504,-23.81399],[-46.34995,-23.81359],[-46.34918,-23.81397],[-46.34903,-23.81317],[-46.3492,-23.81248],[-46.34986,-23.81207],[-46.34943,-23.8108],[-46.34905,-23.81059],[-46.3478,-23.80906],[-46.34736,-23.80832],[-46.34759,-23.80707],[-46.34626,-23.80716],[-46.34568,-23.80625],[-46.34523,-23.80628],[-46.34461,-23.80576],[-46.34383,-23.80574],[-46.3434,-23.80515],[-46.34269,-23.80528],[-46.34226,-23.80461],[-46.34108,-23.80459],[-46.34129,-23.804],[-46.34097,-23.80358],[-46.34143,-23.80333],[-46.34237,-23.80343],[-46.34281,-23.80383],[-46.34281,-23.80442],[-46.34379,-23.80359],[-46.34462,-23.80346],[-46.34755,-23.80493],[-46.34798,-23.80492],[-46.34893,-23.80578],[-46.34964,-23.80567],[-46.34996,-23.80619],[-46.34992,-23.80689],[-46.35114,-23.80802],[-46.35244,-23.80882],[-46.35298,-23.81044],[-46.35373,-23.81198],[-46.35464,-23.81179],[-46.35568,-23.81114],[-46.35615,-23.81054],[-46.35632,-23.80999],[-46.35702,-23.80894],[-46.35785,-23.80841],[-46.36045,-23.80789],[-46.36121,-23.80727],[-46.36162,-23.80655],[-46.36285,-23.80562],[-46.36361,-23.80558],[-46.36319,-23.80749],[-46.36242,-23.80784],[-46.35973,-23.80876],[-46.35847,-23.80951],[-46.35755,-23.81112],[-46.35616,-23.8127],[-46.35719,-23.81389],[-46.35735,-23.81461],[-46.35813,-23.81558],[-46.35944,-23.81652],[-46.35981,-23.81735],[-46.36097,-23.81778],[-46.36211,-23.81902],[-46.36246,-23.81896],[-46.36245,-23.81827],[-46.36292,-23.81741],[-46.36372,-23.81671],[-46.36353,-23.81625],[-46.36388,-23.81543],[-46.36514,-23.8152],[-46.36622,-23.81444],[-46.36698,-23.81426],[-46.36722,-23.81455],[-46.36676,-23.81546],[-46.36707,-23.81594],[-46.36772,-23.81591],[-46.36811,-23.81642],[-46.36751,-23.81822],[-46.36757,-23.81879],[-46.3681,-23.81943],[-46.36985,-23.81968],[-46.37047,-23.82021],[-46.37113,-23.8204],[-46.37208,-23.82022],[-46.37233,-23.82045],[-46.37341,-23.8202],[-46.37395,-23.8208],[-46.37502,-23.82153],[-46.3755,-23.82222],[-46.37563,-23.82277],[-46.37621,-23.82353],[-46.37689,-23.82289],[-46.37689,-23.82377],[-46.37712,-23.824],[-46.37828,-23.82438],[-46.37899,-23.82427],[-46.37892,-23.82492],[-46.37927,-23.82536],[-46.37999,-23.82532],[-46.38084,-23.82562],[-46.38173,-23.82642],[-46.38218,-23.8271],[-46.38304,-23.82804],[-46.38359,-23.82807],[-46.38419,-23.82772],[-46.38512,-23.82753],[-46.38588,-23.82765],[-46.38769,-23.82751],[-46.38779,-23.82803],[-46.38682,-23.82907],[-46.38682,-23.82943],[-46.3875,-23.82983],[-46.38789,-23.82968],[-46.38785,-23.82904],[-46.38854,-23.82929],[-46.38926,-23.82909],[-46.38943,-23.82978],[-46.39123,-23.83038],[-46.39212,-23.83009],[-46.39246,-23.83099],[-46.39275,-23.8312],[-46.39347,-23.83104],[-46.39505,-23.8304],[-46.39507,-23.83082],[-46.39439,-23.83151],[-46.39428,-23.83233],[-46.39515,-23.83337],[-46.3951,-23.83402],[-46.39528,-23.83486],[-46.39595,-23.83508],[-46.39679,-23.83449],[-46.39824,-23.83427],[-46.39835,-23.83481],[-46.39765,-23.83519],[-46.3972,-23.83637],[-46.39631,-23.83683],[-46.39617,-23.83739],[-46.39696,-23.83772],[-46.39757,-23.83874],[-46.39735,-23.83971],[-46.39816,-23.83987],[-46.3998,-23.84082],[-46.4,-23.84179],[-46.40027,-23.84197],[-46.40111,-23.8418],[-46.40188,-23.84219],[-46.40249,-23.84165],[-46.40292,-23.84292],[-46.40358,-23.84417],[-46.40455,-23.84541],[-46.40527,-23.84568],[-46.40507,-23.84633],[-46.40592,-23.84703],[-46.40631,-23.84769],[-46.40702,-23.84775],[-46.40689,-23.84887],[-46.40735,-23.84942]]]},"properties":{"codigo":"3513504041","name":"Raiz da Serra","population":14,"households":10,"areaKm2":12.1531,"density":1.2}},{"type":"Feature","geometry":{"type":"Polygon","coordinates":[[[-46.34097,-23.80358],[-46.33645,-23.79975],[-46.33092,-23.79721],[-46.32893,-23.79522],[-46.32847,-23.7938],[-46.32757,-23.79314],[-46.32679,-23.79304],[-46.3262,-23.79349],[-46.32507,-23.79018],[-46.32193,-23.78772],[-46.32024,-23.78722],[-46.32024,-23.78548],[-46.32083,-23.78507],[-46.32232,-23.78537],[-46.32353,-23.78534],[-46.32496,-23.78471],[-46.32535,-23.78422],[-46.32606,-23.78425],[-46.3268,-23.78403],[-46.32746,-23.78341],[-46.3284,-23.78347],[-46.3289,-23.78325],[-46.32911,-23.78265],[-46.32954,-23.78234],[-46.33073,-23.78227],[-46.33147,-23.78196],[-46.33178,-23.78126],[-46.33264,-23.78129],[-46.33379,-23.78115],[-46.33556,-23.78125],[-46.33709,-23.78161],[-46.33786,-23.7815],[-46.33861,-23.78167],[-46.34066,-23.78277],[-46.34235,-23.78382],[-46.34346,-23.78474],[-46.34392,-23.78536],[-46.34476,-23.78699],[-46.34517,-23.78746],[-46.34625,-23.78774],[-46.34841,-23.78783],[-46.34911,-23.78716],[-46.35205,-23.78786],[-46.35377,-23.78867],[-46.35377,-23.78938],[-46.35357,-23.79051],[-46.35387,-23.79106],[-46.35444,-23.79147],[-46.3558,-23.79134],[-46.35612,-23.79077],[-46.35655,-23.79067],[-46.35704,-23.79128],[-46.35875,-23.79217],[-46.36019,-23.79208],[-46.36116,-23.79243],[-46.36181,-23.79181],[-46.36211,-23.79129],[-46.36256,-23.79123],[-46.36339,-23.79167],[-46.36496,-23.79174],[-46.3666,-23.79244],[-46.36768,-23.79246],[-46.3686,-23.79206],[-46.36881,-23.79151],[-46.36955,-23.7912],[-46.37045,-23.79109],[-46.37195,-23.78979],[-46.3725,-23.78985],[-46.37259,-23.79042],[-46.37292,-23.79082],[-46.37437,-23.79165],[-46.37461,-23.79206],[-46.37328,-23.79327],[-46.37109,-23.79565],[-46.36801,-23.80084],[-46.36726,-23.80096],[-46.36611,-23.80059],[-46.36603,-23.79981],[-46.36631,-23.79941],[-46.3673,-23.79892],[-46.3674,-23.79853],[-46.3652,-23.79844],[-46.36437,-23.79876],[-46.36398,-23.79837],[-46.36341,-23.79912],[-46.36284,-23.79876],[-46.36222,-23.79916],[-46.36117,-23.799],[-46.36075,-23.79934],[-46.35998,-23.79927],[-46.35851,-23.7989],[-46.3584,-23.79907],[-46.35893,-23.80054],[-46.35936,-23.80116],[-46.35828,-23.80098],[-46.35642,-23.80107],[-46.35617,-23.80201],[-46.35682,-23.80247],[-46.35594,-23.80297],[-46.35634,-23.80409],[-46.35625,-23.80476],[-46.35484,-23.8052],[-46.35432,-23.80576],[-46.35363,-23.80588],[-46.35339,-23.80462],[-46.35274,-23.80397],[-46.35219,-23.80303],[-46.35152,-23.80328],[-46.35078,-23.80247],[-46.35088,-23.80176],[-46.35059,-23.80161],[-46.34884,-23.80169],[-46.34773,-23.80097],[-46.34676,-23.80086],[-46.34626,-23.79986],[-46.3448,-23.80151],[-46.34143,-23.80333],[-46.34097,-23.80358]]]},"properties":{"codigo":"3513504027","name":"Serra do Mogi","population":null,"households":null,"areaKm2":6.963,"density":null}},{"type":"Feature","geometry":{"type":"Polygon","coordinates":[[[-46.42751,-23.90065],[-46.42719,-23.90118],[-46.42628,-23.90152],[-46.42704,-23.89993],[-46.42675,-23.89957],[-46.42562,-23.90064],[-46.42374,-23.90207],[-46.42289,-23.90248],[-46.42109,-23.89609],[-46.42051,-23.89426],[-46.4195,-23.89054],[-46.41918,-23.88966],[-46.41987,-23.88971],[-46.42014,-23.89105],[-46.4233,-23.89154],[-46.42485,-23.89184],[-46.43202,-23.89345],[-46.43267,-23.89499],[-46.4326,-23.89535],[-46.43039,-23.89762],[-46.42869,-23.89917],[-46.42751,-23.90065]]]},"properties":{"codigo":"3513504008","name":"Vila Nova","population":10035,"households":4434,"areaKm2":0.9733,"density":10309.8}},{"type":"Feature","geometry":{"type":"Polygon","coordinates":[[[-46.42279,-23.91219],[-46.42375,-23.91048],[-46.4244,-23.90896],[-46.42625,-23.90321],[-46.42719,-23.90118],[-46.42751,-23.90065],[-46.4282,-23.90099],[-46.43045,-23.90174],[-46.4312,-23.90181],[-46.43243,-23.90143],[-46.43312,-23.9016],[-46.43392,-23.90234],[-46.43404,-23.90281],[-46.43473,-23.90295],[-46.43557,-23.90341],[-46.43731,-23.90412],[-46.43815,-23.90355],[-46.43825,-23.9032],[-46.43888,-23.90207],[-46.43949,-23.90172],[-46.44049,-23.90172],[-46.44066,-23.90207],[-46.44147,-23.90249],[-46.44132,-23.90334],[-46.4408,-23.90436],[-46.43954,-23.90511],[-46.43909,-23.90576],[-46.439,-23.90627],[-46.43931,-23.90688],[-46.44079,-23.9079],[-46.4416,-23.90904],[-46.44148,-23.90982],[-46.4405,-23.9101],[-46.43913,-23.90968],[-46.43849,-23.90929],[-46.43725,-23.90898],[-46.43615,-23.90839],[-46.43443,-23.90764],[-46.43311,-23.90849],[-46.43261,-23.90981],[-46.43194,-23.91098],[-46.43026,-23.91355],[-46.43019,-23.91423],[-46.42913,-23.91451],[-46.42826,-23.91423],[-46.42804,-23.91388],[-46.42736,-23.91392],[-46.42661,-23.91439],[-46.42586,-23.91443],[-46.4244,-23.91511],[-46.42444,-23.91448],[-46.4241,-23.91403],[-46.42321,-23.91339],[-46.4233,-23.91235],[-46.42279,-23.91219]]]},"properties":{"codigo":"3513504035","name":"Parque Cotia-Pará","population":null,"households":null,"areaKm2":1.6088,"density":null}},{"type":"Feature","geometry":{"type":"Polygon","coordinates":[[[-46.42669,-23.88035],[-46.42431,-23.8813],[-46.4231,-23.88158],[-46.42253,-23.88121],[-46.42212,-23.8799],[-46.42362,-23.8783],[-46.42512,-23.87681],[-46.42603,-23.87576],[-46.42657,-23.87646],[-46.42661,-23.87691],[-46.4275,-23.87778],[-46.42736,-23.87804],[-46.42793,-23.87899],[-46.4287,-23.87967],[-46.42669,-23.88035]]]},"properties":{"codigo":"3513504001","name":"Vila Elizabeth","population":328,"households":156,"areaKm2":0.2142,"density":1531.2}},{"type":"Feature","geometry":{"type":"Polygon","coordinates":[[[-46.40249,-23.84165],[-46.40188,-23.84219],[-46.40111,-23.8418],[-46.40027,-23.84197],[-46.4,-23.84179],[-46.3998,-23.84082],[-46.39816,-23.83987],[-46.39735,-23.83971],[-46.39757,-23.83874],[-46.39696,-23.83772],[-46.39617,-23.83739],[-46.39631,-23.83683],[-46.3972,-23.83637],[-46.39765,-23.83519],[-46.39835,-23.83481],[-46.39824,-23.83427],[-46.39679,-23.83449],[-46.39595,-23.83508],[-46.39528,-23.83486],[-46.3951,-23.83402],[-46.39515,-23.83337],[-46.39428,-23.83233],[-46.39439,-23.83151],[-46.39507,-23.83082],[-46.39505,-23.8304],[-46.39347,-23.83104],[-46.39275,-23.8312],[-46.39246,-23.83099],[-46.39212,-23.83009],[-46.39123,-23.83038],[-46.38943,-23.82978],[-46.38926,-23.82909],[-46.38854,-23.82929],[-46.38785,-23.82904],[-46.38789,-23.82968],[-46.3875,-23.82983],[-46.38682,-23.82943],[-46.38682,-23.82907],[-46.38779,-23.82803],[-46.38769,-23.82751],[-46.38588,-23.82765],[-46.38512,-23.82753],[-46.38419,-23.82772],[-46.38359,-23.82807],[-46.38304,-23.82804],[-46.38218,-23.8271],[-46.38173,-23.82642],[-46.38084,-23.82562],[-46.37999,-23.82532],[-46.37927,-23.82536],[-46.37892,-23.82492],[-46.37899,-23.82427],[-46.37828,-23.82438],[-46.37712,-23.824],[-46.37689,-23.82377],[-46.37689,-23.82289],[-46.37621,-23.82353],[-46.37563,-23.82277],[-46.3755,-23.82222],[-46.37502,-23.82153],[-46.37395,-23.8208],[-46.37341,-23.8202],[-46.37233,-23.82045],[-46.37208,-23.82022],[-46.37113,-23.8204],[-46.37047,-23.82021],[-46.36985,-23.81968],[-46.3681,-23.81943],[-46.36757,-23.81879],[-46.36751,-23.81822],[-46.36811,-23.81642],[-46.36772,-23.81591],[-46.36707,-23.81594],[-46.36676,-23.81546],[-46.36722,-23.81455],[-46.36698,-23.81426],[-46.36622,-23.81444],[-46.36514,-23.8152],[-46.36388,-23.81543],[-46.36353,-23.81625],[-46.36372,-23.81671],[-46.36292,-23.81741],[-46.36245,-23.81827],[-46.36246,-23.81896],[-46.36211,-23.81902],[-46.36097,-23.81778],[-46.35981,-23.81735],[-46.35944,-23.81652],[-46.35813,-23.81558],[-46.35735,-23.81461],[-46.35719,-23.81389],[-46.35616,-23.8127],[-46.35755,-23.81112],[-46.35847,-23.80951],[-46.35973,-23.80876],[-46.36242,-23.80784],[-46.36319,-23.80749],[-46.36361,-23.80558],[-46.36285,-23.80562],[-46.36162,-23.80655],[-46.36121,-23.80727],[-46.36045,-23.80789],[-46.35785,-23.80841],[-46.35702,-23.80894],[-46.35632,-23.80999],[-46.35615,-23.81054],[-46.35568,-23.81114],[-46.35464,-23.81179],[-46.35373,-23.81198],[-46.35298,-23.81044],[-46.35244,-23.80882],[-46.35114,-23.80802],[-46.34992,-23.80689],[-46.34996,-23.80619],[-46.34964,-23.80567],[-46.34893,-23.80578],[-46.34798,-23.80492],[-46.34755,-23.80493],[-46.34462,-23.80346],[-46.34379,-23.80359],[-46.34281,-23.80442],[-46.34281,-23.80383],[-46.34237,-23.80343],[-46.34143,-23.80333],[-46.3448,-23.80151],[-46.34626,-23.79986],[-46.34676,-23.80086],[-46.34773,-23.80097],[-46.34884,-23.80169],[-46.35059,-23.80161],[-46.35088,-23.80176],[-46.35078,-23.80247],[-46.35152,-23.80328],[-46.35219,-23.80303],[-46.35274,-23.80397],[-46.35339,-23.80462],[-46.35363,-23.80588],[-46.35432,-23.80576],[-46.35484,-23.8052],[-46.35625,-23.80476],[-46.35634,-23.80409],[-46.35594,-23.80297],[-46.35682,-23.80247],[-46.35617,-23.80201],[-46.35642,-23.80107],[-46.35828,-23.80098],[-46.35936,-23.80116],[-46.35893,-23.80054],[-46.3584,-23.79907],[-46.35851,-23.7989],[-46.35998,-23.79927],[-46.36075,-23.79934],[-46.36117,-23.799],[-46.36222,-23.79916],[-46.36284,-23.79876],[-46.36341,-23.79912],[-46.36398,-23.79837],[-46.36437,-23.79876],[-46.3652,-23.79844],[-46.3674,-23.79853],[-46.3673,-23.79892],[-46.36631,-23.79941],[-46.36603,-23.79981],[-46.36611,-23.80059],[-46.36726,-23.80096],[-46.36801,-23.80084],[-46.37109,-23.79565],[-46.37328,-23.79327],[-46.37461,-23.79206],[-46.37495,-23.79252],[-46.37642,-23.79347],[-46.37694,-23.79341],[-46.37724,-23.79481],[-46.37686,-23.79504],[-46.37589,-23.79467],[-46.37454,-23.79462],[-46.37367,-23.79489],[-46.37333,-23.79546],[-46.37401,-23.79688],[-46.37468,-23.79773],[-46.37525,-23.79908],[-46.37546,-23.80013],[-46.37683,-23.80188],[-46.377,-23.80264],[-46.37742,-23.80329],[-46.3776,-23.80413],[-46.37804,-23.8046],[-46.37925,-23.80517],[-46.37991,-23.80579],[-46.38068,-23.80611],[-46.38082,-23.8068],[-46.3815,-23.80754],[-46.38231,-23.80752],[-46.38266,-23.80908],[-46.38363,-23.80972],[-46.38507,-23.80976],[-46.38629,-23.80928],[-46.38896,-23.80977],[-46.38956,-23.81],[-46.39274,-23.81208],[-46.39303,-23.81243],[-46.39375,-23.81326],[-46.39418,-23.81431],[-46.39448,-23.81433],[-46.39501,-23.81339],[-46.39571,-23.8126],[-46.39586,-23.81192],[-46.39617,-23.81177],[-46.39785,-23.81204],[-46.39857,-23.81186],[-46.4011,-23.81179],[-46.40187,-23.81197],[-46.4024,-23.81175],[-46.40289,-23.81219],[-46.40337,-23.81223],[-46.404,-23.8119],[-46.40449,-23.81224],[-46.40587,-23.81237],[-46.40798,-23.8132],[-46.40848,-23.81475],[-46.40929,-23.81527],[-46.4103,-23.81538],[-46.41164,-23.81666],[-46.41442,-23.81797],[-46.41502,-23.81765],[-46.41514,-23.81702],[-46.4164,-23.81791],[-46.41919,-23.81917],[-46.42062,-23.82015],[-46.4211,-23.82062],[-46.42273,-23.82259],[-46.42348,-23.82311],[-46.42442,-23.82407],[-46.4257,-23.82458],[-46.42632,-23.82515],[-46.42948,-23.82588],[-46.43125,-23.82604],[-46.43245,-23.82567],[-46.43378,-23.82548],[-46.43364,-23.82431],[-46.43441,-23.82412],[-46.43687,-23.82537],[-46.43781,-23.82631],[-46.43818,-23.82699],[-46.43823,-23.82787],[-46.43729,-23.82851],[-46.4373,-23.82924],[-46.4339,-23.83268],[-46.42938,-23.83497],[-46.42616,-23.83821],[-46.42406,-23.83792],[-46.42331,-23.83751],[-46.42291,-23.83674],[-46.42251,-23.83688],[-46.42234,-23.83746],[-46.42143,-23.83786],[-46.42076,-23.83749],[-46.42005,-23.83669],[-46.41888,-23.8363],[-46.41836,-23.83566],[-46.41822,-23.83504],[-46.41776,-23.8352],[-46.41715,-23.83482],[-46.41451,-23.83512],[-46.41428,-23.83415],[-46.41391,-23.83395],[-46.41284,-23.8346],[-46.41194,-23.83443],[-46.41137,-23.83374],[-46.40995,-23.83409],[-46.40845,-23.83307],[-46.40802,-23.83381],[-46.40695,-23.83396],[-46.40674,-23.83467],[-46.40713,-23.83571],[-46.40755,-23.83591],[-46.40745,-23.83663],[-46.40785,-23.83718],[-46.40764,-23.83828],[-46.40727,-23.8387],[-46.40791,-23.8406],[-46.40721,-23.84032],[-46.40541,-23.83907],[-46.4039,-23.83844],[-46.40303,-23.83788],[-46.40289,-23.84073],[-46.40237,-23.84116],[-46.40249,-23.84165]]]},"properties":{"codigo":"3513504026","name":"Serra do Poço do Meio","population":null,"households":null,"areaKm2":17.4343,"density":null}},{"type":"Feature","geometry":{"type":"Polygon","coordinates":[[[-46.4157,-23.91861],[-46.41492,-23.91786],[-46.41827,-23.91594],[-46.41902,-23.91522],[-46.42154,-23.91147],[-46.42167,-23.91128],[-46.42273,-23.90967],[-46.4231,-23.90829],[-46.42306,-23.90388],[-46.42289,-23.90248],[-46.42374,-23.90207],[-46.42562,-23.90064],[-46.42675,-23.89957],[-46.42704,-23.89993],[-46.42628,-23.90152],[-46.42719,-23.90118],[-46.42625,-23.90321],[-46.4244,-23.90896],[-46.42375,-23.91048],[-46.42279,-23.91219],[-46.42124,-23.91421],[-46.42027,-23.91521],[-46.41882,-23.91643],[-46.4157,-23.91861]]]},"properties":{"codigo":"3513504010","name":"Vila São José","population":4554,"households":1887,"areaKm2":0.3901,"density":11673.8}},{"type":"Feature","geometry":{"type":"Polygon","coordinates":[[[-46.43476,-23.93635],[-46.43455,-23.93651],[-46.43312,-23.93682],[-46.43165,-23.93696],[-46.43037,-23.93688],[-46.42947,-23.93668],[-46.42714,-23.93565],[-46.42613,-23.93497],[-46.42536,-23.93476],[-46.42938,-23.92974],[-46.43166,-23.9312],[-46.43214,-23.93139],[-46.43241,-23.93375],[-46.43342,-23.93404],[-46.43396,-23.93436],[-46.43454,-23.9351],[-46.43476,-23.93635]]]},"properties":{"codigo":"3513504014","name":"Ilha Caraguatá","population":5155,"households":1995,"areaKm2":0.4299,"density":11992.4}},{"type":"Feature","geometry":{"type":"Polygon","coordinates":[[[-46.39604,-23.92828],[-46.39754,-23.9283],[-46.39999,-23.92799],[-46.40126,-23.92768],[-46.40324,-23.92695],[-46.4056,-23.92565],[-46.40764,-23.92422],[-46.40839,-23.92455],[-46.40833,-23.92521],[-46.41043,-23.92744],[-46.4133,-23.93084],[-46.41448,-23.93223],[-46.41271,-23.93243],[-46.4107,-23.93236],[-46.40994,-23.93275],[-46.40925,-23.93233],[-46.40707,-23.93231],[-46.40678,-23.93262],[-46.40628,-23.93226],[-46.40526,-23.93233],[-46.40327,-23.93222],[-46.40208,-23.93295],[-46.40054,-23.93427],[-46.3996,-23.93489],[-46.39837,-23.93512],[-46.39566,-23.93517],[-46.39533,-23.93488],[-46.39555,-23.93414],[-46.39631,-23.93234],[-46.39722,-23.93078],[-46.3975,-23.93013],[-46.39649,-23.93034],[-46.39604,-23.92828]]]},"properties":{"codigo":"3513504013","name":"Jardim Casqueiro","population":10825,"households":4646,"areaKm2":1.1546,"density":9375.8}},{"type":"Feature","geometry":{"type":"Polygon","coordinates":[[[-46.44853,-23.88163],[-46.4505,-23.88002],[-46.45166,-23.8794],[-46.45227,-23.87926],[-46.45475,-23.87908],[-46.45547,-23.87916],[-46.45652,-23.8797],[-46.45709,-23.88031],[-46.45651,-23.88098],[-46.45303,-23.88448],[-46.45289,-23.8848],[-46.45203,-23.88413],[-46.45011,-23.88294],[-46.44952,-23.88231],[-46.44853,-23.88163]]]},"properties":{"codigo":"3513504016","name":"Vila Fabril","population":1392,"households":619,"areaKm2":0.3064,"density":4543}},{"type":"Feature","geometry":{"type":"Polygon","coordinates":[[[-46.45484,-23.88607],[-46.45449,-23.88639],[-46.4535,-23.88481],[-46.45303,-23.88448],[-46.45651,-23.88098],[-46.45709,-23.88031],[-46.45757,-23.88005],[-46.45822,-23.87921],[-46.45892,-23.87849],[-46.45961,-23.87822],[-46.46043,-23.87874],[-46.46201,-23.88033],[-46.46142,-23.88087],[-46.46054,-23.88104],[-46.46263,-23.88344],[-46.46358,-23.88678],[-46.46155,-23.88715],[-46.46056,-23.88642],[-46.45919,-23.88608],[-46.45654,-23.8858],[-46.45562,-23.88579],[-46.45484,-23.88607]]]},"properties":{"codigo":"3513504018","name":"Pinhal do Miranda","population":1667,"households":654,"areaKm2":0.5754,"density":2897.3}},{"type":"Feature","geometry":{"type":"Polygon","coordinates":[[[-46.4326,-23.89535],[-46.43267,-23.89499],[-46.43202,-23.89345],[-46.42485,-23.89184],[-46.4233,-23.89154],[-46.42014,-23.89105],[-46.41987,-23.88971],[-46.42141,-23.88993],[-46.42226,-23.88985],[-46.42802,-23.88872],[-46.42965,-23.88827],[-46.43221,-23.88784],[-46.43259,-23.88828],[-46.43543,-23.89116],[-46.43586,-23.89206],[-46.43445,-23.89342],[-46.4326,-23.89535]]]},"properties":{"codigo":"3513504007","name":"Santa Rosa","population":4182,"households":1905,"areaKm2":0.595,"density":7028.4}},{"type":"Feature","geometry":{"type":"Polygon","coordinates":[[[-46.36682,-23.856],[-46.36611,-23.85337],[-46.36541,-23.85171],[-46.36399,-23.85004],[-46.36269,-23.84921],[-46.36088,-23.84861],[-46.3599,-23.84757],[-46.35884,-23.84599],[-46.35759,-23.84528],[-46.35646,-23.84503],[-46.35259,-23.84288],[-46.35099,-23.84176],[-46.35016,-23.8405],[-46.34958,-23.83933],[-46.34914,-23.83786],[-46.34871,-23.83676],[-46.34832,-23.83461],[-46.34719,-23.8331],[-46.34486,-23.83096],[-46.34421,-23.82982],[-46.34404,-23.8286],[-46.34419,-23.82787],[-46.3438,-23.82676],[-46.34373,-23.82515],[-46.3426,-23.82338],[-46.33986,-23.82079],[-46.33815,-23.81882],[-46.33745,-23.81778],[-46.33442,-23.81465],[-46.33348,-23.81393],[-46.33234,-23.81274],[-46.33104,-23.8107],[-46.33085,-23.80913],[-46.33057,-23.80882],[-46.32971,-23.8085],[-46.32946,-23.80819],[-46.32937,-23.80716],[-46.32815,-23.80572],[-46.32758,-23.80528],[-46.32511,-23.8045],[-46.32392,-23.80377],[-46.32308,-23.80346],[-46.32152,-23.8032],[-46.32029,-23.8031],[-46.32024,-23.78722],[-46.32193,-23.78772],[-46.32507,-23.79018],[-46.3262,-23.79349],[-46.32679,-23.79304],[-46.32757,-23.79314],[-46.32847,-23.7938],[-46.32893,-23.79522],[-46.33092,-23.79721],[-46.33645,-23.79975],[-46.34097,-23.80358],[-46.34129,-23.804],[-46.34108,-23.80459],[-46.34226,-23.80461],[-46.34269,-23.80528],[-46.3434,-23.80515],[-46.34383,-23.80574],[-46.34461,-23.80576],[-46.34523,-23.80628],[-46.34568,-23.80625],[-46.34626,-23.80716],[-46.34759,-23.80707],[-46.34736,-23.80832],[-46.3478,-23.80906],[-46.34905,-23.81059],[-46.34943,-23.8108],[-46.34986,-23.81207],[-46.3492,-23.81248],[-46.34903,-23.81317],[-46.34918,-23.81397],[-46.34995,-23.81359],[-46.3504,-23.81399],[-46.35017,-23.81436],[-46.35031,-23.81491],[-46.35171,-23.81557],[-46.35235,-23.81615],[-46.35294,-23.81809],[-46.35323,-23.81836],[-46.35334,-23.81907],[-46.353,-23.82109],[-46.35356,-23.82178],[-46.35362,-23.8224],[-46.35455,-23.82265],[-46.35497,-23.82303],[-46.35612,-23.82481],[-46.35613,-23.82548],[-46.35639,-23.82641],[-46.35624,-23.82692],[-46.35726,-23.82692],[-46.35767,-23.82742],[-46.35814,-23.82886],[-46.35915,-23.82974],[-46.35908,-23.83129],[-46.36013,-23.83137],[-46.35987,-23.83238],[-46.36008,-23.83307],[-46.36049,-23.83333],[-46.35974,-23.83404],[-46.36025,-23.83493],[-46.36136,-23.83514],[-46.36147,-23.83635],[-46.36192,-23.83672],[-46.36296,-23.83714],[-46.36337,-23.83748],[-46.3633,-23.83815],[-46.36448,-23.83892],[-46.36471,-23.83954],[-46.3655,-23.84011],[-46.36529,-23.84069],[-46.3658,-23.84097],[-46.36578,-23.84224],[-46.36648,-23.84336],[-46.36769,-23.84429],[-46.36812,-23.84477],[-46.36812,-23.84596],[-46.36858,-23.84788],[-46.36893,-23.84977],[-46.36882,-23.85035],[-46.36836,-23.85121],[-46.36833,-23.85199],[-46.36796,-23.85362],[-46.36721,-23.85483],[-46.36682,-23.856]]]},"properties":{"codigo":"3513504028","name":"Serra do Morrão","population":null,"households":null,"areaKm2":9.3501,"density":null}},{"type":"Feature","geometry":{"type":"Polygon","coordinates":[[[-46.40669,-23.87816],[-46.40591,-23.87795],[-46.40465,-23.87698],[-46.40383,-23.87606],[-46.40283,-23.87425],[-46.4026,-23.87351],[-46.40142,-23.8705],[-46.39942,-23.86555],[-46.39872,-23.86399],[-46.39766,-23.86274],[-46.39602,-23.86172],[-46.39489,-23.86058],[-46.39438,-23.85929],[-46.39459,-23.85786],[-46.39524,-23.8564],[-46.39516,-23.85461],[-46.39474,-23.8535],[-46.39412,-23.85263],[-46.39454,-23.85179],[-46.39654,-23.84969],[-46.39776,-23.84975],[-46.40117,-23.85166],[-46.40419,-23.85356],[-46.40712,-23.85547],[-46.40909,-23.85813],[-46.41002,-23.85921],[-46.41158,-23.86182],[-46.41295,-23.86337],[-46.41412,-23.86451],[-46.41534,-23.86486],[-46.41585,-23.86539],[-46.41571,-23.86597],[-46.41447,-23.86641],[-46.41303,-23.8677],[-46.41138,-23.86681],[-46.41054,-23.86689],[-46.4103,-23.86936],[-46.41077,-23.87041],[-46.41004,-23.87171],[-46.41113,-23.87436],[-46.41023,-23.87563],[-46.40971,-23.87686],[-46.40833,-23.87787],[-46.40741,-23.87817],[-46.40669,-23.87816]]]},"properties":{"codigo":"3513504029","name":"Areais","population":3,"households":5,"areaKm2":3.417,"density":0.9}},{"type":"Feature","geometry":{"type":"Polygon","coordinates":[[[-46.46243,-23.91],[-46.46048,-23.91203],[-46.45985,-23.91141],[-46.4589,-23.91088],[-46.45786,-23.90981],[-46.45712,-23.90934],[-46.45701,-23.90849],[-46.45622,-23.90844],[-46.45597,-23.90817],[-46.45608,-23.90728],[-46.4558,-23.90703],[-46.4549,-23.90718],[-46.45373,-23.9081],[-46.45281,-23.90839],[-46.45142,-23.90797],[-46.45065,-23.90786],[-46.44926,-23.9082],[-46.44749,-23.9092],[-46.44716,-23.90969],[-46.4474,-23.91115],[-46.44694,-23.91248],[-46.44712,-23.91318],[-46.4475,-23.91339],[-46.44816,-23.91305],[-46.44876,-23.91222],[-46.44948,-23.91175],[-46.45029,-23.91187],[-46.45055,-23.91271],[-46.4503,-23.91411],[-46.44934,-23.91527],[-46.4465,-23.91473],[-46.44503,-23.91488],[-46.44431,-23.91515],[-46.44328,-23.91574],[-46.44265,-23.91667],[-46.44312,-23.91729],[-46.44203,-23.91826],[-46.44047,-23.91868],[-46.43995,-23.91848],[-46.44133,-23.91718],[-46.4407,-23.91683],[-46.44008,-23.91701],[-46.43996,-23.91757],[-46.43947,-23.91835],[-46.43856,-23.91869],[-46.43654,-23.91785],[-46.43312,-23.91522],[-46.43205,-23.9148],[-46.43103,-23.9147],[-46.43074,-23.91414],[-46.43158,-23.91289],[-46.43305,-23.91029],[-46.4335,-23.90902],[-46.43389,-23.90845],[-46.43435,-23.90833],[-46.43663,-23.90937],[-46.44,-23.9106],[-46.44099,-23.91045],[-46.4419,-23.90992],[-46.44212,-23.90936],[-46.44196,-23.90856],[-46.44155,-23.9078],[-46.44059,-23.90706],[-46.43962,-23.90647],[-46.43952,-23.90606],[-46.44142,-23.90458],[-46.44206,-23.90495],[-46.44277,-23.90467],[-46.4432,-23.90359],[-46.44529,-23.90368],[-46.44709,-23.90307],[-46.44854,-23.90333],[-46.4505,-23.90259],[-46.45136,-23.9033],[-46.44983,-23.90444],[-46.44931,-23.90498],[-46.44954,-23.90569],[-46.45021,-23.90536],[-46.45178,-23.90424],[-46.45297,-23.90387],[-46.45491,-23.90349],[-46.45601,-23.9034],[-46.458,-23.90431],[-46.45813,-23.9057],[-46.45878,-23.90626],[-46.46028,-23.90631],[-46.46146,-23.90515],[-46.46029,-23.90403],[-46.45972,-23.90377],[-46.45669,-23.90273],[-46.45569,-23.90223],[-46.45776,-23.90229],[-46.45981,-23.903],[-46.46085,-23.90369],[-46.46181,-23.90472],[-46.46249,-23.90624],[-46.46267,-23.90715],[-46.46276,-23.90877],[-46.46243,-23.91]]]},"properties":{"codigo":"3513504036","name":"Paranhos","population":null,"households":null,"areaKm2":2.5708,"density":null}},{"type":"Feature","geometry":{"type":"Polygon","coordinates":[[[-46.45822,-23.87921],[-46.45757,-23.88005],[-46.45709,-23.88031],[-46.45652,-23.8797],[-46.45547,-23.87916],[-46.45475,-23.87908],[-46.45227,-23.87926],[-46.45166,-23.8794],[-46.4505,-23.88002],[-46.44853,-23.88163],[-46.44789,-23.88103],[-46.44731,-23.88077],[-46.44658,-23.88084],[-46.4469,-23.87996],[-46.44671,-23.87916],[-46.44695,-23.87848],[-46.44743,-23.87777],[-46.44688,-23.87726],[-46.44599,-23.87598],[-46.44541,-23.87547],[-46.44468,-23.87516],[-46.44349,-23.87494],[-46.44184,-23.87511],[-46.44179,-23.8747],[-46.44074,-23.87153],[-46.4402,-23.8715],[-46.44007,-23.87003],[-46.44172,-23.8695],[-46.44127,-23.8682],[-46.44348,-23.86711],[-46.4436,-23.86892],[-46.44465,-23.86863],[-46.44586,-23.86853],[-46.44601,-23.86905],[-46.4457,-23.86969],[-46.44581,-23.87025],[-46.44695,-23.87042],[-46.44811,-23.87006],[-46.44879,-23.86969],[-46.44928,-23.86968],[-46.44962,-23.87033],[-46.44915,-23.87118],[-46.45,-23.87193],[-46.45005,-23.8724],[-46.45056,-23.87273],[-46.45049,-23.87318],[-46.45255,-23.87351],[-46.45396,-23.87434],[-46.45491,-23.87446],[-46.45557,-23.87404],[-46.45606,-23.87331],[-46.45675,-23.87318],[-46.45702,-23.87341],[-46.45704,-23.87412],[-46.45637,-23.87549],[-46.45653,-23.87649],[-46.45718,-23.87656],[-46.45736,-23.87763],[-46.45713,-23.87888],[-46.45822,-23.87921]]]},"properties":{"codigo":"3513504017","name":"Vila Light","population":93,"households":144,"areaKm2":1.2867,"density":72.3}},{"type":"Feature","geometry":{"type":"Polygon","coordinates":[[[-46.41876,-23.88212],[-46.41911,-23.88082],[-46.41969,-23.88096],[-46.42025,-23.88063],[-46.42157,-23.88092],[-46.42212,-23.8799],[-46.42253,-23.88121],[-46.4231,-23.88158],[-46.42431,-23.8813],[-46.42404,-23.88299],[-46.42369,-23.88293],[-46.42308,-23.88593],[-46.4223,-23.88926],[-46.42226,-23.88985],[-46.42141,-23.88993],[-46.41987,-23.88971],[-46.41918,-23.88966],[-46.4183,-23.88813],[-46.41771,-23.88748],[-46.41789,-23.88638],[-46.41733,-23.88581],[-46.41804,-23.88498],[-46.41886,-23.88515],[-46.41934,-23.88223],[-46.41876,-23.88212]]]},"properties":{"codigo":"3513504005","name":"Centro","population":692,"households":426,"areaKm2":0.4663,"density":1484}}]}