{"type":"FeatureCollection","features":[{"type":"Feature","geometry":{"type":"Polygon","coordinates":[[[-47.19336,-22.87459],[-47.19263,-22.87436],[-47.19045,-22.87397],[-47.19034,-22.87345],[-47.18896,-22.87298],[-47.18695,-22.87159],[-47.18682,-22.8713],[-47.18585,-22.87068],[-47.18511,-22.87079],[-47.18327,-22.87023],[-47.18184,-22.87025],[-47.18108,-22.86992],[-47.18006,-22.86998],[-47.17875,-22.86953],[-47.17752,-22.86947],[-47.17648,-22.86968],[-47.17636,-22.86913],[-47.17816,-22.86888],[-47.17768,-22.86598],[-47.17899,-22.86172],[-47.17906,-22.86022],[-47.18032,-22.86007],[-47.18026,-22.85985],[-47.18142,-22.86001],[-47.188,-22.85888],[-47.18915,-22.85834],[-47.19293,-22.85444],[-47.19363,-22.85508],[-47.19957,-22.86117],[-47.20076,-22.86249],[-47.19871,-22.86361],[-47.19479,-22.86588],[-47.19397,-22.86419],[-47.19214,-22.86509],[-47.19009,-22.86632],[-47.19067,-22.86685],[-47.19195,-22.8684],[-47.1923,-22.869],[-47.19323,-22.87111],[-47.19351,-22.87252],[-47.19336,-22.87459]]]},"properties":{"codigo":"3519071023","name":"RP 5-23","population":1,"households":1,"areaKm2":2.6003,"density":0.4}},{"type":"Feature","geometry":{"type":"Polygon","coordinates":[[[-47.19227,-22.8978],[-47.19317,-22.89661],[-47.19406,-22.89625],[-47.19413,-22.89589],[-47.19548,-22.895],[-47.1959,-22.89362],[-47.19628,-22.89362],[-47.19719,-22.89304],[-47.19801,-22.89225],[-47.19795,-22.89193],[-47.1987,-22.89158],[-47.20248,-22.88943],[-47.20295,-22.88942],[-47.20336,-22.88977],[-47.20403,-22.88971],[-47.20572,-22.88915],[-47.2068,-22.88857],[-47.2098,-22.88731],[-47.21074,-22.88659],[-47.21177,-22.88633],[-47.21278,-22.88533],[-47.21249,-22.88498],[-47.21276,-22.88446],[-47.21326,-22.88482],[-47.21313,-22.88645],[-47.21341,-22.88682],[-47.21363,-22.88782],[-47.21393,-22.88992],[-47.21466,-22.89083],[-47.21364,-22.89117],[-47.21341,-22.89197],[-47.21353,-22.89228],[-47.21324,-22.89301],[-47.21321,-22.89415],[-47.21338,-22.89453],[-47.21338,-22.89654],[-47.2137,-22.89674],[-47.21422,-22.89715],[-47.21428,-22.89868],[-47.21243,-22.89915],[-47.2105,-22.89988],[-47.20756,-22.90138],[-47.20441,-22.9035],[-47.20208,-22.90229],[-47.19881,-22.90067],[-47.19658,-22.89958],[-47.19227,-22.8978]]]},"properties":{"codigo":"3519071007","name":"RP 2-7","population":11160,"households":4457,"areaKm2":2.495,"density":4472.9}},{"type":"Feature","geometry":{"type":"Polygon","coordinates":[[[-47.19881,-22.90067],[-47.19568,-22.90564],[-47.19549,-22.90587],[-47.1934,-22.90925],[-47.1929,-22.90965],[-47.19135,-22.91043],[-47.19125,-22.91079],[-47.18708,-22.91085],[-47.18572,-22.91109],[-47.18423,-22.91158],[-47.18277,-22.9118],[-47.18113,-22.91221],[-47.18118,-22.91151],[-47.18707,-22.89868],[-47.18739,-22.89768],[-47.18796,-22.8967],[-47.18843,-22.89632],[-47.19227,-22.8978],[-47.19658,-22.89958],[-47.19881,-22.90067]]]},"properties":{"codigo":"3519071015","name":"RP 4-15","population":3102,"households":1944,"areaKm2":1.7235,"density":1799.8}},{"type":"Feature","geometry":{"type":"Polygon","coordinates":[[[-47.20825,-22.87429],[-47.20396,-22.87597],[-47.20193,-22.87676],[-47.20146,-22.87686],[-47.19866,-22.87707],[-47.19841,-22.87714],[-47.19419,-22.87744],[-47.19244,-22.87749],[-47.19489,-22.87478],[-47.1959,-22.87378],[-47.19692,-22.87288],[-47.19932,-22.87096],[-47.20191,-22.86902],[-47.20401,-22.87121],[-47.20825,-22.87429]]]},"properties":{"codigo":"3519071002","name":"RP 2-2","population":1931,"households":785,"areaKm2":0.7259,"density":2660}},{"type":"Feature","geometry":{"type":"Polygon","coordinates":[[[-47.18113,-22.91221],[-47.18025,-22.91229],[-47.17946,-22.91214],[-47.17859,-22.91174],[-47.17743,-22.91075],[-47.17598,-22.90981],[-47.17433,-22.90827],[-47.1726,-22.90766],[-47.17156,-22.90616],[-47.1669,-22.90367],[-47.16664,-22.90313],[-47.16623,-22.90116],[-47.16583,-22.90044],[-47.16563,-22.89947],[-47.16497,-22.89841],[-47.16392,-22.89763],[-47.16271,-22.89619],[-47.16217,-22.89575],[-47.16185,-22.89516],[-47.16182,-22.89392],[-47.16139,-22.89244],[-47.16053,-22.89019],[-47.16032,-22.88988],[-47.15922,-22.88935],[-47.15828,-22.88911],[-47.15738,-22.8882],[-47.15711,-22.88733],[-47.15713,-22.88549],[-47.15857,-22.88589],[-47.16056,-22.88674],[-47.16185,-22.88756],[-47.16572,-22.89025],[-47.16621,-22.89053],[-47.16704,-22.89092],[-47.1693,-22.89169],[-47.17132,-22.89197],[-47.17759,-22.8926],[-47.17863,-22.89281],[-47.18299,-22.89437],[-47.18843,-22.89632],[-47.18796,-22.8967],[-47.18739,-22.89768],[-47.18707,-22.89868],[-47.18118,-22.91151],[-47.18113,-22.91221]]]},"properties":{"codigo":"3519071016","name":"RP 4-16","population":20716,"households":8964,"areaKm2":4.0255,"density":5146.2}},{"type":"Feature","geometry":{"type":"Polygon","coordinates":[[[-47.22143,-22.86051],[-47.22137,-22.85989],[-47.21835,-22.85955],[-47.21471,-22.85954],[-47.21451,-22.85961],[-47.21232,-22.86135],[-47.21166,-22.86107],[-47.20959,-22.85906],[-47.20845,-22.85822],[-47.2084,-22.85772],[-47.20797,-22.85699],[-47.20803,-22.85593],[-47.20829,-22.85491],[-47.20786,-22.85181],[-47.20722,-22.85095],[-47.20735,-22.85001],[-47.20723,-22.84856],[-47.20358,-22.84938],[-47.20232,-22.8494],[-47.20316,-22.8472],[-47.20383,-22.84683],[-47.20305,-22.84557],[-47.20366,-22.84519],[-47.20315,-22.84394],[-47.20325,-22.84243],[-47.20431,-22.84105],[-47.20506,-22.84113],[-47.20533,-22.84265],[-47.20702,-22.84226],[-47.20807,-22.84619],[-47.20867,-22.84684],[-47.21257,-22.84852],[-47.21587,-22.84988],[-47.21733,-22.85091],[-47.21949,-22.85395],[-47.22011,-22.85357],[-47.22064,-22.85433],[-47.22223,-22.8537],[-47.22258,-22.85397],[-47.22317,-22.85496],[-47.2254,-22.85389],[-47.22916,-22.85187],[-47.22966,-22.85287],[-47.2261,-22.85482],[-47.22493,-22.85547],[-47.2257,-22.85674],[-47.22636,-22.85719],[-47.22652,-22.85759],[-47.22402,-22.8598],[-47.22334,-22.86013],[-47.22143,-22.86051]]]},"properties":{"codigo":"3519071026","name":"RP 6-26","population":16618,"households":6217,"areaKm2":2.1954,"density":7569.4}},{"type":"Feature","geometry":{"type":"Polygon","coordinates":[[[-47.2261,-22.85482],[-47.22762,-22.85687],[-47.22869,-22.85627],[-47.23516,-22.85405],[-47.23674,-22.85304],[-47.23752,-22.85269],[-47.23867,-22.85246],[-47.24099,-22.85214],[-47.24138,-22.85292],[-47.24323,-22.85376],[-47.24368,-22.85427],[-47.24187,-22.85471],[-47.23824,-22.85551],[-47.23557,-22.85749],[-47.23582,-22.8593],[-47.23564,-22.86049],[-47.23591,-22.86135],[-47.23692,-22.86232],[-47.23879,-22.86524],[-47.23893,-22.86599],[-47.23927,-22.86631],[-47.2392,-22.86694],[-47.23943,-22.86789],[-47.23903,-22.86845],[-47.23951,-22.86928],[-47.24011,-22.8714],[-47.23999,-22.87195],[-47.24061,-22.87201],[-47.24064,-22.87259],[-47.24013,-22.87358],[-47.24128,-22.87391],[-47.2416,-22.87453],[-47.24181,-22.87654],[-47.24235,-22.87683],[-47.24983,-22.87657],[-47.25023,-22.87647],[-47.25132,-22.87579],[-47.25178,-22.8761],[-47.2497,-22.87803],[-47.2475,-22.87965],[-47.24629,-22.88033],[-47.24495,-22.88089],[-47.24235,-22.88163],[-47.24004,-22.88204],[-47.23527,-22.88287],[-47.23379,-22.88324],[-47.23234,-22.88386],[-47.23094,-22.8849],[-47.23085,-22.88221],[-47.23059,-22.88034],[-47.23041,-22.87971],[-47.2282,-22.87414],[-47.22767,-22.87293],[-47.22646,-22.87085],[-47.22518,-22.86774],[-47.22471,-22.86527],[-47.22293,-22.86268],[-47.22231,-22.86214],[-47.22183,-22.86179],[-47.22143,-22.86051],[-47.22334,-22.86013],[-47.22402,-22.8598],[-47.22652,-22.85759],[-47.22636,-22.85719],[-47.2257,-22.85674],[-47.22493,-22.85547],[-47.2261,-22.85482]]]},"properties":{"codigo":"3519071005","name":"RP 2-5","population":6584,"households":2504,"areaKm2":4.514,"density":1458.6}},{"type":"Feature","geometry":{"type":"Polygon","coordinates":[[[-47.21473,-22.84338],[-47.21613,-22.84019],[-47.21727,-22.84021],[-47.21814,-22.83986],[-47.23161,-22.83997],[-47.23525,-22.83995],[-47.23671,-22.84002],[-47.23844,-22.84116],[-47.23874,-22.84159],[-47.24036,-22.84638],[-47.24001,-22.84656],[-47.23833,-22.84736],[-47.23698,-22.84318],[-47.23666,-22.84236],[-47.23186,-22.84396],[-47.23185,-22.8432],[-47.2288,-22.84317],[-47.22874,-22.84358],[-47.2249,-22.84349],[-47.21473,-22.84338]]]},"properties":{"codigo":"3519071028","name":"RP 6-28","population":4545,"households":1704,"areaKm2":0.9835,"density":4621.3}},{"type":"Feature","geometry":{"type":"Polygon","coordinates":[[[-47.20825,-22.87429],[-47.21878,-22.87019],[-47.21984,-22.8697],[-47.22001,-22.87066],[-47.21986,-22.8709],[-47.21964,-22.87245],[-47.21916,-22.87324],[-47.21902,-22.87387],[-47.21791,-22.8743],[-47.21749,-22.87511],[-47.2168,-22.87617],[-47.21661,-22.8772],[-47.21609,-22.87842],[-47.21531,-22.87917],[-47.21508,-22.88011],[-47.2075,-22.87842],[-47.20666,-22.87959],[-47.20633,-22.87942],[-47.20539,-22.88088],[-47.20483,-22.88101],[-47.20396,-22.87597],[-47.20825,-22.87429]]]},"properties":{"codigo":"3519071003","name":"RP 2-3","population":4525,"households":2144,"areaKm2":0.9705,"density":4662.3}},{"type":"Feature","geometry":{"type":"Polygon","coordinates":[[[-47.20441,-22.9035],[-47.20674,-22.90484],[-47.2076,-22.90539],[-47.21347,-22.90885],[-47.21472,-22.90901],[-47.21535,-22.9088],[-47.22226,-22.90495],[-47.2239,-22.90575],[-47.22291,-22.90582],[-47.22247,-22.90613],[-47.22189,-22.9072],[-47.22158,-22.90809],[-47.21996,-22.91025],[-47.2187,-22.91173],[-47.21759,-22.91259],[-47.21662,-22.91303],[-47.21566,-22.91327],[-47.21432,-22.91334],[-47.21254,-22.91307],[-47.21106,-22.91303],[-47.20962,-22.9131],[-47.20832,-22.91306],[-47.20436,-22.9119],[-47.2035,-22.91178],[-47.19887,-22.91155],[-47.19629,-22.91149],[-47.19513,-22.9113],[-47.19262,-22.91058],[-47.19125,-22.91079],[-47.19135,-22.91043],[-47.1929,-22.90965],[-47.1934,-22.90925],[-47.19549,-22.90587],[-47.19568,-22.90564],[-47.19881,-22.90067],[-47.20208,-22.90229],[-47.20441,-22.9035]]]},"properties":{"codigo":"3519071013","name":"RP 3-13","population":1523,"households":667,"areaKm2":2.141,"density":711.3}},{"type":"Feature","geometry":{"type":"Polygon","coordinates":[[[-47.20076,-22.86249],[-47.20253,-22.86446],[-47.2021,-22.86462],[-47.20374,-22.86646],[-47.20442,-22.86626],[-47.20535,-22.86558],[-47.20566,-22.8651],[-47.20657,-22.86481],[-47.20816,-22.864],[-47.20901,-22.86275],[-47.20986,-22.86279],[-47.2115,-22.86187],[-47.21177,-22.86185],[-47.2063,-22.86571],[-47.20468,-22.8669],[-47.20191,-22.86902],[-47.19932,-22.87096],[-47.19692,-22.87288],[-47.1959,-22.87378],[-47.19568,-22.87367],[-47.19493,-22.8744],[-47.19421,-22.87463],[-47.19336,-22.87459],[-47.19351,-22.87252],[-47.19323,-22.87111],[-47.1923,-22.869],[-47.19195,-22.8684],[-47.19067,-22.86685],[-47.19009,-22.86632],[-47.19214,-22.86509],[-47.19397,-22.86419],[-47.19479,-22.86588],[-47.19871,-22.86361],[-47.20076,-22.86249]]]},"properties":{"codigo":"3519071024","name":"RP 6-24","population":4986,"households":1903,"areaKm2":1.0175,"density":4900.5}},{"type":"Feature","geometry":{"type":"Polygon","coordinates":[[[-47.19293,-22.85444],[-47.19227,-22.85218],[-47.19746,-22.849],[-47.20033,-22.84734],[-47.20305,-22.84557],[-47.20383,-22.84683],[-47.20316,-22.8472],[-47.20232,-22.8494],[-47.20358,-22.84938],[-47.20723,-22.84856],[-47.20735,-22.85001],[-47.20722,-22.85095],[-47.20786,-22.85181],[-47.20829,-22.85491],[-47.20803,-22.85593],[-47.20797,-22.85699],[-47.2084,-22.85772],[-47.20845,-22.85822],[-47.20959,-22.85906],[-47.21166,-22.86107],[-47.21232,-22.86135],[-47.2115,-22.86187],[-47.20986,-22.86279],[-47.20901,-22.86275],[-47.20816,-22.864],[-47.20657,-22.86481],[-47.20566,-22.8651],[-47.20535,-22.86558],[-47.20442,-22.86626],[-47.20374,-22.86646],[-47.2021,-22.86462],[-47.20253,-22.86446],[-47.20076,-22.86249],[-47.19957,-22.86117],[-47.19363,-22.85508],[-47.19293,-22.85444]]]},"properties":{"codigo":"3519071025","name":"RP 6-25","population":23158,"households":9101,"areaKm2":2.3228,"density":9970.1}},{"type":"Feature","geometry":{"type":"Polygon","coordinates":[[[-47.21473,-22.84338],[-47.21337,-22.84665],[-47.21357,-22.84288],[-47.21355,-22.84146],[-47.21397,-22.84005],[-47.21452,-22.83938],[-47.2155,-22.83867],[-47.21623,-22.83841],[-47.21938,-22.83753],[-47.2199,-22.83706],[-47.22133,-22.83421],[-47.22173,-22.83369],[-47.22386,-22.83217],[-47.22466,-22.83103],[-47.22692,-22.8288],[-47.22811,-22.82725],[-47.22867,-22.82686],[-47.22915,-22.82695],[-47.2301,-22.82593],[-47.23083,-22.82559],[-47.23356,-22.82604],[-47.2345,-22.82768],[-47.2349,-22.828],[-47.23475,-22.82856],[-47.23506,-22.82891],[-47.23525,-22.83995],[-47.23161,-22.83997],[-47.21814,-22.83986],[-47.21727,-22.84021],[-47.21613,-22.84019],[-47.21473,-22.84338]]]},"properties":{"codigo":"3519071029","name":"RP 6-29","population":372,"households":479,"areaKm2":2.044,"density":182}},{"type":"Feature","geometry":{"type":"Polygon","coordinates":[[[-47.19336,-22.87459],[-47.19421,-22.87463],[-47.19493,-22.8744],[-47.19568,-22.87367],[-47.1959,-22.87378],[-47.19489,-22.87478],[-47.19244,-22.87749],[-47.19038,-22.8795],[-47.18892,-22.88122],[-47.18668,-22.88318],[-47.18306,-22.88595],[-47.18076,-22.88771],[-47.18,-22.88702],[-47.18145,-22.88535],[-47.18101,-22.88489],[-47.17922,-22.88542],[-47.17776,-22.88031],[-47.17581,-22.88137],[-47.17536,-22.88033],[-47.17479,-22.87868],[-47.17385,-22.87634],[-47.17309,-22.87433],[-47.1731,-22.87298],[-47.17336,-22.87246],[-47.17456,-22.87176],[-47.17606,-22.87149],[-47.17696,-22.87107],[-47.17648,-22.86968],[-47.17752,-22.86947],[-47.17875,-22.86953],[-47.18006,-22.86998],[-47.18108,-22.86992],[-47.18184,-22.87025],[-47.18327,-22.87023],[-47.18511,-22.87079],[-47.18585,-22.87068],[-47.18682,-22.8713],[-47.18695,-22.87159],[-47.18896,-22.87298],[-47.19034,-22.87345],[-47.19045,-22.87397],[-47.19263,-22.87436],[-47.19336,-22.87459]]]},"properties":{"codigo":"3519071019","name":"RP 5-19","population":5097,"households":2036,"areaKm2":2.4412,"density":2087.9}},{"type":"Feature","geometry":{"type":"Polygon","coordinates":[[[-47.24392,-22.89269],[-47.24652,-22.89121],[-47.24828,-22.89251],[-47.25228,-22.89596],[-47.25062,-22.89826],[-47.24565,-22.8941],[-47.24517,-22.89351],[-47.24392,-22.89269]]]},"properties":{"codigo":"3519071011","name":"RP 3-11","population":1295,"households":452,"areaKm2":0.2627,"density":4929.5}},{"type":"Feature","geometry":{"type":"Polygon","coordinates":[[[-47.2068,-22.88857],[-47.2058,-22.88676],[-47.20415,-22.88715],[-47.20254,-22.88458],[-47.19918,-22.87812],[-47.19866,-22.87707],[-47.20146,-22.87686],[-47.20193,-22.87676],[-47.20396,-22.87597],[-47.20483,-22.88101],[-47.20539,-22.88088],[-47.20633,-22.87942],[-47.20666,-22.87959],[-47.2075,-22.87842],[-47.21508,-22.88011],[-47.21476,-22.88056],[-47.21475,-22.88163],[-47.21446,-22.88214],[-47.21421,-22.88319],[-47.21337,-22.88414],[-47.21276,-22.88446],[-47.21249,-22.88498],[-47.21278,-22.88533],[-47.21177,-22.88633],[-47.21074,-22.88659],[-47.2098,-22.88731],[-47.2068,-22.88857]]]},"properties":{"codigo":"3519071008","name":"RP 2-8","population":6821,"households":2823,"areaKm2":1.205,"density":5660.4}},{"type":"Feature","geometry":{"type":"Polygon","coordinates":[[[-47.2137,-22.89674],[-47.21412,-22.89645],[-47.21801,-22.89506],[-47.22384,-22.89312],[-47.22749,-22.89177],[-47.22743,-22.89013],[-47.22722,-22.88924],[-47.22314,-22.89008],[-47.22462,-22.88528],[-47.22513,-22.88497],[-47.22233,-22.882],[-47.22232,-22.88101],[-47.2214,-22.87954],[-47.21937,-22.87775],[-47.21799,-22.87688],[-47.21761,-22.87598],[-47.21749,-22.87511],[-47.21791,-22.8743],[-47.21902,-22.87387],[-47.21916,-22.87324],[-47.21964,-22.87245],[-47.21986,-22.8709],[-47.22001,-22.87066],[-47.21984,-22.8697],[-47.22001,-22.86782],[-47.22037,-22.86684],[-47.22167,-22.86445],[-47.22231,-22.86214],[-47.22293,-22.86268],[-47.22471,-22.86527],[-47.22518,-22.86774],[-47.22646,-22.87085],[-47.22767,-22.87293],[-47.2282,-22.87414],[-47.23041,-22.87971],[-47.23059,-22.88034],[-47.23085,-22.88221],[-47.23094,-22.8849],[-47.23234,-22.88386],[-47.23379,-22.88324],[-47.23527,-22.88287],[-47.24004,-22.88204],[-47.24008,-22.88366],[-47.23975,-22.88426],[-47.2337,-22.88512],[-47.23101,-22.88553],[-47.23103,-22.88707],[-47.23076,-22.88835],[-47.23004,-22.89701],[-47.22758,-22.89688],[-47.2275,-22.89814],[-47.22718,-22.89955],[-47.22584,-22.90289],[-47.22226,-22.90495],[-47.22213,-22.90462],[-47.21761,-22.90418],[-47.21613,-22.90394],[-47.21643,-22.9029],[-47.21629,-22.90188],[-47.2159,-22.90188],[-47.21234,-22.90235],[-47.21118,-22.90399],[-47.207,-22.90261],[-47.20667,-22.90415],[-47.20674,-22.90484],[-47.20441,-22.9035],[-47.20756,-22.90138],[-47.2105,-22.89988],[-47.21243,-22.89915],[-47.21428,-22.89868],[-47.21422,-22.89715],[-47.2137,-22.89674]]]},"properties":{"codigo":"3519071004","name":"RP 2-4","population":4859,"households":2644,"areaKm2":4.313,"density":1126.6}},{"type":"Feature","geometry":{"type":"Polygon","coordinates":[[[-47.15713,-22.88549],[-47.15773,-22.88341],[-47.15865,-22.88358],[-47.16002,-22.88437],[-47.16173,-22.88226],[-47.16565,-22.8775],[-47.1666,-22.87693],[-47.16804,-22.87689],[-47.16955,-22.87746],[-47.17055,-22.87743],[-47.17385,-22.87634],[-47.17479,-22.87868],[-47.17536,-22.88033],[-47.17581,-22.88137],[-47.17776,-22.88031],[-47.17922,-22.88542],[-47.18101,-22.88489],[-47.18145,-22.88535],[-47.18,-22.88702],[-47.18076,-22.88771],[-47.17812,-22.88967],[-47.17619,-22.89073],[-47.17463,-22.89121],[-47.17313,-22.89149],[-47.17137,-22.89155],[-47.16888,-22.89119],[-47.16722,-22.89064],[-47.16634,-22.89023],[-47.16621,-22.89053],[-47.16572,-22.89025],[-47.16185,-22.88756],[-47.16056,-22.88674],[-47.15857,-22.88589],[-47.15713,-22.88549]]]},"properties":{"codigo":"3519071018","name":"RP 5-18","population":16902,"households":6401,"areaKm2":2.495,"density":6774.3}},{"type":"Feature","geometry":{"type":"Polygon","coordinates":[[[-47.21257,-22.84852],[-47.21313,-22.84825],[-47.21331,-22.84788],[-47.21337,-22.84665],[-47.21473,-22.84338],[-47.2249,-22.84349],[-47.22874,-22.84358],[-47.2288,-22.84317],[-47.23185,-22.8432],[-47.23186,-22.84396],[-47.23666,-22.84236],[-47.23698,-22.84318],[-47.23833,-22.84736],[-47.24001,-22.84656],[-47.24071,-22.8472],[-47.24094,-22.84797],[-47.24055,-22.84856],[-47.24116,-22.84989],[-47.24121,-22.85104],[-47.24099,-22.85214],[-47.23867,-22.85246],[-47.23752,-22.85269],[-47.23674,-22.85304],[-47.23516,-22.85405],[-47.22869,-22.85627],[-47.22762,-22.85687],[-47.2261,-22.85482],[-47.22966,-22.85287],[-47.22916,-22.85187],[-47.2254,-22.85389],[-47.22317,-22.85496],[-47.22258,-22.85397],[-47.22223,-22.8537],[-47.22064,-22.85433],[-47.22011,-22.85357],[-47.21949,-22.85395],[-47.21733,-22.85091],[-47.21587,-22.84988],[-47.21257,-22.84852]]]},"properties":{"codigo":"3519071027","name":"RP 6-27","population":7008,"households":3021,"areaKm2":2.9748,"density":2355.8}},{"type":"Feature","geometry":{"type":"Polygon","coordinates":[[[-47.25727,-22.8775],[-47.25853,-22.87792],[-47.25996,-22.87812],[-47.26079,-22.8781],[-47.26027,-22.87893],[-47.25969,-22.88055],[-47.25914,-22.88164],[-47.25581,-22.88171],[-47.25523,-22.8812],[-47.25365,-22.8815],[-47.25338,-22.88041],[-47.24807,-22.88109],[-47.2479,-22.8796],[-47.24959,-22.8793],[-47.25016,-22.87974],[-47.2527,-22.87939],[-47.25291,-22.87997],[-47.25378,-22.87981],[-47.25402,-22.88029],[-47.25464,-22.88019],[-47.25441,-22.87762],[-47.25448,-22.87732],[-47.25546,-22.87758],[-47.25569,-22.87699],[-47.25727,-22.8775]]]},"properties":{"codigo":"3519071012","name":"RP 3-12","population":1207,"households":482,"areaKm2":0.334,"density":3613.9}},{"type":"Feature","geometry":{"type":"Polygon","coordinates":[[[-47.20674,-22.90484],[-47.20667,-22.90415],[-47.207,-22.90261],[-47.21118,-22.90399],[-47.21234,-22.90235],[-47.2159,-22.90188],[-47.21629,-22.90188],[-47.21643,-22.9029],[-47.21613,-22.90394],[-47.21761,-22.90418],[-47.22213,-22.90462],[-47.22226,-22.90495],[-47.21535,-22.9088],[-47.21472,-22.90901],[-47.21347,-22.90885],[-47.2076,-22.90539],[-47.20674,-22.90484]]]},"properties":{"codigo":"3519071014","name":"RP 3-14","population":3970,"households":1596,"areaKm2":0.6612,"density":6004.4}},{"type":"Feature","geometry":{"type":"Polygon","coordinates":[[[-47.21276,-22.88446],[-47.21337,-22.88414],[-47.21421,-22.88319],[-47.21446,-22.88214],[-47.21475,-22.88163],[-47.21476,-22.88056],[-47.21508,-22.88011],[-47.21531,-22.87917],[-47.21609,-22.87842],[-47.21661,-22.8772],[-47.2168,-22.87617],[-47.21749,-22.87511],[-47.21761,-22.87598],[-47.21799,-22.87688],[-47.21937,-22.87775],[-47.2214,-22.87954],[-47.22232,-22.88101],[-47.22233,-22.882],[-47.22513,-22.88497],[-47.22462,-22.88528],[-47.22314,-22.89008],[-47.22722,-22.88924],[-47.22743,-22.89013],[-47.22749,-22.89177],[-47.22384,-22.89312],[-47.21801,-22.89506],[-47.21412,-22.89645],[-47.2137,-22.89674],[-47.21338,-22.89654],[-47.21338,-22.89453],[-47.21321,-22.89415],[-47.21324,-22.89301],[-47.21353,-22.89228],[-47.21341,-22.89197],[-47.21364,-22.89117],[-47.21466,-22.89083],[-47.21393,-22.88992],[-47.21363,-22.88782],[-47.21341,-22.88682],[-47.21313,-22.88645],[-47.21326,-22.88482],[-47.21276,-22.88446]]]},"properties":{"codigo":"3519071006","name":"RP 2-6","population":10926,"households":4083,"areaKm2":1.9479,"density":5609.1}},{"type":"Feature","geometry":{"type":"Polygon","coordinates":[[[-47.17636,-22.86913],[-47.17434,-22.85785],[-47.1774,-22.85767],[-47.17847,-22.85793],[-47.17911,-22.85847],[-47.17963,-22.85936],[-47.18026,-22.85985],[-47.18032,-22.86007],[-47.17906,-22.86022],[-47.17899,-22.86172],[-47.17768,-22.86598],[-47.17816,-22.86888],[-47.17636,-22.86913]]]},"properties":{"codigo":"3519071021","name":"RP 5-21","population":4998,"households":1797,"areaKm2":0.4118,"density":12138}},{"type":"Feature","geometry":{"type":"Polygon","coordinates":[[[-47.16621,-22.89053],[-47.16634,-22.89023],[-47.16722,-22.89064],[-47.16888,-22.89119],[-47.17137,-22.89155],[-47.17313,-22.89149],[-47.17463,-22.89121],[-47.17619,-22.89073],[-47.17812,-22.88967],[-47.18076,-22.88771],[-47.18306,-22.88595],[-47.18333,-22.8876],[-47.18345,-22.88935],[-47.18341,-22.89018],[-47.18306,-22.89281],[-47.18299,-22.89437],[-47.17863,-22.89281],[-47.17759,-22.8926],[-47.17132,-22.89197],[-47.1693,-22.89169],[-47.16704,-22.89092],[-47.16621,-22.89053]]]},"properties":{"codigo":"3519071017","name":"RP 5-17","population":2554,"households":994,"areaKm2":0.4597,"density":5555.4}},{"type":"Feature","geometry":{"type":"Polygon","coordinates":[[[-47.22226,-22.90495],[-47.22584,-22.90289],[-47.22718,-22.89955],[-47.2275,-22.89814],[-47.22758,-22.89688],[-47.23004,-22.89701],[-47.23076,-22.88835],[-47.23103,-22.88707],[-47.23101,-22.88553],[-47.2337,-22.88512],[-47.23975,-22.88426],[-47.23952,-22.88524],[-47.23981,-22.88541],[-47.23981,-22.88639],[-47.23997,-22.88712],[-47.24076,-22.88836],[-47.24098,-22.88943],[-47.24178,-22.89068],[-47.24338,-22.89198],[-47.24392,-22.89269],[-47.24517,-22.89351],[-47.24565,-22.8941],[-47.25062,-22.89826],[-47.25228,-22.89596],[-47.25329,-22.89678],[-47.25686,-22.89297],[-47.25716,-22.89252],[-47.26048,-22.89567],[-47.25766,-22.8988],[-47.25517,-22.89842],[-47.25482,-22.89861],[-47.25214,-22.90111],[-47.25116,-22.90212],[-47.25019,-22.90331],[-47.24842,-22.90467],[-47.2485,-22.90567],[-47.24749,-22.9071],[-47.247,-22.90828],[-47.24677,-22.90948],[-47.24594,-22.90939],[-47.24352,-22.90864],[-47.24277,-22.90827],[-47.24202,-22.90823],[-47.24019,-22.90782],[-47.23958,-22.9078],[-47.23875,-22.90807],[-47.23719,-22.90826],[-47.23555,-22.90814],[-47.23511,-22.90821],[-47.23409,-22.91007],[-47.23366,-22.91033],[-47.23306,-22.91001],[-47.2325,-22.90879],[-47.23145,-22.90768],[-47.22938,-22.90592],[-47.22872,-22.9056],[-47.22794,-22.90549],[-47.22687,-22.90554],[-47.22596,-22.90575],[-47.2239,-22.90575],[-47.22226,-22.90495]]]},"properties":{"codigo":"3519071010","name":"RP 3-10","population":36997,"households":14530,"areaKm2":5.1076,"density":7243.5}},{"type":"Feature","geometry":{"type":"Polygon","coordinates":[[[-47.20191,-22.86902],[-47.20468,-22.8669],[-47.2063,-22.86571],[-47.21177,-22.86185],[-47.2115,-22.86187],[-47.21232,-22.86135],[-47.21451,-22.85961],[-47.21471,-22.85954],[-47.21835,-22.85955],[-47.22137,-22.85989],[-47.22143,-22.86051],[-47.22183,-22.86179],[-47.22231,-22.86214],[-47.22167,-22.86445],[-47.22037,-22.86684],[-47.22001,-22.86782],[-47.21984,-22.8697],[-47.21878,-22.87019],[-47.20825,-22.87429],[-47.20401,-22.87121],[-47.20191,-22.86902]]]},"properties":{"codigo":"3519071001","name":"RP 1-1","population":8991,"households":3729,"areaKm2":1.9856,"density":4528.2}},{"type":"Feature","geometry":{"type":"Polygon","coordinates":[[[-47.19227,-22.8978],[-47.18843,-22.89632],[-47.18299,-22.89437],[-47.18306,-22.89281],[-47.18341,-22.89018],[-47.18345,-22.88935],[-47.18333,-22.8876],[-47.18306,-22.88595],[-47.18668,-22.88318],[-47.18892,-22.88122],[-47.19038,-22.8795],[-47.19244,-22.87749],[-47.19419,-22.87744],[-47.19841,-22.87714],[-47.19866,-22.87707],[-47.19918,-22.87812],[-47.20254,-22.88458],[-47.20415,-22.88715],[-47.2058,-22.88676],[-47.2068,-22.88857],[-47.20572,-22.88915],[-47.20403,-22.88971],[-47.20336,-22.88977],[-47.20295,-22.88942],[-47.20248,-22.88943],[-47.1987,-22.89158],[-47.19795,-22.89193],[-47.19801,-22.89225],[-47.19719,-22.89304],[-47.19628,-22.89362],[-47.1959,-22.89362],[-47.19548,-22.895],[-47.19413,-22.89589],[-47.19406,-22.89625],[-47.19317,-22.89661],[-47.19227,-22.8978]]]},"properties":{"codigo":"3519071009","name":"RP 2-9","population":11098,"households":4702,"areaKm2":3.2542,"density":3410.3}},{"type":"Feature","geometry":{"type":"Polygon","coordinates":[[[-47.17648,-22.86968],[-47.17696,-22.87107],[-47.17606,-22.87149],[-47.17456,-22.87176],[-47.17336,-22.87246],[-47.1731,-22.87298],[-47.17309,-22.87433],[-47.17385,-22.87634],[-47.17055,-22.87743],[-47.16955,-22.87746],[-47.16804,-22.87689],[-47.1666,-22.87693],[-47.16565,-22.8775],[-47.16173,-22.88226],[-47.16002,-22.88437],[-47.15865,-22.88358],[-47.15773,-22.88341],[-47.15745,-22.88285],[-47.15755,-22.88202],[-47.15999,-22.87846],[-47.15994,-22.87817],[-47.15767,-22.87587],[-47.15605,-22.87339],[-47.15572,-22.87232],[-47.15626,-22.87112],[-47.15734,-22.87077],[-47.15835,-22.87064],[-47.15895,-22.87039],[-47.1594,-22.86955],[-47.16061,-22.8689],[-47.16158,-22.86859],[-47.16198,-22.86867],[-47.16399,-22.86816],[-47.16476,-22.86853],[-47.16518,-22.86781],[-47.16577,-22.86765],[-47.16583,-22.86706],[-47.16769,-22.85803],[-47.17227,-22.85796],[-47.17434,-22.85785],[-47.17636,-22.86913],[-47.17648,-22.86968]]]},"properties":{"codigo":"3519071020","name":"RP 5-20","population":7587,"households":1576,"areaKm2":3.0603,"density":2479.2}},{"type":"Feature","geometry":{"type":"Polygon","coordinates":[[[-47.15572,-22.87232],[-47.15577,-22.87167],[-47.15674,-22.86717],[-47.15686,-22.86604],[-47.15754,-22.86143],[-47.15771,-22.86089],[-47.15852,-22.85984],[-47.15983,-22.85923],[-47.16665,-22.85806],[-47.16769,-22.85803],[-47.16583,-22.86706],[-47.16577,-22.86765],[-47.16518,-22.86781],[-47.16476,-22.86853],[-47.16399,-22.86816],[-47.16198,-22.86867],[-47.16158,-22.86859],[-47.16061,-22.8689],[-47.1594,-22.86955],[-47.15895,-22.87039],[-47.15835,-22.87064],[-47.15734,-22.87077],[-47.15626,-22.87112],[-47.15572,-22.87232]]]},"properties":{"codigo":"3519071022","name":"RP 5-22","population":6944,"households":2439,"areaKm2":1.1114,"density":6248}}]}