{"type":"FeatureCollection","features":[{"type":"Feature","geometry":{"type":"Polygon","coordinates":[[[-48.99138,-21.4562],[-48.99067,-21.45574],[-48.9893,-21.45572],[-48.98699,-21.45642],[-48.98499,-21.4564],[-48.98375,-21.45614],[-48.98296,-21.45538],[-48.98245,-21.45354],[-48.9824,-21.45142],[-48.98277,-21.44977],[-48.98589,-21.44249],[-48.98655,-21.43827],[-48.98562,-21.4296],[-48.98488,-21.42558],[-48.9833,-21.42064],[-48.98148,-21.41652],[-48.98028,-21.41576],[-48.97919,-21.41609],[-48.97749,-21.41838],[-48.9751,-21.42032],[-48.97292,-21.42307],[-48.97049,-21.42497],[-48.96955,-21.42518],[-48.9662,-21.42483],[-48.96441,-21.4255],[-48.96146,-21.42468],[-48.95948,-21.4245],[-48.95844,-21.42472],[-48.95631,-21.42384],[-48.9555,-21.42379],[-48.95355,-21.42429],[-48.95253,-21.42488],[-48.95074,-21.42512],[-48.94984,-21.42551],[-48.9489,-21.42392],[-48.94836,-21.42211],[-48.94831,-21.42084],[-48.94758,-21.41978],[-48.94613,-21.41465],[-48.94574,-21.41262],[-48.94569,-21.40975],[-48.94598,-21.40672],[-48.94833,-21.39917],[-48.93178,-21.38857],[-48.92807,-21.38747],[-48.9272,-21.38669],[-48.92694,-21.3858],[-48.92542,-21.38441],[-48.92385,-21.38362],[-48.92249,-21.38229],[-48.91822,-21.38045],[-48.91706,-21.37938],[-48.91533,-21.37924],[-48.91324,-21.37849],[-48.91025,-21.37689],[-48.90922,-21.37584],[-48.90784,-21.37511],[-48.90613,-21.37318],[-48.90351,-21.37149],[-48.90223,-21.37091],[-48.90017,-21.37058],[-48.90246,-21.36852],[-48.90322,-21.3674],[-48.90359,-21.366],[-48.90438,-21.36474],[-48.90565,-21.36355],[-48.90567,-21.36238],[-48.90628,-21.36115],[-48.90705,-21.35885],[-48.90803,-21.35812],[-48.91065,-21.35841],[-48.91359,-21.35807],[-48.91468,-21.35767],[-48.91584,-21.35601],[-48.91658,-21.35384],[-48.91849,-21.35181],[-48.92005,-21.35103],[-48.92171,-21.34912],[-48.9226,-21.34742],[-48.92325,-21.34521],[-48.92322,-21.34391],[-48.92261,-21.34297],[-48.92229,-21.34115],[-48.92155,-21.33903],[-48.92032,-21.33773],[-48.92065,-21.33472],[-48.92027,-21.33386],[-48.92059,-21.33293],[-48.92017,-21.33112],[-48.91913,-21.32919],[-48.91666,-21.32849],[-48.91565,-21.32664],[-48.91575,-21.32527],[-48.91671,-21.32441],[-48.91861,-21.32367],[-48.91914,-21.32281],[-48.91928,-21.32101],[-48.9197,-21.3202],[-48.91963,-21.31899],[-48.92035,-21.31753],[-48.9199,-21.31503],[-48.92175,-21.31361],[-48.92257,-21.31233],[-48.923,-21.31106],[-48.92299,-21.30731],[-48.92386,-21.30371],[-48.92384,-21.30324],[-48.92242,-21.30201],[-48.9219,-21.30117],[-48.92043,-21.30059],[-48.92009,-21.29959],[-48.92098,-21.29774],[-48.92091,-21.29613],[-48.92221,-21.29534],[-48.92359,-21.29401],[-48.92422,-21.29305],[-48.92698,-21.29169],[-48.92805,-21.29073],[-48.93026,-21.29025],[-48.9319,-21.2889],[-48.93359,-21.28849],[-48.93498,-21.28719],[-48.93735,-21.28588],[-48.94252,-21.28474],[-48.94386,-21.28483],[-48.94651,-21.28399],[-48.94888,-21.2826],[-48.95092,-21.28205],[-48.95211,-21.28198],[-48.95468,-21.28096],[-48.95596,-21.28074],[-48.95954,-21.27891],[-48.96086,-21.27732],[-48.96278,-21.27326],[-48.96383,-21.27203],[-48.96417,-21.27095],[-48.9657,-21.26833],[-48.96659,-21.26735],[-48.96809,-21.26728],[-48.97076,-21.26774],[-48.97511,-21.26992],[-48.9777,-21.27179],[-48.97958,-21.27218],[-48.98116,-21.27337],[-48.98262,-21.27668],[-48.98336,-21.27754],[-48.98694,-21.28002],[-48.9875,-21.28129],[-48.98753,-21.28273],[-48.98811,-21.28346],[-48.99014,-21.28464],[-48.99367,-21.28612],[-48.99425,-21.28597],[-48.99723,-21.28119],[-48.99894,-21.27967],[-49.00153,-21.27796],[-49.00321,-21.27649],[-49.00417,-21.27458],[-49.00509,-21.2736],[-49.00673,-21.27053],[-49.00794,-21.26961],[-49.00946,-21.26945],[-49.01067,-21.26854],[-49.01069,-21.26634],[-49.00949,-21.2631],[-49.0091,-21.26134],[-49.00815,-21.25863],[-49.0083,-21.25644],[-49.01056,-21.25343],[-49.01149,-21.25277],[-49.01374,-21.2518],[-49.01522,-21.25043],[-49.01741,-21.25],[-49.01847,-21.24927],[-49.01925,-21.24921],[-49.0209,-21.24837],[-49.02195,-21.24754],[-49.02386,-21.2469],[-49.02441,-21.24605],[-49.02682,-21.24513],[-49.02913,-21.24513],[-49.03075,-21.24535],[-49.03153,-21.2459],[-49.0331,-21.24604],[-49.03487,-21.24532],[-49.03713,-21.2449],[-49.03854,-21.24443],[-49.03967,-21.24354],[-49.04307,-21.24321],[-49.04441,-21.24385],[-49.04634,-21.24363],[-49.04754,-21.24399],[-49.04892,-21.24395],[-49.05072,-21.24429],[-49.05225,-21.24417],[-49.05308,-21.24332],[-49.05415,-21.24309],[-49.05496,-21.24224],[-49.0591,-21.24217],[-49.0587,-21.24311],[-49.05884,-21.24441],[-49.05943,-21.2454],[-49.06182,-21.24826],[-49.06309,-21.25109],[-49.06573,-21.25221],[-49.06837,-21.25509],[-49.06853,-21.25702],[-49.06916,-21.25926],[-49.06977,-21.26023],[-49.07516,-21.26351],[-49.07929,-21.26675],[-49.08182,-21.26817],[-49.08689,-21.26997],[-49.09102,-21.27178],[-49.09171,-21.2724],[-49.09268,-21.27636],[-49.09217,-21.27913],[-49.09255,-21.2804],[-49.09466,-21.28155],[-49.09748,-21.28407],[-49.09949,-21.28542],[-49.10242,-21.28701],[-49.10374,-21.28729],[-49.10589,-21.2873],[-49.10831,-21.28805],[-49.10942,-21.28911],[-49.11095,-21.29009],[-49.11257,-21.29202],[-49.11334,-21.29336],[-49.11542,-21.29474],[-49.11758,-21.29522],[-49.11946,-21.29638],[-49.12154,-21.29697],[-49.12237,-21.29763],[-49.12441,-21.29865],[-49.12568,-21.29869],[-49.1284,-21.29806],[-49.13038,-21.29741],[-49.12965,-21.29888],[-49.129,-21.30117],[-49.12788,-21.30316],[-49.12689,-21.3067],[-49.12508,-21.31047],[-49.12356,-21.3125],[-49.12207,-21.31381],[-49.11857,-21.31543],[-49.11699,-21.31732],[-49.11607,-21.31884],[-49.11588,-21.32062],[-49.11605,-21.32272],[-49.11585,-21.32342],[-49.11381,-21.32655],[-49.11022,-21.3307],[-49.11014,-21.33239],[-49.11072,-21.333],[-49.11373,-21.33531],[-49.11396,-21.33646],[-49.11253,-21.33798],[-49.1113,-21.3405],[-49.11115,-21.3419],[-49.11243,-21.34424],[-49.11293,-21.34778],[-49.11193,-21.34884],[-49.10926,-21.35117],[-49.10821,-21.35235],[-49.10566,-21.35393],[-49.10228,-21.35532],[-49.09802,-21.35632],[-49.09604,-21.35761],[-49.09594,-21.35856],[-49.09524,-21.35995],[-49.09471,-21.36176],[-49.09383,-21.36324],[-49.09339,-21.36478],[-49.09421,-21.36675],[-49.09504,-21.36764],[-49.09659,-21.3679],[-49.097,-21.36923],[-49.0964,-21.37035],[-49.09647,-21.37181],[-49.09685,-21.3723],[-49.10013,-21.37463],[-49.10092,-21.37625],[-49.10093,-21.37824],[-49.1033,-21.38064],[-49.10385,-21.38175],[-49.10516,-21.38345],[-49.10645,-21.38462],[-49.10761,-21.38488],[-49.10844,-21.3857],[-49.11035,-21.38615],[-49.11423,-21.38656],[-49.11583,-21.38705],[-49.11651,-21.38838],[-49.11771,-21.38923],[-49.11947,-21.38903],[-49.12132,-21.38815],[-49.122,-21.38821],[-49.12382,-21.38929],[-49.1255,-21.38925],[-49.12704,-21.38874],[-49.12881,-21.38693],[-49.13041,-21.38622],[-49.13252,-21.38565],[-49.13558,-21.3851],[-49.1369,-21.38558],[-49.1391,-21.38735],[-49.13795,-21.3881],[-49.13652,-21.39132],[-49.13623,-21.3944],[-49.13621,-21.39669],[-49.13654,-21.39957],[-49.13762,-21.40367],[-49.14087,-21.41162],[-49.13939,-21.41269],[-49.13816,-21.41257],[-49.13003,-21.41111],[-49.12045,-21.41031],[-49.11862,-21.41056],[-49.11587,-21.41143],[-49.11322,-21.41135],[-49.11149,-21.41069],[-49.10955,-21.40875],[-49.10746,-21.40742],[-49.10448,-21.40617],[-49.10322,-21.40604],[-49.09838,-21.40626],[-49.09361,-21.40694],[-49.09087,-21.40745],[-49.08821,-21.40741],[-49.08456,-21.40761],[-49.08075,-21.4076],[-49.07834,-21.40906],[-49.07713,-21.41071],[-49.07662,-21.4131],[-49.07671,-21.41676],[-49.0766,-21.4207],[-49.07666,-21.42562],[-49.07626,-21.42762],[-49.07533,-21.42956],[-49.07386,-21.43144],[-49.07211,-21.43259],[-49.06879,-21.43432],[-49.06797,-21.43557],[-49.06877,-21.43989],[-49.06776,-21.44276],[-49.06754,-21.4459],[-49.06799,-21.44846],[-49.06855,-21.44916],[-49.07113,-21.45003],[-49.07216,-21.4508],[-49.07324,-21.45236],[-49.07398,-21.45579],[-49.07572,-21.45822],[-49.07801,-21.462],[-49.07916,-21.46321],[-49.08038,-21.46392],[-49.08216,-21.46453],[-49.08098,-21.46609],[-49.07802,-21.46907],[-49.07646,-21.47167],[-49.07461,-21.47354],[-49.07301,-21.47627],[-49.07055,-21.47822],[-49.0653,-21.48119],[-49.06016,-21.48463],[-49.05738,-21.48694],[-49.05482,-21.48852],[-49.0508,-21.48954],[-49.04732,-21.49014],[-49.04433,-21.4903],[-49.04268,-21.49061],[-49.04096,-21.49157],[-49.04095,-21.49011],[-49.04045,-21.4882],[-49.04068,-21.48622],[-49.0385,-21.48481],[-49.03462,-21.48363],[-49.03085,-21.48281],[-49.02542,-21.48269],[-49.0234,-21.48291],[-49.02135,-21.48245],[-49.01935,-21.48228],[-49.01821,-21.48118],[-49.01633,-21.4784],[-49.01231,-21.4755],[-49.00866,-21.47324],[-49.00752,-21.47185],[-49.00636,-21.46966],[-49.00454,-21.46693],[-49.00287,-21.46514],[-49.00081,-21.46397],[-48.99926,-21.46251],[-48.99789,-21.46047],[-48.99445,-21.45717],[-48.99326,-21.45626],[-48.99138,-21.4562]]]},"properties":{"codigo":"352190305","name":"Itajobi","population":15833,"households":6796,"areaKm2":387.6249,"density":40.8}},{"type":"Feature","geometry":{"type":"Polygon","coordinates":[[[-49.13038,-21.29741],[-49.13419,-21.29649],[-49.13778,-21.29476],[-49.14015,-21.29235],[-49.14252,-21.29176],[-49.14472,-21.29043],[-49.14762,-21.28988],[-49.15075,-21.28826],[-49.15291,-21.28841],[-49.15609,-21.28689],[-49.15976,-21.28658],[-49.16222,-21.28757],[-49.16425,-21.28779],[-49.16512,-21.28817],[-49.1669,-21.28961],[-49.1679,-21.28963],[-49.16923,-21.28895],[-49.1701,-21.28926],[-49.17123,-21.29204],[-49.1722,-21.29335],[-49.17356,-21.29295],[-49.17484,-21.29321],[-49.17632,-21.29572],[-49.17869,-21.29755],[-49.18115,-21.29775],[-49.18231,-21.29747],[-49.18378,-21.2978],[-49.18486,-21.29974],[-49.18553,-21.30034],[-49.18602,-21.30199],[-49.187,-21.30257],[-49.18802,-21.3037],[-49.1893,-21.30344],[-49.19101,-21.30348],[-49.19212,-21.30414],[-49.19427,-21.30431],[-49.19678,-21.30501],[-49.19733,-21.30626],[-49.19804,-21.30663],[-49.20054,-21.30664],[-49.20206,-21.30623],[-49.20324,-21.30724],[-49.2043,-21.30761],[-49.20521,-21.30909],[-49.20679,-21.30954],[-49.20752,-21.30909],[-49.20943,-21.31069],[-49.21166,-21.31149],[-49.21264,-21.31339],[-49.21474,-21.3156],[-49.21477,-21.31731],[-49.21568,-21.31957],[-49.21706,-21.32108],[-49.21926,-21.32171],[-49.22092,-21.32176],[-49.223,-21.32282],[-49.22487,-21.3233],[-49.22635,-21.32471],[-49.22777,-21.32451],[-49.23171,-21.32446],[-49.23234,-21.32393],[-49.23407,-21.32357],[-49.233,-21.32581],[-49.23215,-21.32825],[-49.22761,-21.34242],[-49.22646,-21.34316],[-49.22573,-21.34469],[-49.22378,-21.34659],[-49.22329,-21.34771],[-49.22231,-21.35101],[-49.22087,-21.35422],[-49.22059,-21.35561],[-49.2197,-21.35688],[-49.21577,-21.358],[-49.21455,-21.35978],[-49.21317,-21.36135],[-49.21172,-21.36158],[-49.20904,-21.36124],[-49.20689,-21.36135],[-49.20384,-21.36214],[-49.1998,-21.35999],[-49.19837,-21.35948],[-49.19718,-21.35946],[-49.1934,-21.36091],[-49.18989,-21.36109],[-49.18815,-21.36216],[-49.18644,-21.36425],[-49.18547,-21.36634],[-49.18431,-21.37036],[-49.18412,-21.3717],[-49.18424,-21.37427],[-49.18406,-21.37531],[-49.18291,-21.37719],[-49.18161,-21.37833],[-49.17954,-21.37966],[-49.17887,-21.38041],[-49.17833,-21.38185],[-49.17805,-21.38353],[-49.17709,-21.38602],[-49.17491,-21.38883],[-49.1731,-21.39191],[-49.17433,-21.39356],[-49.17667,-21.39524],[-49.17896,-21.39788],[-49.18143,-21.40263],[-49.18152,-21.40357],[-49.18077,-21.40519],[-49.17955,-21.40649],[-49.17378,-21.40938],[-49.17202,-21.41209],[-49.17089,-21.41261],[-49.1694,-21.4125],[-49.16804,-21.41208],[-49.16338,-21.41313],[-49.16008,-21.41331],[-49.15048,-21.41312],[-49.14845,-21.41275],[-49.1469,-21.41113],[-49.14533,-21.41017],[-49.14317,-21.41028],[-49.14087,-21.41162],[-49.13762,-21.40367],[-49.13654,-21.39957],[-49.13621,-21.39669],[-49.13623,-21.3944],[-49.13652,-21.39132],[-49.13795,-21.3881],[-49.1391,-21.38735],[-49.1369,-21.38558],[-49.13558,-21.3851],[-49.13252,-21.38565],[-49.13041,-21.38622],[-49.12881,-21.38693],[-49.12704,-21.38874],[-49.1255,-21.38925],[-49.12382,-21.38929],[-49.122,-21.38821],[-49.12132,-21.38815],[-49.11947,-21.38903],[-49.11771,-21.38923],[-49.11651,-21.38838],[-49.11583,-21.38705],[-49.11423,-21.38656],[-49.11035,-21.38615],[-49.10844,-21.3857],[-49.10761,-21.38488],[-49.10645,-21.38462],[-49.10516,-21.38345],[-49.10385,-21.38175],[-49.1033,-21.38064],[-49.10093,-21.37824],[-49.10092,-21.37625],[-49.10013,-21.37463],[-49.09685,-21.3723],[-49.09647,-21.37181],[-49.0964,-21.37035],[-49.097,-21.36923],[-49.09659,-21.3679],[-49.09504,-21.36764],[-49.09421,-21.36675],[-49.09339,-21.36478],[-49.09383,-21.36324],[-49.09471,-21.36176],[-49.09524,-21.35995],[-49.09594,-21.35856],[-49.09604,-21.35761],[-49.09802,-21.35632],[-49.10228,-21.35532],[-49.10566,-21.35393],[-49.10821,-21.35235],[-49.10926,-21.35117],[-49.11193,-21.34884],[-49.11293,-21.34778],[-49.11243,-21.34424],[-49.11115,-21.3419],[-49.1113,-21.3405],[-49.11253,-21.33798],[-49.11396,-21.33646],[-49.11373,-21.33531],[-49.11072,-21.333],[-49.11014,-21.33239],[-49.11022,-21.3307],[-49.11381,-21.32655],[-49.11585,-21.32342],[-49.11605,-21.32272],[-49.11588,-21.32062],[-49.11607,-21.31884],[-49.11699,-21.31732],[-49.11857,-21.31543],[-49.12207,-21.31381],[-49.12356,-21.3125],[-49.12508,-21.31047],[-49.12689,-21.3067],[-49.12788,-21.30316],[-49.129,-21.30117],[-49.12965,-21.29888],[-49.13038,-21.29741]]]},"properties":{"codigo":"352190307","name":"Nova Cardoso","population":1156,"households":635,"areaKm2":114.4409,"density":10.1}}]}