{"type":"FeatureCollection","features":[{"type":"Feature","geometry":{"type":"Polygon","coordinates":[[[-48.74308,-23.8266],[-48.74537,-23.82725],[-48.74782,-23.82733],[-48.74944,-23.82702],[-48.75072,-23.82633],[-48.75432,-23.82643],[-48.75683,-23.82572],[-48.75892,-23.8248],[-48.76077,-23.82511],[-48.76184,-23.82455],[-48.76366,-23.82437],[-48.76618,-23.82297],[-48.76772,-23.82295],[-48.76842,-23.82173],[-48.76876,-23.81952],[-48.76948,-23.81891],[-48.77179,-23.81769],[-48.77323,-23.81729],[-48.77507,-23.81629],[-48.77835,-23.81611],[-48.7799,-23.81526],[-48.78105,-23.81599],[-48.78215,-23.81596],[-48.78441,-23.81531],[-48.78774,-23.81531],[-48.78957,-23.81393],[-48.79042,-23.81302],[-48.79574,-23.81141],[-48.79913,-23.80952],[-48.80158,-23.80898],[-48.80262,-23.8084],[-48.80515,-23.80636],[-48.80714,-23.80641],[-48.80879,-23.80722],[-48.81044,-23.80835],[-48.81272,-23.80765],[-48.81437,-23.80841],[-48.81577,-23.80872],[-48.81754,-23.80871],[-48.81941,-23.80819],[-48.82251,-23.80807],[-48.82834,-23.80958],[-48.83029,-23.81045],[-48.83123,-23.81131],[-48.83215,-23.81346],[-48.8341,-23.81605],[-48.83466,-23.81735],[-48.83701,-23.81706],[-48.83829,-23.81734],[-48.84007,-23.81935],[-48.84101,-23.82078],[-48.84133,-23.82238],[-48.84495,-23.824],[-48.84667,-23.82561],[-48.85027,-23.82742],[-48.85176,-23.8268],[-48.85579,-23.82193],[-48.85746,-23.82032],[-48.85996,-23.81945],[-48.86286,-23.81966],[-48.86445,-23.82048],[-48.8681,-23.8208],[-48.87,-23.82175],[-48.87166,-23.8233],[-48.87265,-23.82385],[-48.87565,-23.82493],[-48.88089,-23.82565],[-48.88323,-23.82525],[-48.88651,-23.82565],[-48.88876,-23.82689],[-48.89387,-23.82638],[-48.896,-23.82685],[-48.89855,-23.82574],[-48.89963,-23.8243],[-48.9013,-23.82642],[-48.90251,-23.82637],[-48.90435,-23.82482],[-48.90705,-23.82439],[-48.9096,-23.82436],[-48.91201,-23.82462],[-48.9132,-23.82589],[-48.91487,-23.82652],[-48.91602,-23.82641],[-48.91853,-23.82552],[-48.91923,-23.82557],[-48.91984,-23.82726],[-48.92125,-23.82778],[-48.9222,-23.82857],[-48.92366,-23.82867],[-48.92552,-23.82828],[-48.92736,-23.82711],[-48.92883,-23.82695],[-48.93161,-23.82479],[-48.9325,-23.82503],[-48.93392,-23.82636],[-48.93568,-23.82714],[-48.93619,-23.82847],[-48.93856,-23.82854],[-48.94046,-23.82945],[-48.94245,-23.82848],[-48.94654,-23.82793],[-48.94812,-23.82872],[-48.95026,-23.83125],[-48.95141,-23.83388],[-48.9544,-23.8388],[-48.95657,-23.84095],[-48.95954,-23.84162],[-48.96107,-23.84243],[-48.96391,-23.84182],[-48.96554,-23.84301],[-48.96761,-23.84292],[-48.97005,-23.8416],[-48.97192,-23.84128],[-48.97686,-23.84188],[-48.97862,-23.84123],[-48.97853,-23.84057],[-48.97918,-23.8394],[-48.98129,-23.83719],[-48.98281,-23.83624],[-48.98542,-23.83582],[-48.98701,-23.83624],[-48.98776,-23.83947],[-48.98876,-23.84043],[-48.98981,-23.83946],[-48.99146,-23.83871],[-48.9942,-23.839],[-48.9954,-23.83823],[-48.9959,-23.83703],[-48.99729,-23.83796],[-48.99723,-23.83937],[-48.99884,-23.83982],[-49.00051,-23.83941],[-49.00198,-23.8396],[-49.00362,-23.84018],[-49.00487,-23.83957],[-49.00618,-23.84014],[-49.00715,-23.84121],[-49.00898,-23.84159],[-49.01159,-23.84355],[-49.01334,-23.84384],[-49.01502,-23.84329],[-49.01645,-23.84323],[-49.01712,-23.84448],[-49.01825,-23.84491],[-49.0186,-23.84651],[-49.01985,-23.8472],[-49.0185,-23.8486],[-49.01693,-23.85059],[-49.01881,-23.85308],[-49.01881,-23.85729],[-49.01706,-23.8595],[-49.01595,-23.86004],[-49.01576,-23.86151],[-49.0169,-23.86247],[-49.01492,-23.86435],[-49.01398,-23.8656],[-49.01271,-23.86536],[-49.01121,-23.86548],[-49.01057,-23.86695],[-49.00934,-23.86742],[-49.0081,-23.86846],[-49.00929,-23.86941],[-49.00706,-23.87081],[-49.00645,-23.87219],[-49.00532,-23.8733],[-49.00501,-23.87467],[-49.00357,-23.87539],[-49.00309,-23.87679],[-49.00398,-23.88115],[-49.00365,-23.88235],[-49.0052,-23.88275],[-49.00604,-23.8842],[-49.0059,-23.8871],[-49.00357,-23.88918],[-49.00287,-23.89069],[-49.00279,-23.89237],[-49.00149,-23.8934],[-48.99895,-23.89376],[-48.99806,-23.89475],[-48.99673,-23.89536],[-48.99696,-23.89844],[-48.99651,-23.89964],[-48.99657,-23.90132],[-48.99768,-23.90453],[-48.99778,-23.90578],[-48.99729,-23.90697],[-48.99745,-23.90859],[-48.99912,-23.90865],[-49.00123,-23.90979],[-49.00093,-23.91123],[-48.99934,-23.91255],[-48.99851,-23.91383],[-48.99856,-23.91546],[-49.00035,-23.91614],[-49.00101,-23.9174],[-49.00107,-23.91882],[-49.00168,-23.92177],[-49.00281,-23.92229],[-49.00404,-23.92207],[-49.00704,-23.92089],[-49.00857,-23.92137],[-49.00945,-23.92307],[-49.00938,-23.9241],[-49.00812,-23.92593],[-49.00815,-23.92736],[-49.0087,-23.93009],[-49.00648,-23.93188],[-49.00551,-23.93298],[-49.00643,-23.93424],[-49.00529,-23.93544],[-49.00553,-23.93682],[-49.00476,-23.93805],[-49.00326,-23.93815],[-49.00247,-23.93937],[-49.00215,-23.94129],[-48.99868,-23.94637],[-48.99732,-23.94697],[-48.99512,-23.95126],[-48.99395,-23.95238],[-48.99248,-23.95321],[-48.9921,-23.95506],[-48.9924,-23.95665],[-48.99182,-23.95925],[-48.9929,-23.9602],[-48.99323,-23.96158],[-48.9947,-23.9622],[-48.99739,-23.96376],[-48.99876,-23.96398],[-48.99995,-23.96353],[-49.00114,-23.96238],[-49.00238,-23.96256],[-49.00354,-23.96154],[-49.00795,-23.96158],[-49.00803,-23.96305],[-49.00793,-23.96611],[-49.01021,-23.96833],[-49.00973,-23.96962],[-49.00848,-23.97195],[-49.0092,-23.97494],[-49.00912,-23.97632],[-49.01015,-23.97759],[-49.01067,-23.97917],[-49.0134,-23.9807],[-49.0154,-23.98247],[-49.01626,-23.98388],[-49.01676,-23.98559],[-49.01742,-23.98691],[-49.01473,-23.98918],[-49.01526,-23.99054],[-49.0155,-23.99298],[-49.01565,-24.00199],[-49.01367,-24.00464],[-49.01321,-24.00622],[-49.01112,-24.0083],[-49.01385,-24.00933],[-49.01423,-24.01064],[-49.01573,-24.00965],[-49.01709,-24.00946],[-49.01671,-24.01078],[-49.01554,-24.01209],[-49.01668,-24.0138],[-49.01826,-24.01466],[-49.01948,-24.01479],[-49.0204,-24.0137],[-49.02173,-24.01311],[-49.02318,-24.01438],[-49.02593,-24.01491],[-49.02643,-24.01812],[-49.02909,-24.01544],[-49.02918,-24.01409],[-49.03037,-24.01481],[-49.03165,-24.01638],[-49.03484,-24.01629],[-49.03654,-24.01705],[-49.0379,-24.01677],[-49.03832,-24.01835],[-49.03756,-24.01967],[-49.03862,-24.02229],[-49.04004,-24.02277],[-49.04054,-24.02441],[-49.04193,-24.024],[-49.04301,-24.02476],[-49.04395,-24.02603],[-49.0451,-24.02652],[-49.04676,-24.02632],[-49.05006,-24.02713],[-49.05045,-24.02871],[-49.0517,-24.02893],[-49.05298,-24.02843],[-49.05376,-24.02966],[-49.05399,-24.0312],[-49.05359,-24.03291],[-49.05404,-24.03467],[-49.05404,-24.03604],[-49.05587,-24.03711],[-49.05709,-24.03661],[-49.05807,-24.03497],[-49.05995,-24.03768],[-49.06026,-24.03959],[-49.06012,-24.04162],[-49.06115,-24.04361],[-49.0652,-24.04608],[-49.06645,-24.04622],[-49.06768,-24.04711],[-49.06901,-24.04684],[-49.06971,-24.04548],[-49.07067,-24.0447],[-49.07263,-24.04641],[-49.07538,-24.04695],[-49.07779,-24.04717],[-49.07951,-24.0482],[-49.08135,-24.05069],[-49.08176,-24.05416],[-49.08349,-24.05611],[-49.08551,-24.05727],[-49.08754,-24.05781],[-49.08881,-24.05785],[-49.09068,-24.05744],[-49.09231,-24.05738],[-49.09368,-24.05774],[-49.09664,-24.05913],[-49.10096,-24.06243],[-49.10198,-24.06346],[-49.10279,-24.06707],[-49.10429,-24.07055],[-49.10474,-24.07268],[-49.10629,-24.07707],[-49.10679,-24.08081],[-49.10631,-24.08266],[-49.10406,-24.08706],[-49.10351,-24.08879],[-49.10367,-24.09032],[-49.10532,-24.09099],[-49.10507,-24.09326],[-49.10554,-24.09474],[-49.10665,-24.09578],[-49.10953,-24.09736],[-49.11082,-24.0988],[-49.11262,-24.10296],[-49.1147,-24.10666],[-49.1151,-24.10801],[-49.11534,-24.1109],[-49.11531,-24.11362],[-49.11421,-24.11856],[-49.11146,-24.1211],[-49.11024,-24.12188],[-49.10992,-24.12309],[-49.11139,-24.12376],[-49.11443,-24.1234],[-49.11685,-24.12484],[-49.11937,-24.12537],[-49.12134,-24.1254],[-49.12287,-24.12499],[-49.12468,-24.12408],[-49.12978,-24.11981],[-49.13134,-24.1179],[-49.1317,-24.11646],[-49.13429,-24.11404],[-49.1364,-24.11341],[-49.13956,-24.11421],[-49.14076,-24.11488],[-49.14376,-24.1156],[-49.14699,-24.11699],[-49.14987,-24.11688],[-49.15107,-24.11624],[-49.1521,-24.11371],[-49.15574,-24.11125],[-49.15902,-24.10861],[-49.16123,-24.10815],[-49.16302,-24.1085],[-49.16552,-24.10949],[-49.16734,-24.10889],[-49.16906,-24.10785],[-49.17067,-24.10716],[-49.17382,-24.10493],[-49.17631,-24.10171],[-49.17829,-24.10066],[-49.18001,-24.10034],[-49.1811,-24.09974],[-49.1839,-24.09928],[-49.18481,-24.09588],[-49.18609,-24.09493],[-49.1887,-24.09483],[-49.19067,-24.09554],[-49.19353,-24.09485],[-49.19531,-24.09543],[-49.19793,-24.09755],[-49.19963,-24.09795],[-49.19924,-24.09917],[-49.19934,-24.10052],[-49.19871,-24.1022],[-49.19718,-24.10302],[-49.19624,-24.10411],[-49.19462,-24.10444],[-49.19151,-24.10635],[-49.19026,-24.10731],[-49.18715,-24.10895],[-49.18612,-24.11117],[-49.18329,-24.11226],[-49.18171,-24.11214],[-49.17598,-24.11257],[-49.17501,-24.11348],[-49.17349,-24.11429],[-49.17146,-24.11463],[-49.16856,-24.11694],[-49.16669,-24.11691],[-49.16429,-24.11854],[-49.16329,-24.11945],[-49.16276,-24.12076],[-49.16187,-24.1219],[-49.16045,-24.12213],[-49.15829,-24.12391],[-49.15746,-24.12571],[-49.15726,-24.12762],[-49.15601,-24.12876],[-49.1537,-24.13361],[-49.15345,-24.13492],[-49.15033,-24.13778],[-49.14856,-24.13896],[-49.14538,-24.14318],[-49.14226,-24.1456],[-49.14127,-24.14718],[-49.14115,-24.14858],[-49.13946,-24.1518],[-49.13909,-24.15343],[-49.13765,-24.1576],[-49.13668,-24.1596],[-49.13566,-24.16354],[-49.13587,-24.16543],[-49.13657,-24.16832],[-49.13712,-24.17461],[-49.1387,-24.18119],[-49.13859,-24.18266],[-49.13749,-24.18425],[-49.13704,-24.18583],[-49.08315,-24.18494],[-49.08256,-24.18748],[-49.0849,-24.1939],[-49.08532,-24.19662],[-49.08525,-24.19782],[-49.08321,-24.19905],[-49.08168,-24.19913],[-49.07954,-24.19866],[-49.0709,-24.19613],[-49.07003,-24.19559],[-49.06748,-24.19252],[-49.06484,-24.19206],[-49.06462,-24.19139],[-49.06129,-24.1908],[-49.05964,-24.18998],[-49.05788,-24.18734],[-49.05676,-24.18729],[-49.05479,-24.18542],[-49.05428,-24.18398],[-49.05178,-24.18239],[-49.05076,-24.1803],[-49.04968,-24.1795],[-49.04834,-24.17709],[-49.04617,-24.17524],[-49.0459,-24.17412],[-49.04365,-24.1727],[-49.04307,-24.17207],[-49.04265,-24.17074],[-49.04151,-24.16929],[-49.04114,-24.1678],[-49.03724,-24.16543],[-49.03629,-24.16458],[-49.03404,-24.1631],[-49.03301,-24.162],[-49.03082,-24.1606],[-49.02878,-24.16037],[-49.02627,-24.15964],[-49.02435,-24.15785],[-49.02113,-24.15585],[-49.01893,-24.15637],[-49.0179,-24.15684],[-49.01537,-24.15454],[-49.01615,-24.15104],[-49.01612,-24.15037],[-49.01431,-24.14972],[-49.01204,-24.14836],[-49.01084,-24.14611],[-49.00895,-24.14501],[-49.00618,-24.14285],[-49.00457,-24.14114],[-49.0039,-24.1399],[-49.0034,-24.13798],[-49.0029,-24.13294],[-49.00226,-24.13165],[-48.99909,-24.1294],[-48.99806,-24.12487],[-48.9967,-24.12233],[-48.99548,-24.12168],[-48.99238,-24.1213],[-48.99178,-24.11957],[-48.99112,-24.1152],[-48.99051,-24.11394],[-48.98815,-24.11378],[-48.98665,-24.11268],[-48.98574,-24.11135],[-48.98445,-24.10848],[-48.98315,-24.10388],[-48.98339,-24.10115],[-48.94038,-24.10075],[-48.90395,-24.1004],[-48.87064,-24.10008],[-48.86559,-24.09977],[-48.86064,-24.09985],[-48.85845,-24.09955],[-48.85853,-24.09831],[-48.86028,-24.09742],[-48.86172,-24.09628],[-48.86072,-24.09523],[-48.862,-24.09373],[-48.86306,-24.09365],[-48.86349,-24.09307],[-48.86475,-24.09359],[-48.86718,-24.0937],[-48.86699,-24.09018],[-48.86641,-24.08948],[-48.86675,-24.08785],[-48.86762,-24.08734],[-48.86834,-24.08782],[-48.86767,-24.089],[-48.86899,-24.08922],[-48.87018,-24.09044],[-48.8706,-24.09164],[-48.87145,-24.09176],[-48.87333,-24.09114],[-48.87376,-24.09026],[-48.87312,-24.08914],[-48.87227,-24.08665],[-48.87222,-24.0852],[-48.87412,-24.08446],[-48.87546,-24.08476],[-48.87611,-24.08552],[-48.87847,-24.08526],[-48.88022,-24.08628],[-48.8806,-24.08617],[-48.88136,-24.0844],[-48.88135,-24.08221],[-48.8824,-24.0822],[-48.883,-24.08293],[-48.88453,-24.08307],[-48.88479,-24.08158],[-48.88632,-24.08056],[-48.88652,-24.07919],[-48.88784,-24.07751],[-48.88864,-24.07755],[-48.89015,-24.07499],[-48.88893,-24.07427],[-48.88763,-24.0742],[-48.8869,-24.07232],[-48.88362,-24.0715],[-48.88181,-24.07154],[-48.88097,-24.07194],[-48.88024,-24.07114],[-48.87989,-24.06984],[-48.87857,-24.07017],[-48.87641,-24.06942],[-48.87587,-24.07187],[-48.87504,-24.0729],[-48.87403,-24.07323],[-48.87121,-24.07282],[-48.87075,-24.07034],[-48.86811,-24.06764],[-48.86706,-24.0645],[-48.86709,-24.06269],[-48.86263,-24.0665],[-48.86141,-24.06734],[-48.85779,-24.07263],[-48.8556,-24.07339],[-48.85463,-24.07447],[-48.85335,-24.07531],[-48.84822,-24.07697],[-48.84615,-24.08006],[-48.84394,-24.0767],[-48.84296,-24.07486],[-48.84616,-24.06737],[-48.84646,-24.06465],[-48.84459,-24.06483],[-48.84254,-24.06367],[-48.83993,-24.0631],[-48.83804,-24.06416],[-48.83627,-24.06439],[-48.8344,-24.06161],[-48.82946,-24.05832],[-48.82788,-24.05614],[-48.82464,-24.05339],[-48.82155,-24.05123],[-48.81855,-24.04964],[-48.81622,-24.04713],[-48.81567,-24.04682],[-48.8087,-24.04569],[-48.78501,-24.0418],[-48.77818,-24.04242],[-48.77402,-24.04388],[-48.77187,-24.04579],[-48.77069,-24.04658],[-48.76846,-24.04708],[-48.76624,-24.04735],[-48.76466,-24.04814],[-48.75989,-24.0527],[-48.75508,-24.05616],[-48.75379,-24.05787],[-48.75357,-24.05896],[-48.75416,-24.05954],[-48.75372,-24.06167],[-48.75237,-24.06364],[-48.75138,-24.06562],[-48.74926,-24.06596],[-48.74785,-24.06547],[-48.74546,-24.06666],[-48.74394,-24.06667],[-48.74267,-24.06722],[-48.74231,-24.06785],[-48.74069,-24.06803],[-48.73946,-24.06887],[-48.73868,-24.07013],[-48.73856,-24.07166],[-48.73932,-24.07267],[-48.73783,-24.07392],[-48.73743,-24.07687],[-48.73851,-24.07919],[-48.74121,-24.08088],[-48.74064,-24.08194],[-48.73982,-24.08195],[-48.73894,-24.08265],[-48.73862,-24.08429],[-48.73899,-24.08618],[-48.73832,-24.08654],[-48.7365,-24.08625],[-48.73663,-24.08817],[-48.73846,-24.08916],[-48.73639,-24.0916],[-48.73478,-24.09211],[-48.73352,-24.09354],[-48.7336,-24.09465],[-48.73269,-24.09785],[-48.73199,-24.09828],[-48.7302,-24.1004],[-48.72888,-24.10258],[-48.72802,-24.10358],[-48.72593,-24.1051],[-48.72533,-24.10587],[-48.72497,-24.10796],[-48.72606,-24.10766],[-48.72692,-24.10941],[-48.72696,-24.11077],[-48.72566,-24.11167],[-48.72401,-24.11127],[-48.72364,-24.1116],[-48.72341,-24.11332],[-48.72583,-24.11408],[-48.72566,-24.11551],[-48.72457,-24.1166],[-48.7223,-24.117],[-48.72109,-24.11654],[-48.72033,-24.11693],[-48.71986,-24.11793],[-48.72047,-24.11922],[-48.72175,-24.11985],[-48.72188,-24.12092],[-48.72039,-24.12208],[-48.71932,-24.12122],[-48.71737,-24.12162],[-48.7162,-24.12034],[-48.71459,-24.12071],[-48.71351,-24.12149],[-48.71317,-24.12289],[-48.71233,-24.12438],[-48.7092,-24.12626],[-48.70545,-24.12687],[-48.70532,-24.12534],[-48.70314,-24.12603],[-48.70195,-24.12681],[-48.70055,-24.12645],[-48.69836,-24.12477],[-48.69772,-24.12131],[-48.69774,-24.1201],[-48.69701,-24.11872],[-48.69804,-24.11763],[-48.69739,-24.11695],[-48.69786,-24.11605],[-48.69578,-24.11655],[-48.69542,-24.11715],[-48.69401,-24.11717],[-48.69191,-24.11568],[-48.69105,-24.11574],[-48.68963,-24.11326],[-48.69077,-24.11184],[-48.68974,-24.10979],[-48.68809,-24.10905],[-48.68715,-24.10808],[-48.68653,-24.10611],[-48.68744,-24.10596],[-48.68807,-24.10442],[-48.68717,-24.10424],[-48.68427,-24.10244],[-48.68264,-24.10079],[-48.68067,-24.10062],[-48.67778,-24.09847],[-48.67699,-24.09755],[-48.67543,-24.09732],[-48.67352,-24.09671],[-48.67502,-24.09556],[-48.67354,-24.09378],[-48.67218,-24.09107],[-48.67057,-24.08933],[-48.66946,-24.08747],[-48.67216,-24.08592],[-48.67395,-24.08389],[-48.6745,-24.08198],[-48.6764,-24.08095],[-48.6778,-24.07747],[-48.67933,-24.07598],[-48.68135,-24.0758],[-48.68276,-24.07537],[-48.68631,-24.07321],[-48.68854,-24.0703],[-48.69011,-24.06895],[-48.69158,-24.06885],[-48.69152,-24.06747],[-48.69272,-24.06581],[-48.69255,-24.06483],[-48.69058,-24.0617],[-48.68773,-24.06013],[-48.68596,-24.05719],[-48.68502,-24.0565],[-48.68394,-24.0544],[-48.68275,-24.05353],[-48.68054,-24.05261],[-48.6791,-24.05153],[-48.67724,-24.05076],[-48.67698,-24.04867],[-48.67614,-24.04761],[-48.67596,-24.04652],[-48.67511,-24.04584],[-48.67393,-24.04408],[-48.67293,-24.0436],[-48.67227,-24.04385],[-48.67127,-24.04629],[-48.66943,-24.04728],[-48.66854,-24.04912],[-48.66762,-24.04982],[-48.66671,-24.04974],[-48.66516,-24.05192],[-48.66378,-24.05259],[-48.66366,-24.05362],[-48.66274,-24.0543],[-48.65953,-24.05337],[-48.65863,-24.05284],[-48.65804,-24.05177],[-48.65714,-24.05143],[-48.65492,-24.05149],[-48.65391,-24.05189],[-48.65311,-24.05128],[-48.64838,-24.04495],[-48.65102,-24.0386],[-48.65219,-24.03515],[-48.65334,-24.03308],[-48.65416,-24.0324],[-48.655,-24.03079],[-48.65737,-24.03119],[-48.66201,-24.02989],[-48.66364,-24.02914],[-48.66561,-24.02747],[-48.66492,-24.02534],[-48.66657,-24.02484],[-48.66906,-24.0259],[-48.67094,-24.02739],[-48.67315,-24.02882],[-48.67445,-24.03063],[-48.6772,-24.03164],[-48.67776,-24.03155],[-48.67989,-24.02989],[-48.68011,-24.02832],[-48.68186,-24.0267],[-48.68498,-24.02601],[-48.68553,-24.02607],[-48.68634,-24.02451],[-48.68787,-24.02482],[-48.68853,-24.02437],[-48.68969,-24.02283],[-48.69001,-24.02163],[-48.69139,-24.02172],[-48.69218,-24.01991],[-48.69217,-24.01887],[-48.69373,-24.01935],[-48.69472,-24.01867],[-48.69523,-24.01764],[-48.69498,-24.0165],[-48.69642,-24.01565],[-48.69676,-24.01438],[-48.69587,-24.01408],[-48.69578,-24.0133],[-48.69373,-24.01219],[-48.69283,-24.01035],[-48.69389,-24.00879],[-48.69481,-24.00818],[-48.69537,-24.00683],[-48.69631,-24.00644],[-48.69695,-24.00563],[-48.69664,-24.00443],[-48.69717,-24.00307],[-48.69706,-24.00035],[-48.69684,-23.99981],[-48.69858,-23.99803],[-48.69878,-23.99678],[-48.69931,-23.99602],[-48.70025,-23.99563],[-48.70073,-23.99484],[-48.70245,-23.9947],[-48.7034,-23.99366],[-48.70303,-23.99275],[-48.70394,-23.99241],[-48.70556,-23.98998],[-48.70756,-23.98879],[-48.70726,-23.9875],[-48.70612,-23.98716],[-48.70678,-23.98622],[-48.70618,-23.98558],[-48.70612,-23.98427],[-48.70436,-23.984],[-48.70436,-23.98272],[-48.70356,-23.98179],[-48.70512,-23.97965],[-48.70342,-23.9793],[-48.70446,-23.97809],[-48.70598,-23.97925],[-48.70692,-23.97861],[-48.70645,-23.97783],[-48.70667,-23.97574],[-48.70756,-23.97544],[-48.70814,-23.97445],[-48.7099,-23.97309],[-48.71348,-23.97084],[-48.7149,-23.96919],[-48.71379,-23.96879],[-48.71248,-23.96759],[-48.71231,-23.96662],[-48.71103,-23.96602],[-48.71017,-23.96514],[-48.71087,-23.96334],[-48.712,-23.96256],[-48.71208,-23.9615],[-48.71115,-23.96095],[-48.71045,-23.95968],[-48.7103,-23.95716],[-48.71139,-23.9566],[-48.71245,-23.9567],[-48.71348,-23.9563],[-48.71456,-23.9573],[-48.71512,-23.95859],[-48.71623,-23.95909],[-48.71745,-23.95864],[-48.7187,-23.95746],[-48.72025,-23.95825],[-48.72126,-23.95934],[-48.72231,-23.962],[-48.72321,-23.96201],[-48.7254,-23.96108],[-48.72825,-23.96262],[-48.72912,-23.96244],[-48.72964,-23.96464],[-48.73159,-23.96828],[-48.73226,-23.97072],[-48.73064,-23.97203],[-48.73205,-23.97412],[-48.7334,-23.97392],[-48.73404,-23.9748],[-48.73498,-23.97443],[-48.73628,-23.97476],[-48.73698,-23.97594],[-48.73848,-23.97657],[-48.73948,-23.97763],[-48.74067,-23.97781],[-48.74179,-23.97966],[-48.74363,-23.97923],[-48.74426,-23.98003],[-48.74531,-23.98034],[-48.74867,-23.9796],[-48.74948,-23.97981],[-48.7531,-23.98211],[-48.75603,-23.98336],[-48.75689,-23.98352],[-48.75976,-23.98344],[-48.761,-23.98445],[-48.76325,-23.98455],[-48.76626,-23.98345],[-48.76765,-23.98358],[-48.76959,-23.9842],[-48.77043,-23.98408],[-48.77316,-23.98293],[-48.77404,-23.98282],[-48.7759,-23.98366],[-48.77905,-23.98683],[-48.78173,-23.9887],[-48.78259,-23.99059],[-48.78528,-23.992],[-48.78593,-23.99209],[-48.78784,-23.99069],[-48.78826,-23.98927],[-48.78696,-23.98705],[-48.78445,-23.98546],[-48.77922,-23.98058],[-48.77428,-23.97738],[-48.77362,-23.97614],[-48.77668,-23.9716],[-48.77681,-23.96965],[-48.77564,-23.9672],[-48.77398,-23.96448],[-48.77374,-23.96147],[-48.77387,-23.95911],[-48.77756,-23.95563],[-48.77856,-23.95387],[-48.77857,-23.95327],[-48.77751,-23.9504],[-48.77568,-23.94717],[-48.77425,-23.9439],[-48.77395,-23.93887],[-48.77289,-23.93672],[-48.77003,-23.93504],[-48.76842,-23.93431],[-48.76751,-23.93276],[-48.76817,-23.9254],[-48.76881,-23.92133],[-48.77009,-23.91804],[-48.77143,-23.91615],[-48.7742,-23.91432],[-48.77254,-23.91194],[-48.771,-23.91052],[-48.77034,-23.90952],[-48.76934,-23.90595],[-48.76917,-23.90132],[-48.76725,-23.89802],[-48.7672,-23.89718],[-48.76787,-23.89598],[-48.76992,-23.89414],[-48.77131,-23.89333],[-48.7722,-23.89197],[-48.7719,-23.89018],[-48.7701,-23.888],[-48.77016,-23.88601],[-48.77276,-23.88327],[-48.77301,-23.88201],[-48.77264,-23.87984],[-48.77334,-23.87856],[-48.7765,-23.87688],[-48.77862,-23.8763],[-48.77959,-23.87566],[-48.77997,-23.87466],[-48.77992,-23.87065],[-48.78037,-23.86708],[-48.78211,-23.8638],[-48.78406,-23.86168],[-48.78859,-23.85903],[-48.79081,-23.85735],[-48.79503,-23.85472],[-48.79576,-23.85345],[-48.79472,-23.85241],[-48.79265,-23.8496],[-48.79081,-23.84866],[-48.78731,-23.84904],[-48.78395,-23.85114],[-48.78214,-23.85143],[-48.77962,-23.85083],[-48.77712,-23.85125],[-48.77586,-23.85207],[-48.77414,-23.85386],[-48.77162,-23.85553],[-48.76806,-23.85746],[-48.76559,-23.8585],[-48.7612,-23.8595],[-48.75975,-23.8596],[-48.75725,-23.85921],[-48.75348,-23.85736],[-48.75046,-23.85631],[-48.74634,-23.85592],[-48.74384,-23.85359],[-48.74148,-23.85269],[-48.73993,-23.85272],[-48.7382,-23.85359],[-48.73453,-23.85445],[-48.73092,-23.85431],[-48.73075,-23.85371],[-48.73238,-23.85262],[-48.73559,-23.84978],[-48.73773,-23.8484],[-48.74006,-23.84743],[-48.7418,-23.84617],[-48.74387,-23.84319],[-48.74468,-23.84082],[-48.74473,-23.83937],[-48.74423,-23.8377],[-48.74447,-23.83375],[-48.74425,-23.82937],[-48.74308,-23.8266]]]},"properties":{"codigo":"352240605","name":"Itapeva","population":80888,"households":34478,"areaKm2":1001.6938,"density":80.8}},{"type":"Feature","geometry":{"type":"Polygon","coordinates":[[[-48.85845,-24.09955],[-48.85684,-24.0997],[-48.85482,-24.10133],[-48.85336,-24.10115],[-48.85312,-24.10025],[-48.85222,-24.09915],[-48.85106,-24.0987],[-48.84951,-24.09919],[-48.8486,-24.09744],[-48.84671,-24.09733],[-48.84573,-24.09596],[-48.84478,-24.09555],[-48.84281,-24.09589],[-48.84148,-24.09663],[-48.84069,-24.0963],[-48.83978,-24.09703],[-48.83904,-24.097],[-48.83757,-24.09889],[-48.8344,-24.09979],[-48.8329,-24.10056],[-48.8307,-24.10239],[-48.82928,-24.10385],[-48.82694,-24.10524],[-48.82463,-24.10713],[-48.82376,-24.10919],[-48.82281,-24.11199],[-48.81975,-24.11318],[-48.81315,-24.11384],[-48.81192,-24.11446],[-48.81195,-24.1164],[-48.81282,-24.11822],[-48.81468,-24.12018],[-48.81759,-24.12212],[-48.82228,-24.12299],[-48.82236,-24.12358],[-48.82184,-24.12806],[-48.82081,-24.12738],[-48.81806,-24.12821],[-48.81585,-24.12853],[-48.81387,-24.12747],[-48.81265,-24.12628],[-48.81172,-24.12497],[-48.80958,-24.12315],[-48.80712,-24.12264],[-48.80334,-24.12072],[-48.80226,-24.11981],[-48.80087,-24.11948],[-48.79929,-24.11955],[-48.79736,-24.12077],[-48.79609,-24.12185],[-48.79445,-24.12427],[-48.79142,-24.12565],[-48.78779,-24.12663],[-48.78685,-24.12752],[-48.7844,-24.1304],[-48.78287,-24.13089],[-48.78031,-24.13127],[-48.77631,-24.13274],[-48.77142,-24.13379],[-48.76961,-24.13392],[-48.76767,-24.13372],[-48.76612,-24.13385],[-48.76435,-24.13302],[-48.76184,-24.13229],[-48.76042,-24.13069],[-48.76041,-24.12907],[-48.7539,-24.12681],[-48.75417,-24.12469],[-48.75161,-24.12386],[-48.75037,-24.12201],[-48.74834,-24.12041],[-48.74498,-24.1188],[-48.74344,-24.11831],[-48.74176,-24.11601],[-48.73972,-24.11783],[-48.7367,-24.11813],[-48.73345,-24.11743],[-48.73226,-24.11657],[-48.72978,-24.11573],[-48.72712,-24.11769],[-48.72437,-24.11879],[-48.72315,-24.11948],[-48.72188,-24.12092],[-48.72175,-24.11985],[-48.72047,-24.11922],[-48.71986,-24.11793],[-48.72033,-24.11693],[-48.72109,-24.11654],[-48.7223,-24.117],[-48.72457,-24.1166],[-48.72566,-24.11551],[-48.72583,-24.11408],[-48.72341,-24.11332],[-48.72364,-24.1116],[-48.72401,-24.11127],[-48.72566,-24.11167],[-48.72696,-24.11077],[-48.72692,-24.10941],[-48.72606,-24.10766],[-48.72497,-24.10796],[-48.72533,-24.10587],[-48.72593,-24.1051],[-48.72802,-24.10358],[-48.72888,-24.10258],[-48.7302,-24.1004],[-48.73199,-24.09828],[-48.73269,-24.09785],[-48.7336,-24.09465],[-48.73352,-24.09354],[-48.73478,-24.09211],[-48.73639,-24.0916],[-48.73846,-24.08916],[-48.73663,-24.08817],[-48.7365,-24.08625],[-48.73832,-24.08654],[-48.73899,-24.08618],[-48.73862,-24.08429],[-48.73894,-24.08265],[-48.73982,-24.08195],[-48.74064,-24.08194],[-48.74121,-24.08088],[-48.73851,-24.07919],[-48.73743,-24.07687],[-48.73783,-24.07392],[-48.73932,-24.07267],[-48.73856,-24.07166],[-48.73868,-24.07013],[-48.73946,-24.06887],[-48.74069,-24.06803],[-48.74231,-24.06785],[-48.74267,-24.06722],[-48.74394,-24.06667],[-48.74546,-24.06666],[-48.74785,-24.06547],[-48.74926,-24.06596],[-48.75138,-24.06562],[-48.75237,-24.06364],[-48.75372,-24.06167],[-48.75416,-24.05954],[-48.75357,-24.05896],[-48.75379,-24.05787],[-48.75508,-24.05616],[-48.75989,-24.0527],[-48.76466,-24.04814],[-48.76624,-24.04735],[-48.76846,-24.04708],[-48.77069,-24.04658],[-48.77187,-24.04579],[-48.77402,-24.04388],[-48.77818,-24.04242],[-48.78501,-24.0418],[-48.8087,-24.04569],[-48.81567,-24.04682],[-48.81622,-24.04713],[-48.81855,-24.04964],[-48.82155,-24.05123],[-48.82464,-24.05339],[-48.82788,-24.05614],[-48.82946,-24.05832],[-48.8344,-24.06161],[-48.83627,-24.06439],[-48.83804,-24.06416],[-48.83993,-24.0631],[-48.84254,-24.06367],[-48.84459,-24.06483],[-48.84646,-24.06465],[-48.84616,-24.06737],[-48.84296,-24.07486],[-48.84394,-24.0767],[-48.84615,-24.08006],[-48.84822,-24.07697],[-48.85335,-24.07531],[-48.85463,-24.07447],[-48.8556,-24.07339],[-48.85779,-24.07263],[-48.86141,-24.06734],[-48.86263,-24.0665],[-48.86709,-24.06269],[-48.86706,-24.0645],[-48.86811,-24.06764],[-48.87075,-24.07034],[-48.87121,-24.07282],[-48.87403,-24.07323],[-48.87504,-24.0729],[-48.87587,-24.07187],[-48.87641,-24.06942],[-48.87857,-24.07017],[-48.87989,-24.06984],[-48.88024,-24.07114],[-48.88097,-24.07194],[-48.88181,-24.07154],[-48.88362,-24.0715],[-48.8869,-24.07232],[-48.88763,-24.0742],[-48.88893,-24.07427],[-48.89015,-24.07499],[-48.88864,-24.07755],[-48.88784,-24.07751],[-48.88652,-24.07919],[-48.88632,-24.08056],[-48.88479,-24.08158],[-48.88453,-24.08307],[-48.883,-24.08293],[-48.8824,-24.0822],[-48.88135,-24.08221],[-48.88136,-24.0844],[-48.8806,-24.08617],[-48.88022,-24.08628],[-48.87847,-24.08526],[-48.87611,-24.08552],[-48.87546,-24.08476],[-48.87412,-24.08446],[-48.87222,-24.0852],[-48.87227,-24.08665],[-48.87312,-24.08914],[-48.87376,-24.09026],[-48.87333,-24.09114],[-48.87145,-24.09176],[-48.8706,-24.09164],[-48.87018,-24.09044],[-48.86899,-24.08922],[-48.86767,-24.089],[-48.86834,-24.08782],[-48.86762,-24.08734],[-48.86675,-24.08785],[-48.86641,-24.08948],[-48.86699,-24.09018],[-48.86718,-24.0937],[-48.86475,-24.09359],[-48.86349,-24.09307],[-48.86306,-24.09365],[-48.862,-24.09373],[-48.86072,-24.09523],[-48.86172,-24.09628],[-48.86028,-24.09742],[-48.85853,-24.09831],[-48.85845,-24.09955]]]},"properties":{"codigo":"352240611","name":"Alto da Brancal","population":1913,"households":862,"areaKm2":94.3904,"density":20.3}},{"type":"Feature","geometry":{"type":"Polygon","coordinates":[[[-48.58186,-23.9829],[-48.58303,-23.98257],[-48.58477,-23.98419],[-48.58575,-23.98671],[-48.5867,-23.98766],[-48.58845,-23.98814],[-48.59072,-23.98842],[-48.59251,-23.98812],[-48.5964,-23.9868],[-48.59906,-23.98557],[-48.60067,-23.98578],[-48.60101,-23.98719],[-48.59956,-23.99031],[-48.59973,-23.99187],[-48.60056,-23.99324],[-48.60209,-23.99461],[-48.60553,-23.99614],[-48.6069,-23.99818],[-48.60742,-23.99943],[-48.60717,-24.00226],[-48.60867,-24.00377],[-48.61067,-24.00424],[-48.61212,-24.0054],[-48.61345,-24.00835],[-48.61532,-24.01085],[-48.61878,-24.0132],[-48.62372,-24.01479],[-48.62498,-24.01565],[-48.62723,-24.01849],[-48.62773,-24.0203],[-48.6275,-24.02131],[-48.62839,-24.02315],[-48.63012,-24.02212],[-48.63178,-24.02172],[-48.63269,-24.0211],[-48.63395,-24.01919],[-48.63556,-24.01868],[-48.6377,-24.01867],[-48.63922,-24.01759],[-48.64073,-24.01584],[-48.64231,-24.01666],[-48.64576,-24.01779],[-48.64917,-24.01988],[-48.65475,-24.02621],[-48.65517,-24.02911],[-48.655,-24.03079],[-48.65416,-24.0324],[-48.65334,-24.03308],[-48.65219,-24.03515],[-48.65102,-24.0386],[-48.64838,-24.04495],[-48.65311,-24.05128],[-48.65391,-24.05189],[-48.65492,-24.05149],[-48.65714,-24.05143],[-48.65804,-24.05177],[-48.65863,-24.05284],[-48.65953,-24.05337],[-48.66274,-24.0543],[-48.66366,-24.05362],[-48.66378,-24.05259],[-48.66516,-24.05192],[-48.66671,-24.04974],[-48.66762,-24.04982],[-48.66854,-24.04912],[-48.66943,-24.04728],[-48.67127,-24.04629],[-48.67227,-24.04385],[-48.67293,-24.0436],[-48.67393,-24.04408],[-48.67511,-24.04584],[-48.67596,-24.04652],[-48.67614,-24.04761],[-48.67698,-24.04867],[-48.67724,-24.05076],[-48.6791,-24.05153],[-48.68054,-24.05261],[-48.68275,-24.05353],[-48.68394,-24.0544],[-48.68502,-24.0565],[-48.68596,-24.05719],[-48.68773,-24.06013],[-48.69058,-24.0617],[-48.69255,-24.06483],[-48.69272,-24.06581],[-48.69152,-24.06747],[-48.69158,-24.06885],[-48.69011,-24.06895],[-48.68854,-24.0703],[-48.68631,-24.07321],[-48.68276,-24.07537],[-48.68135,-24.0758],[-48.67933,-24.07598],[-48.6778,-24.07747],[-48.6764,-24.08095],[-48.6745,-24.08198],[-48.67395,-24.08389],[-48.67216,-24.08592],[-48.66946,-24.08747],[-48.67057,-24.08933],[-48.67218,-24.09107],[-48.67354,-24.09378],[-48.67502,-24.09556],[-48.67352,-24.09671],[-48.67543,-24.09732],[-48.67699,-24.09755],[-48.67778,-24.09847],[-48.68067,-24.10062],[-48.68264,-24.10079],[-48.68427,-24.10244],[-48.68717,-24.10424],[-48.68807,-24.10442],[-48.68744,-24.10596],[-48.68653,-24.10611],[-48.68715,-24.10808],[-48.68809,-24.10905],[-48.68974,-24.10979],[-48.69077,-24.11184],[-48.68963,-24.11326],[-48.69105,-24.11574],[-48.69191,-24.11568],[-48.69401,-24.11717],[-48.69542,-24.11715],[-48.69578,-24.11655],[-48.69786,-24.11605],[-48.69739,-24.11695],[-48.69804,-24.11763],[-48.69701,-24.11872],[-48.69774,-24.1201],[-48.69772,-24.12131],[-48.69836,-24.12477],[-48.70055,-24.12645],[-48.69894,-24.12659],[-48.69551,-24.12734],[-48.69423,-24.12631],[-48.69081,-24.13009],[-48.69039,-24.1313],[-48.69068,-24.13298],[-48.69059,-24.13429],[-48.68928,-24.13407],[-48.68812,-24.13462],[-48.68673,-24.1344],[-48.68576,-24.13536],[-48.6832,-24.13691],[-48.68217,-24.13823],[-48.68085,-24.13788],[-48.67981,-24.13897],[-48.67844,-24.13875],[-48.67617,-24.14012],[-48.67473,-24.14361],[-48.67311,-24.14606],[-48.67145,-24.14675],[-48.67037,-24.14757],[-48.66721,-24.147],[-48.66442,-24.14553],[-48.66231,-24.14382],[-48.66084,-24.14328],[-48.65952,-24.14199],[-48.66018,-24.14065],[-48.6602,-24.13958],[-48.65898,-24.1377],[-48.65851,-24.13581],[-48.6586,-24.134],[-48.65794,-24.13301],[-48.65621,-24.13211],[-48.65539,-24.12992],[-48.65337,-24.12867],[-48.64908,-24.12706],[-48.65014,-24.12566],[-48.65039,-24.1246],[-48.65019,-24.12276],[-48.64967,-24.12171],[-48.64862,-24.12105],[-48.64821,-24.11954],[-48.64621,-24.1172],[-48.64477,-24.11691],[-48.64042,-24.11525],[-48.63798,-24.11392],[-48.63526,-24.11298],[-48.63278,-24.11127],[-48.63091,-24.11116],[-48.62976,-24.11163],[-48.6289,-24.11064],[-48.62758,-24.11032],[-48.62615,-24.10938],[-48.62478,-24.10801],[-48.62307,-24.10795],[-48.62201,-24.10746],[-48.62217,-24.10616],[-48.62167,-24.1056],[-48.61996,-24.10593],[-48.61917,-24.10578],[-48.61747,-24.10341],[-48.61659,-24.10165],[-48.61329,-24.10111],[-48.61218,-24.10135],[-48.6104,-24.10082],[-48.60826,-24.10111],[-48.60721,-24.10199],[-48.60637,-24.1016],[-48.60564,-24.09971],[-48.60408,-24.09969],[-48.60316,-24.09858],[-48.60314,-24.09759],[-48.60371,-24.09665],[-48.60305,-24.0959],[-48.60144,-24.09559],[-48.6015,-24.09484],[-48.60089,-24.09362],[-48.59931,-24.09238],[-48.59864,-24.09117],[-48.59659,-24.09016],[-48.59524,-24.08997],[-48.59248,-24.09019],[-48.59144,-24.08905],[-48.5906,-24.08893],[-48.58747,-24.09041],[-48.5859,-24.0923],[-48.58492,-24.09307],[-48.5828,-24.09344],[-48.58165,-24.094],[-48.58001,-24.09399],[-48.57824,-24.09469],[-48.57659,-24.09588],[-48.57602,-24.09546],[-48.57638,-24.09451],[-48.5761,-24.09373],[-48.57472,-24.09333],[-48.5736,-24.09226],[-48.57037,-24.09268],[-48.56938,-24.09157],[-48.56935,-24.09061],[-48.56991,-24.08959],[-48.56968,-24.08762],[-48.57067,-24.08651],[-48.5693,-24.08632],[-48.56886,-24.08587],[-48.56893,-24.08404],[-48.57059,-24.0831],[-48.5703,-24.08078],[-48.5712,-24.07926],[-48.57202,-24.07846],[-48.57174,-24.07744],[-48.57453,-24.07738],[-48.57534,-24.07607],[-48.57464,-24.0728],[-48.57384,-24.07146],[-48.57569,-24.0697],[-48.57424,-24.06904],[-48.57463,-24.06759],[-48.57457,-24.06622],[-48.57555,-24.06573],[-48.5749,-24.06459],[-48.57506,-24.06284],[-48.57622,-24.0619],[-48.57505,-24.06093],[-48.57373,-24.06098],[-48.57342,-24.05932],[-48.57344,-24.05762],[-48.57486,-24.05686],[-48.57742,-24.05689],[-48.579,-24.05804],[-48.58072,-24.05676],[-48.58047,-24.05389],[-48.58176,-24.05195],[-48.58148,-24.05061],[-48.58261,-24.05011],[-48.58263,-24.04847],[-48.58152,-24.04615],[-48.57928,-24.04579],[-48.57856,-24.04273],[-48.5777,-24.04264],[-48.57604,-24.0444],[-48.57443,-24.04562],[-48.5727,-24.04624],[-48.5735,-24.04686],[-48.5737,-24.04774],[-48.57256,-24.04846],[-48.57061,-24.04815],[-48.57016,-24.04734],[-48.57063,-24.04612],[-48.57025,-24.04415],[-48.57035,-24.04274],[-48.56881,-24.04097],[-48.56847,-24.04008],[-48.56893,-24.03934],[-48.56998,-24.03899],[-48.57057,-24.0372],[-48.56968,-24.03609],[-48.56937,-24.03213],[-48.56856,-24.03054],[-48.57043,-24.02966],[-48.5726,-24.0282],[-48.57311,-24.02677],[-48.57417,-24.02551],[-48.57411,-24.02462],[-48.57271,-24.02435],[-48.5715,-24.02648],[-48.56999,-24.02721],[-48.56882,-24.02732],[-48.56773,-24.02504],[-48.56633,-24.0245],[-48.56464,-24.0245],[-48.56408,-24.02373],[-48.56204,-24.02366],[-48.56131,-24.02332],[-48.55914,-24.02448],[-48.55865,-24.02519],[-48.55693,-24.02519],[-48.55566,-24.02357],[-48.55622,-24.0221],[-48.55475,-24.02139],[-48.55286,-24.01907],[-48.55354,-24.01798],[-48.55497,-24.01933],[-48.55697,-24.01934],[-48.5579,-24.01979],[-48.55868,-24.0191],[-48.55642,-24.0163],[-48.5554,-24.01479],[-48.55494,-24.0135],[-48.55387,-24.0122],[-48.55416,-24.0116],[-48.5562,-24.01093],[-48.55703,-24.00996],[-48.55846,-24.00988],[-48.56002,-24.00864],[-48.5601,-24.00765],[-48.55943,-24.00643],[-48.55752,-24.00657],[-48.55573,-24.00798],[-48.55453,-24.0078],[-48.55368,-24.00648],[-48.55144,-24.00536],[-48.54986,-24.00365],[-48.55002,-24.00131],[-48.54902,-24.0005],[-48.54901,-23.99935],[-48.54994,-23.99885],[-48.55052,-23.99774],[-48.55082,-23.99623],[-48.55164,-23.99618],[-48.55248,-23.99548],[-48.55581,-23.99644],[-48.55631,-23.99588],[-48.55766,-23.99665],[-48.55873,-23.99638],[-48.55921,-23.99565],[-48.56014,-23.99622],[-48.56045,-23.99503],[-48.56222,-23.99474],[-48.56201,-23.99407],[-48.56298,-23.99355],[-48.56239,-23.99281],[-48.56341,-23.992],[-48.56294,-23.99055],[-48.56397,-23.99013],[-48.56309,-23.98794],[-48.56404,-23.98781],[-48.5647,-23.98692],[-48.56403,-23.98599],[-48.56552,-23.98484],[-48.5659,-23.98581],[-48.56716,-23.98523],[-48.56762,-23.9864],[-48.56875,-23.98659],[-48.56907,-23.98381],[-48.57015,-23.98347],[-48.57129,-23.98448],[-48.57206,-23.98333],[-48.57341,-23.9844],[-48.57647,-23.98342],[-48.57778,-23.98365],[-48.57833,-23.98508],[-48.57923,-23.98596],[-48.58042,-23.98401],[-48.5821,-23.98401],[-48.58186,-23.9829]]]},"properties":{"codigo":"352240613","name":"Areia Branca","population":2318,"households":1048,"areaKm2":129.4376,"density":17.9}},{"type":"Feature","geometry":{"type":"Polygon","coordinates":[[[-48.78096,-23.6428],[-48.78287,-23.64101],[-48.78558,-23.63897],[-48.78761,-23.63846],[-48.7895,-23.63897],[-48.79187,-23.64066],[-48.79362,-23.64123],[-48.79559,-23.64133],[-48.79689,-23.641],[-48.80017,-23.63929],[-48.80247,-23.63743],[-48.80328,-23.63652],[-48.80444,-23.63426],[-48.80608,-23.6327],[-48.80739,-23.63072],[-48.80903,-23.6288],[-48.81244,-23.62354],[-48.81482,-23.62149],[-48.81622,-23.61904],[-48.81782,-23.61746],[-48.81886,-23.61576],[-48.81901,-23.61151],[-48.8188,-23.60896],[-48.82086,-23.60643],[-48.82202,-23.60557],[-48.82305,-23.60524],[-48.8252,-23.60534],[-48.83026,-23.60169],[-48.83204,-23.60108],[-48.83337,-23.59832],[-48.83529,-23.59624],[-48.83739,-23.59449],[-48.83943,-23.59375],[-48.84112,-23.59352],[-48.84417,-23.59399],[-48.84707,-23.59496],[-48.84989,-23.59632],[-48.85204,-23.5979],[-48.85493,-23.60126],[-48.85656,-23.60197],[-48.85892,-23.6026],[-48.86051,-23.60352],[-48.86297,-23.60576],[-48.86436,-23.60636],[-48.86603,-23.60756],[-48.86734,-23.60815],[-48.86937,-23.60849],[-48.87162,-23.60918],[-48.87306,-23.6099],[-48.87487,-23.61032],[-48.87662,-23.60992],[-48.87831,-23.61029],[-48.88264,-23.61227],[-48.88601,-23.61244],[-48.88946,-23.61236],[-48.89098,-23.61297],[-48.89192,-23.61384],[-48.89595,-23.61466],[-48.89748,-23.61585],[-48.89807,-23.61741],[-48.89997,-23.618],[-48.90146,-23.61801],[-48.90321,-23.61894],[-48.90528,-23.62116],[-48.90823,-23.62076],[-48.91009,-23.62084],[-48.91132,-23.62062],[-48.91265,-23.62119],[-48.91681,-23.62376],[-48.91858,-23.6243],[-48.92057,-23.62429],[-48.92378,-23.6238],[-48.92456,-23.62476],[-48.92515,-23.62643],[-48.92648,-23.62579],[-48.92787,-23.62465],[-48.92954,-23.62427],[-48.93453,-23.62106],[-48.9359,-23.62088],[-48.93728,-23.62131],[-48.93926,-23.62228],[-48.94062,-23.6225],[-48.94357,-23.62388],[-48.94498,-23.62377],[-48.94643,-23.62418],[-48.94945,-23.62297],[-48.95039,-23.62173],[-48.95215,-23.6211],[-48.95459,-23.62233],[-48.95848,-23.62295],[-48.96546,-23.62352],[-48.96962,-23.62296],[-48.97123,-23.62251],[-48.97343,-23.62246],[-48.97832,-23.62341],[-48.97921,-23.62503],[-48.97931,-23.6266],[-48.97907,-23.62814],[-48.97837,-23.62976],[-48.97859,-23.63096],[-48.97981,-23.6318],[-48.98128,-23.63226],[-48.9842,-23.63375],[-48.9867,-23.63575],[-48.98756,-23.63894],[-48.98957,-23.64092],[-48.99216,-23.64216],[-48.9942,-23.64254],[-48.99571,-23.64253],[-48.99815,-23.64156],[-49.00057,-23.63947],[-49.00187,-23.63811],[-49.00437,-23.63662],[-49.0052,-23.63516],[-49.00581,-23.63347],[-49.00689,-23.63282],[-49.00823,-23.6338],[-49.00962,-23.63593],[-49.01025,-23.63836],[-49.01054,-23.64117],[-49.01121,-23.64272],[-49.01196,-23.64367],[-49.01423,-23.64531],[-49.01658,-23.64619],[-49.01905,-23.64816],[-49.02293,-23.6488],[-49.02462,-23.64948],[-49.02568,-23.65035],[-49.02779,-23.65354],[-49.02887,-23.65597],[-49.03045,-23.66273],[-49.03137,-23.66547],[-49.03154,-23.66899],[-49.03096,-23.67226],[-49.03198,-23.67624],[-49.03279,-23.67759],[-49.0354,-23.67904],[-49.03707,-23.67954],[-49.04084,-23.6818],[-49.04596,-23.68345],[-49.05062,-23.68441],[-49.05354,-23.6852],[-49.05445,-23.68621],[-49.05257,-23.68732],[-49.05171,-23.68825],[-49.05007,-23.68939],[-49.04898,-23.69073],[-49.04635,-23.69257],[-49.04251,-23.69426],[-49.04134,-23.69493],[-49.04045,-23.69636],[-49.04076,-23.6995],[-49.0417,-23.70503],[-49.04109,-23.70668],[-49.04071,-23.70985],[-49.04085,-23.71114],[-49.0402,-23.71248],[-49.04025,-23.71372],[-49.0384,-23.71634],[-49.03624,-23.72022],[-49.03571,-23.72153],[-49.03506,-23.72431],[-49.03459,-23.72558],[-49.03373,-23.72664],[-49.03123,-23.73153],[-49.0304,-23.73252],[-49.02918,-23.7333],[-49.02696,-23.73546],[-49.02387,-23.73711],[-49.02262,-23.73899],[-49.02312,-23.74229],[-49.02326,-23.74503],[-49.02275,-23.74663],[-49.02257,-23.74817],[-49.02099,-23.74882],[-49.01932,-23.75159],[-49.01821,-23.7526],[-49.01676,-23.75305],[-49.0131,-23.7557],[-49.01201,-23.75687],[-49.01131,-23.75844],[-49.0104,-23.75979],[-49.00887,-23.76021],[-49.00734,-23.76104],[-49.00601,-23.76403],[-49.00488,-23.76499],[-49.00229,-23.76643],[-49.00098,-23.76744],[-48.99895,-23.76745],[-48.9976,-23.7669],[-48.99598,-23.7668],[-48.99437,-23.76752],[-48.99242,-23.76738],[-48.98924,-23.76651],[-48.98734,-23.76664],[-48.98593,-23.76736],[-48.98362,-23.76942],[-48.9819,-23.77172],[-48.97859,-23.77474],[-48.97778,-23.77643],[-48.97745,-23.77788],[-48.97725,-23.7807],[-48.97693,-23.7821],[-48.97489,-23.78418],[-48.97331,-23.78478],[-48.97021,-23.78665],[-48.96904,-23.78706],[-48.96581,-23.7868],[-48.96428,-23.78613],[-48.96143,-23.78545],[-48.95995,-23.786],[-48.95887,-23.78698],[-48.95587,-23.79122],[-48.95262,-23.79422],[-48.95148,-23.79563],[-48.95026,-23.79646],[-48.94873,-23.79858],[-48.94887,-23.79977],[-48.95023,-23.80123],[-48.95178,-23.80244],[-48.95482,-23.80426],[-48.95606,-23.80528],[-48.95895,-23.80835],[-48.95992,-23.81],[-48.96182,-23.8161],[-48.9639,-23.82095],[-48.96681,-23.82569],[-48.9684,-23.82905],[-48.96917,-23.83116],[-48.9697,-23.83385],[-48.97051,-23.83501],[-48.97268,-23.83733],[-48.97349,-23.83846],[-48.97545,-23.84041],[-48.97834,-23.84092],[-48.97853,-23.84057],[-48.97862,-23.84123],[-48.97686,-23.84188],[-48.97192,-23.84128],[-48.97005,-23.8416],[-48.96761,-23.84292],[-48.96554,-23.84301],[-48.96391,-23.84182],[-48.96107,-23.84243],[-48.95954,-23.84162],[-48.95657,-23.84095],[-48.9544,-23.8388],[-48.95141,-23.83388],[-48.95026,-23.83125],[-48.94812,-23.82872],[-48.94654,-23.82793],[-48.94245,-23.82848],[-48.94046,-23.82945],[-48.93856,-23.82854],[-48.93619,-23.82847],[-48.93568,-23.82714],[-48.93392,-23.82636],[-48.9325,-23.82503],[-48.93161,-23.82479],[-48.92883,-23.82695],[-48.92736,-23.82711],[-48.92552,-23.82828],[-48.92366,-23.82867],[-48.9222,-23.82857],[-48.92125,-23.82778],[-48.91984,-23.82726],[-48.91923,-23.82557],[-48.91853,-23.82552],[-48.91602,-23.82641],[-48.91487,-23.82652],[-48.9132,-23.82589],[-48.91201,-23.82462],[-48.9096,-23.82436],[-48.90705,-23.82439],[-48.90435,-23.82482],[-48.90251,-23.82637],[-48.9013,-23.82642],[-48.89963,-23.8243],[-48.89855,-23.82574],[-48.896,-23.82685],[-48.89387,-23.82638],[-48.88876,-23.82689],[-48.88651,-23.82565],[-48.88323,-23.82525],[-48.88089,-23.82565],[-48.87565,-23.82493],[-48.87265,-23.82385],[-48.87166,-23.8233],[-48.87,-23.82175],[-48.8681,-23.8208],[-48.86445,-23.82048],[-48.86286,-23.81966],[-48.85996,-23.81945],[-48.85746,-23.82032],[-48.85579,-23.82193],[-48.85176,-23.8268],[-48.85027,-23.82742],[-48.84667,-23.82561],[-48.84495,-23.824],[-48.84133,-23.82238],[-48.84101,-23.82078],[-48.84007,-23.81935],[-48.83829,-23.81734],[-48.83701,-23.81706],[-48.83466,-23.81735],[-48.8341,-23.81605],[-48.83215,-23.81346],[-48.83123,-23.81131],[-48.83029,-23.81045],[-48.82834,-23.80958],[-48.82251,-23.80807],[-48.81941,-23.80819],[-48.81754,-23.80871],[-48.81577,-23.80872],[-48.81437,-23.80841],[-48.81272,-23.80765],[-48.81044,-23.80835],[-48.80879,-23.80722],[-48.80714,-23.80641],[-48.80515,-23.80636],[-48.80262,-23.8084],[-48.80158,-23.80898],[-48.79913,-23.80952],[-48.79574,-23.81141],[-48.79042,-23.81302],[-48.78957,-23.81393],[-48.78774,-23.81531],[-48.78441,-23.81531],[-48.78215,-23.81596],[-48.78105,-23.81599],[-48.7799,-23.81526],[-48.77835,-23.81611],[-48.77507,-23.81629],[-48.77323,-23.81729],[-48.77179,-23.81769],[-48.76948,-23.81891],[-48.76876,-23.81952],[-48.76842,-23.82173],[-48.76772,-23.82295],[-48.76618,-23.82297],[-48.76366,-23.82437],[-48.76184,-23.82455],[-48.76077,-23.82511],[-48.75892,-23.8248],[-48.75683,-23.82572],[-48.75432,-23.82643],[-48.75072,-23.82633],[-48.74944,-23.82702],[-48.74782,-23.82733],[-48.74537,-23.82725],[-48.74308,-23.8266],[-48.74112,-23.82383],[-48.74058,-23.8237],[-48.73819,-23.82408],[-48.73699,-23.82309],[-48.7344,-23.82307],[-48.7335,-23.82192],[-48.73253,-23.82009],[-48.73286,-23.81734],[-48.73265,-23.81597],[-48.73349,-23.81425],[-48.73366,-23.81318],[-48.73625,-23.81229],[-48.73689,-23.80983],[-48.73654,-23.80805],[-48.73565,-23.80677],[-48.73556,-23.80572],[-48.73415,-23.80403],[-48.73216,-23.80375],[-48.72936,-23.80291],[-48.72818,-23.80196],[-48.72691,-23.79917],[-48.72655,-23.79677],[-48.72541,-23.79524],[-48.72533,-23.79386],[-48.7243,-23.79043],[-48.72438,-23.78639],[-48.7238,-23.78509],[-48.72202,-23.78435],[-48.72032,-23.78303],[-48.71841,-23.78302],[-48.71742,-23.7827],[-48.7156,-23.78324],[-48.71404,-23.7833],[-48.7138,-23.78212],[-48.71277,-23.78193],[-48.71174,-23.78112],[-48.7113,-23.77979],[-48.71217,-23.77982],[-48.71477,-23.77875],[-48.7155,-23.77806],[-48.71853,-23.77707],[-48.72134,-23.77535],[-48.72359,-23.77444],[-48.72676,-23.77421],[-48.73017,-23.77277],[-48.73354,-23.77026],[-48.73546,-23.76715],[-48.73652,-23.7659],[-48.73888,-23.76502],[-48.74048,-23.76379],[-48.74193,-23.76233],[-48.7438,-23.76082],[-48.74448,-23.75966],[-48.74491,-23.75555],[-48.74659,-23.75154],[-48.74822,-23.74898],[-48.7492,-23.74687],[-48.74878,-23.74592],[-48.74612,-23.74485],[-48.74478,-23.74334],[-48.74489,-23.74088],[-48.7457,-23.73956],[-48.7456,-23.73898],[-48.7443,-23.73861],[-48.74484,-23.73601],[-48.74418,-23.73475],[-48.74311,-23.73437],[-48.74181,-23.73333],[-48.74099,-23.73356],[-48.73985,-23.73502],[-48.73895,-23.73465],[-48.73783,-23.73311],[-48.73673,-23.73057],[-48.73504,-23.73134],[-48.73287,-23.73113],[-48.73095,-23.72956],[-48.73148,-23.72744],[-48.72994,-23.72603],[-48.72869,-23.72557],[-48.72917,-23.72393],[-48.72866,-23.72332],[-48.72767,-23.72375],[-48.72556,-23.72345],[-48.72376,-23.72295],[-48.72372,-23.72224],[-48.72275,-23.72137],[-48.72124,-23.72054],[-48.72347,-23.71812],[-48.72478,-23.71582],[-48.72672,-23.71574],[-48.72777,-23.71493],[-48.72818,-23.71393],[-48.72949,-23.71314],[-48.72969,-23.71207],[-48.73076,-23.71137],[-48.7315,-23.71035],[-48.73141,-23.70952],[-48.73326,-23.70833],[-48.73529,-23.70635],[-48.73481,-23.70474],[-48.73677,-23.70373],[-48.73867,-23.70174],[-48.74132,-23.70066],[-48.74198,-23.69949],[-48.74302,-23.69914],[-48.74462,-23.69798],[-48.74473,-23.69679],[-48.74607,-23.69578],[-48.74754,-23.6972],[-48.75052,-23.69727],[-48.75207,-23.69536],[-48.75563,-23.69476],[-48.75614,-23.69263],[-48.75757,-23.6916],[-48.75951,-23.68874],[-48.75955,-23.68792],[-48.75901,-23.68599],[-48.75914,-23.68485],[-48.75974,-23.68338],[-48.76027,-23.6829],[-48.76343,-23.68287],[-48.76498,-23.68225],[-48.76617,-23.68097],[-48.7663,-23.67975],[-48.76691,-23.67857],[-48.76701,-23.67727],[-48.76579,-23.67411],[-48.76506,-23.67292],[-48.76351,-23.67109],[-48.76152,-23.67016],[-48.76051,-23.66935],[-48.76014,-23.66698],[-48.75951,-23.66457],[-48.75966,-23.66039],[-48.75912,-23.65766],[-48.7597,-23.65629],[-48.76049,-23.65591],[-48.76365,-23.65748],[-48.76515,-23.65736],[-48.76771,-23.6559],[-48.76927,-23.65535],[-48.77194,-23.65497],[-48.77345,-23.65407],[-48.7745,-23.65237],[-48.77544,-23.64936],[-48.77713,-23.64678],[-48.77827,-23.6455],[-48.78053,-23.64361],[-48.78096,-23.6428]]]},"properties":{"codigo":"352240615","name":"Guarizinho","population":4609,"households":2152,"areaKm2":600.7362,"density":7.7}}]}