{"type":"FeatureCollection","features":[{"type":"Feature","geometry":{"type":"Polygon","coordinates":[[[-47.8463,-20.24626],[-47.84794,-20.24769],[-47.84863,-20.25066],[-47.85095,-20.25308],[-47.85165,-20.25446],[-47.85253,-20.25767],[-47.85223,-20.259],[-47.85255,-20.25984],[-47.853,-20.26375],[-47.85341,-20.26518],[-47.8548,-20.2684],[-47.85646,-20.2707],[-47.85698,-20.27189],[-47.85758,-20.2721],[-47.85769,-20.27394],[-47.85935,-20.27826],[-47.8599,-20.28531],[-47.86059,-20.2863],[-47.86059,-20.28812],[-47.86145,-20.28921],[-47.86186,-20.29205],[-47.86245,-20.2941],[-47.86373,-20.29688],[-47.86451,-20.30353],[-47.86376,-20.30735],[-47.86431,-20.30957],[-47.86493,-20.31081],[-47.86397,-20.31578],[-47.86587,-20.3167],[-47.86659,-20.31761],[-47.86746,-20.3201],[-47.86762,-20.32172],[-47.86688,-20.32427],[-47.86406,-20.32952],[-47.8622,-20.33374],[-47.86082,-20.33945],[-47.85988,-20.34516],[-47.86202,-20.34428],[-47.86356,-20.34199],[-47.86354,-20.34147],[-47.86525,-20.33992],[-47.86586,-20.33888],[-47.86638,-20.33601],[-47.86776,-20.33441],[-47.87409,-20.32851],[-47.87627,-20.32603],[-47.87765,-20.32386],[-47.88015,-20.31797],[-47.88134,-20.3162],[-47.88304,-20.31522],[-47.88556,-20.3144],[-47.88941,-20.31375],[-47.89235,-20.31384],[-47.89573,-20.31474],[-47.9008,-20.31715],[-47.90239,-20.31836],[-47.91009,-20.32184],[-47.9127,-20.32226],[-47.91667,-20.32191],[-47.91933,-20.32289],[-47.92064,-20.3229],[-47.92227,-20.32227],[-47.92576,-20.31996],[-47.92706,-20.3198],[-47.93001,-20.32028],[-47.93191,-20.32014],[-47.93365,-20.31938],[-47.93556,-20.31794],[-47.93804,-20.31541],[-47.94207,-20.30929],[-47.94681,-20.30089],[-47.94834,-20.29907],[-47.95043,-20.29727],[-47.95272,-20.29632],[-47.95536,-20.29557],[-47.95837,-20.2957],[-47.96077,-20.29622],[-47.96369,-20.29744],[-47.96511,-20.29769],[-47.96667,-20.29728],[-47.96821,-20.29596],[-47.9695,-20.29446],[-47.97022,-20.29299],[-47.97423,-20.29538],[-47.98675,-20.30233],[-47.99212,-20.30546],[-47.99566,-20.30773],[-47.99828,-20.30873],[-48.00048,-20.31032],[-48.00109,-20.31123],[-48.00481,-20.31477],[-48.00693,-20.31712],[-48.00752,-20.31806],[-48.00983,-20.32],[-48.01068,-20.32105],[-48.01358,-20.32215],[-48.03996,-20.35328],[-48.03904,-20.35451],[-48.03925,-20.35583],[-48.04027,-20.35828],[-48.03977,-20.36069],[-48.0386,-20.36257],[-48.03737,-20.36344],[-48.03581,-20.36412],[-48.03242,-20.36527],[-48.03045,-20.36561],[-48.02757,-20.36582],[-48.02522,-20.36562],[-48.02352,-20.36526],[-48.01893,-20.3636],[-48.01796,-20.3635],[-48.01536,-20.36417],[-48.01338,-20.36491],[-48.012,-20.36569],[-48.00997,-20.36726],[-48.00695,-20.368],[-48.00526,-20.36763],[-48.0031,-20.36564],[-48.00055,-20.36428],[-47.99864,-20.36381],[-47.99667,-20.36365],[-47.99369,-20.36459],[-47.99132,-20.36607],[-47.99111,-20.36702],[-47.99148,-20.36852],[-47.99073,-20.36938],[-47.98789,-20.37095],[-47.98658,-20.37111],[-47.98473,-20.37088],[-47.98312,-20.3703],[-47.98192,-20.37037],[-47.97955,-20.37212],[-47.97906,-20.37284],[-47.97877,-20.37497],[-47.9783,-20.37623],[-47.97696,-20.3766],[-47.97495,-20.37634],[-47.97227,-20.37764],[-47.97097,-20.3793],[-47.96993,-20.37971],[-47.96839,-20.37929],[-47.96767,-20.37954],[-47.96581,-20.38084],[-47.96373,-20.38129],[-47.96133,-20.3807],[-47.96024,-20.3797],[-47.95832,-20.37842],[-47.95609,-20.37916],[-47.95242,-20.38102],[-47.94975,-20.38092],[-47.94854,-20.38059],[-47.94754,-20.3799],[-47.94574,-20.37745],[-47.94441,-20.37644],[-47.94262,-20.37552],[-47.94013,-20.3733],[-47.93909,-20.37147],[-47.93789,-20.37014],[-47.93583,-20.36918],[-47.93287,-20.36942],[-47.93169,-20.37058],[-47.93019,-20.37462],[-47.92839,-20.37689],[-47.92528,-20.37915],[-47.92469,-20.38072],[-47.92439,-20.3828],[-47.9253,-20.38539],[-47.92511,-20.38813],[-47.92537,-20.38913],[-47.92629,-20.39045],[-47.92762,-20.39143],[-47.92918,-20.3935],[-47.92984,-20.39598],[-47.93198,-20.39874],[-47.93201,-20.40057],[-47.93114,-20.40384],[-47.92959,-20.40574],[-47.92781,-20.40849],[-47.92627,-20.40981],[-47.92488,-20.41026],[-47.92315,-20.41032],[-47.91973,-20.41008],[-47.91875,-20.41045],[-47.91535,-20.41545],[-47.91443,-20.41652],[-47.91327,-20.41582],[-47.91206,-20.41612],[-47.91037,-20.41558],[-47.90786,-20.41363],[-47.90687,-20.41219],[-47.90676,-20.41067],[-47.90588,-20.41088],[-47.90361,-20.40899],[-47.90308,-20.40782],[-47.90156,-20.40672],[-47.90112,-20.40557],[-47.90038,-20.40495],[-47.89871,-20.40126],[-47.89752,-20.40003],[-47.89533,-20.39672],[-47.89312,-20.39428],[-47.89123,-20.39085],[-47.89029,-20.39015],[-47.88756,-20.38894],[-47.88443,-20.38843],[-47.88242,-20.38783],[-47.8806,-20.38792],[-47.87628,-20.38768],[-47.87479,-20.38749],[-47.87315,-20.38765],[-47.87146,-20.38834],[-47.8691,-20.38861],[-47.86673,-20.38855],[-47.86044,-20.38886],[-47.85566,-20.38852],[-47.8516,-20.38927],[-47.84856,-20.38899],[-47.84643,-20.38908],[-47.84369,-20.38852],[-47.84032,-20.3885],[-47.83754,-20.39014],[-47.8362,-20.39025],[-47.83287,-20.38981],[-47.82403,-20.39049],[-47.82,-20.39155],[-47.8184,-20.39148],[-47.81632,-20.39068],[-47.81344,-20.3891],[-47.81046,-20.38787],[-47.80666,-20.38887],[-47.8036,-20.39047],[-47.80155,-20.39223],[-47.7984,-20.39588],[-47.79733,-20.39745],[-47.79303,-20.40231],[-47.7908,-20.40434],[-47.78915,-20.40529],[-47.78772,-20.40562],[-47.78506,-20.40539],[-47.78038,-20.40391],[-47.77841,-20.40392],[-47.77629,-20.40456],[-47.77161,-20.40681],[-47.77119,-20.40834],[-47.77194,-20.41086],[-47.77158,-20.41504],[-47.77079,-20.4164],[-47.77051,-20.41753],[-47.76928,-20.41859],[-47.76799,-20.41891],[-47.76431,-20.41885],[-47.76232,-20.41991],[-47.76048,-20.42188],[-47.75749,-20.42346],[-47.75573,-20.42414],[-47.75347,-20.4247],[-47.75072,-20.42452],[-47.7504,-20.42545],[-47.74859,-20.42695],[-47.74804,-20.42886],[-47.74368,-20.43427],[-47.74236,-20.43534],[-47.73843,-20.43744],[-47.73687,-20.43894],[-47.73541,-20.43991],[-47.72988,-20.44064],[-47.72718,-20.44125],[-47.72582,-20.44193],[-47.7249,-20.44295],[-47.72319,-20.44387],[-47.71661,-20.446],[-47.71663,-20.44356],[-47.716,-20.44081],[-47.71522,-20.44005],[-47.71291,-20.43884],[-47.71265,-20.43618],[-47.71226,-20.43536],[-47.71102,-20.43085],[-47.71035,-20.42727],[-47.7093,-20.42589],[-47.70736,-20.42464],[-47.7071,-20.42391],[-47.70543,-20.4216],[-47.70485,-20.41898],[-47.70382,-20.41834],[-47.70342,-20.41699],[-47.70348,-20.41594],[-47.70283,-20.38961],[-47.70251,-20.38334],[-47.70532,-20.37976],[-47.70566,-20.37798],[-47.70722,-20.37562],[-47.70753,-20.37323],[-47.70699,-20.37207],[-47.70729,-20.37106],[-47.70606,-20.36941],[-47.70425,-20.36807],[-47.7112,-20.35543],[-47.72055,-20.34027],[-47.71908,-20.33983],[-47.71727,-20.34049],[-47.71614,-20.34048],[-47.71322,-20.33966],[-47.70919,-20.33964],[-47.70633,-20.33905],[-47.70394,-20.33913],[-47.70213,-20.33813],[-47.70053,-20.33849],[-47.70009,-20.33911],[-47.69843,-20.33818],[-47.6977,-20.33702],[-47.69707,-20.33675],[-47.69691,-20.33549],[-47.69615,-20.3344],[-47.69562,-20.333],[-47.69391,-20.33105],[-47.69204,-20.33011],[-47.69101,-20.33008],[-47.69024,-20.32942],[-47.68883,-20.32962],[-47.68558,-20.32767],[-47.68499,-20.32685],[-47.68371,-20.32395],[-47.68318,-20.3235],[-47.68093,-20.32291],[-47.67706,-20.32297],[-47.674,-20.32228],[-47.66993,-20.32068],[-47.6666,-20.3192],[-47.66598,-20.31874],[-47.66495,-20.31692],[-47.66341,-20.31738],[-47.66231,-20.31734],[-47.65859,-20.31657],[-47.65736,-20.31615],[-47.65346,-20.31415],[-47.64977,-20.31274],[-47.64828,-20.31236],[-47.64499,-20.31252],[-47.64352,-20.31342],[-47.6439,-20.3119],[-47.64401,-20.31015],[-47.64325,-20.30607],[-47.64386,-20.30239],[-47.64369,-20.29988],[-47.64436,-20.29804],[-47.64394,-20.29418],[-47.64338,-20.29148],[-47.64362,-20.2897],[-47.64477,-20.28847],[-47.64544,-20.28826],[-47.64615,-20.28791],[-47.64738,-20.28624],[-47.64944,-20.28552],[-47.65318,-20.28548],[-47.655,-20.28524],[-47.65567,-20.28407],[-47.656,-20.28223],[-47.65774,-20.28261],[-47.6595,-20.28207],[-47.6602,-20.28246],[-47.66025,-20.28331],[-47.66142,-20.28408],[-47.66228,-20.28313],[-47.66502,-20.28376],[-47.66649,-20.28375],[-47.66841,-20.28296],[-47.67007,-20.28304],[-47.6709,-20.2839],[-47.67192,-20.28309],[-47.67386,-20.2828],[-47.67516,-20.28322],[-47.67747,-20.28196],[-47.67766,-20.28093],[-47.6786,-20.28026],[-47.68021,-20.28097],[-47.68283,-20.28076],[-47.68496,-20.28077],[-47.68526,-20.28025],[-47.68506,-20.27888],[-47.68616,-20.27823],[-47.68773,-20.27662],[-47.69021,-20.27572],[-47.69162,-20.27573],[-47.69329,-20.27531],[-47.69597,-20.27587],[-47.69675,-20.27642],[-47.69822,-20.27569],[-47.6992,-20.27735],[-47.70126,-20.27637],[-47.70219,-20.27443],[-47.70363,-20.27354],[-47.70426,-20.27264],[-47.70564,-20.27214],[-47.70634,-20.27093],[-47.70832,-20.27016],[-47.70942,-20.26938],[-47.71107,-20.26915],[-47.71209,-20.26871],[-47.71271,-20.26787],[-47.71395,-20.26736],[-47.7149,-20.26648],[-47.71517,-20.26491],[-47.71447,-20.26414],[-47.71496,-20.2631],[-47.714,-20.26189],[-47.71507,-20.26022],[-47.71592,-20.26139],[-47.71655,-20.26064],[-47.71692,-20.25907],[-47.71805,-20.25896],[-47.71949,-20.25742],[-47.72118,-20.2571],[-47.72224,-20.25645],[-47.72279,-20.25559],[-47.72371,-20.25539],[-47.72503,-20.25616],[-47.72631,-20.25631],[-47.72759,-20.25495],[-47.72786,-20.25402],[-47.7288,-20.25335],[-47.7292,-20.25179],[-47.73194,-20.2495],[-47.73291,-20.24919],[-47.73504,-20.25013],[-47.73658,-20.24971],[-47.73779,-20.24994],[-47.74003,-20.24986],[-47.74104,-20.25021],[-47.74216,-20.24994],[-47.74317,-20.25057],[-47.74312,-20.25181],[-47.74478,-20.25229],[-47.7455,-20.2506],[-47.74737,-20.25015],[-47.74966,-20.25147],[-47.75136,-20.25155],[-47.75187,-20.25055],[-47.75344,-20.24922],[-47.75573,-20.24989],[-47.75677,-20.25059],[-47.75725,-20.24985],[-47.75932,-20.24985],[-47.75965,-20.25069],[-47.76041,-20.25076],[-47.76181,-20.24912],[-47.76371,-20.24793],[-47.76475,-20.24832],[-47.766,-20.24931],[-47.76729,-20.24897],[-47.76853,-20.24932],[-47.77125,-20.24828],[-47.77291,-20.24612],[-47.77374,-20.246],[-47.77465,-20.24719],[-47.77462,-20.24888],[-47.77635,-20.24929],[-47.77543,-20.25141],[-47.77585,-20.25265],[-47.77545,-20.25443],[-47.77604,-20.25515],[-47.77709,-20.25543],[-47.77752,-20.25623],[-47.78123,-20.25718],[-47.7821,-20.25796],[-47.78189,-20.2588],[-47.78376,-20.25911],[-47.78654,-20.26015],[-47.788,-20.26041],[-47.79013,-20.25957],[-47.79169,-20.25991],[-47.79203,-20.26149],[-47.79451,-20.26067],[-47.7945,-20.25811],[-47.79578,-20.25818],[-47.7961,-20.25702],[-47.79932,-20.25582],[-47.80046,-20.25666],[-47.80092,-20.25536],[-47.80157,-20.25537],[-47.80278,-20.25665],[-47.80417,-20.25668],[-47.80498,-20.25706],[-47.80751,-20.25752],[-47.80895,-20.25753],[-47.81085,-20.2568],[-47.81198,-20.25688],[-47.81277,-20.25758],[-47.81739,-20.25749],[-47.82155,-20.25874],[-47.82315,-20.25838],[-47.82423,-20.25537],[-47.82563,-20.25243],[-47.82607,-20.25199],[-47.8279,-20.25198],[-47.82841,-20.25017],[-47.82952,-20.24935],[-47.83193,-20.24904],[-47.83316,-20.24828],[-47.83396,-20.24881],[-47.83594,-20.24851],[-47.83719,-20.24803],[-47.83725,-20.24737],[-47.8356,-20.24609],[-47.83582,-20.24495],[-47.83691,-20.24368],[-47.83653,-20.24192],[-47.83766,-20.24168],[-47.83964,-20.24261],[-47.8409,-20.24222],[-47.8422,-20.24144],[-47.84259,-20.24174],[-47.84092,-20.24377],[-47.8409,-20.2446],[-47.84237,-20.24593],[-47.84355,-20.24611],[-47.84503,-20.24552],[-47.8463,-20.24626]]]},"properties":{"codigo":"352410505","name":"Ituverava","population":34487,"households":15056,"areaKm2":444.0769,"density":77.7}},{"type":"Feature","geometry":{"type":"Polygon","coordinates":[[[-47.62662,-20.48036],[-47.62315,-20.48031],[-47.61949,-20.48105],[-47.61522,-20.48167],[-47.61561,-20.4795],[-47.61608,-20.47813],[-47.61727,-20.47578],[-47.61954,-20.47207],[-47.62059,-20.46915],[-47.6221,-20.46737],[-47.62247,-20.46641],[-47.62334,-20.46553],[-47.62394,-20.46347],[-47.62391,-20.45927],[-47.62413,-20.45855],[-47.62518,-20.45756],[-47.62534,-20.45661],[-47.62611,-20.45559],[-47.62652,-20.45436],[-47.62775,-20.45282],[-47.6291,-20.45023],[-47.63026,-20.44858],[-47.63205,-20.445],[-47.63408,-20.44213],[-47.63555,-20.44148],[-47.63738,-20.44151],[-47.63889,-20.44213],[-47.6399,-20.44204],[-47.64215,-20.44246],[-47.64406,-20.44245],[-47.64526,-20.44205],[-47.64684,-20.4409],[-47.64799,-20.44045],[-47.64951,-20.43882],[-47.65193,-20.43799],[-47.65282,-20.437],[-47.65372,-20.43691],[-47.65488,-20.43601],[-47.65544,-20.43411],[-47.65671,-20.43411],[-47.6591,-20.43372],[-47.66163,-20.43296],[-47.6632,-20.43161],[-47.66388,-20.42973],[-47.66538,-20.42852],[-47.66575,-20.42787],[-47.66518,-20.42502],[-47.66589,-20.42384],[-47.66429,-20.42295],[-47.66394,-20.4219],[-47.66216,-20.4212],[-47.66071,-20.42103],[-47.65873,-20.42159],[-47.65573,-20.42043],[-47.65199,-20.41942],[-47.64916,-20.41933],[-47.64837,-20.41829],[-47.64648,-20.41731],[-47.64396,-20.4167],[-47.64309,-20.41713],[-47.64205,-20.41692],[-47.64251,-20.41353],[-47.64157,-20.41296],[-47.64065,-20.4134],[-47.63804,-20.413],[-47.63546,-20.41134],[-47.6341,-20.41104],[-47.63192,-20.41153],[-47.62868,-20.41062],[-47.6281,-20.41005],[-47.62673,-20.41019],[-47.62603,-20.40953],[-47.62642,-20.40882],[-47.62619,-20.40723],[-47.62969,-20.40602],[-47.6318,-20.40469],[-47.63287,-20.40315],[-47.63309,-20.40138],[-47.6323,-20.398],[-47.63172,-20.39633],[-47.63149,-20.39457],[-47.63101,-20.39338],[-47.62938,-20.3912],[-47.62808,-20.38778],[-47.62643,-20.38417],[-47.62564,-20.38189],[-47.62442,-20.37942],[-47.62371,-20.37744],[-47.62134,-20.37353],[-47.61988,-20.36981],[-47.61887,-20.36564],[-47.61849,-20.36305],[-47.61892,-20.3577],[-47.61869,-20.35392],[-47.61843,-20.35237],[-47.61826,-20.34818],[-47.61851,-20.34527],[-47.61912,-20.34342],[-47.62147,-20.33942],[-47.62223,-20.3367],[-47.62374,-20.33471],[-47.62511,-20.33256],[-47.62601,-20.32818],[-47.62697,-20.32608],[-47.62765,-20.32528],[-47.63021,-20.32506],[-47.63248,-20.32443],[-47.6343,-20.32339],[-47.63627,-20.32198],[-47.63933,-20.32044],[-47.64051,-20.31966],[-47.64213,-20.31775],[-47.64304,-20.31576],[-47.64352,-20.31342],[-47.64499,-20.31252],[-47.64828,-20.31236],[-47.64977,-20.31274],[-47.65346,-20.31415],[-47.65736,-20.31615],[-47.65859,-20.31657],[-47.66231,-20.31734],[-47.66341,-20.31738],[-47.66495,-20.31692],[-47.66598,-20.31874],[-47.6666,-20.3192],[-47.66993,-20.32068],[-47.674,-20.32228],[-47.67706,-20.32297],[-47.68093,-20.32291],[-47.68318,-20.3235],[-47.68371,-20.32395],[-47.68499,-20.32685],[-47.68558,-20.32767],[-47.68883,-20.32962],[-47.69024,-20.32942],[-47.69101,-20.33008],[-47.69204,-20.33011],[-47.69391,-20.33105],[-47.69562,-20.333],[-47.69615,-20.3344],[-47.69691,-20.33549],[-47.69707,-20.33675],[-47.6977,-20.33702],[-47.69843,-20.33818],[-47.70009,-20.33911],[-47.70053,-20.33849],[-47.70213,-20.33813],[-47.70394,-20.33913],[-47.70633,-20.33905],[-47.70919,-20.33964],[-47.71322,-20.33966],[-47.71614,-20.34048],[-47.71727,-20.34049],[-47.71908,-20.33983],[-47.72055,-20.34027],[-47.7112,-20.35543],[-47.70425,-20.36807],[-47.70606,-20.36941],[-47.70729,-20.37106],[-47.70699,-20.37207],[-47.70753,-20.37323],[-47.70722,-20.37562],[-47.70566,-20.37798],[-47.70532,-20.37976],[-47.70251,-20.38334],[-47.70283,-20.38961],[-47.70348,-20.41594],[-47.70342,-20.41699],[-47.70382,-20.41834],[-47.70485,-20.41898],[-47.70543,-20.4216],[-47.7071,-20.42391],[-47.70736,-20.42464],[-47.7093,-20.42589],[-47.71035,-20.42727],[-47.71102,-20.43085],[-47.71226,-20.43536],[-47.71265,-20.43618],[-47.71291,-20.43884],[-47.71522,-20.44005],[-47.716,-20.44081],[-47.71663,-20.44356],[-47.71661,-20.446],[-47.71469,-20.44664],[-47.71208,-20.44798],[-47.7095,-20.44959],[-47.70729,-20.45018],[-47.70405,-20.4516],[-47.70287,-20.45261],[-47.7004,-20.45417],[-47.6983,-20.45477],[-47.69583,-20.45483],[-47.68975,-20.45462],[-47.68353,-20.45544],[-47.67589,-20.45761],[-47.67476,-20.45808],[-47.66974,-20.46078],[-47.66693,-20.46193],[-47.66169,-20.46332],[-47.6573,-20.46367],[-47.65014,-20.46383],[-47.64746,-20.46379],[-47.64444,-20.46416],[-47.6374,-20.46542],[-47.63523,-20.46637],[-47.63422,-20.46708],[-47.63313,-20.46844],[-47.63222,-20.47003],[-47.63081,-20.47158],[-47.62969,-20.47319],[-47.62718,-20.47785],[-47.62662,-20.48036]]]},"properties":{"codigo":"352410510","name":"Capivari da Mata","population":396,"households":253,"areaKm2":122.8873,"density":3.2}},{"type":"Feature","geometry":{"type":"Polygon","coordinates":[[[-47.88951,-20.15579],[-47.8923,-20.15931],[-47.89359,-20.16062],[-47.89607,-20.16397],[-47.90024,-20.16677],[-47.90382,-20.16901],[-47.90672,-20.17119],[-47.90892,-20.17362],[-47.90992,-20.17528],[-47.91115,-20.17934],[-47.91129,-20.18328],[-47.91154,-20.186],[-47.9092,-20.18945],[-47.90873,-20.19161],[-47.90987,-20.19704],[-47.90982,-20.19959],[-47.91013,-20.20099],[-47.91012,-20.20332],[-47.91164,-20.20551],[-47.91278,-20.20852],[-47.9141,-20.21079],[-47.91503,-20.21148],[-47.91755,-20.21101],[-47.92089,-20.21151],[-47.92271,-20.21238],[-47.92477,-20.21266],[-47.92884,-20.21418],[-47.92947,-20.21492],[-47.93002,-20.2165],[-47.93018,-20.21807],[-47.93005,-20.21984],[-47.92955,-20.22193],[-47.92833,-20.22409],[-47.92801,-20.22528],[-47.92701,-20.22675],[-47.92696,-20.22786],[-47.92774,-20.22953],[-47.92868,-20.23028],[-47.93272,-20.23154],[-47.93347,-20.23212],[-47.93357,-20.23294],[-47.93204,-20.23487],[-47.92847,-20.23737],[-47.92514,-20.24118],[-47.924,-20.24289],[-47.92399,-20.24455],[-47.92466,-20.24696],[-47.92648,-20.24827],[-47.92912,-20.24912],[-47.9315,-20.24949],[-47.93327,-20.25018],[-47.93465,-20.25144],[-47.93521,-20.25246],[-47.93515,-20.25551],[-47.93577,-20.25682],[-47.93731,-20.25914],[-47.93924,-20.26089],[-47.94222,-20.26302],[-47.94531,-20.26553],[-47.94799,-20.26687],[-47.94909,-20.26718],[-47.95074,-20.26705],[-47.95415,-20.26869],[-47.95621,-20.27043],[-47.95845,-20.27074],[-47.95972,-20.27125],[-47.96095,-20.27298],[-47.96244,-20.27286],[-47.9649,-20.27078],[-47.96573,-20.26961],[-47.96685,-20.2689],[-47.96923,-20.26828],[-47.97099,-20.26694],[-47.97203,-20.26563],[-47.97545,-20.26324],[-47.97656,-20.26196],[-47.97732,-20.26318],[-47.9785,-20.2641],[-47.98065,-20.26703],[-47.98156,-20.26912],[-47.98236,-20.2756],[-47.98336,-20.27837],[-47.98344,-20.28032],[-47.98202,-20.28334],[-47.97994,-20.28563],[-47.97922,-20.28587],[-47.97605,-20.28588],[-47.97461,-20.28607],[-47.97454,-20.28799],[-47.97332,-20.28949],[-47.97095,-20.29113],[-47.97008,-20.29255],[-47.97022,-20.29299],[-47.9695,-20.29446],[-47.96821,-20.29596],[-47.96667,-20.29728],[-47.96511,-20.29769],[-47.96369,-20.29744],[-47.96077,-20.29622],[-47.95837,-20.2957],[-47.95536,-20.29557],[-47.95272,-20.29632],[-47.95043,-20.29727],[-47.94834,-20.29907],[-47.94681,-20.30089],[-47.94207,-20.30929],[-47.93804,-20.31541],[-47.93556,-20.31794],[-47.93365,-20.31938],[-47.93191,-20.32014],[-47.93001,-20.32028],[-47.92706,-20.3198],[-47.92576,-20.31996],[-47.92227,-20.32227],[-47.92064,-20.3229],[-47.91933,-20.32289],[-47.91667,-20.32191],[-47.9127,-20.32226],[-47.91009,-20.32184],[-47.90239,-20.31836],[-47.9008,-20.31715],[-47.89573,-20.31474],[-47.89235,-20.31384],[-47.88941,-20.31375],[-47.88556,-20.3144],[-47.88304,-20.31522],[-47.88134,-20.3162],[-47.88015,-20.31797],[-47.87765,-20.32386],[-47.87627,-20.32603],[-47.87409,-20.32851],[-47.86776,-20.33441],[-47.86638,-20.33601],[-47.86586,-20.33888],[-47.86525,-20.33992],[-47.86354,-20.34147],[-47.86356,-20.34199],[-47.86202,-20.34428],[-47.85988,-20.34516],[-47.86082,-20.33945],[-47.8622,-20.33374],[-47.86406,-20.32952],[-47.86688,-20.32427],[-47.86762,-20.32172],[-47.86746,-20.3201],[-47.86659,-20.31761],[-47.86587,-20.3167],[-47.86397,-20.31578],[-47.86493,-20.31081],[-47.86431,-20.30957],[-47.86376,-20.30735],[-47.86451,-20.30353],[-47.86373,-20.29688],[-47.86245,-20.2941],[-47.86186,-20.29205],[-47.86145,-20.28921],[-47.86059,-20.28812],[-47.86059,-20.2863],[-47.8599,-20.28531],[-47.85935,-20.27826],[-47.85769,-20.27394],[-47.85758,-20.2721],[-47.85698,-20.27189],[-47.85646,-20.2707],[-47.8548,-20.2684],[-47.85341,-20.26518],[-47.853,-20.26375],[-47.85255,-20.25984],[-47.85223,-20.259],[-47.85253,-20.25767],[-47.85165,-20.25446],[-47.85095,-20.25308],[-47.84863,-20.25066],[-47.84794,-20.24769],[-47.8463,-20.24626],[-47.847,-20.24424],[-47.84652,-20.24253],[-47.84683,-20.24151],[-47.84516,-20.24089],[-47.8453,-20.24019],[-47.84745,-20.23862],[-47.84768,-20.2398],[-47.84828,-20.24016],[-47.84978,-20.23885],[-47.8508,-20.23834],[-47.85198,-20.23853],[-47.8535,-20.23964],[-47.85393,-20.23953],[-47.8539,-20.23796],[-47.85222,-20.23809],[-47.85276,-20.23552],[-47.85423,-20.23489],[-47.85552,-20.23494],[-47.85529,-20.23298],[-47.85602,-20.23208],[-47.85717,-20.23273],[-47.85847,-20.23107],[-47.85959,-20.22875],[-47.86125,-20.22895],[-47.86199,-20.22831],[-47.86176,-20.2255],[-47.86086,-20.22394],[-47.86033,-20.22394],[-47.85883,-20.22535],[-47.85834,-20.22626],[-47.85706,-20.22679],[-47.85627,-20.22604],[-47.85498,-20.2259],[-47.85459,-20.22508],[-47.85667,-20.22457],[-47.85621,-20.22364],[-47.85402,-20.2226],[-47.85258,-20.22238],[-47.85215,-20.22079],[-47.85092,-20.21961],[-47.8488,-20.21896],[-47.84783,-20.21837],[-47.84746,-20.21748],[-47.84927,-20.2173],[-47.85003,-20.2158],[-47.85127,-20.21592],[-47.85309,-20.21557],[-47.85379,-20.21512],[-47.85322,-20.21409],[-47.85222,-20.21355],[-47.85129,-20.21244],[-47.85154,-20.21142],[-47.84954,-20.21063],[-47.84925,-20.20784],[-47.85038,-20.2074],[-47.85073,-20.20654],[-47.85171,-20.20641],[-47.85225,-20.20555],[-47.85381,-20.20525],[-47.85556,-20.20638],[-47.85687,-20.20687],[-47.85871,-20.20811],[-47.86026,-20.20802],[-47.86151,-20.2072],[-47.86223,-20.20581],[-47.86355,-20.20452],[-47.86315,-20.20345],[-47.86137,-20.20353],[-47.86018,-20.20312],[-47.85874,-20.20343],[-47.85795,-20.20303],[-47.85716,-20.20121],[-47.85742,-20.19944],[-47.85682,-20.19857],[-47.85663,-20.19427],[-47.85789,-20.19456],[-47.8585,-20.19371],[-47.8583,-20.19279],[-47.86116,-20.19295],[-47.8635,-20.19224],[-47.86469,-20.19128],[-47.86604,-20.19206],[-47.86677,-20.19332],[-47.8677,-20.19251],[-47.86897,-20.19275],[-47.86926,-20.19183],[-47.8716,-20.19183],[-47.87076,-20.19025],[-47.87091,-20.18951],[-47.87313,-20.18735],[-47.873,-20.18643],[-47.87198,-20.18658],[-47.87091,-20.18624],[-47.87122,-20.18477],[-47.87092,-20.18394],[-47.87076,-20.18141],[-47.87229,-20.18007],[-47.87287,-20.17909],[-47.8732,-20.17673],[-47.874,-20.17556],[-47.87455,-20.17625],[-47.87571,-20.17625],[-47.87603,-20.17567],[-47.87507,-20.1734],[-47.87382,-20.17253],[-47.87327,-20.1731],[-47.87337,-20.17452],[-47.8724,-20.17509],[-47.8717,-20.17433],[-47.87168,-20.17357],[-47.87251,-20.17279],[-47.87215,-20.17135],[-47.87141,-20.17044],[-47.8716,-20.16916],[-47.87312,-20.16904],[-47.87428,-20.16815],[-47.87654,-20.16755],[-47.87729,-20.16757],[-47.88005,-20.16839],[-47.88096,-20.16821],[-47.88122,-20.16664],[-47.8802,-20.16714],[-47.87924,-20.16693],[-47.87846,-20.16576],[-47.87906,-20.16402],[-47.8805,-20.16346],[-47.8816,-20.1622],[-47.88201,-20.16028],[-47.88154,-20.15905],[-47.8814,-20.15738],[-47.88187,-20.15649],[-47.88296,-20.15639],[-47.88406,-20.15542],[-47.88511,-20.15614],[-47.88776,-20.15721],[-47.88951,-20.15579]]]},"properties":{"codigo":"352410515","name":"São Benedito da Cachoeirinha","population":2688,"households":1158,"areaKm2":137.6951,"density":19.5}}]}