{"type":"FeatureCollection","features":[{"type":"Feature","geometry":{"type":"Polygon","coordinates":[[[-48.6741,-22.19282],[-48.67354,-22.19424],[-48.67398,-22.1967],[-48.67339,-22.19762],[-48.6685,-22.19966],[-48.66513,-22.1994],[-48.66327,-22.19889],[-48.66209,-22.19937],[-48.66173,-22.20037],[-48.66244,-22.20131],[-48.66151,-22.2022],[-48.65956,-22.20253],[-48.65888,-22.20377],[-48.65711,-22.20551],[-48.65447,-22.20617],[-48.65297,-22.20538],[-48.65056,-22.20571],[-48.65056,-22.2064],[-48.65378,-22.20936],[-48.6539,-22.21076],[-48.65471,-22.21208],[-48.65413,-22.21376],[-48.65471,-22.21669],[-48.653,-22.21817],[-48.65179,-22.21845],[-48.65146,-22.21986],[-48.65015,-22.22032],[-48.65082,-22.22138],[-48.65252,-22.22198],[-48.65167,-22.22301],[-48.65148,-22.22427],[-48.6522,-22.22597],[-48.65013,-22.22695],[-48.64781,-22.22624],[-48.64579,-22.22644],[-48.64503,-22.22573],[-48.64394,-22.22692],[-48.64474,-22.22925],[-48.64461,-22.2306],[-48.64381,-22.23101],[-48.64609,-22.23225],[-48.64686,-22.23411],[-48.64563,-22.23403],[-48.64488,-22.235],[-48.64275,-22.2355],[-48.64235,-22.23712],[-48.63999,-22.23742],[-48.63895,-22.23921],[-48.63911,-22.23961],[-48.64152,-22.24034],[-48.6418,-22.24175],[-48.63958,-22.24254],[-48.63852,-22.24446],[-48.63655,-22.24554],[-48.63487,-22.24394],[-48.63346,-22.24458],[-48.633,-22.24539],[-48.63113,-22.24538],[-48.63095,-22.24589],[-48.63201,-22.24709],[-48.6319,-22.2488],[-48.62977,-22.2501],[-48.62994,-22.25099],[-48.62942,-22.25261],[-48.62929,-22.2542],[-48.63037,-22.25885],[-48.63089,-22.26064],[-48.63225,-22.26245],[-48.63494,-22.26267],[-48.63662,-22.26412],[-48.63765,-22.26465],[-48.64031,-22.2665],[-48.64073,-22.26749],[-48.64827,-22.27346],[-48.64909,-22.2744],[-48.64913,-22.27694],[-48.64842,-22.28024],[-48.64893,-22.28265],[-48.65323,-22.28635],[-48.65394,-22.28756],[-48.65532,-22.28863],[-48.65578,-22.29395],[-48.65347,-22.29647],[-48.63888,-22.3057],[-48.63811,-22.30642],[-48.63778,-22.30735],[-48.63831,-22.3092],[-48.6404,-22.31106],[-48.64355,-22.31299],[-48.64494,-22.31418],[-48.65481,-22.32789],[-48.6551,-22.32874],[-48.65483,-22.32982],[-48.65162,-22.33242],[-48.65039,-22.33451],[-48.64813,-22.33625],[-48.64726,-22.33739],[-48.64597,-22.33769],[-48.6451,-22.33744],[-48.6438,-22.33832],[-48.64288,-22.33815],[-48.64233,-22.33915],[-48.63955,-22.33938],[-48.6388,-22.34],[-48.63765,-22.34009],[-48.63666,-22.34095],[-48.63534,-22.34051],[-48.63425,-22.34088],[-48.63063,-22.34142],[-48.62961,-22.3432],[-48.62869,-22.34431],[-48.62778,-22.3476],[-48.6271,-22.34886],[-48.62553,-22.34964],[-48.62439,-22.3494],[-48.62361,-22.34846],[-48.62242,-22.34792],[-48.62055,-22.34573],[-48.61894,-22.34503],[-48.61786,-22.34502],[-48.6166,-22.34577],[-48.61443,-22.34608],[-48.61087,-22.34737],[-48.60982,-22.34864],[-48.60827,-22.34928],[-48.6069,-22.35028],[-48.60584,-22.35298],[-48.60657,-22.35423],[-48.60638,-22.3557],[-48.6047,-22.35711],[-48.60458,-22.35948],[-48.60416,-22.36132],[-48.60342,-22.36247],[-48.60349,-22.36365],[-48.603,-22.36428],[-48.60171,-22.36486],[-48.60144,-22.36632],[-48.60014,-22.36758],[-48.59875,-22.36819],[-48.59823,-22.36997],[-48.59835,-22.37195],[-48.59746,-22.37444],[-48.5956,-22.37564],[-48.59389,-22.37767],[-48.59251,-22.37846],[-48.59145,-22.37961],[-48.59091,-22.38074],[-48.58939,-22.38275],[-48.58897,-22.38642],[-48.58843,-22.38866],[-48.58877,-22.3906],[-48.58845,-22.39364],[-48.58936,-22.39521],[-48.58965,-22.39631],[-48.58955,-22.39765],[-48.58899,-22.40001],[-48.58852,-22.40059],[-48.5865,-22.40182],[-48.58561,-22.40353],[-48.58467,-22.40452],[-48.58287,-22.40515],[-48.57993,-22.40539],[-48.57892,-22.40615],[-48.57778,-22.40766],[-48.57473,-22.41003],[-48.57265,-22.41124],[-48.56892,-22.41256],[-48.56588,-22.41249],[-48.56452,-22.41264],[-48.56294,-22.41331],[-48.56185,-22.41416],[-48.56068,-22.4161],[-48.55976,-22.42166],[-48.55935,-22.42292],[-48.558,-22.42513],[-48.55657,-22.42541],[-48.55343,-22.4256],[-48.55151,-22.42663],[-48.54727,-22.42763],[-48.54219,-22.42792],[-48.53964,-22.42829],[-48.53588,-22.4283],[-48.53361,-22.42786],[-48.53094,-22.42814],[-48.52568,-22.42978],[-48.52383,-22.43062],[-48.52308,-22.43129],[-48.52028,-22.4373],[-48.51884,-22.43875],[-48.51806,-22.4387],[-48.51448,-22.43727],[-48.50967,-22.43612],[-48.51097,-22.43491],[-48.51256,-22.43257],[-48.5128,-22.43028],[-48.51238,-22.42785],[-48.51254,-22.42678],[-48.51406,-22.42451],[-48.51552,-22.42292],[-48.51597,-22.42195],[-48.51537,-22.41106],[-48.51411,-22.40928],[-48.51292,-22.40896],[-48.51095,-22.40715],[-48.51038,-22.40636],[-48.50875,-22.40595],[-48.50578,-22.40451],[-48.5047,-22.40361],[-48.50305,-22.40283],[-48.50291,-22.40196],[-48.50388,-22.39961],[-48.50387,-22.39643],[-48.50285,-22.39518],[-48.50113,-22.39468],[-48.49911,-22.39457],[-48.49718,-22.39525],[-48.49422,-22.39539],[-48.49338,-22.39522],[-48.49125,-22.39328],[-48.48993,-22.39286],[-48.48881,-22.39146],[-48.48847,-22.38993],[-48.4885,-22.38746],[-48.48886,-22.38633],[-48.48873,-22.38343],[-48.4879,-22.3825],[-48.48759,-22.38153],[-48.48809,-22.38025],[-48.4872,-22.37769],[-48.48638,-22.37468],[-48.48522,-22.37255],[-48.48379,-22.37124],[-48.48336,-22.3702],[-48.48219,-22.36951],[-48.4813,-22.36841],[-48.47979,-22.36845],[-48.47898,-22.3679],[-48.47697,-22.36776],[-48.47633,-22.36627],[-48.47485,-22.36549],[-48.47592,-22.36464],[-48.47614,-22.36364],[-48.47677,-22.36324],[-48.47908,-22.36323],[-48.47986,-22.36266],[-48.48119,-22.35837],[-48.48065,-22.35687],[-48.48078,-22.35619],[-48.48231,-22.35362],[-48.48366,-22.35326],[-48.48452,-22.35385],[-48.48605,-22.35433],[-48.48641,-22.35376],[-48.48565,-22.3521],[-48.4841,-22.35192],[-48.48388,-22.35147],[-48.48465,-22.34971],[-48.4868,-22.34962],[-48.48683,-22.34869],[-48.48591,-22.34766],[-48.48575,-22.34557],[-48.4853,-22.34404],[-48.48715,-22.3438],[-48.48737,-22.34198],[-48.48812,-22.34019],[-48.488,-22.33956],[-48.48619,-22.33873],[-48.48482,-22.3396],[-48.48456,-22.34089],[-48.48362,-22.34196],[-48.4826,-22.34158],[-48.48212,-22.33914],[-48.48027,-22.33932],[-48.47953,-22.33889],[-48.47838,-22.33695],[-48.47825,-22.33549],[-48.47757,-22.33526],[-48.47499,-22.33677],[-48.47423,-22.33667],[-48.47378,-22.33566],[-48.47143,-22.33575],[-48.47135,-22.33681],[-48.47209,-22.33807],[-48.47051,-22.33886],[-48.46927,-22.34029],[-48.46834,-22.34019],[-48.46767,-22.33686],[-48.46648,-22.33632],[-48.46775,-22.33467],[-48.46816,-22.33373],[-48.46755,-22.33283],[-48.4644,-22.33315],[-48.46342,-22.33227],[-48.46159,-22.33208],[-48.4604,-22.3331],[-48.45799,-22.33334],[-48.45705,-22.33156],[-48.45594,-22.3307],[-48.45541,-22.32797],[-48.45476,-22.32722],[-48.45496,-22.32625],[-48.45439,-22.3251],[-48.45288,-22.32437],[-48.45251,-22.32382],[-48.45325,-22.32224],[-48.45219,-22.32134],[-48.4538,-22.318],[-48.452,-22.31537],[-48.45224,-22.3138],[-48.4513,-22.31293],[-48.45235,-22.31189],[-48.45087,-22.31052],[-48.45003,-22.30868],[-48.44936,-22.3079],[-48.44943,-22.30659],[-48.4491,-22.30547],[-48.44682,-22.30304],[-48.4461,-22.30194],[-48.44586,-22.30061],[-48.44419,-22.29943],[-48.44266,-22.29683],[-48.4427,-22.29573],[-48.44102,-22.29488],[-48.44055,-22.2941],[-48.4408,-22.29212],[-48.43898,-22.28889],[-48.43686,-22.28583],[-48.43528,-22.2847],[-48.43545,-22.28301],[-48.43524,-22.28027],[-48.43317,-22.27804],[-48.4315,-22.27723],[-48.42877,-22.27441],[-48.42718,-22.27379],[-48.42593,-22.27252],[-48.42606,-22.27041],[-48.42544,-22.26952],[-48.42622,-22.26623],[-48.42647,-22.26438],[-48.42581,-22.2623],[-48.42394,-22.25943],[-48.42271,-22.25822],[-48.42221,-22.2562],[-48.42083,-22.2552],[-48.41863,-22.255],[-48.41798,-22.25313],[-48.41629,-22.25072],[-48.4162,-22.24882],[-48.4167,-22.24686],[-48.41585,-22.24206],[-48.41549,-22.24098],[-48.41573,-22.24007],[-48.39635,-22.1966],[-48.39628,-22.19394],[-48.39581,-22.19298],[-48.394,-22.19207],[-48.38674,-22.19079],[-48.38239,-22.19011],[-48.37895,-22.18918],[-48.37585,-22.18704],[-48.37484,-22.18664],[-48.37277,-22.18648],[-48.36976,-22.18647],[-48.36752,-22.18714],[-48.36506,-22.18986],[-48.36433,-22.19231],[-48.36223,-22.19462],[-48.36116,-22.19512],[-48.36038,-22.19478],[-48.35925,-22.19235],[-48.35738,-22.19131],[-48.35622,-22.19207],[-48.35769,-22.1945],[-48.35736,-22.20016],[-48.3553,-22.19865],[-48.35324,-22.19786],[-48.35133,-22.19782],[-48.35072,-22.19687],[-48.34995,-22.19461],[-48.34876,-22.19346],[-48.34652,-22.18954],[-48.34499,-22.1884],[-48.34342,-22.18677],[-48.34311,-22.18556],[-48.3432,-22.18427],[-48.34206,-22.18233],[-48.34231,-22.18104],[-48.34323,-22.18068],[-48.34271,-22.17899],[-48.34398,-22.17929],[-48.34501,-22.17815],[-48.34461,-22.1766],[-48.34402,-22.17637],[-48.34413,-22.17495],[-48.34316,-22.17484],[-48.34324,-22.17356],[-48.34432,-22.17215],[-48.34571,-22.17136],[-48.34662,-22.17221],[-48.34821,-22.17217],[-48.3488,-22.17163],[-48.35084,-22.17146],[-48.35151,-22.17071],[-48.35301,-22.17092],[-48.35402,-22.17015],[-48.35337,-22.16895],[-48.35546,-22.16763],[-48.35548,-22.16681],[-48.35739,-22.16751],[-48.35858,-22.16758],[-48.35979,-22.16693],[-48.36076,-22.16693],[-48.36257,-22.16474],[-48.36683,-22.16554],[-48.36782,-22.16479],[-48.36853,-22.16508],[-48.36813,-22.16657],[-48.36833,-22.16714],[-48.37076,-22.16779],[-48.37124,-22.16822],[-48.373,-22.16773],[-48.37412,-22.1663],[-48.37305,-22.16613],[-48.37382,-22.16508],[-48.37363,-22.16416],[-48.37532,-22.1634],[-48.37592,-22.16226],[-48.37789,-22.16176],[-48.37858,-22.16268],[-48.38111,-22.16252],[-48.38208,-22.16063],[-48.38356,-22.15971],[-48.38659,-22.1599],[-48.38786,-22.15906],[-48.38798,-22.15789],[-48.38756,-22.15678],[-48.38556,-22.15627],[-48.38642,-22.15526],[-48.38599,-22.15305],[-48.38716,-22.15286],[-48.38807,-22.15175],[-48.38894,-22.1522],[-48.39256,-22.15181],[-48.39262,-22.1514],[-48.39105,-22.1502],[-48.38996,-22.14859],[-48.39093,-22.14779],[-48.39437,-22.14818],[-48.39539,-22.14751],[-48.39519,-22.14681],[-48.39311,-22.14589],[-48.39275,-22.1454],[-48.39374,-22.14358],[-48.39267,-22.14057],[-48.39301,-22.13926],[-48.39275,-22.13635],[-48.39444,-22.13714],[-48.39576,-22.13644],[-48.39679,-22.1351],[-48.39761,-22.13189],[-48.39688,-22.12949],[-48.39521,-22.12937],[-48.39571,-22.12852],[-48.39578,-22.1274],[-48.39641,-22.12626],[-48.39714,-22.12575],[-48.39646,-22.12495],[-48.39719,-22.124],[-48.39669,-22.12341],[-48.39619,-22.12175],[-48.39796,-22.12208],[-48.40083,-22.12367],[-48.40122,-22.12513],[-48.40338,-22.12698],[-48.40443,-22.12835],[-48.40625,-22.12933],[-48.40643,-22.12985],[-48.40629,-22.13271],[-48.40569,-22.13397],[-48.40644,-22.13442],[-48.40678,-22.13671],[-48.40797,-22.13915],[-48.40841,-22.14178],[-48.40985,-22.14264],[-48.41038,-22.14407],[-48.41169,-22.14442],[-48.41269,-22.14597],[-48.41395,-22.14715],[-48.41417,-22.14938],[-48.4135,-22.15048],[-48.41481,-22.15123],[-48.41562,-22.15132],[-48.41761,-22.15065],[-48.419,-22.15071],[-48.41977,-22.15229],[-48.41881,-22.15317],[-48.41782,-22.15466],[-48.41637,-22.15564],[-48.41577,-22.15715],[-48.41671,-22.15869],[-48.41656,-22.16023],[-48.41837,-22.16261],[-48.4191,-22.1631],[-48.42073,-22.1634],[-48.42134,-22.16404],[-48.42415,-22.16574],[-48.42912,-22.16836],[-48.42987,-22.16923],[-48.43174,-22.17255],[-48.4386,-22.15736],[-48.4452,-22.16176],[-48.4502,-22.16535],[-48.45239,-22.16809],[-48.45583,-22.17168],[-48.45616,-22.1731],[-48.46408,-22.17169],[-48.46711,-22.17177],[-48.46853,-22.17215],[-48.47131,-22.17342],[-48.47213,-22.17341],[-48.47521,-22.17156],[-48.47698,-22.17168],[-48.48011,-22.17396],[-48.48175,-22.17608],[-48.48252,-22.17672],[-48.48742,-22.17964],[-48.49108,-22.1829],[-48.49381,-22.18591],[-48.49573,-22.18755],[-48.49655,-22.18795],[-48.50049,-22.1887],[-48.50224,-22.18987],[-48.50395,-22.19191],[-48.50571,-22.19322],[-48.5075,-22.19389],[-48.51005,-22.19384],[-48.51232,-22.19303],[-48.5145,-22.19182],[-48.51855,-22.18924],[-48.51971,-22.18865],[-48.52201,-22.18791],[-48.52433,-22.18789],[-48.52799,-22.18841],[-48.53158,-22.18828],[-48.53463,-22.18886],[-48.53608,-22.18931],[-48.53721,-22.19001],[-48.53791,-22.19089],[-48.53955,-22.19157],[-48.5431,-22.19388],[-48.54595,-22.19515],[-48.54884,-22.19789],[-48.54976,-22.19853],[-48.5497,-22.19063],[-48.54954,-22.18717],[-48.54969,-22.18583],[-48.55133,-22.18706],[-48.55275,-22.18725],[-48.55627,-22.19107],[-48.55752,-22.19086],[-48.55807,-22.19143],[-48.56051,-22.19205],[-48.5606,-22.19346],[-48.56216,-22.19317],[-48.56389,-22.19333],[-48.56535,-22.19473],[-48.56627,-22.19512],[-48.56656,-22.19664],[-48.56856,-22.19588],[-48.56935,-22.19618],[-48.56975,-22.19728],[-48.5717,-22.19859],[-48.57257,-22.19846],[-48.57309,-22.19748],[-48.57473,-22.19733],[-48.57542,-22.19791],[-48.57687,-22.19761],[-48.57844,-22.19829],[-48.57947,-22.19761],[-48.57978,-22.19676],[-48.57972,-22.19491],[-48.58135,-22.19345],[-48.58403,-22.19336],[-48.58642,-22.18994],[-48.58856,-22.18962],[-48.58972,-22.19022],[-48.59071,-22.18942],[-48.59085,-22.18748],[-48.5921,-22.18698],[-48.59352,-22.18754],[-48.59445,-22.18721],[-48.59739,-22.18757],[-48.59883,-22.1867],[-48.59985,-22.18497],[-48.60072,-22.1829],[-48.60144,-22.18238],[-48.60252,-22.18081],[-48.60476,-22.1797],[-48.60657,-22.18026],[-48.60923,-22.17905],[-48.61125,-22.17889],[-48.61082,-22.17799],[-48.61067,-22.17637],[-48.61085,-22.17426],[-48.61287,-22.17143],[-48.61365,-22.16981],[-48.61388,-22.16755],[-48.61513,-22.16518],[-48.61619,-22.16385],[-48.6177,-22.16357],[-48.61915,-22.16264],[-48.6205,-22.16106],[-48.62242,-22.1598],[-48.62341,-22.15984],[-48.62555,-22.1609],[-48.62765,-22.1616],[-48.62937,-22.1628],[-48.62999,-22.16365],[-48.63013,-22.16546],[-48.63054,-22.16661],[-48.63127,-22.16716],[-48.63251,-22.1674],[-48.63345,-22.16694],[-48.63527,-22.16554],[-48.63668,-22.16514],[-48.64234,-22.16514],[-48.64961,-22.16501],[-48.65197,-22.16588],[-48.65425,-22.16726],[-48.6561,-22.16892],[-48.65697,-22.17134],[-48.658,-22.17263],[-48.65826,-22.17373],[-48.65848,-22.17658],[-48.65874,-22.17767],[-48.66053,-22.1807],[-48.6631,-22.18311],[-48.66394,-22.1848],[-48.66516,-22.18479],[-48.66798,-22.18383],[-48.66925,-22.18417],[-48.67217,-22.18838],[-48.67241,-22.19073],[-48.6732,-22.19222],[-48.6741,-22.19282]]]},"properties":{"codigo":"352530005","name":"Jaú","population":124601,"households":54044,"areaKm2":536.1152,"density":232.4}},{"type":"Feature","geometry":{"type":"Polygon","coordinates":[[[-48.56892,-22.41256],[-48.57265,-22.41124],[-48.57473,-22.41003],[-48.57778,-22.40766],[-48.57892,-22.40615],[-48.57993,-22.40539],[-48.58287,-22.40515],[-48.58467,-22.40452],[-48.58561,-22.40353],[-48.5865,-22.40182],[-48.58852,-22.40059],[-48.58899,-22.40001],[-48.58955,-22.39765],[-48.58965,-22.39631],[-48.58936,-22.39521],[-48.58845,-22.39364],[-48.58877,-22.3906],[-48.58843,-22.38866],[-48.58897,-22.38642],[-48.58939,-22.38275],[-48.59091,-22.38074],[-48.59145,-22.37961],[-48.59251,-22.37846],[-48.59389,-22.37767],[-48.5956,-22.37564],[-48.59746,-22.37444],[-48.59835,-22.37195],[-48.59823,-22.36997],[-48.59875,-22.36819],[-48.60014,-22.36758],[-48.60144,-22.36632],[-48.60171,-22.36486],[-48.603,-22.36428],[-48.60349,-22.36365],[-48.60342,-22.36247],[-48.60416,-22.36132],[-48.60458,-22.35948],[-48.6047,-22.35711],[-48.60638,-22.3557],[-48.60657,-22.35423],[-48.60584,-22.35298],[-48.6069,-22.35028],[-48.60827,-22.34928],[-48.60982,-22.34864],[-48.61087,-22.34737],[-48.61443,-22.34608],[-48.6166,-22.34577],[-48.61786,-22.34502],[-48.61894,-22.34503],[-48.62055,-22.34573],[-48.62242,-22.34792],[-48.62361,-22.34846],[-48.62439,-22.3494],[-48.62553,-22.34964],[-48.6271,-22.34886],[-48.62778,-22.3476],[-48.62869,-22.34431],[-48.62961,-22.3432],[-48.63063,-22.34142],[-48.63425,-22.34088],[-48.63534,-22.34051],[-48.63666,-22.34095],[-48.63765,-22.34009],[-48.6388,-22.34],[-48.63955,-22.33938],[-48.64233,-22.33915],[-48.64288,-22.33815],[-48.6438,-22.33832],[-48.6451,-22.33744],[-48.64597,-22.33769],[-48.64726,-22.33739],[-48.64813,-22.33625],[-48.65039,-22.33451],[-48.65162,-22.33242],[-48.65483,-22.32982],[-48.6551,-22.32874],[-48.65481,-22.32789],[-48.64494,-22.31418],[-48.64355,-22.31299],[-48.6404,-22.31106],[-48.63831,-22.3092],[-48.63778,-22.30735],[-48.63811,-22.30642],[-48.63888,-22.3057],[-48.65347,-22.29647],[-48.65578,-22.29395],[-48.65765,-22.29434],[-48.65912,-22.29557],[-48.65934,-22.29638],[-48.66056,-22.29588],[-48.66398,-22.29573],[-48.66497,-22.29511],[-48.66614,-22.29497],[-48.66871,-22.29653],[-48.67028,-22.29818],[-48.67236,-22.302],[-48.67428,-22.30292],[-48.67553,-22.30452],[-48.67644,-22.30511],[-48.68022,-22.30628],[-48.68137,-22.30618],[-48.68392,-22.30715],[-48.68674,-22.30965],[-48.68815,-22.31057],[-48.68916,-22.31178],[-48.68937,-22.31303],[-48.69363,-22.31495],[-48.69543,-22.3153],[-48.69586,-22.3164],[-48.6973,-22.31747],[-48.69774,-22.31722],[-48.69973,-22.3187],[-48.7019,-22.31949],[-48.70289,-22.31954],[-48.70463,-22.31901],[-48.70817,-22.31714],[-48.70967,-22.31675],[-48.71104,-22.31755],[-48.71318,-22.31831],[-48.71376,-22.31878],[-48.71532,-22.31778],[-48.71649,-22.31766],[-48.71789,-22.31699],[-48.72022,-22.31709],[-48.72084,-22.31764],[-48.72166,-22.31703],[-48.72349,-22.31638],[-48.72539,-22.31724],[-48.72705,-22.31678],[-48.73273,-22.31751],[-48.72942,-22.32154],[-48.72542,-22.32558],[-48.72398,-22.32745],[-48.7228,-22.32945],[-48.7192,-22.33743],[-48.71714,-22.34166],[-48.71572,-22.34429],[-48.7135,-22.34756],[-48.71154,-22.35],[-48.70948,-22.35364],[-48.70686,-22.35792],[-48.70512,-22.36109],[-48.70411,-22.36409],[-48.70335,-22.36755],[-48.70291,-22.36854],[-48.70109,-22.37146],[-48.70017,-22.37351],[-48.69927,-22.37679],[-48.69831,-22.37887],[-48.69691,-22.38074],[-48.6944,-22.38313],[-48.693,-22.3848],[-48.6906,-22.38867],[-48.68869,-22.39214],[-48.68731,-22.39529],[-48.6861,-22.39742],[-48.68453,-22.39933],[-48.68179,-22.40172],[-48.67536,-22.40623],[-48.6676,-22.41098],[-48.66626,-22.41228],[-48.66517,-22.41391],[-48.66465,-22.416],[-48.66443,-22.42068],[-48.66459,-22.42459],[-48.66451,-22.42706],[-48.66393,-22.42985],[-48.66328,-22.43185],[-48.66294,-22.43366],[-48.6629,-22.43567],[-48.66335,-22.43817],[-48.66414,-22.44035],[-48.66587,-22.4421],[-48.66735,-22.44407],[-48.66807,-22.44592],[-48.66835,-22.44787],[-48.66809,-22.45024],[-48.66695,-22.4536],[-48.66621,-22.45693],[-48.66622,-22.45914],[-48.66591,-22.46115],[-48.6648,-22.46294],[-48.66398,-22.46518],[-48.66215,-22.46664],[-48.65998,-22.46752],[-48.65692,-22.46817],[-48.6539,-22.46843],[-48.65089,-22.46952],[-48.64858,-22.47143],[-48.64671,-22.47486],[-48.6463,-22.47706],[-48.64549,-22.47895],[-48.64432,-22.48029],[-48.64198,-22.48231],[-48.63691,-22.47896],[-48.63587,-22.47726],[-48.63359,-22.47609],[-48.6316,-22.47549],[-48.63043,-22.47444],[-48.62777,-22.46893],[-48.62624,-22.46864],[-48.6239,-22.46759],[-48.62204,-22.46719],[-48.61988,-22.46615],[-48.61946,-22.46267],[-48.61887,-22.46139],[-48.61343,-22.45546],[-48.61247,-22.45393],[-48.61112,-22.45288],[-48.61051,-22.45199],[-48.60945,-22.45138],[-48.6075,-22.4474],[-48.60641,-22.44598],[-48.60193,-22.44233],[-48.60047,-22.44165],[-48.59681,-22.44118],[-48.59648,-22.44041],[-48.59663,-22.43901],[-48.59769,-22.43585],[-48.59829,-22.43487],[-48.60023,-22.43294],[-48.60192,-22.43086],[-48.60356,-22.43134],[-48.6053,-22.43073],[-48.60568,-22.4296],[-48.60702,-22.42733],[-48.60808,-22.42648],[-48.60879,-22.42512],[-48.60773,-22.4246],[-48.60531,-22.42511],[-48.60301,-22.42477],[-48.60068,-22.42499],[-48.59918,-22.4249],[-48.59674,-22.42416],[-48.5948,-22.42153],[-48.59351,-22.42021],[-48.59101,-22.41931],[-48.58952,-22.41788],[-48.58964,-22.41616],[-48.58923,-22.41477],[-48.58789,-22.41316],[-48.58633,-22.4122],[-48.58514,-22.41187],[-48.58275,-22.41171],[-48.58065,-22.41191],[-48.57412,-22.41349],[-48.5732,-22.41356],[-48.56892,-22.41256]]]},"properties":{"codigo":"352530010","name":"Potunduva","population":8896,"households":3966,"areaKm2":150.9875,"density":58.9}}]}