{"type":"FeatureCollection","features":[{"type":"Feature","geometry":{"type":"Polygon","coordinates":[[[-47.19749,-22.09872],[-47.19749,-22.10115],[-47.19815,-22.10347],[-47.19938,-22.10507],[-47.19707,-22.10728],[-47.19705,-22.10804],[-47.19579,-22.10992],[-47.19356,-22.11181],[-47.19386,-22.11287],[-47.19358,-22.11404],[-47.19414,-22.11488],[-47.19404,-22.11573],[-47.19477,-22.11771],[-47.19573,-22.11893],[-47.19581,-22.12032],[-47.1963,-22.12083],[-47.1956,-22.1232],[-47.19616,-22.12439],[-47.19668,-22.12653],[-47.19617,-22.12751],[-47.19656,-22.12973],[-47.19709,-22.13066],[-47.19704,-22.1327],[-47.19762,-22.13462],[-47.19722,-22.13577],[-47.19743,-22.13701],[-47.1972,-22.1382],[-47.19743,-22.1393],[-47.19823,-22.14031],[-47.19836,-22.14166],[-47.198,-22.14224],[-47.19862,-22.14318],[-47.19857,-22.14412],[-47.19921,-22.14478],[-47.19944,-22.14699],[-47.19886,-22.14764],[-47.19929,-22.1484],[-47.19926,-22.14978],[-47.19804,-22.15208],[-47.19768,-22.1537],[-47.19689,-22.15506],[-47.19676,-22.15676],[-47.19638,-22.15719],[-47.19624,-22.1598],[-47.19483,-22.16255],[-47.1945,-22.16383],[-47.19473,-22.16554],[-47.19394,-22.16631],[-47.19406,-22.16722],[-47.19308,-22.16949],[-47.19227,-22.17064],[-47.1905,-22.17151],[-47.19054,-22.17294],[-47.18888,-22.1744],[-47.18488,-22.17544],[-47.18419,-22.17609],[-47.18368,-22.17735],[-47.18091,-22.17851],[-47.17817,-22.17809],[-47.1777,-22.17852],[-47.17555,-22.17924],[-47.17437,-22.1789],[-47.17245,-22.17888],[-47.1717,-22.17834],[-47.17038,-22.17811],[-47.16774,-22.17699],[-47.16612,-22.17702],[-47.16481,-22.17631],[-47.1633,-22.17654],[-47.15995,-22.17516],[-47.15869,-22.17487],[-47.15725,-22.17498],[-47.15656,-22.17464],[-47.15569,-22.17318],[-47.15417,-22.17303],[-47.15269,-22.17232],[-47.15179,-22.17237],[-47.15103,-22.17176],[-47.14906,-22.17167],[-47.14823,-22.17065],[-47.14439,-22.17065],[-47.14376,-22.17022],[-47.14188,-22.1708],[-47.14003,-22.17166],[-47.13924,-22.17151],[-47.13621,-22.17349],[-47.1356,-22.17462],[-47.13415,-22.17584],[-47.1317,-22.17667],[-47.13144,-22.17713],[-47.13007,-22.17738],[-47.12913,-22.17807],[-47.12725,-22.17764],[-47.12609,-22.17854],[-47.1253,-22.17857],[-47.12517,-22.18063],[-47.1259,-22.182],[-47.1254,-22.18538],[-47.12499,-22.18616],[-47.12511,-22.18813],[-47.12448,-22.19125],[-47.12465,-22.1929],[-47.12503,-22.19352],[-47.12689,-22.19494],[-47.12795,-22.19697],[-47.12837,-22.19831],[-47.12835,-22.2009],[-47.12751,-22.20495],[-47.12653,-22.2068],[-47.1237,-22.20961],[-47.12223,-22.2102],[-47.12057,-22.21024],[-47.11922,-22.20984],[-47.11807,-22.20909],[-47.11605,-22.20719],[-47.11503,-22.20688],[-47.11328,-22.20766],[-47.11308,-22.20948],[-47.11492,-22.21262],[-47.1165,-22.21398],[-47.12218,-22.21851],[-47.1229,-22.21959],[-47.12348,-22.22205],[-47.12458,-22.22521],[-47.12745,-22.23207],[-47.12804,-22.23439],[-47.12763,-22.23587],[-47.12574,-22.23731],[-47.12388,-22.23777],[-47.12084,-22.23824],[-47.11871,-22.23943],[-47.11733,-22.24062],[-47.11488,-22.24344],[-47.11395,-22.24389],[-47.10976,-22.24404],[-47.10818,-22.24486],[-47.10614,-22.24699],[-47.10427,-22.24945],[-47.1024,-22.25231],[-47.10002,-22.25535],[-47.09676,-22.25808],[-47.09131,-22.26231],[-47.09104,-22.26353],[-47.09129,-22.26518],[-47.09076,-22.2663],[-47.09121,-22.26742],[-47.09221,-22.27197],[-47.09184,-22.27335],[-47.09218,-22.27448],[-47.09202,-22.2765],[-47.09233,-22.27779],[-47.09211,-22.27968],[-47.09221,-22.28096],[-47.09278,-22.28285],[-47.09397,-22.28421],[-47.09512,-22.28619],[-47.09496,-22.28768],[-47.09519,-22.28948],[-47.09573,-22.29036],[-47.09548,-22.29196],[-47.09759,-22.29367],[-47.09666,-22.29473],[-47.0957,-22.29839],[-47.0952,-22.2995],[-47.09421,-22.30057],[-47.09262,-22.30165],[-47.09095,-22.30245],[-47.08898,-22.30253],[-47.08791,-22.30212],[-47.08512,-22.29968],[-47.08375,-22.29981],[-47.08178,-22.30145],[-47.07739,-22.30476],[-47.07383,-22.3067],[-47.07193,-22.30723],[-47.06884,-22.3072],[-47.06617,-22.30643],[-47.06326,-22.30402],[-47.06156,-22.30306],[-47.05832,-22.3029],[-47.05546,-22.30201],[-47.0546,-22.30209],[-47.04979,-22.30385],[-47.04682,-22.30375],[-47.04411,-22.30425],[-47.04238,-22.3056],[-47.04153,-22.30574],[-47.03972,-22.30519],[-47.03892,-22.30521],[-47.03757,-22.30593],[-47.03625,-22.30595],[-47.0349,-22.30465],[-47.03336,-22.30431],[-47.03338,-22.30518],[-47.03465,-22.30596],[-47.03522,-22.30719],[-47.035,-22.30809],[-47.03418,-22.30835],[-47.03257,-22.30755],[-47.03175,-22.30803],[-47.03185,-22.30974],[-47.03152,-22.31089],[-47.02958,-22.31158],[-47.02909,-22.31222],[-47.02969,-22.31293],[-47.03122,-22.31247],[-47.03253,-22.31266],[-47.03313,-22.31331],[-47.03371,-22.31522],[-47.03333,-22.31708],[-47.0315,-22.31714],[-47.0298,-22.31889],[-47.02836,-22.3195],[-47.02807,-22.32033],[-47.02879,-22.32229],[-47.02849,-22.32353],[-47.02794,-22.32375],[-47.02634,-22.32316],[-47.02401,-22.32341],[-47.02315,-22.32249],[-47.0242,-22.31983],[-47.02383,-22.31779],[-47.02223,-22.31621],[-47.02109,-22.3163],[-47.0203,-22.31706],[-47.0196,-22.32032],[-47.01883,-22.32189],[-47.01645,-22.3237],[-47.01393,-22.3243],[-47.0144,-22.32613],[-47.01548,-22.32729],[-47.01598,-22.32845],[-47.01578,-22.32957],[-47.01515,-22.32988],[-47.01296,-22.32947],[-47.01198,-22.32982],[-47.01152,-22.33128],[-47.01183,-22.33248],[-47.01449,-22.33448],[-47.01546,-22.33546],[-47.01626,-22.33692],[-47.01612,-22.33754],[-47.01438,-22.33773],[-47.01324,-22.33865],[-47.0127,-22.34064],[-47.01265,-22.34286],[-47.01211,-22.34457],[-47.01087,-22.34535],[-47.00909,-22.34497],[-47.0076,-22.34546],[-47.00675,-22.34634],[-47.00658,-22.34833],[-47.00608,-22.35019],[-47.00498,-22.35185],[-47.0036,-22.35347],[-47.00344,-22.35476],[-47.00387,-22.35637],[-47.00377,-22.35755],[-47.00233,-22.36057],[-46.99985,-22.36219],[-46.99779,-22.36299],[-46.9978,-22.36378],[-46.99628,-22.3662],[-46.9946,-22.36951],[-46.99292,-22.37188],[-46.99053,-22.37402],[-46.98712,-22.37663],[-46.98278,-22.37839],[-46.97678,-22.37842],[-46.97015,-22.37837],[-46.96904,-22.37875],[-46.96834,-22.37957],[-46.96741,-22.38156],[-46.9652,-22.38336],[-46.96133,-22.38548],[-46.95956,-22.38707],[-46.95892,-22.38861],[-46.95857,-22.39113],[-46.95773,-22.39251],[-46.95639,-22.39309],[-46.9544,-22.39328],[-46.95125,-22.39411],[-46.95058,-22.39386],[-46.94996,-22.39543],[-46.94945,-22.39551],[-46.94924,-22.39689],[-46.94768,-22.39752],[-46.94795,-22.39811],[-46.94406,-22.39982],[-46.94348,-22.39817],[-46.94178,-22.39765],[-46.94049,-22.39831],[-46.93958,-22.40091],[-46.93425,-22.39565],[-46.9332,-22.39355],[-46.92146,-22.38652],[-46.9128,-22.37658],[-46.91118,-22.37744],[-46.90798,-22.37741],[-46.9059,-22.37639],[-46.90536,-22.37577],[-46.9047,-22.3738],[-46.90397,-22.37378],[-46.90037,-22.37571],[-46.90086,-22.37698],[-46.90223,-22.37822],[-46.90207,-22.37951],[-46.90074,-22.38073],[-46.89948,-22.38127],[-46.89808,-22.3828],[-46.8973,-22.38178],[-46.89597,-22.37876],[-46.89522,-22.37828],[-46.89401,-22.37842],[-46.89218,-22.37806],[-46.89118,-22.37725],[-46.89037,-22.37717],[-46.88812,-22.37825],[-46.88446,-22.37911],[-46.88261,-22.37979],[-46.88095,-22.3807],[-46.87865,-22.38249],[-46.87791,-22.38429],[-46.87798,-22.38546],[-46.87868,-22.38655],[-46.87781,-22.38736],[-46.87399,-22.38738],[-46.87216,-22.38813],[-46.87101,-22.38867],[-46.87057,-22.38804],[-46.87092,-22.38669],[-46.8741,-22.3848],[-46.87489,-22.38372],[-46.8748,-22.38173],[-46.87362,-22.38126],[-46.87305,-22.38182],[-46.87258,-22.38361],[-46.87103,-22.38403],[-46.87003,-22.38288],[-46.87049,-22.38044],[-46.87116,-22.37943],[-46.87284,-22.37858],[-46.87558,-22.37836],[-46.87584,-22.37794],[-46.87342,-22.37593],[-46.87248,-22.37465],[-46.86835,-22.3739],[-46.86799,-22.37307],[-46.86888,-22.37091],[-46.86874,-22.36962],[-46.86759,-22.36836],[-46.86409,-22.36761],[-46.86113,-22.36801],[-46.85998,-22.36654],[-46.86035,-22.36614],[-46.8624,-22.3663],[-46.86262,-22.36497],[-46.86054,-22.36428],[-46.86051,-22.36341],[-46.86146,-22.36314],[-46.86219,-22.36235],[-46.8604,-22.36072],[-46.86049,-22.35955],[-46.85844,-22.3577],[-46.85826,-22.35627],[-46.85734,-22.35599],[-46.85662,-22.35702],[-46.85576,-22.35699],[-46.85473,-22.35629],[-46.85353,-22.35623],[-46.85215,-22.35467],[-46.85058,-22.35427],[-46.85008,-22.35185],[-46.85136,-22.3512],[-46.85202,-22.34961],[-46.85338,-22.34925],[-46.85464,-22.3498],[-46.85526,-22.34927],[-46.85482,-22.34831],[-46.85199,-22.34757],[-46.84982,-22.34735],[-46.84575,-22.34743],[-46.84391,-22.35019],[-46.84324,-22.35022],[-46.84169,-22.34861],[-46.84124,-22.34725],[-46.84131,-22.34544],[-46.84164,-22.34479],[-46.84418,-22.34362],[-46.84462,-22.34285],[-46.8434,-22.34075],[-46.84269,-22.34009],[-46.8399,-22.33905],[-46.83875,-22.33763],[-46.8362,-22.3369],[-46.83481,-22.33564],[-46.83305,-22.33466],[-46.83187,-22.33433],[-46.83027,-22.3345],[-46.82795,-22.33607],[-46.82694,-22.33639],[-46.82487,-22.33636],[-46.82435,-22.33552],[-46.82465,-22.33436],[-46.82585,-22.33258],[-46.82416,-22.3318],[-46.82363,-22.33094],[-46.82319,-22.32843],[-46.82284,-22.32781],[-46.82062,-22.32566],[-46.819,-22.32379],[-46.81736,-22.32384],[-46.81643,-22.32233],[-46.81744,-22.32005],[-46.81779,-22.31918],[-46.81894,-22.31924],[-46.81972,-22.3205],[-46.82073,-22.3202],[-46.82084,-22.31949],[-46.81944,-22.31849],[-46.81683,-22.31748],[-46.81469,-22.31636],[-46.81209,-22.3157],[-46.80761,-22.31677],[-46.80643,-22.31673],[-46.8052,-22.31488],[-46.80352,-22.31352],[-46.80175,-22.31245],[-46.80193,-22.31135],[-46.80323,-22.31056],[-46.80292,-22.3094],[-46.79862,-22.30881],[-46.79803,-22.30854],[-46.79719,-22.30723],[-46.79488,-22.30455],[-46.79379,-22.30384],[-46.79116,-22.30116],[-46.79088,-22.29958],[-46.79165,-22.2983],[-46.79126,-22.29732],[-46.79125,-22.2962],[-46.79179,-22.29407],[-46.79275,-22.29184],[-46.79267,-22.29042],[-46.79385,-22.28959],[-46.79334,-22.28822],[-46.79467,-22.28742],[-46.79509,-22.28601],[-46.79583,-22.28546],[-46.79551,-22.28445],[-46.79602,-22.28354],[-46.79568,-22.28236],[-46.79636,-22.28101],[-46.79726,-22.27997],[-46.80093,-22.27813],[-46.80399,-22.2783],[-46.80531,-22.27862],[-46.80876,-22.27852],[-46.81207,-22.27708],[-46.81348,-22.27706],[-46.81639,-22.27667],[-46.81898,-22.27722],[-46.81901,-22.27619],[-46.81761,-22.27466],[-46.81699,-22.27363],[-46.81712,-22.27292],[-46.81805,-22.27188],[-46.82103,-22.27033],[-46.82184,-22.26939],[-46.82295,-22.26745],[-46.82389,-22.26663],[-46.82572,-22.26621],[-46.82897,-22.26702],[-46.83422,-22.2663],[-46.83689,-22.26616],[-46.84018,-22.2656],[-46.84242,-22.26489],[-46.8445,-22.26505],[-46.84552,-22.2643],[-46.84608,-22.26278],[-46.84736,-22.26148],[-46.84808,-22.26152],[-46.84893,-22.2608],[-46.85007,-22.26096],[-46.85072,-22.25987],[-46.85165,-22.25997],[-46.85228,-22.26105],[-46.8535,-22.26109],[-46.85588,-22.25999],[-46.85666,-22.26025],[-46.85858,-22.25991],[-46.86007,-22.26008],[-46.86161,-22.25973],[-46.86198,-22.25845],[-46.86293,-22.25777],[-46.8635,-22.25655],[-46.86429,-22.25598],[-46.86593,-22.25764],[-46.86674,-22.2589],[-46.86897,-22.25815],[-46.87148,-22.25584],[-46.87331,-22.25545],[-46.87416,-22.25345],[-46.87476,-22.25315],[-46.87626,-22.25392],[-46.87779,-22.25324],[-46.8783,-22.25244],[-46.87994,-22.25119],[-46.88093,-22.25158],[-46.88378,-22.2507],[-46.88372,-22.25017],[-46.88514,-22.24971],[-46.88622,-22.25024],[-46.88859,-22.2484],[-46.89098,-22.24834],[-46.89326,-22.24714],[-46.89547,-22.24717],[-46.89764,-22.24593],[-46.89919,-22.24556],[-46.89999,-22.24575],[-46.901,-22.24687],[-46.90329,-22.24892],[-46.90518,-22.24972],[-46.90662,-22.25104],[-46.90783,-22.25468],[-46.908,-22.25632],[-46.90954,-22.25801],[-46.91123,-22.26037],[-46.91237,-22.26075],[-46.91336,-22.26283],[-46.91621,-22.26475],[-46.91805,-22.26489],[-46.919,-22.26652],[-46.92148,-22.26676],[-46.92217,-22.26705],[-46.92397,-22.26862],[-46.92403,-22.26941],[-46.92508,-22.26994],[-46.95685,-22.29561],[-46.96956,-22.29538],[-46.97156,-22.28795],[-46.97469,-22.27742],[-46.97483,-22.27613],[-46.97401,-22.27343],[-46.97378,-22.27094],[-46.97414,-22.26869],[-46.97559,-22.26361],[-46.97754,-22.25572],[-46.9777,-22.25096],[-46.97756,-22.24992],[-46.97835,-22.23135],[-46.97868,-22.22501],[-46.98011,-22.2171],[-46.98097,-22.2136],[-46.98372,-22.19993],[-46.9823,-22.19921],[-46.98035,-22.199],[-46.97798,-22.19939],[-46.97419,-22.20027],[-46.97283,-22.20027],[-46.97158,-22.19989],[-46.97003,-22.19891],[-46.96781,-22.19829],[-46.96622,-22.19824],[-46.96142,-22.19848],[-46.95833,-22.19782],[-46.95722,-22.19653],[-46.95478,-22.19414],[-46.95395,-22.1938],[-46.95285,-22.19245],[-46.9526,-22.19139],[-46.95324,-22.18979],[-46.95475,-22.18853],[-46.95477,-22.18704],[-46.95402,-22.18651],[-46.951,-22.18501],[-46.94864,-22.18479],[-46.94659,-22.18367],[-46.94575,-22.18357],[-46.94375,-22.18454],[-46.9397,-22.1852],[-46.93667,-22.18519],[-46.93504,-22.18464],[-46.9332,-22.18443],[-46.93051,-22.18359],[-46.9292,-22.18387],[-46.92733,-22.18482],[-46.92321,-22.18861],[-46.92255,-22.19008],[-46.92093,-22.19192],[-46.91913,-22.19359],[-46.91772,-22.19528],[-46.91678,-22.19677],[-46.91557,-22.19791],[-46.91444,-22.19981],[-46.91422,-22.20076],[-46.91462,-22.20326],[-46.9147,-22.20629],[-46.91514,-22.209],[-46.91368,-22.21151],[-46.91328,-22.21328],[-46.91186,-22.2152],[-46.91064,-22.21579],[-46.90513,-22.21266],[-46.90521,-22.21023],[-46.90193,-22.20537],[-46.90037,-22.20474],[-46.89844,-22.2052],[-46.89708,-22.20488],[-46.89663,-22.19757],[-46.89588,-22.19491],[-46.8962,-22.19105],[-46.8974,-22.18134],[-46.89959,-22.17792],[-46.90008,-22.17665],[-46.89995,-22.17569],[-46.89865,-22.1747],[-46.89805,-22.17347],[-46.89734,-22.17321],[-46.89544,-22.17352],[-46.89459,-22.1727],[-46.8931,-22.17213],[-46.89253,-22.1702],[-46.88995,-22.17001],[-46.88865,-22.17052],[-46.88747,-22.17016],[-46.88653,-22.16926],[-46.88591,-22.16937],[-46.88371,-22.16718],[-46.88281,-22.16583],[-46.88316,-22.16519],[-46.88254,-22.16422],[-46.88241,-22.16298],[-46.88327,-22.16119],[-46.88284,-22.15884],[-46.88367,-22.15654],[-46.88384,-22.15392],[-46.88315,-22.15264],[-46.88199,-22.15214],[-46.88202,-22.15004],[-46.88083,-22.1491],[-46.88082,-22.1484],[-46.87782,-22.14675],[-46.87714,-22.14539],[-46.87551,-22.14444],[-46.87476,-22.14299],[-46.87357,-22.1416],[-46.87237,-22.1417],[-46.87135,-22.14073],[-46.87097,-22.13985],[-46.86973,-22.13852],[-46.86957,-22.1369],[-46.86685,-22.13469],[-46.86546,-22.13288],[-46.86527,-22.13134],[-46.86586,-22.12992],[-46.86734,-22.12787],[-46.86743,-22.12642],[-46.86691,-22.12436],[-46.86641,-22.12127],[-46.86692,-22.11931],[-46.86845,-22.11807],[-46.8709,-22.11725],[-46.87222,-22.11637],[-46.87358,-22.11478],[-46.87303,-22.11342],[-46.87405,-22.11261],[-46.87485,-22.11314],[-46.87689,-22.11834],[-46.87734,-22.11982],[-46.87805,-22.12084],[-46.87967,-22.12161],[-46.88163,-22.12163],[-46.88526,-22.12264],[-46.88694,-22.12349],[-46.89097,-22.12779],[-46.89329,-22.13006],[-46.89431,-22.13016],[-46.89598,-22.12918],[-46.89956,-22.12787],[-46.90074,-22.12789],[-46.90227,-22.12832],[-46.90807,-22.1308],[-46.90937,-22.13104],[-46.91136,-22.13095],[-46.91418,-22.13039],[-46.91582,-22.13121],[-46.91798,-22.13128],[-46.92125,-22.1307],[-46.92337,-22.13201],[-46.92421,-22.13371],[-46.92643,-22.1356],[-46.93157,-22.13945],[-46.93351,-22.14304],[-46.93456,-22.14421],[-46.93525,-22.14389],[-46.9359,-22.14528],[-46.93705,-22.14641],[-46.94089,-22.14638],[-46.9436,-22.1467],[-46.94476,-22.1466],[-46.94709,-22.14747],[-46.95113,-22.14602],[-46.95306,-22.14556],[-46.95457,-22.14471],[-46.95894,-22.14425],[-46.96046,-22.14371],[-46.96214,-22.14235],[-46.96448,-22.13992],[-46.96774,-22.13759],[-46.97132,-22.1361],[-46.97324,-22.1345],[-46.97509,-22.1312],[-46.97706,-22.12829],[-46.97825,-22.1268],[-46.97961,-22.12621],[-46.98193,-22.12634],[-46.98335,-22.12674],[-46.98651,-22.12726],[-46.98809,-22.12771],[-46.99173,-22.12786],[-46.99422,-22.12766],[-46.99571,-22.12732],[-46.99818,-22.12626],[-47.00136,-22.12441],[-47.00298,-22.12293],[-47.00551,-22.12276],[-47.00869,-22.12148],[-47.01085,-22.11976],[-47.01224,-22.1174],[-47.01372,-22.11624],[-47.01719,-22.11456],[-47.02002,-22.11371],[-47.02164,-22.11344],[-47.02482,-22.11331],[-47.02788,-22.11294],[-47.02899,-22.11359],[-47.03056,-22.11393],[-47.0321,-22.1146],[-47.03521,-22.11667],[-47.03747,-22.11718],[-47.03982,-22.1175],[-47.04144,-22.11735],[-47.04621,-22.11564],[-47.04689,-22.11494],[-47.04835,-22.11184],[-47.04843,-22.11038],[-47.04943,-22.10886],[-47.0517,-22.1069],[-47.05234,-22.10609],[-47.05408,-22.10499],[-47.05441,-22.10399],[-47.0557,-22.10308],[-47.05654,-22.10182],[-47.05921,-22.10141],[-47.06009,-22.10015],[-47.06126,-22.09973],[-47.06337,-22.09808],[-47.06525,-22.09762],[-47.06644,-22.09587],[-47.06783,-22.09584],[-47.06937,-22.09532],[-47.07187,-22.09385],[-47.0729,-22.09269],[-47.07561,-22.09169],[-47.07739,-22.09031],[-47.07895,-22.09035],[-47.07981,-22.08911],[-47.08173,-22.08795],[-47.08402,-22.08802],[-47.08547,-22.08739],[-47.08602,-22.08597],[-47.08837,-22.0851],[-47.08967,-22.08378],[-47.08997,-22.08224],[-47.09142,-22.08048],[-47.09132,-22.07814],[-47.09193,-22.07599],[-47.09343,-22.07472],[-47.09383,-22.07333],[-47.09519,-22.07225],[-47.0958,-22.07129],[-47.09703,-22.07021],[-47.0976,-22.06887],[-47.10048,-22.06732],[-47.10236,-22.06767],[-47.10273,-22.06843],[-47.10411,-22.06868],[-47.10594,-22.06945],[-47.10654,-22.07017],[-47.10661,-22.07167],[-47.10773,-22.07257],[-47.10818,-22.07369],[-47.10918,-22.0743],[-47.10942,-22.07558],[-47.11146,-22.07664],[-47.1124,-22.07741],[-47.11416,-22.07785],[-47.1149,-22.07834],[-47.11553,-22.07948],[-47.11813,-22.08025],[-47.11832,-22.08115],[-47.11954,-22.08172],[-47.1204,-22.08307],[-47.12381,-22.08313],[-47.1251,-22.08297],[-47.12619,-22.08346],[-47.12851,-22.08529],[-47.12975,-22.0866],[-47.13043,-22.08809],[-47.1325,-22.09536],[-47.13437,-22.1002],[-47.13522,-22.10406],[-47.13576,-22.10751],[-47.13746,-22.1095],[-47.13809,-22.11092],[-47.13922,-22.1123],[-47.13999,-22.11245],[-47.14172,-22.11132],[-47.14533,-22.10961],[-47.14668,-22.10961],[-47.14829,-22.10922],[-47.14903,-22.10848],[-47.15077,-22.10765],[-47.15231,-22.10623],[-47.15442,-22.10343],[-47.1557,-22.10267],[-47.15645,-22.10144],[-47.1575,-22.10086],[-47.16121,-22.09626],[-47.16296,-22.09468],[-47.16403,-22.09438],[-47.16583,-22.09314],[-47.16713,-22.09293],[-47.16816,-22.09323],[-47.17034,-22.09493],[-47.17272,-22.09537],[-47.17425,-22.09533],[-47.17596,-22.09456],[-47.17683,-22.09387],[-47.17831,-22.09354],[-47.18086,-22.09243],[-47.18177,-22.09246],[-47.18379,-22.09313],[-47.18523,-22.09416],[-47.18666,-22.09572],[-47.18864,-22.09719],[-47.19097,-22.09754],[-47.19483,-22.09853],[-47.19749,-22.09872]]]},"properties":{"codigo":"353070605","name":"Mogi Guaçu","population":149274,"households":62819,"areaKm2":673.9407,"density":221.5}},{"type":"Feature","geometry":{"type":"Polygon","coordinates":[[[-47.18429,-22.29202],[-47.18316,-22.29309],[-47.18058,-22.29411],[-47.17807,-22.29574],[-47.17661,-22.29633],[-47.17542,-22.29612],[-47.17437,-22.29546],[-47.17251,-22.29256],[-47.17074,-22.29209],[-47.1686,-22.29108],[-47.16895,-22.29034],[-47.17109,-22.29059],[-47.17132,-22.28962],[-47.16998,-22.28754],[-47.16885,-22.28439],[-47.1674,-22.28369],[-47.16693,-22.2861],[-47.16577,-22.28649],[-47.16441,-22.28552],[-47.16354,-22.28584],[-47.16273,-22.2872],[-47.16167,-22.28755],[-47.15979,-22.28761],[-47.15963,-22.28877],[-47.16102,-22.29028],[-47.16134,-22.29149],[-47.16084,-22.29251],[-47.15952,-22.29276],[-47.15722,-22.29257],[-47.15622,-22.29543],[-47.15465,-22.29768],[-47.15377,-22.29762],[-47.1536,-22.29656],[-47.15405,-22.29542],[-47.15333,-22.2947],[-47.151,-22.29506],[-47.14992,-22.29446],[-47.14881,-22.29477],[-47.14813,-22.2966],[-47.14584,-22.29661],[-47.14464,-22.29605],[-47.14305,-22.29581],[-47.14179,-22.296],[-47.13746,-22.298],[-47.13529,-22.29977],[-47.13416,-22.30016],[-47.13045,-22.30026],[-47.1297,-22.29999],[-47.12742,-22.29829],[-47.12512,-22.29818],[-47.12409,-22.29762],[-47.12416,-22.29678],[-47.12534,-22.29547],[-47.12572,-22.29392],[-47.12511,-22.29277],[-47.12317,-22.29135],[-47.12017,-22.29068],[-47.11812,-22.29106],[-47.11713,-22.29164],[-47.11625,-22.29422],[-47.11515,-22.29437],[-47.11298,-22.29273],[-47.11053,-22.29233],[-47.10939,-22.29263],[-47.10859,-22.29414],[-47.10831,-22.29681],[-47.10726,-22.29806],[-47.10547,-22.29878],[-47.10455,-22.29872],[-47.10448,-22.29774],[-47.10593,-22.29637],[-47.10631,-22.295],[-47.10564,-22.29376],[-47.10341,-22.29293],[-47.09977,-22.29293],[-47.09759,-22.29367],[-47.09548,-22.29196],[-47.09573,-22.29036],[-47.09519,-22.28948],[-47.09496,-22.28768],[-47.09512,-22.28619],[-47.09397,-22.28421],[-47.09278,-22.28285],[-47.09221,-22.28096],[-47.09211,-22.27968],[-47.09233,-22.27779],[-47.09202,-22.2765],[-47.09218,-22.27448],[-47.09184,-22.27335],[-47.09221,-22.27197],[-47.09121,-22.26742],[-47.09076,-22.2663],[-47.09129,-22.26518],[-47.09104,-22.26353],[-47.09131,-22.26231],[-47.09676,-22.25808],[-47.10002,-22.25535],[-47.1024,-22.25231],[-47.10427,-22.24945],[-47.10614,-22.24699],[-47.10818,-22.24486],[-47.10976,-22.24404],[-47.11395,-22.24389],[-47.11488,-22.24344],[-47.11733,-22.24062],[-47.11871,-22.23943],[-47.12084,-22.23824],[-47.12388,-22.23777],[-47.12574,-22.23731],[-47.12763,-22.23587],[-47.12804,-22.23439],[-47.12745,-22.23207],[-47.12458,-22.22521],[-47.12348,-22.22205],[-47.1229,-22.21959],[-47.12218,-22.21851],[-47.1165,-22.21398],[-47.11492,-22.21262],[-47.11308,-22.20948],[-47.11328,-22.20766],[-47.11503,-22.20688],[-47.11605,-22.20719],[-47.11807,-22.20909],[-47.11922,-22.20984],[-47.12057,-22.21024],[-47.12223,-22.2102],[-47.1237,-22.20961],[-47.12653,-22.2068],[-47.12751,-22.20495],[-47.12835,-22.2009],[-47.12837,-22.19831],[-47.12795,-22.19697],[-47.12689,-22.19494],[-47.12503,-22.19352],[-47.12465,-22.1929],[-47.12448,-22.19125],[-47.12511,-22.18813],[-47.12499,-22.18616],[-47.1254,-22.18538],[-47.1259,-22.182],[-47.12517,-22.18063],[-47.1253,-22.17857],[-47.12609,-22.17854],[-47.12725,-22.17764],[-47.12913,-22.17807],[-47.13007,-22.17738],[-47.13144,-22.17713],[-47.1317,-22.17667],[-47.13415,-22.17584],[-47.1356,-22.17462],[-47.13621,-22.17349],[-47.13924,-22.17151],[-47.14003,-22.17166],[-47.14188,-22.1708],[-47.14376,-22.17022],[-47.14439,-22.17065],[-47.14823,-22.17065],[-47.14906,-22.17167],[-47.15103,-22.17176],[-47.15179,-22.17237],[-47.15269,-22.17232],[-47.15417,-22.17303],[-47.15569,-22.17318],[-47.15656,-22.17464],[-47.15725,-22.17498],[-47.15869,-22.17487],[-47.15995,-22.17516],[-47.1633,-22.17654],[-47.16481,-22.17631],[-47.16612,-22.17702],[-47.16774,-22.17699],[-47.17038,-22.17811],[-47.1717,-22.17834],[-47.17245,-22.17888],[-47.17437,-22.1789],[-47.17555,-22.17924],[-47.1777,-22.17852],[-47.17817,-22.17809],[-47.18091,-22.17851],[-47.18368,-22.17735],[-47.18419,-22.17609],[-47.18488,-22.17544],[-47.18888,-22.1744],[-47.19054,-22.17294],[-47.19339,-22.17513],[-47.19588,-22.17796],[-47.19729,-22.18048],[-47.19832,-22.18302],[-47.19845,-22.18703],[-47.19917,-22.18981],[-47.20058,-22.19171],[-47.20321,-22.19801],[-47.20397,-22.19918],[-47.20413,-22.20217],[-47.20451,-22.20475],[-47.20591,-22.2037],[-47.20769,-22.20284],[-47.20967,-22.20222],[-47.21137,-22.20249],[-47.21637,-22.20444],[-47.21848,-22.20619],[-47.21968,-22.20812],[-47.22105,-22.20883],[-47.22288,-22.20911],[-47.22329,-22.20864],[-47.22324,-22.20731],[-47.2242,-22.20633],[-47.22444,-22.20881],[-47.2271,-22.20973],[-47.22879,-22.2126],[-47.22933,-22.21295],[-47.23281,-22.21208],[-47.23492,-22.21234],[-47.23724,-22.21386],[-47.23911,-22.21591],[-47.23975,-22.21725],[-47.24174,-22.21979],[-47.24214,-22.22086],[-47.24242,-22.22386],[-47.24216,-22.22675],[-47.24126,-22.23012],[-47.24035,-22.23117],[-47.2392,-22.23136],[-47.23637,-22.22176],[-47.23566,-22.2207],[-47.23354,-22.21977],[-47.23251,-22.21993],[-47.23122,-22.22083],[-47.22938,-22.22437],[-47.22864,-22.22635],[-47.2277,-22.2274],[-47.22175,-22.22933],[-47.21904,-22.22977],[-47.2186,-22.23123],[-47.22076,-22.23417],[-47.2225,-22.2358],[-47.2254,-22.23773],[-47.22745,-22.23855],[-47.22929,-22.24092],[-47.23008,-22.24291],[-47.23157,-22.24471],[-47.2317,-22.2479],[-47.23256,-22.24953],[-47.23262,-22.25046],[-47.2318,-22.25197],[-47.23093,-22.25291],[-47.2305,-22.25456],[-47.23066,-22.25531],[-47.23027,-22.25683],[-47.22951,-22.25751],[-47.22677,-22.25859],[-47.22567,-22.25935],[-47.22427,-22.26187],[-47.22295,-22.2631],[-47.2212,-22.26405],[-47.21746,-22.26525],[-47.21593,-22.26782],[-47.21382,-22.26992],[-47.21114,-22.27784],[-47.21017,-22.27943],[-47.20892,-22.28009],[-47.20643,-22.28009],[-47.20565,-22.28127],[-47.20424,-22.28158],[-47.20238,-22.28],[-47.20127,-22.27794],[-47.2002,-22.27806],[-47.20084,-22.2797],[-47.20024,-22.28074],[-47.19996,-22.28214],[-47.19871,-22.28265],[-47.19611,-22.28112],[-47.19305,-22.28112],[-47.193,-22.28009],[-47.19461,-22.27989],[-47.19551,-22.27877],[-47.19472,-22.27757],[-47.19299,-22.27698],[-47.19159,-22.27579],[-47.19172,-22.27447],[-47.19254,-22.27292],[-47.19222,-22.27221],[-47.19059,-22.27298],[-47.1897,-22.2726],[-47.18911,-22.27175],[-47.18822,-22.27134],[-47.18425,-22.27432],[-47.18427,-22.27537],[-47.1868,-22.27559],[-47.18742,-22.27597],[-47.18762,-22.277],[-47.18637,-22.27759],[-47.18491,-22.2774],[-47.1837,-22.27831],[-47.18333,-22.27917],[-47.18354,-22.28027],[-47.18423,-22.28066],[-47.18525,-22.27939],[-47.18647,-22.27906],[-47.18716,-22.27951],[-47.18722,-22.28047],[-47.18562,-22.28124],[-47.18471,-22.28204],[-47.1844,-22.2839],[-47.18528,-22.2866],[-47.18534,-22.28806],[-47.18429,-22.29202]]]},"properties":{"codigo":"353070615","name":"Martinho Prado Júnior","population":4384,"households":1963,"areaKm2":138.8127,"density":31.6}}]}