{"type":"FeatureCollection","features":[{"type":"Feature","geometry":{"type":"Polygon","coordinates":[[[-45.35563,-23.53988],[-45.35582,-23.53867],[-45.35504,-23.53786],[-45.35425,-23.53622],[-45.35432,-23.53492],[-45.35539,-23.53225],[-45.35541,-23.53019],[-45.35482,-23.52916],[-45.35377,-23.52882],[-45.35179,-23.52922],[-45.35057,-23.52872],[-45.35019,-23.52808],[-45.35056,-23.52694],[-45.35249,-23.52508],[-45.35283,-23.52402],[-45.35283,-23.52098],[-45.35319,-23.52021],[-45.35442,-23.51934],[-45.35611,-23.51894],[-45.35607,-23.51779],[-45.35354,-23.51448],[-45.35352,-23.51378],[-45.35447,-23.5132],[-45.35769,-23.51348],[-45.3614,-23.51209],[-45.36254,-23.51234],[-45.36582,-23.51387],[-45.36935,-23.51677],[-45.37134,-23.51785],[-45.3734,-23.51801],[-45.37532,-23.51784],[-45.38062,-23.51798],[-45.38244,-23.52133],[-45.38378,-23.52268],[-45.38521,-23.52311],[-45.38928,-23.52321],[-45.3944,-23.52288],[-45.39689,-23.52233],[-45.39921,-23.52207],[-45.40134,-23.52137],[-45.40362,-23.51956],[-45.4059,-23.51801],[-45.40798,-23.51708],[-45.40941,-23.51671],[-45.41161,-23.51709],[-45.41439,-23.51926],[-45.41662,-23.5201],[-45.41938,-23.52014],[-45.42399,-23.51905],[-45.42558,-23.51958],[-45.42648,-23.52066],[-45.43174,-23.5255],[-45.43374,-23.52669],[-45.43577,-23.52733],[-45.43742,-23.52891],[-45.43915,-23.52999],[-45.44058,-23.53194],[-45.44196,-23.53322],[-45.44325,-23.53338],[-45.44578,-23.53209],[-45.44689,-23.53066],[-45.44383,-23.52652],[-45.44225,-23.52374],[-45.44095,-23.51916],[-45.43938,-23.51706],[-45.43789,-23.51608],[-45.43479,-23.51462],[-45.43174,-23.51295],[-45.42788,-23.51041],[-45.4255,-23.50988],[-45.42331,-23.50843],[-45.42235,-23.50714],[-45.42128,-23.50468],[-45.41891,-23.50371],[-45.41724,-23.50258],[-45.41683,-23.50179],[-45.41631,-23.49938],[-45.41542,-23.49861],[-45.41121,-23.49792],[-45.41039,-23.49684],[-45.41015,-23.49175],[-45.40873,-23.49019],[-45.40848,-23.48581],[-45.40815,-23.48516],[-45.40684,-23.48492],[-45.40574,-23.48355],[-45.40445,-23.48278],[-45.40298,-23.48279],[-45.40055,-23.48124],[-45.40005,-23.48001],[-45.39909,-23.47926],[-45.39695,-23.47954],[-45.39611,-23.48074],[-45.39505,-23.48105],[-45.39412,-23.48215],[-45.39299,-23.48129],[-45.39186,-23.47848],[-45.39041,-23.47762],[-45.38963,-23.47785],[-45.38872,-23.47736],[-45.38825,-23.47552],[-45.38775,-23.47473],[-45.38661,-23.47417],[-45.3841,-23.47398],[-45.38287,-23.4734],[-45.38155,-23.47353],[-45.37795,-23.47206],[-45.37524,-23.47008],[-45.37375,-23.46829],[-45.37272,-23.46542],[-45.37275,-23.4624],[-45.37323,-23.46052],[-45.374,-23.45861],[-45.37389,-23.45776],[-45.37287,-23.45672],[-45.36827,-23.45444],[-45.36757,-23.45376],[-45.3676,-23.4528],[-45.36952,-23.45185],[-45.36913,-23.4504],[-45.3663,-23.44975],[-45.36501,-23.44866],[-45.36333,-23.44492],[-45.36239,-23.44148],[-45.36108,-23.44067],[-45.35582,-23.44116],[-45.35406,-23.44098],[-45.35317,-23.4406],[-45.34859,-23.43759],[-45.3466,-23.43648],[-45.34353,-23.43557],[-45.33697,-23.43433],[-45.33473,-23.43446],[-45.33241,-23.43493],[-45.33018,-23.43594],[-45.32769,-23.43759],[-45.32678,-23.43782],[-45.32538,-23.43703],[-45.32393,-23.43505],[-45.32265,-23.43506],[-45.32097,-23.43665],[-45.31858,-23.43777],[-45.31701,-23.43757],[-45.31466,-23.43479],[-45.31098,-23.4314],[-45.31012,-23.42995],[-45.31002,-23.42846],[-45.31102,-23.42578],[-45.31219,-23.42509],[-45.31704,-23.42471],[-45.31776,-23.42454],[-45.31851,-23.42341],[-45.31892,-23.42171],[-45.3194,-23.41818],[-45.32015,-23.41774],[-45.32256,-23.41725],[-45.32345,-23.41662],[-45.32362,-23.41507],[-45.32212,-23.41122],[-45.32025,-23.40838],[-45.31928,-23.40647],[-45.31806,-23.40548],[-45.31594,-23.40489],[-45.31421,-23.40405],[-45.3129,-23.403],[-45.31141,-23.40229],[-45.30979,-23.40204],[-45.30575,-23.40199],[-45.30216,-23.40143],[-45.29975,-23.40129],[-45.29804,-23.40177],[-45.29664,-23.40177],[-45.29584,-23.40107],[-45.29579,-23.39965],[-45.29834,-23.39786],[-45.29923,-23.39611],[-45.29847,-23.39403],[-45.29868,-23.3924],[-45.29817,-23.38981],[-45.2975,-23.38836],[-45.29708,-23.38623],[-45.29716,-23.38432],[-45.29679,-23.38296],[-45.29537,-23.38143],[-45.29476,-23.37955],[-45.29474,-23.37807],[-45.29538,-23.37322],[-45.29516,-23.3717],[-45.29419,-23.37048],[-45.29338,-23.37005],[-45.28937,-23.36891],[-45.28693,-23.36774],[-45.28428,-23.366],[-45.28256,-23.3657],[-45.27925,-23.36653],[-45.27729,-23.36686],[-45.2745,-23.36675],[-45.27229,-23.3674],[-45.27017,-23.3687],[-45.26929,-23.36987],[-45.2685,-23.36966],[-45.26749,-23.36722],[-45.2668,-23.36647],[-45.26603,-23.36661],[-45.26517,-23.36873],[-45.26353,-23.36984],[-45.26226,-23.37019],[-45.26108,-23.36917],[-45.26129,-23.36767],[-45.26099,-23.36658],[-45.2587,-23.36474],[-45.25829,-23.36311],[-45.2584,-23.35822],[-45.25713,-23.3563],[-45.25726,-23.35475],[-45.25867,-23.35167],[-45.25942,-23.35045],[-45.26128,-23.34967],[-45.26392,-23.34745],[-45.26379,-23.34595],[-45.26205,-23.34336],[-45.25991,-23.34135],[-45.25915,-23.3401],[-45.25876,-23.33645],[-45.25774,-23.33522],[-45.25724,-23.33376],[-45.25628,-23.33256],[-45.25468,-23.32876],[-45.25684,-23.3277],[-45.25857,-23.32763],[-45.26032,-23.32774],[-45.26484,-23.32856],[-45.26566,-23.32802],[-45.26436,-23.32424],[-45.26453,-23.32226],[-45.26427,-23.32073],[-45.26508,-23.31948],[-45.26664,-23.31924],[-45.26907,-23.3199],[-45.27076,-23.31973],[-45.27276,-23.31888],[-45.27378,-23.31874],[-45.27589,-23.31939],[-45.27756,-23.31948],[-45.28117,-23.3201],[-45.28226,-23.32078],[-45.28323,-23.32221],[-45.28399,-23.32251],[-45.29019,-23.32171],[-45.29147,-23.32209],[-45.29287,-23.32172],[-45.2942,-23.3223],[-45.29552,-23.32249],[-45.29832,-23.32449],[-45.29951,-23.3249],[-45.30167,-23.32618],[-45.30342,-23.32783],[-45.30515,-23.3313],[-45.30429,-23.33305],[-45.30507,-23.33426],[-45.30665,-23.33427],[-45.31028,-23.33318],[-45.31246,-23.33328],[-45.31327,-23.33251],[-45.31267,-23.33128],[-45.31286,-23.32947],[-45.31383,-23.32788],[-45.31419,-23.3265],[-45.31551,-23.32594],[-45.31827,-23.32627],[-45.32306,-23.32598],[-45.32571,-23.32637],[-45.32922,-23.32614],[-45.33075,-23.3255],[-45.33296,-23.32401],[-45.33578,-23.32348],[-45.3396,-23.32421],[-45.3412,-23.32494],[-45.34189,-23.32425],[-45.34139,-23.32218],[-45.33937,-23.31894],[-45.33811,-23.31849],[-45.33708,-23.31772],[-45.336,-23.31594],[-45.33511,-23.31547],[-45.3331,-23.31597],[-45.33236,-23.31531],[-45.33007,-23.30997],[-45.32874,-23.3058],[-45.32752,-23.30378],[-45.32718,-23.30265],[-45.32633,-23.30173],[-45.32464,-23.30116],[-45.32387,-23.2998],[-45.32399,-23.2982],[-45.32289,-23.29681],[-45.32106,-23.29657],[-45.32081,-23.29594],[-45.32237,-23.2941],[-45.32335,-23.29257],[-45.32465,-23.2923],[-45.32797,-23.29354],[-45.32971,-23.29465],[-45.33198,-23.29491],[-45.3335,-23.29532],[-45.33622,-23.29719],[-45.33924,-23.29809],[-45.341,-23.29956],[-45.34274,-23.30136],[-45.34488,-23.30182],[-45.34566,-23.30327],[-45.34658,-23.30363],[-45.34738,-23.30311],[-45.34834,-23.30316],[-45.34963,-23.30238],[-45.35311,-23.30194],[-45.35549,-23.30147],[-45.35708,-23.30032],[-45.35883,-23.30072],[-45.36025,-23.30053],[-45.3624,-23.29962],[-45.36287,-23.29849],[-45.36423,-23.29889],[-45.3652,-23.29993],[-45.3658,-23.30148],[-45.36688,-23.3019],[-45.36911,-23.30082],[-45.37008,-23.2999],[-45.37252,-23.30191],[-45.37321,-23.30167],[-45.37433,-23.29972],[-45.37472,-23.2984],[-45.37539,-23.29765],[-45.37767,-23.29392],[-45.37861,-23.29187],[-45.37952,-23.2908],[-45.38015,-23.28948],[-45.38097,-23.289],[-45.38252,-23.28822],[-45.38365,-23.28804],[-45.3866,-23.28629],[-45.387,-23.28534],[-45.3877,-23.2851],[-45.38938,-23.28579],[-45.3912,-23.28484],[-45.39248,-23.28353],[-45.39241,-23.28038],[-45.39276,-23.27978],[-45.39424,-23.27911],[-45.396,-23.27771],[-45.39794,-23.27692],[-45.40147,-23.27796],[-45.40376,-23.28057],[-45.40619,-23.28109],[-45.40709,-23.2805],[-45.40819,-23.28068],[-45.40966,-23.28019],[-45.41026,-23.28069],[-45.41158,-23.28052],[-45.41243,-23.28171],[-45.41283,-23.28353],[-45.41244,-23.28416],[-45.41113,-23.2848],[-45.40963,-23.28473],[-45.40949,-23.28658],[-45.40987,-23.28711],[-45.41158,-23.28724],[-45.41392,-23.28814],[-45.4156,-23.28753],[-45.41671,-23.28787],[-45.41707,-23.2888],[-45.4179,-23.28943],[-45.41903,-23.28959],[-45.42128,-23.29044],[-45.42171,-23.29148],[-45.42284,-23.2923],[-45.42446,-23.29265],[-45.42614,-23.29334],[-45.42835,-23.2929],[-45.4296,-23.29365],[-45.43067,-23.29381],[-45.43273,-23.29333],[-45.4334,-23.29421],[-45.43184,-23.29537],[-45.43049,-23.2954],[-45.43025,-23.2959],[-45.43132,-23.29688],[-45.43195,-23.2983],[-45.43199,-23.29942],[-45.43129,-23.30026],[-45.43188,-23.30213],[-45.43149,-23.303],[-45.43127,-23.30515],[-45.433,-23.30695],[-45.43461,-23.30772],[-45.43556,-23.30777],[-45.43642,-23.30711],[-45.43677,-23.30517],[-45.43855,-23.30414],[-45.43986,-23.3025],[-45.44009,-23.30153],[-45.44043,-23.29685],[-45.44193,-23.29537],[-45.44318,-23.29322],[-45.4449,-23.29254],[-45.44671,-23.2939],[-45.44863,-23.29462],[-45.44996,-23.29557],[-45.45245,-23.29633],[-45.45376,-23.29693],[-45.45531,-23.29857],[-45.45538,-23.29997],[-45.45486,-23.30032],[-45.45337,-23.29926],[-45.45273,-23.2996],[-45.45266,-23.3017],[-45.45293,-23.30327],[-45.45139,-23.30484],[-45.45103,-23.30725],[-45.4505,-23.30947],[-45.44916,-23.31115],[-45.44941,-23.31231],[-45.45185,-23.3126],[-45.45397,-23.30967],[-45.45481,-23.3089],[-45.45506,-23.30771],[-45.45708,-23.3065],[-45.45725,-23.30579],[-45.45667,-23.30473],[-45.45776,-23.30431],[-45.46208,-23.30546],[-45.46405,-23.30539],[-45.46452,-23.30445],[-45.46563,-23.30401],[-45.46796,-23.30504],[-45.46808,-23.3065],[-45.46703,-23.30736],[-45.46739,-23.3084],[-45.46741,-23.31022],[-45.46835,-23.31225],[-45.46751,-23.31373],[-45.46782,-23.31535],[-45.46705,-23.31639],[-45.46701,-23.31816],[-45.46646,-23.31916],[-45.46462,-23.32113],[-45.46361,-23.32185],[-45.4638,-23.3238],[-45.46308,-23.32471],[-45.46194,-23.32531],[-45.46179,-23.32623],[-45.46353,-23.32731],[-45.46407,-23.3286],[-45.4653,-23.32967],[-45.46747,-23.32919],[-45.46978,-23.32718],[-45.47129,-23.32631],[-45.47226,-23.32535],[-45.47324,-23.32345],[-45.47478,-23.32169],[-45.47579,-23.31904],[-45.4776,-23.31784],[-45.47953,-23.31572],[-45.48111,-23.31573],[-45.48191,-23.31639],[-45.48313,-23.31655],[-45.48471,-23.31604],[-45.48656,-23.31605],[-45.48875,-23.31663],[-45.48981,-23.3175],[-45.49112,-23.31747],[-45.49266,-23.31596],[-45.49391,-23.31582],[-45.49533,-23.31706],[-45.49574,-23.31855],[-45.49517,-23.31964],[-45.49499,-23.32089],[-45.49582,-23.32309],[-45.49607,-23.32496],[-45.4973,-23.32629],[-45.49968,-23.32611],[-45.50213,-23.32679],[-45.50363,-23.32442],[-45.50561,-23.32296],[-45.50652,-23.32204],[-45.50824,-23.32146],[-45.50855,-23.32104],[-45.50755,-23.31912],[-45.50772,-23.31689],[-45.50842,-23.31557],[-45.50958,-23.31644],[-45.51203,-23.31709],[-45.51288,-23.31784],[-45.51296,-23.31965],[-45.51374,-23.32241],[-45.51279,-23.32418],[-45.51353,-23.32529],[-45.51508,-23.32605],[-45.5164,-23.32626],[-45.51782,-23.32603],[-45.51869,-23.32657],[-45.51936,-23.32817],[-45.51941,-23.32911],[-45.51858,-23.33032],[-45.51695,-23.33112],[-45.51705,-23.33209],[-45.51905,-23.33357],[-45.52137,-23.33394],[-45.5226,-23.33361],[-45.52494,-23.33416],[-45.52703,-23.33338],[-45.5278,-23.33222],[-45.52751,-23.33098],[-45.52831,-23.33043],[-45.53026,-23.33078],[-45.53099,-23.33021],[-45.53202,-23.32833],[-45.53329,-23.32707],[-45.53414,-23.32682],[-45.53501,-23.32727],[-45.53636,-23.32903],[-45.53677,-23.33068],[-45.53904,-23.33248],[-45.53954,-23.3337],[-45.54141,-23.33521],[-45.54347,-23.33618],[-45.54643,-23.33804],[-45.54894,-23.33904],[-45.55002,-23.33892],[-45.55206,-23.3369],[-45.5543,-23.33508],[-45.5547,-23.33383],[-45.55564,-23.33303],[-45.55699,-23.3327],[-45.5594,-23.33361],[-45.56119,-23.33389],[-45.56166,-23.33365],[-45.5628,-23.33193],[-45.56351,-23.33146],[-45.56611,-23.33241],[-45.5677,-23.33372],[-45.56681,-23.33548],[-45.5678,-23.33623],[-45.56745,-23.33733],[-45.56601,-23.33891],[-45.56622,-23.34035],[-45.56533,-23.34167],[-45.56412,-23.34205],[-45.56434,-23.3436],[-45.56492,-23.3445],[-45.56702,-23.34476],[-45.56792,-23.34463],[-45.57006,-23.34355],[-45.57079,-23.34222],[-45.57166,-23.342],[-45.57464,-23.34235],[-45.57545,-23.34337],[-45.57511,-23.34537],[-45.5759,-23.34712],[-45.57684,-23.34817],[-45.57661,-23.34934],[-45.57539,-23.35104],[-45.57522,-23.35176],[-45.57712,-23.35383],[-45.57692,-23.35523],[-45.57758,-23.35731],[-45.57658,-23.35898],[-45.57667,-23.36005],[-45.57743,-23.36312],[-45.57734,-23.3647],[-45.57629,-23.36629],[-45.5735,-23.36831],[-45.57288,-23.36941],[-45.57101,-23.37032],[-45.56841,-23.37111],[-45.56676,-23.37092],[-45.5652,-23.36964],[-45.56442,-23.37001],[-45.56373,-23.37223],[-45.56067,-23.37265],[-45.5572,-23.37441],[-45.5554,-23.37394],[-45.55378,-23.37202],[-45.55151,-23.37205],[-45.55035,-23.37237],[-45.54929,-23.3722],[-45.54658,-23.37077],[-45.54522,-23.36927],[-45.54144,-23.36829],[-45.5391,-23.36615],[-45.53783,-23.36612],[-45.53701,-23.36754],[-45.53806,-23.37013],[-45.53758,-23.372],[-45.5377,-23.37301],[-45.53835,-23.37351],[-45.53908,-23.3756],[-45.54017,-23.37647],[-45.54077,-23.37797],[-45.54194,-23.37882],[-45.54352,-23.38138],[-45.5448,-23.38257],[-45.54551,-23.38361],[-45.54756,-23.38464],[-45.54924,-23.38868],[-45.54978,-23.39069],[-45.54913,-23.39282],[-45.54921,-23.39521],[-45.5497,-23.39632],[-45.55121,-23.39689],[-45.55296,-23.39832],[-45.55307,-23.40112],[-45.55474,-23.40198],[-45.5554,-23.40266],[-45.55645,-23.40266],[-45.55699,-23.40336],[-45.55715,-23.40477],[-45.55815,-23.4059],[-45.56491,-23.40648],[-45.5663,-23.40764],[-45.56695,-23.40905],[-45.56612,-23.41082],[-45.56471,-23.4116],[-45.56352,-23.41308],[-45.56217,-23.41382],[-45.56285,-23.41562],[-45.56311,-23.41931],[-45.56421,-23.4203],[-45.56489,-23.41974],[-45.56547,-23.41822],[-45.56704,-23.41784],[-45.56997,-23.41936],[-45.56924,-23.42024],[-45.5698,-23.42149],[-45.5691,-23.4222],[-45.56883,-23.42327],[-45.56727,-23.42451],[-45.5658,-23.4246],[-45.5638,-23.42678],[-45.56376,-23.4283],[-45.56339,-23.42953],[-45.56351,-23.43211],[-45.56309,-23.43284],[-45.56126,-23.43424],[-45.56084,-23.43511],[-45.56129,-23.43639],[-45.56204,-23.43721],[-45.56187,-23.43817],[-45.56095,-23.43888],[-45.56029,-23.44048],[-45.56192,-23.44246],[-45.56101,-23.44362],[-45.56009,-23.44368],[-45.55925,-23.44433],[-45.55904,-23.44658],[-45.55711,-23.44698],[-45.55604,-23.44986],[-45.55383,-23.45149],[-45.55271,-23.45273],[-45.55101,-23.45313],[-45.54981,-23.45292],[-45.54851,-23.45402],[-45.54786,-23.4538],[-45.54701,-23.45483],[-45.54595,-23.45398],[-45.54198,-23.45421],[-45.54069,-23.45372],[-45.53928,-23.45428],[-45.53833,-23.45288],[-45.53736,-23.45291],[-45.5368,-23.45359],[-45.53594,-23.45348],[-45.53404,-23.45512],[-45.53214,-23.45527],[-45.53105,-23.45465],[-45.52792,-23.45556],[-45.52693,-23.45682],[-45.52565,-23.45656],[-45.52529,-23.45746],[-45.52359,-23.45758],[-45.52316,-23.45867],[-45.52184,-23.45881],[-45.52233,-23.46037],[-45.52406,-23.4618],[-45.52476,-23.46617],[-45.52473,-23.46823],[-45.52277,-23.46937],[-45.52172,-23.46871],[-45.52153,-23.46991],[-45.52202,-23.4711],[-45.52174,-23.47309],[-45.52171,-23.47695],[-45.52265,-23.4777],[-45.52261,-23.47882],[-45.52029,-23.48035],[-45.52016,-23.48159],[-45.51912,-23.48171],[-45.51959,-23.48286],[-45.51714,-23.48345],[-45.51557,-23.48525],[-45.51387,-23.483],[-45.5123,-23.48274],[-45.51148,-23.48379],[-45.50958,-23.48404],[-45.50981,-23.48567],[-45.50909,-23.48714],[-45.50946,-23.48781],[-45.5094,-23.49014],[-45.50837,-23.49035],[-45.50796,-23.49424],[-45.50862,-23.49604],[-45.50853,-23.49698],[-45.50766,-23.49753],[-45.50758,-23.4985],[-45.50609,-23.49877],[-45.5061,-23.5002],[-45.50753,-23.50107],[-45.50756,-23.50199],[-45.50629,-23.50273],[-45.50571,-23.50519],[-45.5045,-23.50674],[-45.50071,-23.50752],[-45.49942,-23.50841],[-45.49912,-23.50952],[-45.49997,-23.51243],[-45.49985,-23.5144],[-45.49842,-23.51647],[-45.49789,-23.51787],[-45.49789,-23.5193],[-45.4985,-23.52093],[-45.49919,-23.52368],[-45.50078,-23.52714],[-45.5022,-23.52943],[-45.50397,-23.53161],[-45.50443,-23.53311],[-45.5034,-23.53505],[-45.50104,-23.53696],[-45.49984,-23.53851],[-45.49841,-23.53932],[-45.4961,-23.53969],[-45.49221,-23.53908],[-45.49071,-23.53898],[-45.4889,-23.53947],[-45.4881,-23.54017],[-45.48692,-23.54217],[-45.48593,-23.54542],[-45.48457,-23.54847],[-45.4833,-23.55034],[-45.48289,-23.55222],[-45.48364,-23.5538],[-45.48471,-23.55496],[-45.48492,-23.55619],[-45.48462,-23.55732],[-45.48299,-23.56025],[-45.48175,-23.56057],[-45.47904,-23.56047],[-45.4769,-23.56112],[-45.47459,-23.5615],[-45.47028,-23.56161],[-45.467,-23.56133],[-45.46407,-23.5621],[-45.46197,-23.56338],[-45.4607,-23.56458],[-45.45881,-23.56436],[-45.45675,-23.56347],[-45.4571,-23.56287],[-45.45639,-23.56195],[-45.45486,-23.56177],[-45.45339,-23.56077],[-45.45135,-23.56164],[-45.45151,-23.56335],[-45.45121,-23.56409],[-45.45008,-23.56487],[-45.45197,-23.56817],[-45.45311,-23.56912],[-45.45438,-23.56944],[-45.45481,-23.57055],[-45.45495,-23.57211],[-45.45667,-23.57318],[-45.45722,-23.5744],[-45.45726,-23.5771],[-45.4556,-23.57772],[-45.45484,-23.57751],[-45.45353,-23.57559],[-45.4516,-23.5737],[-45.45093,-23.57224],[-45.45097,-23.56972],[-45.45004,-23.56912],[-45.44714,-23.56946],[-45.44581,-23.56855],[-45.44615,-23.56677],[-45.44612,-23.56513],[-45.44649,-23.56344],[-45.44598,-23.56009],[-45.44464,-23.55868],[-45.4443,-23.55667],[-45.44391,-23.55606],[-45.44163,-23.55548],[-45.44098,-23.55434],[-45.43976,-23.55313],[-45.43688,-23.55343],[-45.43363,-23.55242],[-45.43172,-23.55302],[-45.43079,-23.55285],[-45.42844,-23.55143],[-45.42712,-23.55029],[-45.42628,-23.54907],[-45.42499,-23.5483],[-45.42406,-23.5487],[-45.4236,-23.54952],[-45.4237,-23.55122],[-45.42312,-23.55251],[-45.42156,-23.55387],[-45.4209,-23.55533],[-45.4213,-23.55698],[-45.42014,-23.55721],[-45.41836,-23.55691],[-45.41762,-23.55795],[-45.41648,-23.55854],[-45.41563,-23.55963],[-45.41475,-23.56007],[-45.41298,-23.56005],[-45.41115,-23.55931],[-45.40981,-23.5581],[-45.40764,-23.55776],[-45.40436,-23.55809],[-45.40224,-23.55811],[-45.39999,-23.55755],[-45.39781,-23.5561],[-45.39683,-23.5561],[-45.39459,-23.55666],[-45.39244,-23.55671],[-45.38971,-23.55571],[-45.38762,-23.5559],[-45.38551,-23.55569],[-45.38378,-23.555],[-45.38145,-23.55239],[-45.38038,-23.55171],[-45.37854,-23.5514],[-45.37788,-23.551],[-45.37745,-23.54962],[-45.3766,-23.54858],[-45.37569,-23.54839],[-45.37291,-23.54835],[-45.37212,-23.54808],[-45.37162,-23.54705],[-45.37203,-23.54436],[-45.37152,-23.54251],[-45.37038,-23.54192],[-45.3672,-23.54177],[-45.36637,-23.54194],[-45.36539,-23.54277],[-45.36461,-23.54455],[-45.36366,-23.54449],[-45.36264,-23.54172],[-45.36012,-23.5415],[-45.35763,-23.54034],[-45.35563,-23.53988]]]},"properties":{"codigo":"353230605","name":"Natividade da Serra","population":5493,"households":4443,"areaKm2":567.4059,"density":9.7}},{"type":"Feature","geometry":{"type":"Polygon","coordinates":[[[-45.27344,-23.48313],[-45.27025,-23.48297],[-45.26744,-23.48221],[-45.26588,-23.48149],[-45.26357,-23.47991],[-45.26239,-23.4785],[-45.26058,-23.47716],[-45.25751,-23.47596],[-45.25337,-23.47466],[-45.25182,-23.47365],[-45.25121,-23.47111],[-45.24969,-23.46972],[-45.2478,-23.4695],[-45.2456,-23.46863],[-45.24354,-23.46732],[-45.24226,-23.46516],[-45.24163,-23.46453],[-45.23955,-23.46367],[-45.23548,-23.46322],[-45.23378,-23.46211],[-45.23225,-23.46073],[-45.22977,-23.46031],[-45.22792,-23.4596],[-45.22516,-23.45778],[-45.22293,-23.4569],[-45.2215,-23.45552],[-45.22064,-23.45516],[-45.21787,-23.45498],[-45.21532,-23.45308],[-45.21359,-23.45458],[-45.21144,-23.45439],[-45.20945,-23.45379],[-45.20696,-23.4523],[-45.20581,-23.45202],[-45.20353,-23.45258],[-45.20163,-23.45231],[-45.2008,-23.45177],[-45.19915,-23.45012],[-45.19678,-23.44842],[-45.19511,-23.44794],[-45.19173,-23.44738],[-45.18808,-23.44521],[-45.18626,-23.44386],[-45.18001,-23.44199],[-45.1768,-23.44052],[-45.17588,-23.4398],[-45.17573,-23.43898],[-45.17632,-23.43575],[-45.17501,-23.43434],[-45.17456,-23.43283],[-45.17458,-23.4315],[-45.17524,-23.42843],[-45.17599,-23.42669],[-45.17805,-23.42614],[-45.17831,-23.42475],[-45.17761,-23.42395],[-45.17761,-23.42222],[-45.17727,-23.42122],[-45.17392,-23.41683],[-45.17313,-23.41542],[-45.17348,-23.41495],[-45.17591,-23.41486],[-45.17661,-23.41385],[-45.17455,-23.41308],[-45.1727,-23.41176],[-45.17074,-23.41065],[-45.17011,-23.41071],[-45.16909,-23.41188],[-45.16734,-23.41176],[-45.16655,-23.41135],[-45.16639,-23.41016],[-45.16806,-23.40766],[-45.16888,-23.4054],[-45.16867,-23.40286],[-45.16878,-23.40011],[-45.16968,-23.39769],[-45.17049,-23.39713],[-45.17298,-23.39655],[-45.17436,-23.39586],[-45.17504,-23.39517],[-45.17708,-23.39543],[-45.17942,-23.39476],[-45.18048,-23.3947],[-45.18159,-23.39511],[-45.18327,-23.39634],[-45.18429,-23.39673],[-45.18747,-23.39637],[-45.18849,-23.39596],[-45.19012,-23.39393],[-45.1917,-23.39258],[-45.19275,-23.39235],[-45.19455,-23.39257],[-45.196,-23.39333],[-45.19713,-23.39437],[-45.19912,-23.39479],[-45.20164,-23.39682],[-45.20369,-23.39696],[-45.20441,-23.39608],[-45.20469,-23.39266],[-45.20383,-23.38924],[-45.20325,-23.38777],[-45.20429,-23.38601],[-45.20449,-23.38395],[-45.20581,-23.3817],[-45.20567,-23.38116],[-45.20358,-23.38083],[-45.202,-23.3802],[-45.20033,-23.37889],[-45.19985,-23.37768],[-45.20018,-23.37498],[-45.2013,-23.37263],[-45.20052,-23.37058],[-45.19979,-23.36975],[-45.20022,-23.36769],[-45.20164,-23.36692],[-45.20397,-23.36489],[-45.20382,-23.36412],[-45.20241,-23.36228],[-45.20247,-23.36038],[-45.20167,-23.35897],[-45.20159,-23.35705],[-45.2019,-23.3554],[-45.2017,-23.35291],[-45.20024,-23.3501],[-45.19987,-23.34857],[-45.20011,-23.34694],[-45.19875,-23.34548],[-45.19812,-23.34365],[-45.19928,-23.34156],[-45.19882,-23.33985],[-45.19754,-23.33878],[-45.19728,-23.3362],[-45.19425,-23.33406],[-45.19353,-23.33223],[-45.19695,-23.32799],[-45.19678,-23.32558],[-45.19624,-23.32476],[-45.19283,-23.32136],[-45.19157,-23.31874],[-45.19109,-23.31485],[-45.19022,-23.31388],[-45.18847,-23.3138],[-45.18545,-23.31284],[-45.18261,-23.31069],[-45.18127,-23.30897],[-45.17991,-23.30807],[-45.178,-23.30741],[-45.17664,-23.30652],[-45.17325,-23.3023],[-45.17209,-23.29953],[-45.17188,-23.29757],[-45.17111,-23.29636],[-45.16809,-23.29486],[-45.16419,-23.29003],[-45.16151,-23.28814],[-45.16197,-23.28703],[-45.16438,-23.28727],[-45.16738,-23.2873],[-45.16926,-23.28754],[-45.17188,-23.28735],[-45.17462,-23.28787],[-45.17596,-23.28884],[-45.17948,-23.28994],[-45.18223,-23.2918],[-45.18515,-23.29323],[-45.18794,-23.29399],[-45.18881,-23.29456],[-45.18986,-23.29605],[-45.19193,-23.29477],[-45.1937,-23.29402],[-45.19483,-23.29419],[-45.19564,-23.29492],[-45.19735,-23.29551],[-45.19902,-23.29546],[-45.2028,-23.29469],[-45.20404,-23.29556],[-45.20393,-23.2977],[-45.20262,-23.29967],[-45.2028,-23.30078],[-45.20509,-23.30139],[-45.20566,-23.30288],[-45.20503,-23.30426],[-45.20353,-23.30565],[-45.20371,-23.30663],[-45.20548,-23.30689],[-45.20662,-23.3078],[-45.20884,-23.30896],[-45.21214,-23.31128],[-45.21392,-23.31355],[-45.21419,-23.31494],[-45.21384,-23.31667],[-45.21663,-23.31962],[-45.21871,-23.32138],[-45.21934,-23.32258],[-45.21999,-23.32504],[-45.22077,-23.32622],[-45.22242,-23.32715],[-45.22377,-23.32911],[-45.2266,-23.33177],[-45.22807,-23.33233],[-45.22962,-23.33214],[-45.23077,-23.33325],[-45.23092,-23.33121],[-45.23265,-23.32939],[-45.23547,-23.32935],[-45.23667,-23.32915],[-45.23771,-23.3283],[-45.23864,-23.32571],[-45.24005,-23.3247],[-45.24138,-23.32492],[-45.24348,-23.32698],[-45.24532,-23.32739],[-45.2467,-23.32712],[-45.2471,-23.32664],[-45.24726,-23.32435],[-45.24788,-23.32356],[-45.25042,-23.32216],[-45.25126,-23.3206],[-45.25143,-23.31883],[-45.25233,-23.31908],[-45.25294,-23.32078],[-45.25359,-23.32398],[-45.2536,-23.32528],[-45.25424,-23.32786],[-45.25468,-23.32876],[-45.25628,-23.33256],[-45.25724,-23.33376],[-45.25774,-23.33522],[-45.25876,-23.33645],[-45.25915,-23.3401],[-45.25991,-23.34135],[-45.26205,-23.34336],[-45.26379,-23.34595],[-45.26392,-23.34745],[-45.26128,-23.34967],[-45.25942,-23.35045],[-45.25867,-23.35167],[-45.25726,-23.35475],[-45.25713,-23.3563],[-45.2584,-23.35822],[-45.25829,-23.36311],[-45.2587,-23.36474],[-45.26099,-23.36658],[-45.26129,-23.36767],[-45.26108,-23.36917],[-45.26226,-23.37019],[-45.26353,-23.36984],[-45.26517,-23.36873],[-45.26603,-23.36661],[-45.2668,-23.36647],[-45.26749,-23.36722],[-45.2685,-23.36966],[-45.26929,-23.36987],[-45.27017,-23.3687],[-45.27229,-23.3674],[-45.2745,-23.36675],[-45.27729,-23.36686],[-45.27925,-23.36653],[-45.28256,-23.3657],[-45.28428,-23.366],[-45.28693,-23.36774],[-45.28937,-23.36891],[-45.29338,-23.37005],[-45.29419,-23.37048],[-45.29516,-23.3717],[-45.29538,-23.37322],[-45.29474,-23.37807],[-45.29476,-23.37955],[-45.29537,-23.38143],[-45.29679,-23.38296],[-45.29716,-23.38432],[-45.29708,-23.38623],[-45.2975,-23.38836],[-45.29817,-23.38981],[-45.29868,-23.3924],[-45.29847,-23.39403],[-45.29923,-23.39611],[-45.29834,-23.39786],[-45.29579,-23.39965],[-45.29584,-23.40107],[-45.29664,-23.40177],[-45.29804,-23.40177],[-45.29975,-23.40129],[-45.30216,-23.40143],[-45.30575,-23.40199],[-45.30979,-23.40204],[-45.31141,-23.40229],[-45.3129,-23.403],[-45.31421,-23.40405],[-45.31594,-23.40489],[-45.31806,-23.40548],[-45.31928,-23.40647],[-45.32025,-23.40838],[-45.32212,-23.41122],[-45.32362,-23.41507],[-45.32345,-23.41662],[-45.32256,-23.41725],[-45.32015,-23.41774],[-45.3194,-23.41818],[-45.31892,-23.42171],[-45.31851,-23.42341],[-45.31776,-23.42454],[-45.31704,-23.42471],[-45.31219,-23.42509],[-45.31102,-23.42578],[-45.31002,-23.42846],[-45.31012,-23.42995],[-45.31098,-23.4314],[-45.31466,-23.43479],[-45.31701,-23.43757],[-45.31858,-23.43777],[-45.32097,-23.43665],[-45.32265,-23.43506],[-45.32393,-23.43505],[-45.32538,-23.43703],[-45.32678,-23.43782],[-45.32769,-23.43759],[-45.33018,-23.43594],[-45.33241,-23.43493],[-45.33473,-23.43446],[-45.33697,-23.43433],[-45.34353,-23.43557],[-45.3466,-23.43648],[-45.34859,-23.43759],[-45.35317,-23.4406],[-45.35406,-23.44098],[-45.35582,-23.44116],[-45.36108,-23.44067],[-45.36239,-23.44148],[-45.36333,-23.44492],[-45.36501,-23.44866],[-45.3663,-23.44975],[-45.36913,-23.4504],[-45.36952,-23.45185],[-45.3676,-23.4528],[-45.36757,-23.45376],[-45.36827,-23.45444],[-45.37287,-23.45672],[-45.37389,-23.45776],[-45.374,-23.45861],[-45.37323,-23.46052],[-45.37275,-23.4624],[-45.37272,-23.46542],[-45.37375,-23.46829],[-45.37524,-23.47008],[-45.37795,-23.47206],[-45.38155,-23.47353],[-45.38287,-23.4734],[-45.3841,-23.47398],[-45.38661,-23.47417],[-45.38775,-23.47473],[-45.38825,-23.47552],[-45.38872,-23.47736],[-45.38963,-23.47785],[-45.39041,-23.47762],[-45.39186,-23.47848],[-45.39299,-23.48129],[-45.39412,-23.48215],[-45.39505,-23.48105],[-45.39611,-23.48074],[-45.39695,-23.47954],[-45.39909,-23.47926],[-45.40005,-23.48001],[-45.40055,-23.48124],[-45.40298,-23.48279],[-45.40445,-23.48278],[-45.40574,-23.48355],[-45.40684,-23.48492],[-45.40815,-23.48516],[-45.40848,-23.48581],[-45.40873,-23.49019],[-45.41015,-23.49175],[-45.41039,-23.49684],[-45.41121,-23.49792],[-45.41542,-23.49861],[-45.41631,-23.49938],[-45.41683,-23.50179],[-45.41724,-23.50258],[-45.41891,-23.50371],[-45.42128,-23.50468],[-45.42235,-23.50714],[-45.42331,-23.50843],[-45.4255,-23.50988],[-45.42788,-23.51041],[-45.43174,-23.51295],[-45.43479,-23.51462],[-45.43789,-23.51608],[-45.43938,-23.51706],[-45.44095,-23.51916],[-45.44225,-23.52374],[-45.44383,-23.52652],[-45.44689,-23.53066],[-45.44578,-23.53209],[-45.44325,-23.53338],[-45.44196,-23.53322],[-45.44058,-23.53194],[-45.43915,-23.52999],[-45.43742,-23.52891],[-45.43577,-23.52733],[-45.43374,-23.52669],[-45.43174,-23.5255],[-45.42648,-23.52066],[-45.42558,-23.51958],[-45.42399,-23.51905],[-45.41938,-23.52014],[-45.41662,-23.5201],[-45.41439,-23.51926],[-45.41161,-23.51709],[-45.40941,-23.51671],[-45.40798,-23.51708],[-45.4059,-23.51801],[-45.40362,-23.51956],[-45.40134,-23.52137],[-45.39921,-23.52207],[-45.39689,-23.52233],[-45.3944,-23.52288],[-45.38928,-23.52321],[-45.38521,-23.52311],[-45.38378,-23.52268],[-45.38244,-23.52133],[-45.38062,-23.51798],[-45.37532,-23.51784],[-45.3734,-23.51801],[-45.37134,-23.51785],[-45.36935,-23.51677],[-45.36582,-23.51387],[-45.36254,-23.51234],[-45.3614,-23.51209],[-45.35769,-23.51348],[-45.35447,-23.5132],[-45.35352,-23.51378],[-45.35354,-23.51448],[-45.35607,-23.51779],[-45.35611,-23.51894],[-45.35442,-23.51934],[-45.35319,-23.52021],[-45.35283,-23.52098],[-45.35283,-23.52402],[-45.35249,-23.52508],[-45.35056,-23.52694],[-45.35019,-23.52808],[-45.35057,-23.52872],[-45.35179,-23.52922],[-45.35377,-23.52882],[-45.35482,-23.52916],[-45.35541,-23.53019],[-45.35539,-23.53225],[-45.35432,-23.53492],[-45.35425,-23.53622],[-45.35504,-23.53786],[-45.35582,-23.53867],[-45.35563,-23.53988],[-45.35468,-23.54088],[-45.35411,-23.54257],[-45.35344,-23.5435],[-45.35153,-23.54495],[-45.35026,-23.54729],[-45.34895,-23.54788],[-45.34727,-23.54761],[-45.34508,-23.54765],[-45.3432,-23.54839],[-45.34223,-23.54808],[-45.34188,-23.54673],[-45.34275,-23.54007],[-45.34223,-23.53849],[-45.34124,-23.53725],[-45.33796,-23.53554],[-45.33584,-23.53343],[-45.33434,-23.53079],[-45.3331,-23.52991],[-45.33097,-23.53019],[-45.3284,-23.53152],[-45.32734,-23.53137],[-45.32645,-23.53018],[-45.32493,-23.52917],[-45.32416,-23.52788],[-45.32424,-23.52632],[-45.32369,-23.52345],[-45.32223,-23.52205],[-45.31926,-23.52085],[-45.31851,-23.51952],[-45.31962,-23.51769],[-45.32003,-23.51626],[-45.31854,-23.51525],[-45.31768,-23.51401],[-45.31721,-23.51039],[-45.31668,-23.5081],[-45.31555,-23.50611],[-45.31403,-23.5052],[-45.31132,-23.505],[-45.30923,-23.50515],[-45.30861,-23.50458],[-45.30883,-23.50371],[-45.31043,-23.50215],[-45.31076,-23.50094],[-45.31062,-23.49961],[-45.30969,-23.49806],[-45.307,-23.49602],[-45.30314,-23.49397],[-45.30044,-23.49283],[-45.29782,-23.49072],[-45.29563,-23.48957],[-45.29365,-23.48924],[-45.29236,-23.48857],[-45.29097,-23.48712],[-45.28888,-23.4854],[-45.28784,-23.48501],[-45.28502,-23.48504],[-45.28362,-23.48476],[-45.28186,-23.48507],[-45.27964,-23.4846],[-45.27803,-23.48331],[-45.27637,-23.48312],[-45.27344,-23.48313]]]},"properties":{"codigo":"353230610","name":"Bairro Alto","population":1506,"households":1711,"areaKm2":265.9661,"density":5.7}}]}