{"type":"FeatureCollection","features":[{"type":"Feature","geometry":{"type":"Polygon","coordinates":[[[-46.34999,-23.57351],[-46.34968,-23.5726],[-46.34845,-23.57143],[-46.3475,-23.56957],[-46.34743,-23.56866],[-46.34651,-23.5684],[-46.3453,-23.56613],[-46.34433,-23.56492],[-46.34433,-23.56396],[-46.34338,-23.56277],[-46.34301,-23.56155],[-46.34229,-23.56072],[-46.34256,-23.55917],[-46.34223,-23.558],[-46.34279,-23.55717],[-46.34227,-23.55545],[-46.3425,-23.5547],[-46.34186,-23.55383],[-46.34134,-23.55158],[-46.34105,-23.54868],[-46.34131,-23.54709],[-46.34015,-23.54572],[-46.33823,-23.545],[-46.33728,-23.54345],[-46.33547,-23.54191],[-46.33419,-23.54052],[-46.33277,-23.53946],[-46.33154,-23.53902],[-46.33124,-23.53792],[-46.33167,-23.53596],[-46.33152,-23.5342],[-46.33109,-23.5331],[-46.33127,-23.53186],[-46.32927,-23.52948],[-46.32918,-23.52856],[-46.32981,-23.5267],[-46.32852,-23.52278],[-46.32881,-23.52168],[-46.32994,-23.52024],[-46.32909,-23.51923],[-46.32876,-23.51763],[-46.32752,-23.51651],[-46.32517,-23.51585],[-46.32664,-23.5151],[-46.32657,-23.51449],[-46.32586,-23.51277],[-46.32442,-23.51209],[-46.32466,-23.51156],[-46.32792,-23.51052],[-46.3287,-23.50814],[-46.33007,-23.50644],[-46.32986,-23.5057],[-46.33671,-23.50625],[-46.33753,-23.50673],[-46.33973,-23.50724],[-46.34678,-23.50789],[-46.3484,-23.50791],[-46.35078,-23.50762],[-46.35212,-23.50608],[-46.35363,-23.50481],[-46.35667,-23.50706],[-46.35954,-23.50831],[-46.36296,-23.5103],[-46.36257,-23.51061],[-46.36181,-23.51261],[-46.36049,-23.51362],[-46.35907,-23.51393],[-46.35714,-23.51341],[-46.36032,-23.51839],[-46.36127,-23.51804],[-46.3648,-23.51543],[-46.3656,-23.5164],[-46.36689,-23.51685],[-46.36756,-23.51881],[-46.36826,-23.5196],[-46.36852,-23.52341],[-46.36835,-23.52475],[-46.36737,-23.52609],[-46.36695,-23.52719],[-46.36542,-23.52753],[-46.3642,-23.52743],[-46.36293,-23.52782],[-46.36081,-23.53073],[-46.35991,-23.53152],[-46.35775,-23.532],[-46.35642,-23.5329],[-46.35513,-23.53585],[-46.35416,-23.54353],[-46.35608,-23.54613],[-46.35709,-23.54892],[-46.35632,-23.54967],[-46.35675,-23.55068],[-46.35667,-23.55217],[-46.35585,-23.55288],[-46.35492,-23.55431],[-46.35463,-23.55531],[-46.35295,-23.55689],[-46.35376,-23.55872],[-46.35632,-23.56223],[-46.35656,-23.56316],[-46.35802,-23.56509],[-46.35772,-23.56594],[-46.35417,-23.56571],[-46.35299,-23.56738],[-46.35325,-23.56866],[-46.35283,-23.56972],[-46.35102,-23.57136],[-46.34999,-23.57351]]]},"properties":{"codigo":"353980605","name":"Poá","population":99009,"households":38214,"areaKm2":16.8185,"density":5886.9}},{"type":"Feature","geometry":{"type":"Polygon","coordinates":[[[-46.36689,-23.51685],[-46.3656,-23.5164],[-46.3648,-23.51543],[-46.36127,-23.51804],[-46.36032,-23.51839],[-46.35714,-23.51341],[-46.35907,-23.51393],[-46.36049,-23.51362],[-46.36181,-23.51261],[-46.36257,-23.51061],[-46.36296,-23.5103],[-46.3654,-23.5119],[-46.3664,-23.51216],[-46.3668,-23.51393],[-46.36653,-23.51485],[-46.36689,-23.51685]]]},"properties":{"codigo":"353980610","name":"Cidade Kemel","population":4756,"households":1898,"areaKm2":0.4452,"density":10683.2}}]}