{"type":"FeatureCollection","features":[{"type":"Feature","geometry":{"type":"Polygon","coordinates":[[[-51.35242,-22.32388],[-51.35139,-22.32467],[-51.35006,-22.32492],[-51.34833,-22.32584],[-51.34626,-22.32654],[-51.34505,-22.32757],[-51.34143,-22.32795],[-51.33955,-22.32725],[-51.33877,-22.32649],[-51.33663,-22.32558],[-51.33133,-22.32493],[-51.33011,-22.32578],[-51.32626,-22.32653],[-51.32454,-22.32774],[-51.32379,-22.32786],[-51.32294,-22.32721],[-51.32148,-22.32764],[-51.31882,-22.32718],[-51.31776,-22.3265],[-51.31636,-22.32681],[-51.31567,-22.32634],[-51.31322,-22.32682],[-51.31174,-22.3265],[-51.31119,-22.32678],[-51.30861,-22.32676],[-51.30774,-22.32706],[-51.30582,-22.32682],[-51.30498,-22.32762],[-51.30313,-22.32764],[-51.30204,-22.32798],[-51.3011,-22.32769],[-51.29928,-22.32835],[-51.29587,-22.32764],[-51.29384,-22.32771],[-51.29254,-22.3269],[-51.2903,-22.32645],[-51.2892,-22.32673],[-51.28757,-22.32646],[-51.28569,-22.32654],[-51.28417,-22.32608],[-51.28138,-22.32671],[-51.28028,-22.32793],[-51.27968,-22.32769],[-51.27863,-22.3284],[-51.27698,-22.32842],[-51.27551,-22.32776],[-51.27442,-22.32862],[-51.27276,-22.329],[-51.27125,-22.33032],[-51.26991,-22.33036],[-51.26889,-22.32996],[-51.2679,-22.33074],[-51.26717,-22.32941],[-51.26579,-22.32976],[-51.26504,-22.33076],[-51.26402,-22.33084],[-51.26251,-22.33145],[-51.26131,-22.33147],[-51.26081,-22.33213],[-51.25859,-22.33212],[-51.25719,-22.3316],[-51.25618,-22.33223],[-51.25578,-22.33317],[-51.2565,-22.33395],[-51.25616,-22.33504],[-51.25508,-22.33563],[-51.25464,-22.33639],[-51.25322,-22.33721],[-51.25327,-22.33831],[-51.25232,-22.33906],[-51.25104,-22.33927],[-51.25044,-22.33844],[-51.2494,-22.33896],[-51.24813,-22.33837],[-51.24784,-22.33915],[-51.24806,-22.34282],[-51.24701,-22.34338],[-51.24736,-22.34402],[-51.24684,-22.34501],[-51.24657,-22.34742],[-51.24449,-22.34779],[-51.24402,-22.34719],[-51.24254,-22.34707],[-51.24176,-22.34812],[-51.24278,-22.34921],[-51.24292,-22.3506],[-51.24166,-22.35137],[-51.24025,-22.35116],[-51.23909,-22.35036],[-51.23722,-22.34999],[-51.23632,-22.35011],[-51.23466,-22.35107],[-51.2333,-22.35097],[-51.23206,-22.35243],[-51.23056,-22.3534],[-51.22909,-22.35384],[-51.22664,-22.35399],[-51.22456,-22.3549],[-51.22352,-22.35505],[-51.22092,-22.3543],[-51.21947,-22.35508],[-51.21942,-22.35378],[-51.21741,-22.35133],[-51.21783,-22.34886],[-51.21825,-22.34849],[-51.21777,-22.34732],[-51.21809,-22.34603],[-51.21624,-22.34362],[-51.21601,-22.3429],[-51.21441,-22.34235],[-51.21422,-22.3399],[-51.21356,-22.33965],[-51.21384,-22.33847],[-51.2128,-22.33819],[-51.21203,-22.33711],[-51.21278,-22.33686],[-51.21261,-22.33514],[-51.21321,-22.33427],[-51.21267,-22.33254],[-51.21146,-22.33215],[-51.21089,-22.32882],[-51.21191,-22.32741],[-51.21172,-22.3256],[-51.21211,-22.32514],[-51.21125,-22.3239],[-51.21109,-22.32233],[-51.20946,-22.32133],[-51.20983,-22.3208],[-51.20926,-22.31992],[-51.20968,-22.31894],[-51.20911,-22.31791],[-51.20952,-22.31711],[-51.20903,-22.31592],[-51.20948,-22.31188],[-51.21116,-22.3108],[-51.21122,-22.30997],[-51.21196,-22.30857],[-51.21191,-22.30701],[-51.21218,-22.30574],[-51.2119,-22.30448],[-51.21234,-22.3033],[-51.21145,-22.30229],[-51.21122,-22.30105],[-51.21007,-22.30121],[-51.20913,-22.2998],[-51.20756,-22.29975],[-51.20605,-22.29933],[-51.20521,-22.29843],[-51.20544,-22.29631],[-51.20616,-22.29353],[-51.20748,-22.29305],[-51.20746,-22.29207],[-51.20816,-22.29116],[-51.20913,-22.2891],[-51.20895,-22.28797],[-51.20948,-22.28591],[-51.20914,-22.28545],[-51.20975,-22.28428],[-51.2096,-22.28232],[-51.20851,-22.28162],[-51.20841,-22.27967],[-51.20763,-22.27888],[-51.20654,-22.27858],[-51.20782,-22.27642],[-51.20799,-22.27468],[-51.20703,-22.27406],[-51.20617,-22.27272],[-51.20508,-22.27199],[-51.20572,-22.27125],[-51.2061,-22.26975],[-51.20523,-22.26874],[-51.20572,-22.26781],[-51.2067,-22.26757],[-51.20703,-22.26641],[-51.20837,-22.26523],[-51.20955,-22.26509],[-51.21106,-22.26409],[-51.21175,-22.26321],[-51.21326,-22.26254],[-51.21416,-22.26138],[-51.21452,-22.26017],[-51.21372,-22.25798],[-51.21439,-22.25694],[-51.21438,-22.25599],[-51.21559,-22.25522],[-51.21776,-22.25194],[-51.21827,-22.25052],[-51.21759,-22.24878],[-51.21766,-22.24745],[-51.21845,-22.24511],[-51.22017,-22.24385],[-51.22111,-22.24281],[-51.22174,-22.2411],[-51.2219,-22.2398],[-51.22151,-22.23816],[-51.22191,-22.23551],[-51.2234,-22.23254],[-51.22535,-22.23129],[-51.22616,-22.2302],[-51.2277,-22.22749],[-51.22968,-22.22302],[-51.23024,-22.22106],[-51.23179,-22.21925],[-51.23426,-22.21787],[-51.23518,-22.21702],[-51.23623,-22.21533],[-51.23817,-22.21349],[-51.23889,-22.21174],[-51.2405,-22.21049],[-51.24241,-22.20773],[-51.24379,-22.20664],[-51.24643,-22.20541],[-51.24791,-22.20558],[-51.24986,-22.20682],[-51.25212,-22.20795],[-51.25344,-22.20819],[-51.25553,-22.20911],[-51.25725,-22.20962],[-51.25905,-22.20928],[-51.26088,-22.20925],[-51.26212,-22.20884],[-51.26253,-22.20741],[-51.26453,-22.20714],[-51.26835,-22.20622],[-51.26895,-22.20652],[-51.27084,-22.20463],[-51.2726,-22.20103],[-51.275,-22.1988],[-51.27741,-22.19689],[-51.27871,-22.19622],[-51.28001,-22.19474],[-51.28321,-22.18951],[-51.28427,-22.18845],[-51.2849,-22.18719],[-51.28558,-22.18415],[-51.28688,-22.18017],[-51.28691,-22.1788],[-51.28559,-22.17584],[-51.28512,-22.17405],[-51.28493,-22.17122],[-51.28561,-22.1667],[-51.28625,-22.16389],[-51.28679,-22.16014],[-51.28813,-22.15901],[-51.29099,-22.15711],[-51.29204,-22.15517],[-51.29322,-22.15195],[-51.29425,-22.14971],[-51.29602,-22.14822],[-51.29733,-22.14645],[-51.29791,-22.14366],[-51.30134,-22.14163],[-51.30415,-22.14073],[-51.30535,-22.13988],[-51.30749,-22.13906],[-51.30868,-22.13777],[-51.30893,-22.13687],[-51.31015,-22.13573],[-51.31148,-22.13522],[-51.31371,-22.13225],[-51.31429,-22.13057],[-51.3157,-22.12936],[-51.31643,-22.13156],[-51.31781,-22.13493],[-51.31926,-22.13682],[-51.31995,-22.13835],[-51.3217,-22.13846],[-51.32277,-22.13935],[-51.32187,-22.14227],[-51.32282,-22.14438],[-51.32369,-22.14535],[-51.3228,-22.14722],[-51.32309,-22.14798],[-51.32505,-22.14999],[-51.3252,-22.15064],[-51.32483,-22.15253],[-51.32391,-22.15399],[-51.32365,-22.15495],[-51.32443,-22.15709],[-51.32402,-22.1594],[-51.32218,-22.16072],[-51.322,-22.16161],[-51.32246,-22.16318],[-51.32224,-22.1644],[-51.32145,-22.16537],[-51.32139,-22.16682],[-51.32069,-22.16762],[-51.32064,-22.16856],[-51.32174,-22.16981],[-51.32193,-22.17093],[-51.32331,-22.17351],[-51.32385,-22.17384],[-51.32493,-22.17567],[-51.32551,-22.17965],[-51.32519,-22.1817],[-51.32437,-22.18268],[-51.32246,-22.18381],[-51.32139,-22.18502],[-51.32165,-22.18632],[-51.32254,-22.18763],[-51.32167,-22.18991],[-51.322,-22.1916],[-51.3215,-22.19442],[-51.32265,-22.19684],[-51.32449,-22.19789],[-51.32467,-22.19921],[-51.32647,-22.2014],[-51.32905,-22.20312],[-51.33358,-22.20566],[-51.33488,-22.20685],[-51.33538,-22.20784],[-51.33572,-22.21003],[-51.33792,-22.21141],[-51.33723,-22.21328],[-51.3439,-22.21498],[-51.34425,-22.21667],[-51.34943,-22.224],[-51.34859,-22.22695],[-51.35018,-22.22836],[-51.35181,-22.2289],[-51.35627,-22.2278],[-51.35743,-22.22871],[-51.35842,-22.23053],[-51.36024,-22.23151],[-51.36135,-22.23291],[-51.36267,-22.23365],[-51.36564,-22.2341],[-51.36646,-22.23455],[-51.36857,-22.23677],[-51.37001,-22.24016],[-51.37012,-22.24241],[-51.36946,-22.24345],[-51.36934,-22.24477],[-51.36833,-22.24626],[-51.36664,-22.24732],[-51.36616,-22.24839],[-51.36576,-22.25102],[-51.36432,-22.25333],[-51.36019,-22.25702],[-51.35745,-22.25793],[-51.35647,-22.25795],[-51.3561,-22.25898],[-51.357,-22.26219],[-51.35635,-22.26433],[-51.35595,-22.26679],[-51.35642,-22.26795],[-51.35602,-22.2697],[-51.3554,-22.2705],[-51.35416,-22.27132],[-51.35389,-22.2724],[-51.35431,-22.27345],[-51.35663,-22.27605],[-51.35751,-22.27828],[-51.35718,-22.28029],[-51.35606,-22.28288],[-51.35568,-22.2846],[-51.35458,-22.28799],[-51.3534,-22.2911],[-51.35251,-22.29246],[-51.35061,-22.29382],[-51.34947,-22.29572],[-51.34757,-22.29799],[-51.34642,-22.30013],[-51.34707,-22.30401],[-51.34696,-22.30552],[-51.34739,-22.30714],[-51.34753,-22.30899],[-51.34934,-22.31026],[-51.35085,-22.3122],[-51.351,-22.31324],[-51.34965,-22.31539],[-51.35002,-22.31614],[-51.35187,-22.31759],[-51.3522,-22.31886],[-51.35108,-22.32071],[-51.35123,-22.32202],[-51.35242,-22.32388]]]},"properties":{"codigo":"354240405","name":"Regente Feijó","population":18780,"households":8143,"areaKm2":229.4201,"density":81.9}},{"type":"Feature","geometry":{"type":"Polygon","coordinates":[[[-51.37001,-22.24016],[-51.36857,-22.23677],[-51.36646,-22.23455],[-51.36564,-22.2341],[-51.36267,-22.23365],[-51.36135,-22.23291],[-51.36024,-22.23151],[-51.35842,-22.23053],[-51.35743,-22.22871],[-51.35627,-22.2278],[-51.35181,-22.2289],[-51.35018,-22.22836],[-51.34859,-22.22695],[-51.34943,-22.224],[-51.34425,-22.21667],[-51.3439,-22.21498],[-51.33723,-22.21328],[-51.33792,-22.21141],[-51.33572,-22.21003],[-51.33538,-22.20784],[-51.33488,-22.20685],[-51.33358,-22.20566],[-51.32905,-22.20312],[-51.32647,-22.2014],[-51.32467,-22.19921],[-51.32449,-22.19789],[-51.32265,-22.19684],[-51.3215,-22.19442],[-51.322,-22.1916],[-51.32167,-22.18991],[-51.32254,-22.18763],[-51.32165,-22.18632],[-51.32139,-22.18502],[-51.32246,-22.18381],[-51.32437,-22.18268],[-51.32519,-22.1817],[-51.32551,-22.17965],[-51.32493,-22.17567],[-51.32385,-22.17384],[-51.32331,-22.17351],[-51.32193,-22.17093],[-51.32174,-22.16981],[-51.32064,-22.16856],[-51.32069,-22.16762],[-51.32139,-22.16682],[-51.32145,-22.16537],[-51.32224,-22.1644],[-51.32246,-22.16318],[-51.322,-22.16161],[-51.32218,-22.16072],[-51.32402,-22.1594],[-51.32443,-22.15709],[-51.32365,-22.15495],[-51.32391,-22.15399],[-51.32483,-22.15253],[-51.32628,-22.15352],[-51.32793,-22.15535],[-51.3309,-22.1569],[-51.33179,-22.15679],[-51.33274,-22.15766],[-51.33368,-22.15916],[-51.3348,-22.16014],[-51.33743,-22.16093],[-51.33731,-22.16183],[-51.33884,-22.16243],[-51.33883,-22.16349],[-51.33943,-22.16447],[-51.339,-22.16536],[-51.33952,-22.16683],[-51.34067,-22.16778],[-51.3415,-22.16976],[-51.34146,-22.17038],[-51.34278,-22.1716],[-51.34317,-22.17245],[-51.34613,-22.17245],[-51.34717,-22.17211],[-51.34868,-22.17292],[-51.34986,-22.17289],[-51.35474,-22.17435],[-51.35595,-22.17517],[-51.35944,-22.17665],[-51.36108,-22.17862],[-51.36216,-22.18029],[-51.36283,-22.18186],[-51.36264,-22.18363],[-51.3615,-22.18501],[-51.36145,-22.1856],[-51.36397,-22.18621],[-51.36566,-22.18894],[-51.36723,-22.19112],[-51.36887,-22.19258],[-51.36889,-22.19373],[-51.36821,-22.19559],[-51.36964,-22.19662],[-51.37101,-22.1981],[-51.3743,-22.19873],[-51.37531,-22.19922],[-51.37562,-22.20045],[-51.37639,-22.20069],[-51.37865,-22.20024],[-51.37994,-22.20109],[-51.38222,-22.20204],[-51.38665,-22.2024],[-51.38764,-22.20152],[-51.38933,-22.20229],[-51.39141,-22.20213],[-51.39208,-22.20164],[-51.39364,-22.20189],[-51.39528,-22.20262],[-51.39593,-22.2025],[-51.39715,-22.2033],[-51.39927,-22.20347],[-51.39959,-22.20516],[-51.40041,-22.20593],[-51.40046,-22.2074],[-51.3996,-22.20899],[-51.39764,-22.21017],[-51.39613,-22.21025],[-51.39404,-22.21156],[-51.39409,-22.21236],[-51.39185,-22.21313],[-51.3913,-22.21443],[-51.39004,-22.21634],[-51.38833,-22.21715],[-51.38895,-22.21949],[-51.38809,-22.22105],[-51.38619,-22.22264],[-51.38653,-22.22393],[-51.38647,-22.22542],[-51.38495,-22.2261],[-51.38354,-22.22754],[-51.38121,-22.22917],[-51.38025,-22.23005],[-51.37922,-22.2303],[-51.37784,-22.23289],[-51.37709,-22.23293],[-51.37603,-22.23368],[-51.3722,-22.23708],[-51.37115,-22.23913],[-51.37001,-22.24016]]]},"properties":{"codigo":"354240410","name":"Espigão","population":1365,"households":716,"areaKm2":33.8597,"density":40.3}}]}