{"type":"FeatureCollection","features":[{"type":"Feature","geometry":{"type":"Polygon","coordinates":[[[-45.83664,-23.20144],[-45.8376,-23.20087],[-45.83864,-23.19943],[-45.83933,-23.19827],[-45.8399,-23.19773],[-45.83995,-23.19707],[-45.84118,-23.1955],[-45.84167,-23.19523],[-45.84237,-23.19437],[-45.843,-23.19443],[-45.84437,-23.19259],[-45.84558,-23.19161],[-45.84591,-23.19101],[-45.84638,-23.18861],[-45.84689,-23.18728],[-45.84716,-23.18608],[-45.84717,-23.18547],[-45.84274,-23.18511],[-45.83831,-23.18482],[-45.8372,-23.18484],[-45.82879,-23.18423],[-45.8274,-23.18401],[-45.82574,-23.18361],[-45.82473,-23.18311],[-45.82105,-23.18149],[-45.8141,-23.17826],[-45.81176,-23.17734],[-45.81211,-23.17606],[-45.8124,-23.17347],[-45.81265,-23.17291],[-45.81469,-23.17336],[-45.81727,-23.17407],[-45.81754,-23.17405],[-45.81868,-23.17165],[-45.81883,-23.17106],[-45.81979,-23.16939],[-45.82113,-23.17007],[-45.83321,-23.17605],[-45.84803,-23.1835],[-45.85195,-23.18549],[-45.86404,-23.19148],[-45.86056,-23.19754],[-45.85918,-23.1987],[-45.85727,-23.19953],[-45.85605,-23.19997],[-45.85452,-23.20089],[-45.85154,-23.20401],[-45.84872,-23.20601],[-45.84756,-23.20744],[-45.84688,-23.20861],[-45.83639,-23.20232],[-45.83664,-23.20144]]]},"properties":{"codigo":"3549904011","name":"Setor Socioeconômico 08","population":14260,"households":5546,"areaKm2":6.7951,"density":2098.6}},{"type":"Feature","geometry":{"type":"Polygon","coordinates":[[[-45.88374,-23.20438],[-45.88276,-23.20547],[-45.88263,-23.20635],[-45.88208,-23.20715],[-45.88213,-23.2079],[-45.88275,-23.20787],[-45.88449,-23.20877],[-45.88373,-23.20995],[-45.88309,-23.21332],[-45.88336,-23.2137],[-45.88282,-23.21469],[-45.88141,-23.21655],[-45.87901,-23.21933],[-45.87487,-23.22423],[-45.87267,-23.22717],[-45.87108,-23.22903],[-45.86957,-23.2311],[-45.86909,-23.23243],[-45.86834,-23.23672],[-45.8682,-23.23775],[-45.86742,-23.24188],[-45.8668,-23.24342],[-45.86622,-23.24404],[-45.86366,-23.24594],[-45.86309,-23.24647],[-45.8617,-23.24717],[-45.86028,-23.24752],[-45.85611,-23.24887],[-45.85469,-23.24911],[-45.85266,-23.24924],[-45.85131,-23.24902],[-45.84614,-23.24603],[-45.84536,-23.24562],[-45.84452,-23.24541],[-45.84377,-23.2455],[-45.84522,-23.2443],[-45.84552,-23.24193],[-45.84593,-23.24039],[-45.84782,-23.23932],[-45.84854,-23.23833],[-45.84898,-23.23571],[-45.84947,-23.23489],[-45.85035,-23.23458],[-45.85236,-23.23489],[-45.85322,-23.23375],[-45.85349,-23.23314],[-45.85379,-23.23143],[-45.85436,-23.22988],[-45.85574,-23.22834],[-45.85599,-23.22746],[-45.85572,-23.22684],[-45.85511,-23.22636],[-45.85414,-23.22596],[-45.85335,-23.22596],[-45.85292,-23.22528],[-45.85358,-23.22367],[-45.85365,-23.22183],[-45.8538,-23.2214],[-45.85414,-23.22112],[-45.85519,-23.22073],[-45.85425,-23.21915],[-45.8542,-23.21813],[-45.85449,-23.21751],[-45.85609,-23.21564],[-45.85717,-23.21356],[-45.85703,-23.21062],[-45.85717,-23.20986],[-45.85759,-23.20899],[-45.85898,-23.20732],[-45.86096,-23.20524],[-45.8615,-23.20295],[-45.86223,-23.20184],[-45.86354,-23.2006],[-45.86411,-23.19988],[-45.86541,-23.19706],[-45.86636,-23.19582],[-45.86795,-23.19443],[-45.86852,-23.19371],[-45.86872,-23.19371],[-45.87278,-23.19575],[-45.8741,-23.19649],[-45.87731,-23.19848],[-45.87866,-23.19964],[-45.88146,-23.20222],[-45.88369,-23.20433],[-45.88374,-23.20438]]]},"properties":{"codigo":"3549904013","name":"Setor Socioeconômico 10","population":2560,"households":881,"areaKm2":12.1482,"density":210.7}},{"type":"Feature","geometry":{"type":"Polygon","coordinates":[[[-45.83664,-23.20144],[-45.83419,-23.20224],[-45.83351,-23.20224],[-45.83281,-23.20247],[-45.83017,-23.20263],[-45.82959,-23.2032],[-45.82841,-23.20289],[-45.82572,-23.20274],[-45.82525,-23.20251],[-45.82414,-23.20277],[-45.82384,-23.20263],[-45.82238,-23.20337],[-45.82133,-23.20426],[-45.82035,-23.20473],[-45.81986,-23.20612],[-45.81918,-23.20711],[-45.81863,-23.20767],[-45.81755,-23.20794],[-45.81704,-23.20846],[-45.81636,-23.20872],[-45.81594,-23.20919],[-45.81495,-23.20963],[-45.81724,-23.2123],[-45.81376,-23.21697],[-45.81333,-23.21816],[-45.81272,-23.21876],[-45.81216,-23.21884],[-45.80844,-23.21637],[-45.80554,-23.21434],[-45.80462,-23.2136],[-45.80271,-23.21506],[-45.80101,-23.21627],[-45.79796,-23.21859],[-45.79516,-23.22077],[-45.79468,-23.22135],[-45.79379,-23.22283],[-45.79244,-23.22274],[-45.79,-23.22193],[-45.78944,-23.22154],[-45.78826,-23.22134],[-45.78665,-23.21991],[-45.78583,-23.21958],[-45.78487,-23.21953],[-45.78399,-23.21992],[-45.78344,-23.22036],[-45.78252,-23.22056],[-45.78356,-23.21953],[-45.78455,-23.21802],[-45.78484,-23.21716],[-45.78587,-23.21584],[-45.78642,-23.21544],[-45.78743,-23.21429],[-45.78788,-23.21344],[-45.7897,-23.21109],[-45.79047,-23.20972],[-45.79084,-23.20851],[-45.79047,-23.20788],[-45.7894,-23.20725],[-45.78805,-23.20616],[-45.78759,-23.20476],[-45.78953,-23.20487],[-45.79466,-23.20538],[-45.7998,-23.20577],[-45.80143,-23.20558],[-45.80466,-23.20532],[-45.80475,-23.20431],[-45.80541,-23.20222],[-45.80526,-23.20046],[-45.80555,-23.19966],[-45.80542,-23.19864],[-45.80596,-23.19683],[-45.8069,-23.19574],[-45.80757,-23.19351],[-45.80764,-23.19217],[-45.80743,-23.19143],[-45.8067,-23.1901],[-45.80654,-23.18851],[-45.80502,-23.18586],[-45.80433,-23.18454],[-45.8042,-23.18265],[-45.80446,-23.17964],[-45.80422,-23.17765],[-45.80497,-23.17671],[-45.8059,-23.1753],[-45.80625,-23.17454],[-45.79981,-23.17165],[-45.79395,-23.16894],[-45.77962,-23.16146],[-45.78275,-23.15923],[-45.7839,-23.15785],[-45.7869,-23.15399],[-45.78753,-23.15313],[-45.79805,-23.15844],[-45.81135,-23.16513],[-45.81943,-23.1692],[-45.81979,-23.16939],[-45.81883,-23.17106],[-45.81868,-23.17165],[-45.81754,-23.17405],[-45.81727,-23.17407],[-45.81469,-23.17336],[-45.81265,-23.17291],[-45.8124,-23.17347],[-45.81211,-23.17606],[-45.81176,-23.17734],[-45.8141,-23.17826],[-45.82105,-23.18149],[-45.82473,-23.18311],[-45.82574,-23.18361],[-45.8274,-23.18401],[-45.82879,-23.18423],[-45.8372,-23.18484],[-45.83831,-23.18482],[-45.84274,-23.18511],[-45.84717,-23.18547],[-45.84716,-23.18608],[-45.84689,-23.18728],[-45.84638,-23.18861],[-45.84591,-23.19101],[-45.84558,-23.19161],[-45.84437,-23.19259],[-45.843,-23.19443],[-45.84237,-23.19437],[-45.84167,-23.19523],[-45.84118,-23.1955],[-45.83995,-23.19707],[-45.8399,-23.19773],[-45.83933,-23.19827],[-45.83864,-23.19943],[-45.8376,-23.20087],[-45.83664,-23.20144]]]},"properties":{"codigo":"3549904010","name":"Setor Socioeconômico 07","population":32782,"households":12511,"areaKm2":17.9889,"density":1822.3}},{"type":"Feature","geometry":{"type":"Polygon","coordinates":[[[-45.93152,-23.16222],[-45.93274,-23.1614],[-45.93374,-23.16112],[-45.93438,-23.16125],[-45.93534,-23.16087],[-45.93595,-23.16032],[-45.93711,-23.16047],[-45.93854,-23.16099],[-45.93941,-23.16145],[-45.94108,-23.16172],[-45.94396,-23.16159],[-45.9446,-23.16147],[-45.94541,-23.16164],[-45.94615,-23.16152],[-45.94903,-23.16174],[-45.9499,-23.16198],[-45.95104,-23.16249],[-45.95246,-23.16226],[-45.95353,-23.16154],[-45.95447,-23.16157],[-45.95504,-23.16177],[-45.95709,-23.16173],[-45.95766,-23.16202],[-45.95878,-23.16179],[-45.95947,-23.16242],[-45.95998,-23.16238],[-45.9618,-23.1627],[-45.96293,-23.16432],[-45.96414,-23.16525],[-45.96541,-23.16646],[-45.96572,-23.16699],[-45.96625,-23.16725],[-45.96733,-23.16739],[-45.96827,-23.16813],[-45.9689,-23.16889],[-45.97031,-23.17],[-45.97075,-23.17078],[-45.97127,-23.17117],[-45.97217,-23.17221],[-45.97241,-23.17292],[-45.97308,-23.17332],[-45.97366,-23.17445],[-45.97427,-23.17503],[-45.97466,-23.17584],[-45.97609,-23.1767],[-45.97691,-23.17744],[-45.97784,-23.17754],[-45.97813,-23.17826],[-45.97865,-23.17886],[-45.97891,-23.17947],[-45.97952,-23.17985],[-45.98077,-23.17983],[-45.98198,-23.17997],[-45.9821,-23.18039],[-45.98157,-23.18128],[-45.98213,-23.18201],[-45.98305,-23.182],[-45.9833,-23.18179],[-45.98422,-23.1804],[-45.98551,-23.17997],[-45.98621,-23.18035],[-45.9871,-23.18055],[-45.98812,-23.18193],[-45.98868,-23.18217],[-45.98933,-23.18303],[-45.98999,-23.18326],[-45.99054,-23.18267],[-45.99106,-23.18284],[-45.9914,-23.18358],[-45.99179,-23.18389],[-45.99388,-23.18346],[-45.99486,-23.18394],[-45.99576,-23.18385],[-45.99676,-23.18342],[-45.99823,-23.18364],[-45.99819,-23.18672],[-45.99762,-23.18644],[-45.99739,-23.18697],[-45.99741,-23.18773],[-45.99693,-23.1883],[-45.99612,-23.18848],[-45.99577,-23.18891],[-45.9956,-23.18993],[-45.99511,-23.1909],[-45.99502,-23.19197],[-45.99439,-23.19206],[-45.99376,-23.19154],[-45.99366,-23.19074],[-45.99437,-23.18998],[-45.99388,-23.18956],[-45.99274,-23.18958],[-45.99195,-23.18986],[-45.9914,-23.19079],[-45.99163,-23.19157],[-45.99208,-23.19239],[-45.99181,-23.19294],[-45.99135,-23.19307],[-45.98971,-23.19397],[-45.98842,-23.19436],[-45.98673,-23.19509],[-45.98495,-23.19623],[-45.98408,-23.19693],[-45.9831,-23.19793],[-45.98183,-23.19951],[-45.98148,-23.20013],[-45.98121,-23.20167],[-45.964,-23.18748],[-45.96088,-23.18458],[-45.94753,-23.17248],[-45.94562,-23.17094],[-45.94479,-23.17051],[-45.94249,-23.16973],[-45.94101,-23.16952],[-45.93901,-23.16958],[-45.93412,-23.17052],[-45.93392,-23.16915],[-45.93367,-23.16843],[-45.93306,-23.16791],[-45.93326,-23.16691],[-45.93306,-23.16584],[-45.93271,-23.16515],[-45.93252,-23.16407],[-45.93227,-23.16324],[-45.93152,-23.16222]]]},"properties":{"codigo":"3549904002","name":"Setor Socioeconômico 01A","population":342,"households":146,"areaKm2":11.1202,"density":30.8}},{"type":"Feature","geometry":{"type":"Polygon","coordinates":[[[-45.88369,-23.20433],[-45.88461,-23.2035],[-45.88517,-23.20228],[-45.88576,-23.20004],[-45.88586,-23.1994],[-45.88615,-23.1977],[-45.88615,-23.19693],[-45.88564,-23.19448],[-45.88737,-23.19409],[-45.8883,-23.19398],[-45.8888,-23.19243],[-45.88946,-23.19177],[-45.88988,-23.19209],[-45.89237,-23.19208],[-45.89354,-23.19267],[-45.89397,-23.19301],[-45.89409,-23.19423],[-45.89469,-23.19362],[-45.89717,-23.19583],[-45.89982,-23.19858],[-45.89837,-23.19909],[-45.89784,-23.19893],[-45.89544,-23.19974],[-45.89691,-23.20338],[-45.8977,-23.20368],[-45.89868,-23.20473],[-45.89828,-23.20505],[-45.89893,-23.20573],[-45.89932,-23.20542],[-45.90102,-23.20725],[-45.90098,-23.2078],[-45.89989,-23.20864],[-45.89902,-23.20873],[-45.89806,-23.2093],[-45.8977,-23.21028],[-45.89312,-23.21122],[-45.89255,-23.21143],[-45.89178,-23.21203],[-45.89014,-23.21053],[-45.88521,-23.20573],[-45.88374,-23.20438],[-45.88369,-23.20433]]]},"properties":{"codigo":"3549904024","name":"Setor Socioeconômico 20","population":18671,"households":9793,"areaKm2":2.3671,"density":7887.6}},{"type":"Feature","geometry":{"type":"Polygon","coordinates":[[[-45.89171,-23.17415],[-45.89352,-23.17396],[-45.89421,-23.17368],[-45.89457,-23.17258],[-45.89405,-23.17043],[-45.8938,-23.16902],[-45.89379,-23.16811],[-45.89421,-23.16663],[-45.89459,-23.16604],[-45.89535,-23.16557],[-45.89604,-23.16774],[-45.89579,-23.16915],[-45.89737,-23.16954],[-45.90149,-23.17026],[-45.90329,-23.1709],[-45.90363,-23.17092],[-45.90448,-23.17014],[-45.90514,-23.17011],[-45.90756,-23.16675],[-45.90796,-23.16729],[-45.90848,-23.16859],[-45.90882,-23.16985],[-45.90962,-23.17114],[-45.91071,-23.17216],[-45.91263,-23.17346],[-45.91348,-23.1745],[-45.91074,-23.17501],[-45.9093,-23.17517],[-45.90748,-23.1752],[-45.89508,-23.17438],[-45.89171,-23.17415]]]},"properties":{"codigo":"3549904004","name":"Setor Socioeconômico 02A","population":167,"households":73,"areaKm2":1.0857,"density":153.8}},{"type":"Feature","geometry":{"type":"Polygon","coordinates":[[[-45.81979,-23.16939],[-45.81943,-23.1692],[-45.82006,-23.16565],[-45.82055,-23.16381],[-45.82195,-23.15737],[-45.82564,-23.15917],[-45.83322,-23.16279],[-45.83611,-23.16414],[-45.84003,-23.16605],[-45.84243,-23.16717],[-45.84644,-23.16913],[-45.84872,-23.17018],[-45.85496,-23.17316],[-45.856,-23.17307],[-45.85855,-23.1727],[-45.85958,-23.17276],[-45.8604,-23.17303],[-45.86224,-23.17464],[-45.86247,-23.17509],[-45.86267,-23.17622],[-45.86421,-23.17631],[-45.86569,-23.17624],[-45.8687,-23.17575],[-45.86819,-23.17613],[-45.86722,-23.17784],[-45.86682,-23.17939],[-45.86576,-23.17932],[-45.86565,-23.18078],[-45.86541,-23.18152],[-45.86591,-23.18172],[-45.86638,-23.18106],[-45.86702,-23.18075],[-45.86665,-23.1842],[-45.86537,-23.18617],[-45.86424,-23.18734],[-45.86294,-23.18991],[-45.86426,-23.19117],[-45.86404,-23.19148],[-45.85195,-23.18549],[-45.84803,-23.1835],[-45.83321,-23.17605],[-45.82113,-23.17007],[-45.81979,-23.16939]]]},"properties":{"codigo":"3549904008","name":"Setor Socioeconômico 05","population":39506,"households":16614,"areaKm2":7.1011,"density":5563.3}},{"type":"Feature","geometry":{"type":"Polygon","coordinates":[[[-45.86309,-23.24647],[-45.86186,-23.24803],[-45.86186,-23.25005],[-45.86218,-23.25045],[-45.86372,-23.25108],[-45.86535,-23.25131],[-45.8652,-23.25211],[-45.86507,-23.25385],[-45.8655,-23.25409],[-45.86751,-23.25436],[-45.86868,-23.25487],[-45.86933,-23.25528],[-45.87008,-23.25433],[-45.87072,-23.25279],[-45.8711,-23.25225],[-45.87102,-23.25191],[-45.87151,-23.2514],[-45.87149,-23.25076],[-45.87241,-23.25032],[-45.87227,-23.24974],[-45.87294,-23.24967],[-45.87352,-23.2493],[-45.87346,-23.24856],[-45.87409,-23.24873],[-45.87425,-23.24795],[-45.87516,-23.24759],[-45.87562,-23.24704],[-45.87618,-23.24695],[-45.87671,-23.24725],[-45.87908,-23.24697],[-45.8807,-23.24743],[-45.88182,-23.24745],[-45.88216,-23.24811],[-45.88224,-23.24941],[-45.88292,-23.25061],[-45.883,-23.25139],[-45.88211,-23.25307],[-45.88254,-23.2536],[-45.88219,-23.256],[-45.8808,-23.25665],[-45.87991,-23.25688],[-45.87861,-23.25977],[-45.8814,-23.26082],[-45.88211,-23.26147],[-45.88381,-23.2635],[-45.88351,-23.26542],[-45.88167,-23.26504],[-45.88147,-23.26552],[-45.88216,-23.26597],[-45.88203,-23.26663],[-45.88147,-23.26726],[-45.88219,-23.26797],[-45.8824,-23.26871],[-45.88399,-23.26817],[-45.88442,-23.26828],[-45.88443,-23.26966],[-45.88482,-23.2748],[-45.88166,-23.27586],[-45.88065,-23.27592],[-45.87548,-23.27597],[-45.87474,-23.27559],[-45.87325,-23.27526],[-45.87231,-23.27448],[-45.87023,-23.2746],[-45.86777,-23.2739],[-45.86862,-23.27513],[-45.86747,-23.27672],[-45.86443,-23.2749],[-45.86278,-23.27733],[-45.86161,-23.27746],[-45.86153,-23.27861],[-45.86088,-23.2793],[-45.85903,-23.27898],[-45.8582,-23.2777],[-45.85746,-23.27819],[-45.85677,-23.27574],[-45.85678,-23.27541],[-45.85555,-23.27257],[-45.85851,-23.2702],[-45.8602,-23.26899],[-45.85973,-23.26836],[-45.85889,-23.26789],[-45.85801,-23.26775],[-45.85734,-23.26833],[-45.85683,-23.26841],[-45.8566,-23.26906],[-45.85559,-23.2694],[-45.85458,-23.27],[-45.85471,-23.27047],[-45.85439,-23.27099],[-45.85308,-23.27164],[-45.8519,-23.27287],[-45.85114,-23.27338],[-45.84991,-23.27482],[-45.8492,-23.27531],[-45.84924,-23.27562],[-45.85003,-23.27692],[-45.8496,-23.27718],[-45.84958,-23.27772],[-45.84572,-23.27737],[-45.84335,-23.27699],[-45.84041,-23.27633],[-45.83892,-23.27586],[-45.83663,-23.27491],[-45.83457,-23.27366],[-45.83146,-23.27168],[-45.82812,-23.26974],[-45.82598,-23.26891],[-45.8206,-23.26719],[-45.8248,-23.26451],[-45.83127,-23.26046],[-45.8351,-23.25779],[-45.83885,-23.25508],[-45.84001,-23.25439],[-45.84284,-23.2534],[-45.8497,-23.25117],[-45.86086,-23.24752],[-45.8617,-23.24717],[-45.86309,-23.24647]]]},"properties":{"codigo":"3549904014","name":"Setor Socioeconômico 11","population":13866,"households":4886,"areaKm2":14.3546,"density":966}},{"type":"Feature","geometry":{"type":"Polygon","coordinates":[[[-45.89354,-23.19267],[-45.89419,-23.19251],[-45.8946,-23.19153],[-45.89559,-23.19165],[-45.90027,-23.1918],[-45.90251,-23.19171],[-45.90339,-23.19182],[-45.90429,-23.19224],[-45.90711,-23.19439],[-45.90862,-23.19539],[-45.91001,-23.19383],[-45.91042,-23.19323],[-45.91044,-23.19218],[-45.90917,-23.1882],[-45.90914,-23.18491],[-45.91061,-23.1849],[-45.91085,-23.18588],[-45.91139,-23.18643],[-45.91218,-23.18652],[-45.91311,-23.18632],[-45.91369,-23.18589],[-45.91408,-23.18517],[-45.91453,-23.18339],[-45.91487,-23.18308],[-45.91671,-23.1824],[-45.91751,-23.18243],[-45.91814,-23.18283],[-45.9185,-23.18347],[-45.91825,-23.18406],[-45.91885,-23.18411],[-45.92023,-23.18479],[-45.92096,-23.18502],[-45.92226,-23.1858],[-45.92323,-23.18672],[-45.92478,-23.18754],[-45.92692,-23.18843],[-45.92895,-23.1892],[-45.92943,-23.18952],[-45.93029,-23.19044],[-45.9303,-23.19129],[-45.92986,-23.19309],[-45.92994,-23.19395],[-45.93053,-23.19653],[-45.93081,-23.19697],[-45.93288,-23.19758],[-45.93341,-23.19823],[-45.93368,-23.19914],[-45.93385,-23.20028],[-45.93433,-23.20103],[-45.93569,-23.20168],[-45.93657,-23.20165],[-45.93736,-23.20183],[-45.93788,-23.20246],[-45.93785,-23.20399],[-45.93801,-23.20473],[-45.93419,-23.20708],[-45.93319,-23.2057],[-45.93031,-23.2025],[-45.92941,-23.19998],[-45.92643,-23.19949],[-45.92733,-23.19736],[-45.92861,-23.19694],[-45.92914,-23.19592],[-45.92857,-23.19546],[-45.92809,-23.19451],[-45.92756,-23.19409],[-45.92416,-23.19234],[-45.92328,-23.19228],[-45.92243,-23.19266],[-45.92122,-23.19375],[-45.91756,-23.1968],[-45.91539,-23.19847],[-45.91478,-23.19876],[-45.9135,-23.19842],[-45.91056,-23.20103],[-45.9065,-23.20489],[-45.9046,-23.20732],[-45.90366,-23.20824],[-45.90221,-23.20912],[-45.90072,-23.20964],[-45.8977,-23.21028],[-45.89806,-23.2093],[-45.89902,-23.20873],[-45.89989,-23.20864],[-45.90098,-23.2078],[-45.90102,-23.20725],[-45.89932,-23.20542],[-45.89893,-23.20573],[-45.89828,-23.20505],[-45.89868,-23.20473],[-45.8977,-23.20368],[-45.89691,-23.20338],[-45.89544,-23.19974],[-45.89784,-23.19893],[-45.89837,-23.19909],[-45.89982,-23.19858],[-45.89717,-23.19583],[-45.89469,-23.19362],[-45.89409,-23.19423],[-45.89397,-23.19301],[-45.89354,-23.19267]]]},"properties":{"codigo":"3549904027","name":"Setor Socioeconômico 26","population":16856,"households":7423,"areaKm2":4.9795,"density":3385.1}},{"type":"Feature","geometry":{"type":"Polygon","coordinates":[[[-45.91287,-23.23141],[-45.91289,-23.23075],[-45.91191,-23.22517],[-45.91129,-23.22192],[-45.91319,-23.22107],[-45.91646,-23.21946],[-45.91725,-23.21756],[-45.9178,-23.21668],[-45.91847,-23.2173],[-45.91867,-23.21708],[-45.91982,-23.2177],[-45.92151,-23.21948],[-45.92217,-23.2222],[-45.92261,-23.22287],[-45.92348,-23.22364],[-45.92497,-23.22465],[-45.92618,-23.22593],[-45.92682,-23.22646],[-45.92818,-23.2269],[-45.92871,-23.22753],[-45.92886,-23.22823],[-45.92827,-23.2302],[-45.92818,-23.23096],[-45.9283,-23.23186],[-45.92861,-23.23267],[-45.92922,-23.23339],[-45.93106,-23.23586],[-45.93219,-23.23672],[-45.93241,-23.23707],[-45.93186,-23.23775],[-45.9324,-23.23805],[-45.93336,-23.23851],[-45.93402,-23.23905],[-45.93744,-23.24301],[-45.9388,-23.24597],[-45.9397,-23.24678],[-45.94264,-23.24835],[-45.94274,-23.24771],[-45.94757,-23.25032],[-45.94909,-23.25107],[-45.95017,-23.25193],[-45.95063,-23.25283],[-45.95085,-23.2542],[-45.95072,-23.25428],[-45.95106,-23.25711],[-45.94998,-23.2575],[-45.94779,-23.25802],[-45.94399,-23.25563],[-45.93465,-23.2496],[-45.92783,-23.24522],[-45.92539,-23.24333],[-45.92335,-23.24149],[-45.92032,-23.23862],[-45.91427,-23.23298],[-45.91286,-23.2317],[-45.91287,-23.23141]]]},"properties":{"codigo":"3549904020","name":"Setor Socioeconômico 17","population":23647,"households":9649,"areaKm2":5.2768,"density":4481.3}},{"type":"Feature","geometry":{"type":"Polygon","coordinates":[[[-45.94779,-23.25802],[-45.94717,-23.25837],[-45.94606,-23.25848],[-45.94498,-23.25891],[-45.94126,-23.25991],[-45.93995,-23.25992],[-45.9389,-23.25909],[-45.93765,-23.25866],[-45.9361,-23.25826],[-45.9352,-23.25815],[-45.9339,-23.25705],[-45.93348,-23.25692],[-45.93055,-23.25711],[-45.929,-23.25783],[-45.92784,-23.25889],[-45.92718,-23.25997],[-45.9253,-23.26129],[-45.92466,-23.26161],[-45.92297,-23.26193],[-45.92221,-23.26231],[-45.92121,-23.26308],[-45.921,-23.2639],[-45.92065,-23.26452],[-45.91986,-23.26529],[-45.91901,-23.26658],[-45.91728,-23.26874],[-45.91675,-23.27019],[-45.91624,-23.27116],[-45.91552,-23.2734],[-45.9153,-23.27369],[-45.91415,-23.27308],[-45.91285,-23.27146],[-45.91262,-23.27051],[-45.91293,-23.26684],[-45.9128,-23.26603],[-45.91208,-23.26369],[-45.91167,-23.26233],[-45.91047,-23.25762],[-45.90794,-23.24807],[-45.908,-23.24727],[-45.90729,-23.24466],[-45.90671,-23.24223],[-45.90553,-23.23964],[-45.90172,-23.23171],[-45.90115,-23.23047],[-45.90114,-23.22811],[-45.90098,-23.22811],[-45.90094,-23.22635],[-45.90096,-23.22061],[-45.90541,-23.22473],[-45.90559,-23.22468],[-45.91287,-23.23141],[-45.91286,-23.2317],[-45.91427,-23.23298],[-45.92032,-23.23862],[-45.92335,-23.24149],[-45.92539,-23.24333],[-45.92783,-23.24522],[-45.93465,-23.2496],[-45.94399,-23.25563],[-45.94779,-23.25802]]]},"properties":{"codigo":"3549904019","name":"Setor Socioeconômico 16","population":38549,"households":16382,"areaKm2":8.8165,"density":4372.4}},{"type":"Feature","geometry":{"type":"MultiPolygon","coordinates":[[[[-45.93252,-23.16407],[-45.9316,-23.16418],[-45.93006,-23.16412],[-45.9294,-23.16422],[-45.92863,-23.1646],[-45.92796,-23.16466],[-45.92721,-23.16438],[-45.92557,-23.16468],[-45.92512,-23.16519],[-45.92459,-23.16539],[-45.92353,-23.16505],[-45.92326,-23.16556],[-45.92344,-23.16626],[-45.92321,-23.16675],[-45.92248,-23.16696],[-45.92208,-23.16666],[-45.92208,-23.16608],[-45.92137,-23.16577],[-45.92083,-23.1666],[-45.9209,-23.16702],[-45.92148,-23.16749],[-45.92134,-23.16815],[-45.91954,-23.16805],[-45.91836,-23.16809],[-45.91757,-23.16774],[-45.91648,-23.16814],[-45.91575,-23.16797],[-45.91526,-23.16807],[-45.91397,-23.16898],[-45.91394,-23.16997],[-45.91468,-23.17128],[-45.9148,-23.1718],[-45.91462,-23.17269],[-45.91472,-23.17357],[-45.91436,-23.17394],[-45.91263,-23.17346],[-45.91071,-23.17216],[-45.90962,-23.17114],[-45.90882,-23.16985],[-45.90848,-23.16859],[-45.90796,-23.16729],[-45.90756,-23.16675],[-45.90669,-23.16596],[-45.90614,-23.16489],[-45.90503,-23.1637],[-45.9036,-23.16283],[-45.90267,-23.16172],[-45.90276,-23.16076],[-45.90194,-23.15751],[-45.90147,-23.15668],[-45.89999,-23.155],[-45.89899,-23.15422],[-45.89773,-23.15378],[-45.89613,-23.15393],[-45.89496,-23.15421],[-45.89233,-23.15469],[-45.89086,-23.15487],[-45.89321,-23.15174],[-45.89373,-23.15197],[-45.89451,-23.15195],[-45.8949,-23.15169],[-45.89533,-23.15064],[-45.89663,-23.15028],[-45.89764,-23.15015],[-45.89823,-23.1498],[-45.8984,-23.14913],[-45.8991,-23.14876],[-45.90021,-23.14744],[-45.90083,-23.14592],[-45.90156,-23.14469],[-45.9024,-23.14348],[-45.90262,-23.14269],[-45.90183,-23.1405],[-45.90217,-23.13944],[-45.90205,-23.13829],[-45.90219,-23.13783],[-45.90202,-23.13713],[-45.9027,-23.13523],[-45.90328,-23.13452],[-45.90398,-23.134],[-45.90451,-23.13263],[-45.90533,-23.13162],[-45.90543,-23.12999],[-45.90497,-23.12921],[-45.90502,-23.12878],[-45.91353,-23.13352],[-45.91602,-23.13458],[-45.91711,-23.13464],[-45.91924,-23.13462],[-45.92085,-23.1342],[-45.92124,-23.13481],[-45.92133,-23.13982],[-45.92144,-23.14194],[-45.92223,-23.14137],[-45.9236,-23.14169],[-45.92465,-23.14079],[-45.92525,-23.14085],[-45.92544,-23.14052],[-45.92607,-23.14088],[-45.92504,-23.14247],[-45.92383,-23.14295],[-45.92393,-23.14363],[-45.92355,-23.14391],[-45.92346,-23.14488],[-45.92378,-23.14636],[-45.9234,-23.14664],[-45.92243,-23.14678],[-45.92144,-23.14714],[-45.92176,-23.14769],[-45.92236,-23.14814],[-45.92313,-23.14756],[-45.92406,-23.14734],[-45.92529,-23.14794],[-45.92546,-23.14855],[-45.9245,-23.1498],[-45.92534,-23.1504],[-45.92516,-23.15097],[-45.92431,-23.15127],[-45.92341,-23.15119],[-45.92206,-23.15267],[-45.92081,-23.153],[-45.92035,-23.15361],[-45.91993,-23.15379],[-45.91812,-23.15182],[-45.91802,-23.15332],[-45.91842,-23.15331],[-45.91926,-23.15422],[-45.91815,-23.15478],[-45.91753,-23.15589],[-45.91738,-23.15656],[-45.91601,-23.15798],[-45.91678,-23.15841],[-45.91802,-23.1599],[-45.91939,-23.16065],[-45.92142,-23.16092],[-45.92317,-23.16098],[-45.92403,-23.16091],[-45.92535,-23.16026],[-45.92639,-23.16042],[-45.92845,-23.16157],[-45.92925,-23.16218],[-45.92992,-23.16233],[-45.93104,-23.16236],[-45.93152,-23.16222],[-45.93227,-23.16324],[-45.93252,-23.16407]]],[[[-45.91811,-23.11216],[-45.91889,-23.11215],[-45.91873,-23.11129],[-45.91929,-23.11067],[-45.92071,-23.11135],[-45.92364,-23.11265],[-45.92323,-23.11356],[-45.92319,-23.11518],[-45.92216,-23.11498],[-45.92008,-23.11438],[-45.91919,-23.11588],[-45.91743,-23.11563],[-45.91622,-23.11475],[-45.91585,-23.11417],[-45.91645,-23.11404],[-45.91753,-23.11327],[-45.91811,-23.11216]]],[[[-45.9125,-23.11491],[-45.91188,-23.11366],[-45.91127,-23.11212],[-45.91167,-23.10908],[-45.91239,-23.10933],[-45.91315,-23.10988],[-45.91322,-23.11028],[-45.91289,-23.11091],[-45.91309,-23.11184],[-45.91358,-23.11224],[-45.91248,-23.11317],[-45.91288,-23.11383],[-45.91287,-23.11437],[-45.9125,-23.11491]]]]},"properties":{"codigo":"3549904001","name":"Setor Socioeconômico 01","population":40909,"households":15260,"areaKm2":9.0475,"density":4521.6}},{"type":"Feature","geometry":{"type":"Polygon","coordinates":[[[-45.87618,-23.24695],[-45.87684,-23.24604],[-45.87728,-23.24507],[-45.87763,-23.24372],[-45.87745,-23.24317],[-45.87697,-23.24268],[-45.87686,-23.24205],[-45.877,-23.2395],[-45.87677,-23.2389],[-45.87687,-23.2382],[-45.87642,-23.23709],[-45.87718,-23.23707],[-45.8781,-23.2366],[-45.87978,-23.23662],[-45.88025,-23.23709],[-45.88065,-23.23707],[-45.88054,-23.2354],[-45.88514,-23.23517],[-45.89112,-23.23481],[-45.89244,-23.23566],[-45.89341,-23.23617],[-45.89334,-23.23677],[-45.89358,-23.23759],[-45.89322,-23.23912],[-45.89269,-23.23951],[-45.89235,-23.24031],[-45.89199,-23.24172],[-45.8921,-23.24202],[-45.89162,-23.24315],[-45.89128,-23.24355],[-45.8907,-23.24478],[-45.89024,-23.2462],[-45.89035,-23.24679],[-45.88988,-23.24753],[-45.8896,-23.24989],[-45.89057,-23.25152],[-45.89134,-23.25133],[-45.89397,-23.25367],[-45.89457,-23.25461],[-45.89586,-23.25901],[-45.89599,-23.25992],[-45.89514,-23.26128],[-45.89466,-23.26097],[-45.89432,-23.26206],[-45.89408,-23.26221],[-45.89303,-23.26156],[-45.89195,-23.26303],[-45.89171,-23.26402],[-45.89069,-23.2647],[-45.88963,-23.2659],[-45.88876,-23.26662],[-45.88813,-23.26785],[-45.88822,-23.26848],[-45.88794,-23.26925],[-45.88811,-23.2696],[-45.88812,-23.27056],[-45.88704,-23.2712],[-45.88689,-23.26926],[-45.88616,-23.26887],[-45.88442,-23.26828],[-45.88399,-23.26817],[-45.8824,-23.26871],[-45.88219,-23.26797],[-45.88147,-23.26726],[-45.88203,-23.26663],[-45.88216,-23.26597],[-45.88147,-23.26552],[-45.88167,-23.26504],[-45.88351,-23.26542],[-45.88381,-23.2635],[-45.88211,-23.26147],[-45.8814,-23.26082],[-45.87861,-23.25977],[-45.87991,-23.25688],[-45.8808,-23.25665],[-45.88219,-23.256],[-45.88254,-23.2536],[-45.88211,-23.25307],[-45.883,-23.25139],[-45.88292,-23.25061],[-45.88224,-23.24941],[-45.88216,-23.24811],[-45.88182,-23.24745],[-45.8807,-23.24743],[-45.87908,-23.24697],[-45.87671,-23.24725],[-45.87618,-23.24695]]]},"properties":{"codigo":"3549904016","name":"Setor Socioeconômico 13","population":33184,"households":13193,"areaKm2":4.5588,"density":7279.1}},{"type":"Feature","geometry":{"type":"Polygon","coordinates":[[[-45.88374,-23.20438],[-45.88521,-23.20573],[-45.89014,-23.21053],[-45.89178,-23.21203],[-45.88403,-23.21914],[-45.87933,-23.22352],[-45.87856,-23.22457],[-45.87817,-23.22545],[-45.87789,-23.2269],[-45.87779,-23.22844],[-45.87753,-23.22956],[-45.87634,-23.23074],[-45.87611,-23.23203],[-45.87589,-23.23249],[-45.87512,-23.23306],[-45.87564,-23.23419],[-45.8756,-23.23468],[-45.87498,-23.23549],[-45.87482,-23.23661],[-45.87542,-23.23716],[-45.87642,-23.23709],[-45.87687,-23.2382],[-45.87677,-23.2389],[-45.877,-23.2395],[-45.87686,-23.24205],[-45.87697,-23.24268],[-45.87745,-23.24317],[-45.87763,-23.24372],[-45.87728,-23.24507],[-45.87684,-23.24604],[-45.87618,-23.24695],[-45.87562,-23.24704],[-45.87516,-23.24759],[-45.87425,-23.24795],[-45.87409,-23.24873],[-45.87346,-23.24856],[-45.87352,-23.2493],[-45.87294,-23.24967],[-45.87227,-23.24974],[-45.87241,-23.25032],[-45.87149,-23.25076],[-45.87151,-23.2514],[-45.87102,-23.25191],[-45.8711,-23.25225],[-45.87072,-23.25279],[-45.87008,-23.25433],[-45.86933,-23.25528],[-45.86868,-23.25487],[-45.86751,-23.25436],[-45.8655,-23.25409],[-45.86507,-23.25385],[-45.8652,-23.25211],[-45.86535,-23.25131],[-45.86372,-23.25108],[-45.86218,-23.25045],[-45.86186,-23.25005],[-45.86186,-23.24803],[-45.86309,-23.24647],[-45.86366,-23.24594],[-45.86622,-23.24404],[-45.8668,-23.24342],[-45.86742,-23.24188],[-45.8682,-23.23775],[-45.86834,-23.23672],[-45.86909,-23.23243],[-45.86957,-23.2311],[-45.87108,-23.22903],[-45.87267,-23.22717],[-45.87487,-23.22423],[-45.87901,-23.21933],[-45.88141,-23.21655],[-45.88282,-23.21469],[-45.88336,-23.2137],[-45.88309,-23.21332],[-45.88373,-23.20995],[-45.88449,-23.20877],[-45.88275,-23.20787],[-45.88213,-23.2079],[-45.88208,-23.20715],[-45.88263,-23.20635],[-45.88276,-23.20547],[-45.88374,-23.20438]]]},"properties":{"codigo":"3549904029","name":"Setor Socioeconômico 28","population":5447,"households":2214,"areaKm2":3.9129,"density":1392}},{"type":"Feature","geometry":{"type":"Polygon","coordinates":[[[-45.88586,-23.1994],[-45.88548,-23.19906],[-45.88517,-23.19831],[-45.8845,-23.19613],[-45.8843,-23.19517],[-45.88352,-23.19215],[-45.88135,-23.18884],[-45.88068,-23.18819],[-45.87871,-23.18702],[-45.87818,-23.18645],[-45.87759,-23.18464],[-45.87718,-23.18165],[-45.87688,-23.18044],[-45.87577,-23.17793],[-45.87481,-23.17648],[-45.87309,-23.17765],[-45.87229,-23.17784],[-45.8704,-23.17926],[-45.86961,-23.17957],[-45.86682,-23.17939],[-45.86722,-23.17784],[-45.86819,-23.17613],[-45.8687,-23.17575],[-45.8743,-23.17486],[-45.87563,-23.1746],[-45.87557,-23.1738],[-45.87714,-23.17287],[-45.87767,-23.17184],[-45.87849,-23.17286],[-45.88082,-23.17116],[-45.88128,-23.17149],[-45.88118,-23.1735],[-45.88295,-23.17357],[-45.89171,-23.17415],[-45.89508,-23.17438],[-45.89455,-23.17513],[-45.89354,-23.17562],[-45.89277,-23.17657],[-45.89207,-23.17678],[-45.89113,-23.17675],[-45.89117,-23.17736],[-45.89088,-23.17807],[-45.89093,-23.17864],[-45.88975,-23.1797],[-45.88902,-23.18084],[-45.8887,-23.18205],[-45.88861,-23.18402],[-45.88899,-23.18653],[-45.8894,-23.18739],[-45.89046,-23.1886],[-45.8928,-23.19073],[-45.89322,-23.19103],[-45.8946,-23.19153],[-45.89419,-23.19251],[-45.89354,-23.19267],[-45.89237,-23.19208],[-45.88988,-23.19209],[-45.88946,-23.19177],[-45.8888,-23.19243],[-45.8883,-23.19398],[-45.88737,-23.19409],[-45.88564,-23.19448],[-45.88615,-23.19693],[-45.88615,-23.1977],[-45.88586,-23.1994]]]},"properties":{"codigo":"3549904005","name":"Setor Socioeconômico 03","population":15544,"households":7908,"areaKm2":3.1792,"density":4889.3}},{"type":"Feature","geometry":{"type":"Polygon","coordinates":[[[-45.9324,-23.23805],[-45.93327,-23.23748],[-45.9338,-23.23668],[-45.93465,-23.23581],[-45.93606,-23.23479],[-45.93832,-23.23232],[-45.94052,-23.23451],[-45.94178,-23.23597],[-45.94311,-23.23696],[-45.94388,-23.23566],[-45.94843,-23.2383],[-45.94871,-23.23857],[-45.95157,-23.24338],[-45.95153,-23.24358],[-45.9501,-23.24519],[-45.95018,-23.24581],[-45.94921,-23.24701],[-45.95053,-23.24897],[-45.95116,-23.25011],[-45.95216,-23.25246],[-45.95318,-23.25386],[-45.95376,-23.25415],[-45.95483,-23.25394],[-45.95403,-23.25593],[-45.9526,-23.25732],[-45.9519,-23.25737],[-45.95106,-23.25711],[-45.95072,-23.25428],[-45.95085,-23.2542],[-45.95063,-23.25283],[-45.95017,-23.25193],[-45.94909,-23.25107],[-45.94757,-23.25032],[-45.94274,-23.24771],[-45.94264,-23.24835],[-45.9397,-23.24678],[-45.9388,-23.24597],[-45.93744,-23.24301],[-45.93402,-23.23905],[-45.93336,-23.23851],[-45.9324,-23.23805]]]},"properties":{"codigo":"3549904021","name":"Setor Socioeconômico 17A","population":839,"households":357,"areaKm2":2.2363,"density":375.2}},{"type":"Feature","geometry":{"type":"Polygon","coordinates":[[[-45.88442,-23.26828],[-45.88616,-23.26887],[-45.88689,-23.26926],[-45.88704,-23.2712],[-45.88812,-23.27056],[-45.88811,-23.2696],[-45.88794,-23.26925],[-45.88822,-23.26848],[-45.88813,-23.26785],[-45.88876,-23.26662],[-45.88963,-23.2659],[-45.89069,-23.2647],[-45.89171,-23.26402],[-45.89195,-23.26303],[-45.89303,-23.26156],[-45.89408,-23.26221],[-45.89432,-23.26206],[-45.89466,-23.26097],[-45.89514,-23.26128],[-45.89821,-23.26338],[-45.89648,-23.26606],[-45.90186,-23.26885],[-45.90121,-23.27],[-45.90457,-23.27164],[-45.90525,-23.27108],[-45.90868,-23.26742],[-45.90902,-23.26679],[-45.90965,-23.26639],[-45.91208,-23.26369],[-45.9128,-23.26603],[-45.91293,-23.26684],[-45.91262,-23.27051],[-45.91285,-23.27146],[-45.91415,-23.27308],[-45.9153,-23.27369],[-45.91412,-23.27472],[-45.91341,-23.27609],[-45.91279,-23.27632],[-45.91252,-23.27725],[-45.91284,-23.27888],[-45.91266,-23.27993],[-45.91194,-23.28109],[-45.9119,-23.2823],[-45.91132,-23.28308],[-45.91143,-23.28413],[-45.91115,-23.28477],[-45.91014,-23.28496],[-45.90974,-23.28548],[-45.9098,-23.28591],[-45.91035,-23.28671],[-45.91039,-23.28727],[-45.90943,-23.28779],[-45.90883,-23.28964],[-45.90815,-23.29072],[-45.90716,-23.2917],[-45.90671,-23.29232],[-45.90616,-23.29245],[-45.90634,-23.29328],[-45.90564,-23.29325],[-45.90478,-23.29427],[-45.90401,-23.29483],[-45.90158,-23.29469],[-45.90101,-23.29473],[-45.8998,-23.29516],[-45.89889,-23.29569],[-45.89809,-23.29548],[-45.89756,-23.29561],[-45.89727,-23.29624],[-45.89621,-23.29687],[-45.89473,-23.29681],[-45.89252,-23.29638],[-45.89067,-23.29616],[-45.889,-23.29667],[-45.88682,-23.29771],[-45.88633,-23.29871],[-45.88505,-23.29943],[-45.88457,-23.29947],[-45.88297,-23.29905],[-45.88241,-23.29874],[-45.88093,-23.29878],[-45.88055,-23.29839],[-45.87901,-23.29814],[-45.87868,-23.2983],[-45.87839,-23.29928],[-45.87677,-23.29788],[-45.8744,-23.29556],[-45.86788,-23.28927],[-45.8653,-23.287],[-45.85855,-23.28179],[-45.85728,-23.28076],[-45.85518,-23.27918],[-45.85399,-23.27849],[-45.85293,-23.27813],[-45.85143,-23.27787],[-45.84958,-23.27772],[-45.8496,-23.27718],[-45.85003,-23.27692],[-45.84924,-23.27562],[-45.8492,-23.27531],[-45.84991,-23.27482],[-45.85114,-23.27338],[-45.8519,-23.27287],[-45.85308,-23.27164],[-45.85439,-23.27099],[-45.85471,-23.27047],[-45.85458,-23.27],[-45.85559,-23.2694],[-45.8566,-23.26906],[-45.85683,-23.26841],[-45.85734,-23.26833],[-45.85801,-23.26775],[-45.85889,-23.26789],[-45.85973,-23.26836],[-45.8602,-23.26899],[-45.85851,-23.2702],[-45.85555,-23.27257],[-45.85678,-23.27541],[-45.85677,-23.27574],[-45.85746,-23.27819],[-45.8582,-23.2777],[-45.85903,-23.27898],[-45.86088,-23.2793],[-45.86153,-23.27861],[-45.86161,-23.27746],[-45.86278,-23.27733],[-45.86443,-23.2749],[-45.86747,-23.27672],[-45.86862,-23.27513],[-45.86777,-23.2739],[-45.87023,-23.2746],[-45.87231,-23.27448],[-45.87325,-23.27526],[-45.87474,-23.27559],[-45.87548,-23.27597],[-45.88065,-23.27592],[-45.88166,-23.27586],[-45.88482,-23.2748],[-45.88443,-23.26966],[-45.88442,-23.26828]]]},"properties":{"codigo":"3549904015","name":"Setor Socioeconômico 12","population":56532,"households":19023,"areaKm2":14.2358,"density":3971.1}},{"type":"Feature","geometry":{"type":"Polygon","coordinates":[[[-45.91208,-23.26369],[-45.90965,-23.26639],[-45.90902,-23.26679],[-45.90868,-23.26742],[-45.90525,-23.27108],[-45.90457,-23.27164],[-45.90121,-23.27],[-45.90186,-23.26885],[-45.89648,-23.26606],[-45.89821,-23.26338],[-45.89514,-23.26128],[-45.89599,-23.25992],[-45.89586,-23.25901],[-45.89457,-23.25461],[-45.89397,-23.25367],[-45.89134,-23.25133],[-45.89057,-23.25152],[-45.8896,-23.24989],[-45.88988,-23.24753],[-45.89035,-23.24679],[-45.89024,-23.2462],[-45.8907,-23.24478],[-45.89128,-23.24355],[-45.89162,-23.24315],[-45.8921,-23.24202],[-45.89199,-23.24172],[-45.89235,-23.24031],[-45.89269,-23.23951],[-45.89322,-23.23912],[-45.89358,-23.23759],[-45.89334,-23.23677],[-45.89341,-23.23617],[-45.89317,-23.23555],[-45.89293,-23.234],[-45.89316,-23.23329],[-45.89294,-23.23208],[-45.89345,-23.22993],[-45.89386,-23.2294],[-45.89404,-23.22846],[-45.89512,-23.22622],[-45.89534,-23.22541],[-45.89577,-23.225],[-45.8965,-23.22338],[-45.8966,-23.22272],[-45.89718,-23.22246],[-45.89744,-23.22189],[-45.89859,-23.22105],[-45.89923,-23.22029],[-45.89995,-23.21966],[-45.90096,-23.22061],[-45.90094,-23.22635],[-45.90098,-23.22811],[-45.90114,-23.22811],[-45.90115,-23.23047],[-45.90172,-23.23171],[-45.90553,-23.23964],[-45.90671,-23.24223],[-45.90729,-23.24466],[-45.908,-23.24727],[-45.90794,-23.24807],[-45.91047,-23.25762],[-45.91167,-23.26233],[-45.91208,-23.26369]]]},"properties":{"codigo":"3549904018","name":"Setor Socioeconômico 15","population":62190,"households":24060,"areaKm2":6.7998,"density":9145.8}},{"type":"Feature","geometry":{"type":"Polygon","coordinates":[[[-45.98121,-23.20167],[-45.98134,-23.20275],[-45.98174,-23.20413],[-45.98158,-23.20454],[-45.98071,-23.20478],[-45.98018,-23.20461],[-45.97851,-23.20309],[-45.97779,-23.20273],[-45.97708,-23.20213],[-45.97576,-23.20168],[-45.97408,-23.20143],[-45.97227,-23.20159],[-45.97137,-23.20114],[-45.97024,-23.20008],[-45.96913,-23.19987],[-45.96833,-23.20067],[-45.96781,-23.20161],[-45.96708,-23.20215],[-45.96576,-23.20187],[-45.96505,-23.20205],[-45.96418,-23.20327],[-45.96356,-23.20459],[-45.96243,-23.20562],[-45.96166,-23.20576],[-45.96058,-23.20564],[-45.95856,-23.205],[-45.95586,-23.20393],[-45.95524,-23.20386],[-45.95423,-23.20402],[-45.95286,-23.20484],[-45.95266,-23.20521],[-45.95277,-23.20585],[-45.95362,-23.20694],[-45.95377,-23.20758],[-45.95324,-23.20824],[-45.95104,-23.20814],[-45.94979,-23.20849],[-45.94926,-23.20903],[-45.94909,-23.20997],[-45.94848,-23.20975],[-45.94757,-23.2097],[-45.94493,-23.21035],[-45.94374,-23.21056],[-45.94293,-23.21042],[-45.94211,-23.20958],[-45.94175,-23.20852],[-45.9418,-23.20662],[-45.94136,-23.20599],[-45.94012,-23.20547],[-45.93852,-23.20512],[-45.93801,-23.20473],[-45.93785,-23.20399],[-45.93788,-23.20246],[-45.93736,-23.20183],[-45.93657,-23.20165],[-45.93569,-23.20168],[-45.93433,-23.20103],[-45.93385,-23.20028],[-45.93368,-23.19914],[-45.93341,-23.19823],[-45.93288,-23.19758],[-45.93081,-23.19697],[-45.93053,-23.19653],[-45.92994,-23.19395],[-45.92986,-23.19309],[-45.9303,-23.19129],[-45.93029,-23.19044],[-45.92943,-23.18952],[-45.92895,-23.1892],[-45.92692,-23.18843],[-45.92478,-23.18754],[-45.92323,-23.18672],[-45.92226,-23.1858],[-45.92096,-23.18502],[-45.92023,-23.18479],[-45.91885,-23.18411],[-45.91825,-23.18406],[-45.9185,-23.18347],[-45.91814,-23.18283],[-45.91751,-23.18243],[-45.91671,-23.1824],[-45.91487,-23.18308],[-45.91453,-23.18339],[-45.91408,-23.18517],[-45.91369,-23.18589],[-45.91311,-23.18632],[-45.91218,-23.18652],[-45.91139,-23.18643],[-45.91085,-23.18588],[-45.91061,-23.1849],[-45.91068,-23.1842],[-45.91126,-23.18337],[-45.91216,-23.18288],[-45.91402,-23.18221],[-45.91557,-23.181],[-45.9159,-23.18021],[-45.91578,-23.17953],[-45.91454,-23.17754],[-45.91417,-23.17673],[-45.91379,-23.17508],[-45.91348,-23.1745],[-45.91263,-23.17346],[-45.91436,-23.17394],[-45.91472,-23.17357],[-45.91462,-23.17269],[-45.9148,-23.1718],[-45.91468,-23.17128],[-45.91394,-23.16997],[-45.91397,-23.16898],[-45.91526,-23.16807],[-45.91575,-23.16797],[-45.91648,-23.16814],[-45.91757,-23.16774],[-45.91836,-23.16809],[-45.91954,-23.16805],[-45.92134,-23.16815],[-45.92148,-23.16749],[-45.9209,-23.16702],[-45.92083,-23.1666],[-45.92137,-23.16577],[-45.92208,-23.16608],[-45.92208,-23.16666],[-45.92248,-23.16696],[-45.92321,-23.16675],[-45.92344,-23.16626],[-45.92326,-23.16556],[-45.92353,-23.16505],[-45.92459,-23.16539],[-45.92512,-23.16519],[-45.92557,-23.16468],[-45.92721,-23.16438],[-45.92796,-23.16466],[-45.92863,-23.1646],[-45.9294,-23.16422],[-45.93006,-23.16412],[-45.9316,-23.16418],[-45.93252,-23.16407],[-45.93271,-23.16515],[-45.93306,-23.16584],[-45.93326,-23.16691],[-45.93306,-23.16791],[-45.93367,-23.16843],[-45.93392,-23.16915],[-45.93412,-23.17052],[-45.93901,-23.16958],[-45.94101,-23.16952],[-45.94249,-23.16973],[-45.94479,-23.17051],[-45.94562,-23.17094],[-45.94753,-23.17248],[-45.96088,-23.18458],[-45.964,-23.18748],[-45.98121,-23.20167]]]},"properties":{"codigo":"3549904022","name":"Setor Socioeconômico 18","population":13453,"households":5077,"areaKm2":16.895,"density":796.3}},{"type":"Feature","geometry":{"type":"Polygon","coordinates":[[[-45.87642,-23.23709],[-45.87542,-23.23716],[-45.87482,-23.23661],[-45.87498,-23.23549],[-45.8756,-23.23468],[-45.87564,-23.23419],[-45.87512,-23.23306],[-45.87589,-23.23249],[-45.87611,-23.23203],[-45.87634,-23.23074],[-45.87753,-23.22956],[-45.87779,-23.22844],[-45.87789,-23.2269],[-45.87817,-23.22545],[-45.87856,-23.22457],[-45.87933,-23.22352],[-45.88403,-23.21914],[-45.89178,-23.21203],[-45.89592,-23.21593],[-45.89995,-23.21966],[-45.89923,-23.22029],[-45.89859,-23.22105],[-45.89744,-23.22189],[-45.89718,-23.22246],[-45.8966,-23.22272],[-45.8965,-23.22338],[-45.89577,-23.225],[-45.89534,-23.22541],[-45.89512,-23.22622],[-45.89404,-23.22846],[-45.89386,-23.2294],[-45.89345,-23.22993],[-45.89294,-23.23208],[-45.89316,-23.23329],[-45.89293,-23.234],[-45.89317,-23.23555],[-45.89341,-23.23617],[-45.89244,-23.23566],[-45.89112,-23.23481],[-45.88514,-23.23517],[-45.88054,-23.2354],[-45.88065,-23.23707],[-45.88025,-23.23709],[-45.87978,-23.23662],[-45.8781,-23.2366],[-45.87718,-23.23707],[-45.87642,-23.23709]]]},"properties":{"codigo":"3549904017","name":"Setor Socioeconômico 14","population":27804,"households":12179,"areaKm2":3.7906,"density":7335}},{"type":"Feature","geometry":{"type":"Polygon","coordinates":[[[-45.89321,-23.15174],[-45.89026,-23.15039],[-45.88866,-23.14944],[-45.88658,-23.14892],[-45.88608,-23.14834],[-45.88544,-23.14683],[-45.88489,-23.14621],[-45.88442,-23.14438],[-45.88368,-23.14325],[-45.88197,-23.14244],[-45.88151,-23.14184],[-45.88055,-23.13998],[-45.87972,-23.13913],[-45.87908,-23.13879],[-45.87795,-23.13775],[-45.8775,-23.13689],[-45.87625,-23.13553],[-45.87473,-23.13492],[-45.87331,-23.13378],[-45.87294,-23.13322],[-45.87192,-23.13056],[-45.87188,-23.12937],[-45.87165,-23.12838],[-45.87184,-23.12736],[-45.87158,-23.12701],[-45.87043,-23.12684],[-45.86999,-23.1265],[-45.86876,-23.12628],[-45.86785,-23.12675],[-45.86709,-23.12648],[-45.86653,-23.12579],[-45.8659,-23.12534],[-45.86502,-23.12501],[-45.86345,-23.12373],[-45.86311,-23.12324],[-45.86279,-23.12183],[-45.86219,-23.12085],[-45.86129,-23.12047],[-45.8608,-23.12007],[-45.85945,-23.11804],[-45.85782,-23.1168],[-45.85463,-23.11571],[-45.85238,-23.11553],[-45.85142,-23.1151],[-45.84994,-23.11392],[-45.84831,-23.11283],[-45.84598,-23.11048],[-45.8453,-23.11005],[-45.84459,-23.10996],[-45.84303,-23.10939],[-45.84149,-23.10811],[-45.84047,-23.1075],[-45.83978,-23.1068],[-45.83674,-23.10572],[-45.83531,-23.10495],[-45.83344,-23.10433],[-45.83318,-23.10416],[-45.83295,-23.10338],[-45.83224,-23.10275],[-45.83175,-23.10191],[-45.83006,-23.10149],[-45.82943,-23.10148],[-45.82667,-23.10017],[-45.82566,-23.09993],[-45.82513,-23.09955],[-45.82337,-23.0988],[-45.82333,-23.09742],[-45.82375,-23.09336],[-45.8297,-23.09306],[-45.8424,-23.09881],[-45.8435,-23.09569],[-45.84513,-23.09472],[-45.84703,-23.09397],[-45.84844,-23.09442],[-45.84935,-23.09547],[-45.851,-23.0947],[-45.85135,-23.0935],[-45.85225,-23.0917],[-45.85328,-23.09192],[-45.85376,-23.09221],[-45.85409,-23.09299],[-45.85483,-23.09367],[-45.85519,-23.09441],[-45.85584,-23.09506],[-45.85556,-23.09587],[-45.85562,-23.09631],[-45.8563,-23.09697],[-45.8567,-23.09908],[-45.85706,-23.09979],[-45.85733,-23.10098],[-45.85728,-23.10299],[-45.85716,-23.10395],[-45.85765,-23.10445],[-45.85707,-23.1052],[-45.85431,-23.1067],[-45.85478,-23.10735],[-45.85574,-23.10786],[-45.85606,-23.10897],[-45.85715,-23.10909],[-45.85714,-23.10951],[-45.85794,-23.10949],[-45.85875,-23.10973],[-45.85972,-23.11037],[-45.86085,-23.11059],[-45.86105,-23.11097],[-45.86244,-23.11151],[-45.87485,-23.10833],[-45.87652,-23.10512],[-45.8772,-23.10594],[-45.87786,-23.10622],[-45.87956,-23.10646],[-45.88015,-23.1067],[-45.88084,-23.10751],[-45.88133,-23.10894],[-45.88185,-23.10985],[-45.88244,-23.11047],[-45.88249,-23.11172],[-45.88413,-23.11331],[-45.88555,-23.1163],[-45.88571,-23.11716],[-45.8863,-23.11806],[-45.88836,-23.12055],[-45.88955,-23.12158],[-45.89047,-23.1221],[-45.89203,-23.12233],[-45.89265,-23.12271],[-45.89326,-23.12339],[-45.89441,-23.12395],[-45.8958,-23.12379],[-45.89692,-23.12389],[-45.89766,-23.12317],[-45.89799,-23.12249],[-45.89839,-23.12238],[-45.89891,-23.12273],[-45.90013,-23.12307],[-45.90294,-23.12245],[-45.90436,-23.12204],[-45.9048,-23.12273],[-45.90415,-23.12425],[-45.90376,-23.12466],[-45.90416,-23.12657],[-45.90447,-23.12755],[-45.905,-23.12831],[-45.90502,-23.12878],[-45.90497,-23.12921],[-45.90543,-23.12999],[-45.90533,-23.13162],[-45.90451,-23.13263],[-45.90398,-23.134],[-45.90328,-23.13452],[-45.9027,-23.13523],[-45.90202,-23.13713],[-45.90219,-23.13783],[-45.90205,-23.13829],[-45.90217,-23.13944],[-45.90183,-23.1405],[-45.90262,-23.14269],[-45.9024,-23.14348],[-45.90156,-23.14469],[-45.90083,-23.14592],[-45.90021,-23.14744],[-45.8991,-23.14876],[-45.8984,-23.14913],[-45.89823,-23.1498],[-45.89764,-23.15015],[-45.89663,-23.15028],[-45.89533,-23.15064],[-45.8949,-23.15169],[-45.89451,-23.15195],[-45.89373,-23.15197],[-45.89321,-23.15174]]]},"properties":{"codigo":"3549904025","name":"Setor Socioeconômico 25","population":3718,"households":1541,"areaKm2":17.121,"density":217.2}},{"type":"Feature","geometry":{"type":"Polygon","coordinates":[[[-45.82195,-23.15737],[-45.82092,-23.1569],[-45.824,-23.15198],[-45.83351,-23.1314],[-45.83394,-23.12874],[-45.83422,-23.12782],[-45.83533,-23.12677],[-45.83624,-23.12753],[-45.83699,-23.12744],[-45.83762,-23.127],[-45.83877,-23.12533],[-45.83974,-23.12475],[-45.84026,-23.12503],[-45.8405,-23.12573],[-45.8408,-23.12754],[-45.8419,-23.12941],[-45.84213,-23.13002],[-45.84223,-23.13153],[-45.84173,-23.13222],[-45.84073,-23.13251],[-45.83858,-23.13278],[-45.8377,-23.13336],[-45.83714,-23.13439],[-45.83724,-23.13573],[-45.83787,-23.13696],[-45.8383,-23.13735],[-45.83929,-23.13774],[-45.84034,-23.13775],[-45.84123,-23.13743],[-45.84224,-23.13667],[-45.84344,-23.13626],[-45.84457,-23.13639],[-45.84521,-23.13699],[-45.84535,-23.13792],[-45.84517,-23.13891],[-45.84472,-23.13956],[-45.8446,-23.14047],[-45.84514,-23.14074],[-45.84645,-23.14086],[-45.84768,-23.14151],[-45.84813,-23.14209],[-45.84847,-23.14341],[-45.84826,-23.14522],[-45.84787,-23.14675],[-45.84799,-23.14766],[-45.84866,-23.14815],[-45.84958,-23.1481],[-45.85004,-23.14787],[-45.85061,-23.14716],[-45.85131,-23.14557],[-45.85198,-23.14472],[-45.85268,-23.14425],[-45.85415,-23.14367],[-45.85541,-23.1435],[-45.85716,-23.14352],[-45.85837,-23.14335],[-45.85917,-23.1435],[-45.85951,-23.14425],[-45.85932,-23.1453],[-45.85954,-23.14605],[-45.8603,-23.1463],[-45.86154,-23.14595],[-45.8629,-23.14511],[-45.8637,-23.14496],[-45.86458,-23.14519],[-45.86555,-23.14618],[-45.86625,-23.14739],[-45.86686,-23.14811],[-45.86796,-23.14877],[-45.86856,-23.14889],[-45.8701,-23.14888],[-45.87222,-23.1486],[-45.87333,-23.14865],[-45.8743,-23.14886],[-45.87519,-23.14922],[-45.87596,-23.14985],[-45.87668,-23.15086],[-45.87713,-23.15176],[-45.8775,-23.15286],[-45.87773,-23.15428],[-45.87777,-23.15672],[-45.87736,-23.15865],[-45.87684,-23.16003],[-45.87676,-23.16111],[-45.87704,-23.16206],[-45.87813,-23.16299],[-45.87884,-23.16317],[-45.88004,-23.16322],[-45.88032,-23.16408],[-45.8801,-23.16506],[-45.8786,-23.16891],[-45.87767,-23.17184],[-45.87714,-23.17287],[-45.87557,-23.1738],[-45.87563,-23.1746],[-45.8743,-23.17486],[-45.8687,-23.17575],[-45.86569,-23.17624],[-45.86421,-23.17631],[-45.86267,-23.17622],[-45.86247,-23.17509],[-45.86224,-23.17464],[-45.8604,-23.17303],[-45.85958,-23.17276],[-45.85855,-23.1727],[-45.856,-23.17307],[-45.85496,-23.17316],[-45.84872,-23.17018],[-45.84644,-23.16913],[-45.84243,-23.16717],[-45.84003,-23.16605],[-45.83611,-23.16414],[-45.83322,-23.16279],[-45.82564,-23.15917],[-45.82195,-23.15737]]]},"properties":{"codigo":"3549904009","name":"Setor Socioeconômico 05A","population":536,"households":207,"areaKm2":16.8436,"density":31.8}},{"type":"Feature","geometry":{"type":"Polygon","coordinates":[[[-45.86404,-23.19148],[-45.86852,-23.19371],[-45.86795,-23.19443],[-45.86636,-23.19582],[-45.86541,-23.19706],[-45.86411,-23.19988],[-45.86354,-23.2006],[-45.86223,-23.20184],[-45.8615,-23.20295],[-45.86096,-23.20524],[-45.85898,-23.20732],[-45.85759,-23.20899],[-45.85717,-23.20986],[-45.85703,-23.21062],[-45.85717,-23.21356],[-45.85609,-23.21564],[-45.85449,-23.21751],[-45.8542,-23.21813],[-45.85425,-23.21915],[-45.85519,-23.22073],[-45.85414,-23.22112],[-45.8538,-23.2214],[-45.8531,-23.22167],[-45.85264,-23.22159],[-45.85203,-23.2203],[-45.85051,-23.21966],[-45.84883,-23.22138],[-45.84615,-23.22454],[-45.84545,-23.22576],[-45.84489,-23.22564],[-45.84494,-23.22488],[-45.84566,-23.22162],[-45.8461,-23.21938],[-45.84614,-23.21815],[-45.84558,-23.21577],[-45.84495,-23.21663],[-45.84387,-23.2173],[-45.84291,-23.21853],[-45.84218,-23.21989],[-45.84183,-23.22028],[-45.84037,-23.22116],[-45.83957,-23.22128],[-45.83935,-23.22165],[-45.83859,-23.22218],[-45.83824,-23.22271],[-45.83481,-23.22982],[-45.83069,-23.22736],[-45.82923,-23.22643],[-45.8271,-23.22392],[-45.8318,-23.21635],[-45.83139,-23.2095],[-45.83269,-23.20716],[-45.83394,-23.20611],[-45.83526,-23.20516],[-45.83581,-23.2045],[-45.83609,-23.20375],[-45.83639,-23.20232],[-45.84688,-23.20861],[-45.84756,-23.20744],[-45.84872,-23.20601],[-45.85154,-23.20401],[-45.85452,-23.20089],[-45.85605,-23.19997],[-45.85727,-23.19953],[-45.85918,-23.1987],[-45.86056,-23.19754],[-45.86404,-23.19148]]]},"properties":{"codigo":"3549904012","name":"Setor Socioeconômico 09","population":21086,"households":8631,"areaKm2":6.1094,"density":3451.4}},{"type":"Feature","geometry":{"type":"Polygon","coordinates":[[[-45.89086,-23.15487],[-45.88997,-23.15536],[-45.88947,-23.15598],[-45.88895,-23.15632],[-45.88701,-23.15727],[-45.88518,-23.15851],[-45.88369,-23.16008],[-45.88239,-23.16197],[-45.88138,-23.16287],[-45.88004,-23.16322],[-45.87884,-23.16317],[-45.87813,-23.16299],[-45.87704,-23.16206],[-45.87676,-23.16111],[-45.87684,-23.16003],[-45.87736,-23.15865],[-45.87777,-23.15672],[-45.87773,-23.15428],[-45.8775,-23.15286],[-45.87713,-23.15176],[-45.87668,-23.15086],[-45.87596,-23.14985],[-45.87519,-23.14922],[-45.8743,-23.14886],[-45.87333,-23.14865],[-45.87222,-23.1486],[-45.8701,-23.14888],[-45.86856,-23.14889],[-45.86796,-23.14877],[-45.86686,-23.14811],[-45.86625,-23.14739],[-45.86555,-23.14618],[-45.86458,-23.14519],[-45.8637,-23.14496],[-45.8629,-23.14511],[-45.86154,-23.14595],[-45.8603,-23.1463],[-45.85954,-23.14605],[-45.85932,-23.1453],[-45.85951,-23.14425],[-45.85917,-23.1435],[-45.85837,-23.14335],[-45.85716,-23.14352],[-45.85541,-23.1435],[-45.85415,-23.14367],[-45.85268,-23.14425],[-45.85198,-23.14472],[-45.85131,-23.14557],[-45.85061,-23.14716],[-45.85004,-23.14787],[-45.84958,-23.1481],[-45.84866,-23.14815],[-45.84799,-23.14766],[-45.84787,-23.14675],[-45.84826,-23.14522],[-45.84847,-23.14341],[-45.84813,-23.14209],[-45.84768,-23.14151],[-45.84645,-23.14086],[-45.84514,-23.14074],[-45.8446,-23.14047],[-45.84472,-23.13956],[-45.84517,-23.13891],[-45.84535,-23.13792],[-45.84521,-23.13699],[-45.84457,-23.13639],[-45.84344,-23.13626],[-45.84224,-23.13667],[-45.84123,-23.13743],[-45.84034,-23.13775],[-45.83929,-23.13774],[-45.8383,-23.13735],[-45.83787,-23.13696],[-45.83724,-23.13573],[-45.83714,-23.13439],[-45.8377,-23.13336],[-45.83858,-23.13278],[-45.84073,-23.13251],[-45.84173,-23.13222],[-45.84223,-23.13153],[-45.84213,-23.13002],[-45.8419,-23.12941],[-45.8408,-23.12754],[-45.8405,-23.12573],[-45.84026,-23.12503],[-45.83974,-23.12475],[-45.83877,-23.12533],[-45.83762,-23.127],[-45.83699,-23.12744],[-45.83624,-23.12753],[-45.83533,-23.12677],[-45.83449,-23.12516],[-45.83455,-23.12382],[-45.83536,-23.12223],[-45.83635,-23.12132],[-45.83696,-23.11994],[-45.83672,-23.11895],[-45.83612,-23.11845],[-45.835,-23.11802],[-45.83346,-23.11845],[-45.83234,-23.1196],[-45.83169,-23.12048],[-45.83098,-23.12112],[-45.8301,-23.12144],[-45.8294,-23.1215],[-45.82844,-23.12126],[-45.82757,-23.1207],[-45.82666,-23.1197],[-45.82602,-23.11948],[-45.82422,-23.11958],[-45.82348,-23.12021],[-45.8224,-23.12063],[-45.82152,-23.12017],[-45.82058,-23.11937],[-45.81925,-23.11863],[-45.81831,-23.11826],[-45.81817,-23.1171],[-45.81882,-23.11609],[-45.81989,-23.11488],[-45.82073,-23.11457],[-45.82158,-23.11398],[-45.82193,-23.11304],[-45.82091,-23.1109],[-45.82075,-23.1094],[-45.82036,-23.10847],[-45.81873,-23.10834],[-45.81705,-23.10844],[-45.81581,-23.1084],[-45.81464,-23.10901],[-45.81362,-23.11031],[-45.81247,-23.11096],[-45.81126,-23.11054],[-45.81099,-23.11018],[-45.81027,-23.10989],[-45.80966,-23.10988],[-45.80793,-23.11024],[-45.80693,-23.11013],[-45.80671,-23.10955],[-45.80686,-23.1092],[-45.80846,-23.10772],[-45.81023,-23.10689],[-45.81137,-23.10611],[-45.81165,-23.10546],[-45.81156,-23.1044],[-45.81119,-23.10369],[-45.8105,-23.10316],[-45.80904,-23.10304],[-45.8074,-23.10354],[-45.8068,-23.10403],[-45.80592,-23.10532],[-45.80577,-23.10573],[-45.80567,-23.10738],[-45.80577,-23.10863],[-45.8053,-23.10955],[-45.80451,-23.10997],[-45.80358,-23.10996],[-45.80174,-23.10919],[-45.80069,-23.10899],[-45.79985,-23.10841],[-45.79966,-23.10715],[-45.80007,-23.10652],[-45.8012,-23.10619],[-45.80281,-23.10665],[-45.80342,-23.10669],[-45.80445,-23.10652],[-45.80515,-23.10585],[-45.80464,-23.10439],[-45.80365,-23.10327],[-45.80296,-23.1029],[-45.80176,-23.1017],[-45.80109,-23.10123],[-45.80016,-23.1014],[-45.79961,-23.10171],[-45.79858,-23.10053],[-45.79861,-23.10011],[-45.79909,-23.0997],[-45.79896,-23.09898],[-45.79964,-23.09899],[-45.80019,-23.09872],[-45.80069,-23.09905],[-45.80144,-23.09919],[-45.80333,-23.09882],[-45.80433,-23.09839],[-45.80579,-23.0976],[-45.80677,-23.09727],[-45.80791,-23.09659],[-45.80936,-23.09718],[-45.8115,-23.09781],[-45.81421,-23.09822],[-45.81483,-23.09825],[-45.81606,-23.09807],[-45.8178,-23.09859],[-45.81976,-23.09894],[-45.82233,-23.09888],[-45.82337,-23.0988],[-45.82513,-23.09955],[-45.82566,-23.09993],[-45.82667,-23.10017],[-45.82943,-23.10148],[-45.83006,-23.10149],[-45.83175,-23.10191],[-45.83224,-23.10275],[-45.83295,-23.10338],[-45.83318,-23.10416],[-45.83344,-23.10433],[-45.83531,-23.10495],[-45.83674,-23.10572],[-45.83978,-23.1068],[-45.84047,-23.1075],[-45.84149,-23.10811],[-45.84303,-23.10939],[-45.84459,-23.10996],[-45.8453,-23.11005],[-45.84598,-23.11048],[-45.84831,-23.11283],[-45.84994,-23.11392],[-45.85142,-23.1151],[-45.85238,-23.11553],[-45.85463,-23.11571],[-45.85782,-23.1168],[-45.85945,-23.11804],[-45.8608,-23.12007],[-45.86129,-23.12047],[-45.86219,-23.12085],[-45.86279,-23.12183],[-45.86311,-23.12324],[-45.86345,-23.12373],[-45.86502,-23.12501],[-45.8659,-23.12534],[-45.86653,-23.12579],[-45.86709,-23.12648],[-45.86785,-23.12675],[-45.86876,-23.12628],[-45.86999,-23.1265],[-45.87043,-23.12684],[-45.87158,-23.12701],[-45.87184,-23.12736],[-45.87165,-23.12838],[-45.87188,-23.12937],[-45.87192,-23.13056],[-45.87294,-23.13322],[-45.87331,-23.13378],[-45.87473,-23.13492],[-45.87625,-23.13553],[-45.8775,-23.13689],[-45.87795,-23.13775],[-45.87908,-23.13879],[-45.87972,-23.13913],[-45.88055,-23.13998],[-45.88151,-23.14184],[-45.88197,-23.14244],[-45.88368,-23.14325],[-45.88442,-23.14438],[-45.88489,-23.14621],[-45.88544,-23.14683],[-45.88608,-23.14834],[-45.88658,-23.14892],[-45.88866,-23.14944],[-45.89026,-23.15039],[-45.89321,-23.15174],[-45.89086,-23.15487]]]},"properties":{"codigo":"3549904026","name":"Setor Socioeconômico 25A","population":219,"households":99,"areaKm2":19.4248,"density":11.3}},{"type":"Feature","geometry":{"type":"Polygon","coordinates":[[[-45.8617,-23.24717],[-45.86086,-23.24752],[-45.8497,-23.25117],[-45.84284,-23.2534],[-45.84001,-23.25439],[-45.83885,-23.25508],[-45.8351,-23.25779],[-45.83127,-23.26046],[-45.8248,-23.26451],[-45.8206,-23.26719],[-45.81085,-23.26404],[-45.80856,-23.26301],[-45.8063,-23.26162],[-45.80507,-23.26063],[-45.7991,-23.25498],[-45.79483,-23.25086],[-45.79341,-23.24919],[-45.79445,-23.24846],[-45.79494,-23.2478],[-45.79694,-23.24657],[-45.7978,-23.24644],[-45.79835,-23.24572],[-45.79888,-23.24552],[-45.79954,-23.24476],[-45.80025,-23.2443],[-45.80043,-23.24367],[-45.80031,-23.24215],[-45.79963,-23.24136],[-45.79958,-23.24086],[-45.79997,-23.24023],[-45.79999,-23.2382],[-45.80059,-23.23697],[-45.80048,-23.23633],[-45.80009,-23.2357],[-45.80032,-23.23509],[-45.80013,-23.23372],[-45.80859,-23.24061],[-45.80901,-23.24093],[-45.80987,-23.24227],[-45.81007,-23.24312],[-45.81095,-23.2439],[-45.81118,-23.24447],[-45.81191,-23.24504],[-45.81241,-23.24454],[-45.81334,-23.24437],[-45.81947,-23.23722],[-45.8203,-23.23636],[-45.82558,-23.22719],[-45.8271,-23.22392],[-45.82923,-23.22643],[-45.83069,-23.22736],[-45.83481,-23.22982],[-45.83824,-23.22271],[-45.83859,-23.22218],[-45.83935,-23.22165],[-45.83957,-23.22128],[-45.84037,-23.22116],[-45.84183,-23.22028],[-45.84218,-23.21989],[-45.84291,-23.21853],[-45.84387,-23.2173],[-45.84495,-23.21663],[-45.84558,-23.21577],[-45.84614,-23.21815],[-45.8461,-23.21938],[-45.84566,-23.22162],[-45.84494,-23.22488],[-45.84489,-23.22564],[-45.84545,-23.22576],[-45.84615,-23.22454],[-45.84883,-23.22138],[-45.85051,-23.21966],[-45.85203,-23.2203],[-45.85264,-23.22159],[-45.8531,-23.22167],[-45.8538,-23.2214],[-45.85365,-23.22183],[-45.85358,-23.22367],[-45.85292,-23.22528],[-45.85335,-23.22596],[-45.85414,-23.22596],[-45.85511,-23.22636],[-45.85572,-23.22684],[-45.85599,-23.22746],[-45.85574,-23.22834],[-45.85436,-23.22988],[-45.85379,-23.23143],[-45.85349,-23.23314],[-45.85322,-23.23375],[-45.85236,-23.23489],[-45.85035,-23.23458],[-45.84947,-23.23489],[-45.84898,-23.23571],[-45.84854,-23.23833],[-45.84782,-23.23932],[-45.84593,-23.24039],[-45.84552,-23.24193],[-45.84522,-23.2443],[-45.84377,-23.2455],[-45.84452,-23.24541],[-45.84536,-23.24562],[-45.84614,-23.24603],[-45.85131,-23.24902],[-45.85266,-23.24924],[-45.85469,-23.24911],[-45.85611,-23.24887],[-45.86028,-23.24752],[-45.8617,-23.24717]]]},"properties":{"codigo":"3549904030","name":"Setor Socioeconômico 29","population":35828,"households":12713,"areaKm2":17.1232,"density":2092.4}},{"type":"Feature","geometry":{"type":"Polygon","coordinates":[[[-45.8977,-23.21028],[-45.90072,-23.20964],[-45.90221,-23.20912],[-45.90366,-23.20824],[-45.9046,-23.20732],[-45.9065,-23.20489],[-45.91056,-23.20103],[-45.9135,-23.19842],[-45.91478,-23.19876],[-45.91539,-23.19847],[-45.91756,-23.1968],[-45.92122,-23.19375],[-45.92243,-23.19266],[-45.92328,-23.19228],[-45.92416,-23.19234],[-45.92756,-23.19409],[-45.92809,-23.19451],[-45.92857,-23.19546],[-45.92914,-23.19592],[-45.92861,-23.19694],[-45.92733,-23.19736],[-45.92643,-23.19949],[-45.92941,-23.19998],[-45.93031,-23.2025],[-45.93319,-23.2057],[-45.93419,-23.20708],[-45.93801,-23.20473],[-45.93852,-23.20512],[-45.94012,-23.20547],[-45.94136,-23.20599],[-45.9418,-23.20662],[-45.94175,-23.20852],[-45.94211,-23.20958],[-45.94293,-23.21042],[-45.94374,-23.21056],[-45.94493,-23.21035],[-45.94757,-23.2097],[-45.94848,-23.20975],[-45.94909,-23.20997],[-45.94961,-23.21047],[-45.94951,-23.21094],[-45.94856,-23.21146],[-45.9482,-23.21223],[-45.94822,-23.21338],[-45.94895,-23.21442],[-45.94934,-23.21551],[-45.94992,-23.21605],[-45.95087,-23.21628],[-45.95183,-23.21628],[-45.95288,-23.21592],[-45.95386,-23.21593],[-45.95461,-23.21666],[-45.9549,-23.21725],[-45.9549,-23.21838],[-45.95457,-23.22015],[-45.95504,-23.22095],[-45.95581,-23.22111],[-45.95632,-23.2208],[-45.958,-23.21947],[-45.95917,-23.2194],[-45.96053,-23.22004],[-45.96135,-23.22093],[-45.96149,-23.22212],[-45.96091,-23.22371],[-45.96088,-23.22454],[-45.96133,-23.22523],[-45.96224,-23.22568],[-45.96311,-23.22549],[-45.96438,-23.22481],[-45.96549,-23.22513],[-45.96607,-23.22596],[-45.96611,-23.22648],[-45.96541,-23.22742],[-45.9642,-23.22842],[-45.96396,-23.22927],[-45.96401,-23.23007],[-45.96452,-23.23089],[-45.96521,-23.23145],[-45.96601,-23.23177],[-45.96913,-23.23236],[-45.97078,-23.23285],[-45.97137,-23.2334],[-45.9714,-23.23397],[-45.97078,-23.23464],[-45.96991,-23.23493],[-45.9685,-23.23483],[-45.96723,-23.23505],[-45.96583,-23.23546],[-45.96412,-23.23624],[-45.96326,-23.23722],[-45.96291,-23.23844],[-45.96322,-23.23887],[-45.96497,-23.23922],[-45.96525,-23.23946],[-45.96505,-23.24174],[-45.96421,-23.24433],[-45.96367,-23.24539],[-45.95954,-23.24892],[-45.95531,-23.25305],[-45.95483,-23.25394],[-45.95376,-23.25415],[-45.95318,-23.25386],[-45.95216,-23.25246],[-45.95116,-23.25011],[-45.95053,-23.24897],[-45.94921,-23.24701],[-45.95018,-23.24581],[-45.9501,-23.24519],[-45.95153,-23.24358],[-45.95157,-23.24338],[-45.94871,-23.23857],[-45.94843,-23.2383],[-45.94388,-23.23566],[-45.94311,-23.23696],[-45.94178,-23.23597],[-45.94052,-23.23451],[-45.93832,-23.23232],[-45.93606,-23.23479],[-45.93465,-23.23581],[-45.9338,-23.23668],[-45.93327,-23.23748],[-45.9324,-23.23805],[-45.93186,-23.23775],[-45.93241,-23.23707],[-45.93219,-23.23672],[-45.93106,-23.23586],[-45.92922,-23.23339],[-45.92861,-23.23267],[-45.9283,-23.23186],[-45.92818,-23.23096],[-45.92827,-23.2302],[-45.92886,-23.22823],[-45.92871,-23.22753],[-45.92818,-23.2269],[-45.92682,-23.22646],[-45.92618,-23.22593],[-45.92497,-23.22465],[-45.92348,-23.22364],[-45.92261,-23.22287],[-45.92217,-23.2222],[-45.92151,-23.21948],[-45.91982,-23.2177],[-45.91867,-23.21708],[-45.91847,-23.2173],[-45.9178,-23.21668],[-45.91725,-23.21756],[-45.91646,-23.21946],[-45.91319,-23.22107],[-45.91129,-23.22192],[-45.91191,-23.22517],[-45.91289,-23.23075],[-45.91287,-23.23141],[-45.90559,-23.22468],[-45.90541,-23.22473],[-45.90096,-23.22061],[-45.89995,-23.21966],[-45.89592,-23.21593],[-45.89178,-23.21203],[-45.89255,-23.21143],[-45.89312,-23.21122],[-45.8977,-23.21028]]]},"properties":{"codigo":"3549904023","name":"Setor Socioeconômico 19","population":25467,"households":11506,"areaKm2":20.1656,"density":1262.9}},{"type":"Feature","geometry":{"type":"Polygon","coordinates":[[[-45.86852,-23.19371],[-45.86404,-23.19148],[-45.86426,-23.19117],[-45.86294,-23.18991],[-45.86424,-23.18734],[-45.86537,-23.18617],[-45.86665,-23.1842],[-45.86702,-23.18075],[-45.86638,-23.18106],[-45.86591,-23.18172],[-45.86541,-23.18152],[-45.86565,-23.18078],[-45.86576,-23.17932],[-45.86682,-23.17939],[-45.86961,-23.17957],[-45.8704,-23.17926],[-45.87229,-23.17784],[-45.87309,-23.17765],[-45.87481,-23.17648],[-45.87577,-23.17793],[-45.87688,-23.18044],[-45.87718,-23.18165],[-45.87759,-23.18464],[-45.87818,-23.18645],[-45.87871,-23.18702],[-45.88068,-23.18819],[-45.88135,-23.18884],[-45.88352,-23.19215],[-45.8843,-23.19517],[-45.8845,-23.19613],[-45.88517,-23.19831],[-45.88548,-23.19906],[-45.88586,-23.1994],[-45.88576,-23.20004],[-45.88517,-23.20228],[-45.88461,-23.2035],[-45.88369,-23.20433],[-45.88146,-23.20222],[-45.87866,-23.19964],[-45.87731,-23.19848],[-45.8741,-23.19649],[-45.87278,-23.19575],[-45.86872,-23.19371],[-45.86852,-23.19371]]]},"properties":{"codigo":"3549904007","name":"Setor Socioeconômico 04","population":21916,"households":9694,"areaKm2":3.3345,"density":6572.6}},{"type":"Feature","geometry":{"type":"Polygon","coordinates":[[[-45.91348,-23.1745],[-45.91379,-23.17508],[-45.91417,-23.17673],[-45.91454,-23.17754],[-45.91578,-23.17953],[-45.9159,-23.18021],[-45.91557,-23.181],[-45.91402,-23.18221],[-45.91216,-23.18288],[-45.91126,-23.18337],[-45.91068,-23.1842],[-45.91061,-23.1849],[-45.90914,-23.18491],[-45.90917,-23.1882],[-45.91044,-23.19218],[-45.91042,-23.19323],[-45.91001,-23.19383],[-45.90862,-23.19539],[-45.90711,-23.19439],[-45.90429,-23.19224],[-45.90339,-23.19182],[-45.90251,-23.19171],[-45.90027,-23.1918],[-45.89559,-23.19165],[-45.8946,-23.19153],[-45.89322,-23.19103],[-45.8928,-23.19073],[-45.89046,-23.1886],[-45.8894,-23.18739],[-45.88899,-23.18653],[-45.88861,-23.18402],[-45.8887,-23.18205],[-45.88902,-23.18084],[-45.88975,-23.1797],[-45.89093,-23.17864],[-45.89088,-23.17807],[-45.89117,-23.17736],[-45.89113,-23.17675],[-45.89207,-23.17678],[-45.89277,-23.17657],[-45.89354,-23.17562],[-45.89455,-23.17513],[-45.89508,-23.17438],[-45.90748,-23.1752],[-45.9093,-23.17517],[-45.91074,-23.17501],[-45.91348,-23.1745]]]},"properties":{"codigo":"3549904006","name":"Setor Socioeconômico 03A","population":696,"households":253,"areaKm2":4.3147,"density":161.3}},{"type":"Feature","geometry":{"type":"Polygon","coordinates":[[[-45.83639,-23.20232],[-45.83609,-23.20375],[-45.83581,-23.2045],[-45.83526,-23.20516],[-45.83394,-23.20611],[-45.83269,-23.20716],[-45.83139,-23.2095],[-45.8318,-23.21635],[-45.8271,-23.22392],[-45.82558,-23.22719],[-45.8203,-23.23636],[-45.81947,-23.23722],[-45.81334,-23.24437],[-45.81241,-23.24454],[-45.81191,-23.24504],[-45.81118,-23.24447],[-45.81095,-23.2439],[-45.81007,-23.24312],[-45.80987,-23.24227],[-45.80901,-23.24093],[-45.80859,-23.24061],[-45.80013,-23.23372],[-45.80032,-23.23509],[-45.80009,-23.2357],[-45.80048,-23.23633],[-45.80059,-23.23697],[-45.79999,-23.2382],[-45.79997,-23.24023],[-45.79958,-23.24086],[-45.79963,-23.24136],[-45.80031,-23.24215],[-45.80043,-23.24367],[-45.80025,-23.2443],[-45.79954,-23.24476],[-45.79888,-23.24552],[-45.79835,-23.24572],[-45.7978,-23.24644],[-45.79694,-23.24657],[-45.79494,-23.2478],[-45.79445,-23.24846],[-45.79341,-23.24919],[-45.79222,-23.24757],[-45.78902,-23.24267],[-45.7854,-23.23736],[-45.78447,-23.2362],[-45.7828,-23.23467],[-45.77613,-23.2299],[-45.76957,-23.22525],[-45.77089,-23.22464],[-45.77157,-23.22409],[-45.77374,-23.22296],[-45.77497,-23.22214],[-45.77565,-23.22242],[-45.77741,-23.22287],[-45.77857,-23.22302],[-45.77915,-23.22292],[-45.78043,-23.22245],[-45.7811,-23.22206],[-45.78198,-23.22076],[-45.78252,-23.22056],[-45.78344,-23.22036],[-45.78399,-23.21992],[-45.78487,-23.21953],[-45.78583,-23.21958],[-45.78665,-23.21991],[-45.78826,-23.22134],[-45.78944,-23.22154],[-45.79,-23.22193],[-45.79244,-23.22274],[-45.79379,-23.22283],[-45.79468,-23.22135],[-45.79516,-23.22077],[-45.79796,-23.21859],[-45.80101,-23.21627],[-45.80271,-23.21506],[-45.80462,-23.2136],[-45.80554,-23.21434],[-45.80844,-23.21637],[-45.81216,-23.21884],[-45.81272,-23.21876],[-45.81333,-23.21816],[-45.81376,-23.21697],[-45.81724,-23.2123],[-45.81495,-23.20963],[-45.81594,-23.20919],[-45.81636,-23.20872],[-45.81704,-23.20846],[-45.81755,-23.20794],[-45.81863,-23.20767],[-45.81918,-23.20711],[-45.81986,-23.20612],[-45.82035,-23.20473],[-45.82133,-23.20426],[-45.82238,-23.20337],[-45.82384,-23.20263],[-45.82414,-23.20277],[-45.82525,-23.20251],[-45.82572,-23.20274],[-45.82841,-23.20289],[-45.82959,-23.2032],[-45.83017,-23.20263],[-45.83281,-23.20247],[-45.83351,-23.20224],[-45.83419,-23.20224],[-45.83664,-23.20144],[-45.83639,-23.20232]]]},"properties":{"codigo":"3549904031","name":"Setor Socioeconômico 31","population":11763,"households":4367,"areaKm2":14.5848,"density":806.5}},{"type":"Feature","geometry":{"type":"Polygon","coordinates":[[[-45.89171,-23.17415],[-45.88295,-23.17357],[-45.88118,-23.1735],[-45.88128,-23.17149],[-45.88082,-23.17116],[-45.87849,-23.17286],[-45.87767,-23.17184],[-45.8786,-23.16891],[-45.8801,-23.16506],[-45.88032,-23.16408],[-45.88004,-23.16322],[-45.88138,-23.16287],[-45.88239,-23.16197],[-45.88369,-23.16008],[-45.88518,-23.15851],[-45.88701,-23.15727],[-45.88895,-23.15632],[-45.88947,-23.15598],[-45.88997,-23.15536],[-45.89086,-23.15487],[-45.89233,-23.15469],[-45.89496,-23.15421],[-45.89613,-23.15393],[-45.89773,-23.15378],[-45.89899,-23.15422],[-45.89999,-23.155],[-45.90147,-23.15668],[-45.90194,-23.15751],[-45.90276,-23.16076],[-45.90267,-23.16172],[-45.9036,-23.16283],[-45.90503,-23.1637],[-45.90614,-23.16489],[-45.90669,-23.16596],[-45.90756,-23.16675],[-45.90514,-23.17011],[-45.90448,-23.17014],[-45.90363,-23.17092],[-45.90329,-23.1709],[-45.90149,-23.17026],[-45.89737,-23.16954],[-45.89579,-23.16915],[-45.89604,-23.16774],[-45.89535,-23.16557],[-45.89459,-23.16604],[-45.89421,-23.16663],[-45.89379,-23.16811],[-45.8938,-23.16902],[-45.89405,-23.17043],[-45.89457,-23.17258],[-45.89421,-23.17368],[-45.89352,-23.17396],[-45.89171,-23.17415]]]},"properties":{"codigo":"3549904003","name":"Setor Socioeconômico 02","population":16012,"households":6816,"areaKm2":4.2793,"density":3741.7}},{"type":"Feature","geometry":{"type":"Polygon","coordinates":[[[-45.78788,-23.21344],[-45.78662,-23.21405],[-45.7854,-23.21313],[-45.78506,-23.21265],[-45.7849,-23.21179],[-45.7843,-23.21064],[-45.7846,-23.2101],[-45.7856,-23.21049],[-45.78537,-23.20951],[-45.78456,-23.20934],[-45.78371,-23.20865],[-45.78262,-23.20836],[-45.78001,-23.2066],[-45.78283,-23.20157],[-45.78452,-23.20025],[-45.78112,-23.19846],[-45.78168,-23.19731],[-45.78169,-23.19679],[-45.78142,-23.19554],[-45.7817,-23.19464],[-45.78002,-23.19348],[-45.78025,-23.19226],[-45.78064,-23.19136],[-45.78383,-23.18905],[-45.78738,-23.18736],[-45.78809,-23.18693],[-45.78913,-23.18588],[-45.78995,-23.18482],[-45.79057,-23.18379],[-45.78977,-23.18313],[-45.78914,-23.18167],[-45.78855,-23.18093],[-45.78737,-23.18015],[-45.78667,-23.17879],[-45.78532,-23.17797],[-45.78474,-23.17742],[-45.78437,-23.1765],[-45.78424,-23.17547],[-45.78368,-23.17489],[-45.78161,-23.17322],[-45.78157,-23.1728],[-45.78009,-23.17405],[-45.77902,-23.17532],[-45.77883,-23.17507],[-45.77869,-23.17318],[-45.77687,-23.16951],[-45.77449,-23.16742],[-45.77355,-23.16575],[-45.77283,-23.16509],[-45.77212,-23.16494],[-45.77109,-23.165],[-45.76958,-23.1649],[-45.76859,-23.16452],[-45.76707,-23.16304],[-45.76636,-23.16248],[-45.7655,-23.16215],[-45.76438,-23.16217],[-45.76375,-23.16238],[-45.76278,-23.16308],[-45.76195,-23.16402],[-45.76075,-23.16562],[-45.75992,-23.16637],[-45.75967,-23.16572],[-45.75978,-23.16505],[-45.75951,-23.16441],[-45.75953,-23.16374],[-45.7591,-23.16316],[-45.75932,-23.16254],[-45.75909,-23.1621],[-45.75916,-23.16147],[-45.75832,-23.16106],[-45.75766,-23.15926],[-45.75695,-23.15893],[-45.75661,-23.15795],[-45.75694,-23.15738],[-45.75755,-23.15683],[-45.75798,-23.15596],[-45.75893,-23.15508],[-45.75941,-23.15326],[-45.75929,-23.15233],[-45.75988,-23.15043],[-45.75989,-23.14963],[-45.76037,-23.14832],[-45.76002,-23.14656],[-45.76039,-23.14591],[-45.76025,-23.14494],[-45.76018,-23.14335],[-45.75985,-23.14241],[-45.75843,-23.13954],[-45.75774,-23.13912],[-45.75701,-23.13776],[-45.76353,-23.14102],[-45.7753,-23.14695],[-45.77897,-23.14882],[-45.78753,-23.15313],[-45.7869,-23.15399],[-45.7839,-23.15785],[-45.78275,-23.15923],[-45.77962,-23.16146],[-45.79395,-23.16894],[-45.79981,-23.17165],[-45.80625,-23.17454],[-45.8059,-23.1753],[-45.80497,-23.17671],[-45.80422,-23.17765],[-45.80446,-23.17964],[-45.8042,-23.18265],[-45.80433,-23.18454],[-45.80502,-23.18586],[-45.80654,-23.18851],[-45.8067,-23.1901],[-45.80743,-23.19143],[-45.80764,-23.19217],[-45.80757,-23.19351],[-45.8069,-23.19574],[-45.80596,-23.19683],[-45.80542,-23.19864],[-45.80555,-23.19966],[-45.80526,-23.20046],[-45.80541,-23.20222],[-45.80475,-23.20431],[-45.80466,-23.20532],[-45.80143,-23.20558],[-45.7998,-23.20577],[-45.79466,-23.20538],[-45.78953,-23.20487],[-45.78759,-23.20476],[-45.78805,-23.20616],[-45.7894,-23.20725],[-45.79047,-23.20788],[-45.79084,-23.20851],[-45.79047,-23.20972],[-45.7897,-23.21109],[-45.78788,-23.21344]]]},"properties":{"codigo":"3549904028","name":"Setor Socioeconômico 27","population":47193,"households":17452,"areaKm2":15.5393,"density":3037}},{"type":"Feature","geometry":{"type":"Polygon","coordinates":[[[-45.78753,-23.15313],[-45.77897,-23.14882],[-45.7753,-23.14695],[-45.76353,-23.14102],[-45.75701,-23.13776],[-45.75661,-23.13744],[-45.75617,-23.13663],[-45.75622,-23.13577],[-45.75609,-23.13494],[-45.7562,-23.13424],[-45.75668,-23.13363],[-45.75694,-23.13291],[-45.75699,-23.13187],[-45.75759,-23.13126],[-45.75785,-23.13063],[-45.75897,-23.12987],[-45.75968,-23.12972],[-45.76029,-23.12909],[-45.76036,-23.12855],[-45.76246,-23.12889],[-45.77495,-23.13308],[-45.77663,-23.13369],[-45.77931,-23.13456],[-45.78093,-23.13515],[-45.78285,-23.13604],[-45.78544,-23.13751],[-45.78902,-23.13923],[-45.79145,-23.14045],[-45.7934,-23.14168],[-45.7985,-23.14541],[-45.80083,-23.14706],[-45.80377,-23.14872],[-45.80606,-23.14979],[-45.82092,-23.1569],[-45.82195,-23.15737],[-45.82055,-23.16381],[-45.82006,-23.16565],[-45.81943,-23.1692],[-45.81135,-23.16513],[-45.79805,-23.15844],[-45.78753,-23.15313]]]},"properties":{"codigo":"3549904032","name":"Setor Socioeconômico 06","population":20613,"households":7737,"areaKm2":9.4692,"density":2176.8}},{"type":"Feature","geometry":{"type":"Polygon","coordinates":[[[-45.82092,-23.1569],[-45.80606,-23.14979],[-45.80377,-23.14872],[-45.80083,-23.14706],[-45.7985,-23.14541],[-45.7934,-23.14168],[-45.79145,-23.14045],[-45.78902,-23.13923],[-45.78544,-23.13751],[-45.78285,-23.13604],[-45.78093,-23.13515],[-45.77931,-23.13456],[-45.77663,-23.13369],[-45.77495,-23.13308],[-45.76246,-23.12889],[-45.76036,-23.12855],[-45.76021,-23.12778],[-45.75977,-23.12686],[-45.75924,-23.12611],[-45.75931,-23.12554],[-45.7591,-23.12446],[-45.75918,-23.12318],[-45.75868,-23.12234],[-45.75807,-23.12187],[-45.7575,-23.12079],[-45.75692,-23.12029],[-45.75634,-23.11887],[-45.75526,-23.11866],[-45.75338,-23.11881],[-45.75251,-23.11857],[-45.75224,-23.11796],[-45.75251,-23.11729],[-45.75361,-23.117],[-45.75431,-23.11666],[-45.75492,-23.11593],[-45.75454,-23.1143],[-45.75452,-23.11341],[-45.75481,-23.11256],[-45.75535,-23.11193],[-45.75626,-23.11143],[-45.75705,-23.11135],[-45.75788,-23.11151],[-45.7584,-23.11178],[-45.75878,-23.11231],[-45.75913,-23.11328],[-45.75999,-23.11438],[-45.76131,-23.11447],[-45.76209,-23.11365],[-45.76263,-23.11178],[-45.76298,-23.11124],[-45.7643,-23.11075],[-45.76552,-23.11098],[-45.76578,-23.11181],[-45.76516,-23.11348],[-45.7651,-23.11476],[-45.76531,-23.11542],[-45.76663,-23.11636],[-45.76756,-23.11655],[-45.769,-23.11585],[-45.76985,-23.11514],[-45.77077,-23.11505],[-45.77129,-23.11471],[-45.77175,-23.11394],[-45.77191,-23.11276],[-45.77187,-23.1094],[-45.77199,-23.10867],[-45.77257,-23.10716],[-45.77318,-23.10643],[-45.77469,-23.10515],[-45.77544,-23.10496],[-45.77645,-23.10523],[-45.77665,-23.10594],[-45.77613,-23.10699],[-45.77577,-23.10882],[-45.7761,-23.11049],[-45.77674,-23.11224],[-45.77705,-23.11448],[-45.77752,-23.11513],[-45.77819,-23.11531],[-45.77893,-23.11524],[-45.77967,-23.11482],[-45.77986,-23.11448],[-45.7797,-23.11373],[-45.77868,-23.11213],[-45.77858,-23.11101],[-45.77875,-23.11046],[-45.77958,-23.10992],[-45.78039,-23.10987],[-45.78164,-23.11009],[-45.78271,-23.11068],[-45.78362,-23.11136],[-45.78444,-23.11172],[-45.7858,-23.11191],[-45.78707,-23.11164],[-45.78705,-23.1109],[-45.78611,-23.10995],[-45.78613,-23.1089],[-45.78654,-23.1084],[-45.78828,-23.1069],[-45.78826,-23.10642],[-45.78717,-23.10418],[-45.78739,-23.10307],[-45.78807,-23.10239],[-45.78874,-23.10225],[-45.78956,-23.10249],[-45.79024,-23.10322],[-45.79035,-23.10393],[-45.79005,-23.10553],[-45.7903,-23.10679],[-45.79093,-23.10732],[-45.79161,-23.1076],[-45.79279,-23.10746],[-45.79346,-23.10701],[-45.79388,-23.10639],[-45.79425,-23.10441],[-45.7946,-23.10383],[-45.79601,-23.10266],[-45.7974,-23.10217],[-45.7995,-23.10184],[-45.79961,-23.10171],[-45.80016,-23.1014],[-45.80109,-23.10123],[-45.80176,-23.1017],[-45.80296,-23.1029],[-45.80365,-23.10327],[-45.80464,-23.10439],[-45.80515,-23.10585],[-45.80445,-23.10652],[-45.80342,-23.10669],[-45.80281,-23.10665],[-45.8012,-23.10619],[-45.80007,-23.10652],[-45.79966,-23.10715],[-45.79985,-23.10841],[-45.80069,-23.10899],[-45.80174,-23.10919],[-45.80358,-23.10996],[-45.80451,-23.10997],[-45.8053,-23.10955],[-45.80577,-23.10863],[-45.80567,-23.10738],[-45.80577,-23.10573],[-45.80592,-23.10532],[-45.8068,-23.10403],[-45.8074,-23.10354],[-45.80904,-23.10304],[-45.8105,-23.10316],[-45.81119,-23.10369],[-45.81156,-23.1044],[-45.81165,-23.10546],[-45.81137,-23.10611],[-45.81023,-23.10689],[-45.80846,-23.10772],[-45.80686,-23.1092],[-45.80671,-23.10955],[-45.80693,-23.11013],[-45.80793,-23.11024],[-45.80966,-23.10988],[-45.81027,-23.10989],[-45.81099,-23.11018],[-45.81126,-23.11054],[-45.81247,-23.11096],[-45.81362,-23.11031],[-45.81464,-23.10901],[-45.81581,-23.1084],[-45.81705,-23.10844],[-45.81873,-23.10834],[-45.82036,-23.10847],[-45.82075,-23.1094],[-45.82091,-23.1109],[-45.82193,-23.11304],[-45.82158,-23.11398],[-45.82073,-23.11457],[-45.81989,-23.11488],[-45.81882,-23.11609],[-45.81817,-23.1171],[-45.81831,-23.11826],[-45.81925,-23.11863],[-45.82058,-23.11937],[-45.82152,-23.12017],[-45.8224,-23.12063],[-45.82348,-23.12021],[-45.82422,-23.11958],[-45.82602,-23.11948],[-45.82666,-23.1197],[-45.82757,-23.1207],[-45.82844,-23.12126],[-45.8294,-23.1215],[-45.8301,-23.12144],[-45.83098,-23.12112],[-45.83169,-23.12048],[-45.83234,-23.1196],[-45.83346,-23.11845],[-45.835,-23.11802],[-45.83612,-23.11845],[-45.83672,-23.11895],[-45.83696,-23.11994],[-45.83635,-23.12132],[-45.83536,-23.12223],[-45.83455,-23.12382],[-45.83449,-23.12516],[-45.83533,-23.12677],[-45.83422,-23.12782],[-45.83394,-23.12874],[-45.83351,-23.1314],[-45.824,-23.15198],[-45.82092,-23.1569]]]},"properties":{"codigo":"3549904033","name":"Setor Socioeconômico 06A","population":262,"households":144,"areaKm2":26.7574,"density":9.8}},{"type":"Feature","geometry":{"type":"Polygon","coordinates":[[[-45.78252,-23.22056],[-45.78198,-23.22076],[-45.7811,-23.22206],[-45.78043,-23.22245],[-45.77915,-23.22292],[-45.77857,-23.22302],[-45.77741,-23.22287],[-45.77565,-23.22242],[-45.77497,-23.22214],[-45.77374,-23.22296],[-45.77157,-23.22409],[-45.77089,-23.22464],[-45.76957,-23.22525],[-45.76935,-23.22625],[-45.7682,-23.22675],[-45.76737,-23.22727],[-45.7673,-23.22777],[-45.76829,-23.22892],[-45.76881,-23.23005],[-45.76897,-23.23112],[-45.76878,-23.23254],[-45.7684,-23.23352],[-45.76754,-23.23442],[-45.76658,-23.23465],[-45.7657,-23.23451],[-45.7648,-23.23385],[-45.76419,-23.2337],[-45.76214,-23.23394],[-45.76121,-23.23344],[-45.76044,-23.23352],[-45.75968,-23.23407],[-45.75901,-23.23528],[-45.75833,-23.23763],[-45.75787,-23.23821],[-45.75669,-23.23872],[-45.75625,-23.23907],[-45.75558,-23.24015],[-45.75546,-23.24125],[-45.75554,-23.24227],[-45.75484,-23.24549],[-45.75497,-23.24629],[-45.75492,-23.24794],[-45.75475,-23.24851],[-45.75357,-23.2501],[-45.75294,-23.25134],[-45.75291,-23.25247],[-45.75347,-23.25372],[-45.75245,-23.25447],[-45.75117,-23.25487],[-45.75073,-23.25487],[-45.74964,-23.2537],[-45.74893,-23.25421],[-45.74861,-23.25498],[-45.74814,-23.25504],[-45.74823,-23.25355],[-45.7478,-23.25252],[-45.74733,-23.25229],[-45.74651,-23.2528],[-45.746,-23.25277],[-45.74482,-23.25233],[-45.74442,-23.25194],[-45.74388,-23.25085],[-45.74381,-23.2504],[-45.74404,-23.24939],[-45.74387,-23.24833],[-45.74339,-23.24725],[-45.74277,-23.24667],[-45.74157,-23.24584],[-45.74088,-23.24552],[-45.73971,-23.24523],[-45.7369,-23.24485],[-45.73549,-23.24413],[-45.73417,-23.24228],[-45.73344,-23.24143],[-45.73136,-23.23972],[-45.73015,-23.23902],[-45.7286,-23.23865],[-45.72747,-23.23854],[-45.72669,-23.23868],[-45.7242,-23.2394],[-45.72326,-23.23941],[-45.72222,-23.23902],[-45.72128,-23.23795],[-45.72261,-23.23724],[-45.72331,-23.23646],[-45.72405,-23.23457],[-45.72511,-23.23314],[-45.72642,-23.23214],[-45.72697,-23.23103],[-45.72788,-23.23051],[-45.7285,-23.23046],[-45.72974,-23.22994],[-45.73051,-23.22917],[-45.73093,-23.22836],[-45.73161,-23.22766],[-45.7319,-23.22682],[-45.73171,-23.22469],[-45.732,-23.22367],[-45.73264,-23.22266],[-45.73319,-23.22232],[-45.73335,-23.2218],[-45.73415,-23.22091],[-45.73424,-23.21968],[-45.73444,-23.21929],[-45.73579,-23.21789],[-45.73755,-23.21676],[-45.73772,-23.21618],[-45.7378,-23.21485],[-45.73816,-23.21329],[-45.73768,-23.21149],[-45.73773,-23.21024],[-45.73817,-23.20941],[-45.73902,-23.20834],[-45.73904,-23.2077],[-45.73959,-23.20661],[-45.73942,-23.20619],[-45.73873,-23.20543],[-45.73863,-23.20465],[-45.73887,-23.20396],[-45.73997,-23.20264],[-45.74074,-23.20231],[-45.74134,-23.20147],[-45.74089,-23.20101],[-45.74152,-23.20042],[-45.74139,-23.19976],[-45.74195,-23.19894],[-45.74299,-23.19897],[-45.74412,-23.19936],[-45.74523,-23.19934],[-45.74647,-23.19947],[-45.74757,-23.19905],[-45.74842,-23.19748],[-45.74934,-23.1955],[-45.75027,-23.19406],[-45.75091,-23.19261],[-45.75104,-23.19158],[-45.75089,-23.19042],[-45.75078,-23.18839],[-45.75056,-23.18721],[-45.75059,-23.18594],[-45.75077,-23.18417],[-45.75133,-23.18233],[-45.75155,-23.18131],[-45.75203,-23.18009],[-45.75209,-23.17808],[-45.75639,-23.17218],[-45.75781,-23.17009],[-45.7593,-23.16749],[-45.75992,-23.16666],[-45.75992,-23.16637],[-45.76075,-23.16562],[-45.76195,-23.16402],[-45.76278,-23.16308],[-45.76375,-23.16238],[-45.76438,-23.16217],[-45.7655,-23.16215],[-45.76636,-23.16248],[-45.76707,-23.16304],[-45.76859,-23.16452],[-45.76958,-23.1649],[-45.77109,-23.165],[-45.77212,-23.16494],[-45.77283,-23.16509],[-45.77355,-23.16575],[-45.77449,-23.16742],[-45.77687,-23.16951],[-45.77869,-23.17318],[-45.77883,-23.17507],[-45.77902,-23.17532],[-45.78009,-23.17405],[-45.78157,-23.1728],[-45.78161,-23.17322],[-45.78368,-23.17489],[-45.78424,-23.17547],[-45.78437,-23.1765],[-45.78474,-23.17742],[-45.78532,-23.17797],[-45.78667,-23.17879],[-45.78737,-23.18015],[-45.78855,-23.18093],[-45.78914,-23.18167],[-45.78977,-23.18313],[-45.79057,-23.18379],[-45.78995,-23.18482],[-45.78913,-23.18588],[-45.78809,-23.18693],[-45.78738,-23.18736],[-45.78383,-23.18905],[-45.78064,-23.19136],[-45.78025,-23.19226],[-45.78002,-23.19348],[-45.7817,-23.19464],[-45.78142,-23.19554],[-45.78169,-23.19679],[-45.78168,-23.19731],[-45.78112,-23.19846],[-45.78452,-23.20025],[-45.78283,-23.20157],[-45.78001,-23.2066],[-45.78262,-23.20836],[-45.78371,-23.20865],[-45.78456,-23.20934],[-45.78537,-23.20951],[-45.7856,-23.21049],[-45.7846,-23.2101],[-45.7843,-23.21064],[-45.7849,-23.21179],[-45.78506,-23.21265],[-45.7854,-23.21313],[-45.78662,-23.21405],[-45.78788,-23.21344],[-45.78743,-23.21429],[-45.78642,-23.21544],[-45.78587,-23.21584],[-45.78484,-23.21716],[-45.78455,-23.21802],[-45.78356,-23.21953],[-45.78252,-23.22056]]]},"properties":{"codigo":"3549904034","name":"Setor Socioeconômico 30","population":17627,"households":7156,"areaKm2":33.4241,"density":527.4}},{"type":"Feature","geometry":{"type":"Polygon","coordinates":[[[-45.96089,-22.91465],[-45.96056,-22.91522],[-45.95964,-22.9156],[-45.95897,-22.91664],[-45.95848,-22.91677],[-45.9581,-22.91743],[-45.95809,-22.91804],[-45.95664,-22.91941],[-45.95595,-22.91943],[-45.95569,-22.92116],[-45.9562,-22.92272],[-45.95618,-22.92336],[-45.95584,-22.92377],[-45.95559,-22.92509],[-45.95529,-22.92591],[-45.95544,-22.92679],[-45.95515,-22.92695],[-45.95368,-22.92695],[-45.95364,-22.92811],[-45.95421,-22.92973],[-45.95495,-22.93037],[-45.95486,-22.93077],[-45.95413,-22.93096],[-45.95423,-22.93144],[-45.95467,-22.93191],[-45.95457,-22.93241],[-45.95489,-22.93363],[-45.95537,-22.93434],[-45.95571,-22.93547],[-45.95622,-22.93633],[-45.95686,-22.93676],[-45.95692,-22.93791],[-45.95674,-22.93842],[-45.95685,-22.93974],[-45.95658,-22.94014],[-45.95634,-22.94124],[-45.95709,-22.94283],[-45.95719,-22.94361],[-45.95763,-22.94459],[-45.95757,-22.94507],[-45.9579,-22.94603],[-45.95689,-22.94704],[-45.95601,-22.94751],[-45.95642,-22.94802],[-45.95598,-22.95096],[-45.95519,-22.95174],[-45.95455,-22.95314],[-45.95428,-22.95349],[-45.95439,-22.95432],[-45.95358,-22.95487],[-45.95296,-22.95485],[-45.95253,-22.9552],[-45.95237,-22.95598],[-45.95134,-22.95601],[-45.95086,-22.9563],[-45.95055,-22.95763],[-45.95086,-22.95833],[-45.95179,-22.95907],[-45.95125,-22.95966],[-45.9502,-22.95976],[-45.94871,-22.96027],[-45.94674,-22.96047],[-45.94644,-22.96065],[-45.94708,-22.96167],[-45.94709,-22.96235],[-45.94631,-22.96252],[-45.94587,-22.96298],[-45.94501,-22.9625],[-45.94438,-22.96258],[-45.94455,-22.96191],[-45.94386,-22.96176],[-45.94315,-22.96136],[-45.94185,-22.96115],[-45.94063,-22.9612],[-45.93942,-22.96073],[-45.93838,-22.95998],[-45.93791,-22.95933],[-45.93755,-22.95799],[-45.9366,-22.95671],[-45.93577,-22.95611],[-45.93428,-22.95651],[-45.93313,-22.95712],[-45.93278,-22.95748],[-45.93169,-22.95717],[-45.93161,-22.95618],[-45.9302,-22.95523],[-45.92881,-22.95528],[-45.92805,-22.95509],[-45.92793,-22.95409],[-45.92686,-22.95223],[-45.92581,-22.95075],[-45.9255,-22.95138],[-45.92483,-22.95176],[-45.92447,-22.95163],[-45.924,-22.95077],[-45.92357,-22.95065],[-45.92295,-22.95096],[-45.92169,-22.9498],[-45.92071,-22.94855],[-45.91952,-22.94763],[-45.91851,-22.947],[-45.91638,-22.94636],[-45.91613,-22.94573],[-45.91653,-22.94468],[-45.91739,-22.94443],[-45.91742,-22.94333],[-45.91677,-22.94169],[-45.91631,-22.94022],[-45.9162,-22.93926],[-45.91551,-22.93818],[-45.9159,-22.93722],[-45.91731,-22.93638],[-45.91735,-22.93563],[-45.91655,-22.93502],[-45.91595,-22.93423],[-45.91608,-22.93395],[-45.91803,-22.93292],[-45.91938,-22.9321],[-45.92024,-22.93208],[-45.92016,-22.93167],[-45.91944,-22.93079],[-45.91839,-22.93022],[-45.91856,-22.92981],[-45.91906,-22.92963],[-45.91987,-22.92988],[-45.91997,-22.92919],[-45.91936,-22.92833],[-45.91939,-22.9277],[-45.92044,-22.92759],[-45.92175,-22.92696],[-45.92266,-22.92698],[-45.92272,-22.92633],[-45.922,-22.92531],[-45.92275,-22.92509],[-45.92261,-22.92459],[-45.92199,-22.92405],[-45.92192,-22.92336],[-45.92238,-22.92257],[-45.92323,-22.92219],[-45.92381,-22.92234],[-45.92449,-22.92278],[-45.92509,-22.92273],[-45.92586,-22.92188],[-45.92651,-22.92153],[-45.92765,-22.92173],[-45.92879,-22.92143],[-45.92931,-22.92065],[-45.92962,-22.91961],[-45.92913,-22.91866],[-45.92927,-22.91818],[-45.93075,-22.91763],[-45.93215,-22.91667],[-45.93342,-22.91615],[-45.93331,-22.91566],[-45.93357,-22.91515],[-45.93466,-22.91419],[-45.93576,-22.91393],[-45.93662,-22.91428],[-45.93705,-22.91346],[-45.93731,-22.91241],[-45.9376,-22.91219],[-45.93835,-22.91219],[-45.9395,-22.91263],[-45.93955,-22.91197],[-45.93999,-22.91142],[-45.93985,-22.9103],[-45.93955,-22.91035],[-45.93933,-22.90939],[-45.93975,-22.90892],[-45.94032,-22.90916],[-45.9407,-22.90845],[-45.94032,-22.90764],[-45.9405,-22.90689],[-45.94092,-22.90649],[-45.94215,-22.9062],[-45.94597,-22.90627],[-45.94916,-22.90719],[-45.95486,-22.90739],[-45.9549,-22.90776],[-45.95644,-22.90991],[-45.95706,-22.91021],[-45.9577,-22.91015],[-45.95802,-22.90951],[-45.95898,-22.90952],[-45.95934,-22.90985],[-45.95996,-22.90922],[-45.96127,-22.90679],[-45.96209,-22.90648],[-45.96247,-22.90689],[-45.96328,-22.90695],[-45.96313,-22.90749],[-45.9633,-22.90861],[-45.96387,-22.90953],[-45.96304,-22.91011],[-45.96163,-22.91088],[-45.9618,-22.91185],[-45.96148,-22.9125],[-45.96178,-22.91312],[-45.96264,-22.91361],[-45.96299,-22.91505],[-45.96263,-22.91551],[-45.96131,-22.91544],[-45.96089,-22.91465]]]},"properties":{"codigo":"3549904035","name":"Setor Socioeconômico 21","population":1348,"households":762,"areaKm2":18.7418,"density":71.9}}]}