{"type":"FeatureCollection","features":[{"type":"Feature","geometry":{"type":"Polygon","coordinates":[[[-52.44569,-22.60828],[-52.44071,-22.60721],[-52.43763,-22.60685],[-52.43305,-22.60717],[-52.4265,-22.60891],[-52.42137,-22.6106],[-52.4127,-22.61345],[-52.40538,-22.61707],[-52.39572,-22.6203],[-52.39191,-22.62216],[-52.38049,-22.62654],[-52.36861,-22.62934],[-52.35874,-22.62942],[-52.3494,-22.63068],[-52.34191,-22.63112],[-52.33541,-22.63283],[-52.32693,-22.63313],[-52.31946,-22.63527],[-52.31314,-22.63651],[-52.30537,-22.63682],[-52.30366,-22.63664],[-52.30044,-22.63544],[-52.29625,-22.63282],[-52.29068,-22.62857],[-52.28996,-22.62823],[-52.28744,-22.62609],[-52.27869,-22.62039],[-52.27344,-22.61956],[-52.27084,-22.61875],[-52.26065,-22.61641],[-52.25041,-22.61543],[-52.24709,-22.61656],[-52.24013,-22.61988],[-52.23508,-22.62568],[-52.23086,-22.63352],[-52.2296,-22.63871],[-52.2281,-22.64252],[-52.22879,-22.64899],[-52.22838,-22.65637],[-52.22855,-22.66461],[-52.22738,-22.67088],[-52.22438,-22.67451],[-52.22258,-22.67554],[-52.21852,-22.67479],[-52.21516,-22.67253],[-52.21357,-22.67196],[-52.20949,-22.66731],[-52.20546,-22.66392],[-52.20107,-22.66091],[-52.19718,-22.65893],[-52.1888,-22.65638],[-52.18277,-22.65538],[-52.16685,-22.65033],[-52.1635,-22.64883],[-52.15668,-22.64472],[-52.15571,-22.64138],[-52.15685,-22.62868],[-52.15965,-22.62161],[-52.16194,-22.61087],[-52.16256,-22.60563],[-52.16249,-22.60118],[-52.16097,-22.58945],[-52.15687,-22.57731],[-52.15234,-22.56923],[-52.15196,-22.56856],[-52.14876,-22.54925],[-52.14758,-22.54646],[-52.14461,-22.54261],[-52.1421,-22.53648],[-52.13888,-22.53127],[-52.13555,-22.52691],[-52.13721,-22.52494],[-52.13838,-22.52243],[-52.13963,-22.5226],[-52.14053,-22.52043],[-52.14025,-22.51833],[-52.14138,-22.51619],[-52.14301,-22.51577],[-52.14356,-22.51601],[-52.14549,-22.51534],[-52.14564,-22.51465],[-52.14658,-22.51442],[-52.14673,-22.51361],[-52.1488,-22.51202],[-52.14916,-22.5107],[-52.15167,-22.50971],[-52.15279,-22.50988],[-52.15332,-22.50926],[-52.15596,-22.50827],[-52.15723,-22.50724],[-52.1578,-22.50524],[-52.16063,-22.50449],[-52.16216,-22.50358],[-52.16269,-22.50227],[-52.16344,-22.50184],[-52.16367,-22.50048],[-52.16514,-22.49908],[-52.16553,-22.49799],[-52.16619,-22.49807],[-52.16705,-22.4973],[-52.16931,-22.4942],[-52.16966,-22.49327],[-52.17063,-22.49259],[-52.17167,-22.49097],[-52.17292,-22.49026],[-52.17303,-22.48918],[-52.17364,-22.48791],[-52.1736,-22.48708],[-52.17455,-22.48551],[-52.1756,-22.48488],[-52.17556,-22.48401],[-52.17782,-22.48247],[-52.17912,-22.48233],[-52.1793,-22.48139],[-52.18027,-22.48139],[-52.18123,-22.48044],[-52.18156,-22.47913],[-52.18326,-22.47697],[-52.18309,-22.47554],[-52.18397,-22.47398],[-52.18351,-22.47342],[-52.18355,-22.47118],[-52.18284,-22.46999],[-52.18287,-22.46881],[-52.18454,-22.46734],[-52.18543,-22.46518],[-52.18562,-22.46405],[-52.18779,-22.46182],[-52.18794,-22.45994],[-52.18878,-22.45755],[-52.18999,-22.45657],[-52.19043,-22.45424],[-52.19207,-22.45143],[-52.19287,-22.44855],[-52.19321,-22.446],[-52.1938,-22.4445],[-52.19457,-22.44341],[-52.19702,-22.44097],[-52.19775,-22.43948],[-52.19868,-22.43885],[-52.1991,-22.43699],[-52.19875,-22.43563],[-52.19913,-22.43391],[-52.20052,-22.43294],[-52.2019,-22.43047],[-52.20306,-22.42929],[-52.20418,-22.42632],[-52.20471,-22.42549],[-52.20477,-22.4234],[-52.20579,-22.42072],[-52.20609,-22.41813],[-52.20679,-22.41663],[-52.20953,-22.41261],[-52.21115,-22.41069],[-52.21232,-22.40991],[-52.21315,-22.40815],[-52.21745,-22.40524],[-52.21774,-22.40449],[-52.21756,-22.40275],[-52.21858,-22.40197],[-52.21998,-22.4003],[-52.22207,-22.39986],[-52.2244,-22.39959],[-52.22674,-22.39809],[-52.22819,-22.3966],[-52.23066,-22.39488],[-52.23175,-22.39363],[-52.2346,-22.39226],[-52.23652,-22.39233],[-52.23877,-22.3931],[-52.24001,-22.39212],[-52.24184,-22.39208],[-52.24311,-22.39138],[-52.24459,-22.3921],[-52.24541,-22.39214],[-52.24666,-22.3936],[-52.24818,-22.39339],[-52.24929,-22.39251],[-52.2515,-22.39237],[-52.25216,-22.39196],[-52.25295,-22.39052],[-52.25418,-22.39006],[-52.25534,-22.38896],[-52.25966,-22.38782],[-52.26104,-22.38654],[-52.26188,-22.3862],[-52.26386,-22.38619],[-52.26512,-22.38678],[-52.26685,-22.3864],[-52.26926,-22.38643],[-52.27104,-22.38581],[-52.2735,-22.3836],[-52.27744,-22.38263],[-52.27987,-22.38173],[-52.28125,-22.38065],[-52.28288,-22.38019],[-52.28493,-22.38006],[-52.28636,-22.37963],[-52.28837,-22.37982],[-52.29346,-22.37966],[-52.29898,-22.38038],[-52.30253,-22.38128],[-52.30511,-22.38098],[-52.30769,-22.38138],[-52.31033,-22.38158],[-52.31231,-22.38088],[-52.31436,-22.37902],[-52.31577,-22.37872],[-52.31843,-22.37865],[-52.3211,-22.37775],[-52.32232,-22.37668],[-52.32386,-22.37458],[-52.32586,-22.37266],[-52.32946,-22.37047],[-52.33582,-22.37214],[-52.33717,-22.37228],[-52.33877,-22.37173],[-52.3397,-22.371],[-52.34192,-22.36817],[-52.34321,-22.36676],[-52.34578,-22.36473],[-52.34781,-22.36288],[-52.35085,-22.36038],[-52.35255,-22.35871],[-52.35356,-22.3564],[-52.35374,-22.35416],[-52.35362,-22.35196],[-52.35386,-22.34801],[-52.35467,-22.34649],[-52.35924,-22.34272],[-52.3618,-22.34023],[-52.36333,-22.33933],[-52.3647,-22.33746],[-52.36541,-22.33483],[-52.36549,-22.33228],[-52.36579,-22.33142],[-52.36692,-22.33054],[-52.36972,-22.33049],[-52.3727,-22.32922],[-52.37391,-22.32925],[-52.37543,-22.32977],[-52.37702,-22.32945],[-52.37932,-22.32822],[-52.38567,-22.32803],[-52.3875,-22.32863],[-52.38841,-22.32835],[-52.38922,-22.3274],[-52.38979,-22.32609],[-52.39109,-22.32549],[-52.39225,-22.32428],[-52.39691,-22.32141],[-52.39867,-22.3193],[-52.40001,-22.3181],[-52.40096,-22.31778],[-52.40485,-22.31793],[-52.40698,-22.31839],[-52.40786,-22.3183],[-52.40939,-22.31759],[-52.41134,-22.31775],[-52.4121,-22.31674],[-52.41172,-22.31188],[-52.41189,-22.31042],[-52.41487,-22.30733],[-52.41573,-22.30425],[-52.41725,-22.30269],[-52.41903,-22.30161],[-52.41996,-22.30019],[-52.4203,-22.29832],[-52.4223,-22.29512],[-52.42243,-22.2929],[-52.42311,-22.29145],[-52.4234,-22.29008],[-52.42614,-22.2862],[-52.42657,-22.28399],[-52.42724,-22.28327],[-52.42974,-22.28219],[-52.43361,-22.27603],[-52.43484,-22.27386],[-52.4371,-22.27098],[-52.44002,-22.26905],[-52.44129,-22.26795],[-52.44604,-22.26099],[-52.44725,-22.26013],[-52.45022,-22.25855],[-52.45347,-22.25527],[-52.45569,-22.25446],[-52.45736,-22.25333],[-52.45917,-22.25111],[-52.46094,-22.2503],[-52.46189,-22.24936],[-52.46306,-22.24879],[-52.46396,-22.24738],[-52.46573,-22.24702],[-52.46572,-22.24616],[-52.46671,-22.24523],[-52.46962,-22.24352],[-52.47108,-22.24202],[-52.47298,-22.24108],[-52.47457,-22.24098],[-52.47588,-22.24049],[-52.47711,-22.23936],[-52.4785,-22.2388],[-52.48008,-22.23766],[-52.48011,-22.23663],[-52.48234,-22.23618],[-52.48328,-22.23552],[-52.48443,-22.23547],[-52.48604,-22.23456],[-52.48697,-22.23447],[-52.48817,-22.23489],[-52.48954,-22.23452],[-52.49016,-22.23491],[-52.49087,-22.23699],[-52.49231,-22.23747],[-52.49356,-22.23731],[-52.49512,-22.23587],[-52.49598,-22.23549],[-52.49618,-22.23413],[-52.49429,-22.23263],[-52.49097,-22.22961],[-52.48988,-22.22823],[-52.489,-22.22651],[-52.48832,-22.22461],[-52.48836,-22.2218],[-52.48984,-22.21829],[-52.49303,-22.21993],[-52.49877,-22.22355],[-52.50344,-22.22538],[-52.50683,-22.22512],[-52.51239,-22.22558],[-52.52323,-22.22902],[-52.53149,-22.23392],[-52.53335,-22.23564],[-52.54208,-22.24027],[-52.54861,-22.24243],[-52.57102,-22.24843],[-52.57919,-22.25195],[-52.58694,-22.25675],[-52.59277,-22.26273],[-52.59752,-22.26879],[-52.60199,-22.27195],[-52.60443,-22.27313],[-52.62336,-22.27902],[-52.62952,-22.2824],[-52.63338,-22.28499],[-52.63631,-22.28867],[-52.64004,-22.29299],[-52.6458,-22.29828],[-52.65028,-22.301],[-52.65534,-22.30314],[-52.65154,-22.31345],[-52.65155,-22.31422],[-52.6526,-22.31722],[-52.65276,-22.32229],[-52.65359,-22.32968],[-52.65421,-22.33305],[-52.65446,-22.33951],[-52.65519,-22.34149],[-52.6556,-22.34504],[-52.65406,-22.3497],[-52.65373,-22.35236],[-52.65399,-22.3554],[-52.65389,-22.35669],[-52.65321,-22.35817],[-52.65189,-22.36028],[-52.65133,-22.36226],[-52.65099,-22.36621],[-52.65063,-22.36819],[-52.64992,-22.3701],[-52.64818,-22.37247],[-52.64775,-22.37574],[-52.64589,-22.37848],[-52.64493,-22.38183],[-52.64237,-22.38536],[-52.63781,-22.38845],[-52.6372,-22.389],[-52.63607,-22.3908],[-52.63366,-22.39259],[-52.63067,-22.39619],[-52.62956,-22.39691],[-52.6276,-22.39762],[-52.62536,-22.39771],[-52.62387,-22.39808],[-52.62101,-22.39949],[-52.61901,-22.40023],[-52.61296,-22.40083],[-52.61158,-22.40156],[-52.60387,-22.40248],[-52.60184,-22.40317],[-52.60027,-22.40437],[-52.5983,-22.40619],[-52.5954,-22.40693],[-52.59156,-22.40905],[-52.58517,-22.41287],[-52.58375,-22.41317],[-52.5818,-22.41304],[-52.58037,-22.41239],[-52.5731,-22.406],[-52.56847,-22.40136],[-52.56259,-22.39614],[-52.55765,-22.39291],[-52.55632,-22.3924],[-52.55525,-22.39241],[-52.54951,-22.3938],[-52.54809,-22.39438],[-52.5453,-22.39598],[-52.54413,-22.39627],[-52.5428,-22.39605],[-52.54069,-22.39512],[-52.53639,-22.39226],[-52.53373,-22.3911],[-52.53209,-22.39102],[-52.52894,-22.39181],[-52.52722,-22.39406],[-52.52605,-22.39383],[-52.52293,-22.39197],[-52.5184,-22.38888],[-52.51645,-22.38771],[-52.51491,-22.38725],[-52.51354,-22.38731],[-52.5119,-22.38775],[-52.51069,-22.38876],[-52.50807,-22.39173],[-52.50526,-22.39636],[-52.50341,-22.3999],[-52.50275,-22.40052],[-52.49775,-22.40273],[-52.49318,-22.4051],[-52.49055,-22.40726],[-52.48771,-22.41004],[-52.48616,-22.41132],[-52.48311,-22.41253],[-52.46823,-22.41571],[-52.46702,-22.41629],[-52.4653,-22.41787],[-52.465,-22.41902],[-52.46512,-22.42025],[-52.46612,-22.42338],[-52.46821,-22.42797],[-52.47065,-22.43181],[-52.47547,-22.43828],[-52.47831,-22.44165],[-52.47904,-22.44269],[-52.47905,-22.44397],[-52.47815,-22.44545],[-52.47653,-22.44727],[-52.47443,-22.45067],[-52.47059,-22.45927],[-52.4692,-22.46342],[-52.46836,-22.46666],[-52.46794,-22.47034],[-52.46819,-22.47443],[-52.46913,-22.48143],[-52.47048,-22.48874],[-52.47082,-22.49144],[-52.47049,-22.49349],[-52.46942,-22.49539],[-52.46847,-22.49811],[-52.46799,-22.50278],[-52.46526,-22.50293],[-52.46287,-22.50455],[-52.46082,-22.50643],[-52.4598,-22.50772],[-52.4594,-22.50926],[-52.45995,-22.51254],[-52.46054,-22.51496],[-52.46203,-22.51839],[-52.46286,-22.52063],[-52.46438,-22.52533],[-52.46478,-22.52715],[-52.46555,-22.52792],[-52.46596,-22.52955],[-52.46578,-22.53104],[-52.466,-22.53336],[-52.46484,-22.53453],[-52.46434,-22.53621],[-52.46337,-22.53738],[-52.4627,-22.53759],[-52.46172,-22.53888],[-52.46035,-22.53976],[-52.45867,-22.54146],[-52.45722,-22.54208],[-52.45623,-22.5434],[-52.45594,-22.54443],[-52.45434,-22.54669],[-52.45304,-22.54766],[-52.45233,-22.54896],[-52.45156,-22.55133],[-52.45165,-22.55307],[-52.45069,-22.55539],[-52.45138,-22.5623],[-52.45251,-22.56489],[-52.45367,-22.56643],[-52.45468,-22.56878],[-52.45549,-22.57],[-52.45495,-22.57087],[-52.45379,-22.57176],[-52.45294,-22.57364],[-52.45167,-22.57547],[-52.45162,-22.57768],[-52.45217,-22.57881],[-52.45221,-22.58006],[-52.45157,-22.58163],[-52.45189,-22.58405],[-52.45141,-22.58816],[-52.45051,-22.58969],[-52.44929,-22.59066],[-52.44732,-22.59156],[-52.44627,-22.59311],[-52.44529,-22.59645],[-52.44601,-22.59745],[-52.44613,-22.5989],[-52.44522,-22.60021],[-52.44597,-22.60232],[-52.44507,-22.60407],[-52.44482,-22.60561],[-52.44569,-22.60828]]]},"properties":{"codigo":"355430005","name":"Teodoro Sampaio","population":20727,"households":9105,"areaKm2":1236.2802,"density":16.8}},{"type":"Feature","geometry":{"type":"Polygon","coordinates":[[[-52.28473,-22.27306],[-52.28595,-22.27259],[-52.28701,-22.27093],[-52.28687,-22.27002],[-52.2882,-22.26654],[-52.28911,-22.2651],[-52.2907,-22.26369],[-52.29122,-22.26175],[-52.29184,-22.26106],[-52.29349,-22.257],[-52.29667,-22.25333],[-52.29778,-22.25246],[-52.3001,-22.2511],[-52.30131,-22.25112],[-52.3021,-22.25013],[-52.30325,-22.24939],[-52.30515,-22.24878],[-52.30641,-22.2488],[-52.30783,-22.24808],[-52.30814,-22.24699],[-52.31018,-22.24602],[-52.31188,-22.24565],[-52.31307,-22.24444],[-52.31478,-22.2432],[-52.31631,-22.24263],[-52.31808,-22.24147],[-52.31895,-22.24031],[-52.32059,-22.23951],[-52.32271,-22.23944],[-52.32341,-22.23986],[-52.32546,-22.2387],[-52.32875,-22.23938],[-52.33044,-22.23927],[-52.33378,-22.2386],[-52.33492,-22.23787],[-52.33606,-22.23797],[-52.33812,-22.23478],[-52.33784,-22.23421],[-52.3401,-22.23173],[-52.34099,-22.2304],[-52.34351,-22.22994],[-52.34773,-22.22818],[-52.35025,-22.2275],[-52.35107,-22.22568],[-52.35245,-22.22568],[-52.35451,-22.22363],[-52.35628,-22.22233],[-52.35946,-22.22062],[-52.36159,-22.22134],[-52.36452,-22.22046],[-52.3663,-22.22067],[-52.36837,-22.22047],[-52.37149,-22.21903],[-52.37325,-22.2187],[-52.37464,-22.21753],[-52.3766,-22.21646],[-52.37779,-22.21627],[-52.38239,-22.21435],[-52.38662,-22.21185],[-52.38748,-22.21201],[-52.39068,-22.21132],[-52.39255,-22.21012],[-52.39285,-22.20933],[-52.39434,-22.20834],[-52.39664,-22.20774],[-52.39855,-22.20656],[-52.4007,-22.20422],[-52.40212,-22.20322],[-52.40276,-22.20237],[-52.40499,-22.20216],[-52.40554,-22.2017],[-52.40703,-22.20176],[-52.40827,-22.19959],[-52.40969,-22.1981],[-52.41132,-22.19728],[-52.41208,-22.19621],[-52.41222,-22.19503],[-52.41302,-22.19308],[-52.41316,-22.19203],[-52.41478,-22.1906],[-52.41624,-22.18899],[-52.41832,-22.18726],[-52.41881,-22.18625],[-52.42112,-22.18625],[-52.42209,-22.18582],[-52.42303,-22.18608],[-52.42614,-22.18458],[-52.42669,-22.1839],[-52.42792,-22.18333],[-52.42993,-22.18325],[-52.43091,-22.18243],[-52.43185,-22.18105],[-52.4335,-22.18068],[-52.43674,-22.18174],[-52.43865,-22.18216],[-52.44048,-22.18228],[-52.44162,-22.18292],[-52.44339,-22.18504],[-52.44631,-22.18549],[-52.4501,-22.18557],[-52.45618,-22.18531],[-52.46068,-22.18874],[-52.47997,-22.20088],[-52.48099,-22.20234],[-52.48422,-22.21325],[-52.48771,-22.21721],[-52.48984,-22.21829],[-52.48836,-22.2218],[-52.48832,-22.22461],[-52.489,-22.22651],[-52.48988,-22.22823],[-52.49097,-22.22961],[-52.49429,-22.23263],[-52.49618,-22.23413],[-52.49598,-22.23549],[-52.49512,-22.23587],[-52.49356,-22.23731],[-52.49231,-22.23747],[-52.49087,-22.23699],[-52.49016,-22.23491],[-52.48954,-22.23452],[-52.48817,-22.23489],[-52.48697,-22.23447],[-52.48604,-22.23456],[-52.48443,-22.23547],[-52.48328,-22.23552],[-52.48234,-22.23618],[-52.48011,-22.23663],[-52.48008,-22.23766],[-52.4785,-22.2388],[-52.47711,-22.23936],[-52.47588,-22.24049],[-52.47457,-22.24098],[-52.47298,-22.24108],[-52.47108,-22.24202],[-52.46962,-22.24352],[-52.46671,-22.24523],[-52.46572,-22.24616],[-52.46573,-22.24702],[-52.46396,-22.24738],[-52.46306,-22.24879],[-52.46189,-22.24936],[-52.46094,-22.2503],[-52.45917,-22.25111],[-52.45736,-22.25333],[-52.45569,-22.25446],[-52.45347,-22.25527],[-52.45022,-22.25855],[-52.44725,-22.26013],[-52.44604,-22.26099],[-52.44129,-22.26795],[-52.44002,-22.26905],[-52.4371,-22.27098],[-52.43484,-22.27386],[-52.43361,-22.27603],[-52.42974,-22.28219],[-52.42724,-22.28327],[-52.42657,-22.28399],[-52.42614,-22.2862],[-52.4234,-22.29008],[-52.42311,-22.29145],[-52.42243,-22.2929],[-52.4223,-22.29512],[-52.4203,-22.29832],[-52.41996,-22.30019],[-52.41903,-22.30161],[-52.41725,-22.30269],[-52.41573,-22.30425],[-52.41487,-22.30733],[-52.41189,-22.31042],[-52.41172,-22.31188],[-52.4121,-22.31674],[-52.41134,-22.31775],[-52.40939,-22.31759],[-52.40786,-22.3183],[-52.40698,-22.31839],[-52.40485,-22.31793],[-52.40096,-22.31778],[-52.40001,-22.3181],[-52.39867,-22.3193],[-52.39691,-22.32141],[-52.39225,-22.32428],[-52.39109,-22.32549],[-52.38979,-22.32609],[-52.38922,-22.3274],[-52.38841,-22.32835],[-52.3875,-22.32863],[-52.38567,-22.32803],[-52.37932,-22.32822],[-52.37702,-22.32945],[-52.37543,-22.32977],[-52.37391,-22.32925],[-52.3727,-22.32922],[-52.36972,-22.33049],[-52.36692,-22.33054],[-52.36579,-22.33142],[-52.36549,-22.33228],[-52.36541,-22.33483],[-52.3647,-22.33746],[-52.36333,-22.33933],[-52.3618,-22.34023],[-52.35924,-22.34272],[-52.35467,-22.34649],[-52.35386,-22.34801],[-52.35362,-22.35196],[-52.35374,-22.35416],[-52.35356,-22.3564],[-52.35255,-22.35871],[-52.35085,-22.36038],[-52.34781,-22.36288],[-52.34578,-22.36473],[-52.34321,-22.36676],[-52.34192,-22.36817],[-52.3397,-22.371],[-52.33877,-22.37173],[-52.33717,-22.37228],[-52.33582,-22.37214],[-52.32946,-22.37047],[-52.32586,-22.37266],[-52.32386,-22.37458],[-52.32232,-22.37668],[-52.3211,-22.37775],[-52.31843,-22.37865],[-52.31577,-22.37872],[-52.31436,-22.37902],[-52.31231,-22.38088],[-52.31033,-22.38158],[-52.30769,-22.38138],[-52.30511,-22.38098],[-52.30253,-22.38128],[-52.29898,-22.38038],[-52.29346,-22.37966],[-52.28837,-22.37982],[-52.28636,-22.37963],[-52.28493,-22.38006],[-52.28288,-22.38019],[-52.28125,-22.38065],[-52.27987,-22.38173],[-52.27744,-22.38263],[-52.2735,-22.3836],[-52.27104,-22.38581],[-52.26926,-22.38643],[-52.26685,-22.3864],[-52.26512,-22.38678],[-52.26386,-22.38619],[-52.26188,-22.3862],[-52.26104,-22.38654],[-52.25966,-22.38782],[-52.25534,-22.38896],[-52.25418,-22.39006],[-52.25295,-22.39052],[-52.25216,-22.39196],[-52.2515,-22.39237],[-52.24929,-22.39251],[-52.24818,-22.39339],[-52.24666,-22.3936],[-52.24541,-22.39214],[-52.24459,-22.3921],[-52.24311,-22.39138],[-52.24184,-22.39208],[-52.24001,-22.39212],[-52.23877,-22.3931],[-52.23652,-22.39233],[-52.2346,-22.39226],[-52.23175,-22.39363],[-52.23066,-22.39488],[-52.22819,-22.3966],[-52.22674,-22.39809],[-52.2244,-22.39959],[-52.22207,-22.39986],[-52.21998,-22.4003],[-52.2209,-22.39868],[-52.22195,-22.39558],[-52.22338,-22.39279],[-52.22395,-22.38931],[-52.22352,-22.38688],[-52.22363,-22.38531],[-52.22448,-22.38262],[-52.22444,-22.38007],[-52.22498,-22.37849],[-52.22652,-22.37677],[-52.22715,-22.37469],[-52.22681,-22.37356],[-52.22687,-22.37217],[-52.22608,-22.3703],[-52.22537,-22.36959],[-52.22587,-22.36842],[-52.22505,-22.36743],[-52.22514,-22.36593],[-52.22573,-22.36258],[-52.22556,-22.3594],[-52.22692,-22.35567],[-52.22756,-22.35328],[-52.23029,-22.34889],[-52.2315,-22.34558],[-52.23159,-22.34265],[-52.23214,-22.33964],[-52.23206,-22.33867],[-52.2308,-22.33539],[-52.23009,-22.33408],[-52.2289,-22.33282],[-52.22781,-22.33227],[-52.22599,-22.33191],[-52.22342,-22.33092],[-52.22198,-22.32953],[-52.22068,-22.32907],[-52.21949,-22.32627],[-52.21851,-22.3254],[-52.21586,-22.32471],[-52.21446,-22.32403],[-52.21326,-22.32279],[-52.21302,-22.32171],[-52.21318,-22.31891],[-52.21347,-22.31745],[-52.21369,-22.31446],[-52.21363,-22.31071],[-52.21392,-22.30841],[-52.21496,-22.30429],[-52.21694,-22.30223],[-52.21741,-22.30008],[-52.21565,-22.29773],[-52.21519,-22.29485],[-52.21376,-22.29292],[-52.21098,-22.28978],[-52.20936,-22.28613],[-52.2112,-22.28738],[-52.21363,-22.28843],[-52.21578,-22.28856],[-52.21951,-22.28824],[-52.22036,-22.28801],[-52.2214,-22.28699],[-52.22234,-22.28664],[-52.22421,-22.2869],[-52.22615,-22.28788],[-52.22815,-22.28851],[-52.23048,-22.28845],[-52.23246,-22.28792],[-52.23428,-22.28859],[-52.236,-22.28885],[-52.23861,-22.29081],[-52.23932,-22.29104],[-52.24108,-22.29077],[-52.24283,-22.28947],[-52.2458,-22.28836],[-52.24762,-22.28813],[-52.24835,-22.28736],[-52.25106,-22.28702],[-52.25227,-22.28526],[-52.25323,-22.28465],[-52.25615,-22.28455],[-52.25746,-22.28384],[-52.26003,-22.28383],[-52.26127,-22.28321],[-52.26288,-22.28291],[-52.26439,-22.28181],[-52.26534,-22.28206],[-52.26558,-22.28124],[-52.26699,-22.28076],[-52.26768,-22.27983],[-52.26872,-22.27946],[-52.26929,-22.27849],[-52.27309,-22.27664],[-52.27364,-22.27608],[-52.27566,-22.27564],[-52.27817,-22.27452],[-52.27957,-22.27472],[-52.28013,-22.27418],[-52.28175,-22.274],[-52.28473,-22.27306]]]},"properties":{"codigo":"355430025","name":"Planalto do Sul","population":1446,"households":798,"areaKm2":319.5228,"density":4.5}}]}