{"type":"FeatureCollection","features":[{"type":"Feature","geometry":{"type":"Polygon","coordinates":[[[-50.53997,-21.81473],[-50.54239,-21.81528],[-50.54296,-21.81581],[-50.54383,-21.81759],[-50.54482,-21.81899],[-50.54647,-21.82062],[-50.54802,-21.82112],[-50.54959,-21.82266],[-50.55142,-21.82375],[-50.55182,-21.82438],[-50.55416,-21.82515],[-50.55552,-21.82688],[-50.5563,-21.82833],[-50.55581,-21.82992],[-50.55728,-21.83182],[-50.55997,-21.83177],[-50.5604,-21.83256],[-50.56169,-21.8333],[-50.56565,-21.83359],[-50.56688,-21.83423],[-50.56921,-21.83601],[-50.56977,-21.83686],[-50.57282,-21.83702],[-50.57304,-21.83766],[-50.5741,-21.83833],[-50.57599,-21.8402],[-50.58164,-21.84232],[-50.58331,-21.84237],[-50.58651,-21.84206],[-50.58944,-21.84208],[-50.59066,-21.84181],[-50.59468,-21.84261],[-50.59751,-21.844],[-50.59941,-21.84409],[-50.60085,-21.84549],[-50.6018,-21.84701],[-50.60217,-21.8482],[-50.60313,-21.8495],[-50.604,-21.85],[-50.60718,-21.85053],[-50.608,-21.85135],[-50.60915,-21.85552],[-50.60915,-21.85772],[-50.60858,-21.85952],[-50.60696,-21.86193],[-50.60601,-21.86262],[-50.60342,-21.86283],[-50.60178,-21.86264],[-50.59896,-21.86176],[-50.59718,-21.86166],[-50.59557,-21.86213],[-50.59421,-21.86376],[-50.59265,-21.86701],[-50.59103,-21.86541],[-50.58913,-21.86419],[-50.58576,-21.86689],[-50.58385,-21.86809],[-50.58214,-21.87016],[-50.58116,-21.87216],[-50.58105,-21.87297],[-50.57949,-21.87724],[-50.57901,-21.87772],[-50.57754,-21.87707],[-50.57601,-21.87574],[-50.57546,-21.87583],[-50.57411,-21.87751],[-50.57193,-21.87869],[-50.57142,-21.8802],[-50.56963,-21.88238],[-50.5687,-21.88278],[-50.56719,-21.88239],[-50.56654,-21.88266],[-50.56448,-21.88267],[-50.56326,-21.88317],[-50.56258,-21.88448],[-50.56454,-21.88818],[-50.56435,-21.88884],[-50.56513,-21.89048],[-50.56607,-21.89081],[-50.56643,-21.89299],[-50.56689,-21.89382],[-50.56686,-21.89533],[-50.56723,-21.89626],[-50.56591,-21.89896],[-50.56591,-21.89996],[-50.56508,-21.9022],[-50.56488,-21.90436],[-50.56544,-21.90801],[-50.56554,-21.90986],[-50.56499,-21.91104],[-50.56506,-21.91193],[-50.56622,-21.91249],[-50.56873,-21.91139],[-50.57029,-21.91155],[-50.57172,-21.91252],[-50.57262,-21.91268],[-50.57672,-21.91163],[-50.57865,-21.91213],[-50.58134,-21.91322],[-50.58404,-21.91334],[-50.58731,-21.91268],[-50.58825,-21.9133],[-50.58904,-21.91526],[-50.58885,-21.91913],[-50.59006,-21.92106],[-50.59136,-21.92218],[-50.59439,-21.92289],[-50.5963,-21.92266],[-50.60083,-21.92155],[-50.6048,-21.92142],[-50.6092,-21.92225],[-50.61374,-21.92368],[-50.61517,-21.924],[-50.61693,-21.92403],[-50.61822,-21.92348],[-50.61939,-21.92259],[-50.62249,-21.91925],[-50.62382,-21.91886],[-50.62538,-21.91974],[-50.62597,-21.92054],[-50.62722,-21.92101],[-50.63141,-21.92412],[-50.6322,-21.92518],[-50.63541,-21.92677],[-50.63695,-21.92652],[-50.63789,-21.92677],[-50.64151,-21.92595],[-50.64276,-21.92615],[-50.64407,-21.92571],[-50.64657,-21.92606],[-50.64849,-21.92676],[-50.64951,-21.92763],[-50.64931,-21.92833],[-50.65148,-21.92801],[-50.652,-21.92944],[-50.65333,-21.92983],[-50.65342,-21.93073],[-50.65633,-21.93206],[-50.65754,-21.93305],[-50.66214,-21.93444],[-50.66349,-21.93438],[-50.66488,-21.93531],[-50.66515,-21.93688],[-50.66722,-21.93807],[-50.66832,-21.93803],[-50.66983,-21.93971],[-50.67089,-21.9404],[-50.67176,-21.94199],[-50.67418,-21.94469],[-50.6747,-21.94626],[-50.67461,-21.94746],[-50.67571,-21.94804],[-50.67652,-21.94919],[-50.67703,-21.95146],[-50.67696,-21.95345],[-50.67803,-21.95552],[-50.68068,-21.95769],[-50.68174,-21.95735],[-50.68219,-21.95968],[-50.68327,-21.96008],[-50.68385,-21.96147],[-50.68408,-21.96317],[-50.68639,-21.96634],[-50.68519,-21.96796],[-50.68556,-21.96849],[-50.6872,-21.96928],[-50.68691,-21.9705],[-50.68571,-21.97131],[-50.68559,-21.97268],[-50.68681,-21.97385],[-50.68634,-21.97472],[-50.68762,-21.97597],[-50.68887,-21.97595],[-50.68971,-21.97675],[-50.68976,-21.98065],[-50.69079,-21.98158],[-50.69042,-21.98244],[-50.69108,-21.98359],[-50.69102,-21.98497],[-50.6917,-21.98715],[-50.69266,-21.98786],[-50.69284,-21.98953],[-50.6933,-21.99012],[-50.69356,-21.9929],[-50.69467,-21.99355],[-50.69457,-21.99564],[-50.69546,-21.99646],[-50.69523,-21.99741],[-50.69744,-21.99913],[-50.69749,-22.00046],[-50.69877,-22.00174],[-50.69897,-22.00338],[-50.70025,-22.00413],[-50.70063,-22.0064],[-50.70247,-22.0081],[-50.70252,-22.01019],[-50.70444,-22.01383],[-50.70563,-22.01379],[-50.70678,-22.01434],[-50.70884,-22.01431],[-50.71015,-22.01521],[-50.70976,-22.01633],[-50.70987,-22.01805],[-50.70945,-22.01984],[-50.70735,-22.02062],[-50.70617,-22.0208],[-50.70511,-22.02158],[-50.70304,-22.02201],[-50.69975,-22.01973],[-50.69888,-22.01933],[-50.698,-22.01958],[-50.69682,-22.02273],[-50.69557,-22.02337],[-50.69247,-22.0235],[-50.69131,-22.02432],[-50.68917,-22.02479],[-50.68677,-22.02491],[-50.68469,-22.02474],[-50.68295,-22.02489],[-50.68186,-22.02722],[-50.67948,-22.02794],[-50.67641,-22.0283],[-50.67439,-22.02895],[-50.67236,-22.02922],[-50.67042,-22.02862],[-50.66847,-22.02856],[-50.6677,-22.03048],[-50.66559,-22.03216],[-50.66458,-22.03354],[-50.66333,-22.03571],[-50.66085,-22.03643],[-50.65929,-22.03628],[-50.65601,-22.03523],[-50.65524,-22.03535],[-50.65361,-22.03727],[-50.65045,-22.04003],[-50.64869,-22.04185],[-50.64835,-22.04317],[-50.64731,-22.04336],[-50.64644,-22.04473],[-50.64482,-22.04538],[-50.64337,-22.04629],[-50.64014,-22.04626],[-50.63928,-22.04648],[-50.63749,-22.05],[-50.63499,-22.05077],[-50.63294,-22.05052],[-50.63054,-22.04941],[-50.62813,-22.04919],[-50.6274,-22.05068],[-50.62633,-22.05173],[-50.6259,-22.05315],[-50.62447,-22.05424],[-50.62219,-22.05658],[-50.62142,-22.05819],[-50.62095,-22.06067],[-50.62026,-22.06154],[-50.61904,-22.06215],[-50.61743,-22.06239],[-50.61587,-22.06223],[-50.61348,-22.06346],[-50.61148,-22.06354],[-50.6101,-22.06326],[-50.60722,-22.06204],[-50.6058,-22.06187],[-50.60359,-22.06241],[-50.6007,-22.06366],[-50.6,-22.06423],[-50.60006,-22.06547],[-50.60107,-22.06829],[-50.60056,-22.06932],[-50.59876,-22.06984],[-50.59766,-22.06985],[-50.59667,-22.07078],[-50.59542,-22.07308],[-50.59483,-22.07338],[-50.59145,-22.07333],[-50.59009,-22.07299],[-50.58854,-22.07326],[-50.58651,-22.07418],[-50.58518,-22.07387],[-50.58145,-22.07111],[-50.57907,-22.07113],[-50.57865,-22.07144],[-50.57829,-22.07016],[-50.5749,-22.07017],[-50.57417,-22.06961],[-50.57238,-22.06993],[-50.57207,-22.06874],[-50.57302,-22.06847],[-50.57278,-22.06703],[-50.57213,-22.06646],[-50.5691,-22.06599],[-50.56876,-22.06504],[-50.56904,-22.0623],[-50.56832,-22.06107],[-50.56607,-22.05984],[-50.566,-22.05897],[-50.56639,-22.0568],[-50.56444,-22.05659],[-50.56447,-22.05494],[-50.56217,-22.05422],[-50.56194,-22.05328],[-50.56111,-22.05214],[-50.56004,-22.05197],[-50.55953,-22.05134],[-50.55959,-22.05],[-50.55915,-22.04926],[-50.5574,-22.04855],[-50.55583,-22.04832],[-50.55501,-22.0469],[-50.55358,-22.04643],[-50.5522,-22.04383],[-50.55074,-22.04394],[-50.54956,-22.04307],[-50.54944,-22.04211],[-50.54836,-22.04216],[-50.54614,-22.0414],[-50.54469,-22.03995],[-50.54303,-22.04009],[-50.54232,-22.0408],[-50.54133,-22.03974],[-50.54062,-22.03988],[-50.53767,-22.03708],[-50.53549,-22.03778],[-50.53458,-22.0374],[-50.53397,-22.0378],[-50.53281,-22.03726],[-50.5311,-22.03588],[-50.53116,-22.03461],[-50.52989,-22.034],[-50.52892,-22.03278],[-50.5283,-22.03272],[-50.52735,-22.03089],[-50.52693,-22.02955],[-50.52524,-22.02951],[-50.52487,-22.02833],[-50.52363,-22.02898],[-50.52246,-22.02853],[-50.52214,-22.02777],[-50.52025,-22.02745],[-50.5196,-22.02862],[-50.51778,-22.02934],[-50.51742,-22.02726],[-50.51433,-22.02687],[-50.51376,-22.02512],[-50.51201,-22.02491],[-50.51135,-22.0239],[-50.5097,-22.02302],[-50.50888,-22.02347],[-50.50659,-22.02326],[-50.50515,-22.02263],[-50.5046,-22.02304],[-50.50369,-22.02104],[-50.50258,-22.02104],[-50.50154,-22.01959],[-50.50051,-22.0196],[-50.49825,-22.01871],[-50.4976,-22.01722],[-50.49799,-22.01439],[-50.49559,-22.01263],[-50.49449,-22.0128],[-50.49263,-22.01245],[-50.49053,-22.01086],[-50.49062,-22.00933],[-50.48942,-22.00921],[-50.48699,-22.00802],[-50.48518,-22.00688],[-50.48278,-22.0061],[-50.48178,-22.00621],[-50.48076,-22.00577],[-50.47568,-22.00519],[-50.47414,-22.00473],[-50.46977,-22.00173],[-50.46783,-21.99998],[-50.46783,-21.99866],[-50.46859,-21.99713],[-50.46921,-21.99494],[-50.46886,-21.99383],[-50.46972,-21.99227],[-50.46976,-21.99123],[-50.47144,-21.98834],[-50.47303,-21.98362],[-50.47444,-21.98164],[-50.47385,-21.97894],[-50.47404,-21.97671],[-50.47504,-21.97585],[-50.47474,-21.97458],[-50.47574,-21.97334],[-50.47595,-21.9722],[-50.47487,-21.96965],[-50.47434,-21.96744],[-50.47456,-21.96552],[-50.47391,-21.96389],[-50.47383,-21.96272],[-50.47402,-21.95942],[-50.47465,-21.95856],[-50.4745,-21.95756],[-50.47475,-21.95453],[-50.47466,-21.95231],[-50.47422,-21.95105],[-50.47288,-21.95128],[-50.46966,-21.95297],[-50.46873,-21.95319],[-50.46667,-21.95284],[-50.46466,-21.95304],[-50.46152,-21.95385],[-50.46063,-21.95184],[-50.46051,-21.95047],[-50.46068,-21.94799],[-50.46005,-21.94657],[-50.45869,-21.94461],[-50.45721,-21.94148],[-50.45814,-21.93953],[-50.46143,-21.93543],[-50.4614,-21.93395],[-50.46096,-21.93148],[-50.46102,-21.9298],[-50.46182,-21.92872],[-50.46219,-21.9264],[-50.46272,-21.92533],[-50.46214,-21.92422],[-50.46206,-21.92301],[-50.46157,-21.92236],[-50.46158,-21.92008],[-50.45973,-21.91777],[-50.45931,-21.91571],[-50.44284,-21.91597],[-50.44329,-21.91402],[-50.44452,-21.9117],[-50.44283,-21.91049],[-50.44205,-21.91031],[-50.44061,-21.90878],[-50.43865,-21.90825],[-50.43629,-21.90876],[-50.43411,-21.90886],[-50.4296,-21.91086],[-50.42651,-21.91125],[-50.42488,-21.91037],[-50.42451,-21.90787],[-50.42449,-21.90614],[-50.42395,-21.90518],[-50.42242,-21.90424],[-50.41832,-21.90386],[-50.4168,-21.90307],[-50.41607,-21.90198],[-50.41516,-21.90131],[-50.41291,-21.9006],[-50.41332,-21.89816],[-50.41311,-21.89605],[-50.41353,-21.89464],[-50.41346,-21.89371],[-50.412,-21.89043],[-50.41128,-21.8872],[-50.41069,-21.88557],[-50.40909,-21.88326],[-50.40617,-21.88159],[-50.40486,-21.88046],[-50.40341,-21.87792],[-50.40294,-21.87639],[-50.4023,-21.87105],[-50.40231,-21.86854],[-50.40312,-21.86391],[-50.40457,-21.86119],[-50.40474,-21.85986],[-50.40434,-21.85917],[-50.40299,-21.85832],[-50.40155,-21.85684],[-50.39999,-21.85457],[-50.39797,-21.85318],[-50.3963,-21.85279],[-50.39113,-21.85295],[-50.38907,-21.85323],[-50.3824,-21.85447],[-50.38066,-21.85502],[-50.37785,-21.85561],[-50.37551,-21.85582],[-50.37276,-21.85573],[-50.36943,-21.85538],[-50.36508,-21.85629],[-50.36336,-21.85637],[-50.36133,-21.85593],[-50.36006,-21.85511],[-50.35883,-21.8533],[-50.35819,-21.85096],[-50.35687,-21.84942],[-50.35454,-21.84567],[-50.35445,-21.8443],[-50.35477,-21.84301],[-50.35585,-21.84227],[-50.35942,-21.84252],[-50.36024,-21.84224],[-50.36154,-21.84044],[-50.36002,-21.83849],[-50.35937,-21.83605],[-50.35937,-21.83498],[-50.36091,-21.83175],[-50.3622,-21.8297],[-50.36212,-21.82771],[-50.36527,-21.82687],[-50.36813,-21.82633],[-50.3701,-21.82619],[-50.37257,-21.82575],[-50.37685,-21.82582],[-50.37987,-21.82546],[-50.38422,-21.82368],[-50.38564,-21.82253],[-50.38759,-21.82047],[-50.38801,-21.81942],[-50.38802,-21.81533],[-50.38827,-21.81496],[-50.39911,-21.81501],[-50.4014,-21.81085],[-50.40304,-21.80907],[-50.41114,-21.80646],[-50.41538,-21.80532],[-50.41984,-21.80442],[-50.42182,-21.80413],[-50.42419,-21.80404],[-50.42574,-21.80429],[-50.4271,-21.80583],[-50.42831,-21.80812],[-50.4283,-21.80937],[-50.429,-21.80944],[-50.431,-21.81041],[-50.43247,-21.80994],[-50.43497,-21.81136],[-50.43647,-21.81281],[-50.43747,-21.81306],[-50.44217,-21.81723],[-50.4454,-21.81936],[-50.4467,-21.81993],[-50.44885,-21.82161],[-50.45015,-21.82307],[-50.45327,-21.82408],[-50.45507,-21.82537],[-50.45807,-21.82671],[-50.46044,-21.82813],[-50.46159,-21.82976],[-50.46394,-21.83095],[-50.46656,-21.83317],[-50.46817,-21.83497],[-50.46866,-21.83653],[-50.46892,-21.83879],[-50.47202,-21.8432],[-50.47274,-21.84541],[-50.47281,-21.84848],[-50.47266,-21.85033],[-50.47634,-21.85065],[-50.48196,-21.85081],[-50.48344,-21.85101],[-50.48689,-21.85186],[-50.48914,-21.85182],[-50.49147,-21.85144],[-50.49238,-21.85101],[-50.49463,-21.84904],[-50.49687,-21.84575],[-50.49792,-21.84305],[-50.49954,-21.8407],[-50.50079,-21.83847],[-50.50259,-21.83626],[-50.50319,-21.83445],[-50.50315,-21.83071],[-50.50428,-21.82997],[-50.50538,-21.82873],[-50.50664,-21.82677],[-50.50738,-21.82624],[-50.51192,-21.82705],[-50.51303,-21.82695],[-50.51545,-21.82571],[-50.51786,-21.82543],[-50.51886,-21.82505],[-50.52112,-21.82373],[-50.52385,-21.82185],[-50.5257,-21.82115],[-50.52843,-21.81955],[-50.5316,-21.81839],[-50.53297,-21.81809],[-50.53438,-21.81833],[-50.53591,-21.82007],[-50.53764,-21.81872],[-50.53836,-21.81671],[-50.53997,-21.81539],[-50.53997,-21.81473]]]},"properties":{"codigo":"355500005","name":"Tupã","population":61620,"households":27380,"areaKm2":494.7734,"density":124.5}},{"type":"Feature","geometry":{"type":"Polygon","coordinates":[[[-50.39345,-21.91392],[-50.39303,-21.91252],[-50.39278,-21.91031],[-50.39293,-21.90908],[-50.39257,-21.90797],[-50.39266,-21.90541],[-50.39373,-21.90442],[-50.39613,-21.90481],[-50.39806,-21.90642],[-50.39871,-21.90661],[-50.40099,-21.90562],[-50.40544,-21.9055],[-50.40684,-21.90467],[-50.40784,-21.90337],[-50.4098,-21.90228],[-50.41193,-21.90179],[-50.41291,-21.9006],[-50.41516,-21.90131],[-50.41607,-21.90198],[-50.4168,-21.90307],[-50.41832,-21.90386],[-50.42242,-21.90424],[-50.42395,-21.90518],[-50.42449,-21.90614],[-50.42451,-21.90787],[-50.42488,-21.91037],[-50.42651,-21.91125],[-50.4296,-21.91086],[-50.43411,-21.90886],[-50.43629,-21.90876],[-50.43865,-21.90825],[-50.44061,-21.90878],[-50.44205,-21.91031],[-50.44283,-21.91049],[-50.44452,-21.9117],[-50.44329,-21.91402],[-50.44284,-21.91597],[-50.45931,-21.91571],[-50.45973,-21.91777],[-50.46158,-21.92008],[-50.46157,-21.92236],[-50.46206,-21.92301],[-50.46214,-21.92422],[-50.46272,-21.92533],[-50.46219,-21.9264],[-50.46182,-21.92872],[-50.46102,-21.9298],[-50.46096,-21.93148],[-50.4614,-21.93395],[-50.46143,-21.93543],[-50.45814,-21.93953],[-50.45721,-21.94148],[-50.45869,-21.94461],[-50.46005,-21.94657],[-50.46068,-21.94799],[-50.46051,-21.95047],[-50.46063,-21.95184],[-50.46152,-21.95385],[-50.46466,-21.95304],[-50.46667,-21.95284],[-50.46873,-21.95319],[-50.46966,-21.95297],[-50.47288,-21.95128],[-50.47422,-21.95105],[-50.47466,-21.95231],[-50.47475,-21.95453],[-50.4745,-21.95756],[-50.47465,-21.95856],[-50.47402,-21.95942],[-50.47383,-21.96272],[-50.47391,-21.96389],[-50.47456,-21.96552],[-50.47434,-21.96744],[-50.47487,-21.96965],[-50.47595,-21.9722],[-50.47574,-21.97334],[-50.47474,-21.97458],[-50.47504,-21.97585],[-50.47404,-21.97671],[-50.47385,-21.97894],[-50.47444,-21.98164],[-50.47303,-21.98362],[-50.47144,-21.98834],[-50.46976,-21.99123],[-50.46972,-21.99227],[-50.46886,-21.99383],[-50.46921,-21.99494],[-50.46859,-21.99713],[-50.46783,-21.99866],[-50.46783,-21.99998],[-50.46688,-21.99934],[-50.46415,-21.99853],[-50.46258,-21.99844],[-50.46024,-21.99738],[-50.45403,-21.99678],[-50.45284,-21.99589],[-50.45212,-21.99437],[-50.45112,-21.99396],[-50.4499,-21.99286],[-50.44863,-21.99255],[-50.44758,-21.99167],[-50.44485,-21.99097],[-50.4437,-21.99027],[-50.44186,-21.98861],[-50.43963,-21.98786],[-50.4386,-21.98673],[-50.43475,-21.98747],[-50.43183,-21.98771],[-50.43037,-21.98767],[-50.42804,-21.98695],[-50.42415,-21.98472],[-50.42383,-21.9837],[-50.42349,-21.98096],[-50.42362,-21.97951],[-50.42333,-21.9787],[-50.42341,-21.97649],[-50.42566,-21.97336],[-50.42413,-21.9714],[-50.42125,-21.96886],[-50.42005,-21.96721],[-50.41812,-21.96576],[-50.41702,-21.96559],[-50.41532,-21.96439],[-50.41378,-21.95913],[-50.41176,-21.95551],[-50.41154,-21.95452],[-50.41084,-21.94665],[-50.41153,-21.94447],[-50.41168,-21.94291],[-50.41325,-21.93943],[-50.4134,-21.93716],[-50.41294,-21.9365],[-50.41127,-21.93214],[-50.41106,-21.93026],[-50.41057,-21.9283],[-50.40988,-21.92683],[-50.4087,-21.92599],[-50.40702,-21.92419],[-50.40613,-21.92233],[-50.40128,-21.91781],[-50.39972,-21.91663],[-50.39817,-21.9162],[-50.39572,-21.91472],[-50.39345,-21.91392]]]},"properties":{"codigo":"355500015","name":"Parnaso","population":972,"households":495,"areaKm2":51.2061,"density":19}},{"type":"Feature","geometry":{"type":"Polygon","coordinates":[[[-50.62249,-21.91925],[-50.61939,-21.92259],[-50.61822,-21.92348],[-50.61693,-21.92403],[-50.61517,-21.924],[-50.61374,-21.92368],[-50.6092,-21.92225],[-50.6048,-21.92142],[-50.60083,-21.92155],[-50.5963,-21.92266],[-50.59439,-21.92289],[-50.59136,-21.92218],[-50.59006,-21.92106],[-50.58885,-21.91913],[-50.58904,-21.91526],[-50.58825,-21.9133],[-50.58731,-21.91268],[-50.58404,-21.91334],[-50.58134,-21.91322],[-50.57865,-21.91213],[-50.57672,-21.91163],[-50.57262,-21.91268],[-50.57172,-21.91252],[-50.57029,-21.91155],[-50.56873,-21.91139],[-50.56622,-21.91249],[-50.56506,-21.91193],[-50.56499,-21.91104],[-50.56554,-21.90986],[-50.56544,-21.90801],[-50.56488,-21.90436],[-50.56508,-21.9022],[-50.56591,-21.89996],[-50.56591,-21.89896],[-50.56723,-21.89626],[-50.56686,-21.89533],[-50.56689,-21.89382],[-50.56643,-21.89299],[-50.56607,-21.89081],[-50.56513,-21.89048],[-50.56435,-21.88884],[-50.56454,-21.88818],[-50.56258,-21.88448],[-50.56326,-21.88317],[-50.56448,-21.88267],[-50.56654,-21.88266],[-50.56719,-21.88239],[-50.5687,-21.88278],[-50.56963,-21.88238],[-50.57142,-21.8802],[-50.57193,-21.87869],[-50.57411,-21.87751],[-50.57546,-21.87583],[-50.57601,-21.87574],[-50.57754,-21.87707],[-50.57901,-21.87772],[-50.57949,-21.87724],[-50.58105,-21.87297],[-50.58116,-21.87216],[-50.58214,-21.87016],[-50.58385,-21.86809],[-50.58576,-21.86689],[-50.58913,-21.86419],[-50.59103,-21.86541],[-50.59265,-21.86701],[-50.59421,-21.86376],[-50.59557,-21.86213],[-50.59718,-21.86166],[-50.59896,-21.86176],[-50.60178,-21.86264],[-50.60342,-21.86283],[-50.60601,-21.86262],[-50.60696,-21.86193],[-50.60858,-21.85952],[-50.60915,-21.85772],[-50.6084,-21.86158],[-50.60843,-21.86391],[-50.60799,-21.8657],[-50.60664,-21.86692],[-50.6059,-21.86797],[-50.60589,-21.86927],[-50.60884,-21.87294],[-50.60932,-21.87498],[-50.60913,-21.87826],[-50.61039,-21.8805],[-50.61143,-21.88168],[-50.61356,-21.88286],[-50.61587,-21.88368],[-50.61643,-21.8845],[-50.61672,-21.88634],[-50.61642,-21.88765],[-50.61546,-21.88854],[-50.6121,-21.89044],[-50.61123,-21.8915],[-50.611,-21.89504],[-50.61156,-21.89658],[-50.61461,-21.89922],[-50.61691,-21.90171],[-50.61904,-21.90322],[-50.62447,-21.90335],[-50.62739,-21.90331],[-50.628,-21.90372],[-50.62773,-21.90636],[-50.62577,-21.90858],[-50.625,-21.91013],[-50.62373,-21.91188],[-50.62262,-21.91523],[-50.62186,-21.91696],[-50.62167,-21.9188],[-50.62249,-21.91925]]]},"properties":{"codigo":"355500020","name":"Universo","population":821,"households":370,"areaKm2":28.1206,"density":29.2}},{"type":"Feature","geometry":{"type":"Polygon","coordinates":[[[-50.5046,-22.02304],[-50.50515,-22.02263],[-50.50659,-22.02326],[-50.50888,-22.02347],[-50.5097,-22.02302],[-50.51135,-22.0239],[-50.51201,-22.02491],[-50.51376,-22.02512],[-50.51433,-22.02687],[-50.51742,-22.02726],[-50.51778,-22.02934],[-50.5196,-22.02862],[-50.52025,-22.02745],[-50.52214,-22.02777],[-50.52246,-22.02853],[-50.52363,-22.02898],[-50.52487,-22.02833],[-50.52524,-22.02951],[-50.52693,-22.02955],[-50.52735,-22.03089],[-50.5283,-22.03272],[-50.52892,-22.03278],[-50.52989,-22.034],[-50.53116,-22.03461],[-50.5311,-22.03588],[-50.53281,-22.03726],[-50.53397,-22.0378],[-50.53458,-22.0374],[-50.53549,-22.03778],[-50.53767,-22.03708],[-50.54062,-22.03988],[-50.54133,-22.03974],[-50.54232,-22.0408],[-50.54303,-22.04009],[-50.54469,-22.03995],[-50.54614,-22.0414],[-50.54836,-22.04216],[-50.54944,-22.04211],[-50.54956,-22.04307],[-50.55074,-22.04394],[-50.5522,-22.04383],[-50.55358,-22.04643],[-50.55501,-22.0469],[-50.55583,-22.04832],[-50.5574,-22.04855],[-50.55915,-22.04926],[-50.55959,-22.05],[-50.55953,-22.05134],[-50.56004,-22.05197],[-50.56111,-22.05214],[-50.56194,-22.05328],[-50.56217,-22.05422],[-50.56447,-22.05494],[-50.56444,-22.05659],[-50.56639,-22.0568],[-50.566,-22.05897],[-50.56607,-22.05984],[-50.56832,-22.06107],[-50.56904,-22.0623],[-50.56876,-22.06504],[-50.5691,-22.06599],[-50.57213,-22.06646],[-50.57278,-22.06703],[-50.57302,-22.06847],[-50.57207,-22.06874],[-50.57238,-22.06993],[-50.57417,-22.06961],[-50.5749,-22.07017],[-50.57829,-22.07016],[-50.57865,-22.07144],[-50.57723,-22.07227],[-50.57734,-22.07347],[-50.57638,-22.07447],[-50.57581,-22.07612],[-50.57609,-22.07798],[-50.57561,-22.07953],[-50.57415,-22.08175],[-50.57344,-22.08232],[-50.57198,-22.08228],[-50.57181,-22.08033],[-50.57143,-22.07901],[-50.57016,-22.078],[-50.56869,-22.07855],[-50.56751,-22.07857],[-50.56177,-22.07812],[-50.55938,-22.07845],[-50.55865,-22.07928],[-50.5572,-22.07992],[-50.55748,-22.08122],[-50.55692,-22.08317],[-50.55493,-22.0841],[-50.55337,-22.08243],[-50.55178,-22.08182],[-50.55015,-22.08247],[-50.54935,-22.0833],[-50.54879,-22.08473],[-50.54705,-22.08729],[-50.54685,-22.08839],[-50.5472,-22.08927],[-50.54948,-22.09151],[-50.55033,-22.09316],[-50.55058,-22.09489],[-50.54853,-22.09603],[-50.54676,-22.09655],[-50.54325,-22.09849],[-50.54074,-22.10112],[-50.53956,-22.10154],[-50.53725,-22.10145],[-50.53517,-22.10232],[-50.53465,-22.10511],[-50.53246,-22.10603],[-50.52991,-22.10625],[-50.52838,-22.10677],[-50.52653,-22.10792],[-50.52297,-22.10948],[-50.52112,-22.11102],[-50.51976,-22.11015],[-50.51752,-22.11002],[-50.51575,-22.10883],[-50.51414,-22.10842],[-50.51274,-22.10666],[-50.51103,-22.10618],[-50.50921,-22.1047],[-50.50893,-22.10378],[-50.50757,-22.1028],[-50.5072,-22.10186],[-50.50646,-22.1013],[-50.50577,-22.0989],[-50.50532,-22.09823],[-50.50307,-22.09816],[-50.50214,-22.09746],[-50.50157,-22.09589],[-50.4998,-22.09508],[-50.49845,-22.09553],[-50.49828,-22.0943],[-50.49692,-22.09188],[-50.49676,-22.09113],[-50.49447,-22.08971],[-50.49404,-22.0886],[-50.49414,-22.08738],[-50.49306,-22.08623],[-50.49301,-22.08477],[-50.49171,-22.08357],[-50.49112,-22.08223],[-50.48945,-22.08248],[-50.48925,-22.08112],[-50.48773,-22.0807],[-50.48617,-22.08154],[-50.48546,-22.08148],[-50.48384,-22.08054],[-50.48268,-22.07865],[-50.48251,-22.07664],[-50.48365,-22.07499],[-50.48397,-22.07409],[-50.48408,-22.07216],[-50.48687,-22.06937],[-50.48875,-22.06787],[-50.49075,-22.06509],[-50.49128,-22.06461],[-50.49391,-22.06315],[-50.49605,-22.0623],[-50.49876,-22.06219],[-50.50063,-22.06178],[-50.50231,-22.06179],[-50.50375,-22.06149],[-50.507,-22.06117],[-50.50897,-22.0613],[-50.51044,-22.0608],[-50.51197,-22.05941],[-50.51178,-22.0587],[-50.50917,-22.05851],[-50.50487,-22.0567],[-50.50297,-22.05631],[-50.50008,-22.05515],[-50.49776,-22.05359],[-50.49458,-22.05226],[-50.49204,-22.05164],[-50.48912,-22.05039],[-50.488,-22.04969],[-50.48728,-22.04874],[-50.48719,-22.0472],[-50.48821,-22.04501],[-50.48882,-22.04312],[-50.48913,-22.03948],[-50.49012,-22.03715],[-50.49206,-22.03542],[-50.49314,-22.03478],[-50.49669,-22.03197],[-50.50025,-22.02934],[-50.50185,-22.02771],[-50.50277,-22.02643],[-50.50384,-22.02414],[-50.5046,-22.02304]]]},"properties":{"codigo":"355500025","name":"Varpa","population":515,"households":347,"areaKm2":53.8862,"density":9.6}}]}