{"type":"FeatureCollection","features":[{"type":"Feature","geometry":{"type":"Polygon","coordinates":[[[-50.51503,-20.0835],[-50.50865,-20.08304],[-50.50469,-20.08303],[-50.49874,-20.08337],[-50.49717,-20.0832],[-50.49832,-20.08048],[-50.49854,-20.0788],[-50.49832,-20.07784],[-50.49836,-20.07507],[-50.49793,-20.07281],[-50.49846,-20.07091],[-50.4966,-20.07099],[-50.49442,-20.07073],[-50.49263,-20.07027],[-50.49065,-20.07018],[-50.48681,-20.07044],[-50.48443,-20.06973],[-50.48329,-20.07004],[-50.48189,-20.06969],[-50.47945,-20.07049],[-50.47715,-20.07074],[-50.47518,-20.06965],[-50.47344,-20.07004],[-50.4713,-20.07116],[-50.46943,-20.07165],[-50.46749,-20.07144],[-50.46615,-20.07197],[-50.46405,-20.07382],[-50.46144,-20.07704],[-50.45977,-20.07843],[-50.45859,-20.08],[-50.45604,-20.08113],[-50.45395,-20.08125],[-50.45212,-20.08099],[-50.45154,-20.07977],[-50.45289,-20.07678],[-50.45343,-20.07505],[-50.45362,-20.07121],[-50.45341,-20.06957],[-50.45255,-20.06736],[-50.45063,-20.06473],[-50.44955,-20.06379],[-50.44826,-20.06387],[-50.43895,-20.06654],[-50.43575,-20.06768],[-50.43312,-20.06784],[-50.43179,-20.0676],[-50.43049,-20.06698],[-50.42947,-20.06597],[-50.42851,-20.06421],[-50.42637,-20.06339],[-50.42194,-20.06262],[-50.41973,-20.06166],[-50.41852,-20.06195],[-50.41902,-20.06073],[-50.41991,-20.05975],[-50.42044,-20.0575],[-50.42173,-20.05592],[-50.42181,-20.05528],[-50.42292,-20.05453],[-50.42423,-20.05386],[-50.42542,-20.05283],[-50.42549,-20.05085],[-50.42714,-20.04948],[-50.42731,-20.04867],[-50.42656,-20.04611],[-50.42734,-20.04282],[-50.42704,-20.0424],[-50.42784,-20.04033],[-50.42668,-20.03993],[-50.42657,-20.03806],[-50.42726,-20.03763],[-50.42758,-20.03647],[-50.42852,-20.03605],[-50.42935,-20.03472],[-50.42956,-20.03338],[-50.43048,-20.03281],[-50.43008,-20.03187],[-50.43103,-20.03055],[-50.43123,-20.02873],[-50.43051,-20.0272],[-50.43171,-20.02611],[-50.43284,-20.02379],[-50.43307,-20.02176],[-50.43374,-20.02119],[-50.43316,-20.02041],[-50.43245,-20.02068],[-50.42921,-20.01999],[-50.4289,-20.01913],[-50.43037,-20.01677],[-50.43005,-20.01291],[-50.42964,-20.01213],[-50.42812,-20.01122],[-50.42763,-20.01046],[-50.42645,-20.01014],[-50.42699,-20.00791],[-50.42851,-20.00596],[-50.42854,-20.00462],[-50.42725,-20.00414],[-50.42698,-20.00276],[-50.42761,-20.00153],[-50.429,-20.00167],[-50.42878,-20.0001],[-50.42804,-19.99951],[-50.42907,-19.99782],[-50.42824,-19.99693],[-50.42778,-19.99474],[-50.42648,-19.99209],[-50.42809,-19.99119],[-50.42928,-19.99163],[-50.43002,-19.99054],[-50.43089,-19.99011],[-50.43097,-19.98913],[-50.43046,-19.98809],[-50.43116,-19.98682],[-50.43194,-19.9871],[-50.43263,-19.98633],[-50.43248,-19.98538],[-50.43303,-19.98492],[-50.43332,-19.98373],[-50.4344,-19.9839],[-50.43609,-19.98478],[-50.43882,-19.98702],[-50.44238,-19.99081],[-50.44796,-19.99716],[-50.44978,-19.99883],[-50.4519,-20.00126],[-50.45476,-20.00346],[-50.45432,-20.00799],[-50.45449,-20.00917],[-50.45578,-20.01093],[-50.45612,-20.01411],[-50.4573,-20.01452],[-50.4581,-20.01047],[-50.45928,-20.0101],[-50.461,-20.01145],[-50.46432,-20.01772],[-50.46453,-20.02044],[-50.46586,-20.02222],[-50.46954,-20.02405],[-50.47237,-20.02505],[-50.47354,-20.0257],[-50.47619,-20.02804],[-50.47916,-20.03031],[-50.48071,-20.03069],[-50.48324,-20.03024],[-50.4843,-20.02899],[-50.48506,-20.02912],[-50.48689,-20.03056],[-50.48809,-20.03182],[-50.49078,-20.03282],[-50.49139,-20.03325],[-50.49289,-20.03507],[-50.49476,-20.0361],[-50.49594,-20.03706],[-50.49682,-20.03709],[-50.49868,-20.03607],[-50.50231,-20.03565],[-50.50512,-20.03487],[-50.50703,-20.03368],[-50.5084,-20.0333],[-50.51029,-20.03212],[-50.51135,-20.03104],[-50.51297,-20.03012],[-50.51503,-20.02928],[-50.51607,-20.02909],[-50.51805,-20.02933],[-50.51766,-20.03018],[-50.51797,-20.03098],[-50.51904,-20.0321],[-50.51961,-20.03393],[-50.51962,-20.03499],[-50.51917,-20.03586],[-50.51703,-20.03701],[-50.51471,-20.04023],[-50.51435,-20.04271],[-50.51462,-20.04361],[-50.51427,-20.04529],[-50.51453,-20.04588],[-50.51422,-20.04864],[-50.51306,-20.0518],[-50.5126,-20.0525],[-50.51245,-20.0549],[-50.51445,-20.05627],[-50.51722,-20.06034],[-50.51833,-20.0633],[-50.51872,-20.06607],[-50.51912,-20.06743],[-50.51801,-20.07002],[-50.51772,-20.07165],[-50.51812,-20.07434],[-50.5173,-20.07674],[-50.51759,-20.07881],[-50.51696,-20.08029],[-50.51503,-20.0835]]]},"properties":{"codigo":"355530705","name":"Turmalina","population":1248,"households":664,"areaKm2":57.6094,"density":21.7}},{"type":"Feature","geometry":{"type":"Polygon","coordinates":[[[-50.48102,-20.15352],[-50.47915,-20.15282],[-50.47756,-20.15277],[-50.47589,-20.15315],[-50.47401,-20.15403],[-50.46878,-20.15696],[-50.46615,-20.1577],[-50.46478,-20.1578],[-50.46116,-20.15763],[-50.45666,-20.15702],[-50.45301,-20.15691],[-50.45154,-20.15847],[-50.45066,-20.15889],[-50.4473,-20.15701],[-50.44403,-20.1567],[-50.4405,-20.15669],[-50.43797,-20.15578],[-50.43614,-20.15538],[-50.43462,-20.15435],[-50.43272,-20.15347],[-50.43061,-20.15277],[-50.42898,-20.15158],[-50.42047,-20.14801],[-50.41882,-20.14755],[-50.41755,-20.14637],[-50.41419,-20.14432],[-50.41257,-20.14184],[-50.41103,-20.14044],[-50.40845,-20.13576],[-50.40775,-20.13517],[-50.40611,-20.13232],[-50.40498,-20.12909],[-50.40404,-20.12758],[-50.40375,-20.12635],[-50.40284,-20.12428],[-50.40214,-20.12351],[-50.40164,-20.12202],[-50.40014,-20.1199],[-50.39898,-20.11762],[-50.39739,-20.11552],[-50.39745,-20.11397],[-50.3961,-20.11171],[-50.39479,-20.11008],[-50.3948,-20.1083],[-50.39431,-20.10595],[-50.3938,-20.10447],[-50.39395,-20.1036],[-50.39284,-20.10287],[-50.39352,-20.10146],[-50.39463,-20.10122],[-50.39488,-20.10039],[-50.39645,-20.09897],[-50.39754,-20.09897],[-50.40103,-20.09514],[-50.40347,-20.09341],[-50.40403,-20.09213],[-50.4045,-20.09011],[-50.40424,-20.08888],[-50.40369,-20.08844],[-50.40335,-20.08651],[-50.40425,-20.08571],[-50.40428,-20.0848],[-50.40565,-20.08284],[-50.40772,-20.08094],[-50.40899,-20.07854],[-50.40945,-20.07853],[-50.41098,-20.07664],[-50.41237,-20.07586],[-50.41178,-20.07471],[-50.41306,-20.07328],[-50.41317,-20.07235],[-50.41465,-20.07131],[-50.41486,-20.07027],[-50.41435,-20.06928],[-50.41513,-20.06834],[-50.41624,-20.06762],[-50.41616,-20.06704],[-50.41781,-20.06465],[-50.4179,-20.06352],[-50.41852,-20.06195],[-50.41973,-20.06166],[-50.42194,-20.06262],[-50.42637,-20.06339],[-50.42851,-20.06421],[-50.42947,-20.06597],[-50.43049,-20.06698],[-50.43179,-20.0676],[-50.43312,-20.06784],[-50.43575,-20.06768],[-50.43895,-20.06654],[-50.44826,-20.06387],[-50.44955,-20.06379],[-50.45063,-20.06473],[-50.45255,-20.06736],[-50.45341,-20.06957],[-50.45362,-20.07121],[-50.45343,-20.07505],[-50.45289,-20.07678],[-50.45154,-20.07977],[-50.45212,-20.08099],[-50.45395,-20.08125],[-50.45604,-20.08113],[-50.45859,-20.08],[-50.45977,-20.07843],[-50.46144,-20.07704],[-50.46405,-20.07382],[-50.46615,-20.07197],[-50.46749,-20.07144],[-50.46943,-20.07165],[-50.4713,-20.07116],[-50.47344,-20.07004],[-50.47518,-20.06965],[-50.47715,-20.07074],[-50.47945,-20.07049],[-50.48189,-20.06969],[-50.48329,-20.07004],[-50.48443,-20.06973],[-50.48681,-20.07044],[-50.49065,-20.07018],[-50.49263,-20.07027],[-50.49442,-20.07073],[-50.4966,-20.07099],[-50.49846,-20.07091],[-50.49793,-20.07281],[-50.49836,-20.07507],[-50.49832,-20.07784],[-50.49854,-20.0788],[-50.49832,-20.08048],[-50.49717,-20.0832],[-50.49874,-20.08337],[-50.50469,-20.08303],[-50.50865,-20.08304],[-50.51503,-20.0835],[-50.51328,-20.08548],[-50.51064,-20.08731],[-50.50945,-20.08958],[-50.50845,-20.09092],[-50.50815,-20.09248],[-50.50643,-20.09673],[-50.50493,-20.09863],[-50.50415,-20.10103],[-50.50392,-20.10235],[-50.50316,-20.10392],[-50.50098,-20.10549],[-50.49962,-20.10744],[-50.49947,-20.10887],[-50.49966,-20.11169],[-50.49995,-20.11349],[-50.49764,-20.11468],[-50.49679,-20.1155],[-50.49584,-20.11708],[-50.49623,-20.11818],[-50.49568,-20.11971],[-50.49505,-20.12036],[-50.4938,-20.12262],[-50.49216,-20.12398],[-50.49167,-20.12487],[-50.49165,-20.127],[-50.49193,-20.12796],[-50.49169,-20.12984],[-50.49215,-20.13134],[-50.49178,-20.13406],[-50.49096,-20.13494],[-50.48969,-20.13549],[-50.48797,-20.13581],[-50.48678,-20.13658],[-50.48602,-20.13766],[-50.48467,-20.14037],[-50.48325,-20.14206],[-50.48309,-20.1433],[-50.48371,-20.14549],[-50.4845,-20.14749],[-50.48236,-20.1521],[-50.48102,-20.15352]]]},"properties":{"codigo":"355530710","name":"Fátima Paulista","population":421,"households":298,"areaKm2":90.1872,"density":4.7}}]}