{"type":"FeatureCollection","features":[{"type":"Feature","geometry":{"type":"Polygon","coordinates":[[[-53.33899,-24.02569],[-53.34007,-24.0256],[-53.34126,-24.02611],[-53.34326,-24.02628],[-53.34464,-24.02536],[-53.34851,-24.02034],[-53.35045,-24.01911],[-53.35146,-24.01741],[-53.35372,-24.01511],[-53.35645,-24.01312],[-53.35659,-24.0121],[-53.35993,-24.01035],[-53.36088,-24.00887],[-53.36193,-24.00788],[-53.36196,-24.00703],[-53.36366,-24.00381],[-53.36346,-24.00311],[-53.3642,-24.00186],[-53.36433,-24.00083],[-53.36509,-23.99883],[-53.36632,-23.99768],[-53.36681,-23.99681],[-53.36672,-23.99471],[-53.3672,-23.99313],[-53.36828,-23.99111],[-53.36953,-23.98941],[-53.37013,-23.98799],[-53.37149,-23.98749],[-53.37224,-23.98617],[-53.37327,-23.98571],[-53.37446,-23.98569],[-53.37629,-23.98738],[-53.37957,-23.98939],[-53.38057,-23.98984],[-53.38244,-23.98995],[-53.38395,-23.99069],[-53.38596,-23.99227],[-53.38748,-23.99294],[-53.38897,-23.99512],[-53.39063,-23.99614],[-53.39135,-23.99375],[-53.39415,-23.99286],[-53.41686,-23.98759],[-53.42232,-23.98617],[-53.42328,-23.98491],[-53.42891,-23.98203],[-53.42987,-23.9772],[-53.43147,-23.97676],[-53.43272,-23.97607],[-53.43382,-23.97591],[-53.43803,-23.97611],[-53.44001,-23.97578],[-53.4427,-23.97626],[-53.44584,-23.97737],[-53.44818,-23.9788],[-53.44966,-23.97854],[-53.45113,-23.97881],[-53.45217,-23.9786],[-53.45352,-23.97956],[-53.45404,-23.98043],[-53.45663,-23.97862],[-53.4578,-23.97993],[-53.47199,-23.99639],[-53.50051,-24.02946],[-53.51914,-24.0504],[-53.51199,-24.05629],[-53.50149,-24.0644],[-53.5004,-24.0655],[-53.49396,-24.07054],[-53.47883,-24.08072],[-53.47254,-24.08525],[-53.4515,-24.10119],[-53.4363,-24.11204],[-53.43313,-24.11441],[-53.41633,-24.1268],[-53.40985,-24.13136],[-53.40881,-24.13217],[-53.40845,-24.13143],[-53.40661,-24.12576],[-53.40622,-24.12236],[-53.40543,-24.11997],[-53.40565,-24.1191],[-53.4059,-24.11488],[-53.40645,-24.11331],[-53.40922,-24.10951],[-53.41035,-24.10757],[-53.40998,-24.1062],[-53.40821,-24.10368],[-53.40648,-24.10164],[-53.40672,-24.10009],[-53.40554,-24.0987],[-53.40589,-24.0962],[-53.40522,-24.09545],[-53.40148,-24.09466],[-53.39957,-24.09345],[-53.39444,-24.08985],[-53.39299,-24.08939],[-53.39248,-24.0887],[-53.39012,-24.08755],[-53.39313,-24.08276],[-53.39357,-24.08181],[-53.39512,-24.0761],[-53.39509,-24.07503],[-53.39127,-24.07159],[-53.3899,-24.06952],[-53.38408,-24.0586],[-53.38333,-24.05688],[-53.36234,-24.07243],[-53.32498,-24.10208],[-53.32181,-24.10431],[-53.32269,-24.10287],[-53.32281,-24.10212],[-53.32433,-24.09986],[-53.32539,-24.09865],[-53.32522,-24.09633],[-53.32557,-24.09421],[-53.32456,-24.09331],[-53.32098,-24.0916],[-53.32099,-24.0908],[-53.32224,-24.08953],[-53.32325,-24.08748],[-53.32188,-24.0876],[-53.32157,-24.08683],[-53.32036,-24.08658],[-53.32075,-24.08559],[-53.31998,-24.08371],[-53.32057,-24.08258],[-53.32013,-24.08123],[-53.32032,-24.07982],[-53.32117,-24.07852],[-53.32172,-24.07845],[-53.32263,-24.07634],[-53.32209,-24.0759],[-53.32329,-24.07474],[-53.32354,-24.0731],[-53.32555,-24.07212],[-53.32512,-24.07076],[-53.3258,-24.07044],[-53.32535,-24.06895],[-53.32531,-24.06745],[-53.32795,-24.0647],[-53.32931,-24.06432],[-53.32928,-24.06357],[-53.33015,-24.06165],[-53.33197,-24.05973],[-53.33361,-24.05956],[-53.33369,-24.05769],[-53.3343,-24.0561],[-53.33578,-24.05487],[-53.33621,-24.05265],[-53.33887,-24.05195],[-53.34025,-24.05064],[-53.34003,-24.04977],[-53.34059,-24.04904],[-53.34054,-24.04746],[-53.34127,-24.04711],[-53.3419,-24.04601],[-53.34145,-24.04451],[-53.34235,-24.04268],[-53.34195,-24.0415],[-53.34309,-24.03997],[-53.34344,-24.03889],[-53.34287,-24.03823],[-53.34271,-24.03678],[-53.34092,-24.03517],[-53.34062,-24.03388],[-53.34088,-24.03271],[-53.33902,-24.03138],[-53.33839,-24.02999],[-53.33835,-24.02884],[-53.33888,-24.02797],[-53.33899,-24.02569]]]},"properties":{"codigo":"410070705","name":"Alto Piquiri","population":7478,"households":3255,"areaKm2":180.7273,"density":41.4}},{"type":"Feature","geometry":{"type":"Polygon","coordinates":[[[-53.4363,-24.11204],[-53.44381,-24.12983],[-53.47538,-24.20454],[-53.48113,-24.21812],[-53.47832,-24.21817],[-53.47095,-24.22062],[-53.4681,-24.22118],[-53.46498,-24.22147],[-53.45816,-24.22314],[-53.44798,-24.23098],[-53.44473,-24.23326],[-53.43993,-24.23633],[-53.43683,-24.23805],[-53.43028,-24.24026],[-53.42743,-24.24079],[-53.42475,-24.24163],[-53.41982,-24.24214],[-53.40757,-24.2442],[-53.40144,-24.24355],[-53.39063,-24.24551],[-53.38796,-24.24635],[-53.38225,-24.24731],[-53.37981,-24.24723],[-53.37722,-24.24759],[-53.37377,-24.24924],[-53.36863,-24.25254],[-53.3666,-24.25303],[-53.36473,-24.25274],[-53.3621,-24.25165],[-53.36007,-24.24985],[-53.3583,-24.24765],[-53.35614,-24.24382],[-53.35312,-24.23989],[-53.35073,-24.23729],[-53.34791,-24.23491],[-53.34572,-24.23399],[-53.34294,-24.23371],[-53.33921,-24.23365],[-53.3371,-24.23233],[-53.33564,-24.22837],[-53.33803,-24.22384],[-53.3417,-24.22193],[-53.34221,-24.22097],[-53.34234,-24.21969],[-53.34369,-24.2197],[-53.34446,-24.21789],[-53.34567,-24.21725],[-53.34532,-24.21621],[-53.34632,-24.21438],[-53.34648,-24.21321],[-53.3452,-24.21118],[-53.34567,-24.21044],[-53.34655,-24.21022],[-53.34828,-24.21093],[-53.34973,-24.21204],[-53.35193,-24.21143],[-53.3525,-24.20974],[-53.35385,-24.20891],[-53.35403,-24.20636],[-53.35219,-24.20461],[-53.3521,-24.20381],[-53.35128,-24.20268],[-53.35043,-24.20087],[-53.35051,-24.19866],[-53.35135,-24.19718],[-53.35172,-24.19582],[-53.35253,-24.19494],[-53.35422,-24.19445],[-53.35484,-24.19349],[-53.35871,-24.19326],[-53.3619,-24.19575],[-53.37471,-24.19088],[-53.38884,-24.18513],[-53.38499,-24.17333],[-53.4059,-24.16342],[-53.40274,-24.16042],[-53.39957,-24.16161],[-53.39773,-24.15924],[-53.40235,-24.15484],[-53.40752,-24.15549],[-53.42153,-24.15753],[-53.42202,-24.15423],[-53.4221,-24.15026],[-53.42303,-24.14386],[-53.42379,-24.14075],[-53.42204,-24.1416],[-53.42117,-24.14127],[-53.4181,-24.14119],[-53.41733,-24.14086],[-53.41488,-24.13908],[-53.4136,-24.13882],[-53.41283,-24.13696],[-53.41162,-24.13513],[-53.41036,-24.13364],[-53.40923,-24.13295],[-53.40881,-24.13217],[-53.40985,-24.13136],[-53.41633,-24.1268],[-53.43313,-24.11441],[-53.4363,-24.11204]]]},"properties":{"codigo":"410070715","name":"Mirante do Piquiri","population":660,"households":371,"areaKm2":109.7297,"density":6}},{"type":"Feature","geometry":{"type":"Polygon","coordinates":[[[-53.40881,-24.13217],[-53.40923,-24.13295],[-53.41036,-24.13364],[-53.41162,-24.13513],[-53.41283,-24.13696],[-53.4136,-24.13882],[-53.41488,-24.13908],[-53.41733,-24.14086],[-53.4181,-24.14119],[-53.42117,-24.14127],[-53.42204,-24.1416],[-53.42379,-24.14075],[-53.42303,-24.14386],[-53.4221,-24.15026],[-53.42202,-24.15423],[-53.42153,-24.15753],[-53.40752,-24.15549],[-53.40235,-24.15484],[-53.39773,-24.15924],[-53.39957,-24.16161],[-53.40274,-24.16042],[-53.4059,-24.16342],[-53.38499,-24.17333],[-53.38884,-24.18513],[-53.37471,-24.19088],[-53.3619,-24.19575],[-53.35871,-24.19326],[-53.35484,-24.19349],[-53.35422,-24.19445],[-53.35253,-24.19494],[-53.35172,-24.19582],[-53.35135,-24.19718],[-53.35051,-24.19866],[-53.35043,-24.20087],[-53.35128,-24.20268],[-53.3521,-24.20381],[-53.35219,-24.20461],[-53.35403,-24.20636],[-53.35385,-24.20891],[-53.3525,-24.20974],[-53.35193,-24.21143],[-53.34973,-24.21204],[-53.34828,-24.21093],[-53.34655,-24.21022],[-53.34567,-24.21044],[-53.3452,-24.21118],[-53.34648,-24.21321],[-53.34632,-24.21438],[-53.34532,-24.21621],[-53.34567,-24.21725],[-53.34446,-24.21789],[-53.34369,-24.2197],[-53.34234,-24.21969],[-53.34221,-24.22097],[-53.3417,-24.22193],[-53.33803,-24.22384],[-53.33843,-24.22208],[-53.33861,-24.2201],[-53.33808,-24.21717],[-53.33344,-24.21284],[-53.33171,-24.21314],[-53.32992,-24.21456],[-53.32778,-24.21452],[-53.32665,-24.21356],[-53.32588,-24.21214],[-53.32559,-24.21019],[-53.32626,-24.2067],[-53.3268,-24.20509],[-53.32673,-24.20378],[-53.32498,-24.20088],[-53.32188,-24.19857],[-53.32085,-24.19839],[-53.32105,-24.197],[-53.32271,-24.19485],[-53.32357,-24.19228],[-53.32533,-24.19122],[-53.32783,-24.19037],[-53.32856,-24.18988],[-53.32797,-24.18826],[-53.32655,-24.18657],[-53.32687,-24.18527],[-53.32755,-24.1843],[-53.32742,-24.18235],[-53.32818,-24.18083],[-53.32764,-24.17996],[-53.32648,-24.18024],[-53.3234,-24.18311],[-53.32114,-24.18488],[-53.31981,-24.18549],[-53.31734,-24.18565],[-53.31671,-24.18506],[-53.31661,-24.18407],[-53.31705,-24.18173],[-53.31675,-24.17951],[-53.3169,-24.17831],[-53.31784,-24.17774],[-53.32006,-24.17816],[-53.32235,-24.17805],[-53.32363,-24.17668],[-53.32368,-24.17457],[-53.32115,-24.17304],[-53.31979,-24.17273],[-53.31593,-24.17265],[-53.31454,-24.17283],[-53.31271,-24.17242],[-53.31187,-24.17124],[-53.31225,-24.16584],[-53.31302,-24.16507],[-53.31453,-24.16216],[-53.315,-24.16163],[-53.31868,-24.15903],[-53.32083,-24.15803],[-53.32217,-24.15691],[-53.32217,-24.15578],[-53.32141,-24.15428],[-53.32202,-24.15249],[-53.32254,-24.14978],[-53.32243,-24.14851],[-53.32263,-24.14507],[-53.32221,-24.14355],[-53.32375,-24.14241],[-53.32399,-24.13877],[-53.32486,-24.13656],[-53.32497,-24.13557],[-53.32371,-24.13302],[-53.32379,-24.13242],[-53.32545,-24.13088],[-53.32603,-24.12952],[-53.32501,-24.12822],[-53.32463,-24.12641],[-53.32524,-24.12386],[-53.32513,-24.12255],[-53.32401,-24.12087],[-53.32326,-24.1202],[-53.32241,-24.11867],[-53.32036,-24.11758],[-53.32004,-24.1143],[-53.31897,-24.11276],[-53.31913,-24.10976],[-53.3209,-24.10718],[-53.32181,-24.10431],[-53.32498,-24.10208],[-53.36234,-24.07243],[-53.38333,-24.05688],[-53.38408,-24.0586],[-53.3899,-24.06952],[-53.39127,-24.07159],[-53.39509,-24.07503],[-53.39512,-24.0761],[-53.39357,-24.08181],[-53.39313,-24.08276],[-53.39012,-24.08755],[-53.39248,-24.0887],[-53.39299,-24.08939],[-53.39444,-24.08985],[-53.39957,-24.09345],[-53.40148,-24.09466],[-53.40522,-24.09545],[-53.40589,-24.0962],[-53.40554,-24.0987],[-53.40672,-24.10009],[-53.40648,-24.10164],[-53.40821,-24.10368],[-53.40998,-24.1062],[-53.41035,-24.10757],[-53.40922,-24.10951],[-53.40645,-24.11331],[-53.4059,-24.11488],[-53.40565,-24.1191],[-53.40543,-24.11997],[-53.40622,-24.12236],[-53.40661,-24.12576],[-53.40845,-24.13143],[-53.40881,-24.13217]]]},"properties":{"codigo":"410070720","name":"Paulistânia","population":956,"households":459,"areaKm2":111.4889,"density":8.6}},{"type":"Feature","geometry":{"type":"Polygon","coordinates":[[[-53.33899,-24.02569],[-53.33833,-24.02341],[-53.33852,-24.02188],[-53.33802,-24.02129],[-53.33788,-24.0198],[-53.33828,-24.01803],[-53.33761,-24.01649],[-53.33797,-24.01529],[-53.33744,-24.01491],[-53.33706,-24.01365],[-53.33778,-24.01266],[-53.33799,-24.01124],[-53.33773,-24.01022],[-53.33801,-24.00887],[-53.339,-24.00692],[-53.33983,-24.00388],[-53.34102,-24.00268],[-53.34148,-24.00152],[-53.34305,-23.99993],[-53.34348,-23.99782],[-53.34513,-23.99654],[-53.34747,-23.99345],[-53.34934,-23.99123],[-53.35046,-23.98844],[-53.35175,-23.98672],[-53.35214,-23.98559],[-53.35234,-23.98372],[-53.35335,-23.98101],[-53.35305,-23.97847],[-53.37909,-23.95526],[-53.38758,-23.94804],[-53.3996,-23.9395],[-53.41279,-23.92951],[-53.45663,-23.97862],[-53.45404,-23.98043],[-53.45352,-23.97956],[-53.45217,-23.9786],[-53.45113,-23.97881],[-53.44966,-23.97854],[-53.44818,-23.9788],[-53.44584,-23.97737],[-53.4427,-23.97626],[-53.44001,-23.97578],[-53.43803,-23.97611],[-53.43382,-23.97591],[-53.43272,-23.97607],[-53.43147,-23.97676],[-53.42987,-23.9772],[-53.42891,-23.98203],[-53.42328,-23.98491],[-53.42232,-23.98617],[-53.41686,-23.98759],[-53.39415,-23.99286],[-53.39135,-23.99375],[-53.39063,-23.99614],[-53.38897,-23.99512],[-53.38748,-23.99294],[-53.38596,-23.99227],[-53.38395,-23.99069],[-53.38244,-23.98995],[-53.38057,-23.98984],[-53.37957,-23.98939],[-53.37629,-23.98738],[-53.37446,-23.98569],[-53.37327,-23.98571],[-53.37224,-23.98617],[-53.37149,-23.98749],[-53.37013,-23.98799],[-53.36953,-23.98941],[-53.36828,-23.99111],[-53.3672,-23.99313],[-53.36672,-23.99471],[-53.36681,-23.99681],[-53.36632,-23.99768],[-53.36509,-23.99883],[-53.36433,-24.00083],[-53.3642,-24.00186],[-53.36346,-24.00311],[-53.36366,-24.00381],[-53.36196,-24.00703],[-53.36193,-24.00788],[-53.36088,-24.00887],[-53.35993,-24.01035],[-53.35659,-24.0121],[-53.35645,-24.01312],[-53.35372,-24.01511],[-53.35146,-24.01741],[-53.35045,-24.01911],[-53.34851,-24.02034],[-53.34464,-24.02536],[-53.34326,-24.02628],[-53.34126,-24.02611],[-53.34007,-24.0256],[-53.33899,-24.02569]]]},"properties":{"codigo":"410070725","name":"Saltinho do Oeste","population":633,"households":285,"areaKm2":45.7204,"density":13.8}}]}