{"type":"FeatureCollection","features":[{"type":"Feature","geometry":{"type":"Polygon","coordinates":[[[-51.41668,-26.08585],[-51.41205,-26.08759],[-51.41083,-26.0854],[-51.4101,-26.08271],[-51.41015,-26.08057],[-51.41146,-26.07824],[-51.41285,-26.07517],[-51.41322,-26.07223],[-51.41313,-26.06882],[-51.41227,-26.06473],[-51.41044,-26.06182],[-51.40811,-26.05998],[-51.40624,-26.05957],[-51.40363,-26.06042],[-51.40099,-26.06271],[-51.39916,-26.06505],[-51.39693,-26.06854],[-51.39458,-26.07017],[-51.38779,-26.07155],[-51.38588,-26.07261],[-51.3833,-26.07667],[-51.38232,-26.07933],[-51.38477,-26.08662],[-51.38563,-26.09026],[-51.38468,-26.09342],[-51.38005,-26.09733],[-51.37682,-26.09783],[-51.37185,-26.09764],[-51.3701,-26.09677],[-51.36774,-26.09476],[-51.36591,-26.092],[-51.36488,-26.08909],[-51.36382,-26.08092],[-51.36296,-26.07819],[-51.3591,-26.07816],[-51.35404,-26.08004],[-51.34968,-26.08229],[-51.34699,-26.08456],[-51.34548,-26.08616],[-51.34443,-26.09023],[-51.34253,-26.09198],[-51.3414,-26.09385],[-51.34149,-26.09546],[-51.34243,-26.09778],[-51.34336,-26.10129],[-51.3441,-26.1051],[-51.3446,-26.10954],[-51.34429,-26.11199],[-51.34196,-26.11383],[-51.33916,-26.11705],[-51.33576,-26.11802],[-51.33485,-26.11906],[-51.33221,-26.12118],[-51.32946,-26.12249],[-51.32305,-26.12176],[-51.31706,-26.12348],[-51.31388,-26.12401],[-51.3091,-26.12434],[-51.30624,-26.124],[-51.30074,-26.12089],[-51.29945,-26.11827],[-51.29659,-26.10988],[-51.29473,-26.10719],[-51.29279,-26.10482],[-51.28688,-26.10265],[-51.28413,-26.10099],[-51.28154,-26.09911],[-51.27954,-26.09734],[-51.27765,-26.09615],[-51.26796,-26.09667],[-51.2631,-26.09827],[-51.26163,-26.10113],[-51.25787,-26.09892],[-51.24885,-26.0976],[-51.24571,-26.09804],[-51.24493,-26.0962],[-51.2428,-26.09526],[-51.24307,-26.09405],[-51.24548,-26.09234],[-51.24507,-26.08901],[-51.24576,-26.0867],[-51.24204,-26.08354],[-51.24474,-26.07651],[-51.24175,-26.07479],[-51.24046,-26.07555],[-51.23871,-26.07552],[-51.23727,-26.07479],[-51.23718,-26.07353],[-51.23924,-26.07173],[-51.23957,-26.07036],[-51.23899,-26.06916],[-51.23743,-26.06822],[-51.23593,-26.06808],[-51.23107,-26.07108],[-51.22965,-26.07093],[-51.22888,-26.06845],[-51.22979,-26.06617],[-51.22791,-26.06605],[-51.22671,-26.06538],[-51.22554,-26.05965],[-51.2279,-26.05568],[-51.22718,-26.05477],[-51.22215,-26.05536],[-51.2211,-26.0525],[-51.22096,-26.04837],[-51.22143,-26.04572],[-51.22349,-26.04266],[-51.22239,-26.04254],[-51.22107,-26.04128],[-51.22137,-26.04018],[-51.22219,-26.03906],[-51.2224,-26.0375],[-51.22204,-26.03711],[-51.22162,-26.0346],[-51.21865,-26.03276],[-51.21733,-26.0327],[-51.21485,-26.03216],[-51.2135,-26.03217],[-51.20968,-26.03039],[-51.20818,-26.02889],[-51.20688,-26.02825],[-51.2067,-26.02748],[-51.20735,-26.02592],[-51.20639,-26.02312],[-51.20575,-26.02223],[-51.20469,-26.01942],[-51.20576,-26.01835],[-51.20622,-26.01663],[-51.20547,-26.0156],[-51.20535,-26.01425],[-51.20632,-26.01206],[-51.20617,-26.01068],[-51.20725,-26.00898],[-51.20754,-26.00747],[-51.20723,-26.00665],[-51.2043,-26.00182],[-51.20473,-26.00109],[-51.20474,-25.99886],[-51.20345,-25.998],[-51.20093,-25.99267],[-51.20004,-25.99176],[-51.19685,-25.9932],[-51.19486,-25.99494],[-51.19332,-25.99699],[-51.19116,-25.9973],[-51.18882,-25.99628],[-51.18771,-25.99691],[-51.1864,-25.99706],[-51.18418,-25.99422],[-51.18257,-25.99184],[-51.1813,-25.99191],[-51.18127,-25.99099],[-51.18041,-25.99011],[-51.18018,-25.98909],[-51.17945,-25.98873],[-51.17739,-25.98881],[-51.17641,-25.98814],[-51.17571,-25.98647],[-51.17404,-25.98558],[-51.17232,-25.98234],[-51.17451,-25.98171],[-51.17393,-25.9808],[-51.17492,-25.97939],[-51.17714,-25.9792],[-51.17782,-25.97845],[-51.17895,-25.97628],[-51.18015,-25.97536],[-51.18194,-25.97494],[-51.18158,-25.97441],[-51.18308,-25.97217],[-51.18159,-25.97222],[-51.18042,-25.9718],[-51.17962,-25.97066],[-51.17954,-25.96944],[-51.17866,-25.96797],[-51.17753,-25.96755],[-51.1751,-25.96864],[-51.17413,-25.96858],[-51.1729,-25.96789],[-51.17148,-25.96777],[-51.17018,-25.96828],[-51.16787,-25.96875],[-51.16564,-25.96842],[-51.16304,-25.9695],[-51.1625,-25.96952],[-51.15699,-25.96871],[-51.15582,-25.96823],[-51.15566,-25.96651],[-51.15807,-25.96662],[-51.16062,-25.96435],[-51.16139,-25.96314],[-51.16192,-25.9612],[-51.16254,-25.96044],[-51.16392,-25.96023],[-51.16596,-25.95926],[-51.1666,-25.95858],[-51.16596,-25.95693],[-51.16585,-25.95312],[-51.16611,-25.95123],[-51.16588,-25.94911],[-51.16791,-25.94842],[-51.16958,-25.94928],[-51.17068,-25.94887],[-51.1723,-25.94889],[-51.17405,-25.94844],[-51.17563,-25.94747],[-51.17572,-25.94588],[-51.17672,-25.94484],[-51.17855,-25.94367],[-51.17874,-25.94133],[-51.17823,-25.93937],[-51.17894,-25.94125],[-51.18007,-25.94132],[-51.18101,-25.94051],[-51.18209,-25.94087],[-51.18318,-25.94193],[-51.18443,-25.94096],[-51.18497,-25.94166],[-51.18393,-25.94336],[-51.18367,-25.94461],[-51.18398,-25.94521],[-51.18602,-25.94555],[-51.18696,-25.94516],[-51.18798,-25.94543],[-51.18706,-25.94686],[-51.18745,-25.9483],[-51.18856,-25.94866],[-51.19018,-25.95177],[-51.18816,-25.95221],[-51.18837,-25.95322],[-51.18798,-25.95523],[-51.18795,-25.95668],[-51.18903,-25.9569],[-51.19197,-25.95696],[-51.19375,-25.95577],[-51.19536,-25.95556],[-51.1983,-25.95609],[-51.2001,-25.95677],[-51.20219,-25.95623],[-51.20498,-25.95387],[-51.2048,-25.95493],[-51.20586,-25.95537],[-51.20855,-25.95535],[-51.21119,-25.95643],[-51.21079,-25.95723],[-51.21126,-25.95784],[-51.21086,-25.9593],[-51.21222,-25.96116],[-51.21077,-25.96358],[-51.21157,-25.96497],[-51.21305,-25.9663],[-51.21423,-25.96638],[-51.21552,-25.96691],[-51.21671,-25.96795],[-51.21568,-25.96925],[-51.21611,-25.97038],[-51.21596,-25.97131],[-51.2146,-25.97412],[-51.21283,-25.97463],[-51.21362,-25.97638],[-51.21365,-25.97833],[-51.21538,-25.97994],[-51.21708,-25.98092],[-51.21685,-25.98296],[-51.21781,-25.98426],[-51.21767,-25.98524],[-51.21813,-25.98627],[-51.21781,-25.98694],[-51.21822,-25.98793],[-51.21712,-25.98957],[-51.21683,-25.99069],[-51.21557,-25.99267],[-51.21574,-25.99455],[-51.21665,-25.99517],[-51.2178,-25.9971],[-51.21914,-25.99721],[-51.22074,-25.99812],[-51.22183,-25.99981],[-51.22324,-26.00049],[-51.2263,-26.001],[-51.22836,-26.00011],[-51.22981,-26.00019],[-51.23202,-26.00103],[-51.2329,-26.00111],[-51.23443,-26.00186],[-51.23472,-26.00358],[-51.23363,-26.00418],[-51.23391,-26.00493],[-51.23654,-26.00704],[-51.23906,-26.00678],[-51.24253,-26.00436],[-51.24602,-26.00243],[-51.24703,-26.00099],[-51.25047,-26.00103],[-51.2534,-26],[-51.25418,-25.99906],[-51.25364,-25.99757],[-51.25381,-25.99673],[-51.25557,-25.99603],[-51.25551,-25.99451],[-51.2623,-25.98954],[-51.26625,-25.98915],[-51.26885,-25.98948],[-51.26948,-25.9891],[-51.27171,-25.9892],[-51.2767,-25.98972],[-51.27829,-25.98929],[-51.28034,-25.98923],[-51.28256,-25.98826],[-51.28426,-25.98823],[-51.28512,-25.98739],[-51.28643,-25.98687],[-51.28882,-25.98746],[-51.29049,-25.98744],[-51.29263,-25.98689],[-51.29388,-25.9874],[-51.29506,-25.98726],[-51.29675,-25.98635],[-51.29712,-25.98573],[-51.29682,-25.98415],[-51.29617,-25.98364],[-51.29625,-25.98232],[-51.29743,-25.98021],[-51.29846,-25.9801],[-51.30003,-25.98043],[-51.30053,-25.98164],[-51.30164,-25.98158],[-51.30337,-25.98231],[-51.3055,-25.98214],[-51.30638,-25.9818],[-51.31035,-25.98207],[-51.31141,-25.98262],[-51.31266,-25.98014],[-51.31366,-25.98029],[-51.31534,-25.97998],[-51.31699,-25.98082],[-51.31897,-25.98125],[-51.32201,-25.98098],[-51.3239,-25.98139],[-51.32557,-25.98386],[-51.32698,-25.98384],[-51.3286,-25.98299],[-51.32909,-25.98067],[-51.33015,-25.97865],[-51.33139,-25.97737],[-51.33231,-25.97775],[-51.33353,-25.97928],[-51.33634,-25.97879],[-51.33792,-25.97599],[-51.33596,-25.97513],[-51.33384,-25.97221],[-51.33174,-25.97066],[-51.33131,-25.97005],[-51.33064,-25.96623],[-51.32727,-25.96318],[-51.32712,-25.96211],[-51.32586,-25.95921],[-51.32547,-25.95711],[-51.32583,-25.95571],[-51.32599,-25.95372],[-51.32657,-25.95266],[-51.32725,-25.95019],[-51.32697,-25.94936],[-51.32572,-25.94823],[-51.32527,-25.9473],[-51.32583,-25.94656],[-51.32719,-25.9462],[-51.32799,-25.94441],[-51.32906,-25.94405],[-51.33004,-25.94312],[-51.33065,-25.94196],[-51.33187,-25.94097],[-51.33336,-25.9385],[-51.335,-25.93727],[-51.33612,-25.93369],[-51.33554,-25.93268],[-51.3358,-25.93175],[-51.33735,-25.93172],[-51.3381,-25.93248],[-51.33963,-25.93151],[-51.34147,-25.93221],[-51.34301,-25.93077],[-51.34428,-25.9304],[-51.34661,-25.93173],[-51.34808,-25.93158],[-51.34907,-25.93071],[-51.34931,-25.92898],[-51.34882,-25.92808],[-51.3456,-25.92355],[-51.34645,-25.92015],[-51.34614,-25.91949],[-51.34489,-25.91935],[-51.3417,-25.92083],[-51.341,-25.92044],[-51.33814,-25.92078],[-51.33607,-25.92064],[-51.33569,-25.91977],[-51.33398,-25.91949],[-51.3343,-25.91865],[-51.33509,-25.9184],[-51.33816,-25.91628],[-51.3397,-25.91561],[-51.34103,-25.91299],[-51.34231,-25.91232],[-51.34409,-25.91289],[-51.3436,-25.91506],[-51.3443,-25.91575],[-51.34567,-25.91477],[-51.34734,-25.91414],[-51.3496,-25.91427],[-51.35015,-25.91602],[-51.35075,-25.91636],[-51.35263,-25.91613],[-51.35321,-25.91681],[-51.35177,-25.91824],[-51.35157,-25.9194],[-51.35075,-25.92025],[-51.35077,-25.9215],[-51.35219,-25.92422],[-51.35318,-25.92499],[-51.35442,-25.92528],[-51.3553,-25.92618],[-51.35463,-25.92865],[-51.35336,-25.93093],[-51.35132,-25.93189],[-51.35115,-25.93274],[-51.35168,-25.93484],[-51.35272,-25.93506],[-51.35422,-25.93594],[-51.35486,-25.93498],[-51.35701,-25.93285],[-51.35912,-25.93301],[-51.36185,-25.93417],[-51.36576,-25.93427],[-51.3665,-25.93269],[-51.36621,-25.93087],[-51.36705,-25.92914],[-51.36856,-25.92908],[-51.37081,-25.92815],[-51.37183,-25.92839],[-51.37259,-25.9299],[-51.37314,-25.93217],[-51.37289,-25.93433],[-51.37107,-25.93838],[-51.37135,-25.93938],[-51.37275,-25.94021],[-51.37517,-25.94079],[-51.37722,-25.93995],[-51.38097,-25.93427],[-51.38148,-25.93411],[-51.3838,-25.93339],[-51.3861,-25.93296],[-51.38752,-25.934],[-51.3884,-25.93646],[-51.3906,-25.93841],[-51.39335,-25.93819],[-51.39588,-25.93728],[-51.39777,-25.93611],[-51.401,-25.93507],[-51.40547,-25.9329],[-51.4063,-25.93363],[-51.40591,-25.93644],[-51.40575,-25.94056],[-51.40588,-25.94329],[-51.40673,-25.94552],[-51.40813,-25.94769],[-51.40944,-25.94883],[-51.41344,-25.95001],[-51.41541,-25.94879],[-51.41554,-25.94589],[-51.4148,-25.94339],[-51.41591,-25.93778],[-51.41604,-25.93405],[-51.41443,-25.93142],[-51.41224,-25.92942],[-51.41187,-25.92698],[-51.41271,-25.92467],[-51.41541,-25.9229],[-51.41894,-25.92132],[-51.42188,-25.92076],[-51.42389,-25.92311],[-51.42529,-25.92519],[-51.42741,-25.927],[-51.42929,-25.92656],[-51.43019,-25.92392],[-51.43104,-25.92247],[-51.4341,-25.92175],[-51.43666,-25.92457],[-51.43796,-25.92562],[-51.43736,-25.9282],[-51.43672,-25.92956],[-51.43563,-25.93055],[-51.43491,-25.93185],[-51.43424,-25.93568],[-51.4334,-25.93735],[-51.43224,-25.93865],[-51.43221,-25.94075],[-51.43335,-25.94298],[-51.43471,-25.94429],[-51.43677,-25.94332],[-51.43968,-25.94314],[-51.4481,-25.95068],[-51.44924,-25.95139],[-51.45221,-25.95048],[-51.45408,-25.94776],[-51.45783,-25.94415],[-51.46093,-25.94293],[-51.46399,-25.9423],[-51.46579,-25.94257],[-51.46846,-25.94339],[-51.47065,-25.9436],[-51.47299,-25.94292],[-51.47246,-25.94063],[-51.47099,-25.93745],[-51.46902,-25.9341],[-51.46827,-25.93169],[-51.46961,-25.9287],[-51.47277,-25.92548],[-51.47532,-25.92363],[-51.47783,-25.92146],[-51.4806,-25.92264],[-51.4818,-25.92446],[-51.48307,-25.92736],[-51.48579,-25.92994],[-51.48688,-25.93079],[-51.48835,-25.931],[-51.49116,-25.93181],[-51.4935,-25.93359],[-51.49509,-25.93509],[-51.50055,-25.93933],[-51.50194,-25.94111],[-51.50285,-25.94272],[-51.50233,-25.94498],[-51.50135,-25.94645],[-51.50135,-25.94817],[-51.50166,-25.95012],[-51.50091,-25.95125],[-51.50094,-25.95452],[-51.50174,-25.95568],[-51.50291,-25.95582],[-51.50522,-25.95564],[-51.50791,-25.95389],[-51.50947,-25.95217],[-51.51174,-25.95164],[-51.51205,-25.95212],[-51.51313,-25.95377],[-51.51363,-25.95599],[-51.51232,-25.95892],[-51.51161,-25.96196],[-51.51186,-25.96335],[-51.51385,-25.96495],[-51.51596,-25.967],[-51.51871,-25.96845],[-51.52127,-25.96932],[-51.52319,-25.9688],[-51.52624,-25.96829],[-51.52813,-25.96737],[-51.53097,-25.96559],[-51.53455,-25.96433],[-51.53847,-25.96504],[-51.54038,-25.96489],[-51.54152,-25.96539],[-51.54332,-25.9672],[-51.54366,-25.96883],[-51.54349,-25.97031],[-51.53925,-25.97557],[-51.53923,-25.97714],[-51.54159,-25.98099],[-51.54371,-25.98316],[-51.54571,-25.98459],[-51.55047,-25.98691],[-51.55474,-25.98593],[-51.55636,-25.98516],[-51.55913,-25.9833],[-51.56399,-25.98143],[-51.56785,-25.97901],[-51.57029,-25.97779],[-51.57726,-25.97691],[-51.58124,-25.97672],[-51.58313,-25.98034],[-51.58391,-25.98342],[-51.58385,-25.9869],[-51.5821,-25.98971],[-51.58061,-25.99102],[-51.58013,-25.99201],[-51.57994,-25.9935],[-51.58049,-25.99514],[-51.58294,-25.99779],[-51.58424,-25.99833],[-51.58866,-25.99848],[-51.59353,-25.99926],[-51.59591,-26.00042],[-51.59685,-26.00115],[-51.59846,-26.0016],[-51.60125,-26.00146],[-51.60488,-25.99908],[-51.60674,-25.99877],[-51.6111,-25.99769],[-51.61371,-25.99745],[-51.61602,-25.99753],[-51.6179,-25.99837],[-51.61868,-26.00054],[-51.61923,-26.00371],[-51.61572,-26.00655],[-51.61527,-26.00827],[-51.61524,-26.01193],[-51.61422,-26.01405],[-51.60869,-26.0153],[-51.59938,-26.01354],[-51.59608,-26.01323],[-51.5921,-26.01316],[-51.58808,-26.01372],[-51.58461,-26.01482],[-51.58138,-26.01652],[-51.57886,-26.01854],[-51.57766,-26.02084],[-51.57744,-26.0227],[-51.57838,-26.02566],[-51.58044,-26.02795],[-51.58324,-26.03023],[-51.58546,-26.03257],[-51.58618,-26.03539],[-51.5853,-26.03811],[-51.58105,-26.0427],[-51.57771,-26.04438],[-51.57375,-26.04452],[-51.57027,-26.04417],[-51.56571,-26.04311],[-51.56257,-26.04337],[-51.56019,-26.0439],[-51.55654,-26.0465],[-51.55488,-26.04867],[-51.55389,-26.05092],[-51.55452,-26.05388],[-51.55827,-26.05822],[-51.56126,-26.06084],[-51.56213,-26.06289],[-51.56252,-26.06561],[-51.56191,-26.0682],[-51.56088,-26.07078],[-51.5514,-26.08318],[-51.54729,-26.0842],[-51.54511,-26.08271],[-51.54346,-26.08083],[-51.54104,-26.07618],[-51.54005,-26.0729],[-51.53922,-26.07108],[-51.53682,-26.06915],[-51.53288,-26.06653],[-51.52691,-26.06557],[-51.51996,-26.06664],[-51.5166,-26.06679],[-51.51446,-26.06623],[-51.51187,-26.06475],[-51.50517,-26.05826],[-51.50051,-26.05701],[-51.49794,-26.05759],[-51.4968,-26.05883],[-51.49644,-26.06137],[-51.49677,-26.06368],[-51.49671,-26.06715],[-51.49538,-26.06998],[-51.49299,-26.07323],[-51.48925,-26.07653],[-51.48579,-26.07847],[-51.48169,-26.0803],[-51.47755,-26.08069],[-51.47393,-26.08006],[-51.47088,-26.08061],[-51.46577,-26.08124],[-51.46124,-26.08042],[-51.4568,-26.07867],[-51.45399,-26.07705],[-51.44854,-26.07496],[-51.44593,-26.07309],[-51.44466,-26.07123],[-51.44244,-26.07125],[-51.43827,-26.07195],[-51.43566,-26.07316],[-51.42813,-26.07865],[-51.42522,-26.08114],[-51.42399,-26.08272],[-51.42118,-26.08415],[-51.41668,-26.08585]]]},"properties":{"codigo":"410680305","name":"Cruz Machado","population":10720,"households":4942,"areaKm2":523.6815,"density":20.5}},{"type":"Feature","geometry":{"type":"Polygon","coordinates":[[[-51.22239,-26.04254],[-51.22152,-26.04245],[-51.2199,-26.04349],[-51.21016,-26.04489],[-51.20782,-26.04474],[-51.20145,-26.04638],[-51.20065,-26.04863],[-51.19927,-26.0502],[-51.19812,-26.04574],[-51.19918,-26.04356],[-51.19771,-26.0421],[-51.19504,-26.04161],[-51.19287,-26.03926],[-51.19388,-26.03795],[-51.19215,-26.03453],[-51.18968,-26.0357],[-51.18868,-26.03687],[-51.18432,-26.03463],[-51.18507,-26.03367],[-51.18502,-26.0295],[-51.18385,-26.02903],[-51.18255,-26.02997],[-51.18287,-26.0324],[-51.17932,-26.03217],[-51.17326,-26.03267],[-51.1721,-26.02997],[-51.1711,-26.02943],[-51.17074,-26.02741],[-51.17157,-26.02552],[-51.17101,-26.02395],[-51.17202,-26.02323],[-51.17452,-26.0252],[-51.17879,-26.0225],[-51.17915,-26.02115],[-51.18162,-26.01933],[-51.18049,-26.01839],[-51.17576,-26.01971],[-51.17457,-26.01935],[-51.17279,-26.01681],[-51.16866,-26.01421],[-51.16765,-26.01167],[-51.16554,-26.01083],[-51.16315,-26.01087],[-51.1616,-26.01017],[-51.16224,-26.01616],[-51.1644,-26.01963],[-51.16457,-26.02144],[-51.16396,-26.02248],[-51.16118,-26.02464],[-51.16102,-26.02639],[-51.16018,-26.02819],[-51.15848,-26.0285],[-51.1579,-26.02718],[-51.15663,-26.02631],[-51.15651,-26.0232],[-51.15837,-26.0226],[-51.15721,-26.02144],[-51.15546,-26.02133],[-51.1524,-26.02286],[-51.15009,-26.02908],[-51.15002,-26.03105],[-51.1464,-26.03134],[-51.14279,-26.03074],[-51.14143,-26.03144],[-51.13782,-26.0315],[-51.13535,-26.03298],[-51.13357,-26.03478],[-51.13088,-26.03463],[-51.12871,-26.03535],[-51.12815,-26.03177],[-51.12429,-26.03086],[-51.12482,-26.03234],[-51.12481,-26.03458],[-51.12148,-26.03121],[-51.12265,-26.0307],[-51.12224,-26.02851],[-51.12112,-26.02754],[-51.12048,-26.02497],[-51.11871,-26.02455],[-51.11982,-26.02368],[-51.11793,-26.02309],[-51.11745,-26.02432],[-51.11593,-26.02441],[-51.11629,-26.02188],[-51.11782,-26.02112],[-51.11632,-26.0206],[-51.11748,-26.019],[-51.11238,-26.01974],[-51.11304,-26.02106],[-51.11151,-26.0212],[-51.11051,-26.02023],[-51.1089,-26.02012],[-51.10307,-26.01467],[-51.10371,-26.01155],[-51.10245,-26.00608],[-51.10263,-26.00387],[-51.10129,-26.00335],[-51.09996,-26.00421],[-51.09065,-26.0038],[-51.08824,-26.00213],[-51.08643,-26.00311],[-51.08593,-26.00669],[-51.08496,-26.00723],[-51.08432,-26.00872],[-51.08526,-26.01022],[-51.08476,-26.01154],[-51.08213,-26.01181],[-51.08068,-26.01268],[-51.07929,-26.01191],[-51.07734,-26.00976],[-51.07537,-26.00976],[-51.07438,-26.01123],[-51.07493,-26.01352],[-51.07168,-26.0144],[-51.0696,-26.01225],[-51.0704,-26.01061],[-51.06798,-26.00965],[-51.06832,-26.00773],[-51.06693,-26.00749],[-51.06604,-26.00496],[-51.06337,-26.00502],[-51.06163,-26.00698],[-51.0551,-26.0108],[-51.05181,-26.0098],[-51.05226,-26.00788],[-51.05182,-26.00646],[-51.0494,-26.00803],[-51.04838,-26.00528],[-51.04904,-26.00372],[-51.05085,-26.0017],[-51.04743,-26.00157],[-51.04257,-26.00215],[-51.04055,-26.00184],[-51.03952,-26.00051],[-51.03951,-25.99792],[-51.04009,-25.99704],[-51.03904,-25.99465],[-51.03568,-25.99244],[-51.03634,-25.9912],[-51.03224,-25.98771],[-51.03207,-25.98653],[-51.03076,-25.9861],[-51.03195,-25.98354],[-51.03143,-25.98249],[-51.02937,-25.98216],[-51.02854,-25.98085],[-51.02809,-25.97842],[-51.02715,-25.97736],[-51.02782,-25.97513],[-51.02906,-25.97478],[-51.02976,-25.97369],[-51.03099,-25.97317],[-51.0314,-25.96867],[-51.0289,-25.96538],[-51.02923,-25.96385],[-51.02838,-25.96271],[-51.02219,-25.96124],[-51.0177,-25.96128],[-51.01396,-25.96068],[-51.00048,-25.95406],[-50.99605,-25.95416],[-50.99363,-25.9548],[-50.99204,-25.95701],[-50.98771,-25.95918],[-50.98618,-25.95962],[-50.98446,-25.95937],[-50.96798,-25.9488],[-50.96486,-25.94869],[-50.95857,-25.95478],[-50.95701,-25.95512],[-50.95467,-25.95412],[-50.95293,-25.95251],[-50.94951,-25.95144],[-50.94398,-25.95392],[-50.94157,-25.95365],[-50.94014,-25.95169],[-50.93565,-25.949],[-50.93513,-25.94798],[-50.93545,-25.94583],[-50.93594,-25.94417],[-50.93747,-25.94061],[-50.93983,-25.94118],[-50.94279,-25.94118],[-50.94509,-25.94059],[-50.94928,-25.94012],[-50.95335,-25.93911],[-50.95756,-25.93763],[-50.96274,-25.93525],[-50.96642,-25.93407],[-50.97219,-25.93294],[-50.9756,-25.93021],[-50.97862,-25.9257],[-50.98315,-25.92261],[-50.98941,-25.91768],[-50.99417,-25.91359],[-50.99818,-25.91068],[-51.00027,-25.90878],[-51.00297,-25.90759],[-51.00638,-25.90753],[-51.00756,-25.90688],[-51.00802,-25.90593],[-51.00775,-25.90213],[-51.0086,-25.89856],[-51.00887,-25.895],[-51.00782,-25.89126],[-51.00782,-25.88918],[-51.00861,-25.88716],[-51.01116,-25.88378],[-51.01182,-25.882],[-51.01261,-25.87861],[-51.01169,-25.87529],[-51.0088,-25.87179],[-51.0065,-25.86941],[-51.00598,-25.86816],[-51.00591,-25.8665],[-51.0065,-25.86525],[-51.00775,-25.86359],[-51.00913,-25.86039],[-51.00998,-25.8589],[-51.01096,-25.85825],[-51.01424,-25.85712],[-51.01536,-25.85623],[-51.01621,-25.85421],[-51.01772,-25.84697],[-51.01673,-25.84465],[-51.01654,-25.84346],[-51.01739,-25.84216],[-51.02198,-25.83924],[-51.02539,-25.83663],[-51.02657,-25.83503],[-51.02663,-25.8342],[-51.02611,-25.8323],[-51.02663,-25.83147],[-51.02834,-25.83141],[-51.02974,-25.83239],[-51.03175,-25.83337],[-51.03411,-25.83342],[-51.03568,-25.83247],[-51.0362,-25.83099],[-51.03529,-25.82903],[-51.03522,-25.82808],[-51.0364,-25.82677],[-51.03725,-25.82392],[-51.03745,-25.8222],[-51.03653,-25.81964],[-51.03659,-25.81656],[-51.03626,-25.81478],[-51.03626,-25.8127],[-51.03692,-25.81229],[-51.03974,-25.81258],[-51.04059,-25.81175],[-51.04098,-25.81038],[-51.03987,-25.80747],[-51.03554,-25.80391],[-51.03436,-25.80219],[-51.03232,-25.80047],[-51.02846,-25.79899],[-51.02682,-25.79869],[-51.02426,-25.79881],[-51.02295,-25.79804],[-51.02236,-25.79679],[-51.02256,-25.79525],[-51.02223,-25.79234],[-51.02092,-25.79079],[-51.01961,-25.79079],[-51.01817,-25.79157],[-51.01279,-25.79323],[-51.00952,-25.79334],[-51.00748,-25.79258],[-51.00624,-25.79056],[-51.00467,-25.78913],[-51.00054,-25.78866],[-50.99667,-25.79121],[-50.99569,-25.79151],[-50.99171,-25.7895],[-50.98581,-25.78689],[-50.98332,-25.78547],[-50.98241,-25.7844],[-50.98241,-25.78178],[-50.98319,-25.7781],[-50.98411,-25.77585],[-50.98988,-25.77134],[-50.99027,-25.76991],[-50.98647,-25.76587],[-50.98123,-25.76183],[-50.97887,-25.75922],[-50.97586,-25.75661],[-50.9756,-25.75518],[-50.97809,-25.75233],[-50.97704,-25.7521],[-50.97376,-25.75281],[-50.97164,-25.75477],[-50.96956,-25.75566],[-50.96421,-25.75637],[-50.96275,-25.75613],[-50.96026,-25.75459],[-50.95882,-25.75197],[-50.95673,-25.7433],[-50.95529,-25.74093],[-50.95333,-25.74033],[-50.94399,-25.74168],[-50.94297,-25.73985],[-50.94389,-25.73617],[-50.94494,-25.73083],[-50.9456,-25.72584],[-50.94547,-25.71765],[-50.94613,-25.7161],[-50.95006,-25.71254],[-50.95255,-25.70934],[-50.95451,-25.70448],[-50.95505,-25.69912],[-50.95505,-25.69236],[-50.95583,-25.68844],[-50.95641,-25.6866],[-50.95699,-25.68477],[-50.96336,-25.68256],[-50.96112,-25.68363],[-50.96192,-25.68431],[-50.96464,-25.68387],[-50.96779,-25.68386],[-50.96934,-25.68356],[-50.97103,-25.68289],[-50.97201,-25.68078],[-50.97154,-25.67903],[-50.97319,-25.67729],[-50.9733,-25.67576],[-50.97437,-25.67537],[-50.9771,-25.67128],[-50.97784,-25.67089],[-50.97915,-25.66695],[-50.98218,-25.6662],[-50.98671,-25.66779],[-50.98818,-25.66846],[-50.9894,-25.66952],[-50.99021,-25.67368],[-50.98995,-25.67482],[-50.9919,-25.67651],[-50.99259,-25.67819],[-50.99467,-25.67843],[-50.99778,-25.67791],[-50.99926,-25.67824],[-51.00229,-25.67824],[-51.0034,-25.67806],[-51.00506,-25.67685],[-51.00616,-25.6754],[-51.00771,-25.67473],[-51.00965,-25.67458],[-51.01059,-25.67519],[-51.01167,-25.67749],[-51.01082,-25.68111],[-51.01231,-25.68184],[-51.01251,-25.68402],[-51.01379,-25.68525],[-51.01443,-25.68665],[-51.0144,-25.69069],[-51.01557,-25.69193],[-51.01532,-25.69317],[-51.01418,-25.69441],[-51.01354,-25.69604],[-51.01296,-25.7003],[-51.01348,-25.70289],[-51.01468,-25.70435],[-51.02007,-25.70577],[-51.0244,-25.70484],[-51.02501,-25.70335],[-51.02634,-25.70335],[-51.02782,-25.70249],[-51.02954,-25.70198],[-51.03015,-25.70414],[-51.0311,-25.70623],[-51.03182,-25.70719],[-51.03412,-25.70856],[-51.03649,-25.70916],[-51.03779,-25.70878],[-51.04224,-25.70587],[-51.04421,-25.70588],[-51.0454,-25.70539],[-51.04501,-25.70257],[-51.04716,-25.70174],[-51.04729,-25.70064],[-51.04895,-25.6991],[-51.04921,-25.69769],[-51.05087,-25.69716],[-51.05241,-25.69807],[-51.05321,-25.69908],[-51.05473,-25.69904],[-51.05812,-25.69793],[-51.06243,-25.69716],[-51.06557,-25.69681],[-51.06637,-25.69427],[-51.06787,-25.69637],[-51.06787,-25.69768],[-51.06632,-25.69806],[-51.06515,-25.69883],[-51.06496,-25.7003],[-51.06704,-25.70199],[-51.06779,-25.70333],[-51.06682,-25.70414],[-51.06743,-25.7053],[-51.06893,-25.70449],[-51.07054,-25.704],[-51.07235,-25.70403],[-51.07523,-25.70488],[-51.07687,-25.70497],[-51.07755,-25.70344],[-51.07918,-25.70313],[-51.08151,-25.70236],[-51.08179,-25.70452],[-51.08382,-25.70505],[-51.08541,-25.70603],[-51.08534,-25.70732],[-51.08643,-25.70868],[-51.08813,-25.70808],[-51.08829,-25.70921],[-51.08967,-25.71043],[-51.09112,-25.70998],[-51.0932,-25.70745],[-51.0949,-25.70945],[-51.09757,-25.71],[-51.09832,-25.71091],[-51.09988,-25.71178],[-51.10034,-25.71343],[-51.10227,-25.71637],[-51.10279,-25.71759],[-51.10409,-25.71842],[-51.10529,-25.71874],[-51.10804,-25.72006],[-51.1109,-25.72063],[-51.11234,-25.72054],[-51.1141,-25.71968],[-51.11648,-25.72028],[-51.11635,-25.72177],[-51.11652,-25.72594],[-51.1177,-25.72803],[-51.1184,-25.73051],[-51.11904,-25.73373],[-51.12146,-25.73655],[-51.1224,-25.73819],[-51.12098,-25.74083],[-51.12148,-25.74358],[-51.12043,-25.74462],[-51.11847,-25.7452],[-51.11749,-25.74606],[-51.11763,-25.74801],[-51.11899,-25.75037],[-51.11751,-25.75055],[-51.11629,-25.75113],[-51.11615,-25.75226],[-51.11765,-25.75274],[-51.11881,-25.75418],[-51.12199,-25.75413],[-51.12324,-25.75274],[-51.12379,-25.75379],[-51.12376,-25.75501],[-51.12524,-25.75465],[-51.12629,-25.75541],[-51.12579,-25.75636],[-51.12556,-25.7601],[-51.1269,-25.76002],[-51.12729,-25.76178],[-51.12966,-25.76609],[-51.13204,-25.76679],[-51.13305,-25.76609],[-51.13179,-25.76434],[-51.13213,-25.7632],[-51.13397,-25.76318],[-51.13444,-25.76569],[-51.1358,-25.76786],[-51.13588,-25.76895],[-51.13522,-25.76959],[-51.13372,-25.77204],[-51.13356,-25.77293],[-51.13408,-25.77494],[-51.13374,-25.77607],[-51.13339,-25.77864],[-51.13209,-25.78133],[-51.13109,-25.78232],[-51.13026,-25.78248],[-51.12987,-25.78364],[-51.13057,-25.78551],[-51.13267,-25.78723],[-51.13274,-25.78787],[-51.13082,-25.78917],[-51.13076,-25.79046],[-51.1283,-25.79265],[-51.12931,-25.79608],[-51.13087,-25.79759],[-51.13088,-25.79866],[-51.12982,-25.79862],[-51.12872,-25.80039],[-51.12862,-25.80173],[-51.12664,-25.80394],[-51.12598,-25.8058],[-51.1252,-25.80682],[-51.12525,-25.8076],[-51.12677,-25.80959],[-51.12606,-25.81125],[-51.12453,-25.81213],[-51.12321,-25.81432],[-51.11933,-25.81704],[-51.11751,-25.8192],[-51.11728,-25.81992],[-51.11596,-25.82046],[-51.11627,-25.82168],[-51.11715,-25.8227],[-51.11692,-25.82617],[-51.11797,-25.83147],[-51.11865,-25.833],[-51.11973,-25.83617],[-51.11995,-25.83909],[-51.12081,-25.84163],[-51.12232,-25.84377],[-51.12593,-25.84813],[-51.12674,-25.848],[-51.12829,-25.84948],[-51.12626,-25.85033],[-51.12652,-25.85104],[-51.12857,-25.85054],[-51.12939,-25.85224],[-51.12933,-25.85364],[-51.13106,-25.85569],[-51.13203,-25.85754],[-51.13257,-25.85803],[-51.13451,-25.85871],[-51.13586,-25.85955],[-51.1359,-25.8615],[-51.13645,-25.86374],[-51.13606,-25.86528],[-51.13567,-25.86822],[-51.13502,-25.86909],[-51.13614,-25.8698],[-51.13663,-25.87174],[-51.13661,-25.87291],[-51.13807,-25.8735],[-51.13846,-25.8744],[-51.14025,-25.8747],[-51.14256,-25.87655],[-51.14581,-25.87721],[-51.14685,-25.87693],[-51.14796,-25.87837],[-51.14738,-25.87958],[-51.14835,-25.87974],[-51.14829,-25.88312],[-51.14857,-25.88447],[-51.14984,-25.8843],[-51.15028,-25.88512],[-51.15022,-25.88639],[-51.15156,-25.88725],[-51.1518,-25.88868],[-51.15334,-25.88828],[-51.15567,-25.88861],[-51.1569,-25.88907],[-51.15688,-25.89159],[-51.15807,-25.89188],[-51.1576,-25.89376],[-51.16003,-25.89503],[-51.16014,-25.89595],[-51.16195,-25.89588],[-51.16277,-25.89757],[-51.16186,-25.89813],[-51.16062,-25.89961],[-51.15916,-25.90073],[-51.15841,-25.90193],[-51.157,-25.90209],[-51.15707,-25.9037],[-51.15751,-25.90546],[-51.1577,-25.91015],[-51.15802,-25.91112],[-51.15771,-25.91292],[-51.15714,-25.91396],[-51.15782,-25.915],[-51.15714,-25.91588],[-51.15794,-25.91636],[-51.15773,-25.91745],[-51.15777,-25.92009],[-51.15715,-25.92107],[-51.15723,-25.92198],[-51.15884,-25.92412],[-51.15907,-25.9262],[-51.15834,-25.9273],[-51.15256,-25.93098],[-51.15334,-25.93239],[-51.15366,-25.93462],[-51.15337,-25.93553],[-51.15415,-25.93725],[-51.15382,-25.93931],[-51.15462,-25.94099],[-51.15731,-25.94165],[-51.16276,-25.94241],[-51.16538,-25.94299],[-51.16735,-25.94238],[-51.17095,-25.94213],[-51.17595,-25.9393],[-51.17825,-25.9381],[-51.17823,-25.93937],[-51.17874,-25.94133],[-51.17855,-25.94367],[-51.17672,-25.94484],[-51.17572,-25.94588],[-51.17563,-25.94747],[-51.17405,-25.94844],[-51.1723,-25.94889],[-51.17068,-25.94887],[-51.16958,-25.94928],[-51.16791,-25.94842],[-51.16588,-25.94911],[-51.16611,-25.95123],[-51.16585,-25.95312],[-51.16596,-25.95693],[-51.1666,-25.95858],[-51.16596,-25.95926],[-51.16392,-25.96023],[-51.16254,-25.96044],[-51.16192,-25.9612],[-51.16139,-25.96314],[-51.16062,-25.96435],[-51.15807,-25.96662],[-51.15566,-25.96651],[-51.15582,-25.96823],[-51.15699,-25.96871],[-51.1625,-25.96952],[-51.16304,-25.9695],[-51.16564,-25.96842],[-51.16787,-25.96875],[-51.17018,-25.96828],[-51.17148,-25.96777],[-51.1729,-25.96789],[-51.17413,-25.96858],[-51.1751,-25.96864],[-51.17753,-25.96755],[-51.17866,-25.96797],[-51.17954,-25.96944],[-51.17962,-25.97066],[-51.18042,-25.9718],[-51.18159,-25.97222],[-51.18308,-25.97217],[-51.18158,-25.97441],[-51.18194,-25.97494],[-51.18015,-25.97536],[-51.17895,-25.97628],[-51.17782,-25.97845],[-51.17714,-25.9792],[-51.17492,-25.97939],[-51.17393,-25.9808],[-51.17451,-25.98171],[-51.17232,-25.98234],[-51.17404,-25.98558],[-51.17571,-25.98647],[-51.17641,-25.98814],[-51.17739,-25.98881],[-51.17945,-25.98873],[-51.18018,-25.98909],[-51.18041,-25.99011],[-51.18127,-25.99099],[-51.1813,-25.99191],[-51.18257,-25.99184],[-51.18418,-25.99422],[-51.1864,-25.99706],[-51.18771,-25.99691],[-51.18882,-25.99628],[-51.19116,-25.9973],[-51.19332,-25.99699],[-51.19486,-25.99494],[-51.19685,-25.9932],[-51.20004,-25.99176],[-51.20093,-25.99267],[-51.20345,-25.998],[-51.20474,-25.99886],[-51.20473,-26.00109],[-51.2043,-26.00182],[-51.20723,-26.00665],[-51.20754,-26.00747],[-51.20725,-26.00898],[-51.20617,-26.01068],[-51.20632,-26.01206],[-51.20535,-26.01425],[-51.20547,-26.0156],[-51.20622,-26.01663],[-51.20576,-26.01835],[-51.20469,-26.01942],[-51.20575,-26.02223],[-51.20639,-26.02312],[-51.20735,-26.02592],[-51.2067,-26.02748],[-51.20688,-26.02825],[-51.20818,-26.02889],[-51.20968,-26.03039],[-51.2135,-26.03217],[-51.21485,-26.03216],[-51.21733,-26.0327],[-51.21865,-26.03276],[-51.22162,-26.0346],[-51.22204,-26.03711],[-51.2224,-26.0375],[-51.22219,-26.03906],[-51.22137,-26.04018],[-51.22107,-26.04128],[-51.22239,-26.04254]]]},"properties":{"codigo":"410680310","name":"Pinaré","population":1560,"households":768,"areaKm2":531.0762,"density":2.9}},{"type":"Feature","geometry":{"type":"Polygon","coordinates":[[[-51.17823,-25.93937],[-51.17825,-25.9381],[-51.17595,-25.9393],[-51.17095,-25.94213],[-51.16735,-25.94238],[-51.16538,-25.94299],[-51.16276,-25.94241],[-51.15731,-25.94165],[-51.15462,-25.94099],[-51.15382,-25.93931],[-51.15415,-25.93725],[-51.15337,-25.93553],[-51.15366,-25.93462],[-51.15334,-25.93239],[-51.15256,-25.93098],[-51.15834,-25.9273],[-51.15907,-25.9262],[-51.15884,-25.92412],[-51.15723,-25.92198],[-51.15715,-25.92107],[-51.15777,-25.92009],[-51.15773,-25.91745],[-51.15794,-25.91636],[-51.15714,-25.91588],[-51.15782,-25.915],[-51.15714,-25.91396],[-51.15771,-25.91292],[-51.15802,-25.91112],[-51.1577,-25.91015],[-51.15751,-25.90546],[-51.15707,-25.9037],[-51.157,-25.90209],[-51.15841,-25.90193],[-51.15916,-25.90073],[-51.16062,-25.89961],[-51.16186,-25.89813],[-51.16277,-25.89757],[-51.16195,-25.89588],[-51.16014,-25.89595],[-51.16003,-25.89503],[-51.1576,-25.89376],[-51.15807,-25.89188],[-51.15688,-25.89159],[-51.1569,-25.88907],[-51.15567,-25.88861],[-51.15334,-25.88828],[-51.1518,-25.88868],[-51.15156,-25.88725],[-51.15022,-25.88639],[-51.15028,-25.88512],[-51.14984,-25.8843],[-51.14857,-25.88447],[-51.14829,-25.88312],[-51.14835,-25.87974],[-51.14738,-25.87958],[-51.14796,-25.87837],[-51.14685,-25.87693],[-51.14581,-25.87721],[-51.14256,-25.87655],[-51.14025,-25.8747],[-51.13846,-25.8744],[-51.13807,-25.8735],[-51.13661,-25.87291],[-51.13663,-25.87174],[-51.13614,-25.8698],[-51.13502,-25.86909],[-51.13567,-25.86822],[-51.13606,-25.86528],[-51.13645,-25.86374],[-51.1359,-25.8615],[-51.13586,-25.85955],[-51.13451,-25.85871],[-51.13257,-25.85803],[-51.13203,-25.85754],[-51.13106,-25.85569],[-51.12933,-25.85364],[-51.12939,-25.85224],[-51.12857,-25.85054],[-51.12652,-25.85104],[-51.12626,-25.85033],[-51.12829,-25.84948],[-51.12674,-25.848],[-51.12593,-25.84813],[-51.12232,-25.84377],[-51.12081,-25.84163],[-51.11995,-25.83909],[-51.11973,-25.83617],[-51.11865,-25.833],[-51.11797,-25.83147],[-51.11692,-25.82617],[-51.11715,-25.8227],[-51.11627,-25.82168],[-51.11596,-25.82046],[-51.11728,-25.81992],[-51.11751,-25.8192],[-51.11933,-25.81704],[-51.12321,-25.81432],[-51.12453,-25.81213],[-51.12606,-25.81125],[-51.12677,-25.80959],[-51.12525,-25.8076],[-51.1252,-25.80682],[-51.12598,-25.8058],[-51.12664,-25.80394],[-51.12862,-25.80173],[-51.12872,-25.80039],[-51.12982,-25.79862],[-51.13088,-25.79866],[-51.13087,-25.79759],[-51.12931,-25.79608],[-51.1283,-25.79265],[-51.13076,-25.79046],[-51.13082,-25.78917],[-51.13274,-25.78787],[-51.13267,-25.78723],[-51.13057,-25.78551],[-51.12987,-25.78364],[-51.13026,-25.78248],[-51.13109,-25.78232],[-51.13209,-25.78133],[-51.13339,-25.77864],[-51.13374,-25.77607],[-51.13408,-25.77494],[-51.13356,-25.77293],[-51.13372,-25.77204],[-51.13522,-25.76959],[-51.13588,-25.76895],[-51.1358,-25.76786],[-51.13444,-25.76569],[-51.13397,-25.76318],[-51.13821,-25.76416],[-51.14188,-25.76456],[-51.14321,-25.76339],[-51.14601,-25.7635],[-51.14688,-25.76274],[-51.14685,-25.75988],[-51.14729,-25.75859],[-51.14916,-25.7591],[-51.15085,-25.75815],[-51.15319,-25.75825],[-51.15946,-25.75621],[-51.1616,-25.75528],[-51.1596,-25.75387],[-51.15904,-25.75487],[-51.15688,-25.75484],[-51.15538,-25.75295],[-51.15437,-25.75123],[-51.15485,-25.74928],[-51.15634,-25.74835],[-51.15815,-25.74907],[-51.16282,-25.74915],[-51.16448,-25.74975],[-51.16662,-25.74733],[-51.16888,-25.7462],[-51.17143,-25.74578],[-51.17174,-25.74415],[-51.17704,-25.74563],[-51.17654,-25.74695],[-51.17265,-25.7522],[-51.17074,-25.75223],[-51.17005,-25.75486],[-51.17032,-25.7572],[-51.17227,-25.75659],[-51.17346,-25.75556],[-51.17609,-25.75583],[-51.1776,-25.75637],[-51.18035,-25.75944],[-51.1864,-25.75879],[-51.18593,-25.76161],[-51.18474,-25.76251],[-51.1846,-25.76506],[-51.18412,-25.76665],[-51.18315,-25.76819],[-51.18326,-25.76982],[-51.18474,-25.76981],[-51.18555,-25.77065],[-51.18529,-25.77211],[-51.18658,-25.77206],[-51.18768,-25.77014],[-51.18941,-25.76849],[-51.19218,-25.76782],[-51.19527,-25.76778],[-51.19702,-25.76536],[-51.19949,-25.76485],[-51.20171,-25.76463],[-51.20165,-25.76318],[-51.20518,-25.76403],[-51.20545,-25.76519],[-51.20223,-25.7678],[-51.20091,-25.77124],[-51.20054,-25.7728],[-51.20104,-25.77403],[-51.20285,-25.77417],[-51.20502,-25.775],[-51.20677,-25.77528],[-51.20707,-25.77376],[-51.20784,-25.77301],[-51.21185,-25.77461],[-51.21357,-25.77475],[-51.21446,-25.77331],[-51.21418,-25.77174],[-51.21799,-25.77254],[-51.21799,-25.77626],[-51.21946,-25.77817],[-51.22185,-25.78208],[-51.2232,-25.78227],[-51.22582,-25.78169],[-51.2269,-25.78223],[-51.22995,-25.78507],[-51.23271,-25.78451],[-51.23404,-25.78674],[-51.23524,-25.78793],[-51.23802,-25.78819],[-51.24071,-25.7876],[-51.24257,-25.78623],[-51.24179,-25.78322],[-51.24051,-25.78062],[-51.24082,-25.77833],[-51.24146,-25.77645],[-51.24285,-25.77552],[-51.24565,-25.77549],[-51.24796,-25.77681],[-51.24912,-25.77844],[-51.2491,-25.78094],[-51.2488,-25.78346],[-51.24918,-25.78615],[-51.25093,-25.79083],[-51.25115,-25.79237],[-51.25076,-25.79364],[-51.24946,-25.79518],[-51.24843,-25.79695],[-51.24751,-25.79917],[-51.24794,-25.80125],[-51.25043,-25.80191],[-51.25784,-25.80665],[-51.25994,-25.80554],[-51.2608,-25.80414],[-51.26571,-25.80053],[-51.26766,-25.79804],[-51.27038,-25.79813],[-51.27174,-25.79787],[-51.27407,-25.79701],[-51.27754,-25.79494],[-51.27977,-25.79281],[-51.28169,-25.79164],[-51.28329,-25.79251],[-51.28335,-25.79514],[-51.28429,-25.79764],[-51.28662,-25.80036],[-51.28701,-25.80258],[-51.2871,-25.80671],[-51.28857,-25.80744],[-51.28815,-25.8107],[-51.29116,-25.81284],[-51.29376,-25.8141],[-51.29279,-25.81819],[-51.29271,-25.82207],[-51.29322,-25.83073],[-51.29393,-25.83237],[-51.29509,-25.83405],[-51.29635,-25.83495],[-51.29849,-25.83471],[-51.30302,-25.83309],[-51.30533,-25.83244],[-51.30543,-25.83099],[-51.30918,-25.82905],[-51.31179,-25.82713],[-51.31241,-25.82552],[-51.3143,-25.82532],[-51.31826,-25.82545],[-51.32182,-25.82645],[-51.32499,-25.83417],[-51.32374,-25.83634],[-51.32277,-25.83897],[-51.32418,-25.84083],[-51.32257,-25.84382],[-51.32277,-25.84613],[-51.32604,-25.84773],[-51.32798,-25.85],[-51.32904,-25.852],[-51.33065,-25.85397],[-51.33346,-25.85509],[-51.33671,-25.8555],[-51.33871,-25.85596],[-51.33635,-25.85832],[-51.33569,-25.86067],[-51.33474,-25.86302],[-51.33519,-25.86439],[-51.33827,-25.86446],[-51.34071,-25.86399],[-51.34188,-25.86241],[-51.34435,-25.86291],[-51.34593,-25.86482],[-51.34673,-25.86689],[-51.34848,-25.86988],[-51.34907,-25.87129],[-51.34869,-25.87559],[-51.34952,-25.8785],[-51.35091,-25.87995],[-51.35238,-25.88052],[-51.35551,-25.88057],[-51.35727,-25.87996],[-51.35924,-25.88024],[-51.36022,-25.88176],[-51.36273,-25.88301],[-51.36802,-25.88418],[-51.3675,-25.88833],[-51.36407,-25.88959],[-51.36055,-25.89049],[-51.35804,-25.89144],[-51.35543,-25.89207],[-51.35588,-25.89456],[-51.36304,-25.89875],[-51.36613,-25.89776],[-51.36876,-25.89779],[-51.37065,-25.89546],[-51.37218,-25.89446],[-51.37769,-25.89461],[-51.38062,-25.89448],[-51.38124,-25.89647],[-51.38077,-25.902],[-51.38013,-25.90409],[-51.37132,-25.91466],[-51.3704,-25.9161],[-51.37013,-25.91779],[-51.37174,-25.91878],[-51.37436,-25.91876],[-51.38193,-25.91749],[-51.38379,-25.91774],[-51.38485,-25.91884],[-51.38496,-25.92067],[-51.38388,-25.9223],[-51.3819,-25.92347],[-51.38047,-25.9246],[-51.38033,-25.92737],[-51.3806,-25.93118],[-51.38148,-25.93411],[-51.38097,-25.93427],[-51.37722,-25.93995],[-51.37517,-25.94079],[-51.37275,-25.94021],[-51.37135,-25.93938],[-51.37107,-25.93838],[-51.37289,-25.93433],[-51.37314,-25.93217],[-51.37259,-25.9299],[-51.37183,-25.92839],[-51.37081,-25.92815],[-51.36856,-25.92908],[-51.36705,-25.92914],[-51.36621,-25.93087],[-51.3665,-25.93269],[-51.36576,-25.93427],[-51.36185,-25.93417],[-51.35912,-25.93301],[-51.35701,-25.93285],[-51.35486,-25.93498],[-51.35422,-25.93594],[-51.35272,-25.93506],[-51.35168,-25.93484],[-51.35115,-25.93274],[-51.35132,-25.93189],[-51.35336,-25.93093],[-51.35463,-25.92865],[-51.3553,-25.92618],[-51.35442,-25.92528],[-51.35318,-25.92499],[-51.35219,-25.92422],[-51.35077,-25.9215],[-51.35075,-25.92025],[-51.35157,-25.9194],[-51.35177,-25.91824],[-51.35321,-25.91681],[-51.35263,-25.91613],[-51.35075,-25.91636],[-51.35015,-25.91602],[-51.3496,-25.91427],[-51.34734,-25.91414],[-51.34567,-25.91477],[-51.3443,-25.91575],[-51.3436,-25.91506],[-51.34409,-25.91289],[-51.34231,-25.91232],[-51.34103,-25.91299],[-51.3397,-25.91561],[-51.33816,-25.91628],[-51.33509,-25.9184],[-51.3343,-25.91865],[-51.33398,-25.91949],[-51.33569,-25.91977],[-51.33607,-25.92064],[-51.33814,-25.92078],[-51.341,-25.92044],[-51.3417,-25.92083],[-51.34489,-25.91935],[-51.34614,-25.91949],[-51.34645,-25.92015],[-51.3456,-25.92355],[-51.34882,-25.92808],[-51.34931,-25.92898],[-51.34907,-25.93071],[-51.34808,-25.93158],[-51.34661,-25.93173],[-51.34428,-25.9304],[-51.34301,-25.93077],[-51.34147,-25.93221],[-51.33963,-25.93151],[-51.3381,-25.93248],[-51.33735,-25.93172],[-51.3358,-25.93175],[-51.33554,-25.93268],[-51.33612,-25.93369],[-51.335,-25.93727],[-51.33336,-25.9385],[-51.33187,-25.94097],[-51.33065,-25.94196],[-51.33004,-25.94312],[-51.32906,-25.94405],[-51.32799,-25.94441],[-51.32719,-25.9462],[-51.32583,-25.94656],[-51.32527,-25.9473],[-51.32572,-25.94823],[-51.32697,-25.94936],[-51.32725,-25.95019],[-51.32657,-25.95266],[-51.32599,-25.95372],[-51.32583,-25.95571],[-51.32547,-25.95711],[-51.32586,-25.95921],[-51.32712,-25.96211],[-51.32727,-25.96318],[-51.33064,-25.96623],[-51.33131,-25.97005],[-51.33174,-25.97066],[-51.33384,-25.97221],[-51.33596,-25.97513],[-51.33792,-25.97599],[-51.33634,-25.97879],[-51.33353,-25.97928],[-51.33231,-25.97775],[-51.33139,-25.97737],[-51.33015,-25.97865],[-51.32909,-25.98067],[-51.3286,-25.98299],[-51.32698,-25.98384],[-51.32557,-25.98386],[-51.3239,-25.98139],[-51.32201,-25.98098],[-51.31897,-25.98125],[-51.31699,-25.98082],[-51.31534,-25.97998],[-51.31366,-25.98029],[-51.31266,-25.98014],[-51.31141,-25.98262],[-51.31035,-25.98207],[-51.30638,-25.9818],[-51.3055,-25.98214],[-51.30337,-25.98231],[-51.30164,-25.98158],[-51.30053,-25.98164],[-51.30003,-25.98043],[-51.29846,-25.9801],[-51.29743,-25.98021],[-51.29625,-25.98232],[-51.29617,-25.98364],[-51.29682,-25.98415],[-51.29712,-25.98573],[-51.29675,-25.98635],[-51.29506,-25.98726],[-51.29388,-25.9874],[-51.29263,-25.98689],[-51.29049,-25.98744],[-51.28882,-25.98746],[-51.28643,-25.98687],[-51.28512,-25.98739],[-51.28426,-25.98823],[-51.28256,-25.98826],[-51.28034,-25.98923],[-51.27829,-25.98929],[-51.2767,-25.98972],[-51.27171,-25.9892],[-51.26948,-25.9891],[-51.26885,-25.98948],[-51.26625,-25.98915],[-51.2623,-25.98954],[-51.25551,-25.99451],[-51.25557,-25.99603],[-51.25381,-25.99673],[-51.25364,-25.99757],[-51.25418,-25.99906],[-51.2534,-26],[-51.25047,-26.00103],[-51.24703,-26.00099],[-51.24602,-26.00243],[-51.24253,-26.00436],[-51.23906,-26.00678],[-51.23654,-26.00704],[-51.23391,-26.00493],[-51.23363,-26.00418],[-51.23472,-26.00358],[-51.23443,-26.00186],[-51.2329,-26.00111],[-51.23202,-26.00103],[-51.22981,-26.00019],[-51.22836,-26.00011],[-51.2263,-26.001],[-51.22324,-26.00049],[-51.22183,-25.99981],[-51.22074,-25.99812],[-51.21914,-25.99721],[-51.2178,-25.9971],[-51.21665,-25.99517],[-51.21574,-25.99455],[-51.21557,-25.99267],[-51.21683,-25.99069],[-51.21712,-25.98957],[-51.21822,-25.98793],[-51.21781,-25.98694],[-51.21813,-25.98627],[-51.21767,-25.98524],[-51.21781,-25.98426],[-51.21685,-25.98296],[-51.21708,-25.98092],[-51.21538,-25.97994],[-51.21365,-25.97833],[-51.21362,-25.97638],[-51.21283,-25.97463],[-51.2146,-25.97412],[-51.21596,-25.97131],[-51.21611,-25.97038],[-51.21568,-25.96925],[-51.21671,-25.96795],[-51.21552,-25.96691],[-51.21423,-25.96638],[-51.21305,-25.9663],[-51.21157,-25.96497],[-51.21077,-25.96358],[-51.21222,-25.96116],[-51.21086,-25.9593],[-51.21126,-25.95784],[-51.21079,-25.95723],[-51.21119,-25.95643],[-51.20855,-25.95535],[-51.20586,-25.95537],[-51.2048,-25.95493],[-51.20498,-25.95387],[-51.20219,-25.95623],[-51.2001,-25.95677],[-51.1983,-25.95609],[-51.19536,-25.95556],[-51.19375,-25.95577],[-51.19197,-25.95696],[-51.18903,-25.9569],[-51.18795,-25.95668],[-51.18798,-25.95523],[-51.18837,-25.95322],[-51.18816,-25.95221],[-51.19018,-25.95177],[-51.18856,-25.94866],[-51.18745,-25.9483],[-51.18706,-25.94686],[-51.18798,-25.94543],[-51.18696,-25.94516],[-51.18602,-25.94555],[-51.18398,-25.94521],[-51.18367,-25.94461],[-51.18393,-25.94336],[-51.18497,-25.94166],[-51.18443,-25.94096],[-51.18318,-25.94193],[-51.18209,-25.94087],[-51.18101,-25.94051],[-51.18007,-25.94132],[-51.17894,-25.94125],[-51.17823,-25.93937]]]},"properties":{"codigo":"410680315","name":"Santana","population":3698,"households":1582,"areaKm2":423.5926,"density":8.7}}]}