{"type":"FeatureCollection","features":[{"type":"Feature","geometry":{"type":"Polygon","coordinates":[[[-51.57784,-26.29341],[-51.57795,-26.29441],[-51.58066,-26.29679],[-51.58301,-26.29727],[-51.58845,-26.29715],[-51.58853,-26.29818],[-51.58678,-26.2985],[-51.58609,-26.29904],[-51.58503,-26.30186],[-51.58149,-26.30367],[-51.58084,-26.30766],[-51.58254,-26.30927],[-51.58404,-26.30949],[-51.59004,-26.30665],[-51.59169,-26.30678],[-51.59289,-26.30741],[-51.59314,-26.30822],[-51.59258,-26.30959],[-51.58955,-26.31325],[-51.58926,-26.3142],[-51.59069,-26.31651],[-51.59151,-26.32012],[-51.59211,-26.32023],[-51.59457,-26.31868],[-51.59592,-26.3184],[-51.59796,-26.31889],[-51.59857,-26.31983],[-51.59893,-26.32221],[-51.60401,-26.32478],[-51.60571,-26.32621],[-51.60617,-26.32738],[-51.60242,-26.33021],[-51.59994,-26.32875],[-51.59639,-26.32738],[-51.5918,-26.32816],[-51.59135,-26.32798],[-51.59015,-26.32365],[-51.58667,-26.32183],[-51.58483,-26.32211],[-51.58235,-26.32473],[-51.58088,-26.32717],[-51.5797,-26.32773],[-51.57965,-26.32873],[-51.57846,-26.33054],[-51.5784,-26.33362],[-51.57984,-26.33823],[-51.57895,-26.3389],[-51.57671,-26.33833],[-51.57364,-26.33967],[-51.57215,-26.34224],[-51.57167,-26.34584],[-51.57224,-26.34636],[-51.57256,-26.34964],[-51.57476,-26.35117],[-51.57673,-26.3497],[-51.57952,-26.34955],[-51.58046,-26.35263],[-51.58835,-26.35592],[-51.58967,-26.35682],[-51.5895,-26.35774],[-51.58851,-26.35829],[-51.58441,-26.35849],[-51.5794,-26.35947],[-51.57721,-26.36137],[-51.57265,-26.3633],[-51.56961,-26.36408],[-51.56381,-26.36687],[-51.56237,-26.36823],[-51.56212,-26.36922],[-51.56333,-26.37074],[-51.56252,-26.37419],[-51.56043,-26.37622],[-51.56099,-26.37735],[-51.56208,-26.37734],[-51.56535,-26.37681],[-51.566,-26.37605],[-51.56874,-26.37464],[-51.57081,-26.37515],[-51.57112,-26.37569],[-51.56913,-26.37772],[-51.56817,-26.38063],[-51.57028,-26.3826],[-51.57004,-26.38535],[-51.57268,-26.389],[-51.57433,-26.38855],[-51.57583,-26.38877],[-51.57623,-26.38922],[-51.57611,-26.39144],[-51.57667,-26.39248],[-51.57862,-26.39342],[-51.58169,-26.39397],[-51.58145,-26.39536],[-51.58046,-26.396],[-51.57816,-26.39578],[-51.57728,-26.39545],[-51.57618,-26.39396],[-51.57372,-26.39307],[-51.57293,-26.3938],[-51.57276,-26.39616],[-51.57232,-26.39679],[-51.56842,-26.39676],[-51.56724,-26.39594],[-51.56608,-26.3932],[-51.56468,-26.3932],[-51.56122,-26.39139],[-51.55781,-26.39131],[-51.55521,-26.39079],[-51.55456,-26.39151],[-51.55457,-26.39295],[-51.5534,-26.39315],[-51.55069,-26.39123],[-51.54949,-26.39123],[-51.54553,-26.39253],[-51.54113,-26.39228],[-51.54096,-26.3937],[-51.54251,-26.39464],[-51.54162,-26.39603],[-51.54281,-26.39856],[-51.54333,-26.39906],[-51.54881,-26.40164],[-51.55026,-26.4055],[-51.55116,-26.40669],[-51.55186,-26.41038],[-51.55326,-26.41262],[-51.55317,-26.41397],[-51.55208,-26.41578],[-51.55187,-26.41864],[-51.54849,-26.42185],[-51.54828,-26.42686],[-51.54779,-26.42741],[-51.54649,-26.42737],[-51.54548,-26.42449],[-51.5444,-26.42416],[-51.54276,-26.42668],[-51.54147,-26.4275],[-51.54205,-26.42882],[-51.54435,-26.42913],[-51.54486,-26.4303],[-51.54184,-26.43209],[-51.5399,-26.43439],[-51.53659,-26.43623],[-51.53469,-26.43632],[-51.53155,-26.43742],[-51.53318,-26.4386],[-51.53279,-26.44171],[-51.53149,-26.44153],[-51.53048,-26.44318],[-51.53153,-26.44367],[-51.53043,-26.44485],[-51.53172,-26.44779],[-51.53114,-26.45166],[-51.52923,-26.45457],[-51.52703,-26.45485],[-51.52673,-26.45544],[-51.52878,-26.45593],[-51.53092,-26.45761],[-51.53366,-26.45706],[-51.53572,-26.45773],[-51.53415,-26.45969],[-51.53086,-26.46087],[-51.52917,-26.46272],[-51.52819,-26.46275],[-51.52729,-26.46217],[-51.52659,-26.46248],[-51.52659,-26.46347],[-51.52725,-26.46406],[-51.52553,-26.4662],[-51.52519,-26.46737],[-51.52624,-26.46872],[-51.52625,-26.46935],[-51.52435,-26.46985],[-51.52233,-26.47181],[-51.52094,-26.47218],[-51.5186,-26.47399],[-51.51849,-26.47471],[-51.51711,-26.47488],[-51.51643,-26.47546],[-51.51864,-26.47802],[-51.51842,-26.47989],[-51.51883,-26.48088],[-51.51988,-26.48128],[-51.52248,-26.48118],[-51.52408,-26.48284],[-51.52497,-26.48493],[-51.52363,-26.48678],[-51.52458,-26.48767],[-51.52486,-26.48891],[-51.52627,-26.4898],[-51.52522,-26.49107],[-51.52518,-26.49206],[-51.52363,-26.4927],[-51.52281,-26.49439],[-51.52352,-26.49578],[-51.52512,-26.49631],[-51.5269,-26.49773],[-51.52722,-26.50101],[-51.5282,-26.50359],[-51.52826,-26.50476],[-51.52742,-26.5072],[-51.52911,-26.51014],[-51.52907,-26.51316],[-51.52692,-26.51791],[-51.52643,-26.5212],[-51.52319,-26.52745],[-51.52388,-26.5308],[-51.52549,-26.53412],[-51.52469,-26.53833],[-51.51963,-26.54288],[-51.51864,-26.54531],[-51.51689,-26.54433],[-51.51607,-26.54656],[-51.51708,-26.54781],[-51.51682,-26.54893],[-51.51594,-26.54998],[-51.51654,-26.55151],[-51.51631,-26.55448],[-51.51663,-26.55554],[-51.51644,-26.55734],[-51.51513,-26.5588],[-51.51485,-26.56348],[-51.51263,-26.56595],[-51.51339,-26.5681],[-51.51315,-26.56995],[-51.51343,-26.57114],[-51.51208,-26.58169],[-51.51091,-26.58106],[-51.50934,-26.58079],[-51.50779,-26.58092],[-51.50558,-26.58153],[-51.50038,-26.58359],[-51.49739,-26.58526],[-51.49543,-26.58742],[-51.49172,-26.59267],[-51.48874,-26.59664],[-51.48585,-26.59993],[-51.48386,-26.60163],[-51.48003,-26.60596],[-51.47921,-26.60892],[-51.48514,-26.61039],[-51.48421,-26.61199],[-51.48452,-26.61507],[-51.48731,-26.6209],[-51.48753,-26.62318],[-51.4867,-26.62442],[-51.4853,-26.62463],[-51.48165,-26.6222],[-51.47975,-26.62079],[-51.47523,-26.6194],[-51.46884,-26.62124],[-51.46768,-26.62224],[-51.46197,-26.63053],[-51.45993,-26.63426],[-51.45488,-26.64066],[-51.45692,-26.6463],[-51.45715,-26.65117],[-51.45676,-26.65318],[-51.4558,-26.65445],[-51.4512,-26.65758],[-51.44715,-26.66221],[-51.442,-26.66485],[-51.43949,-26.66723],[-51.43739,-26.68328],[-51.43535,-26.68818],[-51.43212,-26.69081],[-51.42538,-26.69419],[-51.41924,-26.69494],[-51.41544,-26.69695],[-51.41087,-26.69794],[-51.40732,-26.70062],[-51.41012,-26.70543],[-51.41019,-26.70814],[-51.41146,-26.71155],[-51.41248,-26.71376],[-51.41265,-26.71616],[-51.41148,-26.71712],[-51.40881,-26.71508],[-51.40283,-26.7134],[-51.39997,-26.71217],[-51.39798,-26.71019],[-51.39626,-26.70733],[-51.39425,-26.703],[-51.39287,-26.69889],[-51.39285,-26.69728],[-51.39334,-26.69537],[-51.39343,-26.69238],[-51.39264,-26.68909],[-51.39257,-26.68645],[-51.39278,-26.68488],[-51.39496,-26.68261],[-51.39523,-26.6816],[-51.39593,-26.68119],[-51.39859,-26.6807],[-51.40229,-26.67963],[-51.40349,-26.67901],[-51.40506,-26.67769],[-51.4053,-26.67615],[-51.40491,-26.67558],[-51.40051,-26.6731],[-51.39876,-26.67155],[-51.39755,-26.67014],[-51.39706,-26.66892],[-51.39621,-26.66782],[-51.39382,-26.6668],[-51.39113,-26.66325],[-51.38954,-26.66244],[-51.38752,-26.6621],[-51.38546,-26.66211],[-51.38328,-26.66073],[-51.38229,-26.65957],[-51.3806,-26.65908],[-51.37848,-26.65889],[-51.37616,-26.65819],[-51.37416,-26.65952],[-51.3721,-26.66007],[-51.37103,-26.65997],[-51.36872,-26.659],[-51.36613,-26.65848],[-51.36491,-26.65776],[-51.36369,-26.65636],[-51.36241,-26.65564],[-51.35822,-26.6557],[-51.35671,-26.65435],[-51.3558,-26.65194],[-51.35331,-26.65207],[-51.35208,-26.65056],[-51.35098,-26.64992],[-51.34957,-26.64963],[-51.34703,-26.64859],[-51.34538,-26.64891],[-51.34346,-26.64883],[-51.34248,-26.64844],[-51.34112,-26.64921],[-51.33992,-26.64899],[-51.33892,-26.64929],[-51.33711,-26.64908],[-51.33504,-26.64988],[-51.33409,-26.64968],[-51.33358,-26.64814],[-51.33269,-26.64778],[-51.33196,-26.6467],[-51.33008,-26.64691],[-51.32922,-26.64674],[-51.32747,-26.64804],[-51.32532,-26.6486],[-51.32497,-26.65016],[-51.32433,-26.65157],[-51.32467,-26.65271],[-51.32411,-26.65553],[-51.32275,-26.6572],[-51.32128,-26.65681],[-51.31971,-26.65485],[-51.31829,-26.65424],[-51.31501,-26.65419],[-51.31359,-26.65258],[-51.31136,-26.65139],[-51.31036,-26.65123],[-51.30864,-26.6516],[-51.30734,-26.6522],[-51.30544,-26.6539],[-51.30315,-26.65432],[-51.30166,-26.65527],[-51.30094,-26.65484],[-51.30033,-26.65331],[-51.29906,-26.65332],[-51.29781,-26.65512],[-51.29601,-26.65484],[-51.29542,-26.65564],[-51.29449,-26.65591],[-51.29295,-26.65437],[-51.29053,-26.65324],[-51.28724,-26.65327],[-51.28621,-26.65289],[-51.2858,-26.65208],[-51.2834,-26.65363],[-51.28277,-26.6525],[-51.28144,-26.65226],[-51.28269,-26.64967],[-51.28264,-26.64687],[-51.28352,-26.64236],[-51.28019,-26.64169],[-51.27389,-26.64139],[-51.27366,-26.64009],[-51.27586,-26.6384],[-51.27688,-26.63568],[-51.2763,-26.6353],[-51.27374,-26.63528],[-51.27213,-26.63581],[-51.27093,-26.63658],[-51.26964,-26.63552],[-51.26867,-26.63567],[-51.2687,-26.63703],[-51.26729,-26.63764],[-51.26621,-26.63737],[-51.26649,-26.63634],[-51.26574,-26.63565],[-51.26359,-26.63441],[-51.2626,-26.63356],[-51.26221,-26.63204],[-51.26297,-26.63094],[-51.26185,-26.63031],[-51.26158,-26.62911],[-51.25996,-26.62836],[-51.25908,-26.62633],[-51.2584,-26.62545],[-51.25714,-26.62535],[-51.2556,-26.626],[-51.25367,-26.62733],[-51.25267,-26.62873],[-51.25131,-26.62765],[-51.24959,-26.62708],[-51.24647,-26.62751],[-51.2454,-26.62718],[-51.242,-26.62683],[-51.24032,-26.62849],[-51.23926,-26.62867],[-51.23886,-26.62786],[-51.23884,-26.6273],[-51.23703,-26.62581],[-51.23614,-26.62467],[-51.2358,-26.62239],[-51.23701,-26.62157],[-51.23754,-26.62064],[-51.23748,-26.61961],[-51.23686,-26.61916],[-51.23568,-26.61939],[-51.23366,-26.61902],[-51.23315,-26.61837],[-51.23332,-26.61692],[-51.23393,-26.61516],[-51.23325,-26.61435],[-51.23136,-26.61572],[-51.22923,-26.61662],[-51.22805,-26.61631],[-51.2271,-26.61523],[-51.22804,-26.61434],[-51.23042,-26.61337],[-51.23273,-26.61128],[-51.23412,-26.60946],[-51.23679,-26.60789],[-51.2379,-26.60559],[-51.23749,-26.60461],[-51.23629,-26.60419],[-51.23322,-26.60373],[-51.23235,-26.60257],[-51.23285,-26.60087],[-51.23141,-26.60041],[-51.228,-26.59573],[-51.2259,-26.59538],[-51.22451,-26.59462],[-51.22305,-26.59434],[-51.22207,-26.59374],[-51.22195,-26.59332],[-51.22469,-26.59167],[-51.22522,-26.59016],[-51.22534,-26.58818],[-51.2265,-26.58555],[-51.22614,-26.58427],[-51.22475,-26.58318],[-51.22387,-26.58196],[-51.22224,-26.58026],[-51.22209,-26.57884],[-51.22305,-26.57833],[-51.22398,-26.5769],[-51.22486,-26.57634],[-51.22478,-26.57559],[-51.22263,-26.57507],[-51.22101,-26.57404],[-51.22012,-26.5723],[-51.21716,-26.57209],[-51.21485,-26.57088],[-51.21468,-26.56993],[-51.21567,-26.56708],[-51.21728,-26.56678],[-51.21946,-26.56702],[-51.22317,-26.56692],[-51.22447,-26.56639],[-51.22638,-26.56461],[-51.22766,-26.56406],[-51.22805,-26.56245],[-51.22898,-26.5604],[-51.22869,-26.55908],[-51.22899,-26.5567],[-51.22877,-26.55516],[-51.22806,-26.55458],[-51.225,-26.55332],[-51.2243,-26.55246],[-51.224,-26.55053],[-51.22226,-26.55019],[-51.22322,-26.54921],[-51.22518,-26.54858],[-51.22907,-26.54879],[-51.23152,-26.5486],[-51.23222,-26.54686],[-51.23339,-26.54621],[-51.23564,-26.54424],[-51.23964,-26.54543],[-51.24159,-26.54475],[-51.24178,-26.54371],[-51.23972,-26.54286],[-51.23873,-26.54188],[-51.23819,-26.54081],[-51.23858,-26.5401],[-51.23998,-26.53908],[-51.24141,-26.53848],[-51.24566,-26.5384],[-51.24693,-26.53802],[-51.24676,-26.53435],[-51.24635,-26.53273],[-51.24676,-26.52966],[-51.24675,-26.52683],[-51.24734,-26.52586],[-51.24899,-26.52442],[-51.24988,-26.52011],[-51.25087,-26.51908],[-51.25672,-26.5191],[-51.25799,-26.51722],[-51.25995,-26.51601],[-51.26065,-26.51523],[-51.26053,-26.51376],[-51.26079,-26.51275],[-51.26159,-26.51232],[-51.26424,-26.51321],[-51.26572,-26.51291],[-51.2659,-26.51221],[-51.26368,-26.50955],[-51.26173,-26.5086],[-51.2615,-26.50744],[-51.26248,-26.50698],[-51.26676,-26.50661],[-51.26848,-26.50666],[-51.27023,-26.50611],[-51.27086,-26.50535],[-51.27126,-26.50317],[-51.27027,-26.50203],[-51.26779,-26.50104],[-51.26728,-26.50013],[-51.26822,-26.49938],[-51.26992,-26.49884],[-51.27317,-26.4983],[-51.27316,-26.49587],[-51.27152,-26.49493],[-51.26924,-26.49418],[-51.26859,-26.49224],[-51.26823,-26.49038],[-51.26647,-26.4892],[-51.26274,-26.49049],[-51.26083,-26.49065],[-51.25987,-26.49022],[-51.26014,-26.48898],[-51.26412,-26.48512],[-51.2653,-26.48359],[-51.26557,-26.48275],[-51.26528,-26.48123],[-51.2611,-26.48042],[-51.25868,-26.47972],[-51.25686,-26.47846],[-51.2561,-26.47735],[-51.25529,-26.47547],[-51.25434,-26.47536],[-51.25253,-26.47582],[-51.25103,-26.47518],[-51.25007,-26.47328],[-51.25113,-26.47207],[-51.25298,-26.47215],[-51.25761,-26.47209],[-51.2592,-26.47111],[-51.25916,-26.46919],[-51.25707,-26.46837],[-51.25566,-26.46737],[-51.25478,-26.4662],[-51.25341,-26.46367],[-51.2532,-26.46205],[-51.25519,-26.46151],[-51.25737,-26.46062],[-51.25965,-26.46082],[-51.26488,-26.46065],[-51.26657,-26.46039],[-51.26799,-26.45757],[-51.26923,-26.45654],[-51.27074,-26.45597],[-51.27168,-26.45622],[-51.27392,-26.45892],[-51.27481,-26.45929],[-51.27728,-26.45843],[-51.27817,-26.45723],[-51.27921,-26.45494],[-51.27935,-26.45381],[-51.27847,-26.45271],[-51.2758,-26.45021],[-51.27392,-26.44741],[-51.27351,-26.44571],[-51.27454,-26.44371],[-51.27607,-26.44286],[-51.27928,-26.44247],[-51.28018,-26.44218],[-51.28112,-26.44116],[-51.28199,-26.43907],[-51.28291,-26.43872],[-51.2842,-26.43946],[-51.286,-26.43866],[-51.2876,-26.4386],[-51.2922,-26.43536],[-51.29288,-26.43412],[-51.29292,-26.43079],[-51.29256,-26.42825],[-51.29377,-26.42513],[-51.29488,-26.42371],[-51.29611,-26.42283],[-51.29673,-26.42176],[-51.30039,-26.41769],[-51.29755,-26.417],[-51.29942,-26.41642],[-51.30102,-26.41672],[-51.30518,-26.41671],[-51.30631,-26.41508],[-51.30573,-26.41442],[-51.30626,-26.41226],[-51.30745,-26.41059],[-51.31036,-26.4093],[-51.31121,-26.41025],[-51.31336,-26.41125],[-51.31488,-26.41127],[-51.31673,-26.412],[-51.3184,-26.4134],[-51.31951,-26.41268],[-51.32091,-26.41223],[-51.32147,-26.41092],[-51.3233,-26.41084],[-51.32459,-26.41228],[-51.3265,-26.41238],[-51.32944,-26.41289],[-51.33114,-26.41064],[-51.33215,-26.40873],[-51.33205,-26.40747],[-51.33261,-26.40646],[-51.33377,-26.40606],[-51.33775,-26.40315],[-51.34009,-26.40001],[-51.34128,-26.40127],[-51.34269,-26.4015],[-51.34349,-26.40093],[-51.34366,-26.39865],[-51.34564,-26.39778],[-51.34596,-26.39678],[-51.34687,-26.39605],[-51.34849,-26.39601],[-51.35163,-26.39505],[-51.35326,-26.3951],[-51.35468,-26.39622],[-51.35504,-26.39694],[-51.35708,-26.39793],[-51.35935,-26.40048],[-51.36023,-26.40433],[-51.35825,-26.40442],[-51.35729,-26.40287],[-51.35571,-26.40369],[-51.35479,-26.40487],[-51.35415,-26.4069],[-51.35517,-26.40858],[-51.35487,-26.40947],[-51.35205,-26.41048],[-51.35077,-26.41376],[-51.35036,-26.41443],[-51.3479,-26.41609],[-51.34972,-26.41713],[-51.35057,-26.4172],[-51.35188,-26.41656],[-51.35381,-26.41684],[-51.35655,-26.41829],[-51.35858,-26.42047],[-51.36094,-26.42136],[-51.3625,-26.42273],[-51.36393,-26.42263],[-51.36607,-26.42423],[-51.36645,-26.42589],[-51.36605,-26.42897],[-51.36841,-26.43201],[-51.36969,-26.43173],[-51.37164,-26.43227],[-51.37274,-26.43309],[-51.37854,-26.43377],[-51.37923,-26.43347],[-51.38169,-26.43389],[-51.38525,-26.43388],[-51.38704,-26.43301],[-51.38853,-26.43276],[-51.38989,-26.43158],[-51.39069,-26.43051],[-51.39234,-26.42961],[-51.39352,-26.4293],[-51.39421,-26.42812],[-51.39436,-26.4268],[-51.39739,-26.42444],[-51.39956,-26.42372],[-51.40084,-26.42274],[-51.40123,-26.42194],[-51.403,-26.42186],[-51.40545,-26.42254],[-51.4131,-26.42945],[-51.41429,-26.4302],[-51.41531,-26.43035],[-51.41822,-26.43236],[-51.41975,-26.43238],[-51.42085,-26.43113],[-51.42069,-26.42916],[-51.42236,-26.42809],[-51.42492,-26.4244],[-51.42949,-26.42017],[-51.42958,-26.4183],[-51.43065,-26.41695],[-51.43043,-26.41498],[-51.42967,-26.41267],[-51.42897,-26.41181],[-51.42695,-26.41161],[-51.42686,-26.41082],[-51.42556,-26.40995],[-51.42463,-26.40819],[-51.42437,-26.40668],[-51.42333,-26.40562],[-51.42299,-26.40449],[-51.42374,-26.40313],[-51.42481,-26.40208],[-51.42528,-26.40043],[-51.42627,-26.40002],[-51.42668,-26.39906],[-51.42837,-26.3979],[-51.42907,-26.39575],[-51.43047,-26.39335],[-51.43095,-26.39169],[-51.43477,-26.38991],[-51.43608,-26.39001],[-51.43685,-26.38808],[-51.43844,-26.38673],[-51.4385,-26.3843],[-51.43905,-26.38261],[-51.44028,-26.38128],[-51.44092,-26.37885],[-51.44146,-26.3784],[-51.44302,-26.38082],[-51.44438,-26.3812],[-51.44883,-26.37868],[-51.45147,-26.37803],[-51.45244,-26.37389],[-51.45415,-26.37202],[-51.45477,-26.36555],[-51.45605,-26.36486],[-51.4583,-26.3651],[-51.4594,-26.36703],[-51.46146,-26.36738],[-51.4603,-26.36427],[-51.45746,-26.36355],[-51.45769,-26.36174],[-51.45974,-26.36107],[-51.46116,-26.36107],[-51.46194,-26.36027],[-51.45826,-26.35631],[-51.45869,-26.35512],[-51.46024,-26.35422],[-51.46007,-26.35209],[-51.45777,-26.35112],[-51.45794,-26.34812],[-51.45557,-26.34526],[-51.45616,-26.34228],[-51.45535,-26.34063],[-51.45361,-26.33985],[-51.45299,-26.33893],[-51.4538,-26.33431],[-51.45349,-26.33286],[-51.45469,-26.33214],[-51.45447,-26.32906],[-51.45569,-26.32806],[-51.45786,-26.32793],[-51.46182,-26.32567],[-51.46146,-26.32458],[-51.45994,-26.32298],[-51.46221,-26.32014],[-51.46399,-26.32012],[-51.46572,-26.31934],[-51.46807,-26.3193],[-51.46988,-26.31641],[-51.47043,-26.31392],[-51.47561,-26.31277],[-51.47743,-26.31361],[-51.47888,-26.31314],[-51.47982,-26.31097],[-51.48099,-26.30979],[-51.48277,-26.30899],[-51.48569,-26.30851],[-51.48849,-26.3094],[-51.49035,-26.30944],[-51.49127,-26.30844],[-51.49322,-26.30809],[-51.49502,-26.3091],[-51.49638,-26.30935],[-51.49791,-26.30866],[-51.50021,-26.3055],[-51.5044,-26.30443],[-51.50843,-26.30532],[-51.50971,-26.30445],[-51.51235,-26.30507],[-51.5138,-26.30474],[-51.51569,-26.303],[-51.51541,-26.30171],[-51.51666,-26.30118],[-51.51786,-26.30164],[-51.51947,-26.30111],[-51.52038,-26.30435],[-51.52332,-26.30723],[-51.52441,-26.30568],[-51.52569,-26.30512],[-51.52622,-26.30402],[-51.52464,-26.30347],[-51.52585,-26.30203],[-51.52952,-26.30093],[-51.53174,-26.30236],[-51.53299,-26.30187],[-51.53371,-26.2982],[-51.53474,-26.29739],[-51.53811,-26.29883],[-51.53972,-26.29889],[-51.54407,-26.30406],[-51.54919,-26.30283],[-51.55083,-26.30326],[-51.55272,-26.30461],[-51.55482,-26.3046],[-51.5558,-26.30329],[-51.55932,-26.30331],[-51.56255,-26.30263],[-51.56411,-26.3046],[-51.56641,-26.30495],[-51.57037,-26.30456],[-51.57213,-26.3073],[-51.56913,-26.30868],[-51.56988,-26.30959],[-51.57299,-26.31075],[-51.57466,-26.31045],[-51.57505,-26.30766],[-51.57452,-26.30341],[-51.57724,-26.30294],[-51.57694,-26.30167],[-51.57511,-26.30115],[-51.57552,-26.30014],[-51.57752,-26.29945],[-51.57744,-26.29623],[-51.57557,-26.29548],[-51.57577,-26.29434],[-51.57784,-26.29341]]]},"properties":{"codigo":"410850205","name":"General Carneiro","population":9970,"households":4124,"areaKm2":843.3131,"density":11.8}},{"type":"Feature","geometry":{"type":"Polygon","coordinates":[[[-51.44146,-26.3784],[-51.44092,-26.37885],[-51.44028,-26.38128],[-51.43905,-26.38261],[-51.4385,-26.3843],[-51.43844,-26.38673],[-51.43685,-26.38808],[-51.43608,-26.39001],[-51.43477,-26.38991],[-51.43095,-26.39169],[-51.43047,-26.39335],[-51.42907,-26.39575],[-51.42837,-26.3979],[-51.42668,-26.39906],[-51.42627,-26.40002],[-51.42528,-26.40043],[-51.42481,-26.40208],[-51.42374,-26.40313],[-51.42299,-26.40449],[-51.42333,-26.40562],[-51.42437,-26.40668],[-51.42463,-26.40819],[-51.42556,-26.40995],[-51.42686,-26.41082],[-51.42695,-26.41161],[-51.42897,-26.41181],[-51.42967,-26.41267],[-51.43043,-26.41498],[-51.43065,-26.41695],[-51.42958,-26.4183],[-51.42949,-26.42017],[-51.42492,-26.4244],[-51.42236,-26.42809],[-51.42069,-26.42916],[-51.42085,-26.43113],[-51.41975,-26.43238],[-51.41822,-26.43236],[-51.41531,-26.43035],[-51.41429,-26.4302],[-51.4131,-26.42945],[-51.40545,-26.42254],[-51.403,-26.42186],[-51.40123,-26.42194],[-51.40084,-26.42274],[-51.39956,-26.42372],[-51.39739,-26.42444],[-51.39436,-26.4268],[-51.39421,-26.42812],[-51.39352,-26.4293],[-51.39234,-26.42961],[-51.39069,-26.43051],[-51.38989,-26.43158],[-51.38853,-26.43276],[-51.38704,-26.43301],[-51.38525,-26.43388],[-51.38169,-26.43389],[-51.37923,-26.43347],[-51.37854,-26.43377],[-51.37274,-26.43309],[-51.37164,-26.43227],[-51.36969,-26.43173],[-51.36841,-26.43201],[-51.36605,-26.42897],[-51.36645,-26.42589],[-51.36607,-26.42423],[-51.36393,-26.42263],[-51.3625,-26.42273],[-51.36094,-26.42136],[-51.35858,-26.42047],[-51.35655,-26.41829],[-51.35381,-26.41684],[-51.35188,-26.41656],[-51.35057,-26.4172],[-51.34972,-26.41713],[-51.3479,-26.41609],[-51.35036,-26.41443],[-51.35077,-26.41376],[-51.35205,-26.41048],[-51.35487,-26.40947],[-51.35517,-26.40858],[-51.35415,-26.4069],[-51.35479,-26.40487],[-51.35571,-26.40369],[-51.35729,-26.40287],[-51.35825,-26.40442],[-51.36023,-26.40433],[-51.35935,-26.40048],[-51.35708,-26.39793],[-51.35504,-26.39694],[-51.35468,-26.39622],[-51.35326,-26.3951],[-51.35163,-26.39505],[-51.34849,-26.39601],[-51.34687,-26.39605],[-51.34596,-26.39678],[-51.34564,-26.39778],[-51.34366,-26.39865],[-51.34349,-26.40093],[-51.34269,-26.4015],[-51.34128,-26.40127],[-51.34009,-26.40001],[-51.33775,-26.40315],[-51.33377,-26.40606],[-51.33261,-26.40646],[-51.33205,-26.40747],[-51.33215,-26.40873],[-51.33114,-26.41064],[-51.32944,-26.41289],[-51.3265,-26.41238],[-51.32459,-26.41228],[-51.3233,-26.41084],[-51.32147,-26.41092],[-51.32091,-26.41223],[-51.31951,-26.41268],[-51.3184,-26.4134],[-51.31673,-26.412],[-51.31488,-26.41127],[-51.31336,-26.41125],[-51.31121,-26.41025],[-51.31036,-26.4093],[-51.30745,-26.41059],[-51.30626,-26.41226],[-51.30573,-26.41442],[-51.30631,-26.41508],[-51.30518,-26.41671],[-51.30102,-26.41672],[-51.29942,-26.41642],[-51.29755,-26.417],[-51.29541,-26.41697],[-51.2935,-26.41627],[-51.28935,-26.41525],[-51.2877,-26.41418],[-51.28674,-26.41318],[-51.28701,-26.4115],[-51.28874,-26.40903],[-51.28951,-26.40739],[-51.29169,-26.40421],[-51.29168,-26.40274],[-51.29035,-26.40154],[-51.28931,-26.39987],[-51.28836,-26.39895],[-51.28583,-26.39772],[-51.28266,-26.40019],[-51.27967,-26.4023],[-51.27816,-26.40259],[-51.27515,-26.40123],[-51.27435,-26.4003],[-51.27435,-26.39863],[-51.27492,-26.39757],[-51.27754,-26.39395],[-51.27791,-26.39272],[-51.27725,-26.38943],[-51.27593,-26.38846],[-51.27386,-26.38821],[-51.27036,-26.3869],[-51.26848,-26.38565],[-51.26714,-26.38506],[-51.26486,-26.38368],[-51.26322,-26.3829],[-51.2631,-26.38111],[-51.26269,-26.37959],[-51.26197,-26.37899],[-51.2604,-26.3787],[-51.25863,-26.37922],[-51.25616,-26.37803],[-51.25533,-26.37734],[-51.25326,-26.37635],[-51.251,-26.37436],[-51.25172,-26.37359],[-51.25391,-26.3736],[-51.25562,-26.3732],[-51.25701,-26.37233],[-51.25689,-26.37048],[-51.25733,-26.36863],[-51.25898,-26.36643],[-51.26002,-26.36459],[-51.25996,-26.36204],[-51.25888,-26.35973],[-51.25816,-26.35865],[-51.25581,-26.35684],[-51.25442,-26.355],[-51.25217,-26.35151],[-51.25596,-26.34919],[-51.25785,-26.34967],[-51.25974,-26.34949],[-51.26299,-26.34865],[-51.26624,-26.34708],[-51.26798,-26.34696],[-51.26973,-26.34415],[-51.26969,-26.34191],[-51.26663,-26.3424],[-51.26382,-26.34198],[-51.26363,-26.34012],[-51.26477,-26.33677],[-51.26396,-26.33504],[-51.2614,-26.33462],[-51.2588,-26.33296],[-51.25765,-26.32354],[-51.25813,-26.32146],[-51.25977,-26.3197],[-51.26738,-26.31743],[-51.2693,-26.31568],[-51.26896,-26.314],[-51.26491,-26.30953],[-51.26946,-26.30852],[-51.27163,-26.30707],[-51.27321,-26.30461],[-51.26724,-26.30369],[-51.26302,-26.3014],[-51.2638,-26.3004],[-51.26682,-26.29965],[-51.27082,-26.29963],[-51.27846,-26.30136],[-51.28269,-26.3013],[-51.2844,-26.29858],[-51.2804,-26.28983],[-51.27882,-26.28805],[-51.27727,-26.28808],[-51.27535,-26.29004],[-51.26918,-26.29177],[-51.26757,-26.29198],[-51.26496,-26.29078],[-51.26607,-26.28358],[-51.26801,-26.27961],[-51.26843,-26.2772],[-51.27083,-26.27531],[-51.27277,-26.27575],[-51.27894,-26.27924],[-51.28357,-26.27868],[-51.28607,-26.27911],[-51.28974,-26.27763],[-51.28771,-26.27451],[-51.28585,-26.27307],[-51.28602,-26.27194],[-51.28529,-26.26953],[-51.2794,-26.26872],[-51.2759,-26.26639],[-51.27157,-26.26835],[-51.27009,-26.26945],[-51.26777,-26.26788],[-51.2679,-26.26545],[-51.27002,-26.26415],[-51.27013,-26.26149],[-51.26768,-26.25916],[-51.26476,-26.25846],[-51.26185,-26.25613],[-51.26183,-26.25481],[-51.26285,-26.25367],[-51.26668,-26.25257],[-51.26794,-26.25172],[-51.26891,-26.24996],[-51.26827,-26.24746],[-51.26522,-26.24731],[-51.26182,-26.24379],[-51.26274,-26.24279],[-51.26671,-26.24209],[-51.27148,-26.24423],[-51.27376,-26.24572],[-51.27874,-26.24947],[-51.28041,-26.25178],[-51.28287,-26.25087],[-51.28216,-26.24664],[-51.28285,-26.24578],[-51.28666,-26.24447],[-51.28971,-26.24684],[-51.29293,-26.24721],[-51.29452,-26.24681],[-51.3007,-26.24667],[-51.30324,-26.24973],[-51.30543,-26.25115],[-51.30432,-26.25295],[-51.30418,-26.25582],[-51.30816,-26.25843],[-51.30902,-26.25658],[-51.31022,-26.25694],[-51.31188,-26.25641],[-51.31338,-26.25732],[-51.31402,-26.25835],[-51.31813,-26.25649],[-51.31946,-26.25659],[-51.32229,-26.25901],[-51.32282,-26.25997],[-51.3231,-26.2631],[-51.32441,-26.26288],[-51.32399,-26.26519],[-51.32468,-26.26624],[-51.32548,-26.26515],[-51.32729,-26.26721],[-51.32815,-26.26985],[-51.32908,-26.27097],[-51.33201,-26.27165],[-51.33319,-26.2724],[-51.33872,-26.27776],[-51.34274,-26.27915],[-51.34424,-26.2804],[-51.34828,-26.28237],[-51.35085,-26.28194],[-51.35407,-26.28373],[-51.35416,-26.28722],[-51.35585,-26.28787],[-51.35699,-26.28772],[-51.35841,-26.2884],[-51.36073,-26.29093],[-51.36507,-26.29312],[-51.36571,-26.29441],[-51.36541,-26.30035],[-51.36696,-26.30325],[-51.36718,-26.30572],[-51.36949,-26.30954],[-51.37289,-26.31042],[-51.37587,-26.31295],[-51.37718,-26.31459],[-51.37784,-26.31895],[-51.38047,-26.32365],[-51.38192,-26.3254],[-51.38636,-26.32728],[-51.38762,-26.32934],[-51.38885,-26.33199],[-51.39239,-26.33469],[-51.40547,-26.34183],[-51.41292,-26.34358],[-51.42051,-26.34709],[-51.42547,-26.34784],[-51.42822,-26.34801],[-51.42926,-26.34871],[-51.43032,-26.35271],[-51.4297,-26.35987],[-51.42993,-26.36273],[-51.43144,-26.36747],[-51.43135,-26.36885],[-51.43327,-26.37154],[-51.43613,-26.37317],[-51.43816,-26.37331],[-51.44146,-26.3784]]]},"properties":{"codigo":"410850215","name":"Jangada do Sul","population":1092,"households":574,"areaKm2":227.8701,"density":4.8}}]}