{"type":"FeatureCollection","features":[{"type":"Feature","geometry":{"type":"Polygon","coordinates":[[[-52.70192,-24.13952],[-52.70208,-24.13795],[-52.70361,-24.13877],[-52.70664,-24.13945],[-52.7067,-24.13683],[-52.70342,-24.13545],[-52.70136,-24.13609],[-52.70078,-24.13449],[-52.70106,-24.13341],[-52.70372,-24.1337],[-52.70461,-24.13185],[-52.70197,-24.1314],[-52.70117,-24.12944],[-52.70211,-24.12819],[-52.70348,-24.12767],[-52.70496,-24.12619],[-52.70601,-24.12616],[-52.70809,-24.12775],[-52.70841,-24.1266],[-52.71145,-24.12774],[-52.71248,-24.1267],[-52.71086,-24.12456],[-52.71006,-24.12207],[-52.70992,-24.12084],[-52.71119,-24.12025],[-52.71181,-24.11906],[-52.71081,-24.11825],[-52.71367,-24.11673],[-52.71489,-24.11664],[-52.71639,-24.11705],[-52.71767,-24.117],[-52.71822,-24.11587],[-52.71658,-24.11546],[-52.71423,-24.11266],[-52.71719,-24.11314],[-52.71841,-24.1141],[-52.71992,-24.11388],[-52.71892,-24.11274],[-52.71891,-24.11145],[-52.71733,-24.11129],[-52.716,-24.11049],[-52.71631,-24.10931],[-52.71972,-24.10853],[-52.71947,-24.10683],[-52.72064,-24.10644],[-52.72197,-24.10663],[-52.72372,-24.10754],[-52.72578,-24.10553],[-52.72564,-24.10416],[-52.72608,-24.10205],[-52.72784,-24.10047],[-52.72817,-24.09857],[-52.73122,-24.09817],[-52.7328,-24.09753],[-52.73294,-24.09615],[-52.73408,-24.09545],[-52.73597,-24.09518],[-52.73738,-24.09548],[-52.74024,-24.09386],[-52.74045,-24.092],[-52.74203,-24.08903],[-52.74314,-24.08944],[-52.7455,-24.08525],[-52.74693,-24.08457],[-52.74739,-24.0835],[-52.74709,-24.08181],[-52.74572,-24.07939],[-52.74581,-24.07813],[-52.74534,-24.077],[-52.74377,-24.07689],[-52.74197,-24.07522],[-52.7435,-24.07322],[-52.74278,-24.07085],[-52.74164,-24.07009],[-52.7412,-24.06857],[-52.74195,-24.06755],[-52.74413,-24.06712],[-52.74597,-24.0661],[-52.74606,-24.06456],[-52.74531,-24.06361],[-52.74356,-24.06383],[-52.74333,-24.06252],[-52.74442,-24.06211],[-52.74545,-24.06102],[-52.74814,-24.0628],[-52.74836,-24.06409],[-52.75072,-24.06399],[-52.75156,-24.06331],[-52.75147,-24.0605],[-52.75198,-24.05859],[-52.75286,-24.05743],[-52.75447,-24.05696],[-52.75531,-24.05548],[-52.75655,-24.05578],[-52.75656,-24.05461],[-52.75495,-24.05243],[-52.75376,-24.05342],[-52.75306,-24.05224],[-52.75314,-24.05054],[-52.75409,-24.04998],[-52.75648,-24.04993],[-52.75744,-24.04832],[-52.75719,-24.04681],[-52.7582,-24.04613],[-52.75917,-24.04481],[-52.7585,-24.04229],[-52.76003,-24.04173],[-52.76105,-24.0409],[-52.76141,-24.03941],[-52.76278,-24.03714],[-52.76233,-24.03598],[-52.76297,-24.03466],[-52.76442,-24.03364],[-52.76514,-24.03228],[-52.76531,-24.03106],[-52.76667,-24.02913],[-52.76812,-24.02989],[-52.76836,-24.02739],[-52.76809,-24.02521],[-52.76842,-24.02385],[-52.76953,-24.02317],[-52.77217,-24.0225],[-52.77305,-24.02128],[-52.77414,-24.02109],[-52.77659,-24.02185],[-52.77844,-24.02108],[-52.77909,-24.01843],[-52.77925,-24.01689],[-52.77984,-24.01533],[-52.78111,-24.01372],[-52.78136,-24.0125],[-52.78214,-24.01154],[-52.78472,-24.01213],[-52.78564,-24.01369],[-52.78717,-24.01525],[-52.78673,-24.01718],[-52.78722,-24.01903],[-52.78823,-24.01796],[-52.7892,-24.01895],[-52.79103,-24.01823],[-52.79222,-24.01821],[-52.79297,-24.01911],[-52.79269,-24.02046],[-52.79363,-24.02182],[-52.79506,-24.02239],[-52.79589,-24.02064],[-52.79667,-24.0181],[-52.79542,-24.01438],[-52.79695,-24.00935],[-52.79903,-24.00917],[-52.80044,-24.00755],[-52.80201,-24.00752],[-52.80243,-24.00941],[-52.80328,-24.01007],[-52.80636,-24.01162],[-52.8081,-24.01293],[-52.80892,-24.01184],[-52.81003,-24.00743],[-52.81112,-24.00557],[-52.81343,-24.00408],[-52.81532,-24.00312],[-52.81705,-24.00351],[-52.81952,-24.00548],[-52.82157,-24.00837],[-52.82258,-24.00881],[-52.82385,-24.0086],[-52.82388,-24.0065],[-52.82329,-24.0043],[-52.82321,-24.00251],[-52.82408,-24.00081],[-52.82467,-23.99902],[-52.82549,-23.99839],[-52.82727,-23.99827],[-52.82807,-23.99949],[-52.8301,-24.00136],[-52.83189,-24.00195],[-52.83307,-24.00281],[-52.83417,-24.00218],[-52.83426,-23.99993],[-52.83312,-23.99846],[-52.83294,-23.99769],[-52.83468,-23.9948],[-52.83563,-23.99474],[-52.83863,-23.99834],[-52.83861,-24.0011],[-52.83924,-24.00196],[-52.84013,-24.00236],[-52.84164,-24.00245],[-52.84318,-24.00156],[-52.84447,-24.002],[-52.8449,-24.00492],[-52.84569,-24.00557],[-52.84758,-24.00524],[-52.84937,-24.00604],[-52.85059,-24.00561],[-52.8516,-24.00576],[-52.85281,-24.00502],[-52.85245,-24.00329],[-52.85194,-24.00232],[-52.85247,-24.00078],[-52.85509,-24.00106],[-52.85679,-23.99894],[-52.85526,-23.99701],[-52.85352,-23.99606],[-52.85311,-23.99504],[-52.85525,-23.99292],[-52.85691,-23.99249],[-52.85787,-23.99319],[-52.85993,-23.99685],[-52.86088,-23.9973],[-52.86353,-23.99537],[-52.86452,-23.99485],[-52.86574,-23.99479],[-52.86715,-23.99589],[-52.8677,-23.99497],[-52.86548,-23.99182],[-52.86647,-23.99099],[-52.868,-23.98882],[-52.86878,-23.98898],[-52.86909,-23.99143],[-52.86966,-23.99219],[-52.87105,-23.99192],[-52.87255,-23.99226],[-52.87287,-23.99311],[-52.87495,-23.99419],[-52.87572,-23.99518],[-52.87694,-23.99789],[-52.87456,-23.99898],[-52.87539,-24.00036],[-52.8827,-24.00724],[-52.8777,-24.00725],[-52.87791,-24.0092],[-52.87928,-24.01059],[-52.88048,-24.01083],[-52.87945,-24.01239],[-52.87795,-24.01353],[-52.8768,-24.01496],[-52.87566,-24.01502],[-52.87539,-24.01679],[-52.87676,-24.01734],[-52.87775,-24.01845],[-52.87955,-24.01775],[-52.88117,-24.02002],[-52.88098,-24.02129],[-52.87986,-24.02197],[-52.87876,-24.02333],[-52.88017,-24.02374],[-52.88042,-24.0256],[-52.87878,-24.02669],[-52.87864,-24.02941],[-52.8803,-24.03091],[-52.88248,-24.03218],[-52.88386,-24.0326],[-52.88408,-24.03368],[-52.88336,-24.03513],[-52.88133,-24.03475],[-52.8807,-24.03384],[-52.87828,-24.03453],[-52.87656,-24.03415],[-52.8758,-24.03512],[-52.87689,-24.03666],[-52.8803,-24.03889],[-52.882,-24.03931],[-52.8825,-24.04055],[-52.88345,-24.04131],[-52.88589,-24.04262],[-52.88486,-24.04396],[-52.88445,-24.0464],[-52.88275,-24.04708],[-52.88078,-24.04617],[-52.88002,-24.04718],[-52.88114,-24.04878],[-52.88109,-24.05042],[-52.87836,-24.05048],[-52.87917,-24.05213],[-52.87783,-24.05622],[-52.87842,-24.05878],[-52.87845,-24.06014],[-52.87739,-24.06195],[-52.87689,-24.06395],[-52.87717,-24.06672],[-52.8787,-24.06749],[-52.87786,-24.06885],[-52.87714,-24.07093],[-52.87792,-24.07325],[-52.87703,-24.07429],[-52.87403,-24.07274],[-52.87275,-24.07333],[-52.87294,-24.07465],[-52.87289,-24.08016],[-52.87056,-24.08172],[-52.8692,-24.0844],[-52.8694,-24.08659],[-52.86883,-24.08803],[-52.86758,-24.08923],[-52.86845,-24.09068],[-52.86789,-24.09258],[-52.86947,-24.09336],[-52.86978,-24.09535],[-52.86748,-24.09574],[-52.86622,-24.09843],[-52.86536,-24.09918],[-52.86501,-24.10049],[-52.86419,-24.10122],[-52.86503,-24.10199],[-52.86466,-24.10311],[-52.86256,-24.10492],[-52.86039,-24.10516],[-52.85961,-24.10688],[-52.8585,-24.10831],[-52.86019,-24.11058],[-52.85942,-24.11171],[-52.85762,-24.11069],[-52.85517,-24.11188],[-52.85412,-24.1128],[-52.85309,-24.11457],[-52.85498,-24.11773],[-52.85502,-24.11933],[-52.85614,-24.12066],[-52.85674,-24.1219],[-52.85575,-24.12553],[-52.85559,-24.12844],[-52.85588,-24.1296],[-52.85657,-24.13042],[-52.85968,-24.13267],[-52.86004,-24.13391],[-52.86258,-24.13851],[-52.86442,-24.13851],[-52.86447,-24.13994],[-52.86903,-24.13976],[-52.86867,-24.18572],[-52.86816,-24.25056],[-52.86828,-24.2574],[-52.86611,-24.2573],[-52.8641,-24.25885],[-52.86336,-24.25914],[-52.86201,-24.25823],[-52.86133,-24.25723],[-52.8615,-24.25634],[-52.86245,-24.25615],[-52.86141,-24.25471],[-52.86143,-24.25253],[-52.86079,-24.25074],[-52.85948,-24.24999],[-52.85808,-24.25153],[-52.85708,-24.25144],[-52.85691,-24.25061],[-52.85606,-24.25036],[-52.85372,-24.25044],[-52.85387,-24.24917],[-52.85244,-24.24853],[-52.85132,-24.24955],[-52.85103,-24.25177],[-52.84962,-24.25288],[-52.84869,-24.2528],[-52.84786,-24.25174],[-52.84604,-24.25029],[-52.84546,-24.2511],[-52.84401,-24.2521],[-52.84365,-24.25281],[-52.84395,-24.25378],[-52.84324,-24.25407],[-52.84171,-24.2531],[-52.84071,-24.25222],[-52.83917,-24.25164],[-52.83801,-24.25088],[-52.83749,-24.2498],[-52.83632,-24.25043],[-52.83461,-24.24901],[-52.83431,-24.24682],[-52.83347,-24.24682],[-52.832,-24.24572],[-52.83069,-24.24556],[-52.83052,-24.24456],[-52.82885,-24.2424],[-52.8299,-24.24091],[-52.82854,-24.23964],[-52.82778,-24.2379],[-52.82764,-24.23561],[-52.82654,-24.23378],[-52.82608,-24.23094],[-52.82656,-24.2293],[-52.82653,-24.22515],[-52.82508,-24.22278],[-52.82467,-24.21823],[-52.82493,-24.21756],[-52.82402,-24.21588],[-52.82419,-24.21418],[-52.82361,-24.21358],[-52.82328,-24.21239],[-52.82199,-24.21129],[-52.82199,-24.20746],[-52.82088,-24.20515],[-52.8204,-24.20367],[-52.81454,-24.19799],[-52.81107,-24.19655],[-52.80878,-24.19447],[-52.80734,-24.19156],[-52.80549,-24.18684],[-52.75297,-24.18824],[-52.75185,-24.18518],[-52.74856,-24.18546],[-52.74745,-24.18534],[-52.74644,-24.18459],[-52.74635,-24.1834],[-52.74189,-24.18202],[-52.74119,-24.18144],[-52.73907,-24.18069],[-52.73718,-24.17958],[-52.73469,-24.17942],[-52.72986,-24.17947],[-52.72729,-24.17885],[-52.72657,-24.17671],[-52.7271,-24.176],[-52.72685,-24.1746],[-52.72494,-24.1703],[-52.72227,-24.1673],[-52.72191,-24.16568],[-52.72056,-24.16527],[-52.72015,-24.16356],[-52.71895,-24.16229],[-52.71795,-24.1617],[-52.7179,-24.16068],[-52.71727,-24.15967],[-52.71585,-24.15946],[-52.71538,-24.15879],[-52.71575,-24.15752],[-52.71669,-24.15646],[-52.71668,-24.15572],[-52.7175,-24.15432],[-52.71464,-24.15203],[-52.71478,-24.15126],[-52.713,-24.14926],[-52.71219,-24.14906],[-52.71071,-24.14756],[-52.70991,-24.14739],[-52.7085,-24.14528],[-52.7068,-24.14428],[-52.70567,-24.14285],[-52.70523,-24.14127],[-52.70377,-24.14099],[-52.70353,-24.14033],[-52.70192,-24.13952]]]},"properties":{"codigo":"411220705","name":"Janiópolis","population":5490,"households":2545,"areaKm2":306.8489,"density":17.9}},{"type":"Feature","geometry":{"type":"Polygon","coordinates":[[[-52.84171,-24.2531],[-52.84324,-24.25407],[-52.84395,-24.25378],[-52.84365,-24.25281],[-52.84401,-24.2521],[-52.84546,-24.2511],[-52.84604,-24.25029],[-52.84786,-24.25174],[-52.84869,-24.2528],[-52.84962,-24.25288],[-52.85103,-24.25177],[-52.85132,-24.24955],[-52.85244,-24.24853],[-52.85387,-24.24917],[-52.85372,-24.25044],[-52.85606,-24.25036],[-52.85691,-24.25061],[-52.85708,-24.25144],[-52.85808,-24.25153],[-52.85948,-24.24999],[-52.86079,-24.25074],[-52.86143,-24.25253],[-52.86141,-24.25471],[-52.86245,-24.25615],[-52.8615,-24.25634],[-52.86133,-24.25723],[-52.86201,-24.25823],[-52.86336,-24.25914],[-52.8641,-24.25885],[-52.86611,-24.2573],[-52.86828,-24.2574],[-52.86938,-24.31631],[-52.86494,-24.31753],[-52.86079,-24.3153],[-52.85992,-24.31402],[-52.8583,-24.3131],[-52.85628,-24.31321],[-52.85453,-24.31294],[-52.85203,-24.3115],[-52.85045,-24.31103],[-52.84608,-24.3092],[-52.84418,-24.3077],[-52.84233,-24.30674],[-52.84076,-24.30627],[-52.83781,-24.30179],[-52.83548,-24.29979],[-52.8314,-24.29702],[-52.82939,-24.29511],[-52.82584,-24.29268],[-52.82003,-24.29004],[-52.81709,-24.28798],[-52.81398,-24.28766],[-52.81406,-24.27701],[-52.8117,-24.2761],[-52.8133,-24.26715],[-52.81609,-24.26653],[-52.82044,-24.26592],[-52.82573,-24.26258],[-52.8277,-24.26188],[-52.83023,-24.26039],[-52.83222,-24.25958],[-52.83431,-24.25915],[-52.83714,-24.25755],[-52.84025,-24.25485],[-52.84051,-24.25414],[-52.84171,-24.2531]]]},"properties":{"codigo":"411220710","name":"Arapuan","population":380,"households":213,"areaKm2":28.8012,"density":13.2}}]}