{"type":"FeatureCollection","features":[{"type":"Feature","geometry":{"type":"Polygon","coordinates":[[[-52.70197,-24.74808],[-52.70201,-24.74616],[-52.70061,-24.74476],[-52.69767,-24.74462],[-52.69561,-24.74313],[-52.69383,-24.74284],[-52.69213,-24.74362],[-52.69114,-24.74467],[-52.68876,-24.74459],[-52.68796,-24.74683],[-52.68725,-24.7475],[-52.68521,-24.7478],[-52.68438,-24.74821],[-52.68208,-24.75016],[-52.67895,-24.75148],[-52.67801,-24.75154],[-52.67693,-24.74984],[-52.67343,-24.74843],[-52.66882,-24.74737],[-52.66648,-24.74646],[-52.66536,-24.74511],[-52.66352,-24.74452],[-52.66079,-24.7441],[-52.65851,-24.74263],[-52.65661,-24.74083],[-52.65427,-24.73987],[-52.6536,-24.73912],[-52.6524,-24.7364],[-52.65079,-24.73647],[-52.64881,-24.73723],[-52.64743,-24.73734],[-52.64637,-24.7366],[-52.64624,-24.73548],[-52.64562,-24.73466],[-52.64329,-24.73377],[-52.64227,-24.73252],[-52.64133,-24.73187],[-52.63889,-24.7318],[-52.63788,-24.73112],[-52.63787,-24.72971],[-52.63657,-24.72812],[-52.63915,-24.72798],[-52.63928,-24.72383],[-52.63894,-24.72293],[-52.63604,-24.72253],[-52.63626,-24.72187],[-52.63912,-24.72107],[-52.641,-24.71987],[-52.64242,-24.71807],[-52.64378,-24.71745],[-52.64415,-24.71617],[-52.64526,-24.71592],[-52.64583,-24.71466],[-52.64686,-24.71333],[-52.64905,-24.71104],[-52.64989,-24.7107],[-52.65166,-24.7114],[-52.65264,-24.71145],[-52.65444,-24.70916],[-52.65469,-24.70785],[-52.65454,-24.70663],[-52.65309,-24.70551],[-52.6521,-24.70522],[-52.64938,-24.70686],[-52.64762,-24.70706],[-52.64547,-24.70693],[-52.64371,-24.70749],[-52.6419,-24.70847],[-52.63969,-24.70935],[-52.63865,-24.70931],[-52.6372,-24.70837],[-52.63438,-24.70715],[-52.63352,-24.70656],[-52.63007,-24.70259],[-52.62914,-24.70111],[-52.62853,-24.69912],[-52.6266,-24.69645],[-52.62539,-24.69402],[-52.62458,-24.69185],[-52.62246,-24.68937],[-52.62121,-24.68864],[-52.61956,-24.68825],[-52.6155,-24.68619],[-52.61465,-24.68635],[-52.61284,-24.68733],[-52.61082,-24.68758],[-52.60742,-24.68726],[-52.60448,-24.68673],[-52.60119,-24.68497],[-52.60028,-24.68505],[-52.59705,-24.68755],[-52.59569,-24.68828],[-52.59027,-24.68837],[-52.58918,-24.68982],[-52.58804,-24.69251],[-52.58728,-24.69476],[-52.58724,-24.69649],[-52.58968,-24.69902],[-52.58691,-24.70096],[-52.58619,-24.70109],[-52.58201,-24.70074],[-52.58063,-24.70016],[-52.57834,-24.69995],[-52.57774,-24.6988],[-52.57631,-24.69944],[-52.5741,-24.70006],[-52.57139,-24.70194],[-52.56864,-24.70149],[-52.5676,-24.70186],[-52.56708,-24.70258],[-52.56672,-24.70446],[-52.56517,-24.70602],[-52.56519,-24.70781],[-52.56378,-24.70985],[-52.56131,-24.7109],[-52.56028,-24.7111],[-52.55846,-24.71196],[-52.55588,-24.71473],[-52.55516,-24.71495],[-52.55381,-24.71652],[-52.54855,-24.71899],[-52.54738,-24.71978],[-52.54589,-24.72135],[-52.54565,-24.72248],[-52.54722,-24.72315],[-52.54822,-24.72404],[-52.54772,-24.72608],[-52.54683,-24.72794],[-52.54683,-24.72856],[-52.5481,-24.73076],[-52.54813,-24.73285],[-52.54658,-24.73424],[-52.54504,-24.73648],[-52.54447,-24.73834],[-52.54323,-24.73865],[-52.54257,-24.73761],[-52.53969,-24.73746],[-52.53716,-24.73925],[-52.53352,-24.7409],[-52.53134,-24.73974],[-52.53009,-24.73957],[-52.5294,-24.74149],[-52.52821,-24.74286],[-52.52858,-24.74399],[-52.5309,-24.74432],[-52.53248,-24.74531],[-52.53233,-24.74619],[-52.53127,-24.7474],[-52.53064,-24.75017],[-52.5287,-24.75162],[-52.52701,-24.75186],[-52.52579,-24.75351],[-52.5258,-24.75492],[-52.52445,-24.75659],[-52.52276,-24.75696],[-52.52188,-24.75754],[-52.52189,-24.75834],[-52.52017,-24.75868],[-52.52103,-24.75968],[-52.51871,-24.76138],[-52.51678,-24.75898],[-52.51499,-24.75753],[-52.5133,-24.75665],[-52.50953,-24.75556],[-52.50646,-24.75274],[-52.50562,-24.7504],[-52.50479,-24.7493],[-52.50353,-24.74861],[-52.50411,-24.74755],[-52.50573,-24.74598],[-52.50695,-24.74569],[-52.50816,-24.74495],[-52.5095,-24.74514],[-52.51102,-24.74366],[-52.51182,-24.74212],[-52.51289,-24.74181],[-52.51298,-24.74087],[-52.51081,-24.74006],[-52.50997,-24.73514],[-52.51088,-24.73471],[-52.5108,-24.73376],[-52.51216,-24.73267],[-52.51248,-24.73173],[-52.51355,-24.73151],[-52.51403,-24.73064],[-52.51115,-24.72969],[-52.51069,-24.73024],[-52.50922,-24.73016],[-52.50771,-24.73137],[-52.50593,-24.73027],[-52.50529,-24.72893],[-52.50387,-24.73005],[-52.50349,-24.72862],[-52.50195,-24.72809],[-52.5032,-24.72635],[-52.50423,-24.72648],[-52.50617,-24.72461],[-52.50809,-24.7244],[-52.50778,-24.72274],[-52.50579,-24.72147],[-52.50495,-24.72251],[-52.50357,-24.72271],[-52.50316,-24.72041],[-52.50171,-24.72067],[-52.50051,-24.72328],[-52.4996,-24.72383],[-52.49861,-24.72341],[-52.49671,-24.7214],[-52.49514,-24.72074],[-52.49402,-24.72172],[-52.49275,-24.72198],[-52.49153,-24.721],[-52.48988,-24.72127],[-52.48854,-24.71951],[-52.48852,-24.71779],[-52.49112,-24.71702],[-52.49335,-24.71605],[-52.49457,-24.71697],[-52.4958,-24.71671],[-52.49654,-24.71519],[-52.49741,-24.71406],[-52.49752,-24.71268],[-52.49593,-24.71073],[-52.49679,-24.70923],[-52.49635,-24.70782],[-52.49521,-24.70762],[-52.49425,-24.70652],[-52.49237,-24.70506],[-52.49165,-24.70501],[-52.49027,-24.70413],[-52.48902,-24.70414],[-52.48969,-24.70255],[-52.49057,-24.70247],[-52.49066,-24.70157],[-52.48986,-24.70059],[-52.48799,-24.6993],[-52.48844,-24.6979],[-52.48978,-24.69741],[-52.4899,-24.69545],[-52.48932,-24.69472],[-52.48954,-24.69379],[-52.48901,-24.69312],[-52.48883,-24.69172],[-52.48791,-24.69173],[-52.48679,-24.6904],[-52.48743,-24.68983],[-52.48946,-24.68949],[-52.48873,-24.68872],[-52.48969,-24.68767],[-52.4894,-24.68526],[-52.48842,-24.68532],[-52.48647,-24.68609],[-52.48554,-24.68467],[-52.4838,-24.68618],[-52.48313,-24.68505],[-52.48235,-24.68497],[-52.48115,-24.68343],[-52.47991,-24.68356],[-52.47925,-24.68285],[-52.48132,-24.68149],[-52.48223,-24.68041],[-52.48399,-24.68051],[-52.48343,-24.6775],[-52.48224,-24.6762],[-52.4808,-24.67574],[-52.48032,-24.67416],[-52.48038,-24.67302],[-52.47951,-24.67148],[-52.47847,-24.67185],[-52.47703,-24.67157],[-52.47552,-24.67048],[-52.47441,-24.67049],[-52.47362,-24.66996],[-52.4738,-24.66835],[-52.47352,-24.6671],[-52.4724,-24.66612],[-52.47176,-24.66732],[-52.47027,-24.66805],[-52.46974,-24.6677],[-52.4688,-24.66553],[-52.46823,-24.66643],[-52.46732,-24.66686],[-52.46619,-24.66574],[-52.46546,-24.66443],[-52.46792,-24.66285],[-52.46842,-24.66094],[-52.46986,-24.661],[-52.47109,-24.66033],[-52.4718,-24.65937],[-52.4708,-24.65771],[-52.47085,-24.65658],[-52.473,-24.65617],[-52.47448,-24.6546],[-52.47524,-24.65215],[-52.47634,-24.65127],[-52.47777,-24.65138],[-52.47849,-24.65101],[-52.48047,-24.6478],[-52.47909,-24.6468],[-52.47945,-24.64411],[-52.48068,-24.64313],[-52.48209,-24.64157],[-52.4826,-24.64049],[-52.48328,-24.63698],[-52.4832,-24.63579],[-52.48201,-24.63485],[-52.48108,-24.63295],[-52.48109,-24.62874],[-52.48035,-24.6263],[-52.48059,-24.62463],[-52.48116,-24.62352],[-52.48252,-24.62225],[-52.48339,-24.61914],[-52.48488,-24.61784],[-52.48603,-24.61592],[-52.48654,-24.61454],[-52.48881,-24.61348],[-52.48995,-24.6112],[-52.49119,-24.61041],[-52.49228,-24.60891],[-52.49316,-24.6063],[-52.49708,-24.60131],[-52.50009,-24.59695],[-52.503,-24.59397],[-52.50669,-24.59214],[-52.50878,-24.59263],[-52.50959,-24.59429],[-52.51116,-24.59541],[-52.51503,-24.5966],[-52.51763,-24.59651],[-52.51882,-24.59715],[-52.51949,-24.59861],[-52.52061,-24.60015],[-52.52127,-24.60056],[-52.52349,-24.60066],[-52.52454,-24.60112],[-52.5267,-24.60149],[-52.52741,-24.60106],[-52.52901,-24.5989],[-52.53077,-24.59829],[-52.53213,-24.59747],[-52.53209,-24.59394],[-52.5326,-24.5931],[-52.53447,-24.59198],[-52.53537,-24.59072],[-52.53601,-24.58928],[-52.53618,-24.58773],[-52.53733,-24.58542],[-52.53947,-24.58426],[-52.5407,-24.58389],[-52.54238,-24.58244],[-52.5434,-24.58052],[-52.54448,-24.5777],[-52.54588,-24.57521],[-52.55081,-24.56809],[-52.55172,-24.56724],[-52.55456,-24.56542],[-52.55494,-24.56444],[-52.55648,-24.56221],[-52.55732,-24.56161],[-52.55965,-24.56057],[-52.56024,-24.56005],[-52.56238,-24.55926],[-52.56407,-24.55906],[-52.56602,-24.55844],[-52.56827,-24.55624],[-52.56451,-24.55228],[-52.56369,-24.54916],[-52.56291,-24.53863],[-52.56338,-24.53487],[-52.56311,-24.52857],[-52.56326,-24.52556],[-52.56036,-24.51185],[-52.55915,-24.50918],[-52.55705,-24.50786],[-52.55687,-24.50678],[-52.5574,-24.50591],[-52.55579,-24.505],[-52.55629,-24.50459],[-52.55789,-24.50503],[-52.55844,-24.50461],[-52.55818,-24.50356],[-52.55682,-24.50302],[-52.5563,-24.50128],[-52.55843,-24.49965],[-52.55922,-24.49881],[-52.56074,-24.49963],[-52.56187,-24.49819],[-52.5635,-24.50019],[-52.56357,-24.50139],[-52.56221,-24.50113],[-52.56143,-24.50279],[-52.56383,-24.50235],[-52.5661,-24.50347],[-52.56637,-24.50508],[-52.56898,-24.50519],[-52.57028,-24.50467],[-52.57168,-24.50475],[-52.57343,-24.50418],[-52.57369,-24.50523],[-52.57456,-24.50628],[-52.57282,-24.50749],[-52.5727,-24.51002],[-52.57411,-24.51055],[-52.57493,-24.51155],[-52.57563,-24.51155],[-52.57765,-24.5129],[-52.5786,-24.51244],[-52.57854,-24.51133],[-52.58014,-24.51095],[-52.58053,-24.51053],[-52.58248,-24.50982],[-52.58325,-24.51105],[-52.58297,-24.51285],[-52.58534,-24.51416],[-52.5875,-24.51432],[-52.58818,-24.51362],[-52.58921,-24.5109],[-52.5888,-24.50994],[-52.58999,-24.50924],[-52.59105,-24.50973],[-52.59194,-24.50876],[-52.5925,-24.50953],[-52.59219,-24.5122],[-52.5924,-24.51367],[-52.59371,-24.51393],[-52.5952,-24.51226],[-52.59467,-24.51029],[-52.59625,-24.50848],[-52.59639,-24.50779],[-52.59548,-24.50688],[-52.59506,-24.50524],[-52.59639,-24.50362],[-52.59899,-24.50322],[-52.59978,-24.50183],[-52.59791,-24.50061],[-52.59845,-24.49992],[-52.60116,-24.49994],[-52.6018,-24.49883],[-52.60254,-24.4985],[-52.60303,-24.4973],[-52.60382,-24.49646],[-52.60521,-24.49622],[-52.60598,-24.49695],[-52.60436,-24.49917],[-52.60356,-24.49987],[-52.60409,-24.50184],[-52.60351,-24.50299],[-52.60401,-24.50344],[-52.60666,-24.50323],[-52.60675,-24.50571],[-52.60799,-24.50482],[-52.60832,-24.50326],[-52.6108,-24.5008],[-52.6117,-24.5007],[-52.61256,-24.50119],[-52.61421,-24.50072],[-52.61501,-24.50131],[-52.61394,-24.5037],[-52.61367,-24.50568],[-52.61243,-24.50707],[-52.61345,-24.50853],[-52.61435,-24.50806],[-52.61726,-24.50417],[-52.61624,-24.50299],[-52.61638,-24.50212],[-52.61747,-24.50096],[-52.61764,-24.49907],[-52.61976,-24.4963],[-52.61845,-24.49535],[-52.62005,-24.49491],[-52.62116,-24.49541],[-52.62243,-24.49663],[-52.62318,-24.49695],[-52.62403,-24.49648],[-52.62538,-24.49633],[-52.62547,-24.49555],[-52.62419,-24.49349],[-52.62171,-24.49199],[-52.62173,-24.49099],[-52.62345,-24.49056],[-52.62405,-24.49],[-52.62551,-24.49049],[-52.62756,-24.49066],[-52.62953,-24.49178],[-52.62968,-24.49118],[-52.629,-24.48917],[-52.62965,-24.48866],[-52.6308,-24.48883],[-52.63505,-24.48768],[-52.63512,-24.48566],[-52.63378,-24.48297],[-52.63242,-24.48261],[-52.63173,-24.48336],[-52.62894,-24.4843],[-52.62782,-24.48363],[-52.62806,-24.48271],[-52.62939,-24.4804],[-52.63057,-24.47901],[-52.63202,-24.47849],[-52.63381,-24.47861],[-52.63554,-24.47969],[-52.63945,-24.47983],[-52.63973,-24.48134],[-52.64182,-24.48063],[-52.64266,-24.47952],[-52.64362,-24.47937],[-52.64588,-24.48068],[-52.64449,-24.48165],[-52.64366,-24.48327],[-52.64374,-24.48548],[-52.6431,-24.48649],[-52.64146,-24.48752],[-52.64108,-24.48876],[-52.63993,-24.4891],[-52.63866,-24.48824],[-52.63732,-24.4889],[-52.63743,-24.48954],[-52.63865,-24.49086],[-52.64046,-24.49157],[-52.64303,-24.49219],[-52.64343,-24.49255],[-52.64375,-24.49411],[-52.64442,-24.49502],[-52.64388,-24.49585],[-52.64202,-24.49592],[-52.63858,-24.49747],[-52.63683,-24.49767],[-52.63689,-24.49822],[-52.6394,-24.49879],[-52.64107,-24.49942],[-52.64277,-24.49972],[-52.64479,-24.5008],[-52.64542,-24.49891],[-52.64541,-24.49776],[-52.64595,-24.49684],[-52.64736,-24.49728],[-52.64896,-24.49708],[-52.65119,-24.49912],[-52.65189,-24.49916],[-52.65317,-24.49722],[-52.65392,-24.49698],[-52.65695,-24.49866],[-52.65498,-24.50101],[-52.65482,-24.50292],[-52.6481,-24.50666],[-52.64462,-24.50583],[-52.64271,-24.50585],[-52.63682,-24.50702],[-52.63321,-24.50905],[-52.62855,-24.51101],[-52.62631,-24.51262],[-52.6253,-24.51477],[-52.62306,-24.51591],[-52.61998,-24.5196],[-52.61655,-24.52265],[-52.61207,-24.52468],[-52.60959,-24.52747],[-52.60154,-24.54514],[-52.60048,-24.54875],[-52.59754,-24.55334],[-52.59716,-24.55794],[-52.59622,-24.56001],[-52.59588,-24.56181],[-52.59633,-24.56335],[-52.59573,-24.564],[-52.59601,-24.56542],[-52.59598,-24.56959],[-52.59547,-24.57047],[-52.59601,-24.57198],[-52.5956,-24.57381],[-52.59605,-24.57563],[-52.59781,-24.57788],[-52.59873,-24.5812],[-52.60084,-24.58321],[-52.60154,-24.58415],[-52.60334,-24.58515],[-52.60656,-24.5897],[-52.60775,-24.59177],[-52.61011,-24.59978],[-52.61067,-24.60366],[-52.61517,-24.60499],[-52.61705,-24.60316],[-52.61813,-24.60164],[-52.61992,-24.6043],[-52.62113,-24.60544],[-52.62036,-24.60825],[-52.61803,-24.61037],[-52.61905,-24.61174],[-52.6207,-24.6101],[-52.62222,-24.60976],[-52.62303,-24.60858],[-52.62525,-24.60958],[-52.62594,-24.61074],[-52.62753,-24.61225],[-52.6307,-24.61436],[-52.63197,-24.61327],[-52.63328,-24.61286],[-52.63436,-24.61409],[-52.63462,-24.61623],[-52.63523,-24.61714],[-52.63672,-24.61792],[-52.63928,-24.61673],[-52.64081,-24.61832],[-52.64156,-24.62097],[-52.64217,-24.6219],[-52.64203,-24.62342],[-52.64389,-24.6254],[-52.64528,-24.6272],[-52.64598,-24.62947],[-52.64725,-24.63102],[-52.64895,-24.63182],[-52.64939,-24.63248],[-52.65017,-24.63364],[-52.65106,-24.63669],[-52.65025,-24.63769],[-52.65194,-24.63874],[-52.65342,-24.64037],[-52.65436,-24.63878],[-52.65594,-24.63715],[-52.65701,-24.63459],[-52.65961,-24.63419],[-52.66128,-24.63501],[-52.66194,-24.63652],[-52.66354,-24.63724],[-52.66467,-24.63856],[-52.6643,-24.64015],[-52.66336,-24.64145],[-52.66219,-24.64102],[-52.6603,-24.64406],[-52.66105,-24.64484],[-52.66058,-24.6464],[-52.6614,-24.64721],[-52.66055,-24.64829],[-52.65881,-24.64843],[-52.65856,-24.64953],[-52.65611,-24.65066],[-52.65759,-24.65203],[-52.66053,-24.65148],[-52.66328,-24.65212],[-52.6633,-24.65467],[-52.66248,-24.65598],[-52.662,-24.65786],[-52.66369,-24.65678],[-52.66542,-24.65722],[-52.66845,-24.65508],[-52.66858,-24.65348],[-52.67034,-24.65364],[-52.673,-24.65469],[-52.67547,-24.65471],[-52.67712,-24.65435],[-52.67772,-24.65678],[-52.67673,-24.65924],[-52.67914,-24.66004],[-52.68034,-24.65899],[-52.68231,-24.65681],[-52.6828,-24.65531],[-52.68386,-24.65445],[-52.68481,-24.65513],[-52.68558,-24.65899],[-52.68489,-24.66073],[-52.68361,-24.66213],[-52.68276,-24.6648],[-52.67964,-24.66673],[-52.67756,-24.66855],[-52.67603,-24.66895],[-52.67414,-24.66691],[-52.67295,-24.66663],[-52.66993,-24.66727],[-52.6687,-24.66945],[-52.66739,-24.67057],[-52.66745,-24.67254],[-52.66988,-24.67277],[-52.66987,-24.67482],[-52.67012,-24.67723],[-52.67323,-24.67746],[-52.67567,-24.67528],[-52.67695,-24.67501],[-52.67853,-24.67542],[-52.67978,-24.67328],[-52.68147,-24.67223],[-52.68312,-24.67164],[-52.68465,-24.67067],[-52.68653,-24.67066],[-52.68864,-24.6715],[-52.6885,-24.67778],[-52.68656,-24.68085],[-52.68492,-24.68226],[-52.68506,-24.68368],[-52.68712,-24.68336],[-52.68903,-24.68162],[-52.6917,-24.68049],[-52.69328,-24.68095],[-52.69336,-24.68295],[-52.69187,-24.68427],[-52.69031,-24.68604],[-52.68953,-24.68763],[-52.68886,-24.69005],[-52.68987,-24.69232],[-52.69045,-24.6955],[-52.68995,-24.69759],[-52.69356,-24.69937],[-52.69486,-24.70251],[-52.69201,-24.70329],[-52.69006,-24.70615],[-52.69009,-24.70833],[-52.69128,-24.71106],[-52.68775,-24.71174],[-52.68128,-24.70824],[-52.68028,-24.71206],[-52.68014,-24.71397],[-52.68161,-24.71511],[-52.68306,-24.71775],[-52.68325,-24.71894],[-52.68489,-24.71898],[-52.6884,-24.71961],[-52.68928,-24.72219],[-52.68995,-24.72303],[-52.68878,-24.72518],[-52.68844,-24.7273],[-52.686,-24.73101],[-52.68879,-24.7316],[-52.69119,-24.7319],[-52.69028,-24.73392],[-52.6923,-24.73438],[-52.69601,-24.73211],[-52.69959,-24.73152],[-52.70295,-24.73147],[-52.70473,-24.7301],[-52.70583,-24.72806],[-52.70775,-24.72929],[-52.71198,-24.73411],[-52.71219,-24.73634],[-52.70789,-24.73875],[-52.70581,-24.74023],[-52.70461,-24.74266],[-52.70392,-24.74753],[-52.70197,-24.74808]]]},"properties":{"codigo":"411680205","name":"Nova Cantu","population":5190,"households":2266,"areaKm2":312.7723,"density":16.6}},{"type":"Feature","geometry":{"type":"Polygon","coordinates":[[[-52.54094,-24.76977],[-52.54052,-24.76749],[-52.54103,-24.76535],[-52.54406,-24.75995],[-52.54438,-24.75905],[-52.54589,-24.75694],[-52.54642,-24.75461],[-52.54588,-24.75223],[-52.54476,-24.75053],[-52.54349,-24.74937],[-52.54143,-24.7492],[-52.53816,-24.75122],[-52.53673,-24.75416],[-52.53675,-24.75526],[-52.53754,-24.75794],[-52.53859,-24.76017],[-52.5386,-24.761],[-52.53773,-24.76303],[-52.53616,-24.76395],[-52.53332,-24.76368],[-52.52963,-24.76203],[-52.52765,-24.76134],[-52.52605,-24.7615],[-52.52442,-24.76714],[-52.52381,-24.76775],[-52.52164,-24.76781],[-52.52087,-24.76706],[-52.5193,-24.76211],[-52.51871,-24.76138],[-52.52103,-24.75968],[-52.52017,-24.75868],[-52.52189,-24.75834],[-52.52188,-24.75754],[-52.52276,-24.75696],[-52.52445,-24.75659],[-52.5258,-24.75492],[-52.52579,-24.75351],[-52.52701,-24.75186],[-52.5287,-24.75162],[-52.53064,-24.75017],[-52.53127,-24.7474],[-52.53233,-24.74619],[-52.53248,-24.74531],[-52.5309,-24.74432],[-52.52858,-24.74399],[-52.52821,-24.74286],[-52.5294,-24.74149],[-52.53009,-24.73957],[-52.53134,-24.73974],[-52.53352,-24.7409],[-52.53716,-24.73925],[-52.53969,-24.73746],[-52.54257,-24.73761],[-52.54323,-24.73865],[-52.54447,-24.73834],[-52.54504,-24.73648],[-52.54658,-24.73424],[-52.54813,-24.73285],[-52.5481,-24.73076],[-52.54683,-24.72856],[-52.54683,-24.72794],[-52.54772,-24.72608],[-52.54822,-24.72404],[-52.54722,-24.72315],[-52.54565,-24.72248],[-52.54589,-24.72135],[-52.54738,-24.71978],[-52.54855,-24.71899],[-52.55381,-24.71652],[-52.55516,-24.71495],[-52.55588,-24.71473],[-52.55846,-24.71196],[-52.56028,-24.7111],[-52.56131,-24.7109],[-52.56378,-24.70985],[-52.56519,-24.70781],[-52.56517,-24.70602],[-52.56672,-24.70446],[-52.56708,-24.70258],[-52.5676,-24.70186],[-52.56864,-24.70149],[-52.57139,-24.70194],[-52.5741,-24.70006],[-52.57631,-24.69944],[-52.57774,-24.6988],[-52.57834,-24.69995],[-52.58063,-24.70016],[-52.58201,-24.70074],[-52.58619,-24.70109],[-52.58691,-24.70096],[-52.58968,-24.69902],[-52.58724,-24.69649],[-52.58728,-24.69476],[-52.58804,-24.69251],[-52.58918,-24.68982],[-52.59027,-24.68837],[-52.59569,-24.68828],[-52.59705,-24.68755],[-52.60028,-24.68505],[-52.60119,-24.68497],[-52.60448,-24.68673],[-52.60742,-24.68726],[-52.61082,-24.68758],[-52.61284,-24.68733],[-52.61465,-24.68635],[-52.6155,-24.68619],[-52.61956,-24.68825],[-52.62121,-24.68864],[-52.62246,-24.68937],[-52.62458,-24.69185],[-52.62539,-24.69402],[-52.6266,-24.69645],[-52.62853,-24.69912],[-52.62914,-24.70111],[-52.63007,-24.70259],[-52.63352,-24.70656],[-52.63438,-24.70715],[-52.6372,-24.70837],[-52.63865,-24.70931],[-52.63969,-24.70935],[-52.6419,-24.70847],[-52.64371,-24.70749],[-52.64547,-24.70693],[-52.64762,-24.70706],[-52.64938,-24.70686],[-52.6521,-24.70522],[-52.65309,-24.70551],[-52.65454,-24.70663],[-52.65469,-24.70785],[-52.65444,-24.70916],[-52.65264,-24.71145],[-52.65166,-24.7114],[-52.64989,-24.7107],[-52.64905,-24.71104],[-52.64686,-24.71333],[-52.64583,-24.71466],[-52.64526,-24.71592],[-52.64415,-24.71617],[-52.64378,-24.71745],[-52.64242,-24.71807],[-52.641,-24.71987],[-52.63912,-24.72107],[-52.63626,-24.72187],[-52.63604,-24.72253],[-52.63894,-24.72293],[-52.63928,-24.72383],[-52.63915,-24.72798],[-52.63657,-24.72812],[-52.63787,-24.72971],[-52.63788,-24.73112],[-52.63889,-24.7318],[-52.64133,-24.73187],[-52.64227,-24.73252],[-52.64329,-24.73377],[-52.64562,-24.73466],[-52.64624,-24.73548],[-52.64637,-24.7366],[-52.64743,-24.73734],[-52.64881,-24.73723],[-52.65079,-24.73647],[-52.6524,-24.7364],[-52.6536,-24.73912],[-52.65427,-24.73987],[-52.65661,-24.74083],[-52.65851,-24.74263],[-52.66079,-24.7441],[-52.66352,-24.74452],[-52.66536,-24.74511],[-52.66648,-24.74646],[-52.66882,-24.74737],[-52.67343,-24.74843],[-52.67693,-24.74984],[-52.67801,-24.75154],[-52.67895,-24.75148],[-52.68208,-24.75016],[-52.68438,-24.74821],[-52.68521,-24.7478],[-52.68725,-24.7475],[-52.68796,-24.74683],[-52.68876,-24.74459],[-52.69114,-24.74467],[-52.69213,-24.74362],[-52.69383,-24.74284],[-52.69561,-24.74313],[-52.69767,-24.74462],[-52.70061,-24.74476],[-52.70201,-24.74616],[-52.70197,-24.74808],[-52.69807,-24.74917],[-52.69246,-24.75258],[-52.69167,-24.75389],[-52.69284,-24.75551],[-52.69962,-24.75744],[-52.70065,-24.7587],[-52.70138,-24.76249],[-52.70216,-24.76507],[-52.70305,-24.76599],[-52.70635,-24.7674],[-52.70697,-24.7682],[-52.70674,-24.77104],[-52.70626,-24.77308],[-52.70537,-24.77504],[-52.70134,-24.77919],[-52.69958,-24.77881],[-52.6982,-24.77725],[-52.69699,-24.77529],[-52.69649,-24.77276],[-52.6963,-24.76878],[-52.69569,-24.76416],[-52.6948,-24.76068],[-52.69401,-24.75942],[-52.6907,-24.75748],[-52.68786,-24.75736],[-52.68651,-24.7575],[-52.68391,-24.75978],[-52.68367,-24.76204],[-52.68471,-24.76428],[-52.6846,-24.76614],[-52.68363,-24.76661],[-52.6816,-24.76626],[-52.68075,-24.7664],[-52.67709,-24.76795],[-52.67247,-24.77112],[-52.67106,-24.77231],[-52.66872,-24.77369],[-52.66655,-24.77378],[-52.66461,-24.77281],[-52.66318,-24.77156],[-52.66172,-24.77093],[-52.65936,-24.76886],[-52.65823,-24.76822],[-52.65719,-24.76836],[-52.65215,-24.77073],[-52.651,-24.77083],[-52.64875,-24.77169],[-52.64666,-24.77202],[-52.63689,-24.77448],[-52.63334,-24.77677],[-52.63087,-24.77911],[-52.62864,-24.7792],[-52.62785,-24.77871],[-52.62494,-24.77593],[-52.62495,-24.77411],[-52.62575,-24.7729],[-52.62942,-24.76977],[-52.63168,-24.76669],[-52.63323,-24.76352],[-52.63368,-24.76148],[-52.63346,-24.76053],[-52.63244,-24.7598],[-52.63116,-24.7604],[-52.62917,-24.76277],[-52.62733,-24.76421],[-52.62433,-24.76529],[-52.6187,-24.76639],[-52.6163,-24.76596],[-52.61367,-24.76631],[-52.60812,-24.7663],[-52.60538,-24.76596],[-52.60346,-24.76635],[-52.60286,-24.76675],[-52.60274,-24.76796],[-52.60318,-24.76848],[-52.60569,-24.76941],[-52.60926,-24.77036],[-52.61095,-24.77053],[-52.61324,-24.77041],[-52.6149,-24.76993],[-52.61689,-24.77003],[-52.61865,-24.77107],[-52.61928,-24.77214],[-52.61923,-24.7738],[-52.61827,-24.77511],[-52.61696,-24.77513],[-52.61374,-24.77461],[-52.61238,-24.77385],[-52.60841,-24.77324],[-52.60683,-24.7736],[-52.60634,-24.77469],[-52.6068,-24.77925],[-52.60672,-24.7808],[-52.60528,-24.78195],[-52.6022,-24.78221],[-52.60016,-24.78284],[-52.59813,-24.78268],[-52.5964,-24.78288],[-52.5925,-24.78428],[-52.59091,-24.78396],[-52.58839,-24.78174],[-52.58751,-24.78005],[-52.5869,-24.77712],[-52.58714,-24.77477],[-52.588,-24.77303],[-52.58889,-24.77184],[-52.59067,-24.77074],[-52.59312,-24.76964],[-52.59396,-24.7688],[-52.59425,-24.76774],[-52.5938,-24.7667],[-52.59075,-24.76624],[-52.58776,-24.76519],[-52.58621,-24.76316],[-52.58455,-24.76247],[-52.58255,-24.76276],[-52.57937,-24.76447],[-52.57738,-24.76477],[-52.5765,-24.76453],[-52.57316,-24.76216],[-52.57173,-24.76152],[-52.56902,-24.76094],[-52.56722,-24.76102],[-52.56245,-24.76227],[-52.56127,-24.76287],[-52.55984,-24.76452],[-52.55808,-24.7672],[-52.55467,-24.77013],[-52.55217,-24.77053],[-52.54714,-24.7704],[-52.54346,-24.77115],[-52.54272,-24.77103],[-52.54094,-24.76977]]]},"properties":{"codigo":"411680210","name":"Geremia Lunardelli","population":702,"households":315,"areaKm2":97.6716,"density":7.2}},{"type":"Feature","geometry":{"type":"Polygon","coordinates":[[[-52.45306,-24.74633],[-52.4504,-24.7451],[-52.44906,-24.74347],[-52.44799,-24.74254],[-52.44603,-24.74196],[-52.44434,-24.74252],[-52.44292,-24.74398],[-52.44231,-24.74543],[-52.44152,-24.74624],[-52.43995,-24.74723],[-52.43807,-24.74766],[-52.43704,-24.74747],[-52.43578,-24.74658],[-52.43503,-24.74464],[-52.43551,-24.74328],[-52.43706,-24.74169],[-52.4388,-24.73956],[-52.43863,-24.73759],[-52.43728,-24.73641],[-52.43135,-24.73628],[-52.42766,-24.73736],[-52.42667,-24.7369],[-52.42629,-24.73573],[-52.42745,-24.73398],[-52.42887,-24.73247],[-52.42979,-24.73207],[-52.43506,-24.73266],[-52.43702,-24.7319],[-52.43896,-24.73085],[-52.43898,-24.73001],[-52.4328,-24.72616],[-52.43087,-24.726],[-52.42948,-24.72651],[-52.42557,-24.72722],[-52.4241,-24.7272],[-52.42124,-24.72617],[-52.42076,-24.72554],[-52.4204,-24.72327],[-52.42084,-24.72242],[-52.42227,-24.72098],[-52.42344,-24.72057],[-52.42465,-24.72093],[-52.42683,-24.72245],[-52.42865,-24.72268],[-52.43052,-24.72239],[-52.43614,-24.72053],[-52.43667,-24.72008],[-52.43796,-24.71735],[-52.43859,-24.7151],[-52.43837,-24.71307],[-52.43309,-24.70553],[-52.43135,-24.70367],[-52.43057,-24.70331],[-52.42869,-24.70319],[-52.42561,-24.7035],[-52.4247,-24.70419],[-52.42617,-24.70921],[-52.42614,-24.7102],[-52.42518,-24.71271],[-52.42414,-24.7117],[-52.42371,-24.71025],[-52.42018,-24.70508],[-52.41987,-24.70396],[-52.4207,-24.70103],[-52.42464,-24.69879],[-52.42488,-24.69767],[-52.4245,-24.69651],[-52.42339,-24.69675],[-52.42213,-24.6975],[-52.42024,-24.69674],[-52.41954,-24.69577],[-52.41953,-24.6948],[-52.42075,-24.69441],[-52.42212,-24.69268],[-52.42325,-24.69233],[-52.42222,-24.69051],[-52.42172,-24.69018],[-52.41926,-24.68971],[-52.41877,-24.68938],[-52.41851,-24.68796],[-52.41971,-24.68582],[-52.42036,-24.68533],[-52.42138,-24.68565],[-52.42132,-24.68693],[-52.42186,-24.68756],[-52.42401,-24.68608],[-52.42516,-24.68629],[-52.42611,-24.68778],[-52.42849,-24.68836],[-52.42858,-24.6851],[-52.42775,-24.68384],[-52.42686,-24.68108],[-52.42611,-24.68037],[-52.42468,-24.67702],[-52.42475,-24.67631],[-52.42216,-24.67476],[-52.42155,-24.67462],[-52.41996,-24.67508],[-52.41859,-24.67764],[-52.41968,-24.67942],[-52.41952,-24.67995],[-52.41814,-24.68063],[-52.41552,-24.6804],[-52.41464,-24.67876],[-52.41492,-24.67812],[-52.4149,-24.67621],[-52.41648,-24.6756],[-52.41659,-24.67388],[-52.41621,-24.67329],[-52.41752,-24.67271],[-52.41939,-24.67136],[-52.42012,-24.67186],[-52.42046,-24.66936],[-52.42193,-24.66886],[-52.42351,-24.66738],[-52.42469,-24.66714],[-52.42398,-24.66577],[-52.42287,-24.66544],[-52.42184,-24.6644],[-52.42183,-24.66343],[-52.42293,-24.66293],[-52.42255,-24.66197],[-52.42333,-24.6602],[-52.42188,-24.6591],[-52.41953,-24.65891],[-52.4185,-24.65854],[-52.4186,-24.65751],[-52.41966,-24.65764],[-52.41998,-24.65696],[-52.42112,-24.65636],[-52.42119,-24.65551],[-52.41997,-24.65406],[-52.4198,-24.65334],[-52.42074,-24.65203],[-52.4222,-24.65129],[-52.42397,-24.6511],[-52.42414,-24.65052],[-52.42331,-24.64953],[-52.4232,-24.64862],[-52.42401,-24.64758],[-52.4244,-24.64596],[-52.42436,-24.64462],[-52.42476,-24.6431],[-52.42365,-24.64208],[-52.47671,-24.57525],[-52.50042,-24.56949],[-52.51753,-24.54844],[-52.50871,-24.53103],[-52.50847,-24.52461],[-52.50861,-24.52297],[-52.51153,-24.52304],[-52.51251,-24.52188],[-52.5124,-24.52087],[-52.51366,-24.52082],[-52.51541,-24.52116],[-52.51714,-24.52271],[-52.5172,-24.52372],[-52.51551,-24.52511],[-52.51562,-24.5258],[-52.51653,-24.5263],[-52.51933,-24.52576],[-52.52193,-24.52477],[-52.52218,-24.52514],[-52.52226,-24.52771],[-52.52268,-24.5289],[-52.52443,-24.5287],[-52.52453,-24.52805],[-52.52638,-24.52762],[-52.52729,-24.52821],[-52.53029,-24.52758],[-52.5333,-24.52401],[-52.5358,-24.52348],[-52.53696,-24.52398],[-52.53816,-24.52337],[-52.53729,-24.52209],[-52.53944,-24.52138],[-52.53848,-24.52065],[-52.53527,-24.52037],[-52.53585,-24.51898],[-52.53598,-24.51719],[-52.53737,-24.51575],[-52.53564,-24.51425],[-52.53497,-24.51238],[-52.53511,-24.51196],[-52.53832,-24.51143],[-52.53976,-24.51068],[-52.53965,-24.50953],[-52.54065,-24.50966],[-52.54101,-24.51062],[-52.54251,-24.51005],[-52.54403,-24.51123],[-52.54699,-24.51143],[-52.54865,-24.51206],[-52.54935,-24.51159],[-52.54959,-24.51058],[-52.55059,-24.51025],[-52.55211,-24.51124],[-52.55296,-24.51114],[-52.55439,-24.51328],[-52.55461,-24.51503],[-52.55381,-24.51568],[-52.5542,-24.51801],[-52.5558,-24.51781],[-52.55816,-24.51816],[-52.55876,-24.51797],[-52.55909,-24.51631],[-52.55848,-24.51568],[-52.5586,-24.51342],[-52.55749,-24.51266],[-52.55691,-24.51427],[-52.55549,-24.51282],[-52.55687,-24.51161],[-52.5575,-24.50967],[-52.55705,-24.50786],[-52.55915,-24.50918],[-52.56036,-24.51185],[-52.56326,-24.52556],[-52.56311,-24.52857],[-52.56338,-24.53487],[-52.56291,-24.53863],[-52.56369,-24.54916],[-52.56451,-24.55228],[-52.56827,-24.55624],[-52.56602,-24.55844],[-52.56407,-24.55906],[-52.56238,-24.55926],[-52.56024,-24.56005],[-52.55965,-24.56057],[-52.55732,-24.56161],[-52.55648,-24.56221],[-52.55494,-24.56444],[-52.55456,-24.56542],[-52.55172,-24.56724],[-52.55081,-24.56809],[-52.54588,-24.57521],[-52.54448,-24.5777],[-52.5434,-24.58052],[-52.54238,-24.58244],[-52.5407,-24.58389],[-52.53947,-24.58426],[-52.53733,-24.58542],[-52.53618,-24.58773],[-52.53601,-24.58928],[-52.53537,-24.59072],[-52.53447,-24.59198],[-52.5326,-24.5931],[-52.53209,-24.59394],[-52.53213,-24.59747],[-52.53077,-24.59829],[-52.52901,-24.5989],[-52.52741,-24.60106],[-52.5267,-24.60149],[-52.52454,-24.60112],[-52.52349,-24.60066],[-52.52127,-24.60056],[-52.52061,-24.60015],[-52.51949,-24.59861],[-52.51882,-24.59715],[-52.51763,-24.59651],[-52.51503,-24.5966],[-52.51116,-24.59541],[-52.50959,-24.59429],[-52.50878,-24.59263],[-52.50669,-24.59214],[-52.503,-24.59397],[-52.50009,-24.59695],[-52.49708,-24.60131],[-52.49316,-24.6063],[-52.49228,-24.60891],[-52.49119,-24.61041],[-52.48995,-24.6112],[-52.48881,-24.61348],[-52.48654,-24.61454],[-52.48603,-24.61592],[-52.48488,-24.61784],[-52.48339,-24.61914],[-52.48252,-24.62225],[-52.48116,-24.62352],[-52.48059,-24.62463],[-52.48035,-24.6263],[-52.48109,-24.62874],[-52.48108,-24.63295],[-52.48201,-24.63485],[-52.4832,-24.63579],[-52.48328,-24.63698],[-52.4826,-24.64049],[-52.48209,-24.64157],[-52.48068,-24.64313],[-52.47945,-24.64411],[-52.47909,-24.6468],[-52.48047,-24.6478],[-52.47849,-24.65101],[-52.47777,-24.65138],[-52.47634,-24.65127],[-52.47524,-24.65215],[-52.47448,-24.6546],[-52.473,-24.65617],[-52.47085,-24.65658],[-52.4708,-24.65771],[-52.4718,-24.65937],[-52.47109,-24.66033],[-52.46986,-24.661],[-52.46842,-24.66094],[-52.46792,-24.66285],[-52.46546,-24.66443],[-52.46619,-24.66574],[-52.46732,-24.66686],[-52.46823,-24.66643],[-52.4688,-24.66553],[-52.46974,-24.6677],[-52.47027,-24.66805],[-52.47176,-24.66732],[-52.4724,-24.66612],[-52.47352,-24.6671],[-52.4738,-24.66835],[-52.47362,-24.66996],[-52.47441,-24.67049],[-52.47552,-24.67048],[-52.47703,-24.67157],[-52.47847,-24.67185],[-52.47951,-24.67148],[-52.48038,-24.67302],[-52.48032,-24.67416],[-52.4808,-24.67574],[-52.48224,-24.6762],[-52.48343,-24.6775],[-52.48399,-24.68051],[-52.48223,-24.68041],[-52.48132,-24.68149],[-52.47925,-24.68285],[-52.47991,-24.68356],[-52.48115,-24.68343],[-52.48235,-24.68497],[-52.48313,-24.68505],[-52.4838,-24.68618],[-52.48554,-24.68467],[-52.48647,-24.68609],[-52.48842,-24.68532],[-52.4894,-24.68526],[-52.48969,-24.68767],[-52.48873,-24.68872],[-52.48946,-24.68949],[-52.48743,-24.68983],[-52.48679,-24.6904],[-52.48791,-24.69173],[-52.48883,-24.69172],[-52.48901,-24.69312],[-52.48954,-24.69379],[-52.48932,-24.69472],[-52.4899,-24.69545],[-52.48978,-24.69741],[-52.48844,-24.6979],[-52.48799,-24.6993],[-52.48986,-24.70059],[-52.49066,-24.70157],[-52.49057,-24.70247],[-52.48969,-24.70255],[-52.48902,-24.70414],[-52.49027,-24.70413],[-52.49165,-24.70501],[-52.49237,-24.70506],[-52.49425,-24.70652],[-52.49521,-24.70762],[-52.49635,-24.70782],[-52.49679,-24.70923],[-52.49593,-24.71073],[-52.49752,-24.71268],[-52.49741,-24.71406],[-52.49654,-24.71519],[-52.4958,-24.71671],[-52.49457,-24.71697],[-52.49335,-24.71605],[-52.49112,-24.71702],[-52.48852,-24.71779],[-52.48854,-24.71951],[-52.48988,-24.72127],[-52.49153,-24.721],[-52.49275,-24.72198],[-52.49402,-24.72172],[-52.49514,-24.72074],[-52.49671,-24.7214],[-52.49861,-24.72341],[-52.4996,-24.72383],[-52.50051,-24.72328],[-52.50171,-24.72067],[-52.50316,-24.72041],[-52.50357,-24.72271],[-52.50495,-24.72251],[-52.50579,-24.72147],[-52.50778,-24.72274],[-52.50809,-24.7244],[-52.50617,-24.72461],[-52.50423,-24.72648],[-52.5032,-24.72635],[-52.50195,-24.72809],[-52.50349,-24.72862],[-52.50387,-24.73005],[-52.50529,-24.72893],[-52.50593,-24.73027],[-52.50771,-24.73137],[-52.50922,-24.73016],[-52.51069,-24.73024],[-52.51115,-24.72969],[-52.51403,-24.73064],[-52.51355,-24.73151],[-52.51248,-24.73173],[-52.51216,-24.73267],[-52.5108,-24.73376],[-52.51088,-24.73471],[-52.50997,-24.73514],[-52.51081,-24.74006],[-52.51298,-24.74087],[-52.51289,-24.74181],[-52.51182,-24.74212],[-52.51102,-24.74366],[-52.5095,-24.74514],[-52.50816,-24.74495],[-52.50695,-24.74569],[-52.50573,-24.74598],[-52.50411,-24.74755],[-52.50353,-24.74861],[-52.50158,-24.74754],[-52.50049,-24.74797],[-52.49641,-24.75028],[-52.49446,-24.75216],[-52.49333,-24.75211],[-52.49232,-24.75148],[-52.49659,-24.74658],[-52.49767,-24.74455],[-52.49718,-24.74286],[-52.49622,-24.74216],[-52.49238,-24.74059],[-52.48961,-24.73983],[-52.48812,-24.73853],[-52.48573,-24.73563],[-52.48419,-24.7343],[-52.48321,-24.73412],[-52.48071,-24.7359],[-52.4803,-24.73647],[-52.48064,-24.73752],[-52.4823,-24.739],[-52.48284,-24.73978],[-52.48261,-24.74102],[-52.47932,-24.74166],[-52.47784,-24.74141],[-52.47666,-24.74191],[-52.4756,-24.74439],[-52.47569,-24.74585],[-52.47386,-24.75056],[-52.47108,-24.75163],[-52.46971,-24.75084],[-52.46902,-24.74958],[-52.46893,-24.7461],[-52.46817,-24.74438],[-52.46749,-24.74401],[-52.46454,-24.74423],[-52.4634,-24.74473],[-52.4614,-24.74613],[-52.4609,-24.74689],[-52.45902,-24.74769],[-52.45779,-24.74774],[-52.45306,-24.74633]]]},"properties":{"codigo":"411680215","name":"Santo Rei","population":898,"households":430,"areaKm2":145.0437,"density":6.2}}]}