{"type":"FeatureCollection","features":[{"type":"Feature","geometry":{"type":"Polygon","coordinates":[[[-52.76179,-25.45566],[-52.76148,-25.45747],[-52.75932,-25.45773],[-52.75857,-25.4567],[-52.75559,-25.457],[-52.75448,-25.45668],[-52.75322,-25.45586],[-52.7505,-25.45569],[-52.74819,-25.45669],[-52.74561,-25.45621],[-52.74193,-25.45615],[-52.74091,-25.4565],[-52.73971,-25.45752],[-52.73752,-25.4617],[-52.73654,-25.46248],[-52.73475,-25.46307],[-52.73386,-25.46288],[-52.73163,-25.46331],[-52.72846,-25.46562],[-52.7234,-25.46669],[-52.72198,-25.46741],[-52.72096,-25.47114],[-52.7201,-25.47232],[-52.7179,-25.47359],[-52.7166,-25.47578],[-52.7143,-25.47922],[-52.71462,-25.48109],[-52.71331,-25.48211],[-52.71355,-25.48355],[-52.71503,-25.4843],[-52.71355,-25.48606],[-52.71317,-25.48821],[-52.71219,-25.48889],[-52.71065,-25.48897],[-52.70754,-25.48797],[-52.70738,-25.48697],[-52.70819,-25.48448],[-52.70785,-25.48345],[-52.70589,-25.48253],[-52.69869,-25.48074],[-52.69794,-25.47994],[-52.69673,-25.47563],[-52.69564,-25.47411],[-52.69348,-25.47212],[-52.69291,-25.47079],[-52.69288,-25.46875],[-52.6926,-25.46741],[-52.6914,-25.46545],[-52.68994,-25.46379],[-52.68928,-25.46149],[-52.68873,-25.46096],[-52.68647,-25.46045],[-52.68423,-25.46041],[-52.67995,-25.46078],[-52.67766,-25.4603],[-52.67417,-25.46007],[-52.67174,-25.45756],[-52.67052,-25.4572],[-52.66511,-25.45703],[-52.66042,-25.45558],[-52.65841,-25.45346],[-52.65578,-25.45191],[-52.65389,-25.45137],[-52.65277,-25.45038],[-52.65157,-25.44855],[-52.65064,-25.44786],[-52.64704,-25.44824],[-52.64568,-25.44795],[-52.64033,-25.44416],[-52.63756,-25.44329],[-52.63469,-25.44335],[-52.63139,-25.44369],[-52.62911,-25.44375],[-52.62615,-25.44492],[-52.62557,-25.44566],[-52.6253,-25.45022],[-52.6254,-25.45206],[-52.62687,-25.45529],[-52.62748,-25.45601],[-52.62731,-25.45708],[-52.62503,-25.45995],[-52.6223,-25.46443],[-52.62114,-25.4653],[-52.61835,-25.4658],[-52.61643,-25.46538],[-52.61597,-25.46447],[-52.61535,-25.46069],[-52.6135,-25.45871],[-52.61013,-25.45742],[-52.61003,-25.45694],[-52.61142,-25.45456],[-52.61097,-25.45213],[-52.60947,-25.45],[-52.60488,-25.44546],[-52.603,-25.44432],[-52.60047,-25.44383],[-52.5985,-25.44175],[-52.59535,-25.43909],[-52.59308,-25.43881],[-52.59214,-25.43806],[-52.59077,-25.4381],[-52.58788,-25.43025],[-52.58693,-25.42897],[-52.58426,-25.42844],[-52.5826,-25.42857],[-52.58121,-25.42914],[-52.57917,-25.43089],[-52.57638,-25.43133],[-52.57328,-25.43071],[-52.57079,-25.42962],[-52.56964,-25.42951],[-52.56855,-25.42845],[-52.56685,-25.42808],[-52.56534,-25.42739],[-52.56458,-25.42765],[-52.56304,-25.42543],[-52.56193,-25.42527],[-52.56052,-25.42593],[-52.55939,-25.42585],[-52.55824,-25.42628],[-52.55716,-25.42624],[-52.55592,-25.42478],[-52.55467,-25.42491],[-52.55368,-25.42553],[-52.55399,-25.42634],[-52.55202,-25.42667],[-52.55101,-25.42779],[-52.55026,-25.42683],[-52.55143,-25.42537],[-52.55063,-25.42449],[-52.55046,-25.42327],[-52.55214,-25.42121],[-52.55257,-25.41924],[-52.55362,-25.41847],[-52.55372,-25.41701],[-52.55306,-25.4164],[-52.54951,-25.41664],[-52.54633,-25.41347],[-52.54703,-25.41192],[-52.54936,-25.41105],[-52.55039,-25.41001],[-52.55006,-25.40932],[-52.54803,-25.40856],[-52.54718,-25.40759],[-52.54441,-25.40692],[-52.54296,-25.40598],[-52.54367,-25.40386],[-52.54331,-25.40315],[-52.54205,-25.40296],[-52.54104,-25.40209],[-52.53949,-25.40144],[-52.53698,-25.4009],[-52.53641,-25.39975],[-52.53685,-25.39648],[-52.53591,-25.39615],[-52.53458,-25.39698],[-52.53306,-25.39408],[-52.5315,-25.39434],[-52.52994,-25.39497],[-52.52975,-25.39344],[-52.52996,-25.39082],[-52.53171,-25.39036],[-52.53259,-25.38949],[-52.53373,-25.38989],[-52.53464,-25.38904],[-52.53431,-25.38828],[-52.53483,-25.38712],[-52.53345,-25.38643],[-52.53254,-25.38666],[-52.53084,-25.38813],[-52.52918,-25.38864],[-52.5272,-25.38849],[-52.52666,-25.38796],[-52.52624,-25.3852],[-52.52791,-25.38303],[-52.52832,-25.38163],[-52.5278,-25.38116],[-52.52592,-25.38112],[-52.52374,-25.38051],[-52.52377,-25.37992],[-52.52508,-25.37782],[-52.52308,-25.37692],[-52.52231,-25.37556],[-52.52248,-25.37382],[-52.52222,-25.37155],[-52.52304,-25.37063],[-52.52377,-25.37056],[-52.52596,-25.37134],[-52.52735,-25.3701],[-52.52522,-25.36847],[-52.52514,-25.36641],[-52.52287,-25.36706],[-52.52229,-25.36657],[-52.5227,-25.36495],[-52.52396,-25.36279],[-52.52566,-25.36125],[-52.52514,-25.3594],[-52.52762,-25.35732],[-52.52686,-25.35674],[-52.52428,-25.35736],[-52.52376,-25.35668],[-52.52391,-25.35505],[-52.52305,-25.35471],[-52.52206,-25.35524],[-52.52119,-25.35686],[-52.52153,-25.35823],[-52.52103,-25.35884],[-52.51891,-25.35901],[-52.51842,-25.35872],[-52.51985,-25.35699],[-52.51934,-25.35615],[-52.51811,-25.35687],[-52.51671,-25.35649],[-52.51534,-25.35692],[-52.51485,-25.35666],[-52.51533,-25.35532],[-52.51499,-25.35373],[-52.51554,-25.35286],[-52.51515,-25.35164],[-52.5151,-25.35012],[-52.51411,-25.34938],[-52.5148,-25.34852],[-52.51667,-25.34918],[-52.51742,-25.34859],[-52.51677,-25.34748],[-52.5177,-25.34686],[-52.51785,-25.34573],[-52.5165,-25.34547],[-52.51584,-25.34472],[-52.51584,-25.34324],[-52.51491,-25.34264],[-52.51309,-25.34312],[-52.51252,-25.34261],[-52.51299,-25.34175],[-52.51218,-25.34054],[-52.51195,-25.33954],[-52.5104,-25.3385],[-52.51061,-25.33776],[-52.51233,-25.3376],[-52.51298,-25.33648],[-52.51181,-25.33565],[-52.51235,-25.33352],[-52.51175,-25.33269],[-52.51024,-25.33227],[-52.50965,-25.33029],[-52.51076,-25.33006],[-52.51074,-25.3294],[-52.50916,-25.32879],[-52.50705,-25.32979],[-52.50664,-25.32803],[-52.50518,-25.32833],[-52.50446,-25.32924],[-52.50373,-25.32908],[-52.5024,-25.32765],[-52.50224,-25.32605],[-52.50305,-25.32493],[-52.50149,-25.32492],[-52.50067,-25.32429],[-52.50138,-25.32298],[-52.50121,-25.32245],[-52.49883,-25.32247],[-52.49803,-25.32041],[-52.49699,-25.32063],[-52.49648,-25.32137],[-52.49402,-25.32276],[-52.49215,-25.32275],[-52.48999,-25.32104],[-52.4893,-25.321],[-52.48359,-25.32334],[-52.48123,-25.32346],[-52.48043,-25.32379],[-52.47855,-25.32388],[-52.47632,-25.32469],[-52.4743,-25.32461],[-52.47244,-25.32395],[-52.47138,-25.32472],[-52.47023,-25.32431],[-52.46972,-25.32505],[-52.46856,-25.32485],[-52.4656,-25.3259],[-52.462,-25.32761],[-52.46027,-25.32816],[-52.45846,-25.32841],[-52.45204,-25.32748],[-52.44877,-25.32602],[-52.44686,-25.32546],[-52.44462,-25.32558],[-52.4424,-25.32626],[-52.43736,-25.32857],[-52.43443,-25.3297],[-52.43296,-25.33002],[-52.43048,-25.33023],[-52.42849,-25.33151],[-52.42752,-25.33241],[-52.42531,-25.33366],[-52.42347,-25.33442],[-52.41983,-25.33345],[-52.4213,-25.3305],[-52.42095,-25.32854],[-52.42124,-25.32807],[-52.42382,-25.32684],[-52.42496,-25.32583],[-52.42537,-25.32443],[-52.42343,-25.3212],[-52.42349,-25.32073],[-52.42482,-25.3188],[-52.42502,-25.31623],[-52.42258,-25.31437],[-52.42193,-25.31332],[-52.42071,-25.3098],[-52.42092,-25.30801],[-52.42217,-25.30695],[-52.42598,-25.30511],[-52.4259,-25.30285],[-52.42548,-25.3016],[-52.42451,-25.30006],[-52.42415,-25.29891],[-52.42292,-25.29719],[-52.41794,-25.29255],[-52.41489,-25.29072],[-52.41032,-25.2885],[-52.40979,-25.28783],[-52.40939,-25.28571],[-52.41098,-25.28338],[-52.41108,-25.28228],[-52.41037,-25.28077],[-52.40882,-25.27908],[-52.40799,-25.27715],[-52.40924,-25.27572],[-52.40957,-25.27393],[-52.4082,-25.2723],[-52.42315,-25.27083],[-52.43925,-25.26967],[-52.46852,-25.26814],[-52.46942,-25.26783],[-52.47146,-25.26582],[-52.47256,-25.26363],[-52.47524,-25.25707],[-52.47683,-25.2543],[-52.47877,-25.25252],[-52.47953,-25.25209],[-52.48112,-25.25313],[-52.48292,-25.25356],[-52.48935,-25.25468],[-52.49257,-25.25442],[-52.49488,-25.25405],[-52.49619,-25.25346],[-52.49948,-25.25381],[-52.50303,-25.25329],[-52.50396,-25.25195],[-52.50893,-25.25062],[-52.51068,-25.24963],[-52.51448,-25.24848],[-52.52018,-25.24556],[-52.5238,-25.24407],[-52.52645,-25.24277],[-52.52889,-25.24177],[-52.53036,-25.24193],[-52.5321,-25.24275],[-52.53514,-25.2435],[-52.53892,-25.24304],[-52.54181,-25.24167],[-52.55155,-25.24023],[-52.55246,-25.24043],[-52.55546,-25.24056],[-52.55859,-25.24138],[-52.56267,-25.24046],[-52.56456,-25.24136],[-52.5662,-25.24247],[-52.56808,-25.24253],[-52.56937,-25.24198],[-52.57178,-25.24045],[-52.57391,-25.2399],[-52.57637,-25.23982],[-52.57787,-25.23879],[-52.57898,-25.23629],[-52.58049,-25.23464],[-52.58252,-25.23449],[-52.58428,-25.23566],[-52.58791,-25.23775],[-52.59127,-25.23742],[-52.59651,-25.23862],[-52.59823,-25.23827],[-52.60175,-25.23843],[-52.60417,-25.23989],[-52.6052,-25.24167],[-52.60554,-25.2428],[-52.60622,-25.2435],[-52.60864,-25.24383],[-52.612,-25.24561],[-52.61196,-25.24614],[-52.61282,-25.24789],[-52.61287,-25.24951],[-52.61105,-25.2499],[-52.60924,-25.24972],[-52.60829,-25.25049],[-52.60683,-25.25234],[-52.60583,-25.25281],[-52.60478,-25.25402],[-52.60098,-25.257],[-52.60047,-25.2579],[-52.60052,-25.25894],[-52.60304,-25.26086],[-52.60473,-25.26338],[-52.60528,-25.26326],[-52.60784,-25.26592],[-52.60731,-25.26678],[-52.60828,-25.26864],[-52.60819,-25.26928],[-52.61126,-25.27063],[-52.61538,-25.26893],[-52.6187,-25.26595],[-52.62485,-25.26589],[-52.62573,-25.26487],[-52.62518,-25.26409],[-52.62355,-25.26388],[-52.62309,-25.2631],[-52.62358,-25.26248],[-52.62793,-25.25972],[-52.62841,-25.25875],[-52.62761,-25.25779],[-52.62562,-25.25663],[-52.62481,-25.25541],[-52.62679,-25.25176],[-52.6272,-25.24987],[-52.62876,-25.24862],[-52.62925,-25.24792],[-52.62851,-25.2442],[-52.62734,-25.24262],[-52.6266,-25.24018],[-52.62767,-25.23807],[-52.62924,-25.23354],[-52.62947,-25.23202],[-52.62906,-25.23052],[-52.64304,-25.23411],[-52.72328,-25.2547],[-52.79376,-25.27384],[-52.69295,-25.27446],[-52.6921,-25.27489],[-52.69017,-25.27733],[-52.68763,-25.27736],[-52.68632,-25.27786],[-52.68499,-25.27911],[-52.68369,-25.27975],[-52.68108,-25.28034],[-52.68031,-25.28347],[-52.67886,-25.28454],[-52.67763,-25.28505],[-52.67532,-25.28791],[-52.67448,-25.2882],[-52.67318,-25.28927],[-52.67196,-25.28971],[-52.66924,-25.2911],[-52.66417,-25.29228],[-52.66178,-25.29245],[-52.66325,-25.29576],[-52.66419,-25.29702],[-52.66269,-25.2997],[-52.66312,-25.30015],[-52.66474,-25.30055],[-52.66589,-25.29963],[-52.66923,-25.29907],[-52.67094,-25.29954],[-52.6721,-25.30057],[-52.67298,-25.30267],[-52.67258,-25.30439],[-52.67035,-25.30477],[-52.66851,-25.30577],[-52.66814,-25.3069],[-52.66922,-25.30926],[-52.6702,-25.31364],[-52.67087,-25.31479],[-52.67257,-25.3147],[-52.67374,-25.31546],[-52.67367,-25.31644],[-52.67422,-25.31707],[-52.67688,-25.31735],[-52.67819,-25.31664],[-52.67966,-25.31732],[-52.67968,-25.31844],[-52.68174,-25.31979],[-52.6823,-25.3209],[-52.68455,-25.32207],[-52.68518,-25.32312],[-52.68607,-25.32363],[-52.68838,-25.3234],[-52.69093,-25.324],[-52.69246,-25.32563],[-52.69524,-25.32574],[-52.69769,-25.32543],[-52.6984,-25.3257],[-52.69862,-25.32763],[-52.69902,-25.32868],[-52.69826,-25.32959],[-52.69843,-25.33078],[-52.69799,-25.33233],[-52.69972,-25.33221],[-52.70236,-25.33295],[-52.70321,-25.33343],[-52.70338,-25.33427],[-52.70293,-25.33519],[-52.70314,-25.33683],[-52.70639,-25.33729],[-52.70756,-25.3386],[-52.70742,-25.33924],[-52.70569,-25.33964],[-52.70159,-25.33913],[-52.70035,-25.33872],[-52.69893,-25.33913],[-52.69871,-25.33976],[-52.6995,-25.34108],[-52.70052,-25.34205],[-52.70055,-25.3445],[-52.70145,-25.3453],[-52.70391,-25.34443],[-52.70467,-25.34365],[-52.70589,-25.34315],[-52.7072,-25.34313],[-52.70718,-25.34401],[-52.7059,-25.34669],[-52.70646,-25.34745],[-52.70785,-25.34772],[-52.70869,-25.34743],[-52.70949,-25.34647],[-52.71069,-25.34407],[-52.71192,-25.34385],[-52.71247,-25.34447],[-52.71185,-25.34739],[-52.71072,-25.34874],[-52.7066,-25.35222],[-52.70522,-25.35301],[-52.7042,-25.3546],[-52.70532,-25.35746],[-52.70549,-25.35851],[-52.70513,-25.36048],[-52.70626,-25.36085],[-52.70878,-25.35928],[-52.70986,-25.35913],[-52.71056,-25.35968],[-52.71077,-25.36076],[-52.71025,-25.36224],[-52.71034,-25.36308],[-52.71306,-25.36446],[-52.71323,-25.36544],[-52.71242,-25.3659],[-52.70872,-25.36567],[-52.70749,-25.36596],[-52.70657,-25.36688],[-52.70703,-25.36915],[-52.70991,-25.3713],[-52.71085,-25.37227],[-52.7111,-25.37325],[-52.71054,-25.37504],[-52.70895,-25.37653],[-52.70586,-25.37685],[-52.70314,-25.37818],[-52.7027,-25.3798],[-52.70496,-25.38082],[-52.7057,-25.38141],[-52.70704,-25.38399],[-52.7069,-25.38497],[-52.70884,-25.38558],[-52.70812,-25.38633],[-52.7055,-25.38664],[-52.70298,-25.38863],[-52.70305,-25.39056],[-52.70375,-25.39118],[-52.70608,-25.3922],[-52.70739,-25.39219],[-52.70926,-25.39066],[-52.71055,-25.38924],[-52.71175,-25.3872],[-52.71446,-25.38474],[-52.717,-25.3845],[-52.71879,-25.38504],[-52.71842,-25.38652],[-52.71781,-25.38695],[-52.71539,-25.38764],[-52.71425,-25.38864],[-52.71327,-25.39033],[-52.71264,-25.39234],[-52.71251,-25.39431],[-52.71317,-25.39731],[-52.71389,-25.39892],[-52.71456,-25.39944],[-52.71503,-25.40069],[-52.71605,-25.40145],[-52.71946,-25.40226],[-52.72214,-25.40352],[-52.72354,-25.40463],[-52.72555,-25.40502],[-52.7264,-25.40473],[-52.72754,-25.4036],[-52.72817,-25.40201],[-52.72793,-25.40089],[-52.72789,-25.39865],[-52.7291,-25.39709],[-52.72931,-25.39547],[-52.73058,-25.39494],[-52.73121,-25.39577],[-52.73433,-25.39791],[-52.73523,-25.39947],[-52.73457,-25.40152],[-52.73554,-25.40438],[-52.73699,-25.40622],[-52.73824,-25.40719],[-52.74079,-25.40744],[-52.74178,-25.40687],[-52.7434,-25.40394],[-52.74523,-25.40216],[-52.74623,-25.40215],[-52.74794,-25.40304],[-52.74955,-25.40495],[-52.74958,-25.40677],[-52.7492,-25.40755],[-52.74836,-25.40777],[-52.74446,-25.40792],[-52.74139,-25.40908],[-52.73745,-25.41106],[-52.73416,-25.41313],[-52.73348,-25.41419],[-52.73404,-25.41586],[-52.7349,-25.41628],[-52.73693,-25.41552],[-52.74032,-25.41506],[-52.74216,-25.41454],[-52.7441,-25.41473],[-52.74455,-25.41644],[-52.74288,-25.41892],[-52.74172,-25.42149],[-52.74151,-25.42283],[-52.74215,-25.42394],[-52.74518,-25.42559],[-52.74462,-25.42675],[-52.74129,-25.42644],[-52.73955,-25.42835],[-52.73774,-25.42905],[-52.73831,-25.43074],[-52.73849,-25.43312],[-52.73897,-25.43396],[-52.74111,-25.43544],[-52.74182,-25.43648],[-52.74215,-25.43781],[-52.74209,-25.44149],[-52.7432,-25.4433],[-52.7449,-25.44363],[-52.74643,-25.44263],[-52.74628,-25.44085],[-52.74472,-25.43904],[-52.74431,-25.43778],[-52.74445,-25.43687],[-52.74517,-25.43599],[-52.75045,-25.43249],[-52.75227,-25.43327],[-52.75314,-25.43459],[-52.75441,-25.43724],[-52.75546,-25.44003],[-52.75644,-25.44146],[-52.75746,-25.44243],[-52.75954,-25.44219],[-52.76107,-25.44127],[-52.76191,-25.44304],[-52.75967,-25.44349],[-52.75954,-25.44461],[-52.76145,-25.44631],[-52.76363,-25.44783],[-52.76427,-25.44901],[-52.76429,-25.45013],[-52.76376,-25.45105],[-52.76172,-25.45153],[-52.76033,-25.4512],[-52.75697,-25.44892],[-52.75531,-25.44835],[-52.75399,-25.44836],[-52.75161,-25.44895],[-52.75039,-25.44995],[-52.75164,-25.45105],[-52.75587,-25.45237],[-52.75719,-25.45299],[-52.75837,-25.45445],[-52.76089,-25.45508],[-52.76179,-25.45566]]]},"properties":{"codigo":"411705705","name":"Nova Laranjeiras","population":8575,"households":3168,"areaKm2":508.4832,"density":16.9}},{"type":"Feature","geometry":{"type":"Polygon","coordinates":[[[-52.66314,-25.09799],[-52.66225,-25.09857],[-52.66071,-25.09844],[-52.65941,-25.09872],[-52.65872,-25.10067],[-52.65994,-25.10103],[-52.66062,-25.10228],[-52.65998,-25.10337],[-52.65805,-25.10363],[-52.65731,-25.10461],[-52.65758,-25.1053],[-52.66011,-25.1055],[-52.6597,-25.10675],[-52.65774,-25.10651],[-52.65657,-25.10723],[-52.65686,-25.10796],[-52.65855,-25.10789],[-52.65898,-25.10952],[-52.66099,-25.11035],[-52.66221,-25.11199],[-52.66117,-25.11289],[-52.66325,-25.11372],[-52.66253,-25.11462],[-52.66351,-25.11673],[-52.6646,-25.11836],[-52.66433,-25.11896],[-52.66529,-25.11977],[-52.66404,-25.12083],[-52.66615,-25.12307],[-52.66628,-25.12378],[-52.66776,-25.12454],[-52.66777,-25.12633],[-52.66828,-25.12819],[-52.67012,-25.12876],[-52.67017,-25.1295],[-52.66951,-25.13061],[-52.66961,-25.13201],[-52.66905,-25.13284],[-52.66899,-25.13421],[-52.66735,-25.13507],[-52.66688,-25.13589],[-52.66992,-25.13927],[-52.67013,-25.14017],[-52.66986,-25.14162],[-52.66889,-25.14449],[-52.66903,-25.14594],[-52.66952,-25.1466],[-52.67176,-25.148],[-52.67471,-25.14901],[-52.67713,-25.15024],[-52.6785,-25.1505],[-52.68047,-25.15126],[-52.68112,-25.15181],[-52.68229,-25.15365],[-52.68483,-25.15594],[-52.68581,-25.15623],[-52.68671,-25.15732],[-52.68828,-25.15817],[-52.68898,-25.16026],[-52.68965,-25.16125],[-52.69004,-25.16288],[-52.69124,-25.16435],[-52.6769,-25.17004],[-52.6737,-25.17152],[-52.67231,-25.17312],[-52.66976,-25.1784],[-52.66641,-25.18392],[-52.66356,-25.18587],[-52.65853,-25.18785],[-52.65785,-25.18845],[-52.65489,-25.18801],[-52.65399,-25.18762],[-52.65273,-25.18619],[-52.65238,-25.18426],[-52.6531,-25.18165],[-52.65304,-25.1809],[-52.65216,-25.17965],[-52.64919,-25.17632],[-52.64898,-25.17511],[-52.64947,-25.17342],[-52.6495,-25.17108],[-52.64728,-25.16705],[-52.6472,-25.16568],[-52.64544,-25.16294],[-52.64448,-25.15941],[-52.64378,-25.15748],[-52.64254,-25.15655],[-52.64212,-25.15734],[-52.64271,-25.15883],[-52.64245,-25.16352],[-52.63879,-25.16543],[-52.63712,-25.16882],[-52.63537,-25.17084],[-52.63389,-25.1718],[-52.63272,-25.17031],[-52.62705,-25.16872],[-52.62532,-25.16851],[-52.62528,-25.16653],[-52.62495,-25.1657],[-52.62538,-25.16454],[-52.62495,-25.16338],[-52.62484,-25.16192],[-52.62166,-25.16262],[-52.62104,-25.16165],[-52.6211,-25.16056],[-52.61983,-25.15807],[-52.61881,-25.15713],[-52.61687,-25.15611],[-52.61548,-25.15587],[-52.61373,-25.15673],[-52.61197,-25.15859],[-52.60989,-25.15976],[-52.607,-25.16082],[-52.6045,-25.16131],[-52.60375,-25.1617],[-52.59985,-25.16294],[-52.59789,-25.16332],[-52.5959,-25.16407],[-52.59407,-25.16353],[-52.59201,-25.16379],[-52.59018,-25.163],[-52.58873,-25.16409],[-52.58813,-25.16418],[-52.58479,-25.16332],[-52.5839,-25.16261],[-52.58316,-25.16137],[-52.58282,-25.15878],[-52.58135,-25.15794],[-52.58072,-25.15721],[-52.57955,-25.15671],[-52.57836,-25.15743],[-52.57597,-25.15799],[-52.57369,-25.15911],[-52.57241,-25.15927],[-52.57087,-25.1589],[-52.56888,-25.15747],[-52.56628,-25.15624],[-52.56592,-25.15522],[-52.56785,-25.15359],[-52.57176,-25.15394],[-52.57277,-25.15372],[-52.57287,-25.15301],[-52.5714,-25.15138],[-52.57035,-25.15085],[-52.56614,-25.15084],[-52.56524,-25.14979],[-52.56502,-25.14794],[-52.56429,-25.14809],[-52.56269,-25.14952],[-52.5613,-25.15022],[-52.56042,-25.14968],[-52.56067,-25.14901],[-52.56171,-25.14864],[-52.56231,-25.14692],[-52.56427,-25.1454],[-52.56434,-25.14417],[-52.56537,-25.14372],[-52.5651,-25.14277],[-52.56417,-25.14278],[-52.56269,-25.14141],[-52.56116,-25.14233],[-52.55864,-25.14165],[-52.55828,-25.14098],[-52.5585,-25.13983],[-52.55816,-25.13876],[-52.55859,-25.13802],[-52.56138,-25.13716],[-52.56332,-25.13706],[-52.56447,-25.13735],[-52.5657,-25.13626],[-52.56683,-25.1358],[-52.5668,-25.13474],[-52.56732,-25.13391],[-52.56574,-25.13295],[-52.56568,-25.13234],[-52.56759,-25.13147],[-52.56805,-25.13051],[-52.56702,-25.13028],[-52.56456,-25.13053],[-52.5618,-25.13251],[-52.56045,-25.13296],[-52.55908,-25.13104],[-52.55708,-25.13136],[-52.5564,-25.13054],[-52.55642,-25.12946],[-52.55431,-25.12981],[-52.55372,-25.1292],[-52.55424,-25.12791],[-52.55567,-25.1268],[-52.55522,-25.12567],[-52.55612,-25.12536],[-52.56032,-25.12602],[-52.56111,-25.12567],[-52.56116,-25.1245],[-52.5594,-25.12331],[-52.55691,-25.1209],[-52.55631,-25.12103],[-52.55574,-25.12251],[-52.55463,-25.12276],[-52.55351,-25.12227],[-52.55154,-25.12216],[-52.5498,-25.12058],[-52.54775,-25.12052],[-52.54698,-25.12118],[-52.54675,-25.12231],[-52.54708,-25.12422],[-52.54661,-25.1252],[-52.54501,-25.12518],[-52.54323,-25.12407],[-52.54188,-25.12214],[-52.54269,-25.12039],[-52.54246,-25.11835],[-52.54405,-25.11702],[-52.54491,-25.11592],[-52.54374,-25.11418],[-52.54359,-25.11264],[-52.54291,-25.11239],[-52.54211,-25.11333],[-52.54129,-25.11325],[-52.53998,-25.11455],[-52.53762,-25.11515],[-52.53679,-25.11636],[-52.53574,-25.11712],[-52.53481,-25.11728],[-52.53247,-25.11704],[-52.53186,-25.1167],[-52.52976,-25.11506],[-52.52941,-25.11408],[-52.52971,-25.11187],[-52.52918,-25.11067],[-52.5279,-25.10943],[-52.52731,-25.10942],[-52.52657,-25.11042],[-52.52546,-25.11062],[-52.52249,-25.10997],[-52.51945,-25.10964],[-52.51802,-25.11018],[-52.51681,-25.10991],[-52.51564,-25.10881],[-52.51554,-25.10688],[-52.51651,-25.10604],[-52.51816,-25.10522],[-52.521,-25.10413],[-52.52473,-25.10396],[-52.52727,-25.10354],[-52.52761,-25.10263],[-52.5248,-25.10142],[-52.5189,-25.10052],[-52.51696,-25.09988],[-52.51403,-25.09675],[-52.51415,-25.09551],[-52.51615,-25.09439],[-52.51688,-25.09315],[-52.51773,-25.09238],[-52.51703,-25.09081],[-52.51768,-25.0903],[-52.52114,-25.09138],[-52.5222,-25.09228],[-52.52325,-25.09222],[-52.52456,-25.09086],[-52.52595,-25.08827],[-52.52757,-25.08695],[-52.52797,-25.08538],[-52.52934,-25.08424],[-52.52905,-25.0837],[-52.52763,-25.08298],[-52.52491,-25.08252],[-52.5233,-25.08053],[-52.52284,-25.07939],[-52.52312,-25.07874],[-52.52684,-25.0777],[-52.52908,-25.07635],[-52.53086,-25.07591],[-52.53339,-25.07572],[-52.53619,-25.07576],[-52.53753,-25.0753],[-52.53843,-25.07386],[-52.53779,-25.07167],[-52.53819,-25.07061],[-52.53708,-25.07001],[-52.53461,-25.07126],[-52.5316,-25.07202],[-52.52986,-25.07165],[-52.52714,-25.07012],[-52.52602,-25.06914],[-52.52654,-25.06799],[-52.52893,-25.06701],[-52.5293,-25.06654],[-52.52987,-25.06427],[-52.52971,-25.06265],[-52.53013,-25.06111],[-52.53063,-25.06056],[-52.53252,-25.05949],[-52.53268,-25.05876],[-52.5318,-25.05834],[-52.52945,-25.05903],[-52.52716,-25.05927],[-52.52502,-25.05919],[-52.52415,-25.05996],[-52.52279,-25.0631],[-52.52201,-25.06359],[-52.5212,-25.06202],[-52.52051,-25.05717],[-52.5206,-25.05606],[-52.52121,-25.05504],[-52.5227,-25.0541],[-52.52726,-25.05262],[-52.52898,-25.05179],[-52.53058,-25.05023],[-52.53359,-25.04629],[-52.53414,-25.04533],[-52.53602,-25.04471],[-52.53985,-25.04302],[-52.54196,-25.04102],[-52.5426,-25.03966],[-52.54498,-25.0378],[-52.54605,-25.03749],[-52.55138,-25.03751],[-52.5524,-25.03734],[-52.55424,-25.0365],[-52.55525,-25.03514],[-52.55495,-25.03252],[-52.55391,-25.02837],[-52.55282,-25.02651],[-52.54973,-25.02407],[-52.54789,-25.02172],[-52.54763,-25.01892],[-52.54794,-25.0176],[-52.54891,-25.0165],[-52.55063,-25.01528],[-52.55416,-25.01345],[-52.55798,-25.00988],[-52.55898,-25.00923],[-52.56041,-25.00884],[-52.56194,-25.00932],[-52.56246,-25.0116],[-52.56203,-25.01498],[-52.56125,-25.01783],[-52.55905,-25.02161],[-52.55822,-25.02431],[-52.55844,-25.02525],[-52.55989,-25.02613],[-52.562,-25.02547],[-52.56356,-25.02427],[-52.56482,-25.02295],[-52.5689,-25.01674],[-52.56942,-25.01524],[-52.57026,-25.01376],[-52.57154,-25.01244],[-52.57399,-25.01103],[-52.57872,-25.00981],[-52.58015,-25.00905],[-52.58239,-25.00745],[-52.58311,-25.00587],[-52.58191,-25.00435],[-52.57845,-25.0015],[-52.5768,-25.00084],[-52.57494,-25.00079],[-52.56996,-25.00337],[-52.56714,-25.00462],[-52.56369,-25.00473],[-52.56237,-25.00407],[-52.56161,-25.00288],[-52.5608,-25.00068],[-52.56054,-24.99799],[-52.56176,-24.99663],[-52.56363,-24.99503],[-52.56476,-24.99337],[-52.56475,-24.9924],[-52.56371,-24.99166],[-52.56207,-24.99182],[-52.55613,-24.99309],[-52.55432,-24.99378],[-52.55204,-24.995],[-52.54863,-24.99542],[-52.5469,-24.99513],[-52.54508,-24.99373],[-52.54407,-24.99224],[-52.54447,-24.99088],[-52.54597,-24.98967],[-52.54801,-24.98875],[-52.5503,-24.98738],[-52.55243,-24.98675],[-52.55492,-24.98538],[-52.55709,-24.98192],[-52.55824,-24.98159],[-52.56081,-24.98022],[-52.56332,-24.97704],[-52.56461,-24.97501],[-52.56528,-24.97245],[-52.56564,-24.969],[-52.56604,-24.96764],[-52.56709,-24.96651],[-52.56828,-24.96612],[-52.57239,-24.96675],[-52.5865,-24.96758],[-52.58913,-24.96725],[-52.59146,-24.96625],[-52.59193,-24.96454],[-52.59398,-24.96623],[-52.59622,-24.96658],[-52.59737,-24.96576],[-52.5982,-24.96464],[-52.59955,-24.96382],[-52.60307,-24.96323],[-52.60387,-24.96344],[-52.6047,-24.9651],[-52.60517,-24.96732],[-52.60582,-24.96819],[-52.60731,-24.96869],[-52.61003,-24.9678],[-52.61142,-24.968],[-52.61225,-24.9696],[-52.61228,-24.97199],[-52.61097,-24.97343],[-52.6111,-24.97391],[-52.61375,-24.97465],[-52.61534,-24.97647],[-52.61668,-24.97737],[-52.61832,-24.97739],[-52.62007,-24.97686],[-52.6221,-24.97594],[-52.62263,-24.97649],[-52.62173,-24.9777],[-52.62024,-24.98062],[-52.6203,-24.98194],[-52.62108,-24.98346],[-52.62114,-24.9847],[-52.61979,-24.98587],[-52.61847,-24.98574],[-52.61625,-24.98687],[-52.61478,-24.98888],[-52.61512,-24.99062],[-52.6167,-24.99235],[-52.61302,-24.99659],[-52.60969,-24.99825],[-52.60745,-24.99868],[-52.60676,-24.99926],[-52.6069,-25.00061],[-52.6103,-25.00098],[-52.6117,-25.00193],[-52.61129,-25.00362],[-52.60789,-25.00676],[-52.60668,-25.00845],[-52.60604,-25.00979],[-52.6057,-25.0114],[-52.60479,-25.01222],[-52.60293,-25.01131],[-52.60027,-25.01298],[-52.60049,-25.01462],[-52.60275,-25.01575],[-52.60597,-25.01547],[-52.60645,-25.01633],[-52.60303,-25.01898],[-52.60252,-25.01968],[-52.60301,-25.02045],[-52.60615,-25.02052],[-52.60866,-25.01971],[-52.6097,-25.02014],[-52.61287,-25.01988],[-52.61468,-25.0171],[-52.61612,-25.01698],[-52.61726,-25.01865],[-52.61769,-25.02051],[-52.61653,-25.02068],[-52.61516,-25.02033],[-52.61425,-25.02093],[-52.61455,-25.02268],[-52.61529,-25.02428],[-52.61463,-25.02584],[-52.6114,-25.0273],[-52.61073,-25.02839],[-52.61357,-25.02774],[-52.61494,-25.02805],[-52.61512,-25.02933],[-52.61291,-25.032],[-52.61288,-25.0331],[-52.61357,-25.03375],[-52.61628,-25.03533],[-52.61706,-25.03654],[-52.6151,-25.03784],[-52.61021,-25.03759],[-52.61004,-25.03859],[-52.61393,-25.04268],[-52.61489,-25.04267],[-52.61732,-25.04118],[-52.62167,-25.03969],[-52.62296,-25.04052],[-52.62265,-25.0414],[-52.6208,-25.04339],[-52.61859,-25.04629],[-52.61888,-25.04687],[-52.62155,-25.04626],[-52.62217,-25.04429],[-52.62277,-25.04385],[-52.62369,-25.04431],[-52.62416,-25.04625],[-52.62509,-25.04695],[-52.62646,-25.04708],[-52.63111,-25.0503],[-52.63428,-25.0506],[-52.63566,-25.05182],[-52.63796,-25.05233],[-52.63893,-25.05316],[-52.63859,-25.05444],[-52.6365,-25.05472],[-52.63535,-25.05526],[-52.63524,-25.0564],[-52.63289,-25.05809],[-52.63367,-25.0585],[-52.63603,-25.05791],[-52.63691,-25.05804],[-52.63871,-25.0574],[-52.63948,-25.05794],[-52.64023,-25.06031],[-52.64076,-25.06069],[-52.6425,-25.06061],[-52.64358,-25.06186],[-52.6447,-25.06156],[-52.64755,-25.0622],[-52.64964,-25.06189],[-52.65301,-25.06189],[-52.65337,-25.06245],[-52.65238,-25.0633],[-52.65208,-25.06469],[-52.6513,-25.06651],[-52.65148,-25.06805],[-52.6527,-25.06906],[-52.65472,-25.07031],[-52.65561,-25.07052],[-52.65848,-25.06959],[-52.66001,-25.06972],[-52.66154,-25.07044],[-52.66188,-25.07164],[-52.66126,-25.07276],[-52.66017,-25.07263],[-52.6581,-25.07415],[-52.65654,-25.07435],[-52.65544,-25.07595],[-52.65623,-25.07762],[-52.65878,-25.07949],[-52.65844,-25.08112],[-52.65869,-25.08208],[-52.66018,-25.08224],[-52.66147,-25.08281],[-52.66128,-25.08346],[-52.65848,-25.08425],[-52.65663,-25.08406],[-52.65782,-25.08609],[-52.65775,-25.08655],[-52.65269,-25.08894],[-52.65314,-25.08965],[-52.65704,-25.09075],[-52.65759,-25.08949],[-52.65969,-25.08989],[-52.66277,-25.09004],[-52.66246,-25.09077],[-52.66103,-25.09179],[-52.65875,-25.09255],[-52.65945,-25.09389],[-52.65866,-25.09456],[-52.65835,-25.09553],[-52.65957,-25.09643],[-52.66217,-25.0963],[-52.66382,-25.09592],[-52.66438,-25.09654],[-52.66314,-25.09799]]]},"properties":{"codigo":"411705710","name":"Bananas","population":669,"households":370,"areaKm2":213.254,"density":3.1}},{"type":"Feature","geometry":{"type":"Polygon","coordinates":[[[-52.42659,-25.17762],[-52.43103,-25.17921],[-52.43261,-25.17902],[-52.43423,-25.18042],[-52.43347,-25.18247],[-52.43289,-25.18307],[-52.43294,-25.1843],[-52.43395,-25.1853],[-52.43711,-25.18374],[-52.44138,-25.18361],[-52.44447,-25.18416],[-52.44532,-25.18562],[-52.4472,-25.18667],[-52.44859,-25.18775],[-52.44976,-25.18819],[-52.45257,-25.19131],[-52.45472,-25.1926],[-52.45586,-25.19403],[-52.45699,-25.19455],[-52.45758,-25.19566],[-52.45854,-25.19198],[-52.46203,-25.18771],[-52.46216,-25.18668],[-52.46168,-25.18531],[-52.46468,-25.18479],[-52.46662,-25.18426],[-52.46737,-25.18359],[-52.46959,-25.18326],[-52.47255,-25.18005],[-52.4738,-25.179],[-52.47627,-25.17832],[-52.47832,-25.17893],[-52.48157,-25.17751],[-52.48403,-25.1753],[-52.48466,-25.1738],[-52.48714,-25.17298],[-52.48819,-25.17233],[-52.49094,-25.16955],[-52.49157,-25.1684],[-52.49277,-25.1684],[-52.49359,-25.16793],[-52.49614,-25.16857],[-52.49759,-25.16856],[-52.49915,-25.16748],[-52.49959,-25.16406],[-52.49997,-25.16282],[-52.50379,-25.161],[-52.50445,-25.16005],[-52.50784,-25.15815],[-52.50916,-25.15796],[-52.5103,-25.15828],[-52.5116,-25.15777],[-52.5128,-25.15616],[-52.51445,-25.15446],[-52.51524,-25.15402],[-52.51718,-25.15377],[-52.51935,-25.15512],[-52.52121,-25.1546],[-52.5225,-25.15393],[-52.52352,-25.15073],[-52.52557,-25.15038],[-52.52923,-25.15008],[-52.53019,-25.14936],[-52.52988,-25.14826],[-52.52695,-25.14582],[-52.52686,-25.14516],[-52.52926,-25.14253],[-52.52996,-25.14144],[-52.52924,-25.14078],[-52.52688,-25.1414],[-52.5257,-25.14207],[-52.52403,-25.14384],[-52.52351,-25.1436],[-52.52252,-25.14117],[-52.52333,-25.13902],[-52.5246,-25.13772],[-52.52537,-25.13596],[-52.52737,-25.13515],[-52.52647,-25.13431],[-52.52437,-25.13463],[-52.52313,-25.13435],[-52.52143,-25.13286],[-52.52138,-25.13032],[-52.5202,-25.12957],[-52.5183,-25.12883],[-52.51791,-25.12761],[-52.51944,-25.12703],[-52.52088,-25.12585],[-52.524,-25.12468],[-52.52426,-25.12393],[-52.5226,-25.12376],[-52.52182,-25.12295],[-52.52117,-25.12155],[-52.52045,-25.11893],[-52.52425,-25.11667],[-52.52549,-25.11627],[-52.52618,-25.11671],[-52.52671,-25.11866],[-52.52754,-25.11918],[-52.52906,-25.1191],[-52.53147,-25.11773],[-52.53186,-25.1167],[-52.53247,-25.11704],[-52.53481,-25.11728],[-52.53574,-25.11712],[-52.53679,-25.11636],[-52.53762,-25.11515],[-52.53998,-25.11455],[-52.54129,-25.11325],[-52.54211,-25.11333],[-52.54291,-25.11239],[-52.54359,-25.11264],[-52.54374,-25.11418],[-52.54491,-25.11592],[-52.54405,-25.11702],[-52.54246,-25.11835],[-52.54269,-25.12039],[-52.54188,-25.12214],[-52.54323,-25.12407],[-52.54501,-25.12518],[-52.54661,-25.1252],[-52.54708,-25.12422],[-52.54675,-25.12231],[-52.54698,-25.12118],[-52.54775,-25.12052],[-52.5498,-25.12058],[-52.55154,-25.12216],[-52.55351,-25.12227],[-52.55463,-25.12276],[-52.55574,-25.12251],[-52.55631,-25.12103],[-52.55691,-25.1209],[-52.5594,-25.12331],[-52.56116,-25.1245],[-52.56111,-25.12567],[-52.56032,-25.12602],[-52.55612,-25.12536],[-52.55522,-25.12567],[-52.55567,-25.1268],[-52.55424,-25.12791],[-52.55372,-25.1292],[-52.55431,-25.12981],[-52.55642,-25.12946],[-52.5564,-25.13054],[-52.55708,-25.13136],[-52.55908,-25.13104],[-52.56045,-25.13296],[-52.5618,-25.13251],[-52.56456,-25.13053],[-52.56702,-25.13028],[-52.56805,-25.13051],[-52.56759,-25.13147],[-52.56568,-25.13234],[-52.56574,-25.13295],[-52.56732,-25.13391],[-52.5668,-25.13474],[-52.56683,-25.1358],[-52.5657,-25.13626],[-52.56447,-25.13735],[-52.56332,-25.13706],[-52.56138,-25.13716],[-52.55859,-25.13802],[-52.55816,-25.13876],[-52.5585,-25.13983],[-52.55828,-25.14098],[-52.55864,-25.14165],[-52.56116,-25.14233],[-52.56269,-25.14141],[-52.56417,-25.14278],[-52.5651,-25.14277],[-52.56537,-25.14372],[-52.56434,-25.14417],[-52.56427,-25.1454],[-52.56231,-25.14692],[-52.56171,-25.14864],[-52.56067,-25.14901],[-52.56042,-25.14968],[-52.5613,-25.15022],[-52.56269,-25.14952],[-52.56429,-25.14809],[-52.56502,-25.14794],[-52.56524,-25.14979],[-52.56614,-25.15084],[-52.57035,-25.15085],[-52.5714,-25.15138],[-52.57287,-25.15301],[-52.57277,-25.15372],[-52.57176,-25.15394],[-52.56785,-25.15359],[-52.56592,-25.15522],[-52.56628,-25.15624],[-52.56888,-25.15747],[-52.57087,-25.1589],[-52.57076,-25.15933],[-52.56897,-25.1608],[-52.56936,-25.16295],[-52.56755,-25.16428],[-52.56776,-25.16517],[-52.57006,-25.16529],[-52.57093,-25.16575],[-52.57129,-25.16683],[-52.57055,-25.16793],[-52.57114,-25.16912],[-52.57256,-25.16893],[-52.57555,-25.16901],[-52.57641,-25.16962],[-52.57653,-25.17069],[-52.57535,-25.17429],[-52.57506,-25.17466],[-52.5724,-25.17531],[-52.57342,-25.17675],[-52.5722,-25.17751],[-52.57201,-25.17833],[-52.57266,-25.17912],[-52.5744,-25.18011],[-52.57471,-25.1817],[-52.57589,-25.18314],[-52.57414,-25.18421],[-52.5733,-25.18402],[-52.57212,-25.18211],[-52.56903,-25.18083],[-52.56845,-25.18141],[-52.56903,-25.18384],[-52.56714,-25.18399],[-52.56564,-25.18537],[-52.56664,-25.1865],[-52.56905,-25.18629],[-52.56852,-25.18862],[-52.56691,-25.18977],[-52.56681,-25.19059],[-52.56894,-25.19146],[-52.57042,-25.19249],[-52.57272,-25.19191],[-52.57384,-25.19324],[-52.57489,-25.19392],[-52.57603,-25.19519],[-52.57741,-25.19538],[-52.5788,-25.19478],[-52.57894,-25.19615],[-52.57964,-25.19671],[-52.58118,-25.19721],[-52.58144,-25.1995],[-52.57969,-25.19996],[-52.57908,-25.20114],[-52.58174,-25.20346],[-52.58135,-25.20403],[-52.58005,-25.20412],[-52.5806,-25.20513],[-52.58228,-25.20534],[-52.58209,-25.20594],[-52.58089,-25.20672],[-52.58172,-25.20787],[-52.58089,-25.20864],[-52.58139,-25.2099],[-52.58231,-25.21021],[-52.58377,-25.20905],[-52.58361,-25.21065],[-52.58265,-25.21118],[-52.58365,-25.21206],[-52.5844,-25.21154],[-52.58553,-25.21199],[-52.58617,-25.2149],[-52.58596,-25.21766],[-52.58664,-25.21814],[-52.58854,-25.21875],[-52.59072,-25.22009],[-52.59231,-25.22054],[-52.59372,-25.22201],[-52.59465,-25.22475],[-52.59463,-25.22662],[-52.59677,-25.2284],[-52.59769,-25.23051],[-52.59927,-25.23217],[-52.59987,-25.23375],[-52.60728,-25.23899],[-52.60417,-25.23989],[-52.60175,-25.23843],[-52.59823,-25.23827],[-52.59651,-25.23862],[-52.59127,-25.23742],[-52.58791,-25.23775],[-52.58428,-25.23566],[-52.58252,-25.23449],[-52.58049,-25.23464],[-52.57898,-25.23629],[-52.57787,-25.23879],[-52.57637,-25.23982],[-52.57391,-25.2399],[-52.57178,-25.24045],[-52.56937,-25.24198],[-52.56808,-25.24253],[-52.5662,-25.24247],[-52.56456,-25.24136],[-52.56267,-25.24046],[-52.55859,-25.24138],[-52.55546,-25.24056],[-52.55246,-25.24043],[-52.55155,-25.24023],[-52.54181,-25.24167],[-52.53892,-25.24304],[-52.53514,-25.2435],[-52.5321,-25.24275],[-52.53036,-25.24193],[-52.52889,-25.24177],[-52.52645,-25.24277],[-52.5238,-25.24407],[-52.52018,-25.24556],[-52.51448,-25.24848],[-52.51068,-25.24963],[-52.50893,-25.25062],[-52.50396,-25.25195],[-52.50303,-25.25329],[-52.49948,-25.25381],[-52.49619,-25.25346],[-52.49488,-25.25405],[-52.49257,-25.25442],[-52.48935,-25.25468],[-52.48292,-25.25356],[-52.48112,-25.25313],[-52.47953,-25.25209],[-52.47877,-25.25252],[-52.47683,-25.2543],[-52.47524,-25.25707],[-52.47256,-25.26363],[-52.47146,-25.26582],[-52.46942,-25.26783],[-52.46852,-25.26814],[-52.43925,-25.26967],[-52.42315,-25.27083],[-52.4082,-25.2723],[-52.40795,-25.27062],[-52.40886,-25.26982],[-52.40918,-25.26762],[-52.41103,-25.26625],[-52.40999,-25.26496],[-52.41084,-25.26406],[-52.41077,-25.26312],[-52.409,-25.26175],[-52.4087,-25.26081],[-52.4092,-25.25679],[-52.40918,-25.2548],[-52.41036,-25.25279],[-52.41196,-25.25152],[-52.41456,-25.25036],[-52.41651,-25.2483],[-52.44596,-25.2345],[-52.4451,-25.23322],[-52.44401,-25.23336],[-52.44215,-25.23234],[-52.44085,-25.23207],[-52.44011,-25.22928],[-52.43901,-25.22835],[-52.43901,-25.22682],[-52.43985,-25.22552],[-52.43979,-25.22483],[-52.43798,-25.22338],[-52.43745,-25.22265],[-52.43595,-25.22174],[-52.4348,-25.22064],[-52.43305,-25.22053],[-52.43256,-25.21898],[-52.43053,-25.21764],[-52.43005,-25.21649],[-52.43066,-25.21609],[-52.43215,-25.21625],[-52.43094,-25.21439],[-52.42885,-25.21325],[-52.42836,-25.21157],[-52.42607,-25.21183],[-52.4255,-25.21167],[-52.42468,-25.21038],[-52.42288,-25.21044],[-52.4224,-25.20984],[-52.42416,-25.20839],[-52.42245,-25.20797],[-52.42251,-25.20504],[-52.4215,-25.20503],[-52.42067,-25.20715],[-52.41954,-25.20737],[-52.41834,-25.2064],[-52.42023,-25.20421],[-52.42064,-25.20287],[-52.42163,-25.20247],[-52.4227,-25.20065],[-52.42104,-25.1981],[-52.42169,-25.19741],[-52.42353,-25.1967],[-52.42312,-25.19582],[-52.42098,-25.19533],[-52.42017,-25.19564],[-52.41732,-25.19569],[-52.41658,-25.19677],[-52.41468,-25.19636],[-52.41338,-25.19809],[-52.41145,-25.19701],[-52.41138,-25.19542],[-52.41062,-25.19465],[-52.41127,-25.19357],[-52.4101,-25.19279],[-52.40979,-25.19042],[-52.40859,-25.18892],[-52.40915,-25.18815],[-52.41101,-25.1878],[-52.41404,-25.1876],[-52.41497,-25.18503],[-52.41806,-25.18647],[-52.41703,-25.18921],[-52.41851,-25.18984],[-52.41977,-25.18888],[-52.42238,-25.18946],[-52.42235,-25.18875],[-52.42139,-25.18781],[-52.42128,-25.18639],[-52.42196,-25.18389],[-52.42077,-25.18487],[-52.41963,-25.18518],[-52.41948,-25.18438],[-52.42069,-25.1828],[-52.42045,-25.18199],[-52.4191,-25.18189],[-52.41895,-25.18133],[-52.42248,-25.17953],[-52.42332,-25.1808],[-52.42455,-25.18083],[-52.42646,-25.17874],[-52.42659,-25.17762]]]},"properties":{"codigo":"411705715","name":"Guaraí","population":875,"households":444,"areaKm2":165.8921,"density":5.3}},{"type":"Feature","geometry":{"type":"Polygon","coordinates":[[[-52.79376,-25.27384],[-52.72328,-25.2547],[-52.64304,-25.23411],[-52.62906,-25.23052],[-52.62947,-25.23202],[-52.62924,-25.23354],[-52.62767,-25.23807],[-52.6266,-25.24018],[-52.62734,-25.24262],[-52.62851,-25.2442],[-52.62925,-25.24792],[-52.62876,-25.24862],[-52.6272,-25.24987],[-52.62679,-25.25176],[-52.62481,-25.25541],[-52.62562,-25.25663],[-52.62761,-25.25779],[-52.62841,-25.25875],[-52.62793,-25.25972],[-52.62358,-25.26248],[-52.62309,-25.2631],[-52.62355,-25.26388],[-52.62518,-25.26409],[-52.62573,-25.26487],[-52.62485,-25.26589],[-52.6187,-25.26595],[-52.61538,-25.26893],[-52.61126,-25.27063],[-52.60819,-25.26928],[-52.60828,-25.26864],[-52.60731,-25.26678],[-52.60784,-25.26592],[-52.60528,-25.26326],[-52.60473,-25.26338],[-52.60304,-25.26086],[-52.60052,-25.25894],[-52.60047,-25.2579],[-52.60098,-25.257],[-52.60478,-25.25402],[-52.60583,-25.25281],[-52.60683,-25.25234],[-52.60829,-25.25049],[-52.60924,-25.24972],[-52.61105,-25.2499],[-52.61287,-25.24951],[-52.61282,-25.24789],[-52.61196,-25.24614],[-52.612,-25.24561],[-52.60864,-25.24383],[-52.60622,-25.2435],[-52.60554,-25.2428],[-52.6052,-25.24167],[-52.60417,-25.23989],[-52.60728,-25.23899],[-52.59987,-25.23375],[-52.59927,-25.23217],[-52.59769,-25.23051],[-52.59677,-25.2284],[-52.59463,-25.22662],[-52.59465,-25.22475],[-52.59372,-25.22201],[-52.59231,-25.22054],[-52.59072,-25.22009],[-52.58854,-25.21875],[-52.58664,-25.21814],[-52.58596,-25.21766],[-52.58617,-25.2149],[-52.58553,-25.21199],[-52.5844,-25.21154],[-52.58365,-25.21206],[-52.58265,-25.21118],[-52.58361,-25.21065],[-52.58377,-25.20905],[-52.58231,-25.21021],[-52.58139,-25.2099],[-52.58089,-25.20864],[-52.58172,-25.20787],[-52.58089,-25.20672],[-52.58209,-25.20594],[-52.58228,-25.20534],[-52.5806,-25.20513],[-52.58005,-25.20412],[-52.58135,-25.20403],[-52.58174,-25.20346],[-52.57908,-25.20114],[-52.57969,-25.19996],[-52.58144,-25.1995],[-52.58118,-25.19721],[-52.57964,-25.19671],[-52.57894,-25.19615],[-52.5788,-25.19478],[-52.57741,-25.19538],[-52.57603,-25.19519],[-52.57489,-25.19392],[-52.57384,-25.19324],[-52.57272,-25.19191],[-52.57042,-25.19249],[-52.56894,-25.19146],[-52.56681,-25.19059],[-52.56691,-25.18977],[-52.56852,-25.18862],[-52.56905,-25.18629],[-52.56664,-25.1865],[-52.56564,-25.18537],[-52.56714,-25.18399],[-52.56903,-25.18384],[-52.56845,-25.18141],[-52.56903,-25.18083],[-52.57212,-25.18211],[-52.5733,-25.18402],[-52.57414,-25.18421],[-52.57589,-25.18314],[-52.57471,-25.1817],[-52.5744,-25.18011],[-52.57266,-25.17912],[-52.57201,-25.17833],[-52.5722,-25.17751],[-52.57342,-25.17675],[-52.5724,-25.17531],[-52.57506,-25.17466],[-52.57535,-25.17429],[-52.57653,-25.17069],[-52.57641,-25.16962],[-52.57555,-25.16901],[-52.57256,-25.16893],[-52.57114,-25.16912],[-52.57055,-25.16793],[-52.57129,-25.16683],[-52.57093,-25.16575],[-52.57006,-25.16529],[-52.56776,-25.16517],[-52.56755,-25.16428],[-52.56936,-25.16295],[-52.56897,-25.1608],[-52.57076,-25.15933],[-52.57087,-25.1589],[-52.57241,-25.15927],[-52.57369,-25.15911],[-52.57597,-25.15799],[-52.57836,-25.15743],[-52.57955,-25.15671],[-52.58072,-25.15721],[-52.58135,-25.15794],[-52.58282,-25.15878],[-52.58316,-25.16137],[-52.5839,-25.16261],[-52.58479,-25.16332],[-52.58813,-25.16418],[-52.58873,-25.16409],[-52.59018,-25.163],[-52.59201,-25.16379],[-52.59407,-25.16353],[-52.5959,-25.16407],[-52.59789,-25.16332],[-52.59985,-25.16294],[-52.60375,-25.1617],[-52.6045,-25.16131],[-52.607,-25.16082],[-52.60989,-25.15976],[-52.61197,-25.15859],[-52.61373,-25.15673],[-52.61548,-25.15587],[-52.61687,-25.15611],[-52.61881,-25.15713],[-52.61983,-25.15807],[-52.6211,-25.16056],[-52.62104,-25.16165],[-52.62166,-25.16262],[-52.62484,-25.16192],[-52.62495,-25.16338],[-52.62538,-25.16454],[-52.62495,-25.1657],[-52.62528,-25.16653],[-52.62532,-25.16851],[-52.62705,-25.16872],[-52.63272,-25.17031],[-52.63389,-25.1718],[-52.63537,-25.17084],[-52.63712,-25.16882],[-52.63879,-25.16543],[-52.64245,-25.16352],[-52.64271,-25.15883],[-52.64212,-25.15734],[-52.64254,-25.15655],[-52.64378,-25.15748],[-52.64448,-25.15941],[-52.64544,-25.16294],[-52.6472,-25.16568],[-52.64728,-25.16705],[-52.6495,-25.17108],[-52.64947,-25.17342],[-52.64898,-25.17511],[-52.64919,-25.17632],[-52.65216,-25.17965],[-52.65304,-25.1809],[-52.6531,-25.18165],[-52.65238,-25.18426],[-52.65273,-25.18619],[-52.65399,-25.18762],[-52.65489,-25.18801],[-52.65785,-25.18845],[-52.65853,-25.18785],[-52.65705,-25.19078],[-52.65497,-25.19821],[-52.65447,-25.20066],[-52.65562,-25.20172],[-52.65624,-25.20363],[-52.65768,-25.20406],[-52.65864,-25.20323],[-52.65926,-25.20349],[-52.6601,-25.20552],[-52.66092,-25.20599],[-52.66312,-25.2048],[-52.66369,-25.20401],[-52.66498,-25.20352],[-52.6669,-25.2024],[-52.66884,-25.20067],[-52.66949,-25.20059],[-52.67298,-25.20105],[-52.67503,-25.20181],[-52.67577,-25.20258],[-52.67591,-25.2035],[-52.6774,-25.20512],[-52.6783,-25.20728],[-52.6802,-25.20889],[-52.68076,-25.21027],[-52.68194,-25.21113],[-52.68354,-25.2105],[-52.68578,-25.21048],[-52.68808,-25.21145],[-52.68947,-25.21159],[-52.69061,-25.21066],[-52.69088,-25.20884],[-52.6918,-25.20787],[-52.69339,-25.20811],[-52.69477,-25.20919],[-52.69464,-25.21116],[-52.69534,-25.21222],[-52.69732,-25.21079],[-52.6978,-25.21121],[-52.69672,-25.21289],[-52.69543,-25.2138],[-52.69531,-25.21447],[-52.69635,-25.21546],[-52.69789,-25.21635],[-52.70096,-25.21739],[-52.70165,-25.21694],[-52.70171,-25.21556],[-52.70307,-25.21505],[-52.70403,-25.21656],[-52.7057,-25.21702],[-52.70643,-25.21653],[-52.70558,-25.21526],[-52.70588,-25.21431],[-52.70754,-25.21316],[-52.7114,-25.21361],[-52.71797,-25.21267],[-52.72013,-25.21279],[-52.72172,-25.21255],[-52.72337,-25.21424],[-52.72215,-25.21542],[-52.72192,-25.2165],[-52.7236,-25.21752],[-52.7262,-25.21758],[-52.72732,-25.21634],[-52.72978,-25.21739],[-52.732,-25.21764],[-52.73428,-25.21717],[-52.73523,-25.21846],[-52.73485,-25.22002],[-52.73438,-25.22324],[-52.73469,-25.22431],[-52.73593,-25.22607],[-52.73815,-25.22562],[-52.73909,-25.22576],[-52.73918,-25.22672],[-52.73848,-25.22851],[-52.73899,-25.2295],[-52.74086,-25.22832],[-52.74035,-25.22706],[-52.74075,-25.2265],[-52.74411,-25.2264],[-52.74554,-25.22698],[-52.74503,-25.2284],[-52.74533,-25.22917],[-52.7468,-25.2293],[-52.74846,-25.22982],[-52.74947,-25.22918],[-52.74984,-25.22654],[-52.75377,-25.22655],[-52.75367,-25.22744],[-52.75201,-25.22861],[-52.75107,-25.23001],[-52.75104,-25.23097],[-52.75207,-25.23126],[-52.75324,-25.23084],[-52.75516,-25.23112],[-52.75845,-25.23125],[-52.75891,-25.23198],[-52.7586,-25.23336],[-52.76068,-25.23491],[-52.75931,-25.23611],[-52.76034,-25.23681],[-52.76236,-25.23511],[-52.76392,-25.23463],[-52.76576,-25.2349],[-52.76738,-25.23711],[-52.76815,-25.23743],[-52.77008,-25.23684],[-52.77052,-25.23613],[-52.77058,-25.23446],[-52.76977,-25.23228],[-52.76986,-25.23133],[-52.771,-25.23076],[-52.77376,-25.22995],[-52.77438,-25.23079],[-52.77328,-25.23194],[-52.77324,-25.23253],[-52.77423,-25.23341],[-52.77575,-25.23384],[-52.77577,-25.23532],[-52.77613,-25.23638],[-52.77448,-25.23743],[-52.77409,-25.23926],[-52.77467,-25.23981],[-52.77676,-25.23888],[-52.77727,-25.24005],[-52.77613,-25.24074],[-52.77505,-25.2419],[-52.77525,-25.24269],[-52.77516,-25.24485],[-52.7766,-25.24594],[-52.77698,-25.24675],[-52.77638,-25.24784],[-52.77715,-25.24889],[-52.77858,-25.24939],[-52.78078,-25.24921],[-52.7815,-25.24805],[-52.78287,-25.24858],[-52.78487,-25.25115],[-52.78492,-25.25219],[-52.78604,-25.25306],[-52.78706,-25.25192],[-52.78679,-25.24981],[-52.787,-25.24799],[-52.7881,-25.24775],[-52.78924,-25.24898],[-52.79101,-25.24978],[-52.79348,-25.24919],[-52.79388,-25.2487],[-52.79416,-25.24701],[-52.79552,-25.24733],[-52.79561,-25.25078],[-52.79344,-25.25175],[-52.79304,-25.25521],[-52.79333,-25.25667],[-52.79449,-25.25754],[-52.79777,-25.25665],[-52.79902,-25.25693],[-52.80011,-25.25631],[-52.79856,-25.2531],[-52.79936,-25.25249],[-52.80106,-25.25283],[-52.80426,-25.25438],[-52.80511,-25.2537],[-52.80396,-25.25166],[-52.80381,-25.25016],[-52.80445,-25.24895],[-52.80575,-25.24852],[-52.80739,-25.24854],[-52.80974,-25.2499],[-52.8114,-25.25181],[-52.81214,-25.25225],[-52.81307,-25.25205],[-52.81428,-25.25118],[-52.81486,-25.25125],[-52.8167,-25.25336],[-52.81854,-25.25367],[-52.82019,-25.25206],[-52.82164,-25.25228],[-52.82312,-25.25352],[-52.82595,-25.25186],[-52.82845,-25.25224],[-52.83073,-25.25228],[-52.83009,-25.25348],[-52.82959,-25.2553],[-52.82971,-25.25775],[-52.83013,-25.25856],[-52.83595,-25.25793],[-52.84028,-25.25854],[-52.84279,-25.2577],[-52.84341,-25.2584],[-52.84222,-25.26019],[-52.84168,-25.26198],[-52.8406,-25.26351],[-52.83745,-25.26548],[-52.83641,-25.26698],[-52.8361,-25.26794],[-52.83653,-25.26905],[-52.83723,-25.2693],[-52.83958,-25.26898],[-52.83992,-25.26949],[-52.83849,-25.2724],[-52.84,-25.27354],[-52.79376,-25.27384]]]},"properties":{"codigo":"411705720","name":"Guarani","population":1019,"households":497,"areaKm2":128.8572,"density":7.9}},{"type":"Feature","geometry":{"type":"Polygon","coordinates":[[[-52.53414,-25.04533],[-52.53359,-25.04629],[-52.53058,-25.05023],[-52.52898,-25.05179],[-52.52726,-25.05262],[-52.5227,-25.0541],[-52.52121,-25.05504],[-52.5206,-25.05606],[-52.52051,-25.05717],[-52.5212,-25.06202],[-52.52201,-25.06359],[-52.52279,-25.0631],[-52.52415,-25.05996],[-52.52502,-25.05919],[-52.52716,-25.05927],[-52.52945,-25.05903],[-52.5318,-25.05834],[-52.53268,-25.05876],[-52.53252,-25.05949],[-52.53063,-25.06056],[-52.53013,-25.06111],[-52.52971,-25.06265],[-52.52987,-25.06427],[-52.5293,-25.06654],[-52.52893,-25.06701],[-52.52654,-25.06799],[-52.52602,-25.06914],[-52.52714,-25.07012],[-52.52986,-25.07165],[-52.5316,-25.07202],[-52.53461,-25.07126],[-52.53708,-25.07001],[-52.53819,-25.07061],[-52.53779,-25.07167],[-52.53843,-25.07386],[-52.53753,-25.0753],[-52.53619,-25.07576],[-52.53339,-25.07572],[-52.53086,-25.07591],[-52.52908,-25.07635],[-52.52684,-25.0777],[-52.52312,-25.07874],[-52.52284,-25.07939],[-52.5233,-25.08053],[-52.52491,-25.08252],[-52.52763,-25.08298],[-52.52905,-25.0837],[-52.52934,-25.08424],[-52.52797,-25.08538],[-52.52757,-25.08695],[-52.52595,-25.08827],[-52.52456,-25.09086],[-52.52325,-25.09222],[-52.5222,-25.09228],[-52.52114,-25.09138],[-52.51768,-25.0903],[-52.51703,-25.09081],[-52.51773,-25.09238],[-52.51688,-25.09315],[-52.51615,-25.09439],[-52.51415,-25.09551],[-52.51403,-25.09675],[-52.51696,-25.09988],[-52.5189,-25.10052],[-52.5248,-25.10142],[-52.52761,-25.10263],[-52.52727,-25.10354],[-52.52473,-25.10396],[-52.521,-25.10413],[-52.51816,-25.10522],[-52.51651,-25.10604],[-52.51554,-25.10688],[-52.51564,-25.10881],[-52.51681,-25.10991],[-52.51802,-25.11018],[-52.51945,-25.10964],[-52.52249,-25.10997],[-52.52546,-25.11062],[-52.52657,-25.11042],[-52.52731,-25.10942],[-52.5279,-25.10943],[-52.52918,-25.11067],[-52.52971,-25.11187],[-52.52941,-25.11408],[-52.52976,-25.11506],[-52.53186,-25.1167],[-52.53147,-25.11773],[-52.52906,-25.1191],[-52.52754,-25.11918],[-52.52671,-25.11866],[-52.52618,-25.11671],[-52.52549,-25.11627],[-52.52425,-25.11667],[-52.52045,-25.11893],[-52.52117,-25.12155],[-52.52182,-25.12295],[-52.5226,-25.12376],[-52.52426,-25.12393],[-52.524,-25.12468],[-52.52088,-25.12585],[-52.51944,-25.12703],[-52.51791,-25.12761],[-52.5183,-25.12883],[-52.5202,-25.12957],[-52.52138,-25.13032],[-52.52143,-25.13286],[-52.52313,-25.13435],[-52.52437,-25.13463],[-52.52647,-25.13431],[-52.52737,-25.13515],[-52.52537,-25.13596],[-52.5246,-25.13772],[-52.52333,-25.13902],[-52.52252,-25.14117],[-52.52351,-25.1436],[-52.52403,-25.14384],[-52.5257,-25.14207],[-52.52688,-25.1414],[-52.52924,-25.14078],[-52.52996,-25.14144],[-52.52926,-25.14253],[-52.52686,-25.14516],[-52.52695,-25.14582],[-52.52988,-25.14826],[-52.53019,-25.14936],[-52.52923,-25.15008],[-52.52557,-25.15038],[-52.52352,-25.15073],[-52.5225,-25.15393],[-52.52121,-25.1546],[-52.51935,-25.15512],[-52.51718,-25.15377],[-52.51524,-25.15402],[-52.51445,-25.15446],[-52.5128,-25.15616],[-52.5116,-25.15777],[-52.5103,-25.15828],[-52.50916,-25.15796],[-52.50784,-25.15815],[-52.50445,-25.16005],[-52.50379,-25.161],[-52.49997,-25.16282],[-52.49959,-25.16406],[-52.49915,-25.16748],[-52.49759,-25.16856],[-52.49614,-25.16857],[-52.49359,-25.16793],[-52.49277,-25.1684],[-52.49157,-25.1684],[-52.49094,-25.16955],[-52.48819,-25.17233],[-52.48714,-25.17298],[-52.48466,-25.1738],[-52.48403,-25.1753],[-52.48157,-25.17751],[-52.47832,-25.17893],[-52.47627,-25.17832],[-52.4738,-25.179],[-52.47255,-25.18005],[-52.46959,-25.18326],[-52.46737,-25.18359],[-52.46662,-25.18426],[-52.46468,-25.18479],[-52.46168,-25.18531],[-52.46216,-25.18668],[-52.46203,-25.18771],[-52.45854,-25.19198],[-52.45758,-25.19566],[-52.45699,-25.19455],[-52.45586,-25.19403],[-52.45472,-25.1926],[-52.45257,-25.19131],[-52.44976,-25.18819],[-52.44859,-25.18775],[-52.4472,-25.18667],[-52.44532,-25.18562],[-52.44447,-25.18416],[-52.44138,-25.18361],[-52.43711,-25.18374],[-52.43395,-25.1853],[-52.43294,-25.1843],[-52.43289,-25.18307],[-52.43347,-25.18247],[-52.43423,-25.18042],[-52.43261,-25.17902],[-52.43103,-25.17921],[-52.42659,-25.17762],[-52.42527,-25.17598],[-52.42507,-25.17443],[-52.42426,-25.17409],[-52.4218,-25.17403],[-52.42066,-25.17617],[-52.41877,-25.17572],[-52.41781,-25.17427],[-52.41613,-25.17452],[-52.41437,-25.17372],[-52.41354,-25.17136],[-52.41353,-25.17067],[-52.41582,-25.17006],[-52.41688,-25.16777],[-52.41749,-25.16742],[-52.41781,-25.16604],[-52.41466,-25.16622],[-52.41125,-25.16557],[-52.4104,-25.16519],[-52.41029,-25.16415],[-52.41191,-25.16343],[-52.41218,-25.16158],[-52.41509,-25.15995],[-52.41594,-25.15816],[-52.41433,-25.15761],[-52.4145,-25.15611],[-52.41629,-25.15553],[-52.41691,-25.15434],[-52.41657,-25.1534],[-52.41586,-25.15332],[-52.41351,-25.15386],[-52.41271,-25.15425],[-52.41171,-25.15617],[-52.4113,-25.15756],[-52.41069,-25.15812],[-52.40702,-25.15766],[-52.40664,-25.15689],[-52.40949,-25.15428],[-52.41035,-25.15313],[-52.41034,-25.1524],[-52.40914,-25.15022],[-52.40908,-25.14957],[-52.40993,-25.14887],[-52.41087,-25.14887],[-52.41432,-25.15114],[-52.41434,-25.14825],[-52.41417,-25.14758],[-52.41462,-25.14582],[-52.41333,-25.14505],[-52.41292,-25.1457],[-52.41159,-25.14593],[-52.41045,-25.14695],[-52.40979,-25.14692],[-52.40883,-25.14594],[-52.40914,-25.1446],[-52.41033,-25.14276],[-52.41131,-25.14167],[-52.41232,-25.13891],[-52.41159,-25.13775],[-52.41134,-25.13663],[-52.41056,-25.13649],[-52.40718,-25.13825],[-52.40628,-25.13795],[-52.40491,-25.13822],[-52.40462,-25.13937],[-52.40363,-25.14007],[-52.40341,-25.14101],[-52.40162,-25.14185],[-52.39908,-25.14073],[-52.39883,-25.13979],[-52.39986,-25.13879],[-52.39975,-25.1378],[-52.39871,-25.13764],[-52.39643,-25.13833],[-52.39616,-25.1394],[-52.39701,-25.14],[-52.39713,-25.14198],[-52.39788,-25.14337],[-52.39537,-25.14335],[-52.39463,-25.14443],[-52.39322,-25.14335],[-52.39307,-25.14236],[-52.39168,-25.14104],[-52.39248,-25.14004],[-52.39125,-25.13758],[-52.39161,-25.1368],[-52.39307,-25.13623],[-52.3953,-25.13642],[-52.39588,-25.13562],[-52.396,-25.13437],[-52.39571,-25.13316],[-52.39466,-25.13197],[-52.39313,-25.13091],[-52.3935,-25.13039],[-52.39546,-25.13044],[-52.39642,-25.13116],[-52.39809,-25.13312],[-52.3997,-25.13246],[-52.39994,-25.1314],[-52.39893,-25.12961],[-52.39656,-25.12872],[-52.39687,-25.12765],[-52.39897,-25.1279],[-52.40251,-25.12914],[-52.40677,-25.13116],[-52.40812,-25.13139],[-52.40905,-25.13117],[-52.4097,-25.12963],[-52.40942,-25.12728],[-52.40836,-25.12593],[-52.40534,-25.1234],[-52.40494,-25.12238],[-52.40485,-25.12031],[-52.40604,-25.11915],[-52.40651,-25.11554],[-52.40715,-25.11504],[-52.41069,-25.1133],[-52.41382,-25.113],[-52.41597,-25.11172],[-52.41897,-25.11091],[-52.41912,-25.10984],[-52.41858,-25.10944],[-52.41423,-25.10787],[-52.41299,-25.10716],[-52.41194,-25.10272],[-52.4112,-25.10193],[-52.40869,-25.10113],[-52.40636,-25.10092],[-52.40395,-25.10045],[-52.39949,-25.10011],[-52.39646,-25.09945],[-52.39507,-25.09873],[-52.39377,-25.09747],[-52.39228,-25.09521],[-52.39303,-25.0933],[-52.39512,-25.09207],[-52.40278,-25.09191],[-52.40561,-25.09065],[-52.41089,-25.08615],[-52.41635,-25.08362],[-52.4205,-25.0833],[-52.42071,-25.08244],[-52.41691,-25.08165],[-52.41611,-25.08162],[-52.41365,-25.08084],[-52.40999,-25.07776],[-52.40817,-25.07545],[-52.4067,-25.07433],[-52.40529,-25.07372],[-52.40339,-25.07369],[-52.40217,-25.07306],[-52.40169,-25.07162],[-52.40252,-25.06872],[-52.40227,-25.06686],[-52.40111,-25.06524],[-52.39937,-25.06401],[-52.39922,-25.0632],[-52.40059,-25.06215],[-52.40295,-25.06211],[-52.40482,-25.06132],[-52.40562,-25.06049],[-52.40542,-25.05712],[-52.40557,-25.05636],[-52.40623,-25.05358],[-52.40726,-25.04395],[-52.40873,-25.04069],[-52.409,-25.03833],[-52.4099,-25.03397],[-52.41117,-25.03198],[-52.41218,-25.0309],[-52.41357,-25.03028],[-52.41548,-25.03013],[-52.4184,-25.03074],[-52.4201,-25.03213],[-52.4228,-25.03606],[-52.42424,-25.03702],[-52.42719,-25.03766],[-52.42917,-25.03744],[-52.4307,-25.03629],[-52.43142,-25.03521],[-52.43144,-25.0337],[-52.43077,-25.0329],[-52.42305,-25.02986],[-52.42106,-25.0288],[-52.41957,-25.02728],[-52.41583,-25.02493],[-52.41442,-25.0234],[-52.41168,-25.01864],[-52.41086,-25.01662],[-52.4108,-25.01579],[-52.41159,-25.01464],[-52.41358,-25.01456],[-52.41768,-25.0177],[-52.42022,-25.0185],[-52.42192,-25.01956],[-52.42335,-25.01984],[-52.42644,-25.02003],[-52.4309,-25.01961],[-52.4351,-25.01986],[-52.43655,-25.0207],[-52.43697,-25.02137],[-52.43708,-25.0231],[-52.43675,-25.02691],[-52.43717,-25.02931],[-52.43888,-25.03217],[-52.44063,-25.03424],[-52.44287,-25.03728],[-52.44587,-25.04213],[-52.44741,-25.04366],[-52.44949,-25.04399],[-52.45077,-25.04387],[-52.45329,-25.04262],[-52.45397,-25.04125],[-52.4529,-25.03969],[-52.45347,-25.03723],[-52.45323,-25.03414],[-52.45339,-25.03149],[-52.45411,-25.02935],[-52.45472,-25.02852],[-52.45643,-25.02762],[-52.46264,-25.0274],[-52.46401,-25.0263],[-52.4651,-25.02484],[-52.4666,-25.02419],[-52.46766,-25.02485],[-52.46808,-25.02826],[-52.4685,-25.03014],[-52.47007,-25.03125],[-52.4741,-25.03006],[-52.47706,-25.02866],[-52.47846,-25.02781],[-52.47999,-25.0263],[-52.48165,-25.02422],[-52.48227,-25.02206],[-52.48205,-25.01969],[-52.48099,-25.01687],[-52.48095,-25.01591],[-52.47963,-25.01347],[-52.47927,-25.01096],[-52.47944,-25.00859],[-52.48063,-25.00513],[-52.48184,-25.00347],[-52.4832,-25.00025],[-52.4841,-24.99891],[-52.48555,-24.99836],[-52.48638,-24.999],[-52.48747,-25.00213],[-52.492,-25.00646],[-52.49529,-25.01],[-52.49729,-25.01148],[-52.49831,-25.01285],[-52.49873,-25.01413],[-52.49885,-25.01664],[-52.49735,-25.01798],[-52.49373,-25.01935],[-52.48921,-25.02068],[-52.48718,-25.02209],[-52.48538,-25.02499],[-52.48557,-25.02642],[-52.48633,-25.02695],[-52.48886,-25.02735],[-52.49067,-25.02744],[-52.49391,-25.02693],[-52.49734,-25.02513],[-52.49868,-25.02469],[-52.50172,-25.02441],[-52.50354,-25.02503],[-52.50411,-25.02581],[-52.50496,-25.02835],[-52.50499,-25.03075],[-52.50618,-25.03235],[-52.50733,-25.03241],[-52.50949,-25.03074],[-52.51062,-25.0293],[-52.51148,-25.02734],[-52.51229,-25.02629],[-52.51376,-25.02511],[-52.51662,-25.02396],[-52.51838,-25.02431],[-52.51971,-25.02513],[-52.52162,-25.02747],[-52.52209,-25.02862],[-52.52213,-25.03039],[-52.52113,-25.03238],[-52.5179,-25.03594],[-52.51521,-25.03788],[-52.51395,-25.03917],[-52.51307,-25.04079],[-52.51218,-25.0441],[-52.5131,-25.04844],[-52.51373,-25.0494],[-52.51499,-25.05014],[-52.51792,-25.05041],[-52.52075,-25.04993],[-52.52253,-25.04928],[-52.52371,-25.04844],[-52.5267,-25.04687],[-52.52817,-25.04633],[-52.53414,-25.04533]]]},"properties":{"codigo":"411705730","name":"Rio da Prata","population":936,"households":474,"areaKm2":193.7182,"density":4.8}}]}