{"type":"FeatureCollection","features":[{"type":"Feature","geometry":{"type":"Polygon","coordinates":[[[-52.4208,-23.37452],[-52.4207,-23.35511],[-52.4208,-23.34916],[-52.42112,-23.34506],[-52.4212,-23.33182],[-52.42079,-23.31859],[-52.42083,-23.29213],[-52.42124,-23.26607],[-52.47902,-23.2661],[-52.54468,-23.26611],[-52.54481,-23.26664],[-52.54688,-23.26783],[-52.5485,-23.26824],[-52.54938,-23.26884],[-52.55228,-23.26925],[-52.55336,-23.26977],[-52.55505,-23.26973],[-52.55618,-23.27006],[-52.55743,-23.26977],[-52.56152,-23.27185],[-52.56351,-23.27316],[-52.56324,-23.27481],[-52.56422,-23.27744],[-52.56524,-23.27664],[-52.56622,-23.27682],[-52.56738,-23.27876],[-52.56968,-23.28007],[-52.5719,-23.28266],[-52.57497,-23.28489],[-52.57613,-23.28475],[-52.57697,-23.28649],[-52.57697,-23.28722],[-52.57827,-23.28778],[-52.5794,-23.28972],[-52.57926,-23.29072],[-52.56814,-23.29158],[-52.56665,-23.29183],[-52.56324,-23.29282],[-52.56149,-23.29294],[-52.5616,-23.29346],[-52.55561,-23.29624],[-52.54293,-23.29943],[-52.54233,-23.2981],[-52.54228,-23.29688],[-52.54049,-23.29366],[-52.54016,-23.2916],[-52.53938,-23.2899],[-52.53894,-23.28647],[-52.52878,-23.28144],[-52.52807,-23.28306],[-52.52785,-23.28436],[-52.5291,-23.28765],[-52.52837,-23.28993],[-52.52752,-23.29133],[-52.52723,-23.29482],[-52.52611,-23.29593],[-52.52472,-23.29901],[-52.52315,-23.30106],[-52.52365,-23.30242],[-52.52477,-23.30367],[-52.52502,-23.30476],[-52.52477,-23.30585],[-52.52518,-23.30778],[-52.52606,-23.30894],[-52.52636,-23.31019],[-52.52776,-23.31133],[-52.52805,-23.3128],[-52.52691,-23.31317],[-52.52656,-23.31419],[-52.5267,-23.31601],[-52.52645,-23.31752],[-52.52712,-23.31944],[-52.52652,-23.32062],[-52.52797,-23.32077],[-52.52909,-23.32128],[-52.52787,-23.32244],[-52.52638,-23.3227],[-52.52461,-23.3221],[-52.52317,-23.32272],[-52.52249,-23.32182],[-52.52235,-23.32003],[-52.52277,-23.31887],[-52.52242,-23.31818],[-52.52124,-23.31817],[-52.5195,-23.31989],[-52.51881,-23.32006],[-52.51802,-23.31928],[-52.51832,-23.31812],[-52.51795,-23.31747],[-52.51582,-23.31719],[-52.5144,-23.31824],[-52.51324,-23.3176],[-52.5118,-23.3162],[-52.51117,-23.31464],[-52.50997,-23.31422],[-52.50808,-23.31444],[-52.50664,-23.31344],[-52.50441,-23.31373],[-52.50206,-23.3132],[-52.50011,-23.31462],[-52.48895,-23.32041],[-52.48743,-23.32115],[-52.48237,-23.32395],[-52.49182,-23.34077],[-52.47707,-23.34795],[-52.46677,-23.35302],[-52.46708,-23.35518],[-52.4677,-23.35587],[-52.46757,-23.35683],[-52.46858,-23.35696],[-52.46998,-23.35771],[-52.47059,-23.35863],[-52.47297,-23.36009],[-52.47276,-23.36065],[-52.47387,-23.36254],[-52.47439,-23.36283],[-52.4766,-23.36292],[-52.47786,-23.36354],[-52.48046,-23.36407],[-52.48243,-23.36394],[-52.48308,-23.36357],[-52.48453,-23.364],[-52.48643,-23.36559],[-52.48772,-23.36754],[-52.48737,-23.36861],[-52.48853,-23.37044],[-52.48852,-23.37115],[-52.49032,-23.37325],[-52.49061,-23.37521],[-52.49227,-23.37651],[-52.4927,-23.37763],[-52.4943,-23.37898],[-52.49564,-23.37891],[-52.49656,-23.37967],[-52.49856,-23.37958],[-52.4991,-23.38033],[-52.50144,-23.38037],[-52.50276,-23.38071],[-52.50431,-23.38061],[-52.50649,-23.37869],[-52.50757,-23.37867],[-52.50817,-23.37781],[-52.50947,-23.37725],[-52.51069,-23.37758],[-52.51252,-23.37868],[-52.51398,-23.37885],[-52.51096,-23.38109],[-52.50817,-23.38402],[-52.50558,-23.38575],[-52.50299,-23.38708],[-52.49853,-23.38823],[-52.49497,-23.3887],[-52.49322,-23.38871],[-52.49052,-23.38845],[-52.48933,-23.38855],[-52.4875,-23.38911],[-52.48458,-23.39161],[-52.4823,-23.39402],[-52.47717,-23.40148],[-52.47531,-23.40523],[-52.47464,-23.40715],[-52.47416,-23.41154],[-52.47244,-23.41645],[-52.4723,-23.41818],[-52.47433,-23.4227],[-52.47482,-23.42479],[-52.475,-23.42692],[-52.47463,-23.43216],[-52.47431,-23.43347],[-52.4738,-23.4389],[-52.47263,-23.4446],[-52.47224,-23.45021],[-52.47174,-23.45301],[-52.47122,-23.45412],[-52.46911,-23.4549],[-52.46648,-23.45507],[-52.46452,-23.45462],[-52.46371,-23.4542],[-52.45536,-23.45288],[-52.45311,-23.45306],[-52.45136,-23.45374],[-52.44867,-23.45526],[-52.44661,-23.45697],[-52.44346,-23.45814],[-52.43997,-23.45912],[-52.43567,-23.46138],[-52.43319,-23.46333],[-52.42856,-23.46651],[-52.42314,-23.4689],[-52.42197,-23.4697],[-52.4212,-23.41329],[-52.42089,-23.39113],[-52.4208,-23.37452]]]},"properties":{"codigo":"412460805","name":"São Carlos do Ivaí","population":6550,"households":2723,"areaKm2":168.4272,"density":38.9}},{"type":"Feature","geometry":{"type":"Polygon","coordinates":[[[-52.51398,-23.37885],[-52.51252,-23.37868],[-52.51069,-23.37758],[-52.50947,-23.37725],[-52.50817,-23.37781],[-52.50757,-23.37867],[-52.50649,-23.37869],[-52.50431,-23.38061],[-52.50276,-23.38071],[-52.50144,-23.38037],[-52.4991,-23.38033],[-52.49856,-23.37958],[-52.49656,-23.37967],[-52.49564,-23.37891],[-52.4943,-23.37898],[-52.4927,-23.37763],[-52.49227,-23.37651],[-52.49061,-23.37521],[-52.49032,-23.37325],[-52.48852,-23.37115],[-52.48853,-23.37044],[-52.48737,-23.36861],[-52.48772,-23.36754],[-52.48643,-23.36559],[-52.48453,-23.364],[-52.48308,-23.36357],[-52.48243,-23.36394],[-52.48046,-23.36407],[-52.47786,-23.36354],[-52.4766,-23.36292],[-52.47439,-23.36283],[-52.47387,-23.36254],[-52.47276,-23.36065],[-52.47297,-23.36009],[-52.47059,-23.35863],[-52.46998,-23.35771],[-52.46858,-23.35696],[-52.46757,-23.35683],[-52.4677,-23.35587],[-52.46708,-23.35518],[-52.46677,-23.35302],[-52.47707,-23.34795],[-52.49182,-23.34077],[-52.48237,-23.32395],[-52.48743,-23.32115],[-52.48895,-23.32041],[-52.50011,-23.31462],[-52.50206,-23.3132],[-52.50441,-23.31373],[-52.50664,-23.31344],[-52.50808,-23.31444],[-52.50997,-23.31422],[-52.51117,-23.31464],[-52.5118,-23.3162],[-52.51324,-23.3176],[-52.5144,-23.31824],[-52.51582,-23.31719],[-52.51795,-23.31747],[-52.51832,-23.31812],[-52.51802,-23.31928],[-52.51881,-23.32006],[-52.5195,-23.31989],[-52.52124,-23.31817],[-52.52242,-23.31818],[-52.52277,-23.31887],[-52.52235,-23.32003],[-52.52249,-23.32182],[-52.52317,-23.32272],[-52.52461,-23.3221],[-52.52638,-23.3227],[-52.52787,-23.32244],[-52.52909,-23.32128],[-52.52797,-23.32077],[-52.52652,-23.32062],[-52.52712,-23.31944],[-52.52645,-23.31752],[-52.5267,-23.31601],[-52.52656,-23.31419],[-52.52691,-23.31317],[-52.52805,-23.3128],[-52.52776,-23.31133],[-52.52636,-23.31019],[-52.52606,-23.30894],[-52.52518,-23.30778],[-52.52477,-23.30585],[-52.52502,-23.30476],[-52.52477,-23.30367],[-52.52365,-23.30242],[-52.52315,-23.30106],[-52.52472,-23.29901],[-52.52611,-23.29593],[-52.52723,-23.29482],[-52.52752,-23.29133],[-52.52837,-23.28993],[-52.5291,-23.28765],[-52.52785,-23.28436],[-52.52807,-23.28306],[-52.52878,-23.28144],[-52.53894,-23.28647],[-52.53938,-23.2899],[-52.54016,-23.2916],[-52.54049,-23.29366],[-52.54228,-23.29688],[-52.54233,-23.2981],[-52.54293,-23.29943],[-52.55561,-23.29624],[-52.5616,-23.29346],[-52.56075,-23.29405],[-52.56081,-23.29493],[-52.56022,-23.29804],[-52.55971,-23.29986],[-52.5605,-23.30174],[-52.56059,-23.30507],[-52.56011,-23.30619],[-52.56007,-23.30797],[-52.55963,-23.30901],[-52.5592,-23.31162],[-52.5582,-23.31381],[-52.55712,-23.31473],[-52.55664,-23.31647],[-52.55682,-23.31742],[-52.55655,-23.31867],[-52.55717,-23.31957],[-52.5572,-23.32058],[-52.55819,-23.32168],[-52.55932,-23.32211],[-52.56049,-23.3253],[-52.56191,-23.32586],[-52.56201,-23.32676],[-52.56284,-23.32708],[-52.56363,-23.32826],[-52.56347,-23.33053],[-52.56268,-23.33157],[-52.56378,-23.33204],[-52.5663,-23.33154],[-52.57016,-23.33151],[-52.57114,-23.3318],[-52.5724,-23.33109],[-52.57348,-23.33195],[-52.56433,-23.34298],[-52.56144,-23.34577],[-52.55746,-23.35011],[-52.55359,-23.35317],[-52.55031,-23.3554],[-52.54698,-23.35838],[-52.54511,-23.36063],[-52.54364,-23.36282],[-52.54179,-23.36486],[-52.53985,-23.3666],[-52.53742,-23.36788],[-52.53601,-23.3681],[-52.53406,-23.36801],[-52.53187,-23.36713],[-52.53012,-23.36594],[-52.52838,-23.36566],[-52.52643,-23.36598],[-52.52491,-23.3665],[-52.52276,-23.36832],[-52.51954,-23.37177],[-52.51751,-23.3744],[-52.51612,-23.37692],[-52.51398,-23.37885]]]},"properties":{"codigo":"412460810","name":"Porto São Carlos","population":37,"households":23,"areaKm2":56.6517,"density":0.7}}]}