{"type":"FeatureCollection","features":[{"type":"Feature","geometry":{"type":"Polygon","coordinates":[[[-50.23476,-23.35673],[-50.23499,-23.35727],[-50.22418,-23.37484],[-50.22187,-23.3782],[-50.21674,-23.37905],[-50.2155,-23.3794],[-50.21344,-23.38132],[-50.20728,-23.38284],[-50.20572,-23.38436],[-50.20324,-23.38474],[-50.19966,-23.38629],[-50.19788,-23.38667],[-50.19561,-23.38797],[-50.19235,-23.38843],[-50.1899,-23.38857],[-50.18886,-23.38968],[-50.18781,-23.39201],[-50.18708,-23.39483],[-50.18602,-23.39788],[-50.185,-23.39999],[-50.18289,-23.40085],[-50.18011,-23.40053],[-50.17474,-23.3978],[-50.17272,-23.39702],[-50.17102,-23.39734],[-50.16775,-23.39883],[-50.16547,-23.40103],[-50.16308,-23.40195],[-50.16038,-23.40202],[-50.15777,-23.40091],[-50.15332,-23.39771],[-50.15218,-23.3978],[-50.14902,-23.3993],[-50.14711,-23.39957],[-50.14608,-23.40032],[-50.14591,-23.40196],[-50.14528,-23.40293],[-50.14416,-23.40332],[-50.1425,-23.40298],[-50.14105,-23.40043],[-50.14035,-23.39819],[-50.13833,-23.39608],[-50.13583,-23.3947],[-50.13333,-23.39439],[-50.13096,-23.3946],[-50.12767,-23.39696],[-50.126,-23.39751],[-50.12483,-23.39745],[-50.11913,-23.39569],[-50.11544,-23.39502],[-50.1133,-23.39402],[-50.11187,-23.39388],[-50.11091,-23.39344],[-50.10822,-23.39295],[-50.10616,-23.39321],[-50.10253,-23.3952],[-50.1008,-23.39653],[-50.09911,-23.39738],[-50.0973,-23.39787],[-50.09485,-23.39898],[-50.09241,-23.40063],[-50.09127,-23.40086],[-50.08896,-23.40085],[-50.08642,-23.40138],[-50.08533,-23.40194],[-50.08364,-23.40388],[-50.0833,-23.40542],[-50.08132,-23.40732],[-50.07895,-23.40803],[-50.07652,-23.40972],[-50.07296,-23.40935],[-50.06947,-23.40948],[-50.067,-23.40898],[-50.06252,-23.40872],[-50.06094,-23.40847],[-50.05824,-23.40883],[-50.0553,-23.41139],[-50.05304,-23.41084],[-50.05035,-23.41135],[-50.04635,-23.41302],[-50.04511,-23.41385],[-50.04357,-23.41566],[-50.04236,-23.41899],[-50.04061,-23.42101],[-50.03688,-23.42311],[-50.03501,-23.4246],[-50.03263,-23.42593],[-50.02902,-23.42755],[-50.0278,-23.42789],[-50.02503,-23.42738],[-50.02419,-23.42766],[-50.02456,-23.43019],[-50.02455,-23.43145],[-50.01769,-23.44181],[-50.0167,-23.44223],[-50.01311,-23.44291],[-50.01097,-23.44409],[-50.0087,-23.44466],[-50.01962,-23.42954],[-50.02962,-23.416],[-50.03399,-23.41177],[-50.03526,-23.40968],[-50.03701,-23.40615],[-50.03674,-23.40284],[-50.03711,-23.40195],[-50.04,-23.39765],[-50.04217,-23.39221],[-50.04361,-23.38833],[-50.04467,-23.38672],[-50.04676,-23.38529],[-50.04885,-23.38485],[-50.06,-23.38484],[-50.06446,-23.37068],[-50.06251,-23.37056],[-50.06118,-23.3711],[-50.0602,-23.37216],[-50.05882,-23.37166],[-50.05794,-23.3728],[-50.05698,-23.37286],[-50.0553,-23.37195],[-50.05396,-23.3729],[-50.05313,-23.37215],[-50.05155,-23.37175],[-50.05124,-23.37257],[-50.04931,-23.37276],[-50.04753,-23.37168],[-50.04607,-23.37204],[-50.04323,-23.3748],[-50.04111,-23.37424],[-50.04016,-23.37484],[-50.039,-23.37415],[-50.03727,-23.37455],[-50.0355,-23.3742],[-50.0347,-23.37468],[-50.03213,-23.37507],[-50.03104,-23.37618],[-50.02978,-23.37581],[-50.02934,-23.37652],[-50.02782,-23.37616],[-50.02698,-23.37657],[-50.02579,-23.37655],[-50.02513,-23.3777],[-50.02327,-23.37772],[-50.02031,-23.37725],[-50.01767,-23.37848],[-50.01809,-23.37972],[-50.017,-23.38019],[-50.01571,-23.38129],[-50.01423,-23.38154],[-50.01334,-23.38239],[-50.01164,-23.38252],[-50.01066,-23.38347],[-50.00889,-23.38385],[-50.00848,-23.3844],[-50.00579,-23.38592],[-50.00413,-23.3879],[-50.00239,-23.38764],[-50.00166,-23.38868],[-50.00031,-23.38876],[-49.99939,-23.38685],[-49.99844,-23.3873],[-49.99742,-23.38716],[-49.99617,-23.38762],[-49.99443,-23.38521],[-49.99375,-23.38497],[-49.99219,-23.38555],[-49.98894,-23.3855],[-49.98848,-23.38458],[-49.98727,-23.38398],[-49.98629,-23.38397],[-49.98541,-23.38456],[-49.9829,-23.38392],[-49.98195,-23.3845],[-49.98081,-23.38467],[-49.97911,-23.38544],[-49.97777,-23.38411],[-49.97601,-23.38363],[-49.97399,-23.38237],[-49.97226,-23.38171],[-49.97126,-23.38173],[-49.96886,-23.38031],[-49.96755,-23.37887],[-49.96556,-23.3775],[-49.96464,-23.37624],[-49.96433,-23.37485],[-49.92839,-23.39913],[-49.92796,-23.39923],[-49.92711,-23.39683],[-49.927,-23.39537],[-49.92766,-23.39435],[-49.93049,-23.39449],[-49.93155,-23.39383],[-49.93139,-23.39231],[-49.92996,-23.39207],[-49.92635,-23.39301],[-49.92511,-23.39221],[-49.92516,-23.39076],[-49.92621,-23.39054],[-49.92922,-23.39055],[-49.93077,-23.39039],[-49.93174,-23.38974],[-49.93321,-23.38754],[-49.93297,-23.38607],[-49.93202,-23.38494],[-49.92902,-23.38356],[-49.92803,-23.38283],[-49.92752,-23.38183],[-49.92806,-23.38072],[-49.93249,-23.37961],[-49.93455,-23.37824],[-49.93519,-23.37728],[-49.93738,-23.38017],[-49.93877,-23.38027],[-49.93944,-23.37897],[-49.93989,-23.37671],[-49.9394,-23.37507],[-49.9373,-23.3741],[-49.9359,-23.37317],[-49.93505,-23.37199],[-49.93555,-23.37077],[-49.9388,-23.36933],[-49.9398,-23.36832],[-49.93902,-23.36742],[-49.93785,-23.36746],[-49.93574,-23.36827],[-49.93493,-23.36708],[-49.93458,-23.36473],[-49.93524,-23.36378],[-49.93555,-23.3623],[-49.93517,-23.36083],[-49.93533,-23.35977],[-49.93769,-23.35853],[-49.93802,-23.35713],[-49.93808,-23.3545],[-49.93783,-23.35158],[-49.93807,-23.35017],[-49.9358,-23.34926],[-49.93567,-23.34806],[-49.93796,-23.34647],[-49.93866,-23.34505],[-49.93819,-23.34379],[-49.93471,-23.34237],[-49.93364,-23.34239],[-49.93319,-23.34378],[-49.93305,-23.34533],[-49.93155,-23.34536],[-49.93063,-23.34418],[-49.93013,-23.34269],[-49.92936,-23.33738],[-49.9299,-23.33478],[-49.931,-23.33419],[-49.93344,-23.33426],[-49.93455,-23.33398],[-49.93516,-23.33304],[-49.93471,-23.33176],[-49.93366,-23.33056],[-49.93394,-23.32923],[-49.93688,-23.32909],[-49.9383,-23.32855],[-49.93782,-23.32728],[-49.93547,-23.32693],[-49.93446,-23.32612],[-49.93338,-23.32331],[-49.93072,-23.32033],[-49.92927,-23.31904],[-49.92854,-23.31787],[-49.92888,-23.31679],[-49.92996,-23.31652],[-49.93159,-23.31661],[-49.9366,-23.31576],[-49.93975,-23.31579],[-49.94116,-23.31538],[-49.94046,-23.31435],[-49.93768,-23.31307],[-49.93504,-23.3109],[-49.9338,-23.31156],[-49.93397,-23.31285],[-49.93363,-23.31427],[-49.93248,-23.31476],[-49.93008,-23.31024],[-49.93269,-23.3095],[-49.93336,-23.30841],[-49.9329,-23.30611],[-49.9337,-23.30502],[-49.93247,-23.30382],[-49.92772,-23.30217],[-49.92759,-23.30049],[-49.92828,-23.29945],[-49.93109,-23.29656],[-49.93215,-23.29586],[-49.93278,-23.29445],[-49.93693,-23.29405],[-49.93716,-23.29512],[-49.93787,-23.29565],[-49.93931,-23.29531],[-49.94121,-23.2938],[-49.94179,-23.29274],[-49.94253,-23.29058],[-49.94358,-23.29023],[-49.9448,-23.29083],[-49.94679,-23.29275],[-49.94799,-23.29307],[-49.95033,-23.29308],[-49.95053,-23.29233],[-49.94865,-23.28781],[-49.94836,-23.28558],[-49.94766,-23.28438],[-49.94574,-23.28291],[-49.94521,-23.28196],[-49.94539,-23.28015],[-49.9465,-23.27935],[-49.94908,-23.2787],[-49.95147,-23.27923],[-49.95193,-23.27794],[-49.95194,-23.27654],[-49.95091,-23.27448],[-49.95049,-23.27213],[-49.95074,-23.27093],[-49.95172,-23.26962],[-49.9528,-23.26921],[-49.95393,-23.26805],[-49.95513,-23.26521],[-49.95553,-23.26237],[-49.95624,-23.26147],[-49.95747,-23.26114],[-49.96005,-23.26107],[-49.96141,-23.26011],[-49.96316,-23.25818],[-49.96544,-23.25691],[-49.96694,-23.25669],[-49.96749,-23.25538],[-49.96388,-23.25379],[-49.96172,-23.25247],[-49.96047,-23.25318],[-49.95699,-23.25205],[-49.95613,-23.25139],[-49.95555,-23.24956],[-49.95577,-23.24822],[-49.95682,-23.24757],[-49.95882,-23.2477],[-49.96021,-23.24705],[-49.96083,-23.24609],[-49.96215,-23.24524],[-49.96891,-23.24524],[-49.97068,-23.24499],[-49.97233,-23.244],[-49.97219,-23.24273],[-49.97011,-23.23942],[-49.97063,-23.23788],[-49.97338,-23.23729],[-49.97463,-23.2367],[-49.97585,-23.23568],[-49.97846,-23.23471],[-49.98024,-23.23359],[-49.98296,-23.2329],[-49.98436,-23.232],[-49.98513,-23.23079],[-49.98608,-23.23026],[-49.98791,-23.22837],[-49.98905,-23.22828],[-49.99046,-23.22962],[-49.99155,-23.22967],[-49.99299,-23.23213],[-49.99436,-23.23241],[-49.99569,-23.2323],[-49.9975,-23.23261],[-50.00257,-23.2344],[-50.00377,-23.23426],[-50.00364,-23.23315],[-50.0023,-23.23123],[-50.00149,-23.22912],[-49.99961,-23.22771],[-50.00041,-23.22661],[-50.00158,-23.22625],[-50.00252,-23.225],[-50.0026,-23.22271],[-50.00319,-23.22164],[-50.0068,-23.22195],[-50.00758,-23.22098],[-50.00791,-23.21994],[-50.00725,-23.21702],[-50.00766,-23.2157],[-50.00963,-23.21664],[-50.01205,-23.21738],[-50.01369,-23.21741],[-50.01616,-23.2169],[-50.01988,-23.21511],[-50.02261,-23.21317],[-50.02608,-23.21123],[-50.02763,-23.20956],[-50.0291,-23.2044],[-50.02979,-23.20283],[-50.03108,-23.20321],[-50.03327,-23.20536],[-50.03561,-23.2085],[-50.03761,-23.21023],[-50.0391,-23.21056],[-50.0403,-23.21041],[-50.04133,-23.20953],[-50.04127,-23.20837],[-50.04021,-23.20707],[-50.03783,-23.20573],[-50.03802,-23.20442],[-50.03863,-23.20301],[-50.04024,-23.20143],[-50.04183,-23.19901],[-50.04215,-23.19788],[-50.04202,-23.19606],[-50.04115,-23.19521],[-50.03805,-23.19438],[-50.03702,-23.1939],[-50.03586,-23.1927],[-50.03655,-23.19184],[-50.03966,-23.1901],[-50.04116,-23.18945],[-50.04272,-23.18969],[-50.04664,-23.18886],[-50.04969,-23.18882],[-50.05102,-23.18984],[-50.05255,-23.19187],[-50.05318,-23.19334],[-50.05319,-23.19545],[-50.05457,-23.1959],[-50.0558,-23.19364],[-50.05597,-23.19206],[-50.05758,-23.1878],[-50.0613,-23.1841],[-50.06183,-23.18294],[-50.06166,-23.18133],[-50.06114,-23.18034],[-50.0573,-23.17555],[-50.05716,-23.17408],[-50.05841,-23.17408],[-50.0593,-23.17514],[-50.05991,-23.17646],[-50.0608,-23.1775],[-50.06338,-23.17819],[-50.06461,-23.18057],[-50.06697,-23.18166],[-50.0678,-23.18332],[-50.06833,-23.18603],[-50.06899,-23.18773],[-50.06938,-23.18981],[-50.06924,-23.19153],[-50.06952,-23.19432],[-50.07027,-23.19573],[-50.07247,-23.19779],[-50.07386,-23.19743],[-50.07451,-23.19558],[-50.07552,-23.19102],[-50.07541,-23.18809],[-50.07491,-23.18689],[-50.0723,-23.18557],[-50.07127,-23.18428],[-50.07136,-23.18305],[-50.07241,-23.18017],[-50.07463,-23.18033],[-50.07735,-23.18183],[-50.08265,-23.18337],[-50.08385,-23.18337],[-50.0868,-23.18251],[-50.08925,-23.18143],[-50.09051,-23.18061],[-50.09427,-23.17556],[-50.09544,-23.17576],[-50.09613,-23.1767],[-50.09744,-23.17716],[-50.09823,-23.17781],[-50.09847,-23.17889],[-50.09828,-23.18053],[-50.0996,-23.18067],[-50.10114,-23.18224],[-50.10099,-23.18392],[-50.09862,-23.18747],[-50.09875,-23.1895],[-50.10236,-23.1939],[-50.10427,-23.19467],[-50.10567,-23.19632],[-50.10657,-23.19848],[-50.10661,-23.20259],[-50.10701,-23.20411],[-50.10615,-23.20606],[-50.1062,-23.20911],[-50.10724,-23.21034],[-50.10753,-23.21129],[-50.10746,-23.21479],[-50.10775,-23.21588],[-50.10805,-23.21949],[-50.10913,-23.22089],[-50.10967,-23.22262],[-50.11084,-23.22436],[-50.11071,-23.22678],[-50.1123,-23.22848],[-50.11254,-23.22909],[-50.11239,-23.23145],[-50.11277,-23.23274],[-50.1124,-23.23664],[-50.11312,-23.23867],[-50.11468,-23.24017],[-50.11564,-23.24959],[-50.11686,-23.25171],[-50.1234,-23.25341],[-50.12917,-23.25216],[-50.13179,-23.25232],[-50.133,-23.25264],[-50.13509,-23.25426],[-50.13556,-23.25495],[-50.13603,-23.25667],[-50.13691,-23.25787],[-50.13794,-23.25845],[-50.1391,-23.25839],[-50.14029,-23.25764],[-50.14193,-23.2576],[-50.14263,-23.25826],[-50.14548,-23.2594],[-50.14635,-23.25843],[-50.14855,-23.25717],[-50.14944,-23.25699],[-50.15188,-23.25715],[-50.15579,-23.25819],[-50.16047,-23.25713],[-50.16298,-23.25723],[-50.16391,-23.25781],[-50.16496,-23.25769],[-50.16547,-23.25676],[-50.16767,-23.25568],[-50.17076,-23.2536],[-50.17283,-23.25364],[-50.17485,-23.25217],[-50.17561,-23.25025],[-50.18086,-23.2494],[-50.18198,-23.2498],[-50.183,-23.25088],[-50.18392,-23.25357],[-50.18551,-23.25446],[-50.18765,-23.25477],[-50.18856,-23.25557],[-50.19102,-23.25563],[-50.19177,-23.25612],[-50.19194,-23.2573],[-50.19271,-23.25828],[-50.19389,-23.25896],[-50.19622,-23.25905],[-50.19771,-23.25798],[-50.19841,-23.25575],[-50.20085,-23.25456],[-50.201,-23.25355],[-50.20331,-23.25211],[-50.20358,-23.25087],[-50.20595,-23.25436],[-50.20728,-23.25532],[-50.21105,-23.2569],[-50.21241,-23.25784],[-50.2131,-23.25927],[-50.21273,-23.26093],[-50.21165,-23.26266],[-50.21044,-23.26337],[-50.20873,-23.26389],[-50.20559,-23.2642],[-50.20373,-23.26544],[-50.2033,-23.26606],[-50.20277,-23.26894],[-50.20225,-23.27053],[-50.20007,-23.27588],[-50.19771,-23.27866],[-50.19553,-23.28029],[-50.19197,-23.28255],[-50.19147,-23.2837],[-50.19159,-23.28474],[-50.19289,-23.28565],[-50.1944,-23.28576],[-50.19964,-23.28509],[-50.20491,-23.286],[-50.2061,-23.28693],[-50.20664,-23.28782],[-50.20622,-23.28887],[-50.20512,-23.28991],[-50.20091,-23.29291],[-50.19989,-23.29389],[-50.20015,-23.29532],[-50.20125,-23.2958],[-50.20254,-23.29539],[-50.2044,-23.29697],[-50.2042,-23.29813],[-50.20297,-23.29878],[-50.20452,-23.30146],[-50.20501,-23.30274],[-50.2045,-23.30363],[-50.2064,-23.30434],[-50.20737,-23.3036],[-50.20816,-23.30231],[-50.20939,-23.30212],[-50.2098,-23.30254],[-50.21132,-23.30121],[-50.21281,-23.3007],[-50.21436,-23.30197],[-50.21454,-23.30272],[-50.21561,-23.30263],[-50.21624,-23.30344],[-50.21809,-23.30407],[-50.22207,-23.30615],[-50.22223,-23.30694],[-50.22066,-23.3096],[-50.21769,-23.31105],[-50.21654,-23.31238],[-50.21395,-23.31454],[-50.21245,-23.31529],[-50.21234,-23.31672],[-50.21275,-23.31766],[-50.21397,-23.31851],[-50.21559,-23.31846],[-50.21611,-23.31882],[-50.21755,-23.32153],[-50.21916,-23.32124],[-50.21947,-23.322],[-50.21862,-23.32527],[-50.21856,-23.32644],[-50.21936,-23.32749],[-50.21868,-23.32875],[-50.21915,-23.33],[-50.21804,-23.3308],[-50.2153,-23.33119],[-50.21433,-23.33301],[-50.21555,-23.33417],[-50.21664,-23.3362],[-50.21665,-23.3378],[-50.2161,-23.33884],[-50.21489,-23.33936],[-50.21426,-23.34015],[-50.21447,-23.3415],[-50.21376,-23.34332],[-50.21464,-23.34429],[-50.21589,-23.34415],[-50.21697,-23.34462],[-50.21737,-23.34568],[-50.21888,-23.34674],[-50.21996,-23.34654],[-50.22039,-23.34764],[-50.21861,-23.34811],[-50.21803,-23.3489],[-50.2206,-23.35004],[-50.22229,-23.35016],[-50.2224,-23.34945],[-50.22376,-23.34885],[-50.22485,-23.34897],[-50.2262,-23.34855],[-50.22692,-23.34935],[-50.22819,-23.34965],[-50.22904,-23.34903],[-50.22994,-23.34999],[-50.2308,-23.34976],[-50.23184,-23.35135],[-50.23094,-23.35243],[-50.23101,-23.35432],[-50.23304,-23.35712],[-50.23476,-23.35673]]]},"properties":{"codigo":"412410305","name":"Santo Antônio da Platina","population":42373,"households":18218,"areaKm2":513.0637,"density":82.6}},{"type":"Feature","geometry":{"type":"Polygon","coordinates":[[[-50.0043,-23.44519],[-50.0035,-23.44553],[-50.00158,-23.44796],[-50.00027,-23.44928],[-49.99791,-23.44983],[-49.99572,-23.44883],[-49.99169,-23.45194],[-49.98941,-23.45265],[-49.98853,-23.452],[-49.98755,-23.4495],[-49.98636,-23.44721],[-49.98393,-23.44391],[-49.98296,-23.44297],[-49.98138,-23.44289],[-49.97705,-23.4396],[-49.97488,-23.43867],[-49.97366,-23.43863],[-49.97158,-23.43939],[-49.9705,-23.43929],[-49.96935,-23.43857],[-49.96785,-23.43666],[-49.96452,-23.43595],[-49.96285,-23.43612],[-49.96179,-23.4359],[-49.95946,-23.43469],[-49.95902,-23.43367],[-49.95794,-23.43303],[-49.95696,-23.4336],[-49.95577,-23.43362],[-49.95433,-23.43322],[-49.9536,-23.43182],[-49.9528,-23.43096],[-49.95074,-23.4319],[-49.94924,-23.43184],[-49.94841,-23.43054],[-49.94813,-23.42933],[-49.94696,-23.42865],[-49.94553,-23.43116],[-49.94479,-23.43207],[-49.94305,-23.43148],[-49.94324,-23.42999],[-49.9438,-23.42851],[-49.94452,-23.42747],[-49.94455,-23.42498],[-49.94391,-23.42408],[-49.94169,-23.42427],[-49.94058,-23.42197],[-49.93941,-23.42151],[-49.93831,-23.42242],[-49.93767,-23.42378],[-49.93646,-23.42374],[-49.93688,-23.42133],[-49.93774,-23.42056],[-49.93816,-23.41951],[-49.93799,-23.41818],[-49.93538,-23.41695],[-49.93408,-23.41458],[-49.93422,-23.41264],[-49.93321,-23.41163],[-49.93166,-23.41086],[-49.93142,-23.40925],[-49.93266,-23.40691],[-49.93243,-23.40549],[-49.93188,-23.40453],[-49.92963,-23.40387],[-49.92849,-23.40329],[-49.92888,-23.40202],[-49.92991,-23.40131],[-49.93071,-23.40017],[-49.92952,-23.39943],[-49.92796,-23.39923],[-49.92839,-23.39913],[-49.96433,-23.37485],[-49.96464,-23.37624],[-49.96556,-23.3775],[-49.96755,-23.37887],[-49.96886,-23.38031],[-49.97126,-23.38173],[-49.97226,-23.38171],[-49.97399,-23.38237],[-49.97601,-23.38363],[-49.97777,-23.38411],[-49.97911,-23.38544],[-49.98081,-23.38467],[-49.98195,-23.3845],[-49.9829,-23.38392],[-49.98541,-23.38456],[-49.98629,-23.38397],[-49.98727,-23.38398],[-49.98848,-23.38458],[-49.98894,-23.3855],[-49.99219,-23.38555],[-49.99375,-23.38497],[-49.99443,-23.38521],[-49.99617,-23.38762],[-49.99742,-23.38716],[-49.99844,-23.3873],[-49.99939,-23.38685],[-50.00031,-23.38876],[-50.00166,-23.38868],[-50.00239,-23.38764],[-50.00413,-23.3879],[-50.00579,-23.38592],[-50.00848,-23.3844],[-50.00889,-23.38385],[-50.01066,-23.38347],[-50.01164,-23.38252],[-50.01334,-23.38239],[-50.01423,-23.38154],[-50.01571,-23.38129],[-50.017,-23.38019],[-50.01809,-23.37972],[-50.01767,-23.37848],[-50.02031,-23.37725],[-50.02327,-23.37772],[-50.02513,-23.3777],[-50.02579,-23.37655],[-50.02698,-23.37657],[-50.02782,-23.37616],[-50.02934,-23.37652],[-50.02978,-23.37581],[-50.03104,-23.37618],[-50.03213,-23.37507],[-50.0347,-23.37468],[-50.0355,-23.3742],[-50.03727,-23.37455],[-50.039,-23.37415],[-50.04016,-23.37484],[-50.04111,-23.37424],[-50.04323,-23.3748],[-50.04607,-23.37204],[-50.04753,-23.37168],[-50.04931,-23.37276],[-50.05124,-23.37257],[-50.05155,-23.37175],[-50.05313,-23.37215],[-50.05396,-23.3729],[-50.0553,-23.37195],[-50.05698,-23.37286],[-50.05794,-23.3728],[-50.05882,-23.37166],[-50.0602,-23.37216],[-50.06118,-23.3711],[-50.06251,-23.37056],[-50.06446,-23.37068],[-50.06,-23.38484],[-50.04885,-23.38485],[-50.04676,-23.38529],[-50.04467,-23.38672],[-50.04361,-23.38833],[-50.04217,-23.39221],[-50.04,-23.39765],[-50.03711,-23.40195],[-50.03674,-23.40284],[-50.03701,-23.40615],[-50.03526,-23.40968],[-50.03399,-23.41177],[-50.02962,-23.416],[-50.01962,-23.42954],[-50.0087,-23.44466],[-50.00517,-23.44483],[-50.0043,-23.44519]]]},"properties":{"codigo":"412410312","name":"Conselheiro Zacarias","population":539,"households":293,"areaKm2":65.2344,"density":8.3}},{"type":"Feature","geometry":{"type":"Polygon","coordinates":[[[-50.20358,-23.25087],[-50.20331,-23.25211],[-50.201,-23.25355],[-50.20085,-23.25456],[-50.19841,-23.25575],[-50.19771,-23.25798],[-50.19622,-23.25905],[-50.19389,-23.25896],[-50.19271,-23.25828],[-50.19194,-23.2573],[-50.19177,-23.25612],[-50.19102,-23.25563],[-50.18856,-23.25557],[-50.18765,-23.25477],[-50.18551,-23.25446],[-50.18392,-23.25357],[-50.183,-23.25088],[-50.18198,-23.2498],[-50.18086,-23.2494],[-50.17561,-23.25025],[-50.17485,-23.25217],[-50.17283,-23.25364],[-50.17076,-23.2536],[-50.16767,-23.25568],[-50.16547,-23.25676],[-50.16496,-23.25769],[-50.16391,-23.25781],[-50.16298,-23.25723],[-50.16047,-23.25713],[-50.15579,-23.25819],[-50.15188,-23.25715],[-50.14944,-23.25699],[-50.14855,-23.25717],[-50.14635,-23.25843],[-50.14548,-23.2594],[-50.14263,-23.25826],[-50.14193,-23.2576],[-50.14029,-23.25764],[-50.1391,-23.25839],[-50.13794,-23.25845],[-50.13691,-23.25787],[-50.13603,-23.25667],[-50.13556,-23.25495],[-50.13509,-23.25426],[-50.133,-23.25264],[-50.13179,-23.25232],[-50.12917,-23.25216],[-50.1234,-23.25341],[-50.11686,-23.25171],[-50.11564,-23.24959],[-50.11468,-23.24017],[-50.11312,-23.23867],[-50.1124,-23.23664],[-50.11277,-23.23274],[-50.11239,-23.23145],[-50.11254,-23.22909],[-50.1123,-23.22848],[-50.11071,-23.22678],[-50.11084,-23.22436],[-50.10967,-23.22262],[-50.10913,-23.22089],[-50.10805,-23.21949],[-50.10775,-23.21588],[-50.10746,-23.21479],[-50.10753,-23.21129],[-50.10724,-23.21034],[-50.1062,-23.20911],[-50.10615,-23.20606],[-50.10701,-23.20411],[-50.10661,-23.20259],[-50.10657,-23.19848],[-50.10567,-23.19632],[-50.10427,-23.19467],[-50.10236,-23.1939],[-50.09875,-23.1895],[-50.09862,-23.18747],[-50.10099,-23.18392],[-50.10114,-23.18224],[-50.0996,-23.18067],[-50.09828,-23.18053],[-50.09847,-23.17889],[-50.09823,-23.17781],[-50.09744,-23.17716],[-50.09838,-23.17636],[-50.09961,-23.17407],[-50.1008,-23.17322],[-50.10172,-23.17202],[-50.10233,-23.17063],[-50.10341,-23.17063],[-50.10338,-23.17297],[-50.10413,-23.1738],[-50.10644,-23.17478],[-50.10893,-23.1752],[-50.11011,-23.17454],[-50.11044,-23.17343],[-50.11088,-23.16901],[-50.11215,-23.16832],[-50.11271,-23.16958],[-50.11336,-23.17579],[-50.11464,-23.17677],[-50.11697,-23.17798],[-50.12088,-23.18271],[-50.12191,-23.18338],[-50.12336,-23.18356],[-50.12397,-23.18261],[-50.1245,-23.17947],[-50.12602,-23.17433],[-50.12616,-23.17298],[-50.12549,-23.17168],[-50.12256,-23.17145],[-50.12031,-23.17107],[-50.11905,-23.17034],[-50.11797,-23.1693],[-50.11766,-23.1681],[-50.11832,-23.16551],[-50.11985,-23.16293],[-50.12089,-23.16259],[-50.12271,-23.16353],[-50.12351,-23.16307],[-50.12448,-23.16051],[-50.12562,-23.15865],[-50.12669,-23.15585],[-50.1288,-23.15511],[-50.12981,-23.15304],[-50.13132,-23.15258],[-50.13491,-23.15242],[-50.13847,-23.15154],[-50.1393,-23.15026],[-50.13969,-23.1484],[-50.13903,-23.14641],[-50.13743,-23.14607],[-50.1342,-23.14484],[-50.1317,-23.14347],[-50.13204,-23.14261],[-50.13236,-23.1402],[-50.13278,-23.13871],[-50.13341,-23.13835],[-50.13492,-23.13868],[-50.1354,-23.13791],[-50.13461,-23.13692],[-50.13471,-23.13624],[-50.13704,-23.13384],[-50.13653,-23.13183],[-50.13717,-23.13097],[-50.13875,-23.13239],[-50.14166,-23.13395],[-50.14654,-23.13803],[-50.14633,-23.13855],[-50.14337,-23.1394],[-50.14164,-23.13962],[-50.14088,-23.14019],[-50.14133,-23.14155],[-50.14247,-23.14234],[-50.14608,-23.14355],[-50.14831,-23.14471],[-50.14981,-23.14484],[-50.15082,-23.14424],[-50.15199,-23.14214],[-50.15205,-23.14106],[-50.15036,-23.13795],[-50.14857,-23.13639],[-50.14755,-23.13501],[-50.14877,-23.13149],[-50.14947,-23.13067],[-50.15064,-23.13025],[-50.15152,-23.13052],[-50.15048,-23.1331],[-50.15039,-23.13384],[-50.15165,-23.13544],[-50.15282,-23.13653],[-50.15381,-23.13673],[-50.15717,-23.13613],[-50.15783,-23.13573],[-50.15821,-23.13367],[-50.15817,-23.13234],[-50.1575,-23.13106],[-50.15624,-23.13041],[-50.15506,-23.12935],[-50.1557,-23.12808],[-50.15794,-23.12698],[-50.16041,-23.12389],[-50.16204,-23.1241],[-50.16265,-23.12519],[-50.16361,-23.12974],[-50.16529,-23.13162],[-50.16614,-23.13356],[-50.16726,-23.13468],[-50.1688,-23.13479],[-50.17089,-23.13445],[-50.17278,-23.13364],[-50.17447,-23.13543],[-50.17776,-23.13609],[-50.1783,-23.13663],[-50.17944,-23.13874],[-50.17999,-23.13875],[-50.18045,-23.13649],[-50.18216,-23.13546],[-50.18615,-23.13452],[-50.18934,-23.13473],[-50.19073,-23.13588],[-50.18929,-23.13824],[-50.18883,-23.14093],[-50.18924,-23.14324],[-50.1896,-23.1438],[-50.19128,-23.14429],[-50.19487,-23.14357],[-50.19679,-23.14406],[-50.20027,-23.1464],[-50.20135,-23.14655],[-50.20239,-23.14612],[-50.20466,-23.14412],[-50.20599,-23.14125],[-50.20691,-23.14042],[-50.20728,-23.13923],[-50.20537,-23.13953],[-50.20418,-23.13906],[-50.20387,-23.13719],[-50.20266,-23.13528],[-50.20446,-23.134],[-50.20678,-23.1333],[-50.20885,-23.1318],[-50.20983,-23.13252],[-50.21072,-23.13456],[-50.212,-23.13693],[-50.21574,-23.13866],[-50.21654,-23.13866],[-50.21779,-23.1376],[-50.22016,-23.13338],[-50.2227,-23.13037],[-50.22359,-23.13022],[-50.22443,-23.13248],[-50.22568,-23.13244],[-50.22651,-23.13148],[-50.22693,-23.12918],[-50.22685,-23.12593],[-50.22839,-23.12337],[-50.23044,-23.12275],[-50.23307,-23.12256],[-50.23534,-23.12356],[-50.2358,-23.12527],[-50.23607,-23.12773],[-50.23701,-23.13013],[-50.23686,-23.13325],[-50.2375,-23.13442],[-50.24062,-23.13547],[-50.23796,-23.13916],[-50.23633,-23.14182],[-50.23542,-23.14247],[-50.23377,-23.14247],[-50.23238,-23.14189],[-50.22894,-23.14286],[-50.22797,-23.14354],[-50.2277,-23.14669],[-50.22645,-23.14965],[-50.22381,-23.15211],[-50.22292,-23.15241],[-50.22108,-23.15154],[-50.22008,-23.15175],[-50.21953,-23.15243],[-50.21967,-23.15402],[-50.22073,-23.15513],[-50.22604,-23.1569],[-50.22787,-23.1577],[-50.22888,-23.15857],[-50.22951,-23.15968],[-50.22945,-23.16116],[-50.2285,-23.16224],[-50.22718,-23.16299],[-50.22424,-23.16354],[-50.2207,-23.16367],[-50.2168,-23.16275],[-50.21505,-23.164],[-50.21322,-23.16927],[-50.21225,-23.17327],[-50.20921,-23.17922],[-50.20931,-23.18424],[-50.20922,-23.18674],[-50.20945,-23.18765],[-50.21108,-23.19006],[-50.21397,-23.1931],[-50.21679,-23.19462],[-50.21798,-23.19458],[-50.21914,-23.19362],[-50.22054,-23.19162],[-50.22276,-23.18904],[-50.22427,-23.18764],[-50.22639,-23.18691],[-50.22871,-23.18664],[-50.23073,-23.18665],[-50.23484,-23.1882],[-50.2366,-23.18921],[-50.24076,-23.19082],[-50.24198,-23.19186],[-50.2428,-23.19292],[-50.24282,-23.19371],[-50.24143,-23.19718],[-50.23938,-23.19918],[-50.2378,-23.20034],[-50.23615,-23.20103],[-50.23349,-23.20129],[-50.23138,-23.20116],[-50.22888,-23.20041],[-50.22568,-23.19822],[-50.22405,-23.19756],[-50.22217,-23.19735],[-50.21841,-23.19902],[-50.21449,-23.20183],[-50.21319,-23.20371],[-50.21323,-23.20652],[-50.21359,-23.20761],[-50.21515,-23.2099],[-50.21655,-23.21139],[-50.21799,-23.21346],[-50.21927,-23.21486],[-50.22098,-23.21578],[-50.22245,-23.21624],[-50.22397,-23.21617],[-50.2272,-23.21522],[-50.23079,-23.21326],[-50.23313,-23.21169],[-50.23502,-23.21091],[-50.23759,-23.21076],[-50.23852,-23.21113],[-50.2393,-23.21244],[-50.23862,-23.21476],[-50.23785,-23.21546],[-50.23617,-23.21597],[-50.22977,-23.2186],[-50.22766,-23.22051],[-50.22593,-23.22232],[-50.22494,-23.22443],[-50.22465,-23.22603],[-50.22561,-23.22861],[-50.22613,-23.23105],[-50.2266,-23.23203],[-50.22826,-23.23384],[-50.22783,-23.23541],[-50.2267,-23.23649],[-50.22482,-23.23743],[-50.22232,-23.23807],[-50.22,-23.23816],[-50.21652,-23.23883],[-50.21508,-23.23865],[-50.21431,-23.2381],[-50.21341,-23.23617],[-50.2127,-23.23536],[-50.2106,-23.23365],[-50.20886,-23.23265],[-50.20593,-23.23209],[-50.20519,-23.2322],[-50.20396,-23.23373],[-50.20381,-23.23587],[-50.20403,-23.23768],[-50.20363,-23.23964],[-50.20267,-23.24203],[-50.20226,-23.24363],[-50.20228,-23.24814],[-50.20358,-23.25087]]]},"properties":{"codigo":"412410317","name":"Monte Real","population":1457,"households":830,"areaKm2":143.1737,"density":10.2}}]}