{"type":"FeatureCollection","features":[{"type":"Feature","geometry":{"type":"Polygon","coordinates":[[[-54.39914,-25.37708],[-54.39833,-25.37952],[-54.39861,-25.38347],[-54.39692,-25.38743],[-54.39677,-25.38898],[-54.39914,-25.39263],[-54.39991,-25.39475],[-54.3988,-25.39568],[-54.39839,-25.39668],[-54.39906,-25.40063],[-54.39619,-25.40336],[-54.3945,-25.40687],[-54.391,-25.4089],[-54.38717,-25.41439],[-54.38662,-25.41695],[-54.3868,-25.42148],[-54.38354,-25.42429],[-54.38303,-25.4257],[-54.37836,-25.42954],[-54.37672,-25.4318],[-54.37384,-25.43349],[-54.3715,-25.43451],[-54.36892,-25.43686],[-54.36758,-25.43898],[-54.36648,-25.43892],[-54.36419,-25.43965],[-54.36,-25.44297],[-54.35769,-25.44409],[-54.34845,-25.44656],[-54.34662,-25.44809],[-54.34367,-25.45223],[-54.34336,-25.4545],[-54.36416,-25.48909],[-54.36045,-25.48965],[-54.3098,-25.48805],[-54.25904,-25.48643],[-54.21519,-25.48507],[-54.18,-25.48397],[-54.1438,-25.48281],[-54.14051,-25.48391],[-54.14006,-25.48264],[-54.14062,-25.48069],[-54.13837,-25.48174],[-54.13878,-25.47964],[-54.13458,-25.48136],[-54.13487,-25.48246],[-54.13691,-25.48488],[-54.13593,-25.48534],[-54.13442,-25.48473],[-54.13273,-25.48344],[-54.13144,-25.48057],[-54.13386,-25.47811],[-54.1346,-25.47568],[-54.13344,-25.47417],[-54.13308,-25.46982],[-54.13617,-25.46751],[-54.13631,-25.46694],[-54.13291,-25.46677],[-54.13248,-25.46603],[-54.13292,-25.46439],[-54.12934,-25.46248],[-54.128,-25.46269],[-54.12686,-25.464],[-54.1254,-25.46381],[-54.12497,-25.46327],[-54.1253,-25.46125],[-54.12362,-25.46053],[-54.12492,-25.46024],[-54.12799,-25.46047],[-54.13166,-25.46008],[-54.13363,-25.46089],[-54.13594,-25.46323],[-54.13848,-25.46331],[-54.14966,-25.4645],[-54.15301,-25.46455],[-54.15474,-25.46361],[-54.15326,-25.46217],[-54.15179,-25.46008],[-54.15331,-25.4549],[-54.15715,-25.45457],[-54.15855,-25.45],[-54.15939,-25.44803],[-54.16222,-25.44574],[-54.1661,-25.44508],[-54.16947,-25.44532],[-54.17307,-25.44395],[-54.17483,-25.44119],[-54.17589,-25.43796],[-54.17637,-25.43436],[-54.18348,-25.43152],[-54.18611,-25.42959],[-54.1864,-25.4212],[-54.1885,-25.41213],[-54.19322,-25.40942],[-54.19856,-25.40141],[-54.19792,-25.39932],[-54.19837,-25.39662],[-54.19824,-25.39618],[-54.20012,-25.39176],[-54.20069,-25.38558],[-54.20048,-25.37605],[-54.20143,-25.36526],[-54.17648,-25.33176],[-54.17329,-25.32752],[-54.17293,-25.32477],[-54.17126,-25.32242],[-54.17055,-25.31888],[-54.17187,-25.31296],[-54.17341,-25.31022],[-54.17336,-25.3078],[-54.17289,-25.30652],[-54.17259,-25.30377],[-54.17186,-25.30271],[-54.17147,-25.2996],[-54.17175,-25.29811],[-54.1715,-25.29644],[-54.17191,-25.29459],[-54.17248,-25.29329],[-54.1739,-25.29211],[-54.17484,-25.29174],[-54.17652,-25.2905],[-54.17805,-25.28788],[-54.17792,-25.28625],[-54.17851,-25.28394],[-54.17831,-25.28322],[-54.17668,-25.28057],[-54.1766,-25.27937],[-54.17545,-25.27807],[-54.17622,-25.27567],[-54.17545,-25.27327],[-54.17677,-25.27212],[-54.17793,-25.27149],[-54.17901,-25.27008],[-54.17933,-25.26861],[-54.1787,-25.26641],[-54.17794,-25.26525],[-54.17909,-25.26319],[-54.18043,-25.26286],[-54.18108,-25.26114],[-54.18239,-25.25862],[-54.18378,-25.2577],[-54.18325,-25.25707],[-54.18313,-25.25458],[-54.18355,-25.25342],[-54.18211,-25.25235],[-54.18212,-25.25035],[-54.18124,-25.24939],[-54.18059,-25.24788],[-54.18044,-25.2451],[-54.17977,-25.24196],[-54.17863,-25.23994],[-54.17947,-25.2391],[-54.18016,-25.23706],[-54.1795,-25.23647],[-54.17845,-25.23651],[-54.17916,-25.23394],[-54.17858,-25.23263],[-54.17889,-25.23156],[-54.1807,-25.2295],[-54.18237,-25.22855],[-54.18442,-25.22823],[-54.18509,-25.22701],[-54.18378,-25.22626],[-54.18379,-25.22463],[-54.18481,-25.22374],[-54.18423,-25.22226],[-54.18473,-25.22059],[-54.18713,-25.21973],[-54.18964,-25.21812],[-54.19068,-25.21784],[-54.19211,-25.21826],[-54.19358,-25.21802],[-54.19444,-25.21903],[-54.19633,-25.21805],[-54.19767,-25.21568],[-54.1988,-25.21529],[-54.19952,-25.21641],[-54.1995,-25.22004],[-54.20219,-25.22339],[-54.20303,-25.22397],[-54.2045,-25.22389],[-54.20633,-25.22305],[-54.20659,-25.22337],[-54.20558,-25.22587],[-54.20555,-25.22937],[-54.2068,-25.23058],[-54.20861,-25.23108],[-54.20996,-25.22944],[-54.21094,-25.22571],[-54.21594,-25.2258],[-54.21969,-25.22745],[-54.22122,-25.22609],[-54.22172,-25.22292],[-54.22288,-25.22249],[-54.2242,-25.22339],[-54.22483,-25.22826],[-54.22321,-25.23369],[-54.22291,-25.23686],[-54.22391,-25.23845],[-54.2251,-25.23812],[-54.22533,-25.23651],[-54.22585,-25.23586],[-54.22558,-25.23373],[-54.2305,-25.2296],[-54.23228,-25.22967],[-54.23464,-25.23045],[-54.2358,-25.22976],[-54.2387,-25.22913],[-54.2455,-25.22853],[-54.25036,-25.22429],[-54.25336,-25.22583],[-54.25742,-25.22195],[-54.26183,-25.2218],[-54.26327,-25.21861],[-54.26447,-25.21735],[-54.26725,-25.21692],[-54.27055,-25.2175],[-54.27009,-25.23873],[-54.27009,-25.2839],[-54.27017,-25.28371],[-54.29045,-25.25495],[-54.29297,-25.25489],[-54.3015,-25.25863],[-54.30304,-25.25631],[-54.30402,-25.25203],[-54.30469,-25.25051],[-54.30469,-25.24814],[-54.3042,-25.24669],[-54.30473,-25.24506],[-54.306,-25.24454],[-54.30681,-25.24257],[-54.30686,-25.24021],[-54.30895,-25.23656],[-54.30931,-25.23525],[-54.31064,-25.23235],[-54.31261,-25.22682],[-54.31329,-25.22453],[-54.31458,-25.22424],[-54.31477,-25.22373],[-54.31691,-25.22374],[-54.3184,-25.22401],[-54.31905,-25.22509],[-54.31995,-25.22517],[-54.3222,-25.22192],[-54.32327,-25.22091],[-54.32411,-25.22103],[-54.32584,-25.2221],[-54.3276,-25.2235],[-54.32876,-25.22584],[-54.33537,-25.22879],[-54.33785,-25.2283],[-54.3399,-25.22814],[-54.34543,-25.22902],[-54.3469,-25.22964],[-54.34822,-25.2309],[-54.3495,-25.23156],[-54.35084,-25.23177],[-54.35318,-25.23136],[-54.35611,-25.23047],[-54.35809,-25.23019],[-54.36079,-25.23158],[-54.36122,-25.23267],[-54.35886,-25.2348],[-54.35981,-25.23542],[-54.36147,-25.23559],[-54.36337,-25.23498],[-54.36641,-25.23593],[-54.36922,-25.235],[-54.3718,-25.23688],[-54.37473,-25.23699],[-54.37559,-25.23665],[-54.37603,-25.23501],[-54.37411,-25.23056],[-54.37472,-25.22921],[-54.37603,-25.22834],[-54.37836,-25.22866],[-54.38059,-25.22951],[-54.38147,-25.23036],[-54.38158,-25.23366],[-54.38305,-25.2347],[-54.38506,-25.2353],[-54.3862,-25.2366],[-54.38819,-25.23665],[-54.39152,-25.23565],[-54.39124,-25.23667],[-54.3913,-25.23951],[-54.39173,-25.24055],[-54.39367,-25.24239],[-54.39384,-25.24357],[-54.39277,-25.24487],[-54.39188,-25.24513],[-54.38631,-25.24435],[-54.38539,-25.24552],[-54.38664,-25.24811],[-54.38556,-25.24874],[-54.38503,-25.25011],[-54.3863,-25.25272],[-54.38512,-25.25963],[-54.38844,-25.26513],[-54.39019,-25.27102],[-54.39031,-25.27916],[-54.38956,-25.28888],[-54.392,-25.29513],[-54.39311,-25.30105],[-54.38853,-25.30571],[-54.3872,-25.30921],[-54.38761,-25.3134],[-54.39477,-25.35292],[-54.39914,-25.37708]],[[-54.20103,-25.39855],[-54.20301,-25.39988],[-54.20406,-25.39863],[-54.20606,-25.39998],[-54.20985,-25.39543],[-54.21385,-25.39079],[-54.20786,-25.38673],[-54.20299,-25.39253],[-54.20023,-25.39601],[-54.20209,-25.39729],[-54.20103,-25.39855]]]},"properties":{"codigo":"412570405","name":"São Miguel do Iguaçu","population":25797,"households":10678,"areaKm2":579.0131,"density":44.6}},{"type":"Feature","geometry":{"type":"Polygon","coordinates":[[[-54.17329,-25.32752],[-54.17648,-25.33176],[-54.20143,-25.36526],[-54.20048,-25.37605],[-54.20069,-25.38558],[-54.20012,-25.39176],[-54.19824,-25.39618],[-54.19837,-25.39662],[-54.19792,-25.39932],[-54.19856,-25.40141],[-54.19322,-25.40942],[-54.1885,-25.41213],[-54.1864,-25.4212],[-54.18611,-25.42959],[-54.18348,-25.43152],[-54.17637,-25.43436],[-54.17589,-25.43796],[-54.17483,-25.44119],[-54.17307,-25.44395],[-54.16947,-25.44532],[-54.1661,-25.44508],[-54.16222,-25.44574],[-54.15939,-25.44803],[-54.15855,-25.45],[-54.15715,-25.45457],[-54.15331,-25.4549],[-54.15179,-25.46008],[-54.15326,-25.46217],[-54.15474,-25.46361],[-54.15301,-25.46455],[-54.14966,-25.4645],[-54.13848,-25.46331],[-54.13594,-25.46323],[-54.13363,-25.46089],[-54.13166,-25.46008],[-54.12799,-25.46047],[-54.12492,-25.46024],[-54.12362,-25.46053],[-54.12301,-25.46027],[-54.1232,-25.4591],[-54.12658,-25.45903],[-54.12737,-25.45949],[-54.12799,-25.45756],[-54.12614,-25.45597],[-54.12856,-25.45509],[-54.12883,-25.45465],[-54.12583,-25.45411],[-54.12753,-25.45271],[-54.12773,-25.45191],[-54.12626,-25.45159],[-54.12588,-25.45094],[-54.12678,-25.45031],[-54.12724,-25.44881],[-54.1288,-25.44992],[-54.12934,-25.4497],[-54.12851,-25.44691],[-54.13053,-25.44607],[-54.13098,-25.44725],[-54.13202,-25.44492],[-54.13536,-25.44218],[-54.13675,-25.44201],[-54.13776,-25.43835],[-54.13926,-25.43854],[-54.1421,-25.43674],[-54.1405,-25.43415],[-54.14027,-25.43236],[-54.13878,-25.43173],[-54.13941,-25.43035],[-54.13612,-25.43048],[-54.13489,-25.42994],[-54.13289,-25.43032],[-54.13247,-25.43238],[-54.13167,-25.43309],[-54.12892,-25.43164],[-54.12734,-25.42793],[-54.12715,-25.42622],[-54.12654,-25.42503],[-54.1242,-25.42425],[-54.12482,-25.42159],[-54.12648,-25.42093],[-54.13072,-25.42119],[-54.13435,-25.41997],[-54.13588,-25.41887],[-54.13625,-25.41827],[-54.13437,-25.41713],[-54.13425,-25.41543],[-54.13632,-25.41351],[-54.13667,-25.41178],[-54.13824,-25.41128],[-54.13894,-25.40993],[-54.141,-25.40837],[-54.1415,-25.40567],[-54.14036,-25.40245],[-54.14065,-25.40156],[-54.13846,-25.40115],[-54.13697,-25.40124],[-54.13711,-25.40002],[-54.13572,-25.39647],[-54.13469,-25.39591],[-54.13362,-25.39629],[-54.13206,-25.39461],[-54.13219,-25.39291],[-54.13112,-25.39222],[-54.1338,-25.39163],[-54.13445,-25.39027],[-54.13372,-25.38822],[-54.13381,-25.38652],[-54.13316,-25.38578],[-54.13204,-25.386],[-54.13056,-25.38777],[-54.12831,-25.38886],[-54.12452,-25.38927],[-54.12379,-25.38734],[-54.12203,-25.38662],[-54.12136,-25.38689],[-54.12008,-25.38658],[-54.11987,-25.38494],[-54.12047,-25.38369],[-54.11841,-25.38313],[-54.11718,-25.38511],[-54.11387,-25.38629],[-54.11193,-25.38569],[-54.10976,-25.38422],[-54.10699,-25.38335],[-54.10814,-25.37883],[-54.11209,-25.37429],[-54.11332,-25.37496],[-54.11462,-25.37429],[-54.11362,-25.37335],[-54.11406,-25.37277],[-54.11324,-25.37174],[-54.11339,-25.36928],[-54.11435,-25.36694],[-54.11442,-25.36391],[-54.11492,-25.36356],[-54.11387,-25.36153],[-54.1135,-25.36066],[-54.11473,-25.36042],[-54.11522,-25.35959],[-54.11726,-25.35979],[-54.11821,-25.36052],[-54.1199,-25.3587],[-54.1216,-25.3585],[-54.12571,-25.35682],[-54.12883,-25.35456],[-54.13006,-25.35289],[-54.13112,-25.35216],[-54.13721,-25.34513],[-54.13924,-25.34396],[-54.14003,-25.34277],[-54.1417,-25.34201],[-54.14342,-25.33702],[-54.14459,-25.33643],[-54.14635,-25.33463],[-54.14728,-25.33341],[-54.14863,-25.3323],[-54.14929,-25.33052],[-54.15054,-25.33063],[-54.15218,-25.32939],[-54.15513,-25.32906],[-54.15607,-25.32878],[-54.15786,-25.32738],[-54.16028,-25.32697],[-54.17073,-25.33422],[-54.17311,-25.32943],[-54.17329,-25.32752]]]},"properties":{"codigo":"412570410","name":"Aurora do Iguaçu","population":1398,"households":597,"areaKm2":83.6133,"density":16.7}},{"type":"Feature","geometry":{"type":"Polygon","coordinates":[[[-54.29635,-25.55759],[-54.29543,-25.55673],[-54.29236,-25.55528],[-54.28832,-25.55441],[-54.28335,-25.55541],[-54.27947,-25.55801],[-54.27673,-25.56221],[-54.27368,-25.56781],[-54.2662,-25.58181],[-54.26402,-25.58495],[-54.26018,-25.59028],[-54.25791,-25.59359],[-54.25372,-25.59641],[-54.24561,-25.59756],[-54.2414,-25.59729],[-54.23741,-25.59559],[-54.23536,-25.59363],[-54.23431,-25.59084],[-54.23417,-25.5876],[-54.23453,-25.58383],[-54.23538,-25.57948],[-54.23681,-25.57338],[-54.23732,-25.56977],[-54.23704,-25.56732],[-54.23562,-25.56538],[-54.23348,-25.56364],[-54.23048,-25.56281],[-54.2267,-25.56327],[-54.22292,-25.56484],[-54.21754,-25.56909],[-54.21482,-25.57103],[-54.20947,-25.57528],[-54.20313,-25.58048],[-54.19844,-25.58266],[-54.19348,-25.58388],[-54.18634,-25.5853],[-54.18061,-25.58531],[-54.17643,-25.58443],[-54.17436,-25.58246],[-54.17349,-25.57933],[-54.17347,-25.57588],[-54.17473,-25.57286],[-54.17621,-25.57042],[-54.17827,-25.56772],[-54.18037,-25.56588],[-54.18804,-25.56307],[-54.19291,-25.56242],[-54.19891,-25.56069],[-54.20307,-25.55884],[-54.20555,-25.55679],[-54.20746,-25.55456],[-54.20816,-25.55187],[-54.20837,-25.54867],[-54.20766,-25.54482],[-54.20638,-25.54174],[-54.20446,-25.53943],[-54.20104,-25.53711],[-54.19711,-25.53505],[-54.19293,-25.534],[-54.19059,-25.53439],[-54.1869,-25.53548],[-54.18122,-25.53811],[-54.17223,-25.54195],[-54.16728,-25.54311],[-54.16311,-25.54261],[-54.15893,-25.53975],[-54.15545,-25.53606],[-54.15188,-25.53083],[-54.14916,-25.52698],[-54.14401,-25.52096],[-54.14674,-25.51906],[-54.14775,-25.5177],[-54.14582,-25.51628],[-54.14533,-25.51478],[-54.14384,-25.51366],[-54.14319,-25.51226],[-54.14346,-25.51186],[-54.1485,-25.51127],[-54.15258,-25.50903],[-54.1539,-25.50772],[-54.1541,-25.50556],[-54.15223,-25.50387],[-54.15225,-25.50113],[-54.15069,-25.50012],[-54.14861,-25.50003],[-54.14776,-25.50049],[-54.14869,-25.50213],[-54.14633,-25.50513],[-54.14599,-25.50468],[-54.14713,-25.50266],[-54.14683,-25.50189],[-54.14345,-25.50195],[-54.14134,-25.50114],[-54.14124,-25.50059],[-54.14211,-25.49939],[-54.14388,-25.49813],[-54.14465,-25.4963],[-54.14538,-25.49573],[-54.1476,-25.49585],[-54.14895,-25.49313],[-54.14718,-25.49016],[-54.14645,-25.48696],[-54.14516,-25.48599],[-54.14635,-25.48476],[-54.14444,-25.48436],[-54.14248,-25.48567],[-54.14098,-25.48528],[-54.14051,-25.48391],[-54.1438,-25.48281],[-54.18,-25.48397],[-54.21519,-25.48507],[-54.25904,-25.48643],[-54.3098,-25.48805],[-54.36045,-25.48965],[-54.35397,-25.49065],[-54.34914,-25.49345],[-54.34427,-25.5003],[-54.34386,-25.50896],[-54.34031,-25.51546],[-54.33894,-25.52187],[-54.33628,-25.52714],[-54.33428,-25.52899],[-54.33097,-25.53106],[-54.32803,-25.53179],[-54.32691,-25.53331],[-54.32247,-25.53351],[-54.32205,-25.53305],[-54.31991,-25.53331],[-54.31538,-25.53292],[-54.31501,-25.5336],[-54.31353,-25.53432],[-54.31224,-25.53417],[-54.31012,-25.53518],[-54.30751,-25.53762],[-54.30669,-25.54379],[-54.30803,-25.54658],[-54.30692,-25.54971],[-54.30487,-25.5502],[-54.30253,-25.55176],[-54.30003,-25.55649],[-54.29635,-25.55759]]]},"properties":{"codigo":"412570420","name":"São José do Iguaçu","population":179,"households":102,"areaKm2":156.5782,"density":1.1}},{"type":"Feature","geometry":{"type":"Polygon","coordinates":[[[-54.20103,-25.39855],[-54.20209,-25.39729],[-54.20023,-25.39601],[-54.20299,-25.39253],[-54.20786,-25.38673],[-54.21385,-25.39079],[-54.20985,-25.39543],[-54.20606,-25.39998],[-54.20406,-25.39863],[-54.20301,-25.39988],[-54.20103,-25.39855]]]},"properties":{"codigo":"412570430","name":"São Jorge","population":1115,"households":426,"areaKm2":1.0004,"density":1114.6}},{"type":"Feature","geometry":{"type":"Polygon","coordinates":[[[-54.29998,-25.19996],[-54.30062,-25.2003],[-54.30185,-25.20252],[-54.3045,-25.20311],[-54.30564,-25.20442],[-54.30536,-25.20503],[-54.30218,-25.20684],[-54.30219,-25.20823],[-54.30414,-25.20926],[-54.30421,-25.21677],[-54.3058,-25.2179],[-54.30752,-25.21812],[-54.30842,-25.21625],[-54.30989,-25.21479],[-54.31277,-25.21432],[-54.31346,-25.21762],[-54.31608,-25.21894],[-54.31708,-25.22113],[-54.31828,-25.2205],[-54.32092,-25.21787],[-54.32247,-25.2143],[-54.32361,-25.21446],[-54.32553,-25.21568],[-54.32761,-25.21557],[-54.32877,-25.21599],[-54.33025,-25.21812],[-54.33369,-25.2151],[-54.33985,-25.21219],[-54.34328,-25.20956],[-54.34477,-25.20702],[-54.34599,-25.20683],[-54.34749,-25.20732],[-54.34617,-25.2092],[-54.34641,-25.21531],[-54.3478,-25.21496],[-54.34955,-25.21343],[-54.35175,-25.21241],[-54.352,-25.21149],[-54.35119,-25.20966],[-54.3572,-25.20983],[-54.35914,-25.21062],[-54.361,-25.21052],[-54.36389,-25.21506],[-54.36352,-25.21563],[-54.36097,-25.21545],[-54.35755,-25.2169],[-54.35844,-25.2179],[-54.35992,-25.21742],[-54.36227,-25.21976],[-54.36214,-25.22124],[-54.35683,-25.22902],[-54.35703,-25.22964],[-54.35809,-25.23019],[-54.35611,-25.23047],[-54.35318,-25.23136],[-54.35084,-25.23177],[-54.3495,-25.23156],[-54.34822,-25.2309],[-54.3469,-25.22964],[-54.34543,-25.22902],[-54.3399,-25.22814],[-54.33785,-25.2283],[-54.33537,-25.22879],[-54.32876,-25.22584],[-54.3276,-25.2235],[-54.32584,-25.2221],[-54.32411,-25.22103],[-54.32327,-25.22091],[-54.3222,-25.22192],[-54.31995,-25.22517],[-54.31905,-25.22509],[-54.3184,-25.22401],[-54.31691,-25.22374],[-54.31477,-25.22373],[-54.31458,-25.22424],[-54.31329,-25.22453],[-54.31261,-25.22682],[-54.31064,-25.23235],[-54.30931,-25.23525],[-54.30895,-25.23656],[-54.30686,-25.24021],[-54.30681,-25.24257],[-54.306,-25.24454],[-54.30473,-25.24506],[-54.3042,-25.24669],[-54.30469,-25.24814],[-54.30469,-25.25051],[-54.30402,-25.25203],[-54.30304,-25.25631],[-54.3015,-25.25863],[-54.29297,-25.25489],[-54.29045,-25.25495],[-54.27017,-25.28371],[-54.27009,-25.2839],[-54.27009,-25.23873],[-54.27055,-25.2175],[-54.27136,-25.21764],[-54.27214,-25.21477],[-54.27415,-25.21371],[-54.27608,-25.21139],[-54.28013,-25.20954],[-54.27947,-25.20868],[-54.27763,-25.20899],[-54.27788,-25.2058],[-54.28383,-25.20325],[-54.28506,-25.2017],[-54.28798,-25.20148],[-54.29081,-25.19921],[-54.29286,-25.19944],[-54.29497,-25.20121],[-54.29618,-25.20134],[-54.29968,-25.19993],[-54.29998,-25.19996]]]},"properties":{"codigo":"412570435","name":"Santa Rosa do Ocoi","population":633,"households":265,"areaKm2":31.7118,"density":20}}]}