{"type":"FeatureCollection","features":[{"type":"Feature","geometry":{"type":"Polygon","coordinates":[[[-50.26352,-25.83956],[-50.26256,-25.83819],[-50.26288,-25.83671],[-50.26371,-25.83636],[-50.26636,-25.83798],[-50.26745,-25.83766],[-50.26824,-25.83679],[-50.26766,-25.83299],[-50.269,-25.8307],[-50.26733,-25.82763],[-50.26758,-25.82596],[-50.26898,-25.82357],[-50.26797,-25.82108],[-50.26856,-25.8198],[-50.26838,-25.81732],[-50.26858,-25.81576],[-50.27124,-25.80959],[-50.27077,-25.8083],[-50.26902,-25.80645],[-50.26855,-25.80512],[-50.27274,-25.80134],[-50.27427,-25.80078],[-50.27514,-25.80084],[-50.27937,-25.80391],[-50.28373,-25.8003],[-50.28515,-25.79517],[-50.28592,-25.7947],[-50.29197,-25.79365],[-50.29434,-25.7915],[-50.29465,-25.78986],[-50.29364,-25.788],[-50.29335,-25.78485],[-50.29107,-25.78282],[-50.29355,-25.78127],[-50.29242,-25.78001],[-50.29224,-25.77843],[-50.29394,-25.778],[-50.29575,-25.77646],[-50.29577,-25.77563],[-50.29758,-25.77443],[-50.29794,-25.77389],[-50.2974,-25.77296],[-50.29759,-25.77228],[-50.29892,-25.77256],[-50.30001,-25.77185],[-50.29904,-25.77135],[-50.30124,-25.76838],[-50.3046,-25.76833],[-50.30518,-25.76892],[-50.30607,-25.77114],[-50.3078,-25.77044],[-50.30714,-25.76912],[-50.30895,-25.76897],[-50.30799,-25.76814],[-50.30902,-25.76747],[-50.3086,-25.76675],[-50.30933,-25.76566],[-50.30946,-25.76457],[-50.30892,-25.76328],[-50.30917,-25.7623],[-50.3102,-25.7617],[-50.31021,-25.75963],[-50.30792,-25.75888],[-50.30824,-25.75675],[-50.30944,-25.75659],[-50.3104,-25.75752],[-50.31191,-25.75723],[-50.31354,-25.75795],[-50.31645,-25.75572],[-50.31722,-25.75746],[-50.31788,-25.75801],[-50.32107,-25.75873],[-50.32096,-25.75986],[-50.32177,-25.76029],[-50.32331,-25.75921],[-50.32335,-25.75735],[-50.32248,-25.7561],[-50.32378,-25.75584],[-50.32463,-25.75417],[-50.3235,-25.75219],[-50.32582,-25.75168],[-50.32674,-25.75011],[-50.3292,-25.7513],[-50.32915,-25.75026],[-50.33095,-25.75049],[-50.33005,-25.74782],[-50.33094,-25.74748],[-50.32954,-25.74564],[-50.33009,-25.74531],[-50.33236,-25.74643],[-50.33357,-25.7448],[-50.33448,-25.74499],[-50.33524,-25.74586],[-50.33621,-25.74394],[-50.33807,-25.74323],[-50.34014,-25.74416],[-50.33922,-25.74563],[-50.34132,-25.74635],[-50.34137,-25.74746],[-50.34037,-25.74839],[-50.34286,-25.74827],[-50.34164,-25.74941],[-50.34178,-25.75015],[-50.34362,-25.75042],[-50.34377,-25.7494],[-50.34555,-25.75006],[-50.34594,-25.74805],[-50.34695,-25.74801],[-50.34639,-25.74573],[-50.34771,-25.74436],[-50.35089,-25.74366],[-50.35085,-25.74178],[-50.35316,-25.74149],[-50.35357,-25.74038],[-50.35474,-25.73988],[-50.3554,-25.73897],[-50.35541,-25.73809],[-50.35641,-25.73674],[-50.35534,-25.73614],[-50.35703,-25.73453],[-50.35584,-25.73382],[-50.35671,-25.73276],[-50.35712,-25.73157],[-50.36042,-25.73151],[-50.36152,-25.72945],[-50.36264,-25.72964],[-50.36363,-25.72902],[-50.36525,-25.73018],[-50.36433,-25.73151],[-50.36521,-25.73301],[-50.37155,-25.73716],[-50.37295,-25.73765],[-50.37394,-25.73762],[-50.37432,-25.73624],[-50.37491,-25.73611],[-50.37631,-25.73698],[-50.37756,-25.73909],[-50.37863,-25.73803],[-50.3801,-25.73799],[-50.38159,-25.73949],[-50.38397,-25.74033],[-50.38539,-25.74149],[-50.39092,-25.74218],[-50.39571,-25.7482],[-50.39811,-25.74976],[-50.41582,-25.71999],[-50.41653,-25.72096],[-50.42036,-25.72151],[-50.42294,-25.72308],[-50.4255,-25.72339],[-50.43151,-25.72288],[-50.43379,-25.72464],[-50.43838,-25.72353],[-50.44336,-25.7242],[-50.44594,-25.72239],[-50.4495,-25.72265],[-50.45173,-25.72406],[-50.45252,-25.72513],[-50.45405,-25.72603],[-50.45844,-25.7269],[-50.46122,-25.72852],[-50.46277,-25.73107],[-50.46427,-25.73237],[-50.46682,-25.73272],[-50.46917,-25.73236],[-50.47176,-25.73311],[-50.47629,-25.73595],[-50.47684,-25.73825],[-50.4779,-25.73927],[-50.47871,-25.73941],[-50.48018,-25.73869],[-50.48172,-25.73995],[-50.48299,-25.74046],[-50.48362,-25.74228],[-50.48571,-25.74202],[-50.48861,-25.73999],[-50.48828,-25.7391],[-50.48934,-25.73773],[-50.48926,-25.73473],[-50.49,-25.73456],[-50.491,-25.7354],[-50.49056,-25.73651],[-50.49191,-25.73739],[-50.49345,-25.73681],[-50.49437,-25.73737],[-50.49686,-25.73587],[-50.49747,-25.73596],[-50.49844,-25.74045],[-50.50032,-25.73976],[-50.50202,-25.7403],[-50.50601,-25.73905],[-50.50601,-25.73817],[-50.50744,-25.73786],[-50.50797,-25.73706],[-50.50898,-25.73812],[-50.50906,-25.73981],[-50.51017,-25.74276],[-50.50994,-25.7436],[-50.51036,-25.7454],[-50.50872,-25.74528],[-50.50911,-25.74663],[-50.50869,-25.74827],[-50.50786,-25.74919],[-50.51007,-25.74937],[-50.50943,-25.75007],[-50.51026,-25.75269],[-50.51132,-25.75395],[-50.51138,-25.75593],[-50.50971,-25.75883],[-50.5097,-25.75999],[-50.5107,-25.76101],[-50.51337,-25.76125],[-50.51398,-25.76193],[-50.5132,-25.76351],[-50.51186,-25.76491],[-50.51239,-25.76632],[-50.51106,-25.76631],[-50.51167,-25.76759],[-50.51322,-25.76867],[-50.51262,-25.76971],[-50.5122,-25.77135],[-50.51329,-25.77176],[-50.51397,-25.77261],[-50.51602,-25.77372],[-50.51665,-25.77432],[-50.51618,-25.77522],[-50.51527,-25.77498],[-50.51372,-25.77386],[-50.51301,-25.77455],[-50.51375,-25.77613],[-50.51356,-25.7776],[-50.51446,-25.77946],[-50.51372,-25.78076],[-50.51384,-25.78191],[-50.51298,-25.78303],[-50.51217,-25.78469],[-50.51297,-25.78569],[-50.51522,-25.78574],[-50.51601,-25.78617],[-50.51585,-25.78733],[-50.51685,-25.78763],[-50.51706,-25.78838],[-50.5181,-25.78894],[-50.51783,-25.79244],[-50.51744,-25.79287],[-50.51571,-25.79324],[-50.51448,-25.79465],[-50.51408,-25.79657],[-50.51595,-25.79737],[-50.51778,-25.79679],[-50.51843,-25.79808],[-50.51722,-25.79925],[-50.51665,-25.80056],[-50.51532,-25.8007],[-50.51428,-25.80234],[-50.51445,-25.804],[-50.5149,-25.80434],[-50.51947,-25.8061],[-50.51991,-25.8044],[-50.5209,-25.80495],[-50.52248,-25.80732],[-50.52295,-25.80901],[-50.52236,-25.81099],[-50.52328,-25.81206],[-50.52347,-25.81362],[-50.52274,-25.81608],[-50.52434,-25.81727],[-50.52463,-25.81884],[-50.52442,-25.82199],[-50.52344,-25.82376],[-50.52336,-25.82464],[-50.52521,-25.82676],[-50.52562,-25.82855],[-50.52662,-25.82983],[-50.52637,-25.83136],[-50.52523,-25.83393],[-50.5239,-25.8382],[-50.52426,-25.84019],[-50.52413,-25.84313],[-50.5254,-25.84429],[-50.52654,-25.84598],[-50.52625,-25.84729],[-50.5256,-25.84789],[-50.52378,-25.84844],[-50.52487,-25.84911],[-50.52528,-25.84993],[-50.5245,-25.85181],[-50.52452,-25.85242],[-50.52599,-25.85677],[-50.52572,-25.85794],[-50.52503,-25.85878],[-50.52273,-25.8602],[-50.52233,-25.86133],[-50.52337,-25.86226],[-50.5253,-25.86149],[-50.52523,-25.86392],[-50.5263,-25.86512],[-50.52606,-25.8664],[-50.52497,-25.86811],[-50.52535,-25.86906],[-50.52522,-25.87027],[-50.52639,-25.87128],[-50.52799,-25.87199],[-50.5298,-25.87233],[-50.53109,-25.87339],[-50.53055,-25.87429],[-50.53206,-25.8751],[-50.53133,-25.87608],[-50.52916,-25.87641],[-50.52883,-25.87696],[-50.52909,-25.88144],[-50.52803,-25.88284],[-50.52872,-25.88439],[-50.52804,-25.88598],[-50.52897,-25.88676],[-50.53083,-25.88723],[-50.53087,-25.88799],[-50.53106,-25.88978],[-50.53195,-25.89041],[-50.53462,-25.89085],[-50.5377,-25.88983],[-50.53938,-25.89007],[-50.54096,-25.89067],[-50.54215,-25.89207],[-50.54059,-25.89334],[-50.54092,-25.89388],[-50.54274,-25.89468],[-50.54336,-25.89588],[-50.54427,-25.89543],[-50.54485,-25.89341],[-50.54642,-25.89305],[-50.54717,-25.89393],[-50.54703,-25.89464],[-50.54512,-25.89694],[-50.54409,-25.8975],[-50.53752,-25.89961],[-50.53228,-25.90247],[-50.53034,-25.90297],[-50.52835,-25.90271],[-50.52636,-25.90182],[-50.52437,-25.90037],[-50.52254,-25.89851],[-50.52146,-25.89771],[-50.5205,-25.8976],[-50.52024,-25.89896],[-50.52389,-25.90375],[-50.52498,-25.90876],[-50.52461,-25.91018],[-50.52306,-25.91279],[-50.5213,-25.91793],[-50.51701,-25.92505],[-50.51671,-25.92633],[-50.51697,-25.92761],[-50.51891,-25.93049],[-50.52182,-25.93337],[-50.52549,-25.93748],[-50.52689,-25.93859],[-50.52816,-25.93919],[-50.52959,-25.93917],[-50.53112,-25.93838],[-50.53245,-25.93844],[-50.53385,-25.93907],[-50.53553,-25.94109],[-50.53765,-25.94189],[-50.53703,-25.94377],[-50.53733,-25.94425],[-50.54006,-25.9446],[-50.54143,-25.945],[-50.54244,-25.94617],[-50.54432,-25.94934],[-50.54509,-25.95184],[-50.54486,-25.953],[-50.54196,-25.95678],[-50.53742,-25.96444],[-50.53739,-25.96908],[-50.53716,-25.97078],[-50.53495,-25.97347],[-50.53221,-25.975],[-50.53111,-25.97471],[-50.53054,-25.97334],[-50.53037,-25.97164],[-50.53233,-25.96934],[-50.53254,-25.96826],[-50.53199,-25.96746],[-50.53069,-25.96649],[-50.52917,-25.96578],[-50.52805,-25.96577],[-50.52682,-25.96679],[-50.52509,-25.96704],[-50.52313,-25.96507],[-50.52277,-25.96539],[-50.52273,-25.96769],[-50.52181,-25.96902],[-50.52008,-25.96964],[-50.51835,-25.97078],[-50.51554,-25.97065],[-50.51377,-25.96743],[-50.51401,-25.96675],[-50.51607,-25.96687],[-50.5162,-25.96582],[-50.51476,-25.96454],[-50.51272,-25.96399],[-50.51204,-25.9645],[-50.51236,-25.96717],[-50.51132,-25.96859],[-50.51089,-25.97089],[-50.50956,-25.97094],[-50.50908,-25.97029],[-50.50902,-25.96853],[-50.50799,-25.96736],[-50.50589,-25.96732],[-50.50339,-25.96947],[-50.50221,-25.9702],[-50.50051,-25.97063],[-50.49879,-25.97011],[-50.495,-25.97018],[-50.49298,-25.97131],[-50.49252,-25.97253],[-50.49223,-25.97762],[-50.49319,-25.98431],[-50.49298,-25.98675],[-50.49323,-25.9925],[-50.49352,-25.99395],[-50.49439,-25.99552],[-50.49587,-25.99629],[-50.50161,-25.9971],[-50.50311,-25.99572],[-50.50515,-25.9883],[-50.50659,-25.98609],[-50.50847,-25.98371],[-50.51075,-25.98332],[-50.51357,-25.98344],[-50.51638,-25.98444],[-50.51739,-25.98595],[-50.51785,-25.98911],[-50.51752,-25.99062],[-50.51698,-25.99574],[-50.51711,-25.99753],[-50.51845,-26.00092],[-50.51964,-26.00092],[-50.52032,-26.00195],[-50.52106,-26.00422],[-50.52115,-26.00607],[-50.52174,-26.00801],[-50.52013,-26.01266],[-50.51962,-26.01721],[-50.51917,-26.01839],[-50.52049,-26.02205],[-50.52067,-26.02611],[-50.52203,-26.03142],[-50.51997,-26.03071],[-50.51733,-26.02828],[-50.51509,-26.02676],[-50.5133,-26.02613],[-50.51152,-26.02615],[-50.51049,-26.02658],[-50.50889,-26.02856],[-50.5077,-26.03052],[-50.50674,-26.0317],[-50.50502,-26.03222],[-50.50426,-26.03202],[-50.50363,-26.03095],[-50.50272,-26.0251],[-50.50143,-26.02292],[-50.4991,-26.02221],[-50.49759,-26.02264],[-50.4964,-26.02424],[-50.49368,-26.0264],[-50.49132,-26.02643],[-50.49017,-26.0258],[-50.49133,-26.02276],[-50.49098,-26.01998],[-50.48961,-26.01903],[-50.4881,-26.01844],[-50.48634,-26.01829],[-50.48449,-26.01854],[-50.48277,-26.02086],[-50.48075,-26.02151],[-50.47954,-26.02092],[-50.47857,-26.01945],[-50.47801,-26.01776],[-50.47813,-26.0166],[-50.47952,-26.01518],[-50.48272,-26.0155],[-50.48447,-26.0152],[-50.48536,-26.01421],[-50.48558,-26.01321],[-50.48478,-26.01203],[-50.48385,-26.01179],[-50.47987,-26.01241],[-50.47455,-26.01071],[-50.47185,-26.00791],[-50.47031,-26.00802],[-50.46963,-26.00866],[-50.46956,-26.0096],[-50.47081,-26.01205],[-50.47015,-26.01335],[-50.46852,-26.01372],[-50.46609,-26.01269],[-50.46198,-26.01299],[-50.45969,-26.01236],[-50.4585,-26.01136],[-50.45714,-26.00877],[-50.45579,-26.00763],[-50.45194,-26.00698],[-50.45028,-26.00602],[-50.44926,-26.00415],[-50.44889,-26.00249],[-50.44943,-26.00088],[-50.45091,-26.00039],[-50.45242,-26.00072],[-50.45329,-26.00134],[-50.45417,-26.0035],[-50.45484,-26.00377],[-50.45575,-26.00315],[-50.4564,-26.00164],[-50.45636,-26.00074],[-50.45509,-25.99827],[-50.45153,-25.99454],[-50.44814,-25.98593],[-50.44805,-25.98467],[-50.4488,-25.98349],[-50.45105,-25.98177],[-50.45154,-25.98089],[-50.45124,-25.98013],[-50.44968,-25.97804],[-50.44983,-25.97719],[-50.45071,-25.97655],[-50.4525,-25.97625],[-50.45396,-25.97569],[-50.45437,-25.97479],[-50.45406,-25.96946],[-50.45491,-25.96778],[-50.45593,-25.96669],[-50.45796,-25.96597],[-50.46075,-25.96586],[-50.46208,-25.96501],[-50.4626,-25.9634],[-50.46256,-25.96224],[-50.4619,-25.96112],[-50.46102,-25.96051],[-50.45965,-25.96045],[-50.45798,-25.96094],[-50.45159,-25.96476],[-50.44982,-25.96537],[-50.44766,-25.96531],[-50.44529,-25.96502],[-50.44011,-25.96374],[-50.43167,-25.96238],[-50.42567,-25.96196],[-50.42425,-25.9616],[-50.42369,-25.961],[-50.42448,-25.95899],[-50.42578,-25.95795],[-50.42891,-25.95645],[-50.42942,-25.95548],[-50.42923,-25.95408],[-50.42839,-25.95277],[-50.4283,-25.95171],[-50.42913,-25.95084],[-50.43646,-25.94913],[-50.43781,-25.94838],[-50.43867,-25.9472],[-50.43866,-25.94595],[-50.4375,-25.94459],[-50.43304,-25.94187],[-50.43198,-25.94023],[-50.43047,-25.93724],[-50.43014,-25.93608],[-50.43079,-25.93547],[-50.43262,-25.9355],[-50.43426,-25.93754],[-50.43574,-25.93837],[-50.43747,-25.93893],[-50.43909,-25.9386],[-50.43979,-25.93749],[-50.43962,-25.93638],[-50.43841,-25.93545],[-50.43498,-25.93453],[-50.43403,-25.93372],[-50.43294,-25.93201],[-50.43179,-25.93215],[-50.43029,-25.93363],[-50.42893,-25.93366],[-50.4265,-25.93509],[-50.42588,-25.93517],[-50.42357,-25.9345],[-50.42274,-25.9346],[-50.42017,-25.93568],[-50.4176,-25.93535],[-50.41539,-25.9337],[-50.41423,-25.93103],[-50.41293,-25.93029],[-50.40774,-25.93012],[-50.40545,-25.92964],[-50.40387,-25.9299],[-50.40211,-25.92889],[-50.40054,-25.92909],[-50.39911,-25.92838],[-50.39818,-25.92877],[-50.3973,-25.92996],[-50.39592,-25.93067],[-50.39499,-25.93171],[-50.39313,-25.93185],[-50.39217,-25.93226],[-50.39073,-25.93352],[-50.38937,-25.93523],[-50.38585,-25.93593],[-50.38351,-25.93681],[-50.38142,-25.93833],[-50.3793,-25.94099],[-50.37655,-25.94286],[-50.37588,-25.94361],[-50.37437,-25.94632],[-50.37317,-25.94726],[-50.37194,-25.94777],[-50.37039,-25.94787],[-50.36753,-25.94708],[-50.36392,-25.94511],[-50.36129,-25.94229],[-50.36017,-25.94216],[-50.35915,-25.94279],[-50.35836,-25.94457],[-50.35597,-25.94669],[-50.35531,-25.94855],[-50.35533,-25.9519],[-50.35469,-25.95337],[-50.35343,-25.95443],[-50.35081,-25.95571],[-50.34902,-25.95559],[-50.34629,-25.95435],[-50.34154,-25.95494],[-50.34041,-25.9544],[-50.33865,-25.95251],[-50.3314,-25.94808],[-50.32928,-25.94663],[-50.32787,-25.94481],[-50.32706,-25.94422],[-50.3244,-25.9436],[-50.31609,-25.94467],[-50.31091,-25.94497],[-50.30916,-25.94493],[-50.30597,-25.94443],[-50.3013,-25.94542],[-50.29771,-25.94659],[-50.29446,-25.949],[-50.29183,-25.94953],[-50.28645,-25.94903],[-50.28441,-25.94926],[-50.28239,-25.95008],[-50.27959,-25.95249],[-50.27776,-25.95307],[-50.27466,-25.95298],[-50.27251,-25.95229],[-50.2704,-25.95102],[-50.26924,-25.94982],[-50.22848,-25.9671],[-50.22008,-25.94101],[-50.22077,-25.9381],[-50.21954,-25.93562],[-50.21916,-25.93327],[-50.21935,-25.93109],[-50.22112,-25.9269],[-50.2176,-25.92069],[-50.21733,-25.9194],[-50.21944,-25.91734],[-50.21895,-25.91607],[-50.22043,-25.91466],[-50.2215,-25.91052],[-50.22453,-25.9079],[-50.22499,-25.90614],[-50.22595,-25.90489],[-50.22559,-25.90315],[-50.22644,-25.90162],[-50.22699,-25.89759],[-50.22765,-25.89597],[-50.22736,-25.89471],[-50.22852,-25.89277],[-50.22855,-25.89162],[-50.2297,-25.89091],[-50.22996,-25.88929],[-50.22782,-25.88447],[-50.22883,-25.88248],[-50.23096,-25.88154],[-50.23257,-25.87763],[-50.23233,-25.87649],[-50.23446,-25.87423],[-50.23462,-25.87315],[-50.23344,-25.87152],[-50.23437,-25.86952],[-50.23423,-25.86794],[-50.23563,-25.86709],[-50.23584,-25.86606],[-50.23498,-25.86359],[-50.23419,-25.86278],[-50.23416,-25.86039],[-50.23759,-25.85705],[-50.23799,-25.85601],[-50.23903,-25.8557],[-50.24095,-25.85673],[-50.24314,-25.85719],[-50.24552,-25.85502],[-50.24643,-25.85304],[-50.24772,-25.85286],[-50.24862,-25.85215],[-50.25091,-25.85208],[-50.2548,-25.85315],[-50.25684,-25.8525],[-50.26063,-25.8476],[-50.26268,-25.84668],[-50.2607,-25.84481],[-50.26017,-25.8435],[-50.26168,-25.8425],[-50.26403,-25.84322],[-50.26549,-25.8423],[-50.26549,-25.84142],[-50.26352,-25.83956]]]},"properties":{"codigo":"412560505","name":"São Mateus do Sul","population":35887,"households":15675,"areaKm2":668.5785,"density":53.7}},{"type":"Feature","geometry":{"type":"Polygon","coordinates":[[[-50.60085,-25.78422],[-50.59889,-25.78674],[-50.599,-25.79073],[-50.60044,-25.79303],[-50.60874,-25.79715],[-50.60947,-25.79858],[-50.60947,-25.80066],[-50.60874,-25.80164],[-50.60246,-25.80376],[-50.60076,-25.80534],[-50.60123,-25.80753],[-50.6028,-25.80873],[-50.60292,-25.80983],[-50.60388,-25.81049],[-50.60545,-25.80945],[-50.60654,-25.80945],[-50.60726,-25.81208],[-50.60834,-25.81208],[-50.60968,-25.81116],[-50.60967,-25.81225],[-50.60773,-25.81695],[-50.60796,-25.81897],[-50.60941,-25.81898],[-50.6128,-25.81767],[-50.61885,-25.81304],[-50.62066,-25.81097],[-50.62007,-25.80862],[-50.62635,-25.80808],[-50.62659,-25.8088],[-50.6255,-25.81032],[-50.62597,-25.81284],[-50.62549,-25.8135],[-50.62259,-25.81278],[-50.62138,-25.81365],[-50.62114,-25.81474],[-50.62198,-25.81595],[-50.62221,-25.81737],[-50.6239,-25.81732],[-50.62438,-25.81896],[-50.62655,-25.81995],[-50.6297,-25.81848],[-50.63224,-25.81554],[-50.63333,-25.8162],[-50.63381,-25.81778],[-50.63246,-25.82248],[-50.6333,-25.82456],[-50.63268,-25.82886],[-50.63026,-25.83051],[-50.6189,-25.83459],[-50.61817,-25.83662],[-50.61949,-25.83836],[-50.61804,-25.83836],[-50.61719,-25.83945],[-50.61682,-25.84136],[-50.61851,-25.84202],[-50.61863,-25.84312],[-50.61706,-25.84377],[-50.61549,-25.84355],[-50.61175,-25.84064],[-50.61042,-25.84118],[-50.61042,-25.84206],[-50.61175,-25.84244],[-50.6121,-25.8442],[-50.61138,-25.84507],[-50.6096,-25.84596],[-50.60872,-25.84596],[-50.60832,-25.84441],[-50.60758,-25.84406],[-50.60697,-25.84478],[-50.60679,-25.84691],[-50.60395,-25.84594],[-50.60225,-25.84643],[-50.6031,-25.84758],[-50.60629,-25.84816],[-50.60774,-25.84882],[-50.60804,-25.84959],[-50.60688,-25.85445],[-50.60771,-25.85825],[-50.6074,-25.86109],[-50.60661,-25.86218],[-50.60522,-25.86188],[-50.60461,-25.86362],[-50.60377,-25.86368],[-50.60202,-25.86252],[-50.60123,-25.8628],[-50.60093,-25.86364],[-50.60304,-25.86523],[-50.60249,-25.86665],[-50.60153,-25.86677],[-50.6002,-25.86605],[-50.59953,-25.86531],[-50.59875,-25.86537],[-50.59721,-25.86638],[-50.59656,-25.8651],[-50.59744,-25.86283],[-50.59734,-25.86221],[-50.59608,-25.86166],[-50.59445,-25.8624],[-50.59353,-25.86384],[-50.59259,-25.86359],[-50.59212,-25.86199],[-50.59051,-25.86182],[-50.59035,-25.86295],[-50.5894,-25.86312],[-50.58854,-25.86241],[-50.58753,-25.86056],[-50.58692,-25.85882],[-50.58555,-25.85731],[-50.58569,-25.85603],[-50.58435,-25.85486],[-50.58351,-25.85179],[-50.58262,-25.85079],[-50.58117,-25.85064],[-50.5791,-25.85163],[-50.57772,-25.85117],[-50.57791,-25.84998],[-50.57694,-25.84992],[-50.57671,-25.85157],[-50.57708,-25.85288],[-50.57482,-25.8529],[-50.5739,-25.85463],[-50.57333,-25.85685],[-50.57353,-25.85779],[-50.57476,-25.85984],[-50.57376,-25.86032],[-50.57231,-25.85997],[-50.57091,-25.86128],[-50.56928,-25.86107],[-50.56739,-25.86229],[-50.56541,-25.86396],[-50.56439,-25.8643],[-50.56381,-25.8639],[-50.56319,-25.86132],[-50.5626,-25.86107],[-50.56123,-25.86141],[-50.5607,-25.86109],[-50.56119,-25.85994],[-50.5609,-25.85895],[-50.55807,-25.86067],[-50.55475,-25.86196],[-50.5534,-25.86291],[-50.54948,-25.8643],[-50.54928,-25.86494],[-50.55055,-25.86912],[-50.54975,-25.87284],[-50.55018,-25.87537],[-50.55,-25.87651],[-50.54794,-25.87903],[-50.5476,-25.87997],[-50.54816,-25.88085],[-50.5508,-25.8812],[-50.55217,-25.88175],[-50.55353,-25.88269],[-50.55501,-25.88503],[-50.5563,-25.88514],[-50.55813,-25.88615],[-50.5598,-25.88558],[-50.56219,-25.88607],[-50.56485,-25.88631],[-50.56601,-25.88742],[-50.56582,-25.8891],[-50.56397,-25.89154],[-50.56321,-25.89335],[-50.56313,-25.89426],[-50.56371,-25.89509],[-50.56571,-25.89638],[-50.56582,-25.897],[-50.56519,-25.89834],[-50.56575,-25.89987],[-50.56442,-25.90064],[-50.56125,-25.89957],[-50.55927,-25.89806],[-50.55737,-25.89712],[-50.55332,-25.89662],[-50.55284,-25.89594],[-50.5519,-25.89301],[-50.55045,-25.89118],[-50.54849,-25.88927],[-50.54666,-25.88796],[-50.53536,-25.88693],[-50.53273,-25.88692],[-50.53143,-25.88728],[-50.53087,-25.88799],[-50.53083,-25.88723],[-50.52897,-25.88676],[-50.52804,-25.88598],[-50.52872,-25.88439],[-50.52803,-25.88284],[-50.52909,-25.88144],[-50.52883,-25.87696],[-50.52916,-25.87641],[-50.53133,-25.87608],[-50.53206,-25.8751],[-50.53055,-25.87429],[-50.53109,-25.87339],[-50.5298,-25.87233],[-50.52799,-25.87199],[-50.52639,-25.87128],[-50.52522,-25.87027],[-50.52535,-25.86906],[-50.52497,-25.86811],[-50.52606,-25.8664],[-50.5263,-25.86512],[-50.52523,-25.86392],[-50.5253,-25.86149],[-50.52337,-25.86226],[-50.52233,-25.86133],[-50.52273,-25.8602],[-50.52503,-25.85878],[-50.52572,-25.85794],[-50.52599,-25.85677],[-50.52452,-25.85242],[-50.5245,-25.85181],[-50.52528,-25.84993],[-50.52487,-25.84911],[-50.52378,-25.84844],[-50.5256,-25.84789],[-50.52625,-25.84729],[-50.52654,-25.84598],[-50.5254,-25.84429],[-50.52413,-25.84313],[-50.52426,-25.84019],[-50.5239,-25.8382],[-50.52523,-25.83393],[-50.52637,-25.83136],[-50.52662,-25.82983],[-50.52562,-25.82855],[-50.52521,-25.82676],[-50.52336,-25.82464],[-50.52344,-25.82376],[-50.52442,-25.82199],[-50.52463,-25.81884],[-50.52434,-25.81727],[-50.52274,-25.81608],[-50.52347,-25.81362],[-50.52328,-25.81206],[-50.52236,-25.81099],[-50.52295,-25.80901],[-50.52248,-25.80732],[-50.5209,-25.80495],[-50.51991,-25.8044],[-50.51947,-25.8061],[-50.5149,-25.80434],[-50.51445,-25.804],[-50.51428,-25.80234],[-50.51532,-25.8007],[-50.51665,-25.80056],[-50.51722,-25.79925],[-50.51843,-25.79808],[-50.51778,-25.79679],[-50.51595,-25.79737],[-50.51408,-25.79657],[-50.51448,-25.79465],[-50.51571,-25.79324],[-50.51744,-25.79287],[-50.51783,-25.79244],[-50.5181,-25.78894],[-50.51706,-25.78838],[-50.51685,-25.78763],[-50.51585,-25.78733],[-50.51601,-25.78617],[-50.51522,-25.78574],[-50.51297,-25.78569],[-50.51217,-25.78469],[-50.51298,-25.78303],[-50.51384,-25.78191],[-50.51372,-25.78076],[-50.51446,-25.77946],[-50.51356,-25.7776],[-50.51375,-25.77613],[-50.51301,-25.77455],[-50.51372,-25.77386],[-50.51527,-25.77498],[-50.51618,-25.77522],[-50.51665,-25.77432],[-50.51602,-25.77372],[-50.51397,-25.77261],[-50.51329,-25.77176],[-50.5122,-25.77135],[-50.51262,-25.76971],[-50.51322,-25.76867],[-50.51167,-25.76759],[-50.51106,-25.76631],[-50.51239,-25.76632],[-50.51186,-25.76491],[-50.5132,-25.76351],[-50.51398,-25.76193],[-50.51337,-25.76125],[-50.5107,-25.76101],[-50.5097,-25.75999],[-50.50971,-25.75883],[-50.51138,-25.75593],[-50.51132,-25.75395],[-50.51026,-25.75269],[-50.50943,-25.75007],[-50.51007,-25.74937],[-50.50786,-25.74919],[-50.50869,-25.74827],[-50.50911,-25.74663],[-50.50872,-25.74528],[-50.51036,-25.7454],[-50.50994,-25.7436],[-50.51017,-25.74276],[-50.50906,-25.73981],[-50.50898,-25.73812],[-50.50797,-25.73706],[-50.50886,-25.7369],[-50.50945,-25.73563],[-50.50874,-25.73485],[-50.50923,-25.73273],[-50.51018,-25.73223],[-50.51157,-25.73221],[-50.51466,-25.73278],[-50.51925,-25.73525],[-50.52177,-25.73792],[-50.52596,-25.74013],[-50.5313,-25.7438],[-50.53131,-25.74429],[-50.52987,-25.74642],[-50.5301,-25.75005],[-50.5346,-25.75558],[-50.53845,-25.75813],[-50.54243,-25.75902],[-50.54388,-25.75886],[-50.5448,-25.7569],[-50.54631,-25.75595],[-50.54797,-25.75563],[-50.54984,-25.75432],[-50.55132,-25.75415],[-50.5527,-25.75451],[-50.55376,-25.75421],[-50.55533,-25.75268],[-50.55853,-25.75258],[-50.5613,-25.7538],[-50.56238,-25.75582],[-50.56454,-25.75798],[-50.56616,-25.76143],[-50.56778,-25.76305],[-50.56863,-25.76311],[-50.57098,-25.76208],[-50.573,-25.7622],[-50.57653,-25.76289],[-50.57821,-25.76459],[-50.5793,-25.76492],[-50.58455,-25.76359],[-50.58709,-25.76234],[-50.5886,-25.7606],[-50.5912,-25.75949],[-50.59319,-25.75982],[-50.59493,-25.76168],[-50.59619,-25.76393],[-50.59673,-25.76598],[-50.59616,-25.77284],[-50.59722,-25.7799],[-50.60085,-25.78422]]]},"properties":{"codigo":"412560510","name":"Caitá","population":766,"households":341,"areaKm2":114.502,"density":6.7}},{"type":"Feature","geometry":{"type":"Polygon","coordinates":[[[-50.67063,-25.96884],[-50.6681,-25.96882],[-50.66756,-25.9675],[-50.6649,-25.96933],[-50.66398,-25.97222],[-50.6632,-25.97187],[-50.66217,-25.97066],[-50.66204,-25.97416],[-50.6609,-25.97331],[-50.65987,-25.97424],[-50.66023,-25.97555],[-50.65974,-25.97669],[-50.66022,-25.97803],[-50.65805,-25.9777],[-50.65828,-25.9789],[-50.65816,-25.98055],[-50.65949,-25.98096],[-50.65864,-25.98243],[-50.66026,-25.98276],[-50.66111,-25.98342],[-50.66062,-25.98558],[-50.65995,-25.98694],[-50.66031,-25.98782],[-50.66134,-25.98839],[-50.66164,-25.99025],[-50.66296,-25.99075],[-50.66302,-25.99162],[-50.66169,-25.99317],[-50.66156,-25.99421],[-50.65962,-25.99585],[-50.66004,-25.99686],[-50.65859,-25.99773],[-50.65907,-25.99926],[-50.65514,-25.99958],[-50.65381,-26.00037],[-50.65471,-26.00146],[-50.65409,-26.00233],[-50.65512,-26.00367],[-50.65444,-26.00487],[-50.65576,-26.0059],[-50.65419,-26.00721],[-50.65437,-26.00822],[-50.65392,-26.00938],[-50.65424,-26.01025],[-50.65555,-26.01048],[-50.65466,-26.01149],[-50.65508,-26.01266],[-50.65215,-26.01272],[-50.65423,-26.01417],[-50.65208,-26.01716],[-50.65157,-26.01601],[-50.64761,-26.01705],[-50.64775,-26.01825],[-50.64576,-26.01821],[-50.64515,-26.01965],[-50.64334,-26.01913],[-50.64337,-26.01842],[-50.6383,-26.01957],[-50.63726,-26.02073],[-50.63683,-26.02231],[-50.63713,-26.02415],[-50.64012,-26.02468],[-50.63954,-26.02563],[-50.64072,-26.02696],[-50.63936,-26.02786],[-50.63947,-26.02875],[-50.63823,-26.03041],[-50.63802,-26.03144],[-50.63699,-26.03203],[-50.63813,-26.03356],[-50.63806,-26.03414],[-50.6365,-26.03419],[-50.6374,-26.03533],[-50.63492,-26.03483],[-50.63375,-26.03368],[-50.63493,-26.03178],[-50.63415,-26.03072],[-50.63309,-26.03101],[-50.63161,-26.03229],[-50.62983,-26.03238],[-50.62916,-26.03364],[-50.63024,-26.03451],[-50.62683,-26.03441],[-50.62818,-26.03676],[-50.62708,-26.03743],[-50.62794,-26.03835],[-50.62735,-26.03924],[-50.62804,-26.04056],[-50.62674,-26.0418],[-50.62638,-26.04369],[-50.62499,-26.04405],[-50.62417,-26.04486],[-50.62528,-26.0459],[-50.62383,-26.04644],[-50.62436,-26.04968],[-50.62175,-26.05089],[-50.62079,-26.05212],[-50.62169,-26.05357],[-50.62302,-26.05385],[-50.62281,-26.05487],[-50.62386,-26.05547],[-50.6251,-26.05441],[-50.62561,-26.05523],[-50.627,-26.05518],[-50.62664,-26.05645],[-50.62879,-26.05525],[-50.62906,-26.05438],[-50.63033,-26.05541],[-50.63134,-26.05443],[-50.63422,-26.05489],[-50.63353,-26.05677],[-50.63449,-26.05832],[-50.63304,-26.05869],[-50.63222,-26.06019],[-50.62904,-26.06084],[-50.62862,-26.0613],[-50.62851,-26.06283],[-50.62713,-26.06225],[-50.62577,-26.06213],[-50.62297,-26.06229],[-50.62026,-26.06272],[-50.61592,-26.06377],[-50.61344,-26.06451],[-50.60769,-26.06653],[-50.60294,-26.06793],[-50.59816,-26.06989],[-50.5948,-26.0704],[-50.58546,-26.06915],[-50.58216,-26.06853],[-50.57718,-26.06729],[-50.57166,-26.06708],[-50.57074,-26.06686],[-50.56732,-26.06532],[-50.56429,-26.06381],[-50.55923,-26.06211],[-50.55539,-26.06048],[-50.55353,-26.05938],[-50.55191,-26.05756],[-50.55029,-26.05159],[-50.54973,-26.04896],[-50.54944,-26.04653],[-50.5498,-26.04528],[-50.55127,-26.0433],[-50.55251,-26.04263],[-50.55524,-26.04165],[-50.55927,-26.04115],[-50.56528,-26.04127],[-50.56705,-26.04167],[-50.56977,-26.04267],[-50.57191,-26.0439],[-50.57368,-26.04536],[-50.57567,-26.04664],[-50.58037,-26.04806],[-50.58238,-26.04814],[-50.58629,-26.0476],[-50.58866,-26.04546],[-50.59067,-26.0434],[-50.59172,-26.04032],[-50.59283,-26.03193],[-50.59315,-26.02715],[-50.59244,-26.02445],[-50.59108,-26.02181],[-50.58889,-26.01886],[-50.58247,-26.01351],[-50.58146,-26.01232],[-50.57918,-26.00871],[-50.57785,-26.00731],[-50.57321,-26.00381],[-50.57023,-26.00195],[-50.56708,-26.00216],[-50.56443,-26.00352],[-50.56191,-26.00649],[-50.56061,-26.01063],[-50.56008,-26.01341],[-50.55575,-26.01816],[-50.5547,-26.02107],[-50.55422,-26.0265],[-50.5539,-26.0278],[-50.55243,-26.0319],[-50.55167,-26.03452],[-50.55087,-26.03826],[-50.54992,-26.03898],[-50.54798,-26.03961],[-50.54533,-26.03957],[-50.54188,-26.03785],[-50.53948,-26.03629],[-50.53756,-26.036],[-50.5302,-26.03558],[-50.52835,-26.03485],[-50.52588,-26.03295],[-50.5236,-26.03176],[-50.52203,-26.03142],[-50.52067,-26.02611],[-50.52049,-26.02205],[-50.51917,-26.01839],[-50.51962,-26.01721],[-50.52013,-26.01266],[-50.52174,-26.00801],[-50.52115,-26.00607],[-50.52106,-26.00422],[-50.52032,-26.00195],[-50.51964,-26.00092],[-50.51845,-26.00092],[-50.51711,-25.99753],[-50.51698,-25.99574],[-50.51752,-25.99062],[-50.51785,-25.98911],[-50.51739,-25.98595],[-50.51638,-25.98444],[-50.51357,-25.98344],[-50.51075,-25.98332],[-50.50847,-25.98371],[-50.50659,-25.98609],[-50.50515,-25.9883],[-50.50311,-25.99572],[-50.50161,-25.9971],[-50.49587,-25.99629],[-50.49439,-25.99552],[-50.49352,-25.99395],[-50.49323,-25.9925],[-50.49298,-25.98675],[-50.49319,-25.98431],[-50.49223,-25.97762],[-50.49252,-25.97253],[-50.49298,-25.97131],[-50.495,-25.97018],[-50.49879,-25.97011],[-50.50051,-25.97063],[-50.50221,-25.9702],[-50.50339,-25.96947],[-50.50589,-25.96732],[-50.50799,-25.96736],[-50.50902,-25.96853],[-50.50908,-25.97029],[-50.50956,-25.97094],[-50.51089,-25.97089],[-50.51132,-25.96859],[-50.51236,-25.96717],[-50.51204,-25.9645],[-50.51272,-25.96399],[-50.51476,-25.96454],[-50.5162,-25.96582],[-50.51607,-25.96687],[-50.51401,-25.96675],[-50.51377,-25.96743],[-50.51554,-25.97065],[-50.51835,-25.97078],[-50.52008,-25.96964],[-50.52181,-25.96902],[-50.52273,-25.96769],[-50.52277,-25.96539],[-50.52313,-25.96507],[-50.52509,-25.96704],[-50.52682,-25.96679],[-50.52805,-25.96577],[-50.52917,-25.96578],[-50.53069,-25.96649],[-50.53199,-25.96746],[-50.53254,-25.96826],[-50.53233,-25.96934],[-50.53037,-25.97164],[-50.53054,-25.97334],[-50.53111,-25.97471],[-50.53221,-25.975],[-50.53495,-25.97347],[-50.53716,-25.97078],[-50.53739,-25.96908],[-50.53742,-25.96444],[-50.54196,-25.95678],[-50.54486,-25.953],[-50.54509,-25.95184],[-50.54432,-25.94934],[-50.54244,-25.94617],[-50.54143,-25.945],[-50.54006,-25.9446],[-50.53733,-25.94425],[-50.53703,-25.94377],[-50.53765,-25.94189],[-50.53553,-25.94109],[-50.53385,-25.93907],[-50.53245,-25.93844],[-50.53112,-25.93838],[-50.52959,-25.93917],[-50.52816,-25.93919],[-50.52689,-25.93859],[-50.52549,-25.93748],[-50.52182,-25.93337],[-50.51891,-25.93049],[-50.51697,-25.92761],[-50.51671,-25.92633],[-50.51701,-25.92505],[-50.5213,-25.91793],[-50.52306,-25.91279],[-50.52461,-25.91018],[-50.52498,-25.90876],[-50.52389,-25.90375],[-50.52024,-25.89896],[-50.5205,-25.8976],[-50.52146,-25.89771],[-50.52254,-25.89851],[-50.52437,-25.90037],[-50.52636,-25.90182],[-50.52835,-25.90271],[-50.53034,-25.90297],[-50.53228,-25.90247],[-50.53752,-25.89961],[-50.54409,-25.8975],[-50.54512,-25.89694],[-50.54703,-25.89464],[-50.54717,-25.89393],[-50.54642,-25.89305],[-50.54485,-25.89341],[-50.54427,-25.89543],[-50.54336,-25.89588],[-50.54274,-25.89468],[-50.54092,-25.89388],[-50.54059,-25.89334],[-50.54215,-25.89207],[-50.54096,-25.89067],[-50.53938,-25.89007],[-50.5377,-25.88983],[-50.53462,-25.89085],[-50.53195,-25.89041],[-50.53106,-25.88978],[-50.53087,-25.88799],[-50.53143,-25.88728],[-50.53273,-25.88692],[-50.53536,-25.88693],[-50.54666,-25.88796],[-50.54849,-25.88927],[-50.55045,-25.89118],[-50.5519,-25.89301],[-50.55284,-25.89594],[-50.55332,-25.89662],[-50.55737,-25.89712],[-50.55927,-25.89806],[-50.56125,-25.89957],[-50.56442,-25.90064],[-50.56575,-25.89987],[-50.56519,-25.89834],[-50.56582,-25.897],[-50.56571,-25.89638],[-50.56371,-25.89509],[-50.56313,-25.89426],[-50.56321,-25.89335],[-50.56397,-25.89154],[-50.56582,-25.8891],[-50.56601,-25.88742],[-50.56485,-25.88631],[-50.56219,-25.88607],[-50.5598,-25.88558],[-50.55813,-25.88615],[-50.5563,-25.88514],[-50.55501,-25.88503],[-50.55353,-25.88269],[-50.55217,-25.88175],[-50.5508,-25.8812],[-50.54816,-25.88085],[-50.5476,-25.87997],[-50.54794,-25.87903],[-50.55,-25.87651],[-50.55018,-25.87537],[-50.54975,-25.87284],[-50.55055,-25.86912],[-50.54928,-25.86494],[-50.54948,-25.8643],[-50.5534,-25.86291],[-50.55475,-25.86196],[-50.55807,-25.86067],[-50.5609,-25.85895],[-50.56119,-25.85994],[-50.5607,-25.86109],[-50.56123,-25.86141],[-50.5626,-25.86107],[-50.56319,-25.86132],[-50.56381,-25.8639],[-50.56439,-25.8643],[-50.56541,-25.86396],[-50.56739,-25.86229],[-50.56928,-25.86107],[-50.57091,-25.86128],[-50.57231,-25.85997],[-50.57376,-25.86032],[-50.57476,-25.85984],[-50.57353,-25.85779],[-50.57333,-25.85685],[-50.5739,-25.85463],[-50.57482,-25.8529],[-50.57708,-25.85288],[-50.57671,-25.85157],[-50.57694,-25.84992],[-50.57791,-25.84998],[-50.57772,-25.85117],[-50.5791,-25.85163],[-50.58117,-25.85064],[-50.58262,-25.85079],[-50.58351,-25.85179],[-50.58435,-25.85486],[-50.58569,-25.85603],[-50.58555,-25.85731],[-50.58692,-25.85882],[-50.58753,-25.86056],[-50.58854,-25.86241],[-50.5894,-25.86312],[-50.59035,-25.86295],[-50.59051,-25.86182],[-50.59212,-25.86199],[-50.59259,-25.86359],[-50.59353,-25.86384],[-50.59445,-25.8624],[-50.59608,-25.86166],[-50.59734,-25.86221],[-50.59744,-25.86283],[-50.59656,-25.8651],[-50.59721,-25.86638],[-50.59875,-25.86537],[-50.59953,-25.86531],[-50.6002,-25.86605],[-50.60153,-25.86677],[-50.60249,-25.86665],[-50.60327,-25.86671],[-50.60449,-25.86581],[-50.60569,-25.86631],[-50.60661,-25.86561],[-50.60919,-25.86561],[-50.60949,-25.86689],[-50.61185,-25.86728],[-50.61178,-25.86848],[-50.61275,-25.86843],[-50.61372,-25.8677],[-50.61408,-25.86884],[-50.61468,-25.8689],[-50.61577,-25.86787],[-50.61789,-25.86694],[-50.61621,-25.8657],[-50.61579,-25.8627],[-50.61611,-25.86093],[-50.61712,-25.86027],[-50.61845,-25.86153],[-50.61972,-25.8605],[-50.6208,-25.86132],[-50.62087,-25.85965],[-50.62166,-25.85845],[-50.62082,-25.85725],[-50.62214,-25.85736],[-50.62245,-25.85665],[-50.62086,-25.85228],[-50.62114,-25.85143],[-50.6232,-25.84922],[-50.62489,-25.85004],[-50.62664,-25.84829],[-50.62869,-25.84898],[-50.62989,-25.85156],[-50.62965,-25.85224],[-50.63218,-25.85301],[-50.63375,-25.854],[-50.63508,-25.85378],[-50.63586,-25.85485],[-50.63667,-25.85462],[-50.63798,-25.85262],[-50.63979,-25.85153],[-50.6407,-25.85002],[-50.6436,-25.8502],[-50.64455,-25.85162],[-50.64359,-25.85301],[-50.64431,-25.85405],[-50.64359,-25.8546],[-50.6437,-25.85654],[-50.64327,-25.85944],[-50.64375,-25.86009],[-50.64254,-25.86066],[-50.64375,-25.86143],[-50.64218,-25.86203],[-50.64362,-25.86263],[-50.64254,-25.86329],[-50.64452,-25.86409],[-50.64603,-25.86589],[-50.64772,-25.86622],[-50.6473,-25.86499],[-50.64839,-25.86368],[-50.64906,-25.86391],[-50.65044,-25.86593],[-50.65135,-25.86509],[-50.65496,-25.86684],[-50.65484,-25.86829],[-50.6555,-25.86944],[-50.65339,-25.87031],[-50.65447,-25.87103],[-50.65452,-25.87531],[-50.65533,-25.87696],[-50.65584,-25.87723],[-50.66012,-25.87526],[-50.66344,-25.87255],[-50.66584,-25.8719],[-50.66835,-25.87187],[-50.67055,-25.87282],[-50.67313,-25.87194],[-50.67488,-25.87315],[-50.6756,-25.87241],[-50.67698,-25.87288],[-50.67699,-25.87362],[-50.67523,-25.87814],[-50.67425,-25.88285],[-50.67397,-25.89436],[-50.67438,-25.89824],[-50.67398,-25.90431],[-50.65701,-25.91733],[-50.65685,-25.91972],[-50.65813,-25.9264],[-50.65897,-25.92817],[-50.66109,-25.9288],[-50.6627,-25.93263],[-50.66427,-25.93353],[-50.66624,-25.94149],[-50.66835,-25.9433],[-50.66938,-25.94352],[-50.6724,-25.94268],[-50.67397,-25.94312],[-50.67366,-25.94697],[-50.67203,-25.94697],[-50.67082,-25.94806],[-50.67033,-25.95141],[-50.67186,-25.95292],[-50.67068,-25.9561],[-50.67266,-25.95899],[-50.67175,-25.96159],[-50.67174,-25.96243],[-50.67247,-25.96306],[-50.6709,-25.96487],[-50.67063,-25.96884]]]},"properties":{"codigo":"412560515","name":"Fluviópolis","population":2559,"households":1294,"areaKm2":272.1347,"density":9.4}},{"type":"Feature","geometry":{"type":"Polygon","coordinates":[[[-50.22848,-25.9671],[-50.26924,-25.94982],[-50.2704,-25.95102],[-50.27251,-25.95229],[-50.27466,-25.95298],[-50.27776,-25.95307],[-50.27959,-25.95249],[-50.28239,-25.95008],[-50.28441,-25.94926],[-50.28645,-25.94903],[-50.29183,-25.94953],[-50.29446,-25.949],[-50.29771,-25.94659],[-50.3013,-25.94542],[-50.30597,-25.94443],[-50.30916,-25.94493],[-50.31091,-25.94497],[-50.31609,-25.94467],[-50.3244,-25.9436],[-50.32706,-25.94422],[-50.32787,-25.94481],[-50.32928,-25.94663],[-50.3314,-25.94808],[-50.33865,-25.95251],[-50.34041,-25.9544],[-50.34154,-25.95494],[-50.34629,-25.95435],[-50.34902,-25.95559],[-50.35081,-25.95571],[-50.35343,-25.95443],[-50.35469,-25.95337],[-50.35533,-25.9519],[-50.35531,-25.94855],[-50.35597,-25.94669],[-50.35836,-25.94457],[-50.35915,-25.94279],[-50.36017,-25.94216],[-50.36129,-25.94229],[-50.36392,-25.94511],[-50.36753,-25.94708],[-50.37039,-25.94787],[-50.37194,-25.94777],[-50.37317,-25.94726],[-50.37437,-25.94632],[-50.37588,-25.94361],[-50.37655,-25.94286],[-50.3793,-25.94099],[-50.38142,-25.93833],[-50.38351,-25.93681],[-50.38585,-25.93593],[-50.38937,-25.93523],[-50.39073,-25.93352],[-50.39217,-25.93226],[-50.39313,-25.93185],[-50.39499,-25.93171],[-50.39592,-25.93067],[-50.3973,-25.92996],[-50.39818,-25.92877],[-50.39911,-25.92838],[-50.40054,-25.92909],[-50.40211,-25.92889],[-50.40387,-25.9299],[-50.40545,-25.92964],[-50.40774,-25.93012],[-50.41293,-25.93029],[-50.41423,-25.93103],[-50.41539,-25.9337],[-50.4176,-25.93535],[-50.42017,-25.93568],[-50.42274,-25.9346],[-50.42357,-25.9345],[-50.42588,-25.93517],[-50.4265,-25.93509],[-50.42893,-25.93366],[-50.43029,-25.93363],[-50.43179,-25.93215],[-50.43294,-25.93201],[-50.43403,-25.93372],[-50.43498,-25.93453],[-50.43841,-25.93545],[-50.43962,-25.93638],[-50.43979,-25.93749],[-50.43909,-25.9386],[-50.43747,-25.93893],[-50.43574,-25.93837],[-50.43426,-25.93754],[-50.43262,-25.9355],[-50.43079,-25.93547],[-50.43014,-25.93608],[-50.43047,-25.93724],[-50.43198,-25.94023],[-50.43304,-25.94187],[-50.4375,-25.94459],[-50.43866,-25.94595],[-50.43867,-25.9472],[-50.43781,-25.94838],[-50.43646,-25.94913],[-50.42913,-25.95084],[-50.4283,-25.95171],[-50.42839,-25.95277],[-50.42923,-25.95408],[-50.42942,-25.95548],[-50.42891,-25.95645],[-50.42578,-25.95795],[-50.42448,-25.95899],[-50.42369,-25.961],[-50.42425,-25.9616],[-50.42567,-25.96196],[-50.43167,-25.96238],[-50.44011,-25.96374],[-50.44529,-25.96502],[-50.44766,-25.96531],[-50.44982,-25.96537],[-50.45159,-25.96476],[-50.45798,-25.96094],[-50.45965,-25.96045],[-50.46102,-25.96051],[-50.4619,-25.96112],[-50.46256,-25.96224],[-50.4626,-25.9634],[-50.46208,-25.96501],[-50.46075,-25.96586],[-50.45796,-25.96597],[-50.45593,-25.96669],[-50.45491,-25.96778],[-50.45406,-25.96946],[-50.45437,-25.97479],[-50.45396,-25.97569],[-50.4525,-25.97625],[-50.45071,-25.97655],[-50.44983,-25.97719],[-50.44968,-25.97804],[-50.45124,-25.98013],[-50.45154,-25.98089],[-50.45105,-25.98177],[-50.4488,-25.98349],[-50.44805,-25.98467],[-50.44814,-25.98593],[-50.45153,-25.99454],[-50.45509,-25.99827],[-50.45636,-26.00074],[-50.4564,-26.00164],[-50.45575,-26.00315],[-50.45484,-26.00377],[-50.45417,-26.0035],[-50.45329,-26.00134],[-50.45242,-26.00072],[-50.45091,-26.00039],[-50.44943,-26.00088],[-50.44889,-26.00249],[-50.44926,-26.00415],[-50.45028,-26.00602],[-50.45194,-26.00698],[-50.45579,-26.00763],[-50.45714,-26.00877],[-50.4585,-26.01136],[-50.45969,-26.01236],[-50.46198,-26.01299],[-50.46609,-26.01269],[-50.46852,-26.01372],[-50.47015,-26.01335],[-50.47081,-26.01205],[-50.46956,-26.0096],[-50.46963,-26.00866],[-50.47031,-26.00802],[-50.47185,-26.00791],[-50.47455,-26.01071],[-50.47987,-26.01241],[-50.48385,-26.01179],[-50.48478,-26.01203],[-50.48558,-26.01321],[-50.48536,-26.01421],[-50.48447,-26.0152],[-50.48272,-26.0155],[-50.47952,-26.01518],[-50.47813,-26.0166],[-50.47801,-26.01776],[-50.47857,-26.01945],[-50.47954,-26.02092],[-50.48075,-26.02151],[-50.48277,-26.02086],[-50.48449,-26.01854],[-50.48634,-26.01829],[-50.4881,-26.01844],[-50.48961,-26.01903],[-50.49098,-26.01998],[-50.49133,-26.02276],[-50.49017,-26.0258],[-50.48811,-26.02432],[-50.48676,-26.02401],[-50.48376,-26.02525],[-50.48146,-26.02505],[-50.4799,-26.02518],[-50.47853,-26.02632],[-50.47914,-26.02771],[-50.48067,-26.02905],[-50.48152,-26.03065],[-50.48166,-26.03209],[-50.48107,-26.03311],[-50.47962,-26.03404],[-50.4782,-26.03442],[-50.47618,-26.0345],[-50.47479,-26.03395],[-50.47445,-26.03297],[-50.47486,-26.0319],[-50.47696,-26.0296],[-50.47747,-26.02825],[-50.47736,-26.02719],[-50.47655,-26.02595],[-50.47648,-26.02406],[-50.47613,-26.02314],[-50.47471,-26.02209],[-50.47183,-26.02097],[-50.46946,-26.02141],[-50.46906,-26.02296],[-50.46939,-26.02517],[-50.46876,-26.02696],[-50.46771,-26.02748],[-50.46617,-26.02747],[-50.46393,-26.02672],[-50.46089,-26.02635],[-50.45949,-26.02683],[-50.45909,-26.02835],[-50.46071,-26.03122],[-50.46102,-26.03305],[-50.46028,-26.03571],[-50.45911,-26.03663],[-50.45806,-26.03691],[-50.45718,-26.03654],[-50.45669,-26.03552],[-50.4565,-26.03398],[-50.45593,-26.03276],[-50.45497,-26.03187],[-50.45314,-26.03139],[-50.45056,-26.03194],[-50.44903,-26.03257],[-50.44498,-26.03378],[-50.44379,-26.0343],[-50.4424,-26.03554],[-50.44199,-26.03676],[-50.44317,-26.03744],[-50.44646,-26.03789],[-50.44856,-26.03897],[-50.44915,-26.03952],[-50.44989,-26.04127],[-50.4498,-26.04344],[-50.44929,-26.04493],[-50.44795,-26.04656],[-50.44319,-26.04839],[-50.44058,-26.04977],[-50.43955,-26.0509],[-50.43854,-26.05328],[-50.4382,-26.05514],[-50.4371,-26.05762],[-50.43493,-26.05976],[-50.43284,-26.06211],[-50.43064,-26.06285],[-50.42954,-26.06299],[-50.42466,-26.06181],[-50.421,-26.06141],[-50.41863,-26.06101],[-50.41749,-26.06125],[-50.41584,-26.06347],[-50.41389,-26.0649],[-50.41249,-26.06546],[-50.40934,-26.06596],[-50.40734,-26.06552],[-50.40688,-26.06427],[-50.40813,-26.06211],[-50.40868,-26.06071],[-50.40868,-26.05972],[-50.40808,-26.05852],[-50.40576,-26.05695],[-50.40448,-26.05654],[-50.40333,-26.05698],[-50.40218,-26.05876],[-50.40117,-26.06155],[-50.40014,-26.06259],[-50.39788,-26.06395],[-50.39513,-26.0648],[-50.39305,-26.06562],[-50.3905,-26.06702],[-50.38969,-26.06769],[-50.38707,-26.06924],[-50.38518,-26.06985],[-50.38373,-26.07059],[-50.38024,-26.07525],[-50.37868,-26.07672],[-50.37742,-26.07736],[-50.37328,-26.07814],[-50.37169,-26.07919],[-50.37053,-26.0823],[-50.36942,-26.08428],[-50.3678,-26.08661],[-50.36517,-26.08969],[-50.36228,-26.09253],[-50.36152,-26.09381],[-50.36167,-26.09663],[-50.36307,-26.10219],[-50.36401,-26.10425],[-50.36555,-26.10658],[-50.36702,-26.10785],[-50.36929,-26.10814],[-50.37024,-26.10871],[-50.37017,-26.11001],[-50.36968,-26.1113],[-50.3687,-26.11223],[-50.36743,-26.11241],[-50.36573,-26.11215],[-50.36356,-26.11138],[-50.36198,-26.11002],[-50.3611,-26.1098],[-50.36052,-26.1108],[-50.36064,-26.11385],[-50.35978,-26.11685],[-50.35826,-26.11805],[-50.35673,-26.11779],[-50.35443,-26.11781],[-50.35285,-26.11844],[-50.35186,-26.11933],[-50.35095,-26.12236],[-50.3496,-26.12378],[-50.34476,-26.12523],[-50.3432,-26.12618],[-50.34159,-26.12823],[-50.341,-26.13007],[-50.34036,-26.13078],[-50.33741,-26.13157],[-50.3339,-26.13467],[-50.33266,-26.13494],[-50.33142,-26.13437],[-50.33063,-26.13335],[-50.3302,-26.13031],[-50.32967,-26.12932],[-50.3286,-26.12864],[-50.32722,-26.12925],[-50.32665,-26.13331],[-50.32583,-26.13451],[-50.32426,-26.13528],[-50.32277,-26.13476],[-50.3217,-26.13395],[-50.32097,-26.13266],[-50.32079,-26.13048],[-50.32151,-26.1265],[-50.32246,-26.1255],[-50.32352,-26.12554],[-50.32681,-26.12745],[-50.3292,-26.12748],[-50.33261,-26.12632],[-50.3339,-26.12512],[-50.33382,-26.12408],[-50.33248,-26.12198],[-50.33126,-26.12195],[-50.33044,-26.12404],[-50.32871,-26.12513],[-50.32641,-26.12476],[-50.32504,-26.1232],[-50.32482,-26.12207],[-50.32577,-26.11937],[-50.32565,-26.11697],[-50.32618,-26.1148],[-50.33029,-26.11167],[-50.33199,-26.10931],[-50.33251,-26.10781],[-50.33273,-26.106],[-50.33283,-26.10198],[-50.33312,-26.10041],[-50.33256,-26.09931],[-50.33112,-26.09832],[-50.3283,-26.09843],[-50.32656,-26.09882],[-50.32513,-26.09787],[-50.32539,-26.09581],[-50.32743,-26.09294],[-50.32797,-26.09165],[-50.32951,-26.08904],[-50.33201,-26.08537],[-50.33217,-26.08441],[-50.33098,-26.08265],[-50.32872,-26.08186],[-50.32701,-26.08161],[-50.32265,-26.08143],[-50.32181,-26.08094],[-50.32147,-26.07916],[-50.32177,-26.07541],[-50.32166,-26.07349],[-50.32084,-26.07124],[-50.32014,-26.07016],[-50.31711,-26.06754],[-50.31489,-26.06629],[-50.31144,-26.06509],[-50.30912,-26.06398],[-50.30764,-26.06216],[-50.30659,-26.06024],[-50.30553,-26.05954],[-50.30301,-26.0588],[-50.30209,-26.0582],[-50.29879,-26.05474],[-50.29686,-26.05424],[-50.29468,-26.05493],[-50.2928,-26.05585],[-50.28936,-26.0561],[-50.28739,-26.05581],[-50.28654,-26.05521],[-50.285,-26.05356],[-50.28352,-26.0526],[-50.27956,-26.0524],[-50.2772,-26.05165],[-50.27365,-26.04973],[-50.27266,-26.04895],[-50.26991,-26.04558],[-50.26926,-26.04447],[-50.26903,-26.04329],[-50.26847,-26.04279],[-50.26729,-26.04111],[-50.26766,-26.038],[-50.26977,-26.03549],[-50.26687,-26.03457],[-50.26466,-26.03217],[-50.26207,-26.02355],[-50.25945,-26.01943],[-50.25746,-26.01861],[-50.25608,-26.01716],[-50.25588,-26.01626],[-50.25654,-26.01514],[-50.25586,-26.01207],[-50.25427,-26.0117],[-50.25407,-26.01107],[-50.25448,-26.00936],[-50.25375,-26.00597],[-50.25377,-26.003],[-50.25212,-26.00063],[-50.25013,-25.99969],[-50.24883,-25.99718],[-50.24864,-25.99565],[-50.24745,-25.99438],[-50.2455,-25.99069],[-50.24247,-25.9891],[-50.24067,-25.98214],[-50.23884,-25.97981],[-50.23811,-25.97722],[-50.23487,-25.97335],[-50.23367,-25.96985],[-50.23169,-25.96844],[-50.22848,-25.9671]]]},"properties":{"codigo":"412560520","name":"Lajeado","population":3154,"households":1441,"areaKm2":286.4989,"density":11}}]}