{"type":"FeatureCollection","features":[{"type":"Feature","geometry":{"type":"Polygon","coordinates":[[[-50.55855,-23.74806],[-50.55965,-23.74797],[-50.56247,-23.74659],[-50.56535,-23.74634],[-50.56815,-23.74382],[-50.57133,-23.73702],[-50.57186,-23.73619],[-50.57272,-23.73587],[-50.57588,-23.73652],[-50.57725,-23.73591],[-50.58004,-23.73621],[-50.58499,-23.73542],[-50.58714,-23.73855],[-50.5893,-23.73959],[-50.59019,-23.74141],[-50.59164,-23.7419],[-50.594,-23.74182],[-50.59545,-23.7425],[-50.59632,-23.74324],[-50.59893,-23.74356],[-50.60079,-23.74277],[-50.60227,-23.7434],[-50.60231,-23.74405],[-50.60137,-23.74503],[-50.6017,-23.74832],[-50.60256,-23.74876],[-50.6058,-23.75366],[-50.60659,-23.75561],[-50.60673,-23.75696],[-50.60737,-23.75751],[-50.60764,-23.75886],[-50.60713,-23.75966],[-50.60715,-23.76089],[-50.60994,-23.76305],[-50.61067,-23.76389],[-50.6109,-23.76503],[-50.6106,-23.766],[-50.61087,-23.76758],[-50.61259,-23.76854],[-50.61345,-23.76941],[-50.61362,-23.7702],[-50.61306,-23.77136],[-50.61486,-23.77245],[-50.61585,-23.77412],[-50.61742,-23.77605],[-50.61724,-23.7769],[-50.62007,-23.78197],[-50.62128,-23.78282],[-50.62252,-23.78177],[-50.62198,-23.78016],[-50.6228,-23.77982],[-50.62349,-23.78033],[-50.6248,-23.77996],[-50.62654,-23.77844],[-50.62728,-23.77679],[-50.63001,-23.77794],[-50.63101,-23.77887],[-50.63055,-23.78027],[-50.62963,-23.78153],[-50.62949,-23.78346],[-50.62876,-23.7847],[-50.62817,-23.78846],[-50.62781,-23.79302],[-50.62583,-23.79429],[-50.6258,-23.79476],[-50.62496,-23.79566],[-50.62491,-23.798],[-50.62262,-23.80007],[-50.6211,-23.80204],[-50.62154,-23.80436],[-50.62392,-23.80595],[-50.62481,-23.8079],[-50.62621,-23.80918],[-50.627,-23.81174],[-50.6259,-23.81412],[-50.62539,-23.81721],[-50.62505,-23.82598],[-50.62373,-23.82787],[-50.62397,-23.83058],[-50.62461,-23.83282],[-50.62533,-23.83424],[-50.62527,-23.83517],[-50.62426,-23.8366],[-50.624,-23.8376],[-50.62385,-23.84015],[-50.62287,-23.8414],[-50.62001,-23.84427],[-50.61931,-23.84518],[-50.61908,-23.84727],[-50.61772,-23.84907],[-50.61768,-23.85011],[-50.62126,-23.85413],[-50.62166,-23.85521],[-50.62129,-23.857],[-50.6181,-23.86001],[-50.6179,-23.86082],[-50.6183,-23.86274],[-50.61711,-23.86357],[-50.61723,-23.86538],[-50.61698,-23.86666],[-50.61397,-23.86855],[-50.61285,-23.87218],[-50.61042,-23.87537],[-50.61053,-23.87693],[-50.6068,-23.8797],[-50.60648,-23.88187],[-50.60602,-23.88251],[-50.60338,-23.885],[-50.60322,-23.88604],[-50.60413,-23.88757],[-50.60367,-23.89125],[-50.60278,-23.89367],[-50.60042,-23.89465],[-50.59687,-23.89633],[-50.59569,-23.89735],[-50.59346,-23.90047],[-50.59063,-23.90272],[-50.59025,-23.90461],[-50.58843,-23.90697],[-50.58762,-23.90906],[-50.5895,-23.90814],[-50.59012,-23.90687],[-50.59243,-23.90499],[-50.59609,-23.90473],[-50.60013,-23.90313],[-50.6009,-23.90249],[-50.60249,-23.90261],[-50.60539,-23.90183],[-50.60634,-23.90095],[-50.60606,-23.89909],[-50.60696,-23.89884],[-50.60842,-23.89724],[-50.61303,-23.8981],[-50.61395,-23.89795],[-50.61446,-23.89949],[-50.61699,-23.8986],[-50.61742,-23.898],[-50.61855,-23.8978],[-50.61968,-23.89891],[-50.61991,-23.90052],[-50.61939,-23.901],[-50.61986,-23.90188],[-50.62115,-23.90108],[-50.6219,-23.89943],[-50.62463,-23.89633],[-50.62663,-23.8929],[-50.62824,-23.89258],[-50.63115,-23.89056],[-50.63246,-23.88993],[-50.6337,-23.88982],[-50.63506,-23.88855],[-50.63707,-23.88861],[-50.64074,-23.88785],[-50.64202,-23.88831],[-50.64273,-23.88967],[-50.64231,-23.89135],[-50.64286,-23.89243],[-50.6431,-23.89406],[-50.6428,-23.89574],[-50.64294,-23.89695],[-50.64137,-23.8986],[-50.64116,-23.90189],[-50.64175,-23.90308],[-50.64307,-23.90446],[-50.64329,-23.90512],[-50.64493,-23.9074],[-50.64548,-23.90896],[-50.6451,-23.91],[-50.64562,-23.91151],[-50.64656,-23.91245],[-50.64711,-23.91399],[-50.64674,-23.91558],[-50.64617,-23.91652],[-50.64652,-23.91774],[-50.64646,-23.9194],[-50.64719,-23.92009],[-50.64695,-23.92085],[-50.65,-23.92373],[-50.64947,-23.92515],[-50.64906,-23.92738],[-50.64941,-23.92895],[-50.64916,-23.93001],[-50.64794,-23.93214],[-50.64879,-23.93378],[-50.65003,-23.93417],[-50.65048,-23.93198],[-50.64988,-23.93041],[-50.65062,-23.92911],[-50.65229,-23.92867],[-50.65414,-23.92917],[-50.65578,-23.93015],[-50.65682,-23.93121],[-50.65951,-23.93091],[-50.66033,-23.93004],[-50.66124,-23.92986],[-50.66486,-23.92756],[-50.66719,-23.92573],[-50.66835,-23.92543],[-50.6699,-23.9258],[-50.67299,-23.92363],[-50.67401,-23.92362],[-50.67485,-23.92438],[-50.6765,-23.92301],[-50.67741,-23.92169],[-50.67859,-23.92058],[-50.6787,-23.91971],[-50.6795,-23.91909],[-50.68109,-23.91863],[-50.68227,-23.92009],[-50.68336,-23.91944],[-50.68385,-23.91842],[-50.68467,-23.9193],[-50.68457,-23.92014],[-50.68539,-23.92081],[-50.68543,-23.92297],[-50.68628,-23.92439],[-50.68752,-23.92392],[-50.68843,-23.92283],[-50.69007,-23.92294],[-50.6918,-23.9223],[-50.69268,-23.92312],[-50.69331,-23.92215],[-50.69598,-23.92161],[-50.69748,-23.92149],[-50.69828,-23.92089],[-50.69827,-23.91934],[-50.69685,-23.91949],[-50.69605,-23.91846],[-50.69518,-23.91893],[-50.69296,-23.91946],[-50.69292,-23.91819],[-50.69381,-23.91735],[-50.69508,-23.91685],[-50.69457,-23.9162],[-50.69477,-23.91379],[-50.6965,-23.91363],[-50.69795,-23.9129],[-50.69935,-23.91314],[-50.6997,-23.9126],[-50.69846,-23.91099],[-50.6964,-23.90974],[-50.69654,-23.909],[-50.69811,-23.90837],[-50.69949,-23.90667],[-50.70027,-23.90618],[-50.70236,-23.90567],[-50.70333,-23.90622],[-50.70355,-23.90733],[-50.70473,-23.90758],[-50.70497,-23.90833],[-50.70699,-23.90813],[-50.70921,-23.90699],[-50.70999,-23.90713],[-50.70998,-23.90821],[-50.71207,-23.90974],[-50.71373,-23.91064],[-50.71381,-23.91147],[-50.71233,-23.91171],[-50.71193,-23.9125],[-50.71345,-23.91381],[-50.7149,-23.91379],[-50.71594,-23.91285],[-50.71559,-23.9114],[-50.71617,-23.91104],[-50.71781,-23.91107],[-50.71832,-23.91192],[-50.71794,-23.91392],[-50.71831,-23.91544],[-50.71931,-23.91513],[-50.72071,-23.91363],[-50.7218,-23.91292],[-50.72245,-23.91369],[-50.72171,-23.91464],[-50.72282,-23.91538],[-50.72442,-23.91582],[-50.72648,-23.91752],[-50.72582,-23.91846],[-50.72437,-23.91866],[-50.72402,-23.91928],[-50.72514,-23.91988],[-50.727,-23.9195],[-50.72583,-23.92151],[-50.72429,-23.92209],[-50.72457,-23.92268],[-50.72573,-23.9226],[-50.72663,-23.92372],[-50.72653,-23.92444],[-50.7256,-23.92556],[-50.72722,-23.92787],[-50.72697,-23.9292],[-50.72772,-23.93065],[-50.72983,-23.9305],[-50.73155,-23.93287],[-50.73378,-23.93248],[-50.73649,-23.93294],[-50.73716,-23.93417],[-50.73636,-23.93572],[-50.73317,-23.93586],[-50.73184,-23.93617],[-50.73103,-23.93694],[-50.73034,-23.93944],[-50.73034,-23.94076],[-50.73081,-23.94239],[-50.731,-23.94443],[-50.73203,-23.94766],[-50.73397,-23.95065],[-50.73525,-23.95215],[-50.73664,-23.9546],[-50.73723,-23.95651],[-50.739,-23.96012],[-50.73959,-23.9627],[-50.74078,-23.96515],[-50.74161,-23.9662],[-50.7447,-23.96779],[-50.75003,-23.9678],[-50.75381,-23.96812],[-50.75658,-23.96791],[-50.75786,-23.9676],[-50.76128,-23.96725],[-50.76236,-23.96786],[-50.7627,-23.96901],[-50.76253,-23.97073],[-50.7598,-23.97431],[-50.75748,-23.97608],[-50.75448,-23.97727],[-50.74929,-23.978],[-50.74617,-23.97871],[-50.74165,-23.98113],[-50.73803,-23.98257],[-50.73601,-23.98423],[-50.7347,-23.98568],[-50.7347,-23.9879],[-50.73537,-23.98926],[-50.73656,-23.99025],[-50.73909,-23.99462],[-50.74167,-23.99661],[-50.74226,-23.99755],[-50.74305,-24.00158],[-50.74295,-24.00435],[-50.74319,-24.00598],[-50.74184,-24.00893],[-50.73964,-24.01116],[-50.73639,-24.01338],[-50.73208,-24.01688],[-50.72948,-24.0187],[-50.72492,-24.0245],[-50.72181,-24.02786],[-50.71906,-24.02958],[-50.71619,-24.03009],[-50.71458,-24.03009],[-50.70823,-24.02776],[-50.70617,-24.02649],[-50.70283,-24.02489],[-50.70167,-24.02258],[-50.70084,-24.0215],[-50.69939,-24.01802],[-50.69728,-24.01763],[-50.69575,-24.01701],[-50.69622,-24.01596],[-50.69976,-24.01464],[-50.70075,-24.01407],[-50.70072,-24.01221],[-50.70042,-24.01035],[-50.69944,-24.00916],[-50.69798,-24.01236],[-50.69675,-24.01345],[-50.69473,-24.01421],[-50.69314,-24.01268],[-50.69275,-24.01128],[-50.69306,-24.01001],[-50.69389,-24.00847],[-50.6977,-24.00468],[-50.6975,-24.00323],[-50.69436,-24.00444],[-50.69222,-24.0077],[-50.6907,-24.00934],[-50.68951,-24.00762],[-50.68861,-24.00293],[-50.68723,-24.00292],[-50.68181,-24.00409],[-50.67848,-24.00325],[-50.67558,-24.00416],[-50.674,-24.00417],[-50.67237,-24.00381],[-50.67181,-24.00163],[-50.66934,-23.99937],[-50.66834,-23.99893],[-50.66384,-23.99612],[-50.66347,-23.99494],[-50.66223,-23.9934],[-50.66115,-23.99303],[-50.65702,-23.99285],[-50.65517,-23.99313],[-50.65423,-23.99367],[-50.65193,-23.99418],[-50.65072,-23.99467],[-50.64925,-23.99471],[-50.64817,-23.99439],[-50.64761,-23.9926],[-50.64842,-23.9909],[-50.64901,-23.98881],[-50.64803,-23.98711],[-50.64639,-23.98597],[-50.64498,-23.98727],[-50.64452,-23.98842],[-50.64372,-23.98929],[-50.64019,-23.9898],[-50.63542,-23.98995],[-50.63361,-23.99108],[-50.63228,-23.99253],[-50.63045,-23.99289],[-50.63003,-23.99185],[-50.62881,-23.99031],[-50.62784,-23.98818],[-50.62598,-23.98881],[-50.62545,-23.9898],[-50.62379,-23.98997],[-50.62242,-23.98981],[-50.62158,-23.98794],[-50.62053,-23.98628],[-50.61897,-23.98962],[-50.61567,-23.99061],[-50.61356,-23.99071],[-50.61209,-23.98916],[-50.61172,-23.98802],[-50.61133,-23.98531],[-50.61066,-23.98418],[-50.60937,-23.98567],[-50.60848,-23.98852],[-50.60825,-23.99075],[-50.60842,-23.99302],[-50.60803,-23.9942],[-50.60689,-23.99393],[-50.60617,-23.99311],[-50.60512,-23.99111],[-50.60477,-23.98885],[-50.60415,-23.98793],[-50.60175,-23.98635],[-50.59849,-23.98928],[-50.59716,-23.99025],[-50.5952,-23.99106],[-50.59353,-23.98975],[-50.5924,-23.98993],[-50.59153,-23.9907],[-50.58998,-23.99038],[-50.58873,-23.98884],[-50.58809,-23.98743],[-50.58911,-23.98684],[-50.58864,-23.9852],[-50.58775,-23.98452],[-50.58567,-23.98386],[-50.58295,-23.98203],[-50.58114,-23.98308],[-50.57947,-23.98369],[-50.57918,-23.98195],[-50.58064,-23.98048],[-50.58175,-23.97884],[-50.58317,-23.97758],[-50.58212,-23.97598],[-50.58216,-23.9739],[-50.58064,-23.97141],[-50.57969,-23.97067],[-50.57817,-23.96827],[-50.5765,-23.96963],[-50.57462,-23.96939],[-50.57244,-23.97034],[-50.57086,-23.97047],[-50.56925,-23.96903],[-50.569,-23.96767],[-50.56811,-23.96667],[-50.56617,-23.96585],[-50.56561,-23.96469],[-50.56353,-23.96494],[-50.56112,-23.96558],[-50.55892,-23.96458],[-50.557,-23.96414],[-50.55411,-23.96398],[-50.55086,-23.96243],[-50.54853,-23.96098],[-50.54725,-23.96062],[-50.54706,-23.95851],[-50.54542,-23.95569],[-50.54549,-23.94991],[-50.54606,-23.94798],[-50.54525,-23.94629],[-50.54334,-23.94568],[-50.54073,-23.94411],[-50.54,-23.94325],[-50.53856,-23.93952],[-50.53778,-23.93801],[-50.53456,-23.93407],[-50.53416,-23.93269],[-50.53531,-23.9289],[-50.53775,-23.92392],[-50.48325,-23.95154],[-50.48263,-23.95009],[-50.48244,-23.94643],[-50.48181,-23.94491],[-50.48106,-23.9414],[-50.48001,-23.93961],[-50.48172,-23.93633],[-50.48343,-23.93495],[-50.48452,-23.9334],[-50.4849,-23.93164],[-50.48319,-23.93015],[-50.48273,-23.92894],[-50.48039,-23.92686],[-50.48011,-23.92616],[-50.4805,-23.92466],[-50.47856,-23.92252],[-50.47818,-23.92079],[-50.47702,-23.91987],[-50.47689,-23.91814],[-50.47764,-23.91758],[-50.47811,-23.91549],[-50.47759,-23.91411],[-50.4779,-23.91072],[-50.479,-23.90857],[-50.47878,-23.90783],[-50.48002,-23.90675],[-50.47979,-23.90372],[-50.48013,-23.9021],[-50.4799,-23.89988],[-50.48086,-23.89838],[-50.4817,-23.898],[-50.48201,-23.89518],[-50.48147,-23.89518],[-50.48,-23.89674],[-50.47706,-23.89589],[-50.47607,-23.89466],[-50.47573,-23.89219],[-50.47474,-23.89162],[-50.47301,-23.8923],[-50.47257,-23.89126],[-50.47153,-23.89048],[-50.47249,-23.88986],[-50.47246,-23.88925],[-50.47139,-23.8885],[-50.47071,-23.88704],[-50.47084,-23.88503],[-50.47186,-23.88397],[-50.47376,-23.88314],[-50.47499,-23.88298],[-50.47511,-23.88235],[-50.47637,-23.88128],[-50.47747,-23.88174],[-50.4789,-23.88103],[-50.47933,-23.87988],[-50.47766,-23.87806],[-50.47731,-23.87692],[-50.47562,-23.87544],[-50.47514,-23.87371],[-50.47363,-23.87362],[-50.47324,-23.87212],[-50.47238,-23.87198],[-50.4717,-23.87124],[-50.47158,-23.8697],[-50.47087,-23.86918],[-50.46983,-23.86746],[-50.46996,-23.86579],[-50.47041,-23.86398],[-50.46956,-23.86261],[-50.4703,-23.86155],[-50.4712,-23.86209],[-50.47261,-23.8623],[-50.473,-23.86304],[-50.4723,-23.86454],[-50.4733,-23.86538],[-50.47518,-23.86473],[-50.47647,-23.86304],[-50.47692,-23.86339],[-50.47611,-23.86446],[-50.47713,-23.86507],[-50.47725,-23.86614],[-50.47995,-23.86646],[-50.48076,-23.86535],[-50.48023,-23.86429],[-50.4805,-23.86319],[-50.48181,-23.86356],[-50.48112,-23.86191],[-50.48153,-23.8612],[-50.48314,-23.86167],[-50.48452,-23.86025],[-50.48544,-23.85999],[-50.48621,-23.86042],[-50.48672,-23.86206],[-50.48562,-23.8641],[-50.48749,-23.86535],[-50.48959,-23.86562],[-50.49051,-23.86405],[-50.48945,-23.86287],[-50.48971,-23.86233],[-50.49136,-23.8621],[-50.48975,-23.86064],[-50.49093,-23.86008],[-50.49146,-23.85921],[-50.49229,-23.86015],[-50.4927,-23.8624],[-50.49411,-23.86207],[-50.4949,-23.86231],[-50.49651,-23.86365],[-50.49589,-23.86504],[-50.49723,-23.86537],[-50.49675,-23.8664],[-50.49889,-23.86708],[-50.49963,-23.86795],[-50.50283,-23.86855],[-50.5036,-23.86837],[-50.50543,-23.86878],[-50.5055,-23.87179],[-50.50636,-23.87241],[-50.5055,-23.87342],[-50.50719,-23.87496],[-50.5073,-23.87571],[-50.50833,-23.87737],[-50.50915,-23.87744],[-50.5091,-23.87884],[-50.5112,-23.87996],[-50.51209,-23.882],[-50.51414,-23.8816],[-50.51572,-23.88085],[-50.51687,-23.87934],[-50.51774,-23.87966],[-50.51887,-23.87944],[-50.51976,-23.88035],[-50.51978,-23.88114],[-50.52071,-23.88131],[-50.52101,-23.88215],[-50.52228,-23.88274],[-50.52431,-23.88293],[-50.52398,-23.88354],[-50.52414,-23.88515],[-50.52371,-23.88559],[-50.52415,-23.88659],[-50.52514,-23.88688],[-50.52424,-23.88788],[-50.52515,-23.88837],[-50.52732,-23.88858],[-50.52859,-23.88845],[-50.52873,-23.88745],[-50.53044,-23.88672],[-50.53105,-23.88569],[-50.53281,-23.88533],[-50.53478,-23.8858],[-50.53588,-23.88536],[-50.53747,-23.88517],[-50.53814,-23.88398],[-50.53958,-23.88322],[-50.54012,-23.88223],[-50.54107,-23.8815],[-50.54124,-23.87953],[-50.5421,-23.8795],[-50.54374,-23.87796],[-50.54594,-23.87842],[-50.54664,-23.87703],[-50.54678,-23.87515],[-50.54723,-23.87381],[-50.54833,-23.87208],[-50.54853,-23.86939],[-50.54969,-23.86567],[-50.54878,-23.86521],[-50.54722,-23.86574],[-50.54631,-23.86482],[-50.54655,-23.86295],[-50.54641,-23.86143],[-50.54534,-23.8599],[-50.54334,-23.85821],[-50.53944,-23.85677],[-50.53803,-23.85653],[-50.53401,-23.85651],[-50.53184,-23.855],[-50.53063,-23.85331],[-50.5296,-23.84827],[-50.5288,-23.84492],[-50.52795,-23.84302],[-50.52684,-23.84152],[-50.52637,-23.83831],[-50.52569,-23.83746],[-50.52534,-23.83523],[-50.52462,-23.8348],[-50.52305,-23.83548],[-50.52087,-23.83487],[-50.52046,-23.8345],[-50.51966,-23.83168],[-50.51851,-23.83155],[-50.51586,-23.83012],[-50.51638,-23.82975],[-50.51697,-23.82771],[-50.51716,-23.82621],[-50.51679,-23.82517],[-50.51697,-23.82292],[-50.51846,-23.82072],[-50.51972,-23.8193],[-50.52012,-23.81832],[-50.52127,-23.81711],[-50.52258,-23.81336],[-50.52387,-23.81296],[-50.52453,-23.81171],[-50.522,-23.80623],[-50.52259,-23.80282],[-50.52189,-23.79868],[-50.52107,-23.79719],[-50.51917,-23.79637],[-50.51787,-23.79473],[-50.51733,-23.79447],[-50.51684,-23.7928],[-50.51557,-23.79129],[-50.51538,-23.79037],[-50.51467,-23.78978],[-50.51231,-23.78852],[-50.51077,-23.78668],[-50.51018,-23.78566],[-50.50821,-23.78504],[-50.50683,-23.78537],[-50.50468,-23.78494],[-50.50342,-23.78564],[-50.50184,-23.78551],[-50.50138,-23.78458],[-50.50135,-23.78288],[-50.50003,-23.78278],[-50.49827,-23.78183],[-50.49888,-23.78044],[-50.49986,-23.77904],[-50.5,-23.77691],[-50.49917,-23.77613],[-50.49875,-23.77492],[-50.49716,-23.77345],[-50.49524,-23.7704],[-50.4947,-23.76921],[-50.49446,-23.76649],[-50.49567,-23.76419],[-50.49363,-23.76443],[-50.49131,-23.76388],[-50.48648,-23.76386],[-50.48473,-23.76298],[-50.48409,-23.76303],[-50.48326,-23.76123],[-50.48326,-23.76012],[-50.48269,-23.75881],[-50.48307,-23.75623],[-50.48205,-23.75445],[-50.48143,-23.75154],[-50.48165,-23.74967],[-50.48049,-23.7468],[-50.48045,-23.74595],[-50.48128,-23.7444],[-50.4824,-23.7445],[-50.48252,-23.74523],[-50.48355,-23.74718],[-50.48317,-23.7486],[-50.48521,-23.74866],[-50.48495,-23.74992],[-50.4859,-23.75061],[-50.48619,-23.75157],[-50.4871,-23.75191],[-50.48848,-23.75106],[-50.48951,-23.75175],[-50.492,-23.75172],[-50.49259,-23.75134],[-50.49429,-23.75123],[-50.49507,-23.75221],[-50.49449,-23.75355],[-50.49469,-23.754],[-50.49705,-23.75566],[-50.49855,-23.7556],[-50.50049,-23.75622],[-50.50099,-23.75729],[-50.50111,-23.75909],[-50.50064,-23.7603],[-50.50247,-23.76068],[-50.50271,-23.76252],[-50.5045,-23.7622],[-50.50536,-23.76388],[-50.50694,-23.7645],[-50.5076,-23.76402],[-50.50926,-23.76434],[-50.50989,-23.76403],[-50.50994,-23.7621],[-50.51114,-23.7626],[-50.5123,-23.76264],[-50.51408,-23.76315],[-50.51467,-23.7624],[-50.51562,-23.76256],[-50.51695,-23.76333],[-50.51653,-23.76428],[-50.51756,-23.76486],[-50.51785,-23.76559],[-50.51935,-23.76615],[-50.52043,-23.76466],[-50.52085,-23.76332],[-50.52181,-23.76306],[-50.52217,-23.76403],[-50.52317,-23.76361],[-50.524,-23.76381],[-50.52538,-23.76312],[-50.52592,-23.76221],[-50.527,-23.76189],[-50.529,-23.76048],[-50.53008,-23.76058],[-50.53116,-23.76001],[-50.53091,-23.75913],[-50.53287,-23.75856],[-50.5334,-23.75883],[-50.53582,-23.75748],[-50.53681,-23.75794],[-50.53898,-23.75621],[-50.5401,-23.75614],[-50.54055,-23.75529],[-50.5428,-23.75465],[-50.54334,-23.75389],[-50.54479,-23.75426],[-50.546,-23.75384],[-50.54679,-23.75296],[-50.5477,-23.75293],[-50.54808,-23.75224],[-50.54962,-23.75177],[-50.55145,-23.7502],[-50.55249,-23.74971],[-50.55888,-23.74998],[-50.56004,-23.74956],[-50.55855,-23.74806]]]},"properties":{"codigo":"412620705","name":"Sapopema","population":5539,"households":2418,"areaKm2":396.7305,"density":14}},{"type":"Feature","geometry":{"type":"Polygon","coordinates":[[[-50.73636,-23.93572],[-50.73716,-23.93417],[-50.73649,-23.93294],[-50.73378,-23.93248],[-50.73155,-23.93287],[-50.72983,-23.9305],[-50.72772,-23.93065],[-50.72697,-23.9292],[-50.72722,-23.92787],[-50.7256,-23.92556],[-50.72653,-23.92444],[-50.72663,-23.92372],[-50.72573,-23.9226],[-50.72457,-23.92268],[-50.72429,-23.92209],[-50.72583,-23.92151],[-50.727,-23.9195],[-50.72514,-23.91988],[-50.72402,-23.91928],[-50.72437,-23.91866],[-50.72582,-23.91846],[-50.72648,-23.91752],[-50.72442,-23.91582],[-50.72282,-23.91538],[-50.72171,-23.91464],[-50.72245,-23.91369],[-50.7218,-23.91292],[-50.72071,-23.91363],[-50.71931,-23.91513],[-50.71831,-23.91544],[-50.71794,-23.91392],[-50.71832,-23.91192],[-50.71781,-23.91107],[-50.71617,-23.91104],[-50.71559,-23.9114],[-50.71594,-23.91285],[-50.7149,-23.91379],[-50.71345,-23.91381],[-50.71193,-23.9125],[-50.71233,-23.91171],[-50.71381,-23.91147],[-50.71373,-23.91064],[-50.71207,-23.90974],[-50.70998,-23.90821],[-50.70999,-23.90713],[-50.70921,-23.90699],[-50.70699,-23.90813],[-50.70497,-23.90833],[-50.70473,-23.90758],[-50.70355,-23.90733],[-50.70333,-23.90622],[-50.70236,-23.90567],[-50.70027,-23.90618],[-50.69949,-23.90667],[-50.69811,-23.90837],[-50.69654,-23.909],[-50.6964,-23.90974],[-50.69846,-23.91099],[-50.6997,-23.9126],[-50.69935,-23.91314],[-50.69795,-23.9129],[-50.6965,-23.91363],[-50.69477,-23.91379],[-50.69457,-23.9162],[-50.69508,-23.91685],[-50.69381,-23.91735],[-50.69292,-23.91819],[-50.69296,-23.91946],[-50.69518,-23.91893],[-50.69605,-23.91846],[-50.69685,-23.91949],[-50.69827,-23.91934],[-50.69828,-23.92089],[-50.69748,-23.92149],[-50.69598,-23.92161],[-50.69331,-23.92215],[-50.69268,-23.92312],[-50.6918,-23.9223],[-50.69007,-23.92294],[-50.68843,-23.92283],[-50.68752,-23.92392],[-50.68628,-23.92439],[-50.68543,-23.92297],[-50.68539,-23.92081],[-50.68457,-23.92014],[-50.68467,-23.9193],[-50.68385,-23.91842],[-50.68336,-23.91944],[-50.68227,-23.92009],[-50.68109,-23.91863],[-50.6795,-23.91909],[-50.6787,-23.91971],[-50.67859,-23.92058],[-50.67741,-23.92169],[-50.6765,-23.92301],[-50.67485,-23.92438],[-50.67401,-23.92362],[-50.67299,-23.92363],[-50.6699,-23.9258],[-50.66835,-23.92543],[-50.66719,-23.92573],[-50.66486,-23.92756],[-50.66124,-23.92986],[-50.66033,-23.93004],[-50.65951,-23.93091],[-50.65682,-23.93121],[-50.65578,-23.93015],[-50.65414,-23.92917],[-50.65229,-23.92867],[-50.65062,-23.92911],[-50.64988,-23.93041],[-50.65048,-23.93198],[-50.65003,-23.93417],[-50.64879,-23.93378],[-50.64794,-23.93214],[-50.64916,-23.93001],[-50.64941,-23.92895],[-50.64906,-23.92738],[-50.64947,-23.92515],[-50.65,-23.92373],[-50.64695,-23.92085],[-50.64719,-23.92009],[-50.64646,-23.9194],[-50.64652,-23.91774],[-50.64617,-23.91652],[-50.64674,-23.91558],[-50.64711,-23.91399],[-50.64656,-23.91245],[-50.64562,-23.91151],[-50.6451,-23.91],[-50.64548,-23.90896],[-50.64493,-23.9074],[-50.64329,-23.90512],[-50.64307,-23.90446],[-50.64175,-23.90308],[-50.64116,-23.90189],[-50.64137,-23.8986],[-50.64294,-23.89695],[-50.6428,-23.89574],[-50.6431,-23.89406],[-50.64286,-23.89243],[-50.64231,-23.89135],[-50.64273,-23.88967],[-50.64202,-23.88831],[-50.64074,-23.88785],[-50.63707,-23.88861],[-50.63506,-23.88855],[-50.6337,-23.88982],[-50.63246,-23.88993],[-50.63115,-23.89056],[-50.62824,-23.89258],[-50.62663,-23.8929],[-50.62463,-23.89633],[-50.6219,-23.89943],[-50.62115,-23.90108],[-50.61986,-23.90188],[-50.61939,-23.901],[-50.61991,-23.90052],[-50.61968,-23.89891],[-50.61855,-23.8978],[-50.61742,-23.898],[-50.61699,-23.8986],[-50.61446,-23.89949],[-50.61395,-23.89795],[-50.61303,-23.8981],[-50.60842,-23.89724],[-50.60696,-23.89884],[-50.60606,-23.89909],[-50.60634,-23.90095],[-50.60539,-23.90183],[-50.60249,-23.90261],[-50.6009,-23.90249],[-50.60013,-23.90313],[-50.59609,-23.90473],[-50.59243,-23.90499],[-50.59012,-23.90687],[-50.5895,-23.90814],[-50.58762,-23.90906],[-50.58843,-23.90697],[-50.59025,-23.90461],[-50.59063,-23.90272],[-50.59346,-23.90047],[-50.59569,-23.89735],[-50.59687,-23.89633],[-50.60042,-23.89465],[-50.60278,-23.89367],[-50.60367,-23.89125],[-50.60413,-23.88757],[-50.60322,-23.88604],[-50.60338,-23.885],[-50.60602,-23.88251],[-50.60648,-23.88187],[-50.6068,-23.8797],[-50.61053,-23.87693],[-50.61042,-23.87537],[-50.61285,-23.87218],[-50.61397,-23.86855],[-50.61698,-23.86666],[-50.61723,-23.86538],[-50.61711,-23.86357],[-50.6183,-23.86274],[-50.6179,-23.86082],[-50.6181,-23.86001],[-50.62129,-23.857],[-50.62166,-23.85521],[-50.62126,-23.85413],[-50.61768,-23.85011],[-50.61772,-23.84907],[-50.61908,-23.84727],[-50.61931,-23.84518],[-50.62001,-23.84427],[-50.62287,-23.8414],[-50.62385,-23.84015],[-50.624,-23.8376],[-50.62426,-23.8366],[-50.62527,-23.83517],[-50.62533,-23.83424],[-50.62461,-23.83282],[-50.62397,-23.83058],[-50.62373,-23.82787],[-50.62505,-23.82598],[-50.62539,-23.81721],[-50.6259,-23.81412],[-50.627,-23.81174],[-50.62621,-23.80918],[-50.62481,-23.8079],[-50.62392,-23.80595],[-50.62154,-23.80436],[-50.6211,-23.80204],[-50.62262,-23.80007],[-50.62491,-23.798],[-50.62496,-23.79566],[-50.6258,-23.79476],[-50.62564,-23.79755],[-50.62591,-23.79982],[-50.62884,-23.80256],[-50.63134,-23.80568],[-50.63392,-23.80783],[-50.63642,-23.81029],[-50.63688,-23.81208],[-50.63733,-23.81563],[-50.63864,-23.81852],[-50.64028,-23.81924],[-50.64117,-23.81851],[-50.6422,-23.81883],[-50.64319,-23.8206],[-50.6457,-23.82087],[-50.64734,-23.82046],[-50.65092,-23.81915],[-50.65372,-23.81736],[-50.65595,-23.81695],[-50.65867,-23.81523],[-50.66,-23.81477],[-50.66398,-23.81489],[-50.66695,-23.81572],[-50.67133,-23.81613],[-50.67314,-23.81473],[-50.67478,-23.81234],[-50.67656,-23.81446],[-50.6795,-23.81513],[-50.68178,-23.81645],[-50.68286,-23.81813],[-50.68489,-23.81877],[-50.68545,-23.82092],[-50.68748,-23.82181],[-50.68859,-23.82326],[-50.69055,-23.82322],[-50.69175,-23.82506],[-50.69392,-23.82546],[-50.69564,-23.82551],[-50.69592,-23.82442],[-50.6987,-23.82246],[-50.70075,-23.82152],[-50.70292,-23.82092],[-50.70411,-23.81924],[-50.70494,-23.81856],[-50.70723,-23.8187],[-50.70836,-23.81851],[-50.71392,-23.81879],[-50.7195,-23.81978],[-50.72122,-23.82155],[-50.72342,-23.82168],[-50.72466,-23.82136],[-50.72547,-23.8221],[-50.72753,-23.8228],[-50.72956,-23.82318],[-50.73306,-23.82332],[-50.73394,-23.824],[-50.73508,-23.82565],[-50.73689,-23.82614],[-50.73708,-23.82727],[-50.73842,-23.82872],[-50.73987,-23.82856],[-50.74045,-23.82953],[-50.74105,-23.83142],[-50.74214,-23.83303],[-50.74439,-23.8339],[-50.74562,-23.83539],[-50.74706,-23.83825],[-50.74926,-23.8407],[-50.75186,-23.84319],[-50.75244,-23.8451],[-50.7524,-23.84733],[-50.75281,-23.84932],[-50.75281,-23.85168],[-50.75111,-23.85237],[-50.75001,-23.85232],[-50.74872,-23.85372],[-50.74848,-23.85495],[-50.74981,-23.85541],[-50.75089,-23.85495],[-50.75242,-23.85577],[-50.75395,-23.85513],[-50.75581,-23.85622],[-50.75633,-23.85812],[-50.75736,-23.85971],[-50.76061,-23.85971],[-50.76309,-23.86307],[-50.76583,-23.8638],[-50.76692,-23.86379],[-50.76725,-23.86641],[-50.77236,-23.86704],[-50.77304,-23.86794],[-50.773,-23.87004],[-50.77348,-23.87121],[-50.77542,-23.87153],[-50.7774,-23.87062],[-50.77911,-23.87157],[-50.78131,-23.87121],[-50.78295,-23.87121],[-50.78325,-23.87306],[-50.7839,-23.87402],[-50.78573,-23.87452],[-50.78695,-23.87443],[-50.78703,-23.87656],[-50.78775,-23.87801],[-50.78978,-23.87747],[-50.79165,-23.87783],[-50.7927,-23.8795],[-50.79486,-23.88019],[-50.79597,-23.88005],[-50.79687,-23.87914],[-50.79855,-23.87655],[-50.80048,-23.87578],[-50.80264,-23.8757],[-50.80492,-23.87641],[-50.80359,-23.8775],[-50.80117,-23.88059],[-50.7985,-23.88295],[-50.79764,-23.88397],[-50.7932,-23.88591],[-50.79034,-23.88868],[-50.78945,-23.89853],[-50.78906,-23.90076],[-50.78825,-23.90316],[-50.78714,-23.90557],[-50.78556,-23.90661],[-50.78294,-23.90721],[-50.77951,-23.90916],[-50.77708,-23.91186],[-50.77573,-23.91532],[-50.77448,-23.9169],[-50.77173,-23.91972],[-50.7657,-23.92209],[-50.7622,-23.92258],[-50.75931,-23.922],[-50.75693,-23.92209],[-50.75545,-23.92268],[-50.75442,-23.92364],[-50.75053,-23.92872],[-50.74864,-23.93026],[-50.74678,-23.93208],[-50.74514,-23.93398],[-50.74244,-23.9358],[-50.74042,-23.93607],[-50.73636,-23.93572]]]},"properties":{"codigo":"412620710","name":"Lambari","population":844,"households":384,"areaKm2":171.7958,"density":4.9}},{"type":"Feature","geometry":{"type":"Polygon","coordinates":[[[-50.48045,-23.74595],[-50.48049,-23.7468],[-50.48165,-23.74967],[-50.48143,-23.75154],[-50.48205,-23.75445],[-50.48307,-23.75623],[-50.48269,-23.75881],[-50.48326,-23.76012],[-50.48326,-23.76123],[-50.48409,-23.76303],[-50.48473,-23.76298],[-50.48648,-23.76386],[-50.49131,-23.76388],[-50.49363,-23.76443],[-50.49567,-23.76419],[-50.49446,-23.76649],[-50.4947,-23.76921],[-50.49524,-23.7704],[-50.49716,-23.77345],[-50.49875,-23.77492],[-50.49917,-23.77613],[-50.5,-23.77691],[-50.49986,-23.77904],[-50.49888,-23.78044],[-50.49827,-23.78183],[-50.50003,-23.78278],[-50.50135,-23.78288],[-50.50138,-23.78458],[-50.50184,-23.78551],[-50.50342,-23.78564],[-50.50468,-23.78494],[-50.50683,-23.78537],[-50.50821,-23.78504],[-50.51018,-23.78566],[-50.51077,-23.78668],[-50.51231,-23.78852],[-50.51467,-23.78978],[-50.51538,-23.79037],[-50.51557,-23.79129],[-50.51684,-23.7928],[-50.51733,-23.79447],[-50.51787,-23.79473],[-50.51917,-23.79637],[-50.52107,-23.79719],[-50.52189,-23.79868],[-50.52259,-23.80282],[-50.522,-23.80623],[-50.52453,-23.81171],[-50.52387,-23.81296],[-50.52258,-23.81336],[-50.52127,-23.81711],[-50.52012,-23.81832],[-50.51972,-23.8193],[-50.51846,-23.82072],[-50.51697,-23.82292],[-50.51679,-23.82517],[-50.51716,-23.82621],[-50.51697,-23.82771],[-50.51638,-23.82975],[-50.51586,-23.83012],[-50.51851,-23.83155],[-50.51966,-23.83168],[-50.52046,-23.8345],[-50.52087,-23.83487],[-50.52305,-23.83548],[-50.52462,-23.8348],[-50.52534,-23.83523],[-50.52569,-23.83746],[-50.52637,-23.83831],[-50.52684,-23.84152],[-50.52795,-23.84302],[-50.5288,-23.84492],[-50.5296,-23.84827],[-50.53063,-23.85331],[-50.53184,-23.855],[-50.53401,-23.85651],[-50.53803,-23.85653],[-50.53944,-23.85677],[-50.54334,-23.85821],[-50.54534,-23.8599],[-50.54641,-23.86143],[-50.54655,-23.86295],[-50.54631,-23.86482],[-50.54722,-23.86574],[-50.54878,-23.86521],[-50.54969,-23.86567],[-50.54853,-23.86939],[-50.54833,-23.87208],[-50.54723,-23.87381],[-50.54678,-23.87515],[-50.54664,-23.87703],[-50.54594,-23.87842],[-50.54374,-23.87796],[-50.5421,-23.8795],[-50.54124,-23.87953],[-50.54107,-23.8815],[-50.54012,-23.88223],[-50.53958,-23.88322],[-50.53814,-23.88398],[-50.53747,-23.88517],[-50.53588,-23.88536],[-50.53478,-23.8858],[-50.53281,-23.88533],[-50.53105,-23.88569],[-50.53044,-23.88672],[-50.52873,-23.88745],[-50.52859,-23.88845],[-50.52732,-23.88858],[-50.52515,-23.88837],[-50.52424,-23.88788],[-50.52514,-23.88688],[-50.52415,-23.88659],[-50.52371,-23.88559],[-50.52414,-23.88515],[-50.52398,-23.88354],[-50.52431,-23.88293],[-50.52228,-23.88274],[-50.52101,-23.88215],[-50.52071,-23.88131],[-50.51978,-23.88114],[-50.51976,-23.88035],[-50.51887,-23.87944],[-50.51774,-23.87966],[-50.51687,-23.87934],[-50.51572,-23.88085],[-50.51414,-23.8816],[-50.51209,-23.882],[-50.5112,-23.87996],[-50.5091,-23.87884],[-50.50915,-23.87744],[-50.50833,-23.87737],[-50.5073,-23.87571],[-50.50719,-23.87496],[-50.5055,-23.87342],[-50.50636,-23.87241],[-50.5055,-23.87179],[-50.50543,-23.86878],[-50.5036,-23.86837],[-50.50283,-23.86855],[-50.49963,-23.86795],[-50.49889,-23.86708],[-50.49675,-23.8664],[-50.49723,-23.86537],[-50.49589,-23.86504],[-50.49651,-23.86365],[-50.4949,-23.86231],[-50.49411,-23.86207],[-50.4927,-23.8624],[-50.49229,-23.86015],[-50.49146,-23.85921],[-50.49093,-23.86008],[-50.48975,-23.86064],[-50.49136,-23.8621],[-50.48971,-23.86233],[-50.48945,-23.86287],[-50.49051,-23.86405],[-50.48959,-23.86562],[-50.48749,-23.86535],[-50.48562,-23.8641],[-50.48672,-23.86206],[-50.48621,-23.86042],[-50.48544,-23.85999],[-50.48452,-23.86025],[-50.48314,-23.86167],[-50.48153,-23.8612],[-50.48112,-23.86191],[-50.48181,-23.86356],[-50.4805,-23.86319],[-50.48023,-23.86429],[-50.48076,-23.86535],[-50.47995,-23.86646],[-50.47725,-23.86614],[-50.47713,-23.86507],[-50.47611,-23.86446],[-50.47692,-23.86339],[-50.47647,-23.86304],[-50.47518,-23.86473],[-50.4733,-23.86538],[-50.4723,-23.86454],[-50.473,-23.86304],[-50.47261,-23.8623],[-50.4712,-23.86209],[-50.4703,-23.86155],[-50.46992,-23.86012],[-50.47022,-23.85946],[-50.47217,-23.8584],[-50.47083,-23.85769],[-50.46889,-23.85788],[-50.46809,-23.85705],[-50.46863,-23.855],[-50.46679,-23.85396],[-50.46712,-23.85284],[-50.46692,-23.85199],[-50.46587,-23.85218],[-50.46455,-23.8533],[-50.46446,-23.85419],[-50.46523,-23.85518],[-50.46526,-23.85608],[-50.46445,-23.85652],[-50.46272,-23.85676],[-50.46076,-23.85534],[-50.45957,-23.85547],[-50.45861,-23.85498],[-50.45781,-23.85525],[-50.45706,-23.85662],[-50.45631,-23.85712],[-50.45369,-23.85673],[-50.45265,-23.85618],[-50.4519,-23.85637],[-50.45091,-23.85753],[-50.44842,-23.85617],[-50.44714,-23.85485],[-50.44682,-23.8531],[-50.44614,-23.85179],[-50.44665,-23.85083],[-50.44609,-23.85009],[-50.44373,-23.85079],[-50.4423,-23.84905],[-50.44394,-23.84908],[-50.44457,-23.84878],[-50.44559,-23.84692],[-50.44652,-23.84688],[-50.44643,-23.84589],[-50.44688,-23.84499],[-50.4448,-23.84397],[-50.4432,-23.84219],[-50.44395,-23.84134],[-50.44413,-23.84038],[-50.44279,-23.83991],[-50.4413,-23.8401],[-50.43673,-23.84111],[-50.43646,-23.84204],[-50.43678,-23.84372],[-50.43732,-23.84449],[-50.43793,-23.84694],[-50.43739,-23.84727],[-50.43508,-23.84561],[-50.43353,-23.84535],[-50.43228,-23.84409],[-50.43288,-23.84318],[-50.43241,-23.84257],[-50.43214,-23.84072],[-50.42968,-23.83948],[-50.42959,-23.83827],[-50.42865,-23.83674],[-50.42707,-23.83646],[-50.42758,-23.83518],[-50.42621,-23.83473],[-50.42365,-23.83449],[-50.42321,-23.83378],[-50.42422,-23.8334],[-50.42476,-23.83268],[-50.42652,-23.832],[-50.42593,-23.83117],[-50.42656,-23.83012],[-50.42623,-23.82966],[-50.42627,-23.82807],[-50.42508,-23.82729],[-50.4255,-23.82657],[-50.4275,-23.82575],[-50.42798,-23.82488],[-50.429,-23.82411],[-50.42835,-23.82253],[-50.42764,-23.82225],[-50.42725,-23.82115],[-50.42562,-23.82038],[-50.425,-23.8187],[-50.42468,-23.81704],[-50.42569,-23.81661],[-50.42567,-23.81559],[-50.4263,-23.81468],[-50.42752,-23.81465],[-50.42833,-23.81383],[-50.42976,-23.81409],[-50.42899,-23.81228],[-50.42911,-23.8116],[-50.43094,-23.80922],[-50.43029,-23.80859],[-50.42961,-23.80712],[-50.42883,-23.80727],[-50.42726,-23.80634],[-50.4273,-23.80491],[-50.42885,-23.80425],[-50.42811,-23.80342],[-50.429,-23.80268],[-50.42949,-23.80148],[-50.42855,-23.79786],[-50.42754,-23.79742],[-50.42742,-23.79664],[-50.42847,-23.79596],[-50.42788,-23.79436],[-50.42671,-23.79488],[-50.42642,-23.79273],[-50.42357,-23.7906],[-50.42099,-23.78964],[-50.41952,-23.78972],[-50.41959,-23.78887],[-50.41896,-23.78834],[-50.41906,-23.78729],[-50.41835,-23.78693],[-50.41919,-23.78557],[-50.41869,-23.78438],[-50.42152,-23.78293],[-50.42066,-23.78215],[-50.42246,-23.78021],[-50.4239,-23.77834],[-50.42426,-23.77689],[-50.42361,-23.77633],[-50.42471,-23.77569],[-50.42469,-23.77454],[-50.42552,-23.77394],[-50.42741,-23.77408],[-50.42779,-23.77351],[-50.42693,-23.77264],[-50.42738,-23.77221],[-50.42887,-23.77254],[-50.42946,-23.77361],[-50.43053,-23.77331],[-50.43056,-23.77443],[-50.42978,-23.77607],[-50.43132,-23.7763],[-50.43267,-23.77567],[-50.43312,-23.77485],[-50.43288,-23.77379],[-50.43425,-23.77377],[-50.43453,-23.77218],[-50.4326,-23.76988],[-50.43261,-23.7693],[-50.43457,-23.76862],[-50.43594,-23.76899],[-50.43719,-23.76992],[-50.4385,-23.77008],[-50.43946,-23.76915],[-50.43925,-23.76808],[-50.44111,-23.76529],[-50.44145,-23.76286],[-50.44346,-23.75999],[-50.44612,-23.75847],[-50.44782,-23.75678],[-50.44979,-23.75611],[-50.45172,-23.75628],[-50.45847,-23.75535],[-50.46092,-23.75581],[-50.464,-23.75565],[-50.46623,-23.75442],[-50.46941,-23.75374],[-50.47267,-23.75386],[-50.47433,-23.7537],[-50.47528,-23.75316],[-50.47605,-23.75196],[-50.47524,-23.75026],[-50.47678,-23.74922],[-50.47893,-23.74977],[-50.47914,-23.74942],[-50.47845,-23.74764],[-50.4799,-23.74692],[-50.48045,-23.74595]]]},"properties":{"codigo":"412620715","name":"Vida Nova","population":312,"households":181,"areaKm2":109.0831,"density":2.9}}]}