{"type":"FeatureCollection","features":[{"type":"Feature","geometry":{"type":"Polygon","coordinates":[[[-50.76084,-23.28752],[-50.7609,-23.28628],[-50.76044,-23.28432],[-50.75936,-23.28258],[-50.75849,-23.28229],[-50.75755,-23.2806],[-50.75611,-23.27965],[-50.75484,-23.27846],[-50.75375,-23.27835],[-50.75398,-23.27694],[-50.75581,-23.27637],[-50.75852,-23.27639],[-50.76061,-23.27664],[-50.76195,-23.27712],[-50.76372,-23.27638],[-50.76378,-23.27448],[-50.76324,-23.27286],[-50.76224,-23.27253],[-50.76089,-23.27136],[-50.75934,-23.27049],[-50.75857,-23.26973],[-50.75715,-23.269],[-50.75682,-23.26773],[-50.75574,-23.26778],[-50.753,-23.26984],[-50.75184,-23.27002],[-50.75125,-23.26912],[-50.75078,-23.26591],[-50.75112,-23.26465],[-50.7493,-23.26464],[-50.74694,-23.26366],[-50.74636,-23.26393],[-50.74495,-23.26217],[-50.74551,-23.26073],[-50.74404,-23.25956],[-50.74227,-23.2578],[-50.74282,-23.25736],[-50.743,-23.25546],[-50.7439,-23.25459],[-50.74404,-23.25337],[-50.74274,-23.25369],[-50.74219,-23.25254],[-50.74142,-23.25211],[-50.7401,-23.25209],[-50.73877,-23.25138],[-50.73595,-23.2509],[-50.73511,-23.25076],[-50.73303,-23.24968],[-50.73066,-23.24995],[-50.72942,-23.25112],[-50.72839,-23.25026],[-50.72876,-23.24465],[-50.72816,-23.24138],[-50.72868,-23.24035],[-50.73032,-23.23999],[-50.7308,-23.23946],[-50.73169,-23.23711],[-50.73191,-23.23494],[-50.73335,-23.23283],[-50.73579,-23.228],[-50.73653,-23.22743],[-50.73974,-23.22619],[-50.74199,-23.22487],[-50.74322,-23.22393],[-50.74512,-23.22116],[-50.74731,-23.21891],[-50.75209,-23.21648],[-50.75362,-23.21654],[-50.75391,-23.21594],[-50.75636,-23.21833],[-50.75825,-23.21803],[-50.75778,-23.21953],[-50.75983,-23.21949],[-50.76052,-23.21984],[-50.75976,-23.22077],[-50.76055,-23.22218],[-50.76128,-23.22267],[-50.76447,-23.22283],[-50.76618,-23.22204],[-50.76815,-23.2228],[-50.76897,-23.22233],[-50.77056,-23.22006],[-50.7708,-23.21801],[-50.7707,-23.21552],[-50.76956,-23.21241],[-50.76814,-23.21031],[-50.76625,-23.20699],[-50.76382,-23.20457],[-50.76181,-23.20288],[-50.76103,-23.20196],[-50.75692,-23.19941],[-50.75605,-23.1985],[-50.75633,-23.19746],[-50.75839,-23.19737],[-50.76017,-23.19828],[-50.76242,-23.19793],[-50.76239,-23.19537],[-50.76375,-23.19424],[-50.7642,-23.19298],[-50.76386,-23.19189],[-50.76278,-23.1912],[-50.76155,-23.18943],[-50.76167,-23.18834],[-50.76231,-23.18743],[-50.76383,-23.18703],[-50.76515,-23.18736],[-50.76661,-23.18872],[-50.76768,-23.18931],[-50.76803,-23.19009],[-50.76969,-23.18977],[-50.77186,-23.18996],[-50.7763,-23.18993],[-50.7791,-23.18909],[-50.78012,-23.18923],[-50.78199,-23.19017],[-50.78293,-23.18986],[-50.78454,-23.18795],[-50.78456,-23.18642],[-50.78428,-23.18345],[-50.78353,-23.18015],[-50.78289,-23.17591],[-50.78283,-23.17342],[-50.78326,-23.17182],[-50.78453,-23.17094],[-50.78683,-23.1705],[-50.78793,-23.17075],[-50.79186,-23.17098],[-50.79336,-23.16993],[-50.79478,-23.16957],[-50.79838,-23.16965],[-50.8025,-23.17061],[-50.80368,-23.17075],[-50.80383,-23.17179],[-50.80509,-23.17387],[-50.80594,-23.17445],[-50.80675,-23.173],[-50.80719,-23.17096],[-50.80765,-23.17021],[-50.80951,-23.17015],[-50.81065,-23.16927],[-50.81286,-23.16821],[-50.8138,-23.16753],[-50.81239,-23.16603],[-50.8092,-23.16501],[-50.80785,-23.16504],[-50.80404,-23.1658],[-50.80261,-23.16561],[-50.80219,-23.16415],[-50.80153,-23.16386],[-50.79947,-23.16071],[-50.79869,-23.15903],[-50.79612,-23.15726],[-50.79464,-23.15702],[-50.79306,-23.15729],[-50.79131,-23.15944],[-50.78931,-23.15905],[-50.78949,-23.15686],[-50.79059,-23.15484],[-50.79078,-23.15124],[-50.7921,-23.1516],[-50.794,-23.15411],[-50.79641,-23.15349],[-50.79673,-23.15192],[-50.79767,-23.15137],[-50.79975,-23.15145],[-50.80118,-23.15207],[-50.80204,-23.15351],[-50.80421,-23.15387],[-50.80472,-23.15236],[-50.80591,-23.15104],[-50.80677,-23.1522],[-50.80923,-23.15253],[-50.81101,-23.152],[-50.81413,-23.15182],[-50.8164,-23.15255],[-50.81818,-23.15288],[-50.81809,-23.15492],[-50.81828,-23.15591],[-50.82031,-23.15939],[-50.82066,-23.16053],[-50.82214,-23.16254],[-50.82415,-23.16434],[-50.82478,-23.16516],[-50.82609,-23.16899],[-50.82521,-23.17567],[-50.82662,-23.17749],[-50.82884,-23.17957],[-50.8256,-23.18113],[-50.82751,-23.18324],[-50.82867,-23.18345],[-50.8296,-23.18313],[-50.83145,-23.18464],[-50.83173,-23.18518],[-50.83146,-23.18687],[-50.83174,-23.1905],[-50.83281,-23.1916],[-50.83378,-23.19357],[-50.83308,-23.1983],[-50.83142,-23.20536],[-50.82763,-23.20273],[-50.82379,-23.2053],[-50.82148,-23.21069],[-50.82115,-23.21252],[-50.8209,-23.22301],[-50.81638,-23.22755],[-50.81774,-23.23036],[-50.82148,-23.23235],[-50.82225,-23.23331],[-50.82463,-23.2346],[-50.8253,-23.23624],[-50.82585,-23.23675],[-50.82777,-23.23701],[-50.82804,-23.23806],[-50.82906,-23.23839],[-50.82933,-23.2429],[-50.82877,-23.24372],[-50.8292,-23.24463],[-50.82848,-23.2454],[-50.82855,-23.24612],[-50.82939,-23.24707],[-50.83474,-23.24872],[-50.83621,-23.2531],[-50.83772,-23.25421],[-50.83923,-23.25417],[-50.8394,-23.2549],[-50.83956,-23.25899],[-50.84077,-23.26106],[-50.84117,-23.26607],[-50.84243,-23.26772],[-50.84414,-23.26934],[-50.84458,-23.27098],[-50.84522,-23.27169],[-50.84677,-23.27438],[-50.84563,-23.27547],[-50.84409,-23.27737],[-50.85132,-23.27759],[-50.85311,-23.27632],[-50.85423,-23.27466],[-50.8555,-23.27357],[-50.85669,-23.27341],[-50.85816,-23.2717],[-50.86136,-23.27129],[-50.86263,-23.27182],[-50.86615,-23.27369],[-50.8686,-23.27442],[-50.87244,-23.27472],[-50.87298,-23.27559],[-50.87642,-23.27573],[-50.87861,-23.27432],[-50.87907,-23.2737],[-50.88087,-23.27373],[-50.88312,-23.27414],[-50.88509,-23.27517],[-50.88584,-23.27507],[-50.88754,-23.27559],[-50.89111,-23.27604],[-50.89208,-23.27647],[-50.89383,-23.27655],[-50.89452,-23.27709],[-50.89542,-23.27921],[-50.8954,-23.2825],[-50.8466,-23.28218],[-50.84563,-23.28293],[-50.84323,-23.28291],[-50.83897,-23.28342],[-50.83837,-23.28257],[-50.83689,-23.28209],[-50.8355,-23.28326],[-50.8343,-23.28345],[-50.8331,-23.28227],[-50.83135,-23.28234],[-50.82896,-23.28403],[-50.827,-23.28458],[-50.82493,-23.28458],[-50.82401,-23.28495],[-50.82118,-23.28708],[-50.81998,-23.28848],[-50.81878,-23.28892],[-50.81674,-23.29198],[-50.81283,-23.29301],[-50.81227,-23.29371],[-50.81139,-23.29677],[-50.81011,-23.29809],[-50.8092,-23.29835],[-50.80884,-23.2999],[-50.80504,-23.30372],[-50.80369,-23.30416],[-50.80297,-23.30505],[-50.80204,-23.30517],[-50.79858,-23.30412],[-50.7934,-23.30205],[-50.7926,-23.30135],[-50.79233,-23.29884],[-50.79193,-23.29787],[-50.79074,-23.29622],[-50.78665,-23.29464],[-50.7852,-23.29482],[-50.78312,-23.29419],[-50.78053,-23.29429],[-50.77918,-23.29377],[-50.77874,-23.29267],[-50.77918,-23.29071],[-50.78034,-23.29009],[-50.7809,-23.28902],[-50.77939,-23.28799],[-50.77811,-23.28787],[-50.77667,-23.28924],[-50.77575,-23.29071],[-50.77444,-23.29093],[-50.77352,-23.29001],[-50.77125,-23.28897],[-50.77089,-23.28846],[-50.76886,-23.28823],[-50.76786,-23.28779],[-50.7665,-23.28852],[-50.76571,-23.28852],[-50.76407,-23.28933],[-50.762,-23.28907],[-50.76084,-23.28752]]]},"properties":{"codigo":"412840105","name":"Uraí","population":9179,"households":4224,"areaKm2":112.841,"density":81.3}},{"type":"Feature","geometry":{"type":"Polygon","coordinates":[[[-50.80201,-23.13673],[-50.80756,-23.13584],[-50.80718,-23.13731],[-50.80737,-23.1383],[-50.8095,-23.14039],[-50.81206,-23.14004],[-50.81655,-23.13836],[-50.81939,-23.13416],[-50.82028,-23.13159],[-50.82027,-23.12997],[-50.82177,-23.1259],[-50.82264,-23.12509],[-50.82428,-23.1251],[-50.82526,-23.1236],[-50.82543,-23.12208],[-50.82348,-23.12068],[-50.82213,-23.11823],[-50.82202,-23.1172],[-50.82284,-23.11686],[-50.8287,-23.11817],[-50.83403,-23.12031],[-50.83708,-23.12042],[-50.84031,-23.12129],[-50.84101,-23.12057],[-50.84144,-23.11813],[-50.84008,-23.11208],[-50.84152,-23.11078],[-50.84267,-23.11033],[-50.84491,-23.1098],[-50.84888,-23.11075],[-50.85012,-23.11194],[-50.84996,-23.1156],[-50.84597,-23.12013],[-50.84682,-23.12116],[-50.84782,-23.12026],[-50.85129,-23.11923],[-50.85316,-23.11631],[-50.85387,-23.11354],[-50.85512,-23.11151],[-50.85591,-23.11296],[-50.85632,-23.11541],[-50.85821,-23.1169],[-50.85997,-23.11902],[-50.86052,-23.12099],[-50.86239,-23.12298],[-50.8621,-23.12579],[-50.86061,-23.12852],[-50.86067,-23.12969],[-50.86161,-23.13062],[-50.86324,-23.13278],[-50.86429,-23.13357],[-50.865,-23.13466],[-50.86658,-23.13604],[-50.86733,-23.1381],[-50.86812,-23.14142],[-50.86957,-23.14296],[-50.8706,-23.14559],[-50.87139,-23.14679],[-50.90328,-23.14733],[-50.90178,-23.21534],[-50.90143,-23.2314],[-50.90029,-23.28253],[-50.8954,-23.2825],[-50.89542,-23.27921],[-50.89452,-23.27709],[-50.89383,-23.27655],[-50.89208,-23.27647],[-50.89111,-23.27604],[-50.88754,-23.27559],[-50.88584,-23.27507],[-50.88509,-23.27517],[-50.88312,-23.27414],[-50.88087,-23.27373],[-50.87907,-23.2737],[-50.87861,-23.27432],[-50.87642,-23.27573],[-50.87298,-23.27559],[-50.87244,-23.27472],[-50.8686,-23.27442],[-50.86615,-23.27369],[-50.86263,-23.27182],[-50.86136,-23.27129],[-50.85816,-23.2717],[-50.85669,-23.27341],[-50.8555,-23.27357],[-50.85423,-23.27466],[-50.85311,-23.27632],[-50.85132,-23.27759],[-50.84409,-23.27737],[-50.84563,-23.27547],[-50.84677,-23.27438],[-50.84522,-23.27169],[-50.84458,-23.27098],[-50.84414,-23.26934],[-50.84243,-23.26772],[-50.84117,-23.26607],[-50.84077,-23.26106],[-50.83956,-23.25899],[-50.8394,-23.2549],[-50.83923,-23.25417],[-50.83772,-23.25421],[-50.83621,-23.2531],[-50.83474,-23.24872],[-50.82939,-23.24707],[-50.82855,-23.24612],[-50.82848,-23.2454],[-50.8292,-23.24463],[-50.82877,-23.24372],[-50.82933,-23.2429],[-50.82906,-23.23839],[-50.82804,-23.23806],[-50.82777,-23.23701],[-50.82585,-23.23675],[-50.8253,-23.23624],[-50.82463,-23.2346],[-50.82225,-23.23331],[-50.82148,-23.23235],[-50.81774,-23.23036],[-50.81638,-23.22755],[-50.8209,-23.22301],[-50.82115,-23.21252],[-50.82148,-23.21069],[-50.82379,-23.2053],[-50.82763,-23.20273],[-50.83142,-23.20536],[-50.83308,-23.1983],[-50.83378,-23.19357],[-50.83281,-23.1916],[-50.83174,-23.1905],[-50.83146,-23.18687],[-50.83173,-23.18518],[-50.83145,-23.18464],[-50.8296,-23.18313],[-50.82867,-23.18345],[-50.82751,-23.18324],[-50.8256,-23.18113],[-50.82884,-23.17957],[-50.82662,-23.17749],[-50.82521,-23.17567],[-50.82609,-23.16899],[-50.82478,-23.16516],[-50.82415,-23.16434],[-50.82214,-23.16254],[-50.82066,-23.16053],[-50.82031,-23.15939],[-50.81828,-23.15591],[-50.81809,-23.15492],[-50.81818,-23.15288],[-50.8164,-23.15255],[-50.81413,-23.15182],[-50.81101,-23.152],[-50.80923,-23.15253],[-50.80677,-23.1522],[-50.80591,-23.15104],[-50.80591,-23.15035],[-50.80516,-23.14918],[-50.80378,-23.1479],[-50.8021,-23.14712],[-50.79916,-23.14541],[-50.79942,-23.14432],[-50.80068,-23.14401],[-50.80105,-23.14343],[-50.80039,-23.14242],[-50.79989,-23.13885],[-50.80201,-23.13673]]]},"properties":{"codigo":"412840110","name":"Cruzeiro do Norte","population":1227,"households":694,"areaKm2":124.9687,"density":9.8}}]}