{"type":"FeatureCollection","features":[{"type":"Feature","geometry":{"type":"Polygon","coordinates":[[[-53.60623,-26.81808],[-53.60559,-26.81869],[-53.60354,-26.81866],[-53.60283,-26.81929],[-53.6006,-26.82032],[-53.59955,-26.82033],[-53.59944,-26.82156],[-53.59806,-26.82193],[-53.59373,-26.8236],[-53.59138,-26.82313],[-53.5896,-26.82387],[-53.58617,-26.8244],[-53.58345,-26.82539],[-53.58138,-26.8255],[-53.57891,-26.82614],[-53.57444,-26.82692],[-53.57365,-26.82684],[-53.57225,-26.8278],[-53.57142,-26.82787],[-53.57002,-26.8288],[-53.56812,-26.82863],[-53.56423,-26.82951],[-53.56181,-26.83035],[-53.55989,-26.83053],[-53.55839,-26.83101],[-53.5568,-26.83197],[-53.55637,-26.83187],[-53.54585,-26.83447],[-53.54793,-26.83689],[-53.54722,-26.83795],[-53.54887,-26.84002],[-53.54804,-26.84124],[-53.54797,-26.84198],[-53.54935,-26.84282],[-53.55018,-26.84136],[-53.55223,-26.84002],[-53.5537,-26.84079],[-53.55503,-26.84284],[-53.55709,-26.8443],[-53.55599,-26.8452],[-53.55465,-26.84516],[-53.55308,-26.84611],[-53.55336,-26.84737],[-53.55221,-26.84754],[-53.55116,-26.84858],[-53.55192,-26.85061],[-53.55229,-26.85266],[-53.55214,-26.85357],[-53.5539,-26.85526],[-53.55377,-26.85625],[-53.55517,-26.85684],[-53.556,-26.85653],[-53.55655,-26.85541],[-53.55823,-26.85592],[-53.55772,-26.85718],[-53.55619,-26.85805],[-53.55457,-26.85956],[-53.55501,-26.86025],[-53.55628,-26.86045],[-53.55707,-26.86214],[-53.55911,-26.86035],[-53.55974,-26.85914],[-53.5629,-26.85713],[-53.56413,-26.85591],[-53.56526,-26.85604],[-53.56592,-26.85755],[-53.56504,-26.85826],[-53.56499,-26.86068],[-53.56598,-26.86205],[-53.56544,-26.86276],[-53.56315,-26.863],[-53.56281,-26.86431],[-53.56356,-26.86539],[-53.56153,-26.86493],[-53.5603,-26.86672],[-53.55982,-26.86666],[-53.55891,-26.86505],[-53.55965,-26.86432],[-53.5588,-26.86383],[-53.55765,-26.8648],[-53.55758,-26.86673],[-53.55786,-26.86782],[-53.55684,-26.86976],[-53.55755,-26.87134],[-53.55897,-26.87315],[-53.5575,-26.87368],[-53.55657,-26.87489],[-53.55594,-26.87288],[-53.55442,-26.872],[-53.55271,-26.87263],[-53.55146,-26.87274],[-53.55044,-26.87367],[-53.55068,-26.87507],[-53.55165,-26.87559],[-53.55309,-26.87543],[-53.55311,-26.8765],[-53.55239,-26.87812],[-53.55245,-26.87894],[-53.55316,-26.87986],[-53.55459,-26.88042],[-53.55549,-26.87954],[-53.55635,-26.87975],[-53.55752,-26.88121],[-53.55734,-26.88385],[-53.55631,-26.88445],[-53.55434,-26.88374],[-53.55419,-26.88546],[-53.55479,-26.88726],[-53.55576,-26.88892],[-53.5553,-26.88963],[-53.55258,-26.88877],[-53.55175,-26.88892],[-53.55142,-26.89008],[-53.55234,-26.8905],[-53.55488,-26.89066],[-53.55583,-26.89113],[-53.55777,-26.89127],[-53.55907,-26.89096],[-53.55937,-26.89201],[-53.55892,-26.89369],[-53.57502,-26.89709],[-53.5757,-26.89572],[-53.5768,-26.89776],[-53.57706,-26.89904],[-53.57633,-26.8994],[-53.57558,-26.90139],[-53.57456,-26.90244],[-53.57336,-26.90563],[-53.57123,-26.9068],[-53.56986,-26.90795],[-53.56983,-26.90857],[-53.56881,-26.91116],[-53.5674,-26.91235],[-53.5665,-26.91462],[-53.5653,-26.91578],[-53.56373,-26.91787],[-53.56199,-26.91945],[-53.56189,-26.92079],[-53.56052,-26.92224],[-53.56164,-26.92268],[-53.56258,-26.9247],[-53.56222,-26.92583],[-53.56135,-26.92635],[-53.55858,-26.92577],[-53.55645,-26.92445],[-53.55604,-26.92458],[-53.55538,-26.92839],[-53.55313,-26.93072],[-53.55237,-26.93124],[-53.5512,-26.9306],[-53.5501,-26.93054],[-53.54564,-26.93364],[-53.5436,-26.93388],[-53.54236,-26.93459],[-53.5402,-26.93645],[-53.53858,-26.93813],[-53.53595,-26.94576],[-53.53285,-26.94576],[-53.53243,-26.94523],[-53.53067,-26.94448],[-53.53065,-26.94352],[-53.53096,-26.91343],[-53.53096,-26.8941],[-53.52935,-26.89224],[-53.52968,-26.89124],[-53.53091,-26.89144],[-53.53167,-26.89071],[-53.53073,-26.88943],[-53.52931,-26.88905],[-53.52979,-26.88732],[-53.52968,-26.88666],[-53.52846,-26.88658],[-53.52777,-26.88729],[-53.52691,-26.88728],[-53.52738,-26.88591],[-53.52845,-26.88592],[-53.52814,-26.88479],[-53.52662,-26.88394],[-53.52492,-26.88361],[-53.52411,-26.88293],[-53.52326,-26.88367],[-53.52252,-26.88323],[-53.52124,-26.88409],[-53.52087,-26.88263],[-53.52023,-26.88144],[-53.52045,-26.88061],[-53.52172,-26.88093],[-53.52198,-26.87949],[-53.52056,-26.87794],[-53.52072,-26.87578],[-53.51968,-26.87558],[-53.51763,-26.87456],[-53.51661,-26.87512],[-53.51773,-26.87574],[-53.51715,-26.87697],[-53.51543,-26.87686],[-53.5141,-26.87737],[-53.51385,-26.87826],[-53.51238,-26.87954],[-53.51169,-26.87883],[-53.5109,-26.87912],[-53.51073,-26.87767],[-53.51008,-26.87714],[-53.5105,-26.87635],[-53.50951,-26.87544],[-53.5093,-26.87711],[-53.50842,-26.87666],[-53.5087,-26.87581],[-53.50623,-26.87544],[-53.50821,-26.87226],[-53.50826,-26.87108],[-53.50997,-26.87051],[-53.50927,-26.86877],[-53.50784,-26.86871],[-53.50832,-26.87002],[-53.50645,-26.86964],[-53.50602,-26.87031],[-53.50504,-26.86958],[-53.49984,-26.86919],[-53.49988,-26.87142],[-53.49856,-26.87164],[-53.49827,-26.8728],[-53.4989,-26.87489],[-53.49822,-26.87631],[-53.49807,-26.87936],[-53.49749,-26.8829],[-53.48942,-26.88933],[-53.47975,-26.88258],[-53.47871,-26.8824],[-53.47785,-26.88173],[-53.47534,-26.88139],[-53.47298,-26.88008],[-53.47165,-26.87856],[-53.46916,-26.87881],[-53.46503,-26.8789],[-53.45648,-26.88382],[-53.42832,-26.90015],[-53.42442,-26.89678],[-53.42147,-26.89456],[-53.4235,-26.89108],[-53.42386,-26.88945],[-53.42309,-26.88853],[-53.4221,-26.88849],[-53.41798,-26.88933],[-53.41555,-26.89016],[-53.41386,-26.89053],[-53.41012,-26.89041],[-53.40852,-26.88962],[-53.40809,-26.88855],[-53.40773,-26.8864],[-53.40765,-26.88371],[-53.40708,-26.88293],[-53.40497,-26.88179],[-53.40301,-26.87982],[-53.40174,-26.87807],[-53.40137,-26.87691],[-53.40249,-26.875],[-53.40595,-26.87155],[-53.40674,-26.87104],[-53.4109,-26.86938],[-53.41371,-26.86806],[-53.4157,-26.86591],[-53.41618,-26.86469],[-53.41583,-26.86281],[-53.41476,-26.85998],[-53.41365,-26.85755],[-53.41084,-26.85327],[-53.41064,-26.85209],[-53.41,-26.85102],[-53.40677,-26.8487],[-53.406,-26.84849],[-53.40217,-26.84817],[-53.40048,-26.84772],[-53.3963,-26.84759],[-53.39497,-26.84778],[-53.39282,-26.84868],[-53.39034,-26.84996],[-53.38739,-26.85125],[-53.38607,-26.85151],[-53.38371,-26.85099],[-53.38352,-26.8492],[-53.38516,-26.84519],[-53.38553,-26.84377],[-53.3866,-26.84181],[-53.38688,-26.83968],[-53.38658,-26.83761],[-53.38474,-26.83273],[-53.38421,-26.8317],[-53.382,-26.82872],[-53.38021,-26.82664],[-53.37964,-26.82554],[-53.37928,-26.8237],[-53.37976,-26.82285],[-53.38143,-26.82209],[-53.38427,-26.82141],[-53.38731,-26.82122],[-53.39206,-26.8223],[-53.39523,-26.82346],[-53.39922,-26.82424],[-53.40184,-26.82426],[-53.40415,-26.8239],[-53.40568,-26.82266],[-53.40808,-26.81994],[-53.41089,-26.8158],[-53.41313,-26.8132],[-53.41407,-26.8127],[-53.41696,-26.81032],[-53.41931,-26.80753],[-53.42015,-26.80569],[-53.42007,-26.80496],[-53.4189,-26.80442],[-53.41745,-26.80454],[-53.41617,-26.80523],[-53.41375,-26.80777],[-53.41159,-26.80893],[-53.40841,-26.80956],[-53.40457,-26.80981],[-53.40074,-26.80973],[-53.39926,-26.80934],[-53.39641,-26.80785],[-53.39555,-26.80699],[-53.39425,-26.80593],[-53.39397,-26.80492],[-53.39438,-26.80219],[-53.39558,-26.80037],[-53.3958,-26.79951],[-53.39707,-26.79753],[-53.3975,-26.79616],[-53.39737,-26.79332],[-53.39649,-26.79056],[-53.39574,-26.78928],[-53.39284,-26.78733],[-53.39182,-26.78706],[-53.38967,-26.78719],[-53.38812,-26.78762],[-53.38596,-26.78889],[-53.38342,-26.7907],[-53.38235,-26.79167],[-53.38039,-26.79241],[-53.37874,-26.7925],[-53.37741,-26.79167],[-53.37643,-26.78753],[-53.37589,-26.78299],[-53.37602,-26.78088],[-53.37715,-26.78057],[-53.37932,-26.7814],[-53.38079,-26.78382],[-53.3826,-26.7851],[-53.38464,-26.78486],[-53.3858,-26.78367],[-53.3867,-26.78205],[-53.38756,-26.77979],[-53.38848,-26.77634],[-53.38903,-26.77074],[-53.41795,-26.77224],[-53.4493,-26.77362],[-53.4703,-26.77438],[-53.5057,-26.77574],[-53.50355,-26.78142],[-53.50309,-26.78371],[-53.50452,-26.78645],[-53.50544,-26.78739],[-53.50702,-26.79082],[-53.50812,-26.79268],[-53.50807,-26.79438],[-53.50745,-26.79684],[-53.50624,-26.79888],[-53.50719,-26.79986],[-53.50894,-26.79968],[-53.53162,-26.80197],[-53.57796,-26.8017],[-53.58713,-26.80175],[-53.58871,-26.80351],[-53.58964,-26.80502],[-53.59039,-26.80515],[-53.59172,-26.80423],[-53.59433,-26.80311],[-53.59504,-26.80398],[-53.59455,-26.80508],[-53.59233,-26.80614],[-53.59207,-26.80758],[-53.59336,-26.80846],[-53.59517,-26.80865],[-53.59662,-26.80791],[-53.59982,-26.80696],[-53.60055,-26.80638],[-53.60159,-26.80466],[-53.6023,-26.8041],[-53.6044,-26.80525],[-53.60477,-26.80605],[-53.60454,-26.80804],[-53.6046,-26.80999],[-53.60319,-26.81035],[-53.60316,-26.811],[-53.60494,-26.813],[-53.60593,-26.81521],[-53.60596,-26.81734],[-53.60623,-26.81808]]]},"properties":{"codigo":"420490505","name":"Descanso","population":6964,"households":3024,"areaKm2":209.0815,"density":33.3}},{"type":"Feature","geometry":{"type":"Polygon","coordinates":[[[-53.53067,-26.94448],[-53.5297,-26.94446],[-53.52755,-26.94355],[-53.52649,-26.94271],[-53.52528,-26.94288],[-53.52383,-26.94259],[-53.52274,-26.94071],[-53.51978,-26.94019],[-53.51898,-26.93904],[-53.51725,-26.93929],[-53.51643,-26.93765],[-53.51511,-26.93713],[-53.51458,-26.93641],[-53.51342,-26.93608],[-53.51211,-26.93644],[-53.51129,-26.93582],[-53.50987,-26.93596],[-53.50876,-26.93682],[-53.50519,-26.93638],[-53.50333,-26.93629],[-53.50144,-26.93518],[-53.50079,-26.93452],[-53.49871,-26.93489],[-53.49968,-26.93635],[-53.49914,-26.93715],[-53.49739,-26.93818],[-53.49628,-26.93931],[-53.49335,-26.93994],[-53.49227,-26.94047],[-53.49051,-26.94065],[-53.48922,-26.94111],[-53.48739,-26.9413],[-53.48515,-26.94197],[-53.4844,-26.94185],[-53.48234,-26.94225],[-53.48187,-26.9427],[-53.47991,-26.94273],[-53.47867,-26.94311],[-53.47669,-26.94272],[-53.47368,-26.94326],[-53.4723,-26.9424],[-53.46872,-26.94224],[-53.46691,-26.94114],[-53.4644,-26.94183],[-53.46323,-26.94187],[-53.46159,-26.94334],[-53.45924,-26.94382],[-53.45577,-26.944],[-53.4549,-26.94329],[-53.45413,-26.94344],[-53.45297,-26.94256],[-53.45215,-26.94269],[-53.4502,-26.94388],[-53.44852,-26.94337],[-53.44602,-26.94132],[-53.4443,-26.94136],[-53.44158,-26.94254],[-53.44055,-26.94273],[-53.43784,-26.94204],[-53.43564,-26.94256],[-53.43435,-26.94213],[-53.43367,-26.94107],[-53.4309,-26.94001],[-53.42931,-26.94014],[-53.42826,-26.94116],[-53.42699,-26.94113],[-53.42585,-26.94156],[-53.42505,-26.94095],[-53.42418,-26.94177],[-53.42518,-26.94344],[-53.42598,-26.94374],[-53.42598,-26.94629],[-53.42506,-26.94754],[-53.42312,-26.94792],[-53.42213,-26.94771],[-53.42112,-26.94689],[-53.4192,-26.94736],[-53.41861,-26.94903],[-53.41906,-26.95058],[-53.41795,-26.95065],[-53.41603,-26.94936],[-53.41478,-26.94891],[-53.41353,-26.94888],[-53.41201,-26.94995],[-53.41091,-26.95168],[-53.41075,-26.9482],[-53.41086,-26.94565],[-53.41029,-26.94382],[-53.40948,-26.94256],[-53.40861,-26.94185],[-53.40565,-26.94109],[-53.40297,-26.94154],[-53.39854,-26.94277],[-53.39579,-26.94286],[-53.39468,-26.94264],[-53.393,-26.94179],[-53.3915,-26.94047],[-53.3898,-26.93826],[-53.38997,-26.93598],[-53.39144,-26.93445],[-53.39788,-26.93018],[-53.39911,-26.92952],[-53.40125,-26.92892],[-53.4048,-26.92884],[-53.40769,-26.92825],[-53.41029,-26.92745],[-53.41101,-26.92679],[-53.41091,-26.92594],[-53.40997,-26.92408],[-53.40803,-26.92223],[-53.40777,-26.92147],[-53.40791,-26.9192],[-53.40833,-26.91792],[-53.40825,-26.91566],[-53.40753,-26.91324],[-53.40621,-26.90949],[-53.40561,-26.90579],[-53.40603,-26.90363],[-53.40797,-26.90034],[-53.41013,-26.89914],[-53.4122,-26.89869],[-53.41589,-26.89743],[-53.41915,-26.89658],[-53.42147,-26.89456],[-53.42442,-26.89678],[-53.42832,-26.90015],[-53.45648,-26.88382],[-53.46503,-26.8789],[-53.46916,-26.87881],[-53.47165,-26.87856],[-53.47298,-26.88008],[-53.47534,-26.88139],[-53.47785,-26.88173],[-53.47871,-26.8824],[-53.47975,-26.88258],[-53.48942,-26.88933],[-53.49749,-26.8829],[-53.49807,-26.87936],[-53.49822,-26.87631],[-53.4989,-26.87489],[-53.49827,-26.8728],[-53.49856,-26.87164],[-53.49988,-26.87142],[-53.49984,-26.86919],[-53.50504,-26.86958],[-53.50602,-26.87031],[-53.50645,-26.86964],[-53.50832,-26.87002],[-53.50784,-26.86871],[-53.50927,-26.86877],[-53.50997,-26.87051],[-53.50826,-26.87108],[-53.50821,-26.87226],[-53.50623,-26.87544],[-53.5087,-26.87581],[-53.50842,-26.87666],[-53.5093,-26.87711],[-53.50951,-26.87544],[-53.5105,-26.87635],[-53.51008,-26.87714],[-53.51073,-26.87767],[-53.5109,-26.87912],[-53.51169,-26.87883],[-53.51238,-26.87954],[-53.51385,-26.87826],[-53.5141,-26.87737],[-53.51543,-26.87686],[-53.51715,-26.87697],[-53.51773,-26.87574],[-53.51661,-26.87512],[-53.51763,-26.87456],[-53.51968,-26.87558],[-53.52072,-26.87578],[-53.52056,-26.87794],[-53.52198,-26.87949],[-53.52172,-26.88093],[-53.52045,-26.88061],[-53.52023,-26.88144],[-53.52087,-26.88263],[-53.52124,-26.88409],[-53.52252,-26.88323],[-53.52326,-26.88367],[-53.52411,-26.88293],[-53.52492,-26.88361],[-53.52662,-26.88394],[-53.52814,-26.88479],[-53.52845,-26.88592],[-53.52738,-26.88591],[-53.52691,-26.88728],[-53.52777,-26.88729],[-53.52846,-26.88658],[-53.52968,-26.88666],[-53.52979,-26.88732],[-53.52931,-26.88905],[-53.53073,-26.88943],[-53.53167,-26.89071],[-53.53091,-26.89144],[-53.52968,-26.89124],[-53.52935,-26.89224],[-53.53096,-26.8941],[-53.53096,-26.91343],[-53.53065,-26.94352],[-53.53067,-26.94448]]]},"properties":{"codigo":"420490515","name":"Itajubá","population":1566,"households":588,"areaKm2":77.9754,"density":20.1}}]}