{"type":"FeatureCollection","features":[{"type":"Feature","geometry":{"type":"Polygon","coordinates":[[[-48.86221,-26.04015],[-48.86363,-26.04068],[-48.86432,-26.0411],[-48.86557,-26.04136],[-48.86628,-26.04138],[-48.86645,-26.041],[-48.86817,-26.04063],[-48.86892,-26.04094],[-48.86882,-26.04141],[-48.86795,-26.04254],[-48.86847,-26.04314],[-48.86893,-26.04333],[-48.86907,-26.04386],[-48.86769,-26.04441],[-48.86711,-26.0454],[-48.86786,-26.04567],[-48.86796,-26.04624],[-48.86761,-26.04739],[-48.86679,-26.04792],[-48.86642,-26.04844],[-48.86646,-26.04915],[-48.86703,-26.04966],[-48.86784,-26.04991],[-48.86838,-26.0504],[-48.86801,-26.05171],[-48.86799,-26.05239],[-48.86843,-26.05283],[-48.87017,-26.05353],[-48.87029,-26.05523],[-48.86915,-26.05584],[-48.86878,-26.05649],[-48.86795,-26.05692],[-48.86752,-26.0575],[-48.86687,-26.05798],[-48.8654,-26.05883],[-48.8658,-26.05972],[-48.86661,-26.05989],[-48.86774,-26.06031],[-48.86861,-26.06112],[-48.8693,-26.06263],[-48.87037,-26.06285],[-48.87092,-26.06325],[-48.87184,-26.06313],[-48.87223,-26.0635],[-48.87203,-26.06519],[-48.8725,-26.06599],[-48.87268,-26.06695],[-48.87348,-26.06764],[-48.8745,-26.06776],[-48.87529,-26.0681],[-48.87527,-26.06874],[-48.87562,-26.07057],[-48.87626,-26.07079],[-48.87732,-26.07025],[-48.878,-26.07049],[-48.87804,-26.07131],[-48.87788,-26.07222],[-48.8768,-26.07379],[-48.87687,-26.0745],[-48.87768,-26.07538],[-48.87923,-26.07537],[-48.8793,-26.07834],[-48.88006,-26.07886],[-48.8813,-26.07901],[-48.8805,-26.08025],[-48.87931,-26.08153],[-48.87887,-26.08305],[-48.87828,-26.08325],[-48.87698,-26.08275],[-48.87597,-26.08271],[-48.87492,-26.08227],[-48.87413,-26.08226],[-48.872,-26.08076],[-48.87042,-26.07782],[-48.87035,-26.07738],[-48.86967,-26.07567],[-48.86895,-26.07521],[-48.8684,-26.07411],[-48.86802,-26.07386],[-48.86497,-26.07317],[-48.8646,-26.07303],[-48.86292,-26.07173],[-48.86198,-26.07126],[-48.8608,-26.07135],[-48.85865,-26.0716],[-48.85779,-26.07215],[-48.85724,-26.07229],[-48.85574,-26.0719],[-48.8555,-26.06525],[-48.85397,-26.06478],[-48.85265,-26.06344],[-48.852,-26.06297],[-48.84756,-26.06143],[-48.84758,-26.05992],[-48.84598,-26.05962],[-48.84604,-26.05866],[-48.84673,-26.05833],[-48.84734,-26.05856],[-48.8481,-26.05838],[-48.84814,-26.05786],[-48.84958,-26.05763],[-48.84996,-26.05723],[-48.84976,-26.0567],[-48.85028,-26.05631],[-48.85112,-26.05624],[-48.85114,-26.05588],[-48.85016,-26.05486],[-48.84997,-26.0536],[-48.85057,-26.05287],[-48.85035,-26.05177],[-48.85142,-26.0511],[-48.85213,-26.05093],[-48.85252,-26.05027],[-48.85246,-26.04944],[-48.85298,-26.04901],[-48.85262,-26.04829],[-48.85268,-26.04715],[-48.85351,-26.04674],[-48.85422,-26.0468],[-48.85472,-26.04657],[-48.85514,-26.04677],[-48.85622,-26.04652],[-48.85749,-26.0454],[-48.85799,-26.04506],[-48.85839,-26.04411],[-48.85821,-26.04393],[-48.85805,-26.04282],[-48.85914,-26.0425],[-48.85957,-26.04259],[-48.85997,-26.0425],[-48.86064,-26.04111],[-48.86126,-26.04076],[-48.86148,-26.04005],[-48.86221,-26.04015]]]},"properties":{"codigo":"4205803006","name":"Urubuquara","population":733,"households":300,"areaKm2":6.8269,"density":107.4}},{"type":"Feature","geometry":{"type":"Polygon","coordinates":[[[-48.83963,-26.05866],[-48.83244,-26.05781],[-48.83169,-26.05757],[-48.83114,-26.05771],[-48.82674,-26.05729],[-48.82338,-26.05701],[-48.81586,-26.05752],[-48.81343,-26.0576],[-48.81272,-26.05704],[-48.8127,-26.05675],[-48.81617,-26.05287],[-48.8163,-26.0525],[-48.81592,-26.05065],[-48.81464,-26.04839],[-48.81306,-26.04611],[-48.81264,-26.04442],[-48.81173,-26.04242],[-48.811,-26.041],[-48.81035,-26.04016],[-48.8098,-26.03986],[-48.8088,-26.03962],[-48.80439,-26.04004],[-48.80338,-26.03995],[-48.80155,-26.03921],[-48.80024,-26.03797],[-48.79964,-26.03676],[-48.79944,-26.0357],[-48.79956,-26.03417],[-48.79949,-26.03368],[-48.79893,-26.03263],[-48.79902,-26.03225],[-48.79817,-26.02937],[-48.80944,-26.02891],[-48.81445,-26.02865],[-48.822,-26.02835],[-48.83025,-26.02799],[-48.83039,-26.03383],[-48.83611,-26.0337],[-48.83961,-26.03412],[-48.84403,-26.03498],[-48.84369,-26.03654],[-48.84272,-26.03773],[-48.84236,-26.0385],[-48.84824,-26.04103],[-48.8477,-26.04184],[-48.84662,-26.04221],[-48.84609,-26.0426],[-48.84508,-26.04286],[-48.84422,-26.0437],[-48.84349,-26.044],[-48.84329,-26.04442],[-48.84202,-26.04471],[-48.84027,-26.04412],[-48.83962,-26.04412],[-48.83963,-26.05866]]]},"properties":{"codigo":"4205803004","name":"Palmital","population":155,"households":76,"areaKm2":10.0997,"density":15.3}},{"type":"Feature","geometry":{"type":"Polygon","coordinates":[[[-48.85129,-26.01749],[-48.85081,-26.01601],[-48.8516,-26.01626],[-48.85208,-26.01565],[-48.85246,-26.01432],[-48.85293,-26.01329],[-48.8536,-26.01238],[-48.8546,-26.01004],[-48.85549,-26.00911],[-48.85638,-26.00738],[-48.85626,-26.00615],[-48.85654,-26.00488],[-48.85822,-26.00386],[-48.85865,-26.00307],[-48.85872,-26.00224],[-48.85831,-26.00111],[-48.85829,-26.00028],[-48.85903,-25.9994],[-48.86145,-25.99807],[-48.8623,-25.99806],[-48.86298,-25.99825],[-48.86495,-25.99823],[-48.86561,-25.99772],[-48.86697,-25.99844],[-48.86753,-25.9985],[-48.86865,-25.99889],[-48.8696,-25.99872],[-48.8707,-25.99819],[-48.87141,-25.9974],[-48.8728,-25.99689],[-48.87407,-25.99625],[-48.87479,-25.99559],[-48.87532,-25.9946],[-48.87657,-25.99395],[-48.87702,-25.99351],[-48.87732,-25.99283],[-48.87835,-25.99192],[-48.87929,-25.99138],[-48.88077,-25.98989],[-48.88227,-25.98852],[-48.88216,-25.98837],[-48.88009,-25.98805],[-48.88,-25.98673],[-48.88055,-25.98442],[-48.88069,-25.98329],[-48.88048,-25.98163],[-48.88927,-25.98155],[-48.88792,-25.9837],[-48.88753,-25.98467],[-48.88745,-25.98684],[-48.88691,-25.98861],[-48.88656,-25.98912],[-48.88503,-25.99088],[-48.8824,-25.995],[-48.88206,-25.99568],[-48.88029,-25.99978],[-48.87908,-26.0012],[-48.87413,-26.00541],[-48.87293,-26.00632],[-48.87094,-26.00735],[-48.86844,-26.0081],[-48.86794,-26.0084],[-48.86682,-26.00972],[-48.86447,-26.0145],[-48.86439,-26.01496],[-48.86475,-26.0184],[-48.86471,-26.01983],[-48.86394,-26.02613],[-48.86128,-26.02683],[-48.85795,-26.02635],[-48.85769,-26.02557],[-48.85684,-26.02222],[-48.85574,-26.02185],[-48.85515,-26.02132],[-48.85431,-26.02086],[-48.85341,-26.01912],[-48.8531,-26.01812],[-48.85313,-26.01756],[-48.85188,-26.01699],[-48.85129,-26.01749]]]},"properties":{"codigo":"4205803008","name":"Garuva Acima","population":833,"households":389,"areaKm2":5.4667,"density":152.4}},{"type":"Feature","geometry":{"type":"Polygon","coordinates":[[[-48.822,-26.02835],[-48.82231,-26.02797],[-48.83143,-26.02258],[-48.83745,-26.01891],[-48.83945,-26.01732],[-48.84431,-26.01515],[-48.84437,-26.01628],[-48.84424,-26.0168],[-48.84376,-26.01749],[-48.84381,-26.01849],[-48.84478,-26.01963],[-48.84485,-26.02005],[-48.84537,-26.02048],[-48.84653,-26.02034],[-48.84649,-26.02129],[-48.846,-26.02209],[-48.84584,-26.02885],[-48.83681,-26.02783],[-48.83536,-26.02776],[-48.83025,-26.02799],[-48.822,-26.02835]]]},"properties":{"codigo":"4205803002","name":"São João Abaixo","population":325,"households":137,"areaKm2":1.7938,"density":181.2}},{"type":"Feature","geometry":{"type":"Polygon","coordinates":[[[-48.83025,-26.02799],[-48.83536,-26.02776],[-48.83681,-26.02783],[-48.84584,-26.02885],[-48.84543,-26.03087],[-48.84534,-26.0321],[-48.84403,-26.03498],[-48.83961,-26.03412],[-48.83611,-26.0337],[-48.83039,-26.03383],[-48.83025,-26.02799]]]},"properties":{"codigo":"4205803003","name":"Distrito Industrial Leste","population":229,"households":76,"areaKm2":0.9902,"density":231.3}},{"type":"Feature","geometry":{"type":"Polygon","coordinates":[[[-48.85957,-26.04259],[-48.85965,-26.04025],[-48.8611,-26.02811],[-48.86128,-26.02683],[-48.86394,-26.02613],[-48.8664,-26.02642],[-48.86576,-26.03188],[-48.86327,-26.03156],[-48.86221,-26.04015],[-48.86148,-26.04005],[-48.86126,-26.04076],[-48.86064,-26.04111],[-48.85997,-26.0425],[-48.85957,-26.04259]]]},"properties":{"codigo":"4205803007","name":"Vila Trevo","population":694,"households":260,"areaKm2":0.5693,"density":1219}},{"type":"Feature","geometry":{"type":"Polygon","coordinates":[[[-48.85749,-26.0454],[-48.856,-26.04547],[-48.85562,-26.0438],[-48.85655,-26.0405],[-48.85669,-26.03977],[-48.85662,-26.03797],[-48.85646,-26.0372],[-48.85277,-26.03679],[-48.85275,-26.03711],[-48.85038,-26.037],[-48.85036,-26.03686],[-48.84672,-26.03645],[-48.84674,-26.03678],[-48.84443,-26.03653],[-48.84369,-26.03654],[-48.84403,-26.03498],[-48.84534,-26.0321],[-48.84543,-26.03087],[-48.84584,-26.02885],[-48.846,-26.02209],[-48.84649,-26.02129],[-48.84653,-26.02034],[-48.84714,-26.01999],[-48.84853,-26.01881],[-48.84959,-26.01809],[-48.85129,-26.01749],[-48.85188,-26.01699],[-48.85313,-26.01756],[-48.8531,-26.01812],[-48.85341,-26.01912],[-48.85431,-26.02086],[-48.85515,-26.02132],[-48.85574,-26.02185],[-48.85684,-26.02222],[-48.85769,-26.02557],[-48.85795,-26.02635],[-48.86128,-26.02683],[-48.8611,-26.02811],[-48.85965,-26.04025],[-48.85957,-26.04259],[-48.85914,-26.0425],[-48.85805,-26.04282],[-48.85821,-26.04393],[-48.85839,-26.04411],[-48.85799,-26.04506],[-48.85749,-26.0454]]]},"properties":{"codigo":"4205803001","name":"Centro","population":8600,"households":3244,"areaKm2":2.9469,"density":2918.3}},{"type":"Feature","geometry":{"type":"Polygon","coordinates":[[[-48.8608,-26.07135],[-48.86119,-26.07574],[-48.86198,-26.08518],[-48.86217,-26.08702],[-48.86274,-26.08875],[-48.86485,-26.09279],[-48.86766,-26.0981],[-48.86885,-26.10045],[-48.87041,-26.1033],[-48.87167,-26.10583],[-48.87272,-26.10774],[-48.87528,-26.11261],[-48.87637,-26.11434],[-48.88389,-26.12307],[-48.88466,-26.12394],[-48.88349,-26.12393],[-48.87402,-26.11347],[-48.87362,-26.11283],[-48.87181,-26.10776],[-48.87161,-26.10731],[-48.87062,-26.10581],[-48.87025,-26.10545],[-48.86905,-26.10475],[-48.86353,-26.09931],[-48.86174,-26.09795],[-48.86074,-26.09708],[-48.86025,-26.09604],[-48.85854,-26.09437],[-48.85704,-26.09324],[-48.85553,-26.09274],[-48.84892,-26.09022],[-48.84732,-26.08954],[-48.84667,-26.08881],[-48.84594,-26.08604],[-48.84593,-26.08558],[-48.84628,-26.08147],[-48.8466,-26.0787],[-48.84687,-26.0739],[-48.84747,-26.07158],[-48.84737,-26.06958],[-48.84762,-26.06509],[-48.84748,-26.0641],[-48.84756,-26.06143],[-48.852,-26.06297],[-48.85265,-26.06344],[-48.85397,-26.06478],[-48.8555,-26.06525],[-48.85574,-26.0719],[-48.85724,-26.07229],[-48.85779,-26.07215],[-48.85865,-26.0716],[-48.8608,-26.07135]]]},"properties":{"codigo":"4205803009","name":"Distrito Industrial Sul","population":526,"households":186,"areaKm2":5.17,"density":101.7}},{"type":"Feature","geometry":{"type":"Polygon","coordinates":[[[-48.84598,-26.05962],[-48.84507,-26.05949],[-48.84341,-26.05904],[-48.8421,-26.05896],[-48.83963,-26.05866],[-48.83962,-26.04412],[-48.84027,-26.04412],[-48.84202,-26.04471],[-48.84329,-26.04442],[-48.84349,-26.044],[-48.84422,-26.0437],[-48.84508,-26.04286],[-48.84609,-26.0426],[-48.84662,-26.04221],[-48.8477,-26.04184],[-48.84824,-26.04103],[-48.84236,-26.0385],[-48.84272,-26.03773],[-48.84369,-26.03654],[-48.84443,-26.03653],[-48.84674,-26.03678],[-48.84672,-26.03645],[-48.85036,-26.03686],[-48.85038,-26.037],[-48.85275,-26.03711],[-48.85277,-26.03679],[-48.85646,-26.0372],[-48.85662,-26.03797],[-48.85669,-26.03977],[-48.85655,-26.0405],[-48.85562,-26.0438],[-48.856,-26.04547],[-48.85749,-26.0454],[-48.85622,-26.04652],[-48.85514,-26.04677],[-48.85472,-26.04657],[-48.85422,-26.0468],[-48.85351,-26.04674],[-48.85268,-26.04715],[-48.85262,-26.04829],[-48.85298,-26.04901],[-48.85246,-26.04944],[-48.85252,-26.05027],[-48.85213,-26.05093],[-48.85142,-26.0511],[-48.85035,-26.05177],[-48.85057,-26.05287],[-48.84997,-26.0536],[-48.85016,-26.05486],[-48.85114,-26.05588],[-48.85112,-26.05624],[-48.85028,-26.05631],[-48.84976,-26.0567],[-48.84996,-26.05723],[-48.84958,-26.05763],[-48.84814,-26.05786],[-48.8481,-26.05838],[-48.84734,-26.05856],[-48.84673,-26.05833],[-48.84604,-26.05866],[-48.84598,-26.05962]]]},"properties":{"codigo":"4205803005","name":"Rio da Onça","population":2680,"households":979,"areaKm2":2.9129,"density":920.1}}]}