{"type":"FeatureCollection","features":[{"type":"Feature","geometry":{"type":"Polygon","coordinates":[[[-49.04056,-26.86309],[-49.03919,-26.86228],[-49.03831,-26.862],[-49.03756,-26.86226],[-49.03551,-26.86532],[-49.03481,-26.86626],[-49.03301,-26.86807],[-49.02981,-26.86988],[-49.02511,-26.87173],[-49.01649,-26.87354],[-49.01532,-26.87545],[-49.01393,-26.87636],[-49.01276,-26.87665],[-49.00853,-26.87639],[-49.00695,-26.87642],[-49.00542,-26.8767],[-49.00484,-26.87724],[-49.00329,-26.87931],[-49.00087,-26.88099],[-48.99962,-26.88219],[-48.99569,-26.88639],[-48.99456,-26.88765],[-48.99365,-26.88927],[-48.99094,-26.89193],[-48.98991,-26.89241],[-48.98924,-26.89329],[-48.98916,-26.8937],[-48.98933,-26.89526],[-48.98931,-26.89665],[-48.98888,-26.89947],[-48.98853,-26.90087],[-48.98819,-26.90179],[-48.98639,-26.90035],[-48.98491,-26.89932],[-48.98256,-26.89745],[-48.98538,-26.89454],[-48.98555,-26.89428],[-48.98552,-26.89263],[-48.98646,-26.89115],[-48.98751,-26.89005],[-48.98991,-26.88796],[-48.99079,-26.88634],[-48.99215,-26.88454],[-48.99562,-26.88095],[-48.99762,-26.87877],[-49.0003,-26.87688],[-49.00157,-26.87502],[-49.00265,-26.87408],[-49.00406,-26.87326],[-49.00662,-26.87284],[-49.00919,-26.87276],[-49.01228,-26.87308],[-49.01331,-26.87122],[-49.01491,-26.87012],[-49.02203,-26.86878],[-49.02349,-26.86831],[-49.02755,-26.86671],[-49.02945,-26.86571],[-49.03013,-26.86655],[-49.03034,-26.86747],[-49.03181,-26.86654],[-49.033,-26.86545],[-49.03377,-26.86449],[-49.03577,-26.86145],[-49.03645,-26.86083],[-49.03785,-26.86032],[-49.03904,-26.86036],[-49.04006,-26.86074],[-49.04188,-26.86194],[-49.04056,-26.86309]]]},"properties":{"codigo":"4205902003","name":"Belchior Baixo","population":338,"households":144,"areaKm2":2.846,"density":118.8}},{"type":"Feature","geometry":{"type":"Polygon","coordinates":[[[-48.88601,-26.89162],[-48.88704,-26.89101],[-48.88878,-26.89081],[-48.89116,-26.89154],[-48.89265,-26.89178],[-48.89407,-26.89182],[-48.89937,-26.89178],[-48.90947,-26.89165],[-48.91375,-26.89157],[-48.91598,-26.89191],[-48.91752,-26.89243],[-48.92198,-26.8947],[-48.92789,-26.89764],[-48.93431,-26.90091],[-48.93321,-26.90244],[-48.92231,-26.89691],[-48.9183,-26.8949],[-48.91676,-26.89417],[-48.91505,-26.89366],[-48.91363,-26.89347],[-48.91249,-26.89347],[-48.90021,-26.89366],[-48.89556,-26.89375],[-48.89363,-26.89373],[-48.89249,-26.89362],[-48.89027,-26.89317],[-48.8888,-26.8927],[-48.88601,-26.89162]]]},"properties":{"codigo":"4205902004","name":"Arraial D'Ouro","population":49,"households":20,"areaKm2":1.0051,"density":48.8}},{"type":"Feature","geometry":{"type":"Polygon","coordinates":[[[-48.90394,-26.99129],[-48.90403,-26.99221],[-48.90467,-26.99192],[-48.90613,-26.99181],[-48.90675,-26.99191],[-48.90264,-26.9942],[-48.90315,-26.99517],[-48.90401,-26.99515],[-48.90445,-26.99589],[-48.90612,-26.99587],[-48.90807,-26.99671],[-48.90604,-26.9977],[-48.90449,-26.99813],[-48.90261,-26.99808],[-48.9013,-26.99838],[-48.89727,-27.00062],[-48.8955,-27.00186],[-48.89338,-27.002],[-48.89189,-27.00183],[-48.88964,-27.00144],[-48.88741,-27.00118],[-48.88709,-27.00144],[-48.88527,-27.00069],[-48.8815,-27.00182],[-48.88035,-27.00118],[-48.87976,-27.00068],[-48.8793,-26.99905],[-48.88031,-26.99889],[-48.88029,-26.99833],[-48.88091,-26.99828],[-48.88088,-26.99735],[-48.88376,-26.99596],[-48.88685,-26.99537],[-48.88754,-26.99494],[-48.889,-26.99486],[-48.89294,-26.99475],[-48.89369,-26.9943],[-48.89508,-26.99418],[-48.89581,-26.9949],[-48.8986,-26.99483],[-48.8987,-26.99417],[-48.90394,-26.99129]]]},"properties":{"codigo":"4205902020","name":"Barracão","population":2154,"households":869,"areaKm2":1.6563,"density":1300.5}},{"type":"Feature","geometry":{"type":"Polygon","coordinates":[[[-48.97395,-26.95075],[-48.97317,-26.94846],[-48.97362,-26.94576],[-48.97398,-26.94533],[-48.97337,-26.94444],[-48.97161,-26.94357],[-48.97012,-26.94332],[-48.96963,-26.94299],[-48.96938,-26.94217],[-48.96904,-26.94048],[-48.96958,-26.93951],[-48.96953,-26.93782],[-48.96875,-26.93705],[-48.96842,-26.93531],[-48.96917,-26.93497],[-48.9699,-26.93492],[-48.97071,-26.93422],[-48.97146,-26.93317],[-48.97271,-26.93232],[-48.97309,-26.93185],[-48.97409,-26.93179],[-48.97506,-26.93241],[-48.97552,-26.93223],[-48.97585,-26.93298],[-48.97644,-26.93376],[-48.97911,-26.93362],[-48.97996,-26.93388],[-48.98262,-26.93515],[-48.98259,-26.93551],[-48.98675,-26.94258],[-48.9869,-26.94451],[-48.98848,-26.94622],[-48.98855,-26.94661],[-48.98776,-26.94682],[-48.98795,-26.94743],[-48.98782,-26.94823],[-48.98739,-26.94929],[-48.98739,-26.94999],[-48.98709,-26.95087],[-48.98597,-26.95223],[-48.98484,-26.95276],[-48.98228,-26.95451],[-48.98155,-26.95477],[-48.98104,-26.95535],[-48.98051,-26.95543],[-48.98001,-26.95505],[-48.97963,-26.9543],[-48.97928,-26.95417],[-48.97892,-26.95489],[-48.97395,-26.95075]]]},"properties":{"codigo":"4205902010","name":"Gaspar Grande","population":2144,"households":881,"areaKm2":3.1837,"density":673.4}},{"type":"Feature","geometry":{"type":"Polygon","coordinates":[[[-49.0284,-26.83805],[-49.02781,-26.8371],[-49.0276,-26.83618],[-49.02826,-26.83548],[-49.02663,-26.83537],[-49.02609,-26.83475],[-49.02548,-26.83378],[-49.02542,-26.83308],[-49.02609,-26.83227],[-49.02778,-26.8321],[-49.02783,-26.83125],[-49.02715,-26.83102],[-49.02679,-26.82948],[-49.02617,-26.82752],[-49.02455,-26.82675],[-49.02395,-26.82623],[-49.02271,-26.82469],[-49.02481,-26.82351],[-49.02843,-26.82251],[-49.02918,-26.8227],[-49.0305,-26.82339],[-49.03172,-26.82419],[-49.03205,-26.82514],[-49.03334,-26.82478],[-49.03292,-26.82764],[-49.03372,-26.82823],[-49.03457,-26.82909],[-49.03525,-26.83008],[-49.03736,-26.82999],[-49.03749,-26.83117],[-49.03823,-26.83102],[-49.03861,-26.83058],[-49.04026,-26.83026],[-49.04131,-26.83034],[-49.04116,-26.83142],[-49.0407,-26.83262],[-49.03909,-26.8329],[-49.03592,-26.83305],[-49.03608,-26.83415],[-49.03571,-26.83594],[-49.03576,-26.83706],[-49.03562,-26.83796],[-49.03481,-26.83918],[-49.0349,-26.84042],[-49.03395,-26.84033],[-49.03179,-26.83887],[-49.02929,-26.83846],[-49.0284,-26.83805]]]},"properties":{"codigo":"4205902001","name":"Belchior Alto","population":1246,"households":460,"areaKm2":1.6357,"density":761.7}},{"type":"Feature","geometry":{"type":"Polygon","coordinates":[[[-48.98819,-26.90179],[-48.98749,-26.90347],[-48.98625,-26.90565],[-48.98518,-26.90705],[-48.98281,-26.90923],[-48.98028,-26.91197],[-48.9792,-26.9133],[-48.97731,-26.91544],[-48.97549,-26.91732],[-48.97449,-26.91813],[-48.97333,-26.91889],[-48.97149,-26.91968],[-48.97103,-26.91996],[-48.97044,-26.92028],[-48.96932,-26.92121],[-48.96475,-26.92481],[-48.96212,-26.92698],[-48.96092,-26.92781],[-48.95969,-26.92826],[-48.95799,-26.92823],[-48.95668,-26.92777],[-48.9556,-26.92756],[-48.95431,-26.92708],[-48.95354,-26.92639],[-48.95302,-26.9251],[-48.95281,-26.9241],[-48.95088,-26.92088],[-48.94895,-26.91799],[-48.94784,-26.91667],[-48.94638,-26.91512],[-48.94546,-26.91425],[-48.94328,-26.91256],[-48.94166,-26.91153],[-48.9375,-26.90919],[-48.93634,-26.90858],[-48.9352,-26.90812],[-48.9353,-26.90615],[-48.93464,-26.90493],[-48.93286,-26.90364],[-48.93284,-26.9032],[-48.93321,-26.90244],[-48.93431,-26.90091],[-48.94009,-26.90385],[-48.94013,-26.9043],[-48.94399,-26.90426],[-48.94416,-26.90593],[-48.95014,-26.90913],[-48.95043,-26.90931],[-48.95362,-26.91017],[-48.95638,-26.91063],[-48.96249,-26.91144],[-48.96777,-26.91219],[-48.96549,-26.91071],[-48.96467,-26.90967],[-48.96469,-26.90885],[-48.96498,-26.90784],[-48.96715,-26.90668],[-48.97208,-26.90967],[-48.97523,-26.91148],[-48.97579,-26.91088],[-48.97607,-26.91013],[-48.97615,-26.90563],[-48.9773,-26.90291],[-48.97884,-26.90122],[-48.98256,-26.89745],[-48.98491,-26.89932],[-48.98639,-26.90035],[-48.98819,-26.90179]]]},"properties":{"codigo":"4205902005","name":"Margem Esquerda","population":7392,"households":2771,"areaKm2":6.5645,"density":1126}},{"type":"Feature","geometry":{"type":"Polygon","coordinates":[[[-48.93321,-26.90244],[-48.93284,-26.9032],[-48.93286,-26.90364],[-48.92742,-26.90141],[-48.92378,-26.89978],[-48.91991,-26.89765],[-48.91543,-26.89552],[-48.91334,-26.89514],[-48.90448,-26.89531],[-48.8935,-26.8955],[-48.8922,-26.89534],[-48.88857,-26.89461],[-48.88456,-26.89274],[-48.88601,-26.89162],[-48.8888,-26.8927],[-48.89027,-26.89317],[-48.89249,-26.89362],[-48.89363,-26.89373],[-48.89556,-26.89375],[-48.90021,-26.89366],[-48.91249,-26.89347],[-48.91363,-26.89347],[-48.91505,-26.89366],[-48.91676,-26.89417],[-48.9183,-26.8949],[-48.92231,-26.89691],[-48.93321,-26.90244]]]},"properties":{"codigo":"4205902006","name":"Lagoa","population":86,"households":32,"areaKm2":0.9423,"density":91.3}},{"type":"Feature","geometry":{"type":"Polygon","coordinates":[[[-48.95969,-26.92826],[-48.96005,-26.92874],[-48.96002,-26.92994],[-48.9597,-26.93024],[-48.95975,-26.93076],[-48.96017,-26.93107],[-48.96071,-26.93191],[-48.95773,-26.93507],[-48.95748,-26.93627],[-48.95763,-26.93692],[-48.95744,-26.93773],[-48.95711,-26.93831],[-48.95702,-26.9392],[-48.95683,-26.93881],[-48.95495,-26.93834],[-48.95297,-26.93664],[-48.95157,-26.93663],[-48.95143,-26.9347],[-48.95233,-26.93439],[-48.9523,-26.93261],[-48.95152,-26.93221],[-48.95179,-26.93166],[-48.95143,-26.93055],[-48.95126,-26.92953],[-48.95087,-26.92927],[-48.94988,-26.92929],[-48.94975,-26.92894],[-48.95097,-26.92835],[-48.9516,-26.92751],[-48.95145,-26.9269],[-48.95277,-26.92673],[-48.95354,-26.92639],[-48.95431,-26.92708],[-48.9556,-26.92756],[-48.95668,-26.92777],[-48.95799,-26.92823],[-48.95969,-26.92826]]]},"properties":{"codigo":"4205902015","name":"Centro","population":1957,"households":934,"areaKm2":0.8587,"density":2279}},{"type":"Feature","geometry":{"type":"Polygon","coordinates":[[[-48.96842,-26.93531],[-48.96775,-26.93525],[-48.96721,-26.93451],[-48.96701,-26.9339],[-48.96708,-26.93329],[-48.96665,-26.93304],[-48.96608,-26.93311],[-48.96538,-26.93369],[-48.96458,-26.93279],[-48.96402,-26.93254],[-48.96372,-26.9321],[-48.963,-26.93255],[-48.96241,-26.93213],[-48.96071,-26.93191],[-48.96017,-26.93107],[-48.95975,-26.93076],[-48.9597,-26.93024],[-48.96002,-26.92994],[-48.96005,-26.92874],[-48.95969,-26.92826],[-48.96092,-26.92781],[-48.96212,-26.92698],[-48.96475,-26.92481],[-48.96932,-26.92121],[-48.97044,-26.92028],[-48.97103,-26.91996],[-48.97285,-26.92131],[-48.98063,-26.92752],[-48.97552,-26.93223],[-48.97506,-26.93241],[-48.97409,-26.93179],[-48.97309,-26.93185],[-48.97271,-26.93232],[-48.97146,-26.93317],[-48.97071,-26.93422],[-48.9699,-26.93492],[-48.96917,-26.93497],[-48.96842,-26.93531]]]},"properties":{"codigo":"4205902009","name":"Coloninha","population":5162,"households":1955,"areaKm2":1.8909,"density":2729.9}},{"type":"Feature","geometry":{"type":"Polygon","coordinates":[[[-48.97395,-26.95075],[-48.97161,-26.95224],[-48.97127,-26.95262],[-48.97081,-26.95547],[-48.97014,-26.95627],[-48.96982,-26.95751],[-48.96948,-26.95812],[-48.96842,-26.95936],[-48.96826,-26.96024],[-48.96625,-26.96094],[-48.96547,-26.9608],[-48.9649,-26.96135],[-48.96386,-26.96131],[-48.96206,-26.96178],[-48.95988,-26.95909],[-48.96052,-26.95717],[-48.95969,-26.95597],[-48.96008,-26.95437],[-48.9602,-26.95315],[-48.9621,-26.95343],[-48.96287,-26.9537],[-48.96375,-26.95316],[-48.96356,-26.95131],[-48.96417,-26.94806],[-48.96473,-26.94764],[-48.9644,-26.94682],[-48.9654,-26.94536],[-48.96449,-26.94391],[-48.96075,-26.94334],[-48.96027,-26.94396],[-48.96005,-26.94365],[-48.95868,-26.94085],[-48.9579,-26.94065],[-48.95702,-26.9392],[-48.95711,-26.93831],[-48.95744,-26.93773],[-48.95763,-26.93692],[-48.95748,-26.93627],[-48.95773,-26.93507],[-48.96071,-26.93191],[-48.96241,-26.93213],[-48.963,-26.93255],[-48.96372,-26.9321],[-48.96402,-26.93254],[-48.96458,-26.93279],[-48.96538,-26.93369],[-48.96608,-26.93311],[-48.96665,-26.93304],[-48.96708,-26.93329],[-48.96701,-26.9339],[-48.96721,-26.93451],[-48.96775,-26.93525],[-48.96842,-26.93531],[-48.96875,-26.93705],[-48.96953,-26.93782],[-48.96958,-26.93951],[-48.96904,-26.94048],[-48.96938,-26.94217],[-48.96963,-26.94299],[-48.97012,-26.94332],[-48.97161,-26.94357],[-48.97337,-26.94444],[-48.97398,-26.94533],[-48.97362,-26.94576],[-48.97317,-26.94846],[-48.97395,-26.95075]]]},"properties":{"codigo":"4205902013","name":"Gasparinho","population":3254,"households":1284,"areaKm2":3.0308,"density":1073.6}},{"type":"Feature","geometry":{"type":"MultiPolygon","coordinates":[[[[-49.04063,-26.85682],[-49.03921,-26.85536],[-49.03819,-26.8553],[-49.03808,-26.8555],[-49.03874,-26.85631],[-49.03821,-26.85673],[-49.03725,-26.8567],[-49.03644,-26.85872],[-49.0378,-26.85849],[-49.04014,-26.85843],[-49.04084,-26.85902],[-49.04204,-26.85936],[-49.04357,-26.85998],[-49.04366,-26.86039],[-49.04327,-26.86123],[-49.04188,-26.86194],[-49.04006,-26.86074],[-49.03904,-26.86036],[-49.03785,-26.86032],[-49.03645,-26.86083],[-49.03577,-26.86145],[-49.03377,-26.86449],[-49.033,-26.86545],[-49.03181,-26.86654],[-49.03034,-26.86747],[-49.03013,-26.86655],[-49.02945,-26.86571],[-49.03033,-26.86531],[-49.03135,-26.86437],[-49.0306,-26.86374],[-49.03002,-26.86218],[-49.03014,-26.86068],[-49.03053,-26.85764],[-49.03148,-26.85502],[-49.0322,-26.85375],[-49.0315,-26.8523],[-49.03003,-26.8498],[-49.02968,-26.84874],[-49.03004,-26.84791],[-49.02911,-26.84691],[-49.02872,-26.84667],[-49.02732,-26.84635],[-49.02644,-26.84597],[-49.02608,-26.84378],[-49.02954,-26.84497],[-49.03004,-26.84364],[-49.02873,-26.84055],[-49.02832,-26.83854],[-49.0284,-26.83805],[-49.02929,-26.83846],[-49.03179,-26.83887],[-49.03395,-26.84033],[-49.0349,-26.84042],[-49.0354,-26.84197],[-49.03632,-26.8432],[-49.0367,-26.84415],[-49.03674,-26.84527],[-49.03579,-26.84721],[-49.03572,-26.84796],[-49.03753,-26.85119],[-49.03846,-26.85349],[-49.04002,-26.85369],[-49.04108,-26.85459],[-49.04214,-26.85506],[-49.04129,-26.85572],[-49.04063,-26.85682]]],[[[-48.95157,-26.93663],[-48.95171,-26.93845],[-48.95176,-26.94052],[-48.95168,-26.941],[-48.95118,-26.94195],[-48.95038,-26.94264],[-48.94952,-26.94304],[-48.94904,-26.94356],[-48.94863,-26.94296],[-48.94771,-26.94228],[-48.94733,-26.9417],[-48.94744,-26.9397],[-48.9471,-26.93902],[-48.94563,-26.93757],[-48.94511,-26.93542],[-48.94433,-26.93402],[-48.94562,-26.9331],[-48.94607,-26.93232],[-48.94765,-26.93076],[-48.94938,-26.93088],[-48.95143,-26.93055],[-48.95179,-26.93166],[-48.95152,-26.93221],[-48.9523,-26.93261],[-48.95233,-26.93439],[-48.95143,-26.9347],[-48.95157,-26.93663]]]]},"properties":{"codigo":"4205902002","name":"Belchior Central","population":1940,"households":761,"areaKm2":2.8323,"density":684.9}},{"type":"Feature","geometry":{"type":"Polygon","coordinates":[[[-48.8987,-26.99417],[-48.89872,-26.99388],[-48.89808,-26.99332],[-48.89777,-26.99268],[-48.8964,-26.99224],[-48.89635,-26.9912],[-48.89493,-26.99101],[-48.89481,-26.99036],[-48.89444,-26.99013],[-48.89414,-26.98923],[-48.89416,-26.98851],[-48.89335,-26.98792],[-48.89286,-26.98694],[-48.8923,-26.98694],[-48.89117,-26.9854],[-48.89109,-26.98411],[-48.89088,-26.98355],[-48.88949,-26.98281],[-48.89165,-26.9833],[-48.89304,-26.98178],[-48.89489,-26.98146],[-48.89573,-26.98253],[-48.89698,-26.98382],[-48.89976,-26.98395],[-48.90173,-26.98321],[-48.90154,-26.98212],[-48.90173,-26.98054],[-48.90338,-26.97784],[-48.9047,-26.97668],[-48.90501,-26.97593],[-48.90499,-26.97307],[-48.90505,-26.97151],[-48.9049,-26.97049],[-48.90533,-26.96996],[-48.90686,-26.96871],[-48.9078,-26.96807],[-48.90936,-26.9679],[-48.90933,-26.96717],[-48.91016,-26.96668],[-48.91114,-26.96673],[-48.91212,-26.966],[-48.91294,-26.96519],[-48.91389,-26.96527],[-48.91235,-26.97175],[-48.91204,-26.97336],[-48.91202,-26.97805],[-48.91196,-26.98096],[-48.91182,-26.98222],[-48.91094,-26.9835],[-48.90586,-26.99029],[-48.90394,-26.99129],[-48.8987,-26.99417]]]},"properties":{"codigo":"4205902018","name":"Macucos","population":202,"households":77,"areaKm2":2.9404,"density":68.7}},{"type":"Feature","geometry":{"type":"Polygon","coordinates":[[[-49.01242,-26.90474],[-49.01133,-26.90494],[-49.00976,-26.90541],[-49.00793,-26.90549],[-49.00809,-26.90697],[-49.00654,-26.9072],[-49.00658,-26.90576],[-49.00679,-26.90554],[-49.0043,-26.90451],[-49.00148,-26.90367],[-48.99913,-26.90215],[-48.99781,-26.90247],[-48.99657,-26.90196],[-48.9958,-26.90181],[-48.99457,-26.90187],[-48.99326,-26.9029],[-48.99052,-26.90231],[-48.9898,-26.90256],[-48.98819,-26.90179],[-48.98853,-26.90087],[-48.98888,-26.89947],[-48.98931,-26.89665],[-48.98933,-26.89526],[-48.98916,-26.8937],[-48.98924,-26.89329],[-48.98991,-26.89241],[-48.99094,-26.89193],[-48.99238,-26.89168],[-48.99492,-26.89146],[-48.99643,-26.89121],[-48.99777,-26.89129],[-49,-26.89186],[-49.0016,-26.89236],[-49.00418,-26.89281],[-49.00865,-26.89329],[-49.01022,-26.89363],[-49.01309,-26.89457],[-49.01402,-26.89516],[-49.01499,-26.89614],[-49.01588,-26.89739],[-49.01635,-26.89885],[-49.01655,-26.90051],[-49.01561,-26.90067],[-49.01416,-26.90047],[-49.01403,-26.90115],[-49.01364,-26.90173],[-49.01293,-26.9019],[-49.01313,-26.90263],[-49.01225,-26.90413],[-49.01242,-26.90474]]]},"properties":{"codigo":"4205902007","name":"Bela Vista","population":7396,"households":2996,"areaKm2":3.1417,"density":2354.1}},{"type":"Feature","geometry":{"type":"Polygon","coordinates":[[[-48.92553,-26.92531],[-48.92574,-26.91604],[-48.92045,-26.91633],[-48.91789,-26.91654],[-48.91137,-26.91908],[-48.90186,-26.92601],[-48.90174,-26.92572],[-48.89967,-26.92588],[-48.90012,-26.92654],[-48.8991,-26.92644],[-48.89851,-26.92579],[-48.89821,-26.92592],[-48.89839,-26.92686],[-48.89727,-26.9262],[-48.8967,-26.92618],[-48.89822,-26.93325],[-48.89819,-26.93742],[-48.89539,-26.93635],[-48.89453,-26.93573],[-48.89334,-26.93318],[-48.89311,-26.93245],[-48.89309,-26.93139],[-48.89343,-26.92997],[-48.893,-26.92932],[-48.89094,-26.92966],[-48.88917,-26.92931],[-48.88626,-26.9281],[-48.88432,-26.9264],[-48.87358,-26.91845],[-48.8706,-26.91666],[-48.86958,-26.91561],[-48.86887,-26.91526],[-48.86573,-26.91305],[-48.86494,-26.91276],[-48.8642,-26.9127],[-48.8608,-26.913],[-48.8588,-26.91255],[-48.8554,-26.91146],[-48.85091,-26.91046],[-48.85014,-26.91021],[-48.84761,-26.9109],[-48.84713,-26.91069],[-48.84689,-26.90892],[-48.84661,-26.90858],[-48.84646,-26.9068],[-48.84906,-26.90767],[-48.85101,-26.90818],[-48.85737,-26.90934],[-48.86067,-26.90975],[-48.86513,-26.90987],[-48.86589,-26.91001],[-48.86709,-26.91068],[-48.86929,-26.91204],[-48.8705,-26.91292],[-48.87291,-26.91442],[-48.87372,-26.91476],[-48.8781,-26.91605],[-48.88045,-26.91706],[-48.88109,-26.91748],[-48.88192,-26.91836],[-48.88257,-26.91927],[-48.88394,-26.92156],[-48.88526,-26.92332],[-48.88667,-26.92478],[-48.88847,-26.92604],[-48.88915,-26.92625],[-48.89008,-26.92629],[-48.89093,-26.926],[-48.89144,-26.92559],[-48.89234,-26.92452],[-48.89401,-26.92202],[-48.89562,-26.92007],[-48.89727,-26.91847],[-48.89927,-26.91667],[-48.90034,-26.91586],[-48.90164,-26.91507],[-48.90578,-26.91295],[-48.90761,-26.91174],[-48.90911,-26.91093],[-48.91035,-26.91048],[-48.91168,-26.91018],[-48.91447,-26.91001],[-48.9176,-26.91002],[-48.92069,-26.90996],[-48.92241,-26.90986],[-48.92458,-26.9096],[-48.92807,-26.90903],[-48.93043,-26.90854],[-48.93305,-26.90809],[-48.93437,-26.908],[-48.9352,-26.90812],[-48.9343,-26.90911],[-48.93392,-26.90995],[-48.93471,-26.91043],[-48.93521,-26.91144],[-48.93494,-26.9125],[-48.93466,-26.913],[-48.93433,-26.91411],[-48.93259,-26.92325],[-48.9325,-26.92383],[-48.92553,-26.92531]]]},"properties":{"codigo":"4205902021","name":"Poço Grande","population":2268,"households":885,"areaKm2":6.7096,"density":338}},{"type":"Feature","geometry":{"type":"Polygon","coordinates":[[[-48.98819,-26.90179],[-48.9898,-26.90256],[-48.99052,-26.90231],[-48.99326,-26.9029],[-48.9931,-26.90302],[-48.99172,-26.90526],[-48.98822,-26.90879],[-48.98768,-26.90946],[-48.98868,-26.91029],[-48.98837,-26.91059],[-48.99013,-26.912],[-48.991,-26.91411],[-48.99031,-26.91446],[-48.99023,-26.91488],[-48.9868,-26.91675],[-48.98661,-26.91695],[-48.98929,-26.91907],[-48.98611,-26.92241],[-48.98312,-26.92524],[-48.98063,-26.92752],[-48.97285,-26.92131],[-48.97103,-26.91996],[-48.97149,-26.91968],[-48.97333,-26.91889],[-48.97449,-26.91813],[-48.97549,-26.91732],[-48.97731,-26.91544],[-48.9792,-26.9133],[-48.98028,-26.91197],[-48.98281,-26.90923],[-48.98518,-26.90705],[-48.98625,-26.90565],[-48.98749,-26.90347],[-48.98819,-26.90179]]]},"properties":{"codigo":"4205902008","name":"Figueira","population":4447,"households":1689,"areaKm2":2.4364,"density":1825.2}},{"type":"Feature","geometry":{"type":"Polygon","coordinates":[[[-48.91596,-26.98168],[-48.91557,-26.98169],[-48.91532,-26.98064],[-48.91563,-26.98025],[-48.91531,-26.97934],[-48.91547,-26.97874],[-48.91494,-26.97819],[-48.9151,-26.97722],[-48.91466,-26.97679],[-48.91463,-26.97637],[-48.91403,-26.97554],[-48.91406,-26.97343],[-48.91416,-26.97268],[-48.91559,-26.96677],[-48.91584,-26.9659],[-48.91679,-26.96642],[-48.91752,-26.96869],[-48.91613,-26.97006],[-48.91629,-26.9705],[-48.91604,-26.97358],[-48.91607,-26.97875],[-48.91596,-26.98168]]]},"properties":{"codigo":"4205902012","name":"Alto Gasparinho","population":36,"households":10,"areaKm2":0.2514,"density":143.2}},{"type":"Feature","geometry":{"type":"MultiPolygon","coordinates":[[[[-48.95702,-26.9392],[-48.9579,-26.94065],[-48.95868,-26.94085],[-48.96005,-26.94365],[-48.96027,-26.94396],[-48.96004,-26.94448],[-48.95876,-26.94561],[-48.95836,-26.94528],[-48.95869,-26.94438],[-48.95872,-26.94363],[-48.95779,-26.94337],[-48.95618,-26.9441],[-48.95577,-26.94453],[-48.95445,-26.94658],[-48.95373,-26.94737],[-48.95238,-26.94795],[-48.95137,-26.94813],[-48.95028,-26.94858],[-48.94729,-26.94715],[-48.9448,-26.9472],[-48.94473,-26.94259],[-48.94579,-26.94316],[-48.94812,-26.94362],[-48.94904,-26.94356],[-48.94952,-26.94304],[-48.95038,-26.94264],[-48.95118,-26.94195],[-48.95168,-26.941],[-48.95176,-26.94052],[-48.95171,-26.93845],[-48.95157,-26.93663],[-48.95297,-26.93664],[-48.95495,-26.93834],[-48.95683,-26.93881],[-48.95702,-26.9392]]],[[[-48.93015,-26.95414],[-48.93145,-26.95337],[-48.9345,-26.95322],[-48.93483,-26.95252],[-48.9365,-26.95396],[-48.93648,-26.9568],[-48.94006,-26.96033],[-48.94062,-26.96123],[-48.9405,-26.96191],[-48.94146,-26.96228],[-48.94252,-26.96382],[-48.94202,-26.96403],[-48.94017,-26.96608],[-48.93845,-26.96683],[-48.93527,-26.96628],[-48.93435,-26.96605],[-48.93449,-26.96487],[-48.93479,-26.96436],[-48.93509,-26.96238],[-48.93335,-26.9611],[-48.9304,-26.95619],[-48.93015,-26.95414]]]]},"properties":{"codigo":"4205902014","name":"Gaspar Mirim","population":1499,"households":571,"areaKm2":1.8975,"density":790}},{"type":"Feature","geometry":{"type":"Polygon","coordinates":[[[-48.95354,-26.92639],[-48.95277,-26.92673],[-48.95145,-26.9269],[-48.9516,-26.92751],[-48.95097,-26.92835],[-48.94975,-26.92894],[-48.94988,-26.92929],[-48.94874,-26.93012],[-48.94765,-26.93076],[-48.94695,-26.931],[-48.94549,-26.93171],[-48.94429,-26.93181],[-48.9364,-26.93147],[-48.9346,-26.93103],[-48.93372,-26.93044],[-48.93289,-26.92942],[-48.93247,-26.92792],[-48.93238,-26.9253],[-48.9325,-26.92383],[-48.93259,-26.92325],[-48.93433,-26.91411],[-48.93466,-26.913],[-48.93494,-26.9125],[-48.93521,-26.91144],[-48.93471,-26.91043],[-48.93392,-26.90995],[-48.9343,-26.90911],[-48.9352,-26.90812],[-48.93634,-26.90858],[-48.9375,-26.90919],[-48.94166,-26.91153],[-48.94328,-26.91256],[-48.94546,-26.91425],[-48.94638,-26.91512],[-48.94784,-26.91667],[-48.94895,-26.91799],[-48.95088,-26.92088],[-48.95281,-26.9241],[-48.95302,-26.9251],[-48.95354,-26.92639]]]},"properties":{"codigo":"4205902016","name":"Sete de Setembro","population":6410,"households":2595,"areaKm2":3.653,"density":1754.7}},{"type":"Feature","geometry":{"type":"Polygon","coordinates":[[[-48.90394,-26.99129],[-48.90586,-26.99029],[-48.91094,-26.9835],[-48.91182,-26.98222],[-48.91196,-26.98096],[-48.91202,-26.97805],[-48.91204,-26.97336],[-48.91235,-26.97175],[-48.91389,-26.96527],[-48.9139,-26.96526],[-48.91478,-26.96529],[-48.91628,-26.96511],[-48.91584,-26.9659],[-48.91559,-26.96677],[-48.91416,-26.97268],[-48.91406,-26.97343],[-48.91403,-26.97554],[-48.91463,-26.97637],[-48.91466,-26.97679],[-48.9151,-26.97722],[-48.91494,-26.97819],[-48.91547,-26.97874],[-48.91531,-26.97934],[-48.91563,-26.98025],[-48.91532,-26.98064],[-48.91557,-26.98169],[-48.91596,-26.98168],[-48.91593,-26.98263],[-48.91563,-26.98356],[-48.91492,-26.9846],[-48.915,-26.9855],[-48.91488,-26.98615],[-48.91492,-26.98791],[-48.91453,-26.98866],[-48.91469,-26.98951],[-48.91421,-26.98983],[-48.91431,-26.9909],[-48.91497,-26.99138],[-48.9171,-26.99054],[-48.91856,-26.99271],[-48.91873,-26.99331],[-48.91807,-26.99467],[-48.91593,-26.99638],[-48.91484,-26.99648],[-48.9121,-26.99633],[-48.9085,-26.99659],[-48.90807,-26.99671],[-48.90612,-26.99587],[-48.90445,-26.99589],[-48.90401,-26.99515],[-48.90315,-26.99517],[-48.90264,-26.9942],[-48.90675,-26.99191],[-48.90613,-26.99181],[-48.90467,-26.99192],[-48.90403,-26.99221],[-48.90394,-26.99129]]]},"properties":{"codigo":"4205902019","name":"Bateias","population":2252,"households":817,"areaKm2":1.8879,"density":1192.9}},{"type":"Feature","geometry":{"type":"MultiPolygon","coordinates":[[[[-48.94904,-26.94356],[-48.94812,-26.94362],[-48.94579,-26.94316],[-48.94473,-26.94259],[-48.9448,-26.9472],[-48.94321,-26.94727],[-48.9408,-26.94804],[-48.94075,-26.95059],[-48.93443,-26.95056],[-48.93438,-26.95227],[-48.93483,-26.95252],[-48.9345,-26.95322],[-48.93145,-26.95337],[-48.93015,-26.95414],[-48.92928,-26.95605],[-48.92839,-26.95656],[-48.92352,-26.96278],[-48.92137,-26.96492],[-48.91752,-26.96869],[-48.91679,-26.96642],[-48.91584,-26.9659],[-48.91628,-26.96511],[-48.91478,-26.96529],[-48.9139,-26.96526],[-48.91419,-26.96417],[-48.91519,-26.96344],[-48.92492,-26.95465],[-48.92553,-26.92531],[-48.9325,-26.92383],[-48.93238,-26.9253],[-48.93247,-26.92792],[-48.93289,-26.92942],[-48.93372,-26.93044],[-48.9346,-26.93103],[-48.9364,-26.93147],[-48.94429,-26.93181],[-48.94549,-26.93171],[-48.94695,-26.931],[-48.94765,-26.93076],[-48.94607,-26.93232],[-48.94562,-26.9331],[-48.94433,-26.93402],[-48.94511,-26.93542],[-48.94563,-26.93757],[-48.9471,-26.93902],[-48.94744,-26.9397],[-48.94733,-26.9417],[-48.94771,-26.94228],[-48.94863,-26.94296],[-48.94904,-26.94356]]],[[[-48.95143,-26.93055],[-48.94938,-26.93088],[-48.94765,-26.93076],[-48.94874,-26.93012],[-48.94988,-26.92929],[-48.95087,-26.92927],[-48.95126,-26.92953],[-48.95143,-26.93055]]]]},"properties":{"codigo":"4205902017","name":"Santa Terezinha","population":7737,"households":2992,"areaKm2":6.0035,"density":1288.8}}]}