{"type":"FeatureCollection","features":[{"type":"Feature","geometry":{"type":"Polygon","coordinates":[[[-53.45876,-26.54827],[-53.45772,-26.54685],[-53.4706,-26.54734],[-53.49372,-26.52123],[-53.4941,-26.51694],[-53.5162,-26.51846],[-53.51683,-26.52007],[-53.51769,-26.52123],[-53.52445,-26.52187],[-53.5257,-26.52301],[-53.52794,-26.52245],[-53.52993,-26.52168],[-53.53165,-26.52159],[-53.53287,-26.52103],[-53.53528,-26.52085],[-53.53797,-26.52152],[-53.53859,-26.52103],[-53.5408,-26.52177],[-53.54153,-26.52299],[-53.54426,-26.52382],[-53.54549,-26.52454],[-53.5464,-26.52404],[-53.55018,-26.52476],[-53.55067,-26.52393],[-53.55316,-26.52443],[-53.55346,-26.52598],[-53.55463,-26.52693],[-53.5553,-26.52865],[-53.55767,-26.5289],[-53.55854,-26.52858],[-53.56052,-26.5287],[-53.56095,-26.528],[-53.56284,-26.52807],[-53.56346,-26.52867],[-53.56383,-26.53005],[-53.56629,-26.52971],[-53.56762,-26.52932],[-53.56976,-26.52791],[-53.57078,-26.52817],[-53.57161,-26.5277],[-53.57392,-26.52546],[-53.57513,-26.52367],[-53.57564,-26.52464],[-53.57684,-26.52489],[-53.57747,-26.52595],[-53.5789,-26.52624],[-53.5796,-26.52687],[-53.58068,-26.52598],[-53.58059,-26.52427],[-53.58123,-26.52343],[-53.58356,-26.52348],[-53.58399,-26.52257],[-53.58318,-26.52142],[-53.58153,-26.52242],[-53.58015,-26.52247],[-53.57952,-26.52135],[-53.57999,-26.52003],[-53.58132,-26.51806],[-53.58135,-26.51734],[-53.58134,-26.51557],[-53.608,-26.51633],[-53.60768,-26.52006],[-53.61705,-26.5212],[-53.61693,-26.52142],[-53.61391,-26.54218],[-53.61182,-26.55622],[-53.61379,-26.55641],[-53.61454,-26.55565],[-53.61722,-26.55643],[-53.61927,-26.55935],[-53.63125,-26.57618],[-53.63909,-26.58618],[-53.64009,-26.58714],[-53.63307,-26.5916],[-53.64437,-26.60431],[-53.63136,-26.61217],[-53.62943,-26.61515],[-53.62863,-26.61504],[-53.62719,-26.61344],[-53.6252,-26.6143],[-53.6232,-26.61488],[-53.62982,-26.61899],[-53.63166,-26.62891],[-53.61383,-26.6432],[-53.61532,-26.64675],[-53.60907,-26.65523],[-53.6099,-26.65561],[-53.61024,-26.65655],[-53.60948,-26.65753],[-53.60779,-26.65856],[-53.60641,-26.65821],[-53.60498,-26.65832],[-53.60355,-26.65708],[-53.60312,-26.65548],[-53.60212,-26.65491],[-53.59973,-26.65831],[-53.59841,-26.65818],[-53.59751,-26.65721],[-53.59721,-26.65479],[-53.59605,-26.6541],[-53.59436,-26.65552],[-53.59131,-26.65617],[-53.5896,-26.6558],[-53.59077,-26.65293],[-53.58997,-26.6521],[-53.58781,-26.65181],[-53.58563,-26.65343],[-53.58443,-26.65293],[-53.58464,-26.65203],[-53.58586,-26.65101],[-53.5854,-26.64992],[-53.58344,-26.65053],[-53.58207,-26.65131],[-53.57956,-26.65216],[-53.57698,-26.65331],[-53.57604,-26.65402],[-53.5743,-26.65406],[-53.57339,-26.65511],[-53.57215,-26.65547],[-53.56954,-26.65572],[-53.56538,-26.65159],[-53.56381,-26.6523],[-53.56066,-26.64654],[-53.55904,-26.64679],[-53.5581,-26.6466],[-53.5572,-26.64706],[-53.5552,-26.64678],[-53.5541,-26.64555],[-53.55223,-26.64521],[-53.55058,-26.64674],[-53.54957,-26.64643],[-53.54887,-26.64543],[-53.5463,-26.64616],[-53.54525,-26.64608],[-53.54237,-26.64714],[-53.54138,-26.64688],[-53.53953,-26.64741],[-53.53919,-26.64679],[-53.5364,-26.64682],[-53.5349,-26.648],[-53.53259,-26.64886],[-53.52912,-26.65038],[-53.5283,-26.65106],[-53.52539,-26.65149],[-53.52338,-26.65221],[-53.52205,-26.65217],[-53.52117,-26.6529],[-53.51937,-26.65324],[-53.51742,-26.65489],[-53.5015,-26.65392],[-53.495,-26.65975],[-53.47706,-26.64374],[-53.47399,-26.64663],[-53.46443,-26.63804],[-53.46221,-26.63986],[-53.4545,-26.63536],[-53.4475,-26.6344],[-53.44766,-26.63255],[-53.44644,-26.63034],[-53.4462,-26.62949],[-53.44724,-26.62773],[-53.44116,-26.62749],[-53.42874,-26.62646],[-53.42993,-26.62539],[-53.43145,-26.62337],[-53.43225,-26.62089],[-53.43175,-26.62026],[-53.42757,-26.61791],[-53.42492,-26.61688],[-53.42027,-26.61452],[-53.41864,-26.61075],[-53.41768,-26.60927],[-53.41417,-26.60785],[-53.41294,-26.60693],[-53.41388,-26.60634],[-53.42042,-26.60435],[-53.42222,-26.60367],[-53.42451,-26.60347],[-53.4272,-26.60477],[-53.42924,-26.60629],[-53.42935,-26.60747],[-53.42886,-26.61237],[-53.42895,-26.61413],[-53.42976,-26.61406],[-53.4328,-26.61138],[-53.43398,-26.61063],[-53.43599,-26.6098],[-53.43716,-26.60828],[-53.43689,-26.6073],[-53.43436,-26.60263],[-53.43335,-26.60013],[-53.43327,-26.59512],[-53.43301,-26.59416],[-53.43072,-26.59237],[-53.42949,-26.59086],[-53.42779,-26.58952],[-53.42755,-26.58795],[-53.42846,-26.58443],[-53.42935,-26.58325],[-53.43158,-26.58277],[-53.43433,-26.5839],[-53.43659,-26.58446],[-53.43856,-26.58546],[-53.43909,-26.58754],[-53.43965,-26.59078],[-53.44,-26.59156],[-53.44131,-26.59257],[-53.44215,-26.59257],[-53.44516,-26.5913],[-53.4468,-26.59017],[-53.4486,-26.58833],[-53.4496,-26.58828],[-53.45143,-26.58873],[-53.45293,-26.58837],[-53.45441,-26.58726],[-53.45564,-26.58522],[-53.45617,-26.58281],[-53.45543,-26.5823],[-53.45374,-26.58307],[-53.45168,-26.58472],[-53.44882,-26.58621],[-53.44619,-26.58604],[-53.44421,-26.58548],[-53.44228,-26.58393],[-53.44069,-26.58067],[-53.43903,-26.57907],[-53.43385,-26.57795],[-53.43199,-26.57697],[-53.43175,-26.57612],[-53.43264,-26.57413],[-53.43555,-26.57233],[-53.43809,-26.57205],[-53.43948,-26.57167],[-53.44019,-26.57112],[-53.44149,-26.56926],[-53.44276,-26.56806],[-53.44519,-26.56484],[-53.44611,-26.56428],[-53.44846,-26.56365],[-53.45257,-26.56654],[-53.45387,-26.56707],[-53.45574,-26.56722],[-53.45792,-26.5667],[-53.459,-26.56546],[-53.45972,-26.56289],[-53.45909,-26.5618],[-53.45631,-26.55989],[-53.45265,-26.5561],[-53.45226,-26.55442],[-53.45325,-26.55364],[-53.45718,-26.5541],[-53.45908,-26.55402],[-53.46157,-26.55353],[-53.46249,-26.55256],[-53.46244,-26.55133],[-53.46128,-26.54963],[-53.46017,-26.54875],[-53.45876,-26.54827]]]},"properties":{"codigo":"420640505","name":"Guaraciaba","population":9927,"households":4146,"areaKm2":250.273,"density":39.7}},{"type":"Feature","geometry":{"type":"Polygon","coordinates":[[[-53.61705,-26.5212],[-53.61906,-26.52494],[-53.63663,-26.52607],[-53.63746,-26.51641],[-53.63843,-26.51611],[-53.63929,-26.51674],[-53.64256,-26.51618],[-53.64718,-26.51474],[-53.64791,-26.51485],[-53.64864,-26.51402],[-53.65007,-26.51414],[-53.65167,-26.51344],[-53.65364,-26.51303],[-53.65395,-26.51354],[-53.65535,-26.51379],[-53.65646,-26.51349],[-53.65665,-26.51282],[-53.65771,-26.51276],[-53.65924,-26.51173],[-53.65962,-26.51111],[-53.66207,-26.51114],[-53.66437,-26.51038],[-53.66477,-26.50943],[-53.66602,-26.5086],[-53.66713,-26.50721],[-53.6685,-26.50638],[-53.66898,-26.50555],[-53.66983,-26.50549],[-53.67166,-26.50461],[-53.67203,-26.50525],[-53.67028,-26.5065],[-53.67023,-26.50752],[-53.67143,-26.50975],[-53.6725,-26.5107],[-53.67397,-26.51151],[-53.67528,-26.51024],[-53.67636,-26.50798],[-53.67743,-26.50653],[-53.67837,-26.50607],[-53.68012,-26.50601],[-53.6832,-26.50508],[-53.68367,-26.50351],[-53.68348,-26.5029],[-53.68182,-26.50185],[-53.68189,-26.50075],[-53.68461,-26.50047],[-53.6861,-26.50059],[-53.68782,-26.50025],[-53.68917,-26.50092],[-53.68965,-26.50303],[-53.69065,-26.50479],[-53.69058,-26.50682],[-53.69009,-26.50758],[-53.69012,-26.50921],[-53.69068,-26.51047],[-53.69037,-26.51099],[-53.68791,-26.51129],[-53.68718,-26.51233],[-53.68875,-26.51314],[-53.69103,-26.51312],[-53.69411,-26.51196],[-53.69432,-26.51331],[-53.69366,-26.51432],[-53.69189,-26.5159],[-53.69184,-26.51677],[-53.69483,-26.51794],[-53.69573,-26.51995],[-53.69712,-26.51981],[-53.69705,-26.5172],[-53.6973,-26.51481],[-53.69714,-26.51333],[-53.69798,-26.51231],[-53.69885,-26.51191],[-53.70103,-26.51203],[-53.70316,-26.51185],[-53.70636,-26.51279],[-53.70798,-26.51391],[-53.708,-26.51506],[-53.70666,-26.5167],[-53.70644,-26.51765],[-53.70699,-26.51963],[-53.70668,-26.52049],[-53.70367,-26.52187],[-53.70204,-26.5222],[-53.70113,-26.52277],[-53.70092,-26.52379],[-53.70077,-26.52746],[-53.70083,-26.52933],[-53.7019,-26.53003],[-53.7028,-26.53013],[-53.70507,-26.5298],[-53.70563,-26.53081],[-53.7056,-26.53247],[-53.70354,-26.53393],[-53.70367,-26.53566],[-53.70445,-26.53654],[-53.70529,-26.53649],[-53.70604,-26.53563],[-53.70735,-26.53124],[-53.70772,-26.53078],[-53.71051,-26.52931],[-53.71084,-26.52864],[-53.70864,-26.52685],[-53.70921,-26.52555],[-53.71122,-26.52423],[-53.7122,-26.5246],[-53.71277,-26.52699],[-53.71283,-26.5284],[-53.7144,-26.53053],[-53.71439,-26.53156],[-53.71352,-26.53426],[-53.71319,-26.53705],[-53.71193,-26.53875],[-53.7075,-26.5415],[-53.7063,-26.54297],[-53.70645,-26.54492],[-53.70676,-26.54543],[-53.70811,-26.54572],[-53.71049,-26.54473],[-53.71141,-26.54357],[-53.71303,-26.54066],[-53.71346,-26.5402],[-53.71538,-26.53945],[-53.71639,-26.53958],[-53.71802,-26.54048],[-53.71898,-26.53973],[-53.71825,-26.53821],[-53.71863,-26.53531],[-53.7191,-26.5346],[-53.7201,-26.53561],[-53.7203,-26.53703],[-53.72093,-26.53777],[-53.72079,-26.53952],[-53.72214,-26.54173],[-53.72361,-26.54257],[-53.72489,-26.5427],[-53.72649,-26.54226],[-53.72917,-26.54011],[-53.73085,-26.53902],[-53.73283,-26.5392],[-53.73695,-26.5415],[-53.73978,-26.54279],[-53.74223,-26.54438],[-53.74194,-26.54681],[-53.73903,-26.54845],[-53.72981,-26.54929],[-53.728,-26.5498],[-53.72661,-26.55096],[-53.72568,-26.55416],[-53.72514,-26.55701],[-53.72523,-26.55825],[-53.72593,-26.5596],[-53.72719,-26.56038],[-53.73033,-26.55973],[-53.73199,-26.55889],[-53.73375,-26.55856],[-53.73516,-26.55872],[-53.7366,-26.56005],[-53.73774,-26.56451],[-53.73644,-26.56683],[-53.73527,-26.56727],[-53.73229,-26.56663],[-53.72939,-26.56513],[-53.72834,-26.56435],[-53.72649,-26.56356],[-53.72382,-26.56136],[-53.72211,-26.55899],[-53.71998,-26.55831],[-53.7136,-26.55657],[-53.71093,-26.55659],[-53.70962,-26.55728],[-53.70873,-26.55818],[-53.70797,-26.56038],[-53.70823,-26.56173],[-53.70931,-26.56272],[-53.71339,-26.56301],[-53.71533,-26.56231],[-53.7214,-26.56176],[-53.72239,-26.56223],[-53.72318,-26.5632],[-53.72229,-26.56705],[-53.72141,-26.56962],[-53.72219,-26.57551],[-53.72242,-26.57842],[-53.72233,-26.58108],[-53.72507,-26.58413],[-53.72487,-26.58793],[-53.72537,-26.58986],[-53.72674,-26.58964],[-53.73078,-26.58623],[-53.73179,-26.58576],[-53.73326,-26.58695],[-53.7294,-26.59171],[-53.72874,-26.59388],[-53.72929,-26.59736],[-53.73,-26.59843],[-53.73066,-26.60065],[-53.72987,-26.60101],[-53.72842,-26.60265],[-53.72658,-26.60364],[-53.72631,-26.60199],[-53.72457,-26.60012],[-53.72391,-26.59847],[-53.72378,-26.59733],[-53.72192,-26.59676],[-53.7204,-26.59719],[-53.72034,-26.59841],[-53.72089,-26.59982],[-53.7219,-26.60126],[-53.72182,-26.60253],[-53.72115,-26.60376],[-53.71913,-26.60394],[-53.71785,-26.603],[-53.7184,-26.60087],[-53.71759,-26.6002],[-53.71545,-26.6019],[-53.714,-26.60248],[-53.71394,-26.60533],[-53.71157,-26.60686],[-53.71119,-26.60679],[-53.70971,-26.60496],[-53.7111,-26.60352],[-53.71163,-26.6024],[-53.71117,-26.59998],[-53.7104,-26.59884],[-53.70894,-26.59862],[-53.70704,-26.59937],[-53.7049,-26.59942],[-53.70357,-26.59853],[-53.70504,-26.59784],[-53.70777,-26.59525],[-53.70939,-26.59527],[-53.71047,-26.5982],[-53.71127,-26.59806],[-53.71311,-26.59547],[-53.71158,-26.59572],[-53.71101,-26.59508],[-53.71017,-26.59229],[-53.70956,-26.59154],[-53.70864,-26.59205],[-53.70713,-26.59222],[-53.70618,-26.59362],[-53.70501,-26.59318],[-53.70671,-26.59082],[-53.7062,-26.59016],[-53.70524,-26.5906],[-53.70145,-26.59067],[-53.70051,-26.59147],[-53.69903,-26.59208],[-53.69739,-26.59028],[-53.69866,-26.5889],[-53.70012,-26.58889],[-53.69955,-26.58719],[-53.7001,-26.58583],[-53.69937,-26.58533],[-53.69974,-26.58337],[-53.70107,-26.5828],[-53.69976,-26.58082],[-53.695,-26.58294],[-53.694,-26.58411],[-53.69217,-26.58481],[-53.69014,-26.58658],[-53.68879,-26.58702],[-53.68794,-26.5868],[-53.68774,-26.5852],[-53.68849,-26.58403],[-53.6881,-26.58178],[-53.68521,-26.57863],[-53.68429,-26.5792],[-53.68317,-26.57867],[-53.68089,-26.58039],[-53.67903,-26.58004],[-53.67765,-26.58009],[-53.67519,-26.57906],[-53.67048,-26.58145],[-53.65315,-26.59044],[-53.64797,-26.58267],[-53.64255,-26.58557],[-53.64009,-26.58714],[-53.63909,-26.58618],[-53.63125,-26.57618],[-53.61927,-26.55935],[-53.61722,-26.55643],[-53.61454,-26.55565],[-53.61379,-26.55641],[-53.61182,-26.55622],[-53.61391,-26.54218],[-53.61693,-26.52142],[-53.61705,-26.5212]]]},"properties":{"codigo":"420640520","name":"Ouro Verde","population":869,"households":429,"areaKm2":81.4932,"density":10.7}}]}