{"type":"FeatureCollection","features":[{"type":"Feature","geometry":{"type":"Polygon","coordinates":[[[-48.95489,-28.31876],[-48.95587,-28.31997],[-48.9545,-28.32031],[-48.9532,-28.32104],[-48.95229,-28.32204],[-48.9524,-28.32363],[-48.95162,-28.32515],[-48.95238,-28.32619],[-48.95226,-28.32762],[-48.95124,-28.32845],[-48.95133,-28.32986],[-48.9509,-28.33133],[-48.94945,-28.3335],[-48.94988,-28.33479],[-48.94946,-28.33515],[-48.94929,-28.33705],[-48.94821,-28.33773],[-48.94822,-28.3387],[-48.94967,-28.34001],[-48.94964,-28.34207],[-48.94877,-28.34179],[-48.94756,-28.34296],[-48.94564,-28.34421],[-48.94387,-28.34466],[-48.94429,-28.34575],[-48.94565,-28.34802],[-48.94775,-28.34961],[-48.94836,-28.35039],[-48.94874,-28.35344],[-48.94825,-28.3552],[-48.94767,-28.35589],[-48.94712,-28.35751],[-48.94794,-28.35825],[-48.94813,-28.35911],[-48.94647,-28.35896],[-48.94486,-28.35918],[-48.94246,-28.35868],[-48.94,-28.35679],[-48.9382,-28.35385],[-48.93509,-28.3529],[-48.93506,-28.35172],[-48.93262,-28.35121],[-48.93096,-28.35182],[-48.92987,-28.35058],[-48.92707,-28.35019],[-48.92607,-28.35056],[-48.92435,-28.35215],[-48.92308,-28.35149],[-48.92233,-28.35176],[-48.92221,-28.35279],[-48.92124,-28.35341],[-48.9196,-28.3534],[-48.91903,-28.35466],[-48.91624,-28.35396],[-48.91512,-28.35342],[-48.91354,-28.35374],[-48.9127,-28.35275],[-48.91067,-28.35214],[-48.9064,-28.35326],[-48.90752,-28.35463],[-48.90689,-28.35686],[-48.90686,-28.3581],[-48.90573,-28.35904],[-48.90104,-28.35965],[-48.89861,-28.36009],[-48.89097,-28.36112],[-48.88906,-28.3609],[-48.88822,-28.3602],[-48.88564,-28.36039],[-48.88432,-28.36077],[-48.8828,-28.36077],[-48.881,-28.36007],[-48.87795,-28.36028],[-48.875,-28.36008],[-48.86655,-28.35987],[-48.85701,-28.35993],[-48.85033,-28.36003],[-48.80441,-28.35596],[-48.80252,-28.35505],[-48.80106,-28.35468],[-48.79796,-28.35456],[-48.79396,-28.35498],[-48.79194,-28.35544],[-48.79012,-28.35617],[-48.78609,-28.35823],[-48.78235,-28.35983],[-48.77761,-28.36104],[-48.77462,-28.36133],[-48.77188,-28.36125],[-48.76941,-28.36088],[-48.76701,-28.36018],[-48.76394,-28.35875],[-48.76143,-28.35706],[-48.75981,-28.35549],[-48.75709,-28.35172],[-48.75518,-28.34865],[-48.75363,-28.34575],[-48.75254,-28.34201],[-48.75212,-28.33858],[-48.75244,-28.33453],[-48.75503,-28.32485],[-48.75541,-28.32255],[-48.75509,-28.31953],[-48.75393,-28.31701],[-48.75193,-28.3149],[-48.75,-28.31334],[-48.74625,-28.30964],[-48.74384,-28.30676],[-48.74208,-28.30414],[-48.74072,-28.30146],[-48.73952,-28.29808],[-48.73719,-28.28949],[-48.73622,-28.28661],[-48.73309,-28.27915],[-48.73115,-28.27428],[-48.72877,-28.26743],[-48.72773,-28.26406],[-48.72609,-28.25807],[-48.72478,-28.25281],[-48.7244,-28.25],[-48.72427,-28.24737],[-48.72459,-28.24337],[-48.72562,-28.24067],[-48.72779,-28.23742],[-48.73051,-28.23482],[-48.73552,-28.23125],[-48.73809,-28.22804],[-48.73962,-28.22265],[-48.74181,-28.222],[-48.74261,-28.22201],[-48.74361,-28.22313],[-48.74446,-28.22341],[-48.74695,-28.22687],[-48.74725,-28.22859],[-48.74834,-28.23084],[-48.74939,-28.23223],[-48.75315,-28.23428],[-48.75403,-28.23525],[-48.75794,-28.2378],[-48.75908,-28.23877],[-48.75915,-28.24046],[-48.75801,-28.24244],[-48.75998,-28.24405],[-48.76136,-28.24488],[-48.76222,-28.245],[-48.76508,-28.24444],[-48.76544,-28.24364],[-48.76687,-28.24362],[-48.76794,-28.24315],[-48.76858,-28.24441],[-48.77532,-28.24342],[-48.78098,-28.24169],[-48.78261,-28.24144],[-48.78517,-28.24231],[-48.78559,-28.24195],[-48.78722,-28.24238],[-48.78843,-28.24237],[-48.79112,-28.24353],[-48.79257,-28.24343],[-48.79356,-28.24388],[-48.79549,-28.24378],[-48.79768,-28.244],[-48.79814,-28.2445],[-48.80049,-28.24538],[-48.80327,-28.24557],[-48.80468,-28.246],[-48.80782,-28.24784],[-48.80773,-28.2464],[-48.80448,-28.23974],[-48.80481,-28.2393],[-48.81463,-28.23848],[-48.81744,-28.23776],[-48.81954,-28.23655],[-48.82201,-28.23417],[-48.82293,-28.23079],[-48.82279,-28.2275],[-48.82433,-28.22159],[-48.82318,-28.21828],[-48.82423,-28.21447],[-48.82637,-28.21111],[-48.82973,-28.20706],[-48.82977,-28.20529],[-48.82932,-28.2035],[-48.83279,-28.20016],[-48.83246,-28.19859],[-48.83071,-28.19489],[-48.83158,-28.19388],[-48.83425,-28.19419],[-48.8363,-28.19525],[-48.83821,-28.19674],[-48.8393,-28.19724],[-48.84155,-28.19724],[-48.84587,-28.19681],[-48.84943,-28.19594],[-48.85126,-28.19518],[-48.85287,-28.19365],[-48.85846,-28.19373],[-48.86042,-28.19301],[-48.86392,-28.18821],[-48.86694,-28.18298],[-48.87017,-28.17947],[-48.87337,-28.1779],[-48.87558,-28.17653],[-48.87789,-28.17021],[-48.87873,-28.16472],[-48.87976,-28.16204],[-48.88609,-28.16128],[-48.88757,-28.16012],[-48.88811,-28.15764],[-48.88656,-28.15187],[-48.88878,-28.15326],[-48.89034,-28.15283],[-48.89238,-28.1532],[-48.89435,-28.15328],[-48.89564,-28.15386],[-48.8977,-28.15384],[-48.89931,-28.15358],[-48.8999,-28.15458],[-48.9009,-28.15437],[-48.90199,-28.15314],[-48.90295,-28.15158],[-48.90276,-28.15012],[-48.90326,-28.14963],[-48.90517,-28.14957],[-48.90553,-28.1487],[-48.90663,-28.14954],[-48.90706,-28.14884],[-48.90822,-28.14919],[-48.90937,-28.14889],[-48.90971,-28.14805],[-48.90969,-28.14645],[-48.9102,-28.14587],[-48.90984,-28.14494],[-48.91137,-28.14438],[-48.91181,-28.14374],[-48.91361,-28.14258],[-48.91566,-28.14169],[-48.9165,-28.14287],[-48.91773,-28.14348],[-48.91987,-28.14318],[-48.92121,-28.14602],[-48.92217,-28.1457],[-48.92312,-28.14616],[-48.92361,-28.14495],[-48.9246,-28.14432],[-48.92402,-28.14248],[-48.92538,-28.1414],[-48.92617,-28.14124],[-48.93863,-28.17508],[-48.91145,-28.21589],[-48.91157,-28.21784],[-48.9095,-28.22018],[-48.909,-28.22211],[-48.90985,-28.22295],[-48.91077,-28.22589],[-48.91044,-28.22696],[-48.90883,-28.22799],[-48.90905,-28.2289],[-48.90994,-28.2299],[-48.91117,-28.23274],[-48.9108,-28.23364],[-48.9097,-28.23455],[-48.91268,-28.23576],[-48.91461,-28.23587],[-48.91568,-28.23638],[-48.91787,-28.23674],[-48.92012,-28.23537],[-48.92155,-28.23499],[-48.92094,-28.23563],[-48.9218,-28.23657],[-48.92196,-28.23857],[-48.92118,-28.24172],[-48.92167,-28.24324],[-48.92114,-28.24479],[-48.92162,-28.24828],[-48.92157,-28.25018],[-48.92184,-28.25085],[-48.92328,-28.25048],[-48.92396,-28.24974],[-48.92512,-28.25008],[-48.92865,-28.24938],[-48.93222,-28.2505],[-48.93362,-28.24901],[-48.93609,-28.24945],[-48.93797,-28.25076],[-48.94005,-28.2511],[-48.94137,-28.25169],[-48.94265,-28.25291],[-48.94235,-28.25704],[-48.94324,-28.2576],[-48.94339,-28.25924],[-48.94394,-28.26],[-48.94398,-28.26203],[-48.94497,-28.26322],[-48.94663,-28.26582],[-48.9489,-28.26701],[-48.95015,-28.26743],[-48.95441,-28.26845],[-48.9558,-28.26914],[-48.95556,-28.27102],[-48.95454,-28.27232],[-48.95424,-28.27399],[-48.95482,-28.27496],[-48.95489,-28.27606],[-48.95401,-28.27766],[-48.95224,-28.27875],[-48.95249,-28.28175],[-48.95199,-28.28225],[-48.95185,-28.28378],[-48.95083,-28.28531],[-48.95068,-28.2866],[-48.95005,-28.28747],[-48.94939,-28.28934],[-48.95041,-28.29032],[-48.95198,-28.29049],[-48.95366,-28.2911],[-48.95538,-28.29273],[-48.95597,-28.29412],[-48.9554,-28.29557],[-48.9555,-28.29738],[-48.95351,-28.29785],[-48.95237,-28.29864],[-48.95049,-28.29924],[-48.95089,-28.30043],[-48.95093,-28.30412],[-48.95144,-28.30562],[-48.95223,-28.30634],[-48.95304,-28.3081],[-48.95282,-28.30994],[-48.95452,-28.31083],[-48.95495,-28.31221],[-48.95474,-28.3136],[-48.95526,-28.31457],[-48.95523,-28.31653],[-48.95472,-28.3178],[-48.95489,-28.31876]]]},"properties":{"codigo":"420720505","name":"Imaruí","population":10208,"households":6141,"areaKm2":338.7824,"density":30.1}},{"type":"Feature","geometry":{"type":"Polygon","coordinates":[[[-48.73962,-28.22265],[-48.73985,-28.22194],[-48.74015,-28.22111],[-48.7408,-28.21728],[-48.74115,-28.2113],[-48.74095,-28.20932],[-48.73973,-28.20671],[-48.73871,-28.203],[-48.73882,-28.20227],[-48.73992,-28.20055],[-48.7392,-28.19892],[-48.738,-28.19855],[-48.73701,-28.1988],[-48.73426,-28.20021],[-48.73189,-28.19986],[-48.73069,-28.19869],[-48.7302,-28.19699],[-48.73033,-28.19577],[-48.73154,-28.19178],[-48.73294,-28.19055],[-48.73458,-28.19044],[-48.73622,-28.18959],[-48.73686,-28.18853],[-48.73691,-28.18621],[-48.73614,-28.18452],[-48.73653,-28.18297],[-48.73817,-28.18158],[-48.73822,-28.18056],[-48.73736,-28.17904],[-48.73625,-28.17868],[-48.73416,-28.17988],[-48.73288,-28.18015],[-48.73178,-28.17918],[-48.73097,-28.17734],[-48.73017,-28.17626],[-48.72973,-28.17502],[-48.73031,-28.17363],[-48.73321,-28.17211],[-48.73385,-28.17026],[-48.73375,-28.16802],[-48.73388,-28.16539],[-48.73324,-28.16345],[-48.73158,-28.16189],[-48.73133,-28.15935],[-48.73075,-28.15743],[-48.73129,-28.15605],[-48.73216,-28.15543],[-48.73477,-28.15432],[-48.73559,-28.15433],[-48.73685,-28.15504],[-48.73754,-28.15675],[-48.73826,-28.15721],[-48.73957,-28.15667],[-48.74138,-28.15435],[-48.74236,-28.15224],[-48.74163,-28.1508],[-48.74057,-28.15047],[-48.73825,-28.15055],[-48.7374,-28.14976],[-48.73668,-28.14726],[-48.73658,-28.14549],[-48.73738,-28.14421],[-48.73973,-28.14215],[-48.74107,-28.14145],[-48.74254,-28.14115],[-48.7459,-28.14199],[-48.74784,-28.14166],[-48.74837,-28.14054],[-48.74789,-28.13991],[-48.7462,-28.1394],[-48.74523,-28.13864],[-48.74415,-28.13721],[-48.74262,-28.13696],[-48.74058,-28.13763],[-48.73917,-28.13702],[-48.73858,-28.13545],[-48.73843,-28.13371],[-48.73885,-28.13249],[-48.74007,-28.13191],[-48.7416,-28.13191],[-48.74345,-28.13226],[-48.74409,-28.1309],[-48.74294,-28.12967],[-48.74045,-28.12928],[-48.73964,-28.12813],[-48.73946,-28.1265],[-48.73974,-28.125],[-48.74053,-28.12383],[-48.74324,-28.12074],[-48.74545,-28.11987],[-48.74708,-28.1201],[-48.74782,-28.12111],[-48.74761,-28.12376],[-48.74837,-28.12444],[-48.74963,-28.12425],[-48.75107,-28.12259],[-48.75166,-28.12085],[-48.7533,-28.1197],[-48.75403,-28.11864],[-48.75374,-28.11735],[-48.75311,-28.11635],[-48.75162,-28.11602],[-48.74969,-28.11658],[-48.74817,-28.11804],[-48.74728,-28.11816],[-48.74627,-28.11751],[-48.7455,-28.11588],[-48.74609,-28.11458],[-48.74758,-28.11368],[-48.74861,-28.11377],[-48.75,-28.11444],[-48.75131,-28.114],[-48.75137,-28.11212],[-48.75,-28.11069],[-48.75027,-28.10942],[-48.75128,-28.10857],[-48.75225,-28.10863],[-48.75299,-28.10945],[-48.75339,-28.11205],[-48.75407,-28.11244],[-48.75637,-28.1125],[-48.75727,-28.11129],[-48.75896,-28.11053],[-48.75956,-28.10995],[-48.75918,-28.10776],[-48.75816,-28.107],[-48.75543,-28.10744],[-48.75495,-28.10719],[-48.75508,-28.10547],[-48.7565,-28.10515],[-48.75788,-28.10539],[-48.75862,-28.10405],[-48.75678,-28.10192],[-48.75665,-28.10059],[-48.75599,-28.09952],[-48.7569,-28.09863],[-48.75802,-28.09881],[-48.75787,-28.09679],[-48.75935,-28.09459],[-48.75802,-28.09344],[-48.7587,-28.09231],[-48.76039,-28.09193],[-48.76172,-28.09042],[-48.7632,-28.09008],[-48.76443,-28.09044],[-48.76569,-28.09002],[-48.76763,-28.08889],[-48.76852,-28.08811],[-48.76998,-28.08741],[-48.77099,-28.08783],[-48.77313,-28.08774],[-48.7748,-28.089],[-48.77787,-28.08942],[-48.77932,-28.08897],[-48.78029,-28.09027],[-48.78177,-28.09056],[-48.78175,-28.09183],[-48.78419,-28.09191],[-48.7867,-28.09133],[-48.7878,-28.09138],[-48.78778,-28.09302],[-48.78988,-28.09371],[-48.79054,-28.09315],[-48.79268,-28.09453],[-48.79422,-28.09476],[-48.79534,-28.09438],[-48.79633,-28.09498],[-48.7967,-28.09414],[-48.79785,-28.0943],[-48.80066,-28.09323],[-48.80117,-28.09452],[-48.80199,-28.09502],[-48.80542,-28.09363],[-48.80746,-28.09346],[-48.80825,-28.09189],[-48.80716,-28.09052],[-48.80748,-28.08935],[-48.80757,-28.08715],[-48.80815,-28.08473],[-48.80952,-28.0805],[-48.80974,-28.07884],[-48.81057,-28.07826],[-48.81257,-28.07885],[-48.81522,-28.07653],[-48.81551,-28.07542],[-48.8179,-28.07401],[-48.8196,-28.07409],[-48.8216,-28.0736],[-48.82306,-28.07518],[-48.82595,-28.07617],[-48.82724,-28.07523],[-48.82798,-28.07428],[-48.82827,-28.07292],[-48.82879,-28.07252],[-48.83084,-28.07226],[-48.83226,-28.07163],[-48.83434,-28.07199],[-48.83521,-28.07186],[-48.83627,-28.07247],[-48.83788,-28.07227],[-48.83927,-28.07324],[-48.84074,-28.0738],[-48.84312,-28.07394],[-48.8456,-28.07496],[-48.84695,-28.07473],[-48.84816,-28.073],[-48.8492,-28.07354],[-48.85036,-28.07362],[-48.85085,-28.07462],[-48.85372,-28.07632],[-48.85716,-28.07738],[-48.8601,-28.07777],[-48.86187,-28.07746],[-48.86225,-28.07821],[-48.86472,-28.07829],[-48.86502,-28.0794],[-48.86757,-28.08054],[-48.86902,-28.08036],[-48.87013,-28.0818],[-48.87204,-28.08275],[-48.87166,-28.08612],[-48.87019,-28.08978],[-48.87027,-28.09124],[-48.86988,-28.0923],[-48.86986,-28.09416],[-48.86941,-28.09555],[-48.8698,-28.09614],[-48.88358,-28.1498],[-48.88503,-28.15062],[-48.88656,-28.15187],[-48.88811,-28.15764],[-48.88757,-28.16012],[-48.88609,-28.16128],[-48.87976,-28.16204],[-48.87873,-28.16472],[-48.87789,-28.17021],[-48.87558,-28.17653],[-48.87337,-28.1779],[-48.87017,-28.17947],[-48.86694,-28.18298],[-48.86392,-28.18821],[-48.86042,-28.19301],[-48.85846,-28.19373],[-48.85287,-28.19365],[-48.85126,-28.19518],[-48.84943,-28.19594],[-48.84587,-28.19681],[-48.84155,-28.19724],[-48.8393,-28.19724],[-48.83821,-28.19674],[-48.8363,-28.19525],[-48.83425,-28.19419],[-48.83158,-28.19388],[-48.83071,-28.19489],[-48.83246,-28.19859],[-48.83279,-28.20016],[-48.82932,-28.2035],[-48.82977,-28.20529],[-48.82973,-28.20706],[-48.82637,-28.21111],[-48.82423,-28.21447],[-48.82318,-28.21828],[-48.82433,-28.22159],[-48.82279,-28.2275],[-48.82293,-28.23079],[-48.82201,-28.23417],[-48.81954,-28.23655],[-48.81744,-28.23776],[-48.81463,-28.23848],[-48.80481,-28.2393],[-48.80448,-28.23974],[-48.80773,-28.2464],[-48.80782,-28.24784],[-48.80468,-28.246],[-48.80327,-28.24557],[-48.80049,-28.24538],[-48.79814,-28.2445],[-48.79768,-28.244],[-48.79549,-28.24378],[-48.79356,-28.24388],[-48.79257,-28.24343],[-48.79112,-28.24353],[-48.78843,-28.24237],[-48.78722,-28.24238],[-48.78559,-28.24195],[-48.78517,-28.24231],[-48.78261,-28.24144],[-48.78098,-28.24169],[-48.77532,-28.24342],[-48.76858,-28.24441],[-48.76794,-28.24315],[-48.76687,-28.24362],[-48.76544,-28.24364],[-48.76508,-28.24444],[-48.76222,-28.245],[-48.76136,-28.24488],[-48.75998,-28.24405],[-48.75801,-28.24244],[-48.75915,-28.24046],[-48.75908,-28.23877],[-48.75794,-28.2378],[-48.75403,-28.23525],[-48.75315,-28.23428],[-48.74939,-28.23223],[-48.74834,-28.23084],[-48.74725,-28.22859],[-48.74695,-28.22687],[-48.74446,-28.22341],[-48.74361,-28.22313],[-48.74261,-28.22201],[-48.74181,-28.222],[-48.73962,-28.22265]]]},"properties":{"codigo":"420720510","name":"Rio d'Una","population":1673,"households":1164,"areaKm2":203.4559,"density":8.2}}]}