{"type":"FeatureCollection","features":[{"type":"Feature","geometry":{"type":"Polygon","coordinates":[[[-49.39864,-28.3961],[-49.39899,-28.39767],[-49.39879,-28.3999],[-49.39987,-28.40021],[-49.4013,-28.40215],[-49.40184,-28.4025],[-49.40284,-28.402],[-49.40439,-28.40238],[-49.40523,-28.40227],[-49.40613,-28.40293],[-49.40735,-28.40454],[-49.40803,-28.40498],[-49.40944,-28.40435],[-49.40862,-28.40775],[-49.40838,-28.40932],[-49.4047,-28.40931],[-49.39571,-28.40059],[-49.39443,-28.40015],[-49.39595,-28.39834],[-49.39661,-28.39811],[-49.39749,-28.39747],[-49.39825,-28.39725],[-49.39789,-28.39666],[-49.39864,-28.3961]]]},"properties":{"codigo":"4209607007","name":"Km 1","population":873,"households":336,"areaKm2":0.734,"density":1189.3}},{"type":"Feature","geometry":{"type":"Polygon","coordinates":[[[-49.38851,-28.3911],[-49.38835,-28.39129],[-49.38742,-28.39112],[-49.38576,-28.39461],[-49.38596,-28.39571],[-49.38547,-28.39671],[-49.38528,-28.39762],[-49.37739,-28.39476],[-49.36848,-28.39156],[-49.36779,-28.39124],[-49.36207,-28.38916],[-49.36467,-28.38632],[-49.36815,-28.38225],[-49.3689,-28.38293],[-49.36918,-28.38403],[-49.3699,-28.38422],[-49.37265,-28.3858],[-49.37475,-28.38641],[-49.37581,-28.38626],[-49.37627,-28.38601],[-49.37798,-28.38547],[-49.37946,-28.38548],[-49.37995,-28.38592],[-49.38044,-28.38741],[-49.38127,-28.38786],[-49.38188,-28.38735],[-49.38254,-28.38728],[-49.38308,-28.38755],[-49.38342,-28.3884],[-49.38321,-28.38913],[-49.38375,-28.38965],[-49.38434,-28.3899],[-49.38675,-28.39038],[-49.38851,-28.3911]]]},"properties":{"codigo":"4209607001","name":"Arizona","population":1138,"households":466,"areaKm2":1.9243,"density":591.4}},{"type":"Feature","geometry":{"type":"Polygon","coordinates":[[[-49.40838,-28.40932],[-49.40813,-28.4102],[-49.40827,-28.4108],[-49.40808,-28.41136],[-49.40753,-28.41184],[-49.40733,-28.4126],[-49.40664,-28.4137],[-49.40605,-28.41489],[-49.40384,-28.4159],[-49.40218,-28.41712],[-49.40126,-28.4171],[-49.40019,-28.41726],[-49.39956,-28.41727],[-49.39912,-28.41682],[-49.39845,-28.41652],[-49.4047,-28.40931],[-49.40838,-28.40932]]]},"properties":{"codigo":"4209607014","name":"Coletora","population":389,"households":165,"areaKm2":0.4292,"density":906.3}},{"type":"Feature","geometry":{"type":"Polygon","coordinates":[[[-49.40269,-28.38928],[-49.40463,-28.38989],[-49.40514,-28.38776],[-49.40978,-28.39047],[-49.41071,-28.39006],[-49.41166,-28.39008],[-49.41199,-28.39079],[-49.41165,-28.39408],[-49.41021,-28.39415],[-49.4089,-28.39449],[-49.40712,-28.39477],[-49.40572,-28.39483],[-49.4021,-28.39533],[-49.40101,-28.39535],[-49.39864,-28.3961],[-49.39794,-28.39551],[-49.39819,-28.39484],[-49.39755,-28.39448],[-49.39802,-28.39409],[-49.39877,-28.39389],[-49.39911,-28.39377],[-49.39986,-28.39303],[-49.40182,-28.3932],[-49.40239,-28.39309],[-49.40269,-28.38928]]]},"properties":{"codigo":"4209607008","name":"Santa Bárbara","population":358,"households":140,"areaKm2":0.6369,"density":562.1}},{"type":"Feature","geometry":{"type":"Polygon","coordinates":[[[-49.39794,-28.39551],[-49.39724,-28.39618],[-49.39625,-28.39575],[-49.39526,-28.39473],[-49.3946,-28.39435],[-49.39347,-28.39408],[-49.39144,-28.39307],[-49.39008,-28.39207],[-49.39118,-28.39161],[-49.39273,-28.38918],[-49.39148,-28.38856],[-49.39336,-28.38562],[-49.39832,-28.38724],[-49.39745,-28.38901],[-49.39739,-28.38997],[-49.3968,-28.39044],[-49.396,-28.39202],[-49.39642,-28.39222],[-49.3971,-28.393],[-49.39877,-28.39389],[-49.39802,-28.39409],[-49.39755,-28.39448],[-49.39819,-28.39484],[-49.39794,-28.39551]]]},"properties":{"codigo":"4209607005","name":"Centro","population":1189,"households":595,"areaKm2":0.5125,"density":2319.9}},{"type":"Feature","geometry":{"type":"Polygon","coordinates":[[[-49.39148,-28.38856],[-49.38667,-28.38613],[-49.38567,-28.38497],[-49.38533,-28.38434],[-49.38492,-28.38292],[-49.38923,-28.3843],[-49.3897,-28.38432],[-49.39336,-28.38562],[-49.39148,-28.38856]]]},"properties":{"codigo":"4209607006","name":"Içarense","population":627,"households":255,"areaKm2":0.2335,"density":2685}},{"type":"Feature","geometry":{"type":"Polygon","coordinates":[[[-49.36815,-28.38225],[-49.37173,-28.37795],[-49.37456,-28.379],[-49.38012,-28.38123],[-49.38227,-28.38201],[-49.38342,-28.38185],[-49.38427,-28.38195],[-49.38492,-28.38292],[-49.38533,-28.38434],[-49.38567,-28.38497],[-49.38667,-28.38613],[-49.39148,-28.38856],[-49.39273,-28.38918],[-49.39118,-28.39161],[-49.39008,-28.39207],[-49.38851,-28.3911],[-49.38675,-28.39038],[-49.38434,-28.3899],[-49.38375,-28.38965],[-49.38321,-28.38913],[-49.38342,-28.3884],[-49.38308,-28.38755],[-49.38254,-28.38728],[-49.38188,-28.38735],[-49.38127,-28.38786],[-49.38044,-28.38741],[-49.37995,-28.38592],[-49.37946,-28.38548],[-49.37798,-28.38547],[-49.37627,-28.38601],[-49.37581,-28.38626],[-49.37475,-28.38641],[-49.37265,-28.3858],[-49.3699,-28.38422],[-49.36918,-28.38403],[-49.3689,-28.38293],[-49.36815,-28.38225]]]},"properties":{"codigo":"4209607009","name":"Sumaré","population":1350,"households":530,"areaKm2":1.3875,"density":973}},{"type":"Feature","geometry":{"type":"Polygon","coordinates":[[[-49.39877,-28.39389],[-49.3971,-28.393],[-49.39642,-28.39222],[-49.396,-28.39202],[-49.3968,-28.39044],[-49.39739,-28.38997],[-49.39745,-28.38901],[-49.39832,-28.38724],[-49.40019,-28.38786],[-49.39996,-28.38834],[-49.40269,-28.38928],[-49.40239,-28.39309],[-49.40182,-28.3932],[-49.39986,-28.39303],[-49.39911,-28.39377],[-49.39877,-28.39389]]]},"properties":{"codigo":"4209607003","name":"Cairú","population":803,"households":363,"areaKm2":0.3097,"density":2592.7}},{"type":"Feature","geometry":{"type":"Polygon","coordinates":[[[-49.39443,-28.40015],[-49.38528,-28.39762],[-49.38547,-28.39671],[-49.38596,-28.39571],[-49.38576,-28.39461],[-49.38742,-28.39112],[-49.38835,-28.39129],[-49.38851,-28.3911],[-49.39008,-28.39207],[-49.39144,-28.39307],[-49.39347,-28.39408],[-49.3946,-28.39435],[-49.39526,-28.39473],[-49.39625,-28.39575],[-49.39724,-28.39618],[-49.39794,-28.39551],[-49.39864,-28.3961],[-49.39789,-28.39666],[-49.39825,-28.39725],[-49.39749,-28.39747],[-49.39661,-28.39811],[-49.39595,-28.39834],[-49.39443,-28.40015]]]},"properties":{"codigo":"4209607002","name":"Bela Vista","population":292,"households":135,"areaKm2":0.7129,"density":409.6}},{"type":"Feature","geometry":{"type":"Polygon","coordinates":[[[-49.41774,-28.41264],[-49.41766,-28.41019],[-49.41995,-28.41017],[-49.42189,-28.4118],[-49.42334,-28.41176],[-49.42371,-28.41222],[-49.42352,-28.41269],[-49.42406,-28.4133],[-49.42196,-28.41676],[-49.42106,-28.41652],[-49.41985,-28.41653],[-49.41875,-28.41552],[-49.41716,-28.41465],[-49.41746,-28.41404],[-49.41715,-28.41325],[-49.41774,-28.41264]]]},"properties":{"codigo":"4209607011","name":"Rio Bonito","population":521,"households":205,"areaKm2":0.332,"density":1569.5}},{"type":"Feature","geometry":{"type":"Polygon","coordinates":[[[-49.40753,-28.41184],[-49.41774,-28.41264],[-49.41715,-28.41325],[-49.41746,-28.41404],[-49.41716,-28.41465],[-49.41875,-28.41552],[-49.41985,-28.41653],[-49.42106,-28.41652],[-49.42196,-28.41676],[-49.4231,-28.41711],[-49.42131,-28.4196],[-49.40171,-28.42004],[-49.39935,-28.41953],[-49.39884,-28.41894],[-49.39882,-28.41773],[-49.40019,-28.41726],[-49.40126,-28.4171],[-49.40218,-28.41712],[-49.40384,-28.4159],[-49.40605,-28.41489],[-49.40664,-28.4137],[-49.40733,-28.4126],[-49.40753,-28.41184]]]},"properties":{"codigo":"4209607010","name":"Centro de Barro Branco","population":658,"households":271,"areaKm2":1.3637,"density":482.5}},{"type":"Feature","geometry":{"type":"Polygon","coordinates":[[[-49.43763,-28.37893],[-49.43774,-28.37804],[-49.43747,-28.37785],[-49.43759,-28.37284],[-49.44343,-28.37291],[-49.44344,-28.37378],[-49.4491,-28.37386],[-49.44912,-28.37513],[-49.45325,-28.37522],[-49.45325,-28.37642],[-49.45621,-28.37656],[-49.45628,-28.37786],[-49.45831,-28.37787],[-49.45816,-28.38131],[-49.45585,-28.38129],[-49.45583,-28.3797],[-49.44777,-28.37962],[-49.44476,-28.38298],[-49.44417,-28.38218],[-49.44249,-28.38168],[-49.44188,-28.38098],[-49.44106,-28.37958],[-49.44049,-28.37916],[-49.43763,-28.37893]]]},"properties":{"codigo":"4209607013","name":"Barreiros","population":1002,"households":403,"areaKm2":1.2875,"density":778.3}},{"type":"Feature","geometry":{"type":"Polygon","coordinates":[[[-49.44476,-28.38298],[-49.44537,-28.38488],[-49.44528,-28.3855],[-49.4442,-28.3876],[-49.43323,-28.38798],[-49.4334,-28.3847],[-49.4346,-28.38398],[-49.43629,-28.3824],[-49.43747,-28.38116],[-49.43763,-28.37893],[-49.44049,-28.37916],[-49.44106,-28.37958],[-49.44188,-28.38098],[-49.44249,-28.38168],[-49.44417,-28.38218],[-49.44476,-28.38298]]]},"properties":{"codigo":"4209607012","name":"Centro de Guatá","population":775,"households":345,"areaKm2":0.808,"density":959.1}}]}