{"type":"FeatureCollection","features":[{"type":"Feature","geometry":{"type":"Polygon","coordinates":[[[-49.1533,-27.29009],[-49.15208,-27.29183],[-49.14959,-27.2926],[-49.1471,-27.29386],[-49.14609,-27.29398],[-49.14446,-27.29324],[-49.14312,-27.29304],[-49.1409,-27.29182],[-49.13829,-27.29193],[-49.13606,-27.29104],[-49.13413,-27.29186],[-49.13291,-27.29084],[-49.13145,-27.29105],[-49.13075,-27.29077],[-49.12817,-27.29147],[-49.12585,-27.29337],[-49.1257,-27.29445],[-49.12464,-27.29529],[-49.12314,-27.29502],[-49.1225,-27.29586],[-49.12116,-27.29586],[-49.119,-27.29664],[-49.11804,-27.29754],[-49.11609,-27.29837],[-49.11553,-27.29789],[-49.11468,-27.29896],[-49.11352,-27.29946],[-49.11276,-27.29918],[-49.10956,-27.29943],[-49.10779,-27.29869],[-49.10557,-27.3004],[-49.10582,-27.30162],[-49.10464,-27.30142],[-49.10288,-27.30249],[-49.10087,-27.30287],[-49.10186,-27.30406],[-49.10018,-27.30591],[-49.10318,-27.30905],[-49.10202,-27.30916],[-49.10246,-27.31018],[-49.10137,-27.31163],[-49.09961,-27.31215],[-49.09853,-27.31318],[-49.09882,-27.31374],[-49.09891,-27.31648],[-49.09999,-27.31769],[-49.10114,-27.31962],[-49.09526,-27.31958],[-49.09309,-27.32083],[-49.09217,-27.32112],[-49.09035,-27.32099],[-49.08922,-27.32017],[-49.08842,-27.31872],[-49.08647,-27.3174],[-49.0855,-27.31703],[-49.08354,-27.31729],[-49.08214,-27.31538],[-49.08003,-27.31615],[-49.07819,-27.3162],[-49.07706,-27.31573],[-49.07618,-27.31483],[-49.07434,-27.31469],[-49.07355,-27.31655],[-49.07232,-27.31801],[-49.06971,-27.31642],[-49.06804,-27.31688],[-49.06591,-27.31642],[-49.06414,-27.3166],[-49.06088,-27.31576],[-49.05925,-27.31648],[-49.05977,-27.31802],[-49.05786,-27.31938],[-49.05684,-27.31964],[-49.05531,-27.31913],[-49.05413,-27.3193],[-49.05289,-27.32098],[-49.05269,-27.32176],[-49.05319,-27.3232],[-49.05413,-27.32383],[-49.05407,-27.32569],[-49.05327,-27.3266],[-49.05382,-27.32868],[-49.05473,-27.32971],[-49.05575,-27.33029],[-49.06083,-27.33126],[-49.06125,-27.33071],[-49.06335,-27.33012],[-49.06559,-27.33064],[-49.0681,-27.33088],[-49.06848,-27.33132],[-49.06832,-27.33302],[-49.06869,-27.33411],[-49.06861,-27.33573],[-49.07159,-27.33838],[-49.0743,-27.34041],[-49.0747,-27.34131],[-49.07812,-27.34156],[-49.07947,-27.34051],[-49.08087,-27.33993],[-49.08212,-27.3403],[-49.08379,-27.34248],[-49.08561,-27.34424],[-49.08527,-27.34639],[-49.08576,-27.34689],[-49.08553,-27.34914],[-49.08717,-27.34913],[-49.08798,-27.3502],[-49.08803,-27.35153],[-49.08889,-27.35249],[-49.08883,-27.35333],[-49.09066,-27.35528],[-49.09134,-27.35505],[-49.09303,-27.35528],[-49.09495,-27.35503],[-49.09695,-27.35573],[-49.09842,-27.35553],[-49.09913,-27.35581],[-49.10257,-27.35457],[-49.10604,-27.35439],[-49.10654,-27.35262],[-49.10696,-27.35232],[-49.1095,-27.35596],[-49.11353,-27.35665],[-49.11459,-27.35964],[-49.11436,-27.36131],[-49.11513,-27.36376],[-49.11409,-27.36533],[-49.11356,-27.36681],[-49.11511,-27.3709],[-49.11537,-27.3733],[-49.11433,-27.37486],[-49.11299,-27.37624],[-49.11236,-27.37773],[-49.10971,-27.37936],[-49.10645,-27.3809],[-49.1038,-27.38172],[-49.10001,-27.38492],[-49.09767,-27.38575],[-49.09592,-27.38739],[-49.09466,-27.38991],[-49.09504,-27.3914],[-49.09755,-27.3963],[-49.09654,-27.39638],[-49.0941,-27.39787],[-49.09317,-27.39866],[-49.09082,-27.39831],[-49.08857,-27.39876],[-49.08705,-27.39999],[-49.08661,-27.40144],[-49.08538,-27.40288],[-49.08272,-27.40356],[-49.08147,-27.40358],[-49.08071,-27.40123],[-49.07817,-27.40019],[-49.07388,-27.39964],[-49.07158,-27.39785],[-49.06909,-27.39728],[-49.06702,-27.39626],[-49.06537,-27.39759],[-49.06309,-27.39808],[-49.06085,-27.39537],[-49.05888,-27.39427],[-49.05729,-27.39308],[-49.05725,-27.39005],[-49.05681,-27.38937],[-49.0569,-27.38818],[-49.05621,-27.38699],[-49.05505,-27.38613],[-49.05338,-27.38596],[-49.05256,-27.38621],[-49.05079,-27.38574],[-49.04947,-27.38569],[-49.04856,-27.38426],[-49.04656,-27.3836],[-49.04368,-27.38392],[-49.04244,-27.38261],[-49.0423,-27.38159],[-49.04078,-27.37715],[-49.03992,-27.37619],[-49.03773,-27.37511],[-49.03485,-27.37455],[-49.03408,-27.37414],[-49.0313,-27.37333],[-49.02894,-27.37206],[-49.02731,-27.37161],[-49.02644,-27.37176],[-49.02548,-27.37102],[-49.02176,-27.3707],[-49.01998,-27.37115],[-49.01705,-27.3706],[-49.0143,-27.37047],[-49.01344,-27.37075],[-49.0112,-27.37056],[-49.01038,-27.37171],[-49.00936,-27.37241],[-49.00953,-27.37371],[-49.0102,-27.37567],[-49.00749,-27.37578],[-49.0069,-27.37467],[-49.00533,-27.37338],[-49.0037,-27.37063],[-49.00353,-27.36923],[-49.00271,-27.36787],[-49.00192,-27.3672],[-49.00088,-27.36551],[-49.00026,-27.36402],[-48.99882,-27.36241],[-48.99862,-27.36171],[-48.99436,-27.36107],[-48.99196,-27.36013],[-48.99125,-27.35946],[-48.98884,-27.35841],[-48.98704,-27.35821],[-48.98595,-27.357],[-48.98455,-27.35739],[-48.9834,-27.35728],[-48.98343,-27.35644],[-48.98277,-27.35577],[-48.98074,-27.35454],[-48.98038,-27.35347],[-48.98085,-27.35202],[-48.97805,-27.35116],[-48.97643,-27.35143],[-48.97554,-27.35029],[-48.97423,-27.34933],[-48.97361,-27.34832],[-48.97207,-27.34737],[-48.97075,-27.34519],[-48.97147,-27.34164],[-48.97054,-27.34087],[-48.97015,-27.33961],[-48.96913,-27.33818],[-48.96691,-27.3388],[-48.96446,-27.33836],[-48.96308,-27.33871],[-48.96002,-27.33795],[-48.95949,-27.33764],[-48.95799,-27.33821],[-48.95337,-27.33761],[-48.95211,-27.33806],[-48.94997,-27.33823],[-48.94868,-27.33757],[-48.94556,-27.33863],[-48.94505,-27.33825],[-48.94241,-27.33856],[-48.94175,-27.33698],[-48.93983,-27.33482],[-48.93865,-27.33283],[-48.93846,-27.33172],[-48.93789,-27.33117],[-48.93786,-27.32977],[-48.93716,-27.32906],[-48.93374,-27.32902],[-48.93211,-27.32837],[-48.93021,-27.32889],[-48.92858,-27.32816],[-48.92686,-27.3279],[-48.92514,-27.3294],[-48.9228,-27.32992],[-48.92061,-27.32876],[-48.91956,-27.32754],[-48.91903,-27.32596],[-48.91701,-27.32511],[-48.91773,-27.32378],[-48.9173,-27.32215],[-48.9142,-27.32143],[-48.91146,-27.31999],[-48.91023,-27.31911],[-48.91037,-27.31737],[-48.90878,-27.31692],[-48.9076,-27.31525],[-48.90602,-27.31491],[-48.90492,-27.31402],[-48.9034,-27.31354],[-48.90231,-27.31222],[-48.90085,-27.30893],[-48.89943,-27.30752],[-48.89907,-27.30606],[-48.89737,-27.30571],[-48.89616,-27.30746],[-48.89484,-27.3077],[-48.89397,-27.30741],[-48.89228,-27.30773],[-48.89063,-27.30632],[-48.88829,-27.30512],[-48.88479,-27.30594],[-48.88364,-27.30656],[-48.8824,-27.30596],[-48.88328,-27.30191],[-48.88312,-27.30004],[-48.88363,-27.29908],[-48.88355,-27.29708],[-48.88206,-27.29241],[-48.8838,-27.29033],[-48.89754,-27.24981],[-48.90125,-27.25019],[-48.90377,-27.24968],[-48.90811,-27.24643],[-48.9099,-27.24541],[-48.9125,-27.24447],[-48.91487,-27.24317],[-48.91913,-27.23984],[-48.92099,-27.23975],[-48.92332,-27.24048],[-48.92589,-27.24091],[-48.92874,-27.24005],[-48.93111,-27.23803],[-48.93212,-27.23591],[-48.93176,-27.23392],[-48.93058,-27.23191],[-48.93095,-27.22936],[-48.93076,-27.22657],[-48.93065,-27.21545],[-48.93278,-27.21324],[-48.9341,-27.2125],[-48.93592,-27.21349],[-48.93715,-27.21371],[-48.93797,-27.2147],[-48.93959,-27.21429],[-48.9423,-27.21554],[-48.94295,-27.21661],[-48.94437,-27.2175],[-48.94518,-27.21844],[-48.94636,-27.21884],[-48.94746,-27.21875],[-48.95125,-27.221],[-48.95449,-27.22117],[-48.95583,-27.2237],[-48.95693,-27.22433],[-48.95838,-27.22425],[-48.9606,-27.22554],[-48.96116,-27.22629],[-48.96133,-27.22874],[-48.96163,-27.22947],[-48.96281,-27.22941],[-48.96388,-27.23101],[-48.96408,-27.23198],[-48.96525,-27.23202],[-48.96684,-27.23309],[-48.96764,-27.23298],[-48.96879,-27.23351],[-48.96954,-27.23531],[-48.96903,-27.2374],[-48.97147,-27.23813],[-48.97304,-27.2404],[-48.97399,-27.24066],[-48.97533,-27.24039],[-48.97779,-27.24226],[-48.97872,-27.24365],[-48.98044,-27.24402],[-48.98122,-27.24497],[-48.98449,-27.24524],[-48.98673,-27.24695],[-48.98776,-27.24722],[-48.98982,-27.24857],[-48.99203,-27.24818],[-48.9948,-27.24693],[-48.99679,-27.24689],[-48.9976,-27.24834],[-48.99907,-27.24957],[-49.00053,-27.24932],[-49.00131,-27.25022],[-49.00255,-27.2502],[-49.0063,-27.24963],[-49.0076,-27.24881],[-49.00935,-27.24894],[-49.01083,-27.24998],[-49.01215,-27.25178],[-49.01355,-27.25307],[-49.01454,-27.25354],[-49.01503,-27.25458],[-49.01719,-27.25564],[-49.0193,-27.25598],[-49.02203,-27.25735],[-49.02405,-27.25921],[-49.02539,-27.2601],[-49.02611,-27.26107],[-49.02635,-27.2629],[-49.02764,-27.26366],[-49.02891,-27.26619],[-49.03036,-27.26733],[-49.03115,-27.26708],[-49.03262,-27.26792],[-49.03757,-27.27187],[-49.03882,-27.27116],[-49.04122,-27.27166],[-49.04434,-27.27091],[-49.04507,-27.2704],[-49.04819,-27.26993],[-49.04905,-27.26941],[-49.0498,-27.26969],[-49.05087,-27.27165],[-49.05137,-27.27203],[-49.05301,-27.27201],[-49.05425,-27.27297],[-49.05644,-27.2735],[-49.0574,-27.27328],[-49.05971,-27.27427],[-49.06348,-27.27529],[-49.06555,-27.27505],[-49.06628,-27.27565],[-49.06787,-27.2792],[-49.07124,-27.27986],[-49.07386,-27.27805],[-49.07365,-27.27689],[-49.07409,-27.27558],[-49.07292,-27.2746],[-49.07394,-27.27174],[-49.07525,-27.27089],[-49.07657,-27.27233],[-49.08012,-27.27416],[-49.08279,-27.27574],[-49.08507,-27.27522],[-49.08617,-27.27627],[-49.08818,-27.27707],[-49.08902,-27.27675],[-49.0901,-27.27706],[-49.09267,-27.27681],[-49.09376,-27.27609],[-49.09589,-27.27665],[-49.09709,-27.27748],[-49.09988,-27.27707],[-49.10127,-27.27587],[-49.10266,-27.27573],[-49.10459,-27.27642],[-49.10695,-27.27591],[-49.10786,-27.27674],[-49.10858,-27.27814],[-49.10862,-27.27919],[-49.1095,-27.28014],[-49.11064,-27.28039],[-49.11176,-27.27975],[-49.11373,-27.27958],[-49.11458,-27.27888],[-49.11655,-27.2782],[-49.11862,-27.27871],[-49.11969,-27.27733],[-49.12218,-27.2756],[-49.12309,-27.27617],[-49.12537,-27.27862],[-49.12627,-27.28061],[-49.12663,-27.28219],[-49.1276,-27.2826],[-49.12954,-27.28198],[-49.13077,-27.28248],[-49.13149,-27.28198],[-49.13141,-27.28067],[-49.13235,-27.27977],[-49.1345,-27.28011],[-49.13571,-27.28119],[-49.13769,-27.28185],[-49.13875,-27.28351],[-49.14079,-27.28425],[-49.14272,-27.28328],[-49.14387,-27.28414],[-49.14549,-27.28352],[-49.14653,-27.28373],[-49.14714,-27.28566],[-49.14806,-27.28639],[-49.14876,-27.2862],[-49.14972,-27.28744],[-49.15097,-27.28798],[-49.15173,-27.289],[-49.1519,-27.28991],[-49.1533,-27.29009]]]},"properties":{"codigo":"421150405","name":"Nova Trento","population":11504,"households":5227,"areaKm2":247.9863,"density":46.4}},{"type":"Feature","geometry":{"type":"Polygon","coordinates":[[[-49.22162,-27.30878],[-49.22424,-27.31299],[-49.22514,-27.31365],[-49.22619,-27.31513],[-49.22632,-27.3165],[-49.22581,-27.31764],[-49.2257,-27.31922],[-49.22408,-27.32123],[-49.22321,-27.32226],[-49.22198,-27.32273],[-49.21951,-27.3231],[-49.21831,-27.32373],[-49.21463,-27.32494],[-49.21348,-27.32778],[-49.21186,-27.33004],[-49.21072,-27.33049],[-49.20901,-27.32986],[-49.20782,-27.33002],[-49.2057,-27.32987],[-49.20401,-27.32866],[-49.202,-27.32831],[-49.19986,-27.33121],[-49.19879,-27.33198],[-49.19621,-27.32991],[-49.19434,-27.33013],[-49.19384,-27.33057],[-49.19412,-27.33221],[-49.19348,-27.33435],[-49.19078,-27.33524],[-49.19012,-27.33612],[-49.18856,-27.34145],[-49.18794,-27.34261],[-49.18835,-27.34325],[-49.18557,-27.34545],[-49.18476,-27.34525],[-49.18335,-27.34587],[-49.18272,-27.34705],[-49.18271,-27.34825],[-49.18395,-27.35072],[-49.18243,-27.35066],[-49.1813,-27.351],[-49.17923,-27.35279],[-49.17788,-27.35436],[-49.1771,-27.35572],[-49.17492,-27.35612],[-49.17279,-27.35776],[-49.17171,-27.36001],[-49.17049,-27.36054],[-49.16949,-27.36199],[-49.16879,-27.36389],[-49.16778,-27.36476],[-49.16563,-27.36532],[-49.16545,-27.36649],[-49.16358,-27.36824],[-49.16271,-27.37003],[-49.16145,-27.3711],[-49.16258,-27.373],[-49.16445,-27.37441],[-49.16439,-27.37538],[-49.16336,-27.37608],[-49.16393,-27.3768],[-49.16722,-27.37784],[-49.16842,-27.37748],[-49.16893,-27.37792],[-49.16836,-27.37965],[-49.16878,-27.38022],[-49.1707,-27.38162],[-49.1713,-27.3825],[-49.17251,-27.38292],[-49.17281,-27.38356],[-49.17414,-27.38396],[-49.17526,-27.38381],[-49.17691,-27.38411],[-49.17998,-27.38406],[-49.18112,-27.38495],[-49.18125,-27.38678],[-49.18025,-27.38838],[-49.18099,-27.38873],[-49.18123,-27.39029],[-49.18086,-27.39145],[-49.18189,-27.39284],[-49.18328,-27.39258],[-49.18444,-27.39343],[-49.18416,-27.3955],[-49.18512,-27.39674],[-49.18646,-27.3972],[-49.18683,-27.39943],[-49.18798,-27.40046],[-49.18775,-27.40145],[-49.18786,-27.40418],[-49.18824,-27.40568],[-49.18906,-27.40656],[-49.18807,-27.40758],[-49.18638,-27.40778],[-49.18437,-27.40883],[-49.18301,-27.40988],[-49.1829,-27.41079],[-49.18126,-27.41332],[-49.17993,-27.41427],[-49.17742,-27.41471],[-49.17573,-27.41526],[-49.17339,-27.41533],[-49.17232,-27.41497],[-49.17044,-27.41587],[-49.16941,-27.41757],[-49.16821,-27.41791],[-49.16671,-27.41762],[-49.16684,-27.41878],[-49.16482,-27.41944],[-49.16402,-27.4201],[-49.1614,-27.42079],[-49.15884,-27.41955],[-49.15505,-27.41936],[-49.15287,-27.4199],[-49.15111,-27.42103],[-49.14966,-27.42098],[-49.14855,-27.42152],[-49.147,-27.42144],[-49.14633,-27.42237],[-49.14416,-27.4234],[-49.1424,-27.42574],[-49.1412,-27.42604],[-49.13905,-27.42517],[-49.13811,-27.42395],[-49.13696,-27.42422],[-49.13529,-27.42398],[-49.13385,-27.42231],[-49.13064,-27.42162],[-49.13036,-27.42079],[-49.12886,-27.42064],[-49.12859,-27.41993],[-49.12731,-27.41928],[-49.12749,-27.41798],[-49.12642,-27.41739],[-49.12623,-27.41652],[-49.12373,-27.41435],[-49.12348,-27.4123],[-49.12443,-27.41161],[-49.1247,-27.40969],[-49.12409,-27.40903],[-49.12412,-27.40739],[-49.12354,-27.4069],[-49.12185,-27.40705],[-49.12076,-27.40609],[-49.12141,-27.40474],[-49.12154,-27.40354],[-49.12206,-27.40311],[-49.12275,-27.40139],[-49.12183,-27.40048],[-49.12006,-27.40022],[-49.11843,-27.3979],[-49.1169,-27.39653],[-49.11545,-27.39653],[-49.1146,-27.39599],[-49.11382,-27.3967],[-49.11212,-27.39646],[-49.11132,-27.39596],[-49.10992,-27.39601],[-49.10918,-27.39685],[-49.10855,-27.3957],[-49.10726,-27.39527],[-49.10584,-27.39569],[-49.10373,-27.39502],[-49.10201,-27.39539],[-49.09958,-27.3973],[-49.09755,-27.3963],[-49.09504,-27.3914],[-49.09466,-27.38991],[-49.09592,-27.38739],[-49.09767,-27.38575],[-49.10001,-27.38492],[-49.1038,-27.38172],[-49.10645,-27.3809],[-49.10971,-27.37936],[-49.11236,-27.37773],[-49.11299,-27.37624],[-49.11433,-27.37486],[-49.11537,-27.3733],[-49.11511,-27.3709],[-49.11356,-27.36681],[-49.11409,-27.36533],[-49.11513,-27.36376],[-49.11436,-27.36131],[-49.11459,-27.35964],[-49.11353,-27.35665],[-49.1095,-27.35596],[-49.10696,-27.35232],[-49.10654,-27.35262],[-49.10604,-27.35439],[-49.10257,-27.35457],[-49.09913,-27.35581],[-49.09842,-27.35553],[-49.09695,-27.35573],[-49.09495,-27.35503],[-49.09303,-27.35528],[-49.09134,-27.35505],[-49.09066,-27.35528],[-49.08883,-27.35333],[-49.08889,-27.35249],[-49.08803,-27.35153],[-49.08798,-27.3502],[-49.08717,-27.34913],[-49.08553,-27.34914],[-49.08576,-27.34689],[-49.08527,-27.34639],[-49.08561,-27.34424],[-49.08379,-27.34248],[-49.08212,-27.3403],[-49.08087,-27.33993],[-49.07947,-27.34051],[-49.07812,-27.34156],[-49.0747,-27.34131],[-49.0743,-27.34041],[-49.07159,-27.33838],[-49.06861,-27.33573],[-49.06869,-27.33411],[-49.06832,-27.33302],[-49.06848,-27.33132],[-49.0681,-27.33088],[-49.06559,-27.33064],[-49.06335,-27.33012],[-49.06125,-27.33071],[-49.06083,-27.33126],[-49.05575,-27.33029],[-49.05473,-27.32971],[-49.05382,-27.32868],[-49.05327,-27.3266],[-49.05407,-27.32569],[-49.05413,-27.32383],[-49.05319,-27.3232],[-49.05269,-27.32176],[-49.05289,-27.32098],[-49.05413,-27.3193],[-49.05531,-27.31913],[-49.05684,-27.31964],[-49.05786,-27.31938],[-49.05977,-27.31802],[-49.05925,-27.31648],[-49.06088,-27.31576],[-49.06414,-27.3166],[-49.06591,-27.31642],[-49.06804,-27.31688],[-49.06971,-27.31642],[-49.07232,-27.31801],[-49.07355,-27.31655],[-49.07434,-27.31469],[-49.07618,-27.31483],[-49.07706,-27.31573],[-49.07819,-27.3162],[-49.08003,-27.31615],[-49.08214,-27.31538],[-49.08354,-27.31729],[-49.0855,-27.31703],[-49.08647,-27.3174],[-49.08842,-27.31872],[-49.08922,-27.32017],[-49.09035,-27.32099],[-49.09217,-27.32112],[-49.09309,-27.32083],[-49.09526,-27.31958],[-49.10114,-27.31962],[-49.09999,-27.31769],[-49.09891,-27.31648],[-49.09882,-27.31374],[-49.09853,-27.31318],[-49.09961,-27.31215],[-49.10137,-27.31163],[-49.10246,-27.31018],[-49.10202,-27.30916],[-49.10318,-27.30905],[-49.10018,-27.30591],[-49.10186,-27.30406],[-49.10087,-27.30287],[-49.10288,-27.30249],[-49.10464,-27.30142],[-49.10582,-27.30162],[-49.10557,-27.3004],[-49.10779,-27.29869],[-49.10956,-27.29943],[-49.11276,-27.29918],[-49.11352,-27.29946],[-49.11468,-27.29896],[-49.11553,-27.29789],[-49.11609,-27.29837],[-49.11804,-27.29754],[-49.119,-27.29664],[-49.12116,-27.29586],[-49.1225,-27.29586],[-49.12314,-27.29502],[-49.12464,-27.29529],[-49.1257,-27.29445],[-49.12585,-27.29337],[-49.12817,-27.29147],[-49.13075,-27.29077],[-49.13145,-27.29105],[-49.13291,-27.29084],[-49.13413,-27.29186],[-49.13606,-27.29104],[-49.13829,-27.29193],[-49.1409,-27.29182],[-49.14312,-27.29304],[-49.14446,-27.29324],[-49.14609,-27.29398],[-49.1471,-27.29386],[-49.14959,-27.2926],[-49.15208,-27.29183],[-49.1533,-27.29009],[-49.15627,-27.29182],[-49.15827,-27.29053],[-49.15966,-27.29103],[-49.16002,-27.29166],[-49.16192,-27.29288],[-49.16257,-27.29263],[-49.16446,-27.29305],[-49.16597,-27.29213],[-49.16812,-27.29249],[-49.17111,-27.29369],[-49.17211,-27.29471],[-49.17322,-27.29531],[-49.17411,-27.29401],[-49.17543,-27.29414],[-49.17592,-27.29265],[-49.17729,-27.2916],[-49.1783,-27.29157],[-49.17958,-27.29228],[-49.18065,-27.29189],[-49.18302,-27.29164],[-49.18414,-27.29314],[-49.18623,-27.29352],[-49.1893,-27.29448],[-49.19023,-27.29377],[-49.19149,-27.29435],[-49.19352,-27.29345],[-49.19494,-27.29396],[-49.19785,-27.29297],[-49.20066,-27.2932],[-49.20196,-27.29397],[-49.20483,-27.29483],[-49.20539,-27.29549],[-49.20586,-27.29698],[-49.20692,-27.29743],[-49.20792,-27.2986],[-49.20817,-27.29999],[-49.20882,-27.30099],[-49.2138,-27.30262],[-49.21489,-27.30279],[-49.2153,-27.30377],[-49.21749,-27.30352],[-49.21924,-27.30468],[-49.22162,-27.30878]]]},"properties":{"codigo":"421150410","name":"Aguti","population":602,"households":390,"areaKm2":127.1479,"density":4.7}},{"type":"Feature","geometry":{"type":"Polygon","coordinates":[[[-48.9341,-27.2125],[-48.93278,-27.21324],[-48.93065,-27.21545],[-48.93076,-27.22657],[-48.93095,-27.22936],[-48.93058,-27.23191],[-48.93176,-27.23392],[-48.93212,-27.23591],[-48.93111,-27.23803],[-48.92874,-27.24005],[-48.92589,-27.24091],[-48.92332,-27.24048],[-48.92099,-27.23975],[-48.91913,-27.23984],[-48.91487,-27.24317],[-48.9125,-27.24447],[-48.9099,-27.24541],[-48.90811,-27.24643],[-48.90377,-27.24968],[-48.90125,-27.25019],[-48.89754,-27.24981],[-48.89588,-27.2489],[-48.89173,-27.24838],[-48.88692,-27.24544],[-48.88665,-27.24484],[-48.88398,-27.24327],[-48.88394,-27.24189],[-48.88283,-27.24014],[-48.88318,-27.2385],[-48.88142,-27.23659],[-48.88053,-27.23449],[-48.87964,-27.23515],[-48.87835,-27.23552],[-48.87756,-27.23619],[-48.87585,-27.23569],[-48.87478,-27.23582],[-48.87497,-27.23419],[-48.87573,-27.23144],[-48.8753,-27.23088],[-48.87552,-27.22978],[-48.8771,-27.22987],[-48.87611,-27.22606],[-48.87504,-27.22412],[-48.87366,-27.22301],[-48.87197,-27.22213],[-48.87183,-27.22144],[-48.86912,-27.21861],[-48.86687,-27.21973],[-48.86541,-27.21969],[-48.86735,-27.2188],[-48.86793,-27.21793],[-48.86961,-27.2171],[-48.87085,-27.21684],[-48.87209,-27.2179],[-48.87491,-27.21884],[-48.87624,-27.21872],[-48.8775,-27.21719],[-48.87782,-27.21613],[-48.87907,-27.21458],[-48.88092,-27.21403],[-48.88397,-27.21501],[-48.88538,-27.21482],[-48.88698,-27.21409],[-48.88867,-27.21395],[-48.88955,-27.21454],[-48.89242,-27.2155],[-48.89333,-27.2167],[-48.89395,-27.21692],[-48.89675,-27.21527],[-48.89719,-27.21383],[-48.89519,-27.21201],[-48.89438,-27.20998],[-48.89295,-27.20855],[-48.89258,-27.20763],[-48.89317,-27.20545],[-48.89264,-27.20358],[-48.89129,-27.20228],[-48.89024,-27.20224],[-48.88845,-27.20076],[-48.88832,-27.1999],[-48.88737,-27.1986],[-48.88776,-27.19559],[-48.88704,-27.192],[-48.88458,-27.19068],[-48.88333,-27.18947],[-48.88321,-27.18807],[-48.88184,-27.18478],[-48.88191,-27.18449],[-48.88385,-27.18315],[-48.8861,-27.18334],[-48.88731,-27.18279],[-48.89096,-27.18348],[-48.8923,-27.18332],[-48.89454,-27.18407],[-48.89552,-27.18512],[-48.89684,-27.18885],[-48.89815,-27.19058],[-48.89963,-27.19103],[-48.90236,-27.18996],[-48.90397,-27.18907],[-48.906,-27.18934],[-48.90753,-27.19076],[-48.90891,-27.19125],[-48.9098,-27.19193],[-48.9113,-27.19398],[-48.91196,-27.19702],[-48.91353,-27.19738],[-48.91567,-27.197],[-48.91799,-27.19752],[-48.91856,-27.19993],[-48.9202,-27.20024],[-48.92113,-27.2],[-48.92221,-27.20069],[-48.92353,-27.20027],[-48.92511,-27.20116],[-48.92592,-27.20204],[-48.93053,-27.20158],[-48.93205,-27.20349],[-48.93144,-27.20541],[-48.93199,-27.20609],[-48.93287,-27.20918],[-48.9334,-27.21031],[-48.93333,-27.21201],[-48.9341,-27.2125]]]},"properties":{"codigo":"421150415","name":"Claraíba","population":1621,"households":708,"areaKm2":27.7182,"density":58.5}}]}