{"type":"FeatureCollection","features":[{"type":"Feature","geometry":{"type":"Polygon","coordinates":[[[-48.65029,-27.62428],[-48.65028,-27.62821],[-48.65457,-27.62803],[-48.65602,-27.62953],[-48.65657,-27.62908],[-48.6551,-27.62761],[-48.65563,-27.6272],[-48.65579,-27.62676],[-48.66128,-27.63232],[-48.65893,-27.63432],[-48.65693,-27.63235],[-48.658,-27.63147],[-48.65702,-27.63051],[-48.65475,-27.6323],[-48.6583,-27.63488],[-48.65561,-27.63709],[-48.65472,-27.63814],[-48.65401,-27.6396],[-48.65361,-27.64105],[-48.65273,-27.64198],[-48.65192,-27.64202],[-48.6501,-27.63992],[-48.64798,-27.63839],[-48.64678,-27.63767],[-48.64479,-27.63678],[-48.64415,-27.63663],[-48.64303,-27.63742],[-48.64242,-27.63751],[-48.64124,-27.63717],[-48.64078,-27.63681],[-48.64013,-27.63677],[-48.64029,-27.63631],[-48.64238,-27.63434],[-48.64258,-27.63381],[-48.64241,-27.63321],[-48.64236,-27.63265],[-48.64265,-27.63157],[-48.64326,-27.62882],[-48.64356,-27.62823],[-48.64427,-27.62747],[-48.64634,-27.62595],[-48.65029,-27.62428]]]},"properties":{"codigo":"4211900001","name":"Ponte do Imaruim","population":12832,"households":5671,"areaKm2":1.9783,"density":6486.5}},{"type":"Feature","geometry":{"type":"Polygon","coordinates":[[[-48.59181,-27.84892],[-48.5898,-27.84826],[-48.5883,-27.84789],[-48.58708,-27.84774],[-48.58477,-27.84769],[-48.58402,-27.84779],[-48.58202,-27.84826],[-48.58055,-27.84889],[-48.58039,-27.84958],[-48.58047,-27.8509],[-48.5808,-27.853],[-48.57969,-27.85308],[-48.57821,-27.85159],[-48.57783,-27.85098],[-48.57761,-27.85003],[-48.57693,-27.84906],[-48.57701,-27.84808],[-48.57661,-27.84742],[-48.57665,-27.8456],[-48.57622,-27.84545],[-48.57622,-27.84441],[-48.57691,-27.84371],[-48.57746,-27.84382],[-48.57888,-27.84502],[-48.57991,-27.84553],[-48.58126,-27.84558],[-48.5818,-27.84622],[-48.58233,-27.8464],[-48.58327,-27.8462],[-48.58478,-27.84514],[-48.58587,-27.84388],[-48.58626,-27.84316],[-48.5902,-27.84268],[-48.59144,-27.84247],[-48.59448,-27.84224],[-48.59485,-27.84343],[-48.59549,-27.84439],[-48.59826,-27.84539],[-48.59981,-27.84617],[-48.59794,-27.84801],[-48.59733,-27.84876],[-48.59608,-27.84989],[-48.59555,-27.85071],[-48.59431,-27.85019],[-48.59315,-27.84949],[-48.59181,-27.84892]]]},"properties":{"codigo":"4211900002","name":"Ponta do Papagaio","population":403,"households":954,"areaKm2":1.2154,"density":331.6}}]}