{"type":"FeatureCollection","features":[{"type":"Feature","geometry":{"type":"Polygon","coordinates":[[[-52.97243,-26.86408],[-52.97605,-26.86258],[-52.97712,-26.86199],[-52.97809,-26.86122],[-52.97891,-26.86019],[-52.97955,-26.85881],[-52.98017,-26.85574],[-52.98027,-26.85392],[-52.98015,-26.85262],[-52.98864,-26.85258],[-52.98864,-26.85511],[-52.98873,-26.8599],[-52.98878,-26.86546],[-52.98877,-26.8691],[-52.98566,-26.86907],[-52.98446,-26.86764],[-52.98555,-26.86596],[-52.98366,-26.86324],[-52.98313,-26.86303],[-52.98062,-26.86476],[-52.97711,-26.86587],[-52.97412,-26.86706],[-52.97377,-26.86664],[-52.97243,-26.86408]]]},"properties":{"codigo":"4212908007","name":"Nova Divinéia","population":2590,"households":986,"areaKm2":1.6127,"density":1606}},{"type":"Feature","geometry":{"type":"Polygon","coordinates":[[[-52.98027,-26.85392],[-52.98003,-26.85388],[-52.97862,-26.85464],[-52.97753,-26.85486],[-52.97608,-26.85423],[-52.97445,-26.85383],[-52.97367,-26.85353],[-52.97206,-26.85334],[-52.97124,-26.85274],[-52.97044,-26.85275],[-52.97025,-26.85242],[-52.97062,-26.83945],[-52.97113,-26.83959],[-52.97165,-26.8394],[-52.9717,-26.83878],[-52.97251,-26.83793],[-52.97334,-26.8368],[-52.97385,-26.83645],[-52.97191,-26.83506],[-52.97135,-26.83563],[-52.97014,-26.83479],[-52.97058,-26.83434],[-52.97057,-26.83388],[-52.96949,-26.83317],[-52.9736,-26.82876],[-52.97769,-26.83154],[-52.97947,-26.83265],[-52.98028,-26.83266],[-52.98098,-26.83216],[-52.9826,-26.8304],[-52.98174,-26.82838],[-52.98102,-26.82811],[-52.98265,-26.82152],[-52.98338,-26.8189],[-52.99059,-26.81862],[-52.99719,-26.81712],[-52.99801,-26.81808],[-52.9992,-26.81899],[-52.9987,-26.82058],[-52.99872,-26.82115],[-52.9992,-26.82263],[-52.99903,-26.82328],[-52.99927,-26.82413],[-53.00076,-26.82504],[-53.00341,-26.82622],[-53.00337,-26.8265],[-53.00153,-26.8271],[-52.99869,-26.82834],[-52.99736,-26.82911],[-52.99359,-26.83282],[-52.99261,-26.83197],[-52.98792,-26.83621],[-52.98715,-26.83706],[-52.98562,-26.83812],[-52.98459,-26.83897],[-52.98365,-26.8402],[-52.98187,-26.84403],[-52.98084,-26.84626],[-52.98036,-26.84775],[-52.98008,-26.8504],[-52.98015,-26.85262],[-52.98027,-26.85392]]]},"properties":{"codigo":"4212908009","name":"Bela Vista","population":2845,"households":1005,"areaKm2":5.7746,"density":492.7}},{"type":"Feature","geometry":{"type":"Polygon","coordinates":[[[-52.98717,-26.84368],[-52.98714,-26.83774],[-52.98731,-26.83709],[-52.98783,-26.83693],[-52.98997,-26.8358],[-52.99157,-26.83469],[-52.99359,-26.83282],[-52.99449,-26.8336],[-52.99758,-26.83645],[-52.99858,-26.83718],[-52.99778,-26.83831],[-52.99725,-26.8383],[-52.99512,-26.83912],[-52.99485,-26.83935],[-52.9944,-26.84057],[-52.99314,-26.84308],[-52.99225,-26.84369],[-52.99171,-26.84432],[-52.98994,-26.84432],[-52.98993,-26.84364],[-52.98857,-26.84367],[-52.98717,-26.84368]]]},"properties":{"codigo":"4212908002","name":"Efacip","population":1064,"households":439,"areaKm2":0.8187,"density":1299.7}},{"type":"Feature","geometry":{"type":"Polygon","coordinates":[[[-52.98015,-26.85262],[-52.98008,-26.8504],[-52.98036,-26.84775],[-52.98084,-26.84626],[-52.98242,-26.84631],[-52.98575,-26.84628],[-52.98572,-26.84369],[-52.98717,-26.84368],[-52.98857,-26.84367],[-52.98862,-26.85005],[-52.98999,-26.85004],[-52.99003,-26.85258],[-52.98864,-26.85258],[-52.98015,-26.85262]]]},"properties":{"codigo":"4212908001","name":"Centro","population":2938,"households":1235,"areaKm2":0.7025,"density":4182.1}},{"type":"Feature","geometry":{"type":"Polygon","coordinates":[[[-52.97243,-26.86408],[-52.96682,-26.86641],[-52.96582,-26.86698],[-52.96764,-26.87045],[-52.96193,-26.86762],[-52.96209,-26.86632],[-52.96243,-26.8649],[-52.96326,-26.86042],[-52.96449,-26.86052],[-52.96696,-26.86055],[-52.96753,-26.86072],[-52.96768,-26.85986],[-52.96817,-26.85908],[-52.96924,-26.85789],[-52.96974,-26.85703],[-52.96998,-26.85581],[-52.96965,-26.8548],[-52.96864,-26.85402],[-52.96794,-26.85315],[-52.96804,-26.85275],[-52.96917,-26.85211],[-52.97025,-26.85242],[-52.97044,-26.85275],[-52.97124,-26.85274],[-52.97206,-26.85334],[-52.97367,-26.85353],[-52.97445,-26.85383],[-52.97608,-26.85423],[-52.97753,-26.85486],[-52.97862,-26.85464],[-52.98003,-26.85388],[-52.98027,-26.85392],[-52.98017,-26.85574],[-52.97955,-26.85881],[-52.97891,-26.86019],[-52.97809,-26.86122],[-52.97712,-26.86199],[-52.97605,-26.86258],[-52.97243,-26.86408]]]},"properties":{"codigo":"4212908010","name":"Jardim Maria Terezinha","population":2008,"households":670,"areaKm2":1.6504,"density":1216.6}},{"type":"Feature","geometry":{"type":"Polygon","coordinates":[[[-52.98187,-26.84403],[-52.98244,-26.84369],[-52.98572,-26.84369],[-52.98575,-26.84628],[-52.98242,-26.84631],[-52.98084,-26.84626],[-52.98187,-26.84403]]]},"properties":{"codigo":"4212908008","name":"Panorama","population":357,"households":144,"areaKm2":0.123,"density":2902.5}},{"type":"Feature","geometry":{"type":"Polygon","coordinates":[[[-52.99778,-26.83831],[-52.99809,-26.84056],[-53.00482,-26.8451],[-53.00281,-26.84629],[-53.00181,-26.84716],[-53.0009,-26.84756],[-53.00038,-26.84833],[-53.00036,-26.84907],[-52.99995,-26.84993],[-52.99817,-26.84912],[-52.99817,-26.85034],[-52.99272,-26.85011],[-52.99224,-26.85004],[-52.98999,-26.85004],[-52.98862,-26.85005],[-52.98857,-26.84367],[-52.98993,-26.84364],[-52.98994,-26.84432],[-52.99171,-26.84432],[-52.99225,-26.84369],[-52.99314,-26.84308],[-52.9944,-26.84057],[-52.99485,-26.83935],[-52.99512,-26.83912],[-52.99725,-26.8383],[-52.99778,-26.83831]]]},"properties":{"codigo":"4212908005","name":"Santo Antônio","population":1924,"households":785,"areaKm2":1.233,"density":1560.4}},{"type":"Feature","geometry":{"type":"Polygon","coordinates":[[[-52.99359,-26.83282],[-52.99157,-26.83469],[-52.98997,-26.8358],[-52.98783,-26.83693],[-52.98731,-26.83709],[-52.98715,-26.83706],[-52.98792,-26.83621],[-52.99261,-26.83197],[-52.99359,-26.83282]]]},"properties":{"codigo":"4212908004","name":"Centro Oeste","population":27,"households":11,"areaKm2":0.0855,"density":315.6}},{"type":"Feature","geometry":{"type":"Polygon","coordinates":[[[-52.98715,-26.83706],[-52.98731,-26.83709],[-52.98714,-26.83774],[-52.98717,-26.84368],[-52.98572,-26.84369],[-52.98244,-26.84369],[-52.98187,-26.84403],[-52.98365,-26.8402],[-52.98459,-26.83897],[-52.98562,-26.83812],[-52.98715,-26.83706]]]},"properties":{"codigo":"4212908003","name":"São José","population":716,"households":275,"areaKm2":0.2364,"density":3029.2}},{"type":"Feature","geometry":{"type":"Polygon","coordinates":[[[-52.98864,-26.85258],[-52.99003,-26.85258],[-52.98999,-26.85004],[-52.99224,-26.85004],[-52.99272,-26.85011],[-52.99817,-26.85034],[-52.99817,-26.84912],[-52.99995,-26.84993],[-53.00036,-26.84907],[-53.00038,-26.84833],[-53.0009,-26.84756],[-53.00181,-26.84716],[-53.00281,-26.84629],[-53.00482,-26.8451],[-53.00608,-26.84598],[-53.01195,-26.84982],[-53.00542,-26.85696],[-53.00381,-26.85861],[-53.00551,-26.85972],[-53.00674,-26.86038],[-53.00752,-26.86137],[-53.00878,-26.86163],[-53.00922,-26.86149],[-53.01116,-26.86134],[-53.01164,-26.86147],[-53.01168,-26.86296],[-53.0066,-26.86315],[-52.99504,-26.86327],[-52.99452,-26.86321],[-52.99506,-26.86492],[-52.99584,-26.86508],[-52.99682,-26.86493],[-52.99641,-26.86621],[-52.99655,-26.86719],[-52.99656,-26.86833],[-52.996,-26.86954],[-52.99508,-26.86954],[-52.9951,-26.86914],[-52.98877,-26.8691],[-52.98878,-26.86546],[-52.98873,-26.8599],[-52.98864,-26.85511],[-52.98864,-26.85258]]]},"properties":{"codigo":"4212908006","name":"Pioneiro","population":4441,"households":1711,"areaKm2":3.5912,"density":1236.6}}]}