{"type":"FeatureCollection","features":[{"type":"Feature","geometry":{"type":"Polygon","coordinates":[[[-53.3423,-26.24908],[-53.34175,-26.25168],[-53.34098,-26.2523],[-53.34105,-26.25345],[-53.34055,-26.25452],[-53.34038,-26.25888],[-53.34019,-26.2594],[-53.34083,-26.26064],[-53.34169,-26.26637],[-53.34243,-26.26734],[-53.3421,-26.26907],[-53.34087,-26.27018],[-53.34189,-26.27267],[-53.34152,-26.27423],[-53.342,-26.27475],[-53.34191,-26.27765],[-53.34272,-26.2781],[-53.34199,-26.28014],[-53.3442,-26.28212],[-53.34421,-26.28303],[-53.34307,-26.28373],[-53.34361,-26.28764],[-53.3446,-26.28814],[-53.34376,-26.28982],[-53.34413,-26.29142],[-53.34311,-26.29303],[-53.34366,-26.29398],[-53.34321,-26.29458],[-53.34376,-26.29575],[-53.34296,-26.29722],[-53.34415,-26.29801],[-53.34578,-26.29959],[-53.34737,-26.29865],[-53.34848,-26.29975],[-53.34788,-26.30036],[-53.34809,-26.30156],[-53.35094,-26.29994],[-53.35147,-26.30217],[-53.35054,-26.30239],[-53.35016,-26.30314],[-53.35025,-26.30493],[-53.34948,-26.3051],[-53.3492,-26.30647],[-53.34989,-26.30742],[-53.35072,-26.30681],[-53.35335,-26.30632],[-53.35367,-26.30537],[-53.35508,-26.3064],[-53.35583,-26.30769],[-53.35601,-26.30887],[-53.35707,-26.30977],[-53.35783,-26.30926],[-53.35912,-26.31041],[-53.35767,-26.31169],[-53.35733,-26.31413],[-53.35888,-26.31506],[-53.35833,-26.31736],[-53.36026,-26.31636],[-53.361,-26.31694],[-53.36237,-26.31719],[-53.36414,-26.31668],[-53.36557,-26.31727],[-53.36537,-26.31823],[-53.36405,-26.31999],[-53.36363,-26.32101],[-53.36474,-26.32154],[-53.36507,-26.32277],[-53.36277,-26.32317],[-53.36287,-26.32456],[-53.36459,-26.32473],[-53.36383,-26.32579],[-53.3645,-26.32679],[-53.36606,-26.32835],[-53.36671,-26.3284],[-53.36773,-26.32756],[-53.36838,-26.3285],[-53.37111,-26.32894],[-53.37122,-26.32995],[-53.37213,-26.33181],[-53.37283,-26.33254],[-53.3709,-26.33319],[-53.37117,-26.33427],[-53.36996,-26.33445],[-53.36977,-26.33345],[-53.36743,-26.33376],[-53.36646,-26.33412],[-53.36755,-26.33577],[-53.36731,-26.33701],[-53.3683,-26.33685],[-53.36996,-26.33772],[-53.37021,-26.33678],[-53.37104,-26.33593],[-53.37404,-26.337],[-53.37552,-26.33571],[-53.37624,-26.33974],[-53.37412,-26.34008],[-53.37249,-26.34182],[-53.37108,-26.34124],[-53.37061,-26.34231],[-53.37246,-26.34252],[-53.37291,-26.34296],[-53.37148,-26.34425],[-53.37229,-26.34502],[-53.37479,-26.34511],[-53.37527,-26.34321],[-53.37686,-26.34332],[-53.37652,-26.34418],[-53.37797,-26.34468],[-53.37947,-26.34561],[-53.37925,-26.34626],[-53.37809,-26.34642],[-53.37761,-26.34713],[-53.37756,-26.34833],[-53.37885,-26.34899],[-53.37894,-26.35011],[-53.38108,-26.35042],[-53.38017,-26.35156],[-53.38129,-26.35385],[-53.38212,-26.35419],[-53.38407,-26.35338],[-53.38419,-26.35227],[-53.38475,-26.35183],[-53.386,-26.35332],[-53.38602,-26.35542],[-53.38674,-26.35569],[-53.38731,-26.35464],[-53.38847,-26.35343],[-53.38923,-26.3522],[-53.39046,-26.35312],[-53.3888,-26.3554],[-53.38889,-26.35623],[-53.39054,-26.35657],[-53.39228,-26.35788],[-53.39296,-26.35982],[-53.39363,-26.36035],[-53.39556,-26.36047],[-53.39586,-26.36137],[-53.3949,-26.36318],[-53.39622,-26.36406],[-53.39635,-26.36504],[-53.3943,-26.36605],[-53.39285,-26.36668],[-53.39339,-26.37077],[-53.39419,-26.37073],[-53.39446,-26.36966],[-53.39541,-26.36878],[-53.39698,-26.36927],[-53.39725,-26.3701],[-53.39825,-26.37105],[-53.39885,-26.37241],[-53.39938,-26.37257],[-53.40016,-26.37106],[-53.40117,-26.37134],[-53.4026,-26.37319],[-53.40166,-26.37497],[-53.40163,-26.37624],[-53.40201,-26.37708],[-53.40299,-26.37779],[-53.4053,-26.37886],[-53.40401,-26.38011],[-53.40029,-26.38115],[-53.39972,-26.38177],[-53.39964,-26.38342],[-53.39898,-26.38343],[-53.39861,-26.38231],[-53.39744,-26.38238],[-53.39586,-26.38439],[-53.39543,-26.38537],[-53.39562,-26.38621],[-53.39746,-26.38666],[-53.39924,-26.38579],[-53.40003,-26.38612],[-53.4,-26.38722],[-53.39869,-26.39066],[-53.39969,-26.39099],[-53.40269,-26.38927],[-53.40293,-26.39042],[-53.40199,-26.39214],[-53.40246,-26.39391],[-53.40401,-26.39196],[-53.40599,-26.39032],[-53.40677,-26.38936],[-53.40775,-26.38944],[-53.40844,-26.39071],[-53.40867,-26.39206],[-53.40786,-26.39269],[-53.40648,-26.39293],[-53.40625,-26.39375],[-53.40663,-26.39559],[-53.40652,-26.39741],[-53.40489,-26.39742],[-53.40323,-26.39685],[-53.40211,-26.39799],[-53.40217,-26.39931],[-53.40323,-26.40048],[-53.40316,-26.40128],[-53.40211,-26.40247],[-53.40201,-26.40478],[-53.40146,-26.40722],[-53.40215,-26.40809],[-53.40463,-26.40703],[-53.40506,-26.40623],[-53.40756,-26.40672],[-53.40778,-26.41023],[-53.40703,-26.41225],[-53.40755,-26.41271],[-53.40921,-26.41156],[-53.41061,-26.41141],[-53.41211,-26.41212],[-53.41237,-26.41274],[-53.41177,-26.41406],[-53.41229,-26.41453],[-53.41429,-26.41498],[-53.41469,-26.416],[-53.41439,-26.4169],[-53.41315,-26.41716],[-53.41247,-26.4178],[-53.41393,-26.41973],[-53.41384,-26.42079],[-53.41308,-26.42247],[-53.41335,-26.42406],[-53.41236,-26.42484],[-53.41084,-26.42415],[-53.41036,-26.42434],[-53.40826,-26.42639],[-53.40657,-26.42659],[-53.40557,-26.42633],[-53.40267,-26.42767],[-53.39234,-26.42445],[-53.36076,-26.42115],[-53.36038,-26.42262],[-53.36106,-26.42337],[-53.36289,-26.4228],[-53.36568,-26.42301],[-53.36875,-26.42383],[-53.36908,-26.42495],[-53.36872,-26.42635],[-53.36721,-26.42802],[-53.36309,-26.42912],[-53.36298,-26.43084],[-53.36411,-26.43193],[-53.36586,-26.43174],[-53.36756,-26.43125],[-53.37236,-26.43052],[-53.37266,-26.43082],[-53.37198,-26.434],[-53.37401,-26.43436],[-53.37666,-26.43381],[-53.37817,-26.43422],[-53.3782,-26.43544],[-53.3772,-26.43829],[-53.37672,-26.43871],[-53.3741,-26.4397],[-53.37152,-26.43967],[-53.36882,-26.44102],[-53.36979,-26.44392],[-53.36963,-26.44696],[-53.37199,-26.44671],[-53.37286,-26.44616],[-53.37596,-26.44725],[-53.37595,-26.44898],[-53.37386,-26.45007],[-53.37117,-26.45092],[-53.37071,-26.45211],[-53.37286,-26.45321],[-53.37412,-26.45321],[-53.37706,-26.45241],[-53.37827,-26.45141],[-53.38025,-26.44909],[-53.38107,-26.44939],[-53.38211,-26.45093],[-53.38211,-26.45271],[-53.38287,-26.45497],[-53.38369,-26.45571],[-53.38266,-26.45753],[-53.38284,-26.45865],[-53.38477,-26.45841],[-53.38582,-26.45871],[-53.38868,-26.45899],[-53.39003,-26.46047],[-53.39127,-26.46333],[-53.39332,-26.46461],[-53.39705,-26.46491],[-53.39787,-26.46553],[-53.39897,-26.46558],[-53.40098,-26.46485],[-53.40278,-26.4669],[-53.4037,-26.46653],[-53.4046,-26.4647],[-53.40508,-26.46224],[-53.40587,-26.46096],[-53.40691,-26.46055],[-53.40936,-26.46176],[-53.41031,-26.46347],[-53.41029,-26.46469],[-53.40834,-26.46786],[-53.40803,-26.46973],[-53.40668,-26.47294],[-53.40683,-26.47381],[-53.40881,-26.47495],[-53.40958,-26.47609],[-53.40963,-26.4773],[-53.40604,-26.47861],[-53.40301,-26.47985],[-53.40171,-26.48072],[-53.40168,-26.4816],[-53.4029,-26.48251],[-53.40382,-26.48235],[-53.40814,-26.48406],[-53.41069,-26.48413],[-53.41315,-26.48208],[-53.4148,-26.48111],[-53.4158,-26.48138],[-53.41488,-26.48335],[-53.41273,-26.48478],[-53.4102,-26.48716],[-53.40612,-26.48989],[-53.40482,-26.49216],[-53.40507,-26.49355],[-53.40767,-26.49345],[-53.4122,-26.49293],[-53.4157,-26.49314],[-53.41683,-26.49398],[-53.41693,-26.49522],[-53.41611,-26.49737],[-53.41431,-26.5],[-53.4126,-26.50184],[-53.41078,-26.50324],[-53.40833,-26.50483],[-53.40703,-26.50821],[-53.40758,-26.50915],[-53.4089,-26.51007],[-53.41038,-26.51066],[-53.4114,-26.51049],[-53.41395,-26.50933],[-53.41529,-26.50892],[-53.41779,-26.50726],[-53.41907,-26.50728],[-53.41901,-26.50889],[-53.41742,-26.51023],[-53.41569,-26.5111],[-53.40979,-26.51473],[-53.40786,-26.51666],[-53.40721,-26.51837],[-53.4062,-26.51852],[-53.40369,-26.51995],[-53.40286,-26.5214],[-53.40199,-26.52368],[-53.40065,-26.52402],[-53.40068,-26.52237],[-53.40134,-26.52029],[-53.40148,-26.51912],[-53.40089,-26.51658],[-53.40025,-26.51218],[-53.3993,-26.5117],[-53.39601,-26.51275],[-53.39541,-26.51352],[-53.3955,-26.5146],[-53.395,-26.51515],[-53.39388,-26.5152],[-53.39079,-26.51459],[-53.38869,-26.5148],[-53.38761,-26.5141],[-53.38681,-26.51276],[-53.38292,-26.51292],[-53.38125,-26.51266],[-53.3803,-26.51314],[-53.37908,-26.51516],[-53.37817,-26.51566],[-53.37712,-26.51539],[-53.375,-26.51319],[-53.37413,-26.51037],[-53.37326,-26.509],[-53.37193,-26.50872],[-53.37106,-26.50929],[-53.36994,-26.51089],[-53.36866,-26.51051],[-53.36895,-26.50857],[-53.36747,-26.50822],[-53.36629,-26.50889],[-53.36519,-26.50876],[-53.36444,-26.50805],[-53.3644,-26.50628],[-53.36323,-26.50534],[-53.36041,-26.50542],[-53.35814,-26.50394],[-53.3576,-26.50319],[-53.35671,-26.50298],[-53.35457,-26.50454],[-53.35162,-26.50477],[-53.3508,-26.50452],[-53.35041,-26.5036],[-53.35152,-26.50236],[-53.35252,-26.50082],[-53.3547,-26.50074],[-53.35549,-26.50045],[-53.35844,-26.5],[-53.36163,-26.49816],[-53.3614,-26.49671],[-53.35858,-26.49663],[-53.35644,-26.49559],[-53.35668,-26.49484],[-53.35857,-26.4929],[-53.36041,-26.49166],[-53.36192,-26.48875],[-53.3606,-26.48792],[-53.3578,-26.48809],[-53.35724,-26.48777],[-53.35564,-26.48792],[-53.35301,-26.48973],[-53.35139,-26.4892],[-53.35119,-26.48829],[-53.35167,-26.48739],[-53.35099,-26.48642],[-53.34973,-26.48654],[-53.34816,-26.48723],[-53.34756,-26.48647],[-53.34777,-26.4844],[-53.34755,-26.48286],[-53.34794,-26.48161],[-53.34947,-26.48033],[-53.34965,-26.47896],[-53.34775,-26.47726],[-53.34707,-26.47704],[-53.34508,-26.47866],[-53.3435,-26.48066],[-53.34195,-26.48168],[-53.33951,-26.48197],[-53.33887,-26.48143],[-53.33906,-26.4806],[-53.34006,-26.47911],[-53.34007,-26.47708],[-53.33894,-26.47705],[-53.33818,-26.47861],[-53.33693,-26.47857],[-53.33566,-26.47689],[-53.33358,-26.47641],[-53.33262,-26.47585],[-53.33176,-26.4743],[-53.33076,-26.47159],[-53.33087,-26.47083],[-53.33229,-26.4695],[-53.33332,-26.46898],[-53.3329,-26.46805],[-53.33143,-26.46816],[-53.32998,-26.46735],[-53.3294,-26.46473],[-53.3282,-26.46483],[-53.3275,-26.46648],[-53.3266,-26.46759],[-53.3269,-26.47084],[-53.32589,-26.47116],[-53.32482,-26.47002],[-53.32358,-26.46938],[-53.32125,-26.46876],[-53.32094,-26.46789],[-53.32137,-26.46626],[-53.32195,-26.46617],[-53.32303,-26.46474],[-53.32296,-26.46367],[-53.32115,-26.46393],[-53.32045,-26.46355],[-53.32083,-26.46232],[-53.32042,-26.46106],[-53.31949,-26.46084],[-53.31809,-26.46158],[-53.31734,-26.46076],[-53.31788,-26.45943],[-53.31729,-26.45855],[-53.31602,-26.45802],[-53.31291,-26.4575],[-53.31333,-26.45898],[-53.31627,-26.46228],[-53.3161,-26.46297],[-53.31515,-26.46356],[-53.3138,-26.46332],[-53.31324,-26.46428],[-53.31237,-26.46827],[-53.31052,-26.46923],[-53.30899,-26.46923],[-53.30634,-26.46976],[-53.30626,-26.46841],[-53.30573,-26.46757],[-53.30275,-26.46767],[-53.30234,-26.467],[-53.30423,-26.46569],[-53.30474,-26.46506],[-53.30288,-26.46317],[-53.30152,-26.46294],[-53.30141,-26.46203],[-53.30244,-26.4614],[-53.30342,-26.46024],[-53.30337,-26.45917],[-53.30257,-26.45775],[-53.30167,-26.45701],[-53.29969,-26.45663],[-53.2969,-26.45583],[-53.29616,-26.45641],[-53.29423,-26.45665],[-53.29412,-26.45888],[-53.29124,-26.46049],[-53.28972,-26.46056],[-53.28899,-26.45995],[-53.2875,-26.45782],[-53.28952,-26.45646],[-53.2897,-26.45532],[-53.28761,-26.45501],[-53.2864,-26.45278],[-53.28522,-26.45126],[-53.28457,-26.45105],[-53.28337,-26.45197],[-53.28204,-26.45132],[-53.2814,-26.4492],[-53.2814,-26.44824],[-53.28466,-26.44799],[-53.28623,-26.44756],[-53.28657,-26.44695],[-53.2865,-26.44407],[-53.28572,-26.44376],[-53.28495,-26.44433],[-53.28344,-26.44399],[-53.28188,-26.4425],[-53.28076,-26.44217],[-53.28065,-26.44061],[-53.28139,-26.43925],[-53.28342,-26.43869],[-53.28465,-26.43924],[-53.28592,-26.43836],[-53.28709,-26.43895],[-53.28823,-26.43864],[-53.28843,-26.43769],[-53.28814,-26.4356],[-53.29056,-26.43509],[-53.29133,-26.43383],[-53.29144,-26.43209],[-53.29051,-26.43123],[-53.28916,-26.43102],[-53.28768,-26.43154],[-53.28693,-26.43242],[-53.28538,-26.43324],[-53.28514,-26.42981],[-53.28571,-26.42787],[-53.28532,-26.42687],[-53.28405,-26.42663],[-53.28393,-26.42496],[-53.28432,-26.42272],[-53.28506,-26.42195],[-53.28607,-26.42204],[-53.28698,-26.42146],[-53.28717,-26.4206],[-53.28673,-26.41834],[-53.28535,-26.41731],[-53.28442,-26.41736],[-53.28321,-26.41897],[-53.28123,-26.42052],[-53.28059,-26.42037],[-53.27986,-26.41835],[-53.27943,-26.4181],[-53.27739,-26.41885],[-53.27599,-26.41817],[-53.2761,-26.41593],[-53.27673,-26.41477],[-53.27892,-26.41414],[-53.28339,-26.41255],[-53.28454,-26.41058],[-53.28474,-26.40935],[-53.28345,-26.4073],[-53.2819,-26.40689],[-53.2801,-26.40721],[-53.27883,-26.40874],[-53.27611,-26.4113],[-53.27271,-26.41225],[-53.2715,-26.41225],[-53.26857,-26.41124],[-53.26712,-26.41106],[-53.26606,-26.41038],[-53.266,-26.40933],[-53.26718,-26.40859],[-53.26924,-26.4081],[-53.27015,-26.40873],[-53.27254,-26.4095],[-53.27376,-26.40917],[-53.27434,-26.40847],[-53.27484,-26.40577],[-53.27639,-26.4048],[-53.27644,-26.40435],[-53.27519,-26.4026],[-53.27626,-26.40047],[-53.27606,-26.39791],[-53.27458,-26.39682],[-53.27383,-26.39744],[-53.27449,-26.39842],[-53.2742,-26.39913],[-53.27233,-26.39919],[-53.26964,-26.40095],[-53.26887,-26.40109],[-53.26719,-26.40065],[-53.26653,-26.40153],[-53.26702,-26.40368],[-53.26669,-26.40487],[-53.26467,-26.40523],[-53.26403,-26.40438],[-53.2652,-26.40303],[-53.26272,-26.40133],[-53.26246,-26.40058],[-53.26356,-26.39955],[-53.2648,-26.39914],[-53.26416,-26.39832],[-53.26435,-26.39719],[-53.26433,-26.39363],[-53.26396,-26.39267],[-53.26223,-26.39246],[-53.26157,-26.39088],[-53.26196,-26.39006],[-53.26314,-26.38982],[-53.26339,-26.38911],[-53.26051,-26.38882],[-53.25948,-26.38938],[-53.25748,-26.38732],[-53.25576,-26.38688],[-53.25544,-26.38641],[-53.25588,-26.38517],[-53.25594,-26.38357],[-53.25743,-26.38172],[-53.25531,-26.38051],[-53.25437,-26.38059],[-53.25298,-26.38128],[-53.25224,-26.38095],[-53.25196,-26.37767],[-53.25036,-26.37696],[-53.24911,-26.37824],[-53.2481,-26.37808],[-53.24708,-26.37608],[-53.24531,-26.376],[-53.24281,-26.37508],[-53.24143,-26.37477],[-53.24077,-26.37314],[-53.23907,-26.37239],[-53.23815,-26.37133],[-53.23649,-26.37203],[-53.23543,-26.37096],[-53.2342,-26.37139],[-53.23367,-26.371],[-53.23311,-26.36949],[-53.23136,-26.36903],[-53.22938,-26.36931],[-53.22739,-26.37009],[-53.22525,-26.37208],[-53.22405,-26.37259],[-53.22231,-26.37262],[-53.22185,-26.37347],[-53.22024,-26.37419],[-53.21839,-26.37408],[-53.21706,-26.3725],[-53.21513,-26.37283],[-53.21413,-26.3717],[-53.21313,-26.37186],[-53.21233,-26.37064],[-53.21043,-26.37147],[-53.20969,-26.37097],[-53.20817,-26.37112],[-53.20633,-26.36986],[-53.20492,-26.36986],[-53.20444,-26.36901],[-53.20271,-26.36933],[-53.20164,-26.3685],[-53.20134,-26.36682],[-53.19918,-26.36602],[-53.19855,-26.36695],[-53.19589,-26.3686],[-53.19333,-26.3685],[-53.19152,-26.36938],[-53.18963,-26.36745],[-53.18747,-26.36692],[-53.18657,-26.36694],[-53.18387,-26.36474],[-53.18088,-26.36364],[-53.17975,-26.36354],[-53.1793,-26.3641],[-53.17694,-26.36243],[-53.17416,-26.36102],[-53.17103,-26.36072],[-53.1701,-26.36014],[-53.16914,-26.35853],[-53.16781,-26.3577],[-53.1669,-26.35759],[-53.16648,-26.3563],[-53.16453,-26.35633],[-53.16281,-26.35592],[-53.16097,-26.3535],[-53.16079,-26.35216],[-53.16015,-26.35061],[-53.16148,-26.35109],[-53.16545,-26.35128],[-53.16704,-26.35055],[-53.16929,-26.34807],[-53.16955,-26.34779],[-53.17825,-26.34413],[-53.18275,-26.34451],[-53.18447,-26.34381],[-53.18655,-26.34152],[-53.18889,-26.33711],[-53.19158,-26.33444],[-53.19588,-26.33305],[-53.1976,-26.32979],[-53.19874,-26.32988],[-53.20044,-26.33149],[-53.20176,-26.33134],[-53.20571,-26.32946],[-53.20761,-26.32693],[-53.21146,-26.3257],[-53.22162,-26.31901],[-53.2246,-26.31897],[-53.22602,-26.31848],[-53.22898,-26.31467],[-53.23205,-26.31184],[-53.23427,-26.31101],[-53.23549,-26.31016],[-53.23583,-26.30881],[-53.23565,-26.30761],[-53.23675,-26.30716],[-53.23708,-26.30615],[-53.23829,-26.30394],[-53.23857,-26.30279],[-53.2397,-26.30186],[-53.23999,-26.30037],[-53.24259,-26.29969],[-53.24318,-26.29895],[-53.24421,-26.29904],[-53.2448,-26.29808],[-53.24594,-26.29769],[-53.24699,-26.29786],[-53.24831,-26.2972],[-53.2505,-26.29569],[-53.25136,-26.29541],[-53.25326,-26.29376],[-53.25334,-26.29288],[-53.25298,-26.2906],[-53.2532,-26.28881],[-53.25424,-26.28823],[-53.25528,-26.28869],[-53.25835,-26.28872],[-53.26009,-26.28846],[-53.26069,-26.28796],[-53.26291,-26.28855],[-53.2644,-26.28934],[-53.26429,-26.28651],[-53.26318,-26.28251],[-53.26268,-26.28171],[-53.26211,-26.27733],[-53.26231,-26.27666],[-53.26515,-26.27633],[-53.26547,-26.27478],[-53.26544,-26.27214],[-53.26468,-26.27118],[-53.26484,-26.27048],[-53.26583,-26.27004],[-53.26639,-26.26919],[-53.26775,-26.26604],[-53.26707,-26.26376],[-53.26839,-26.26241],[-53.27149,-26.26242],[-53.27188,-26.26165],[-53.27204,-26.25982],[-53.27449,-26.2599],[-53.2754,-26.26018],[-53.27785,-26.26006],[-53.27911,-26.25947],[-53.27997,-26.25854],[-53.28037,-26.25683],[-53.27928,-26.25469],[-53.27922,-26.25338],[-53.27823,-26.25161],[-53.27937,-26.25138],[-53.27991,-26.25073],[-53.27894,-26.25022],[-53.27891,-26.24939],[-53.27968,-26.24682],[-53.28084,-26.24613],[-53.28357,-26.24578],[-53.28588,-26.24697],[-53.28826,-26.24763],[-53.29228,-26.2503],[-53.29264,-26.2516],[-53.2942,-26.25333],[-53.29445,-26.25547],[-53.29381,-26.25689],[-53.29391,-26.25843],[-53.29363,-26.26031],[-53.29368,-26.2622],[-53.29488,-26.26555],[-53.29547,-26.26603],[-53.29567,-26.26751],[-53.29638,-26.26762],[-53.2995,-26.26458],[-53.30033,-26.26854],[-53.29852,-26.26961],[-53.29782,-26.27586],[-53.29693,-26.27909],[-53.2977,-26.28067],[-53.29911,-26.27809],[-53.29883,-26.27757],[-53.29969,-26.27489],[-53.30143,-26.27445],[-53.31455,-26.27071],[-53.31447,-26.26914],[-53.31566,-26.26611],[-53.31588,-26.2647],[-53.3158,-26.26217],[-53.31712,-26.26084],[-53.31811,-26.25848],[-53.31795,-26.25709],[-53.31856,-26.25736],[-53.32101,-26.25717],[-53.32133,-26.25586],[-53.32298,-26.25518],[-53.32538,-26.25517],[-53.32709,-26.25363],[-53.32946,-26.25354],[-53.33156,-26.25268],[-53.33837,-26.24842],[-53.3401,-26.24821],[-53.3423,-26.24908]],[[-53.3384,-26.38613],[-53.34448,-26.38686],[-53.34511,-26.38238],[-53.35003,-26.38294],[-53.35026,-26.38141],[-53.35145,-26.38154],[-53.35199,-26.37766],[-53.35224,-26.37471],[-53.35117,-26.37456],[-53.34951,-26.37618],[-53.34835,-26.37605],[-53.34826,-26.37444],[-53.34607,-26.37546],[-53.34501,-26.37534],[-53.34535,-26.37321],[-53.34482,-26.3731],[-53.34373,-26.37551],[-53.34307,-26.3763],[-53.34227,-26.37603],[-53.34189,-26.37734],[-53.34043,-26.37853],[-53.34192,-26.37941],[-53.34166,-26.3802],[-53.34185,-26.38192],[-53.33904,-26.38394],[-53.3384,-26.38613]]]},"properties":{"codigo":"421200705","name":"Palma Sola","population":7005,"households":2906,"areaKm2":326.2881,"density":21.5}},{"type":"Feature","geometry":{"type":"Polygon","coordinates":[[[-53.3384,-26.38613],[-53.33904,-26.38394],[-53.34185,-26.38192],[-53.34166,-26.3802],[-53.34192,-26.37941],[-53.34043,-26.37853],[-53.34189,-26.37734],[-53.34227,-26.37603],[-53.34307,-26.3763],[-53.34373,-26.37551],[-53.34482,-26.3731],[-53.34535,-26.37321],[-53.34501,-26.37534],[-53.34607,-26.37546],[-53.34826,-26.37444],[-53.34835,-26.37605],[-53.34951,-26.37618],[-53.35117,-26.37456],[-53.35224,-26.37471],[-53.35199,-26.37766],[-53.35145,-26.38154],[-53.35026,-26.38141],[-53.35003,-26.38294],[-53.34511,-26.38238],[-53.34448,-26.38686],[-53.3384,-26.38613]]]},"properties":{"codigo":"421200710","name":"Cerro Azul","population":148,"households":63,"areaKm2":1.0617,"density":139.4}},{"type":"Feature","geometry":{"type":"Polygon","coordinates":[[[-53.31795,-26.25709],[-53.31811,-26.25848],[-53.31712,-26.26084],[-53.3158,-26.26217],[-53.31588,-26.2647],[-53.31566,-26.26611],[-53.31447,-26.26914],[-53.31455,-26.27071],[-53.30143,-26.27445],[-53.29969,-26.27489],[-53.29883,-26.27757],[-53.29911,-26.27809],[-53.2977,-26.28067],[-53.29693,-26.27909],[-53.29782,-26.27586],[-53.29852,-26.26961],[-53.30033,-26.26854],[-53.2995,-26.26458],[-53.29638,-26.26762],[-53.29567,-26.26751],[-53.29547,-26.26603],[-53.29488,-26.26555],[-53.29368,-26.2622],[-53.29363,-26.26031],[-53.29391,-26.25843],[-53.29381,-26.25689],[-53.29445,-26.25547],[-53.2942,-26.25333],[-53.29264,-26.2516],[-53.29228,-26.2503],[-53.29882,-26.25485],[-53.3019,-26.25729],[-53.3039,-26.25798],[-53.30445,-26.25844],[-53.30486,-26.26053],[-53.30788,-26.26003],[-53.31134,-26.25855],[-53.31223,-26.25991],[-53.31371,-26.2593],[-53.31565,-26.25758],[-53.31545,-26.25625],[-53.31621,-26.25622],[-53.31795,-26.25709]]]},"properties":{"codigo":"421200720","name":"Rene Damo","population":452,"households":191,"areaKm2":3.5282,"density":128.1}}]}