{"type":"FeatureCollection","features":[{"type":"Feature","geometry":{"type":"Polygon","coordinates":[[[-49.22126,-28.43282],[-49.22317,-28.43369],[-49.22453,-28.43355],[-49.22635,-28.43385],[-49.22696,-28.4344],[-49.22817,-28.43691],[-49.22821,-28.43834],[-49.22707,-28.43874],[-49.22726,-28.4398],[-49.23034,-28.44298],[-49.23092,-28.44315],[-49.23171,-28.44518],[-49.2324,-28.44522],[-49.23349,-28.44653],[-49.23504,-28.44783],[-49.23556,-28.45075],[-49.23603,-28.45171],[-49.23546,-28.45343],[-49.23526,-28.45568],[-49.23388,-28.45638],[-49.23529,-28.45771],[-49.23661,-28.45782],[-49.23795,-28.457],[-49.23884,-28.45697],[-49.24073,-28.45606],[-49.24181,-28.45589],[-49.24254,-28.45461],[-49.24386,-28.455],[-49.24459,-28.45933],[-49.24597,-28.4599],[-49.24844,-28.46027],[-49.25235,-28.4614],[-49.25518,-28.46244],[-49.25635,-28.46389],[-49.25721,-28.46428],[-49.25862,-28.46634],[-49.25869,-28.4683],[-49.25798,-28.4693],[-49.2562,-28.46808],[-49.2539,-28.46691],[-49.25269,-28.46668],[-49.24935,-28.46509],[-49.24737,-28.46482],[-49.24627,-28.46496],[-49.24267,-28.46737],[-49.24077,-28.46668],[-49.23919,-28.46714],[-49.2369,-28.46923],[-49.2358,-28.46921],[-49.23483,-28.4698],[-49.23266,-28.46878],[-49.23199,-28.4682],[-49.23154,-28.46671],[-49.23079,-28.4663],[-49.22994,-28.46844],[-49.22808,-28.46902],[-49.22612,-28.46785],[-49.22355,-28.46855],[-49.223,-28.46828],[-49.22207,-28.46668],[-49.22061,-28.46601],[-49.22066,-28.46697],[-49.21917,-28.46826],[-49.21846,-28.46723],[-49.21535,-28.46555],[-49.21281,-28.46594],[-49.21207,-28.46529],[-49.20999,-28.46504],[-49.20757,-28.46448],[-49.20568,-28.46518],[-49.20478,-28.46582],[-49.20268,-28.46606],[-49.19755,-28.46758],[-49.19404,-28.50113],[-49.19057,-28.51315],[-49.18019,-28.4981],[-49.14349,-28.47417],[-49.14056,-28.47413],[-49.13916,-28.47347],[-49.137,-28.47398],[-49.13593,-28.47318],[-49.13393,-28.47319],[-49.13286,-28.47353],[-49.13032,-28.47367],[-49.13049,-28.4749],[-49.12864,-28.47564],[-49.12678,-28.4747],[-49.12484,-28.47543],[-49.12216,-28.47465],[-49.12243,-28.47278],[-49.12168,-28.47093],[-49.12162,-28.46968],[-49.12298,-28.46916],[-49.12306,-28.46642],[-49.12199,-28.46364],[-49.12086,-28.46175],[-49.1207,-28.46006],[-49.12259,-28.45796],[-49.12336,-28.45654],[-49.12353,-28.45554],[-49.12437,-28.45425],[-49.1238,-28.45288],[-49.12257,-28.45198],[-49.12196,-28.45094],[-49.12214,-28.4496],[-49.11951,-28.44937],[-49.11794,-28.44884],[-49.11665,-28.44773],[-49.11585,-28.44748],[-49.11549,-28.44653],[-49.11398,-28.44637],[-49.11375,-28.44474],[-49.11248,-28.44448],[-49.11201,-28.44366],[-49.11251,-28.4415],[-49.11396,-28.43998],[-49.11504,-28.43718],[-49.11508,-28.43553],[-49.11593,-28.4345],[-49.11734,-28.43347],[-49.11734,-28.43198],[-49.11687,-28.4307],[-49.11759,-28.43033],[-49.1201,-28.42832],[-49.12214,-28.42565],[-49.12342,-28.42342],[-49.12306,-28.422],[-49.12347,-28.42019],[-49.12468,-28.41931],[-49.12624,-28.41881],[-49.12948,-28.41877],[-49.13265,-28.41809],[-49.13482,-28.4158],[-49.13708,-28.4146],[-49.13751,-28.41384],[-49.14082,-28.41237],[-49.14299,-28.41193],[-49.14612,-28.41182],[-49.14582,-28.40998],[-49.14641,-28.40831],[-49.14892,-28.40708],[-49.15022,-28.40531],[-49.1526,-28.40429],[-49.15422,-28.40303],[-49.15564,-28.40091],[-49.15687,-28.40073],[-49.15934,-28.40143],[-49.16065,-28.40147],[-49.1609,-28.40551],[-49.18101,-28.4139],[-49.18241,-28.4098],[-49.18317,-28.40943],[-49.18422,-28.41058],[-49.18649,-28.41149],[-49.18689,-28.41029],[-49.18614,-28.40859],[-49.18727,-28.40784],[-49.18882,-28.40794],[-49.19035,-28.40749],[-49.19049,-28.40564],[-49.19159,-28.40439],[-49.19185,-28.40289],[-49.19086,-28.40054],[-49.19115,-28.39896],[-49.19041,-28.3969],[-49.18876,-28.39543],[-49.189,-28.39342],[-49.19066,-28.39248],[-49.1906,-28.39163],[-49.18977,-28.38935],[-49.21126,-28.40095],[-49.21133,-28.40306],[-49.21112,-28.4048],[-49.21126,-28.40618],[-49.21083,-28.40773],[-49.20983,-28.40806],[-49.20869,-28.40951],[-49.20721,-28.41005],[-49.20687,-28.41297],[-49.20649,-28.41413],[-49.20505,-28.41551],[-49.20413,-28.41777],[-49.2026,-28.4189],[-49.20172,-28.41915],[-49.20038,-28.42136],[-49.19785,-28.42305],[-49.20075,-28.42421],[-49.2051,-28.42671],[-49.20578,-28.42728],[-49.20602,-28.42859],[-49.20698,-28.43001],[-49.20727,-28.43117],[-49.20927,-28.43182],[-49.21062,-28.43375],[-49.21135,-28.43388],[-49.21459,-28.43372],[-49.21706,-28.43257],[-49.21965,-28.43287],[-49.22126,-28.43282]]]},"properties":{"codigo":"421240305","name":"Pedras Grandes","population":3039,"households":1440,"areaKm2":83.1576,"density":36.5}},{"type":"Feature","geometry":{"type":"Polygon","coordinates":[[[-49.24531,-28.5906],[-49.24337,-28.58976],[-49.21724,-28.55186],[-49.19057,-28.51315],[-49.19404,-28.50113],[-49.19755,-28.46758],[-49.20268,-28.46606],[-49.20478,-28.46582],[-49.20568,-28.46518],[-49.20757,-28.46448],[-49.20999,-28.46504],[-49.21207,-28.46529],[-49.21281,-28.46594],[-49.21535,-28.46555],[-49.21846,-28.46723],[-49.21917,-28.46826],[-49.22066,-28.46697],[-49.22061,-28.46601],[-49.22207,-28.46668],[-49.223,-28.46828],[-49.22355,-28.46855],[-49.22612,-28.46785],[-49.22808,-28.46902],[-49.22994,-28.46844],[-49.23079,-28.4663],[-49.23154,-28.46671],[-49.23199,-28.4682],[-49.23266,-28.46878],[-49.23483,-28.4698],[-49.2358,-28.46921],[-49.2369,-28.46923],[-49.23919,-28.46714],[-49.24077,-28.46668],[-49.24267,-28.46737],[-49.24627,-28.46496],[-49.24737,-28.46482],[-49.24935,-28.46509],[-49.25269,-28.46668],[-49.2539,-28.46691],[-49.2562,-28.46808],[-49.25798,-28.4693],[-49.25795,-28.47008],[-49.25708,-28.47115],[-49.25741,-28.47172],[-49.25655,-28.473],[-49.25672,-28.47422],[-49.25869,-28.47545],[-49.26028,-28.47596],[-49.2634,-28.4777],[-49.26522,-28.47838],[-49.26822,-28.47842],[-49.27015,-28.48074],[-49.2713,-28.48152],[-49.27276,-28.48177],[-49.27346,-28.48241],[-49.27659,-28.48373],[-49.27751,-28.48465],[-49.27899,-28.4845],[-49.27978,-28.48551],[-49.27968,-28.48629],[-49.28023,-28.48769],[-49.27993,-28.48847],[-49.28062,-28.48992],[-49.28062,-28.49151],[-49.28261,-28.49394],[-49.28381,-28.49511],[-49.28567,-28.49581],[-49.28611,-28.49687],[-49.28753,-28.49777],[-49.288,-28.49924],[-49.28795,-28.50162],[-49.28834,-28.50223],[-49.28937,-28.5022],[-49.29026,-28.50384],[-49.28995,-28.50454],[-49.28872,-28.50511],[-49.28918,-28.50638],[-49.28859,-28.50748],[-49.28783,-28.50705],[-49.28705,-28.5096],[-49.28691,-28.51166],[-49.28646,-28.51384],[-49.28559,-28.51494],[-49.28164,-28.51502],[-49.28026,-28.51582],[-49.27994,-28.51655],[-49.28032,-28.51765],[-49.27976,-28.51893],[-49.27823,-28.52018],[-49.27028,-28.52791],[-49.27078,-28.52828],[-49.26641,-28.53273],[-49.26421,-28.53074],[-49.26077,-28.53455],[-49.25687,-28.53282],[-49.25148,-28.53646],[-49.25324,-28.53869],[-49.25373,-28.5406],[-49.25158,-28.54362],[-49.25167,-28.54428],[-49.25284,-28.54591],[-49.2562,-28.54868],[-49.2562,-28.55096],[-49.25665,-28.55321],[-49.25579,-28.55479],[-49.25411,-28.55459],[-49.25253,-28.5556],[-49.2512,-28.55776],[-49.25121,-28.55945],[-49.25079,-28.56042],[-49.25124,-28.56101],[-49.25108,-28.5628],[-49.25012,-28.56335],[-49.25013,-28.56674],[-49.24985,-28.5673],[-49.25888,-28.57342],[-49.25866,-28.57543],[-49.25967,-28.57653],[-49.2597,-28.57753],[-49.26053,-28.57809],[-49.25982,-28.5799],[-49.25818,-28.57991],[-49.25881,-28.58085],[-49.25839,-28.58164],[-49.25737,-28.58181],[-49.25646,-28.5841],[-49.25449,-28.58438],[-49.25384,-28.58591],[-49.25302,-28.58636],[-49.25258,-28.58762],[-49.25291,-28.58869],[-49.25185,-28.58841],[-49.25099,-28.58985],[-49.25085,-28.59095],[-49.24846,-28.59074],[-49.24624,-28.58975],[-49.24531,-28.5906]]]},"properties":{"codigo":"421240310","name":"Azambuja","population":1206,"households":547,"areaKm2":76.7339,"density":15.7}}]}