{"type":"FeatureCollection","features":[{"type":"Feature","geometry":{"type":"Polygon","coordinates":[[[-49.64886,-27.06387],[-49.65004,-27.06445],[-49.65056,-27.06496],[-49.65152,-27.06551],[-49.65186,-27.06601],[-49.65272,-27.066],[-49.65295,-27.06543],[-49.65252,-27.06473],[-49.65286,-27.0639],[-49.65334,-27.0634],[-49.65465,-27.0632],[-49.65502,-27.06331],[-49.65898,-27.06364],[-49.65851,-27.06499],[-49.65778,-27.06577],[-49.65698,-27.06626],[-49.65614,-27.06642],[-49.65574,-27.06777],[-49.65538,-27.06858],[-49.65669,-27.06892],[-49.65769,-27.06966],[-49.65716,-27.07075],[-49.65663,-27.07067],[-49.65614,-27.07013],[-49.65511,-27.07012],[-49.65454,-27.06982],[-49.65429,-27.06908],[-49.65378,-27.06913],[-49.65381,-27.07458],[-49.6523,-27.07313],[-49.65103,-27.07307],[-49.65138,-27.07379],[-49.6512,-27.07433],[-49.65127,-27.07515],[-49.65077,-27.07686],[-49.64941,-27.07684],[-49.64975,-27.07569],[-49.6491,-27.07455],[-49.64894,-27.07375],[-49.64921,-27.07141],[-49.64593,-27.07142],[-49.64429,-27.07152],[-49.6464,-27.06949],[-49.64934,-27.06682],[-49.6468,-27.06528],[-49.64365,-27.06808],[-49.6423,-27.0668],[-49.64509,-27.06425],[-49.64156,-27.06212],[-49.63942,-27.06147],[-49.63793,-27.06302],[-49.63733,-27.0625],[-49.63877,-27.06119],[-49.63692,-27.06046],[-49.63753,-27.05975],[-49.63767,-27.05891],[-49.63822,-27.05824],[-49.63808,-27.05699],[-49.63948,-27.05744],[-49.64069,-27.05818],[-49.64137,-27.05842],[-49.64214,-27.05895],[-49.64308,-27.05988],[-49.64371,-27.06073],[-49.64516,-27.06132],[-49.64665,-27.06242],[-49.64713,-27.06256],[-49.64759,-27.06313],[-49.64886,-27.06387]]]},"properties":{"codigo":"4214003002","name":"Rio Ferro","population":1739,"households":674,"areaKm2":1.381,"density":1259.2}},{"type":"Feature","geometry":{"type":"Polygon","coordinates":[[[-49.63692,-27.06046],[-49.63602,-27.06008],[-49.63288,-27.0629],[-49.63023,-27.06518],[-49.62894,-27.0662],[-49.62777,-27.06502],[-49.62636,-27.0663],[-49.62513,-27.06525],[-49.63263,-27.05858],[-49.62967,-27.05683],[-49.62864,-27.05782],[-49.62799,-27.05715],[-49.62886,-27.05633],[-49.62753,-27.05544],[-49.62328,-27.05912],[-49.62201,-27.058],[-49.61908,-27.05526],[-49.61791,-27.05417],[-49.61901,-27.05302],[-49.61947,-27.05222],[-49.61911,-27.05192],[-49.61784,-27.05141],[-49.61764,-27.0516],[-49.61624,-27.0516],[-49.61624,-27.05023],[-49.61582,-27.04932],[-49.61626,-27.04768],[-49.6163,-27.04698],[-49.61306,-27.04704],[-49.61312,-27.04373],[-49.6119,-27.04373],[-49.61187,-27.04524],[-49.61095,-27.04526],[-49.611,-27.04245],[-49.61076,-27.04148],[-49.61045,-27.04126],[-49.61056,-27.03776],[-49.61369,-27.03824],[-49.61546,-27.03839],[-49.61656,-27.03818],[-49.61946,-27.03747],[-49.62078,-27.03689],[-49.62299,-27.03791],[-49.62317,-27.03809],[-49.62257,-27.03951],[-49.62256,-27.04044],[-49.6228,-27.04077],[-49.62374,-27.04125],[-49.62372,-27.04225],[-49.6239,-27.04374],[-49.62366,-27.04494],[-49.62428,-27.04542],[-49.625,-27.04572],[-49.62568,-27.04636],[-49.6273,-27.04833],[-49.62794,-27.04925],[-49.62894,-27.04994],[-49.62963,-27.0506],[-49.62998,-27.05116],[-49.63065,-27.0514],[-49.63123,-27.05212],[-49.63203,-27.05441],[-49.63239,-27.05512],[-49.63274,-27.05627],[-49.63358,-27.05672],[-49.63475,-27.05679],[-49.63739,-27.05679],[-49.63808,-27.05699],[-49.63822,-27.05824],[-49.63767,-27.05891],[-49.63753,-27.05975],[-49.63692,-27.06046]]]},"properties":{"codigo":"4214003001","name":"Centro","population":5827,"households":2321,"areaKm2":3.203,"density":1819.2}},{"type":"Feature","geometry":{"type":"Polygon","coordinates":[[[-49.58956,-27.04704],[-49.59165,-27.04668],[-49.59239,-27.0462],[-49.59332,-27.04522],[-49.59431,-27.04378],[-49.59525,-27.04125],[-49.5957,-27.04082],[-49.59865,-27.0398],[-49.59985,-27.03891],[-49.6011,-27.03826],[-49.60207,-27.03813],[-49.60345,-27.03764],[-49.60438,-27.03761],[-49.6052,-27.03784],[-49.60581,-27.03769],[-49.60653,-27.03696],[-49.60698,-27.03674],[-49.60884,-27.03645],[-49.60976,-27.03696],[-49.61018,-27.03759],[-49.61056,-27.03776],[-49.61045,-27.04126],[-49.61076,-27.04148],[-49.611,-27.04245],[-49.61095,-27.04526],[-49.61,-27.04525],[-49.61001,-27.04399],[-49.60778,-27.04396],[-49.60625,-27.04379],[-49.60622,-27.04638],[-49.60539,-27.04637],[-49.60541,-27.045],[-49.60121,-27.04498],[-49.60116,-27.04753],[-49.5985,-27.04743],[-49.59863,-27.05222],[-49.59671,-27.05222],[-49.59663,-27.04916],[-49.59372,-27.04924],[-49.59371,-27.04696],[-49.59297,-27.0476],[-49.59228,-27.04796],[-49.58973,-27.04896],[-49.58923,-27.04908],[-49.58956,-27.04704]]]},"properties":{"codigo":"4214003008","name":"Primavera","population":1797,"households":703,"areaKm2":1.5874,"density":1132}},{"type":"Feature","geometry":{"type":"Polygon","coordinates":[[[-49.59467,-27.03258],[-49.59608,-27.03265],[-49.60333,-27.03274],[-49.60331,-27.03403],[-49.60236,-27.03403],[-49.60232,-27.03674],[-49.60352,-27.03628],[-49.60443,-27.03617],[-49.60533,-27.03634],[-49.6059,-27.03585],[-49.60734,-27.03497],[-49.60824,-27.03475],[-49.6094,-27.035],[-49.6094,-27.03399],[-49.61138,-27.03401],[-49.6114,-27.033],[-49.61352,-27.03301],[-49.61351,-27.0342],[-49.61448,-27.03408],[-49.6159,-27.03361],[-49.61761,-27.03322],[-49.61875,-27.0331],[-49.6198,-27.03321],[-49.62115,-27.03365],[-49.62229,-27.03366],[-49.62309,-27.03511],[-49.62317,-27.03809],[-49.62299,-27.03791],[-49.62078,-27.03689],[-49.61946,-27.03747],[-49.61656,-27.03818],[-49.61546,-27.03839],[-49.61369,-27.03824],[-49.61056,-27.03776],[-49.61018,-27.03759],[-49.60976,-27.03696],[-49.60884,-27.03645],[-49.60698,-27.03674],[-49.60653,-27.03696],[-49.60581,-27.03769],[-49.6052,-27.03784],[-49.60438,-27.03761],[-49.60345,-27.03764],[-49.60207,-27.03813],[-49.6011,-27.03826],[-49.59985,-27.03891],[-49.59865,-27.0398],[-49.5957,-27.04082],[-49.59525,-27.04125],[-49.59431,-27.04378],[-49.59332,-27.04522],[-49.59239,-27.0462],[-49.59165,-27.04668],[-49.58956,-27.04704],[-49.58981,-27.04676],[-49.59079,-27.04494],[-49.59175,-27.04375],[-49.59214,-27.04309],[-49.59257,-27.04167],[-49.59333,-27.0405],[-49.59392,-27.03823],[-49.59458,-27.03673],[-49.59473,-27.03588],[-49.59467,-27.03258]]]},"properties":{"codigo":"4214003004","name":"Pinheiro","population":1923,"households":699,"areaKm2":1.555,"density":1236.7}},{"type":"Feature","geometry":{"type":"Polygon","coordinates":[[[-49.63808,-27.05699],[-49.63739,-27.05679],[-49.63475,-27.05679],[-49.63358,-27.05672],[-49.63274,-27.05627],[-49.63239,-27.05512],[-49.63203,-27.05441],[-49.63123,-27.05212],[-49.63065,-27.0514],[-49.62998,-27.05116],[-49.62963,-27.0506],[-49.62894,-27.04994],[-49.62794,-27.04925],[-49.6273,-27.04833],[-49.62568,-27.04636],[-49.625,-27.04572],[-49.62428,-27.04542],[-49.62441,-27.04507],[-49.62419,-27.04383],[-49.62425,-27.04219],[-49.62449,-27.04185],[-49.62633,-27.04173],[-49.62703,-27.04156],[-49.62748,-27.04219],[-49.62778,-27.0426],[-49.62571,-27.04388],[-49.62519,-27.04438],[-49.62715,-27.04522],[-49.62814,-27.04584],[-49.62945,-27.04718],[-49.63036,-27.04845],[-49.63155,-27.04727],[-49.63169,-27.05031],[-49.63275,-27.05159],[-49.63302,-27.05209],[-49.6339,-27.0531],[-49.63408,-27.05392],[-49.63392,-27.05444],[-49.63574,-27.05536],[-49.63701,-27.05514],[-49.63883,-27.05533],[-49.64025,-27.05582],[-49.64095,-27.05667],[-49.64282,-27.05752],[-49.64411,-27.05863],[-49.64454,-27.05914],[-49.64565,-27.06008],[-49.64613,-27.06004],[-49.64687,-27.06036],[-49.64714,-27.06087],[-49.64809,-27.06122],[-49.649,-27.06199],[-49.64958,-27.06265],[-49.64886,-27.06387],[-49.64759,-27.06313],[-49.64713,-27.06256],[-49.64665,-27.06242],[-49.64516,-27.06132],[-49.64371,-27.06073],[-49.64308,-27.05988],[-49.64214,-27.05895],[-49.64137,-27.05842],[-49.64069,-27.05818],[-49.63948,-27.05744],[-49.63808,-27.05699]]]},"properties":{"codigo":"4214003006","name":"Índio Esquerdo","population":1046,"households":370,"areaKm2":0.7253,"density":1442.1}},{"type":"Feature","geometry":{"type":"Polygon","coordinates":[[[-49.61908,-27.05526],[-49.61673,-27.05731],[-49.61604,-27.05664],[-49.61423,-27.05825],[-49.61654,-27.06037],[-49.61479,-27.06203],[-49.61281,-27.06019],[-49.61244,-27.06077],[-49.6132,-27.0615],[-49.61291,-27.06183],[-49.616,-27.06463],[-49.6146,-27.06602],[-49.61081,-27.06252],[-49.60997,-27.06331],[-49.60886,-27.06412],[-49.61273,-27.06747],[-49.61206,-27.06823],[-49.60825,-27.06496],[-49.60779,-27.06563],[-49.60671,-27.06657],[-49.60601,-27.06693],[-49.60521,-27.06614],[-49.60624,-27.06525],[-49.60637,-27.06413],[-49.60703,-27.0635],[-49.60775,-27.06308],[-49.60777,-27.06248],[-49.60814,-27.06205],[-49.60888,-27.06205],[-49.60947,-27.06151],[-49.60973,-27.06175],[-49.61046,-27.06087],[-49.61042,-27.06004],[-49.61111,-27.05985],[-49.6113,-27.05937],[-49.61106,-27.05895],[-49.61177,-27.05862],[-49.61206,-27.05802],[-49.61276,-27.05783],[-49.61294,-27.05696],[-49.61422,-27.05638],[-49.61545,-27.05513],[-49.61364,-27.05456],[-49.61407,-27.05386],[-49.61602,-27.05451],[-49.61658,-27.054],[-49.61654,-27.05347],[-49.61685,-27.05184],[-49.61738,-27.05168],[-49.61758,-27.05177],[-49.61784,-27.05141],[-49.61911,-27.05192],[-49.61947,-27.05222],[-49.61901,-27.05302],[-49.61791,-27.05417],[-49.61908,-27.05526]]]},"properties":{"codigo":"4214003005","name":"Revólver","population":1397,"households":538,"areaKm2":0.6723,"density":2077.8}},{"type":"Feature","geometry":{"type":"Polygon","coordinates":[[[-49.62317,-27.03809],[-49.62309,-27.03511],[-49.62229,-27.03366],[-49.62458,-27.03404],[-49.62528,-27.03431],[-49.62601,-27.03421],[-49.62629,-27.03373],[-49.62763,-27.03486],[-49.62762,-27.03542],[-49.62803,-27.03634],[-49.62756,-27.03718],[-49.62792,-27.03797],[-49.62756,-27.039],[-49.62727,-27.03925],[-49.62647,-27.03908],[-49.62601,-27.03947],[-49.62638,-27.03994],[-49.62647,-27.04052],[-49.62618,-27.04128],[-49.62583,-27.04147],[-49.62374,-27.04125],[-49.6228,-27.04077],[-49.62256,-27.04044],[-49.62257,-27.03951],[-49.62317,-27.03809]]]},"properties":{"codigo":"4214003007","name":"Pinheiro Alto","population":357,"households":131,"areaKm2":0.3491,"density":1022.7}},{"type":"Feature","geometry":{"type":"Polygon","coordinates":[[[-49.62374,-27.04125],[-49.62583,-27.04147],[-49.62618,-27.04128],[-49.62647,-27.04052],[-49.62638,-27.03994],[-49.62601,-27.03947],[-49.62647,-27.03908],[-49.62727,-27.03925],[-49.62756,-27.039],[-49.62792,-27.03797],[-49.62756,-27.03718],[-49.62803,-27.03634],[-49.62762,-27.03542],[-49.62763,-27.03486],[-49.62842,-27.03384],[-49.62954,-27.03305],[-49.63096,-27.03311],[-49.63159,-27.03355],[-49.63208,-27.03445],[-49.63255,-27.03486],[-49.63319,-27.03454],[-49.63355,-27.03514],[-49.63437,-27.03526],[-49.63513,-27.0342],[-49.63422,-27.03436],[-49.63393,-27.03416],[-49.63361,-27.03289],[-49.6342,-27.03216],[-49.63467,-27.03125],[-49.63403,-27.0307],[-49.63372,-27.03019],[-49.63427,-27.02985],[-49.63457,-27.0287],[-49.63505,-27.02835],[-49.63593,-27.02819],[-49.63687,-27.02748],[-49.63772,-27.0265],[-49.63741,-27.02582],[-49.63685,-27.02553],[-49.63654,-27.02471],[-49.6357,-27.02387],[-49.63542,-27.02334],[-49.63564,-27.02305],[-49.6373,-27.02297],[-49.638,-27.02243],[-49.63913,-27.02208],[-49.63945,-27.02177],[-49.64061,-27.0215],[-49.64183,-27.02063],[-49.64182,-27.01987],[-49.64131,-27.01928],[-49.64215,-27.01883],[-49.64333,-27.01851],[-49.64347,-27.01827],[-49.64292,-27.01753],[-49.64352,-27.0156],[-49.64368,-27.01541],[-49.64464,-27.01564],[-49.64548,-27.01637],[-49.64506,-27.01801],[-49.64456,-27.01907],[-49.64339,-27.02089],[-49.64266,-27.02168],[-49.64087,-27.02309],[-49.63876,-27.02501],[-49.63898,-27.0267],[-49.63844,-27.02817],[-49.64088,-27.03042],[-49.64026,-27.03124],[-49.63804,-27.03514],[-49.64138,-27.03815],[-49.64106,-27.03846],[-49.63662,-27.03449],[-49.63614,-27.03502],[-49.63436,-27.03746],[-49.63342,-27.03818],[-49.63283,-27.0383],[-49.63161,-27.03814],[-49.63142,-27.03832],[-49.6331,-27.03976],[-49.63265,-27.04017],[-49.63109,-27.03875],[-49.63006,-27.03965],[-49.62841,-27.04137],[-49.62748,-27.04219],[-49.62703,-27.04156],[-49.62633,-27.04173],[-49.62449,-27.04185],[-49.62425,-27.04219],[-49.62419,-27.04383],[-49.62441,-27.04507],[-49.62428,-27.04542],[-49.62366,-27.04494],[-49.6239,-27.04374],[-49.62372,-27.04225],[-49.62374,-27.04125]]]},"properties":{"codigo":"4214003003","name":"Niterói","population":1299,"households":486,"areaKm2":1.2481,"density":1040.8}}]}