{"type":"FeatureCollection","features":[{"type":"Feature","geometry":{"type":"Polygon","coordinates":[[[-48.92155,-28.23499],[-48.92012,-28.23537],[-48.91787,-28.23674],[-48.91568,-28.23638],[-48.91461,-28.23587],[-48.91268,-28.23576],[-48.9097,-28.23455],[-48.9108,-28.23364],[-48.91117,-28.23274],[-48.90994,-28.2299],[-48.90905,-28.2289],[-48.90883,-28.22799],[-48.91044,-28.22696],[-48.91077,-28.22589],[-48.90985,-28.22295],[-48.909,-28.22211],[-48.9095,-28.22018],[-48.91157,-28.21784],[-48.91145,-28.21589],[-48.93863,-28.17508],[-48.92617,-28.14124],[-48.92681,-28.13976],[-48.92586,-28.13932],[-48.92568,-28.13785],[-48.92593,-28.13583],[-48.92574,-28.13464],[-48.92512,-28.13346],[-48.92398,-28.13222],[-48.92378,-28.13141],[-48.92529,-28.13049],[-48.9269,-28.12909],[-48.92823,-28.12657],[-48.9306,-28.12523],[-48.93182,-28.12224],[-48.93302,-28.12098],[-48.93368,-28.11962],[-48.93518,-28.11336],[-48.9349,-28.11152],[-48.93366,-28.10985],[-48.9325,-28.10922],[-48.93241,-28.10842],[-48.93572,-28.10762],[-48.93627,-28.10692],[-48.93364,-28.09981],[-48.92892,-28.091],[-48.92812,-28.08821],[-48.92819,-28.08457],[-48.92857,-28.08142],[-48.92937,-28.07864],[-48.9328,-28.07224],[-48.93677,-28.07286],[-48.93709,-28.07677],[-48.93758,-28.07901],[-48.93824,-28.08023],[-48.94059,-28.08138],[-48.94218,-28.08319],[-48.94185,-28.08574],[-48.94083,-28.08613],[-48.93883,-28.08745],[-48.93757,-28.0887],[-48.9373,-28.09015],[-48.93888,-28.09114],[-48.94106,-28.09047],[-48.94213,-28.0896],[-48.94319,-28.08986],[-48.94439,-28.09099],[-48.94502,-28.09323],[-48.94664,-28.09674],[-48.94773,-28.09736],[-48.94922,-28.09617],[-48.951,-28.09633],[-48.95168,-28.09802],[-48.94972,-28.10584],[-48.94981,-28.10739],[-48.95074,-28.10801],[-48.95347,-28.10842],[-48.95607,-28.10742],[-48.95761,-28.10716],[-48.95909,-28.10794],[-48.96157,-28.10801],[-48.96449,-28.10834],[-48.9669,-28.10787],[-48.96788,-28.10823],[-48.96952,-28.10814],[-48.97033,-28.10702],[-48.97113,-28.10472],[-48.97162,-28.10168],[-48.97034,-28.10179],[-48.96924,-28.10124],[-48.96945,-28.10024],[-48.96904,-28.09861],[-48.97032,-28.098],[-48.9696,-28.09687],[-48.9711,-28.0956],[-48.97073,-28.09494],[-48.97143,-28.09278],[-48.97224,-28.09184],[-48.9711,-28.09127],[-48.97013,-28.09026],[-48.97082,-28.08935],[-48.97101,-28.08812],[-48.97165,-28.08774],[-48.97212,-28.08532],[-48.96946,-28.08379],[-48.96755,-28.08437],[-48.96774,-28.08351],[-48.96876,-28.08223],[-48.96988,-28.08198],[-48.97148,-28.08217],[-48.97401,-28.08102],[-48.9748,-28.07885],[-48.97649,-28.07762],[-48.97767,-28.07709],[-48.97859,-28.07771],[-48.97991,-28.07691],[-48.97947,-28.07569],[-48.98048,-28.07497],[-48.9817,-28.0749],[-48.98212,-28.07561],[-48.98338,-28.07637],[-48.984,-28.07594],[-48.9845,-28.07417],[-48.98533,-28.0734],[-48.98792,-28.07205],[-48.98829,-28.06976],[-48.98913,-28.06846],[-48.99234,-28.06838],[-48.99263,-28.06692],[-48.99357,-28.06635],[-48.99515,-28.06655],[-48.99764,-28.06516],[-48.99815,-28.06236],[-48.99976,-28.06166],[-49.00173,-28.06007],[-49.00215,-28.06072],[-49.00317,-28.05989],[-49.00385,-28.05858],[-49.00391,-28.05736],[-49.00442,-28.05683],[-49.00412,-28.05564],[-49.00552,-28.05433],[-49.00719,-28.05357],[-49.00806,-28.05383],[-49.01003,-28.05333],[-49.01182,-28.05485],[-49.01269,-28.05299],[-49.01506,-28.05147],[-49.01567,-28.0506],[-49.01747,-28.05032],[-49.02055,-28.04832],[-49.02184,-28.04867],[-49.0229,-28.04821],[-49.02221,-28.04615],[-49.02091,-28.0451],[-49.02221,-28.04248],[-49.02483,-28.04085],[-49.02548,-28.03998],[-49.02753,-28.04012],[-49.02977,-28.03985],[-49.0309,-28.03945],[-49.03115,-28.03807],[-49.03235,-28.03609],[-49.03325,-28.0353],[-49.03482,-28.03469],[-49.03442,-28.03222],[-49.03599,-28.03051],[-49.03661,-28.02924],[-49.03705,-28.02734],[-49.03662,-28.02637],[-49.03706,-28.0254],[-49.03809,-28.02443],[-49.03858,-28.02276],[-49.03871,-28.01992],[-49.03743,-28.0159],[-49.03534,-28.01521],[-49.03496,-28.01361],[-49.03583,-28.01325],[-49.03602,-28.01221],[-49.03544,-28.01054],[-49.03587,-28.00993],[-49.03781,-28.00858],[-49.03752,-28.00674],[-49.03852,-28.00637],[-49.04027,-28.00691],[-49.04098,-28.00665],[-49.04066,-28.00487],[-49.04216,-28.00517],[-49.04286,-28.0038],[-49.04431,-28.00372],[-49.04448,-28.00192],[-49.04483,-28.00134],[-49.04486,-27.99941],[-49.04389,-27.99616],[-49.04494,-27.9939],[-49.04687,-27.9937],[-49.04778,-27.99303],[-49.04866,-27.99352],[-49.04949,-27.99331],[-49.05007,-27.99249],[-49.05069,-27.99047],[-49.05201,-27.99005],[-49.05236,-27.99131],[-49.05175,-27.99295],[-49.05208,-27.99483],[-49.05089,-27.99589],[-49.04967,-27.99642],[-49.04819,-27.9977],[-49.04797,-27.9984],[-49.04855,-28.00032],[-49.04762,-28.00093],[-49.04751,-28.00166],[-49.0481,-28.00274],[-49.04804,-28.00403],[-49.04931,-28.00532],[-49.04927,-28.00608],[-49.04792,-28.00743],[-49.04757,-28.00831],[-49.04626,-28.0091],[-49.04576,-28.0106],[-49.04477,-28.01104],[-49.04462,-28.01179],[-49.04375,-28.01247],[-49.04501,-28.01393],[-49.04466,-28.01515],[-49.04363,-28.01722],[-49.04409,-28.01871],[-49.04393,-28.01939],[-49.04592,-28.02162],[-49.04667,-28.02351],[-49.04691,-28.02567],[-49.04633,-28.02807],[-49.04702,-28.02905],[-49.04863,-28.02927],[-49.05011,-28.02982],[-49.05101,-28.031],[-49.05096,-28.03164],[-49.05192,-28.0329],[-49.05244,-28.03458],[-49.05383,-28.03511],[-49.05421,-28.0347],[-49.05572,-28.03484],[-49.05718,-28.03329],[-49.05969,-28.03411],[-49.06093,-28.0359],[-49.06196,-28.03859],[-49.0635,-28.04116],[-49.06165,-28.04203],[-49.06032,-28.04154],[-49.05847,-28.04379],[-49.05706,-28.045],[-49.05663,-28.04659],[-49.058,-28.04655],[-49.05877,-28.04746],[-49.05852,-28.04905],[-49.05877,-28.05015],[-49.05712,-28.0503],[-49.05666,-28.05123],[-49.05713,-28.05233],[-49.05647,-28.05259],[-49.05574,-28.0537],[-49.05641,-28.05577],[-49.05619,-28.05714],[-49.05818,-28.05901],[-49.06257,-28.06044],[-49.06261,-28.06224],[-49.06208,-28.0641],[-49.06248,-28.06546],[-49.06318,-28.06528],[-49.06451,-28.06619],[-49.06508,-28.06716],[-49.06482,-28.06825],[-49.06404,-28.06926],[-49.06438,-28.0701],[-49.06421,-28.07181],[-49.0628,-28.07513],[-49.06368,-28.07708],[-49.06297,-28.07902],[-49.0636,-28.08241],[-49.06336,-28.08331],[-49.06351,-28.08618],[-49.06451,-28.08742],[-49.06359,-28.08871],[-49.0615,-28.08917],[-49.06043,-28.0902],[-49.06097,-28.09055],[-49.06181,-28.09245],[-49.06249,-28.09568],[-49.06367,-28.09689],[-49.06405,-28.09787],[-49.06277,-28.10013],[-49.06349,-28.10284],[-49.06286,-28.10334],[-49.06237,-28.10502],[-49.06346,-28.10565],[-49.06342,-28.10663],[-49.06528,-28.10825],[-49.06517,-28.10962],[-49.0659,-28.11161],[-49.06441,-28.11143],[-49.06344,-28.11239],[-49.064,-28.11447],[-49.06403,-28.11557],[-49.06256,-28.11772],[-49.06142,-28.1181],[-49.0588,-28.11956],[-49.05879,-28.12071],[-49.05796,-28.12252],[-49.05773,-28.12463],[-49.05682,-28.12593],[-49.05853,-28.12679],[-49.05728,-28.12813],[-49.05671,-28.13023],[-49.0569,-28.13147],[-49.0561,-28.13192],[-49.05703,-28.13438],[-49.05549,-28.13589],[-49.05536,-28.1386],[-49.05418,-28.14015],[-49.05312,-28.1408],[-49.05245,-28.14178],[-49.05252,-28.14266],[-49.05163,-28.14327],[-49.05057,-28.14303],[-49.04651,-28.14419],[-49.04573,-28.14501],[-49.04431,-28.14553],[-49.04411,-28.1465],[-49.04315,-28.14635],[-49.04253,-28.14835],[-49.04075,-28.1484],[-49.04015,-28.15056],[-49.03951,-28.15078],[-49.03781,-28.14877],[-49.03478,-28.14827],[-49.03303,-28.15034],[-49.03112,-28.15091],[-49.03033,-28.15078],[-49.02879,-28.14968],[-49.02778,-28.15058],[-49.02619,-28.15112],[-49.02474,-28.15088],[-49.02418,-28.14958],[-49.02339,-28.15014],[-49.02211,-28.14941],[-49.01985,-28.14913],[-49.01857,-28.14941],[-49.01711,-28.15128],[-49.01531,-28.15178],[-49.0143,-28.15081],[-49.0135,-28.15101],[-49.01283,-28.15257],[-49.01137,-28.15489],[-49.01102,-28.15613],[-49.01008,-28.15672],[-49.00992,-28.1587],[-49.01024,-28.15941],[-49.01205,-28.15964],[-49.01274,-28.1604],[-49.01235,-28.16154],[-49.01284,-28.16378],[-49.01142,-28.16442],[-49.0096,-28.16327],[-49.00917,-28.16437],[-49.00777,-28.1642],[-49.00774,-28.16583],[-49.00589,-28.16531],[-49.0052,-28.1658],[-49.00562,-28.16717],[-49.00436,-28.16695],[-49.00317,-28.16553],[-49.00177,-28.16499],[-49.00042,-28.16531],[-48.99885,-28.16425],[-48.99767,-28.16415],[-48.99624,-28.16467],[-48.99542,-28.16711],[-48.9954,-28.16905],[-48.9967,-28.16904],[-48.99745,-28.16964],[-48.99826,-28.17238],[-48.99748,-28.17353],[-48.99535,-28.17281],[-48.99256,-28.17136],[-48.99171,-28.1721],[-48.9916,-28.17292],[-48.99003,-28.17318],[-48.98945,-28.17415],[-48.98955,-28.17493],[-48.98856,-28.17631],[-48.98758,-28.17711],[-48.98586,-28.1793],[-48.9876,-28.17965],[-48.98566,-28.18135],[-48.98417,-28.18156],[-48.98383,-28.18107],[-48.98126,-28.18111],[-48.98058,-28.18207],[-48.98021,-28.18342],[-48.98029,-28.18503],[-48.97858,-28.18655],[-48.97761,-28.18699],[-48.97659,-28.18683],[-48.97608,-28.18602],[-48.97512,-28.18569],[-48.97583,-28.18483],[-48.97594,-28.1838],[-48.97509,-28.18361],[-48.97423,-28.18177],[-48.97316,-28.18169],[-48.97306,-28.18486],[-48.97259,-28.1862],[-48.97058,-28.18776],[-48.9706,-28.18912],[-48.97134,-28.18973],[-48.97317,-28.1894],[-48.97462,-28.1906],[-48.975,-28.1918],[-48.97439,-28.19309],[-48.97421,-28.19564],[-48.97847,-28.19902],[-48.97875,-28.19969],[-48.97644,-28.20091],[-48.97256,-28.2017],[-48.97181,-28.20279],[-48.97019,-28.20417],[-48.97043,-28.20497],[-48.97539,-28.20834],[-48.97773,-28.21055],[-48.97788,-28.21189],[-48.97539,-28.21461],[-48.97413,-28.21571],[-48.9733,-28.21698],[-48.97103,-28.21883],[-48.96664,-28.22051],[-48.96402,-28.22094],[-48.96243,-28.22165],[-48.96215,-28.22379],[-48.96231,-28.22536],[-48.96291,-28.2261],[-48.96329,-28.22828],[-48.96413,-28.23037],[-48.96501,-28.2312],[-48.96688,-28.23145],[-48.96835,-28.2311],[-48.96929,-28.23129],[-48.96777,-28.23366],[-48.96655,-28.23502],[-48.96558,-28.23697],[-48.96422,-28.2378],[-48.96282,-28.23675],[-48.96076,-28.23691],[-48.95932,-28.23643],[-48.95689,-28.23767],[-48.95661,-28.23865],[-48.95511,-28.23822],[-48.9526,-28.23717],[-48.95181,-28.23734],[-48.95076,-28.23848],[-48.94809,-28.2389],[-48.94746,-28.23987],[-48.94515,-28.23992],[-48.94381,-28.23907],[-48.94198,-28.23842],[-48.94142,-28.2374],[-48.93828,-28.23742],[-48.93462,-28.23777],[-48.93394,-28.23751],[-48.93098,-28.23763],[-48.92911,-28.23741],[-48.92518,-28.23592],[-48.92408,-28.23533],[-48.92155,-28.23499]]]},"properties":{"codigo":"421710505","name":"São Martinho","population":2987,"households":1248,"areaKm2":177.5674,"density":16.8}},{"type":"Feature","geometry":{"type":"Polygon","coordinates":[[[-48.88656,-28.15187],[-48.88503,-28.15062],[-48.88358,-28.1498],[-48.8698,-28.09614],[-48.86941,-28.09555],[-48.86986,-28.09416],[-48.86988,-28.0923],[-48.87027,-28.09124],[-48.87019,-28.08978],[-48.87166,-28.08612],[-48.87204,-28.08275],[-48.87013,-28.0818],[-48.86902,-28.08036],[-48.86932,-28.07777],[-48.8684,-28.07712],[-48.86854,-28.07645],[-48.8713,-28.07705],[-48.87259,-28.0769],[-48.87259,-28.07607],[-48.8738,-28.07424],[-48.87371,-28.0729],[-48.87416,-28.07244],[-48.87563,-28.07379],[-48.87701,-28.07463],[-48.87902,-28.07445],[-48.88074,-28.07483],[-48.88184,-28.07546],[-48.88236,-28.07658],[-48.88611,-28.07935],[-48.88753,-28.08123],[-48.88866,-28.08237],[-48.89102,-28.08164],[-48.89192,-28.08054],[-48.8937,-28.08004],[-48.9017,-28.06085],[-48.93188,-28.07219],[-48.9328,-28.07224],[-48.92937,-28.07864],[-48.92857,-28.08142],[-48.92819,-28.08457],[-48.92812,-28.08821],[-48.92892,-28.091],[-48.93364,-28.09981],[-48.93627,-28.10692],[-48.93572,-28.10762],[-48.93241,-28.10842],[-48.9325,-28.10922],[-48.93366,-28.10985],[-48.9349,-28.11152],[-48.93518,-28.11336],[-48.93368,-28.11962],[-48.93302,-28.12098],[-48.93182,-28.12224],[-48.9306,-28.12523],[-48.92823,-28.12657],[-48.9269,-28.12909],[-48.92529,-28.13049],[-48.92378,-28.13141],[-48.92398,-28.13222],[-48.92512,-28.13346],[-48.92574,-28.13464],[-48.92593,-28.13583],[-48.92568,-28.13785],[-48.92586,-28.13932],[-48.92681,-28.13976],[-48.92617,-28.14124],[-48.92538,-28.1414],[-48.92402,-28.14248],[-48.9246,-28.14432],[-48.92361,-28.14495],[-48.92312,-28.14616],[-48.92217,-28.1457],[-48.92121,-28.14602],[-48.91987,-28.14318],[-48.91773,-28.14348],[-48.9165,-28.14287],[-48.91566,-28.14169],[-48.91361,-28.14258],[-48.91181,-28.14374],[-48.91137,-28.14438],[-48.90984,-28.14494],[-48.9102,-28.14587],[-48.90969,-28.14645],[-48.90971,-28.14805],[-48.90937,-28.14889],[-48.90822,-28.14919],[-48.90706,-28.14884],[-48.90663,-28.14954],[-48.90553,-28.1487],[-48.90517,-28.14957],[-48.90326,-28.14963],[-48.90276,-28.15012],[-48.90295,-28.15158],[-48.90199,-28.15314],[-48.9009,-28.15437],[-48.8999,-28.15458],[-48.89931,-28.15358],[-48.8977,-28.15384],[-48.89564,-28.15386],[-48.89435,-28.15328],[-48.89238,-28.1532],[-48.89034,-28.15283],[-48.88878,-28.15326],[-48.88656,-28.15187]]]},"properties":{"codigo":"421710510","name":"Vargem do Cedro","population":418,"households":199,"areaKm2":46.9983,"density":8.9}}]}