{"type":"FeatureCollection","features":[{"type":"Feature","geometry":{"type":"Polygon","coordinates":[[[-51.24711,-27.09782],[-51.24767,-27.09827],[-51.24779,-27.09907],[-51.2483,-27.10032],[-51.24808,-27.10114],[-51.24818,-27.10232],[-51.24799,-27.10283],[-51.24464,-27.10267],[-51.2442,-27.1025],[-51.24393,-27.10189],[-51.24386,-27.10123],[-51.24346,-27.10061],[-51.24321,-27.0995],[-51.24319,-27.09838],[-51.24263,-27.09839],[-51.2427,-27.09657],[-51.24397,-27.09702],[-51.24497,-27.09755],[-51.24711,-27.09782]]]},"properties":{"codigo":"4217907004","name":"Alto da Glória","population":1049,"households":416,"areaKm2":0.2702,"density":3882.4}},{"type":"Feature","geometry":{"type":"Polygon","coordinates":[[[-51.25483,-27.09628],[-51.25553,-27.09533],[-51.25833,-27.09297],[-51.25856,-27.09245],[-51.25839,-27.09174],[-51.25855,-27.09109],[-51.25927,-27.09059],[-51.26069,-27.0902],[-51.26224,-27.09163],[-51.26555,-27.09011],[-51.26634,-27.08999],[-51.2668,-27.09202],[-51.2623,-27.09186],[-51.26194,-27.09618],[-51.2592,-27.09621],[-51.25706,-27.09646],[-51.25483,-27.09628]]]},"properties":{"codigo":"4217907008","name":"Distrito Industrial I","population":222,"households":85,"areaKm2":0.361,"density":614.9}},{"type":"Feature","geometry":{"type":"Polygon","coordinates":[[[-51.24711,-27.09782],[-51.24819,-27.09651],[-51.24926,-27.09648],[-51.24984,-27.0972],[-51.25121,-27.09913],[-51.25126,-27.1002],[-51.25078,-27.10177],[-51.24974,-27.10379],[-51.24843,-27.10576],[-51.24796,-27.10608],[-51.24701,-27.10599],[-51.24579,-27.10609],[-51.24499,-27.10597],[-51.24289,-27.10493],[-51.24229,-27.10428],[-51.24133,-27.10355],[-51.24006,-27.10297],[-51.24037,-27.10213],[-51.2396,-27.10172],[-51.23984,-27.10136],[-51.24105,-27.10132],[-51.24233,-27.10158],[-51.24332,-27.10192],[-51.24393,-27.10189],[-51.2442,-27.1025],[-51.24464,-27.10267],[-51.24799,-27.10283],[-51.24818,-27.10232],[-51.24808,-27.10114],[-51.2483,-27.10032],[-51.24779,-27.09907],[-51.24767,-27.09827],[-51.24711,-27.09782]]]},"properties":{"codigo":"4217907002","name":"Centro","population":1018,"households":475,"areaKm2":0.493,"density":2064.8}},{"type":"Feature","geometry":{"type":"Polygon","coordinates":[[[-51.2427,-27.09657],[-51.2428,-27.09418],[-51.23768,-27.09087],[-51.24453,-27.09062],[-51.24485,-27.09105],[-51.24803,-27.09095],[-51.24849,-27.09131],[-51.24818,-27.09234],[-51.24818,-27.09394],[-51.24841,-27.0949],[-51.24926,-27.09648],[-51.24819,-27.09651],[-51.24711,-27.09782],[-51.24497,-27.09755],[-51.24397,-27.09702],[-51.2427,-27.09657]]]},"properties":{"codigo":"4217907003","name":"Sóque","population":522,"households":217,"areaKm2":0.4945,"density":1055.7}},{"type":"Feature","geometry":{"type":"Polygon","coordinates":[[[-51.23915,-27.10918],[-51.23736,-27.11038],[-51.23748,-27.11248],[-51.23764,-27.11385],[-51.2366,-27.1145],[-51.23558,-27.1165],[-51.23545,-27.11731],[-51.23562,-27.11909],[-51.23536,-27.12012],[-51.23509,-27.12029],[-51.23496,-27.12267],[-51.23194,-27.12269],[-51.23184,-27.12212],[-51.23143,-27.12182],[-51.22852,-27.11503],[-51.23059,-27.11464],[-51.22946,-27.11393],[-51.22914,-27.11277],[-51.22946,-27.11153],[-51.22978,-27.11077],[-51.23015,-27.11039],[-51.23067,-27.11043],[-51.23118,-27.11093],[-51.23151,-27.11207],[-51.23156,-27.11404],[-51.23219,-27.11387],[-51.23324,-27.11545],[-51.23361,-27.11521],[-51.23429,-27.11604],[-51.23504,-27.11563],[-51.23586,-27.11422],[-51.23653,-27.11232],[-51.23648,-27.11107],[-51.23707,-27.10976],[-51.23768,-27.10898],[-51.23765,-27.10859],[-51.23606,-27.10667],[-51.23597,-27.10537],[-51.23605,-27.10455],[-51.2369,-27.10463],[-51.2368,-27.10584],[-51.23705,-27.10675],[-51.23796,-27.10789],[-51.23915,-27.10918]]]},"properties":{"codigo":"4217907007","name":"Distrito Industrial II","population":35,"households":16,"areaKm2":0.6505,"density":53.8}},{"type":"Feature","geometry":{"type":"Polygon","coordinates":[[[-51.25706,-27.09646],[-51.25605,-27.09926],[-51.25498,-27.10202],[-51.25403,-27.10298],[-51.25465,-27.10568],[-51.25445,-27.10673],[-51.25383,-27.10786],[-51.25227,-27.10915],[-51.25048,-27.10981],[-51.24916,-27.10989],[-51.24682,-27.10933],[-51.24391,-27.1092],[-51.24297,-27.10953],[-51.24075,-27.10958],[-51.23915,-27.10918],[-51.23796,-27.10789],[-51.23705,-27.10675],[-51.2368,-27.10584],[-51.2369,-27.10463],[-51.23726,-27.10372],[-51.2381,-27.10298],[-51.23902,-27.10283],[-51.24006,-27.10297],[-51.24133,-27.10355],[-51.24229,-27.10428],[-51.24289,-27.10493],[-51.24499,-27.10597],[-51.24579,-27.10609],[-51.24701,-27.10599],[-51.24796,-27.10608],[-51.24843,-27.10576],[-51.24974,-27.10379],[-51.25078,-27.10177],[-51.25126,-27.1002],[-51.25121,-27.09913],[-51.24984,-27.0972],[-51.25108,-27.09724],[-51.25169,-27.0961],[-51.25483,-27.09628],[-51.25706,-27.09646]]]},"properties":{"codigo":"4217907006","name":"Sopasta","population":762,"households":334,"areaKm2":1.3234,"density":575.8}},{"type":"Feature","geometry":{"type":"Polygon","coordinates":[[[-51.24393,-27.10189],[-51.24332,-27.10192],[-51.24233,-27.10158],[-51.24105,-27.10132],[-51.24035,-27.10081],[-51.23703,-27.1],[-51.23644,-27.10007],[-51.23534,-27.09982],[-51.23768,-27.09087],[-51.2428,-27.09418],[-51.2427,-27.09657],[-51.24263,-27.09839],[-51.24319,-27.09838],[-51.24321,-27.0995],[-51.24346,-27.10061],[-51.24386,-27.10123],[-51.24393,-27.10189]]]},"properties":{"codigo":"4217907005","name":"Bela Vista","population":741,"households":300,"areaKm2":0.6071,"density":1220.6}},{"type":"Feature","geometry":{"type":"Polygon","coordinates":[[[-51.24006,-27.10297],[-51.23902,-27.10283],[-51.2381,-27.10298],[-51.23726,-27.10372],[-51.2369,-27.10463],[-51.23605,-27.10455],[-51.23413,-27.10403],[-51.2344,-27.10311],[-51.23342,-27.10297],[-51.23088,-27.10306],[-51.23066,-27.10516],[-51.22858,-27.10443],[-51.2291,-27.09611],[-51.23044,-27.09695],[-51.23099,-27.09752],[-51.23202,-27.09827],[-51.23248,-27.09922],[-51.23323,-27.09996],[-51.23443,-27.10067],[-51.2349,-27.10069],[-51.23534,-27.09982],[-51.23644,-27.10007],[-51.23703,-27.1],[-51.24035,-27.10081],[-51.24105,-27.10132],[-51.23984,-27.10136],[-51.2396,-27.10172],[-51.24037,-27.10213],[-51.24006,-27.10297]]]},"properties":{"codigo":"4217907001","name":"Laje Grande","population":513,"households":227,"areaKm2":0.5543,"density":925.5}}]}