{"type":"FeatureCollection","features":[{"type":"Feature","geometry":{"type":"Polygon","coordinates":[[[-49.79649,-27.31739],[-49.79569,-27.31753],[-49.79357,-27.31822],[-49.79344,-27.31775],[-49.79194,-27.31778],[-49.79212,-27.31602],[-49.79167,-27.31601],[-49.79163,-27.31534],[-49.79231,-27.31528],[-49.7928,-27.31498],[-49.7927,-27.3139],[-49.78976,-27.31418],[-49.7895,-27.31343],[-49.78849,-27.31361],[-49.78835,-27.31311],[-49.78929,-27.31278],[-49.78934,-27.31179],[-49.79019,-27.31177],[-49.79016,-27.30953],[-49.79063,-27.30954],[-49.79064,-27.30793],[-49.79233,-27.30792],[-49.79233,-27.3073],[-49.79374,-27.3073],[-49.79459,-27.30692],[-49.79672,-27.30747],[-49.7973,-27.30863],[-49.79856,-27.30948],[-49.79925,-27.31048],[-49.79915,-27.31077],[-49.7974,-27.31147],[-49.79683,-27.31179],[-49.79673,-27.31252],[-49.79709,-27.31326],[-49.79727,-27.31418],[-49.79639,-27.31552],[-49.79663,-27.31651],[-49.79649,-27.31739]]]},"properties":{"codigo":"4218608004","name":"Vila Nova","population":1258,"households":556,"areaKm2":0.7414,"density":1696.7}},{"type":"Feature","geometry":{"type":"Polygon","coordinates":[[[-49.79459,-27.30692],[-49.79419,-27.30644],[-49.79463,-27.30476],[-49.7945,-27.30446],[-49.79276,-27.30257],[-49.7927,-27.30016],[-49.79242,-27.29954],[-49.79319,-27.30001],[-49.79394,-27.30103],[-49.79498,-27.30132],[-49.79606,-27.30053],[-49.79704,-27.30028],[-49.79739,-27.30068],[-49.79715,-27.30116],[-49.79716,-27.30207],[-49.79736,-27.3035],[-49.79796,-27.30449],[-49.79837,-27.30394],[-49.79878,-27.3029],[-49.79953,-27.30204],[-49.79892,-27.30142],[-49.79919,-27.3011],[-49.80036,-27.30142],[-49.80074,-27.30137],[-49.80119,-27.30065],[-49.80152,-27.30051],[-49.80224,-27.3006],[-49.80325,-27.30039],[-49.80332,-27.30402],[-49.80329,-27.30528],[-49.80164,-27.30532],[-49.80169,-27.30818],[-49.79919,-27.30824],[-49.79935,-27.30919],[-49.79856,-27.30948],[-49.7973,-27.30863],[-49.79672,-27.30747],[-49.79459,-27.30692]]]},"properties":{"codigo":"4218608007","name":"Cidade Alta","population":468,"households":202,"areaKm2":0.6542,"density":715.4}},{"type":"Feature","geometry":{"type":"Polygon","coordinates":[[[-49.79064,-27.30793],[-49.79062,-27.30699],[-49.78892,-27.307],[-49.78904,-27.30131],[-49.78773,-27.30098],[-49.78615,-27.30027],[-49.78547,-27.29975],[-49.7845,-27.29843],[-49.78318,-27.29683],[-49.78199,-27.29634],[-49.78162,-27.29675],[-49.78168,-27.29736],[-49.77986,-27.29668],[-49.78057,-27.29511],[-49.78009,-27.29434],[-49.7796,-27.29297],[-49.77932,-27.29144],[-49.77846,-27.29215],[-49.77729,-27.29263],[-49.77655,-27.29281],[-49.77536,-27.29332],[-49.77425,-27.29349],[-49.77323,-27.29338],[-49.77163,-27.29303],[-49.77049,-27.29239],[-49.76816,-27.29186],[-49.7664,-27.29182],[-49.76581,-27.29162],[-49.76474,-27.29096],[-49.76302,-27.28885],[-49.76239,-27.28678],[-49.76301,-27.28569],[-49.76356,-27.2854],[-49.76436,-27.28527],[-49.76507,-27.28539],[-49.76547,-27.28577],[-49.76503,-27.28646],[-49.7643,-27.28718],[-49.76425,-27.2875],[-49.76481,-27.28819],[-49.76625,-27.28964],[-49.76721,-27.28993],[-49.76866,-27.28894],[-49.76975,-27.28936],[-49.77058,-27.29006],[-49.77191,-27.29087],[-49.77362,-27.29143],[-49.77436,-27.29134],[-49.77521,-27.29101],[-49.77635,-27.29101],[-49.77759,-27.29069],[-49.77827,-27.28962],[-49.77832,-27.28856],[-49.77995,-27.28751],[-49.78075,-27.28681],[-49.78142,-27.28718],[-49.78147,-27.28742],[-49.78116,-27.28972],[-49.78139,-27.29049],[-49.78126,-27.29201],[-49.78184,-27.29371],[-49.78334,-27.29494],[-49.78462,-27.29557],[-49.78529,-27.29659],[-49.78627,-27.29753],[-49.78696,-27.29856],[-49.78739,-27.29884],[-49.78727,-27.29908],[-49.78821,-27.29947],[-49.78828,-27.29978],[-49.7893,-27.30007],[-49.79055,-27.30088],[-49.79138,-27.30179],[-49.79181,-27.30279],[-49.79215,-27.30423],[-49.79233,-27.3073],[-49.79233,-27.30792],[-49.79064,-27.30793]]]},"properties":{"codigo":"4218608003","name":"Estação","population":937,"households":367,"areaKm2":1.0892,"density":860.3}},{"type":"Feature","geometry":{"type":"Polygon","coordinates":[[[-49.80152,-27.30051],[-49.80133,-27.30036],[-49.80097,-27.29886],[-49.80311,-27.2986],[-49.80373,-27.29875],[-49.80477,-27.29926],[-49.80527,-27.29972],[-49.8057,-27.29929],[-49.80555,-27.2989],[-49.80666,-27.29874],[-49.80689,-27.29997],[-49.80784,-27.29874],[-49.80915,-27.29758],[-49.80946,-27.29962],[-49.80899,-27.30012],[-49.80876,-27.30079],[-49.80819,-27.30125],[-49.80804,-27.30217],[-49.80806,-27.30267],[-49.80771,-27.30314],[-49.80722,-27.30309],[-49.80597,-27.30239],[-49.80482,-27.30242],[-49.80474,-27.30174],[-49.8037,-27.30055],[-49.80325,-27.30039],[-49.80224,-27.3006],[-49.80152,-27.30051]]]},"properties":{"codigo":"4218608009","name":"Almeida","population":239,"households":100,"areaKm2":0.24,"density":995.8}},{"type":"Feature","geometry":{"type":"Polygon","coordinates":[[[-49.78142,-27.28718],[-49.78236,-27.28695],[-49.78248,-27.28593],[-49.78474,-27.28581],[-49.7849,-27.2866],[-49.7876,-27.29032],[-49.78813,-27.2926],[-49.78898,-27.29281],[-49.78966,-27.29317],[-49.78971,-27.29519],[-49.79058,-27.29519],[-49.79057,-27.29667],[-49.79198,-27.29715],[-49.79205,-27.29939],[-49.79037,-27.29895],[-49.78875,-27.29916],[-49.78739,-27.29884],[-49.78696,-27.29856],[-49.78627,-27.29753],[-49.78529,-27.29659],[-49.78462,-27.29557],[-49.78334,-27.29494],[-49.78184,-27.29371],[-49.78126,-27.29201],[-49.78139,-27.29049],[-49.78116,-27.28972],[-49.78147,-27.28742],[-49.78142,-27.28718]]]},"properties":{"codigo":"4218608002","name":"Botafogo","population":135,"households":57,"areaKm2":0.8193,"density":164.8}},{"type":"Feature","geometry":{"type":"Polygon","coordinates":[[[-49.79233,-27.3073],[-49.79215,-27.30423],[-49.79181,-27.30279],[-49.79138,-27.30179],[-49.79055,-27.30088],[-49.7893,-27.30007],[-49.78828,-27.29978],[-49.78821,-27.29947],[-49.78727,-27.29908],[-49.78739,-27.29884],[-49.78875,-27.29916],[-49.79037,-27.29895],[-49.79205,-27.29939],[-49.79242,-27.29954],[-49.7927,-27.30016],[-49.79276,-27.30257],[-49.7945,-27.30446],[-49.79463,-27.30476],[-49.79419,-27.30644],[-49.79459,-27.30692],[-49.79374,-27.3073],[-49.79233,-27.3073]]]},"properties":{"codigo":"4218608001","name":"Centro","population":233,"households":113,"areaKm2":0.1972,"density":1181.5}},{"type":"Feature","geometry":{"type":"Polygon","coordinates":[[[-49.79856,-27.30948],[-49.79935,-27.30919],[-49.79919,-27.30824],[-49.80169,-27.30818],[-49.80469,-27.30815],[-49.80831,-27.31126],[-49.80858,-27.31154],[-49.80141,-27.31154],[-49.80123,-27.31721],[-49.79977,-27.31722],[-49.79985,-27.31783],[-49.79944,-27.31859],[-49.79919,-27.31964],[-49.797,-27.31964],[-49.79653,-27.31815],[-49.79649,-27.31739],[-49.79663,-27.31651],[-49.79639,-27.31552],[-49.79727,-27.31418],[-49.79709,-27.31326],[-49.79673,-27.31252],[-49.79683,-27.31179],[-49.7974,-27.31147],[-49.79915,-27.31077],[-49.79925,-27.31048],[-49.79856,-27.30948]]]},"properties":{"codigo":"4218608006","name":"Liberdade","population":617,"households":242,"areaKm2":0.6448,"density":956.9}},{"type":"Feature","geometry":{"type":"Polygon","coordinates":[[[-49.80325,-27.30039],[-49.8037,-27.30055],[-49.80474,-27.30174],[-49.80482,-27.30242],[-49.80597,-27.30239],[-49.80722,-27.30309],[-49.80771,-27.30314],[-49.80806,-27.30267],[-49.80804,-27.30217],[-49.80981,-27.30186],[-49.8113,-27.30197],[-49.81277,-27.30053],[-49.81422,-27.30087],[-49.81248,-27.30252],[-49.81478,-27.30416],[-49.81551,-27.30451],[-49.80831,-27.31126],[-49.80469,-27.30815],[-49.80169,-27.30818],[-49.80164,-27.30532],[-49.80329,-27.30528],[-49.80332,-27.30402],[-49.80325,-27.30039]]]},"properties":{"codigo":"4218608010","name":"Lorenal","population":478,"households":199,"areaKm2":0.8846,"density":540.4}},{"type":"Feature","geometry":{"type":"Polygon","coordinates":[[[-49.79242,-27.29954],[-49.79205,-27.29939],[-49.79198,-27.29715],[-49.79323,-27.29769],[-49.79497,-27.29774],[-49.79505,-27.29901],[-49.79612,-27.2987],[-49.79589,-27.29677],[-49.79989,-27.29602],[-49.80058,-27.29898],[-49.80097,-27.29886],[-49.80133,-27.30036],[-49.80152,-27.30051],[-49.80119,-27.30065],[-49.80074,-27.30137],[-49.80036,-27.30142],[-49.79919,-27.3011],[-49.79892,-27.30142],[-49.79953,-27.30204],[-49.79878,-27.3029],[-49.79837,-27.30394],[-49.79796,-27.30449],[-49.79736,-27.3035],[-49.79716,-27.30207],[-49.79715,-27.30116],[-49.79739,-27.30068],[-49.79704,-27.30028],[-49.79606,-27.30053],[-49.79498,-27.30132],[-49.79394,-27.30103],[-49.79319,-27.30001],[-49.79242,-27.29954]]]},"properties":{"codigo":"4218608008","name":"Jalisco","population":314,"households":114,"areaKm2":0.4076,"density":770.4}},{"type":"Feature","geometry":{"type":"Polygon","coordinates":[[[-49.79649,-27.31739],[-49.79653,-27.31815],[-49.797,-27.31964],[-49.79719,-27.31995],[-49.79827,-27.32053],[-49.79797,-27.32135],[-49.79804,-27.32187],[-49.79874,-27.32281],[-49.7991,-27.323],[-49.7999,-27.32286],[-49.80057,-27.32315],[-49.80115,-27.32375],[-49.80161,-27.32566],[-49.80123,-27.32668],[-49.80142,-27.32741],[-49.79551,-27.32737],[-49.79581,-27.32551],[-49.79478,-27.32342],[-49.79422,-27.32156],[-49.79416,-27.32004],[-49.79357,-27.31822],[-49.79569,-27.31753],[-49.79649,-27.31739]]]},"properties":{"codigo":"4218608005","name":"Satão","population":97,"households":52,"areaKm2":0.4866,"density":199.3}}]}