{"type":"FeatureCollection","features":[{"type":"Feature","geometry":{"type":"Polygon","coordinates":[[[-54.91469,-30.07329],[-54.91374,-30.0745],[-54.91355,-30.07577],[-54.91154,-30.07766],[-54.90906,-30.07876],[-54.90668,-30.07876],[-54.90498,-30.07913],[-54.90282,-30.07906],[-54.90198,-30.07937],[-54.90072,-30.07885],[-54.89944,-30.07969],[-54.90052,-30.08217],[-54.90094,-30.0826],[-54.90116,-30.08412],[-54.89967,-30.08527],[-54.90015,-30.08617],[-54.89992,-30.08751],[-54.89725,-30.0909],[-54.89673,-30.09207],[-54.89704,-30.09367],[-54.89657,-30.09463],[-54.895,-30.09564],[-54.89412,-30.09563],[-54.89334,-30.09654],[-54.89352,-30.09749],[-54.89252,-30.09818],[-54.89157,-30.09997],[-54.88862,-30.09915],[-54.88579,-30.09949],[-54.88535,-30.09984],[-54.88347,-30.09962],[-54.88297,-30.09852],[-54.87932,-30.09813],[-54.87921,-30.09687],[-54.87789,-30.09692],[-54.87699,-30.09607],[-54.87419,-30.09648],[-54.8713,-30.09561],[-54.87055,-30.09607],[-54.86883,-30.09591],[-54.86763,-30.09645],[-54.8667,-30.0964],[-54.86504,-30.0976],[-54.86273,-30.09707],[-54.85984,-30.09804],[-54.85782,-30.0984],[-54.85724,-30.09791],[-54.85359,-30.09848],[-54.84926,-30.09999],[-54.84815,-30.10018],[-54.84837,-30.10105],[-54.8476,-30.10204],[-54.84612,-30.10123],[-54.8452,-30.09937],[-54.84316,-30.10017],[-54.84086,-30.1002],[-54.83925,-30.10146],[-54.83937,-30.10197],[-54.83748,-30.10338],[-54.83605,-30.10294],[-54.83469,-30.10382],[-54.83274,-30.10426],[-54.83188,-30.10484],[-54.83096,-30.10421],[-54.83032,-30.10494],[-54.82928,-30.1046],[-54.8285,-30.10504],[-54.82584,-30.10508],[-54.82345,-30.10636],[-54.82163,-30.10698],[-54.81973,-30.10806],[-54.81721,-30.10795],[-54.81487,-30.10648],[-54.81352,-30.10653],[-54.81319,-30.106],[-54.81154,-30.10532],[-54.80995,-30.10433],[-54.80997,-30.10322],[-54.80864,-30.1023],[-54.80703,-30.10167],[-54.80584,-30.10082],[-54.804,-30.10016],[-54.8016,-30.0982],[-54.80109,-30.09707],[-54.80038,-30.09696],[-54.79929,-30.096],[-54.79781,-30.09563],[-54.79594,-30.09571],[-54.79367,-30.09531],[-54.7901,-30.0939],[-54.78958,-30.09425],[-54.78241,-30.08312],[-54.77982,-30.08379],[-54.77802,-30.08292],[-54.77736,-30.08225],[-54.7764,-30.08043],[-54.77635,-30.0795],[-54.77687,-30.07717],[-54.77777,-30.07625],[-54.77867,-30.07413],[-54.77863,-30.07274],[-54.77796,-30.07167],[-54.77835,-30.0704],[-54.77748,-30.06963],[-54.77743,-30.0675],[-54.77656,-30.06311],[-54.77694,-30.06254],[-54.77635,-30.06068],[-54.7766,-30.05897],[-54.77586,-30.05782],[-54.77499,-30.05768],[-54.77361,-30.05652],[-54.77298,-30.055],[-54.77289,-30.05245],[-54.77244,-30.05092],[-54.77155,-30.05105],[-54.7696,-30.05016],[-54.76924,-30.04911],[-54.76765,-30.04876],[-54.76658,-30.04726],[-54.76465,-30.04663],[-54.76455,-30.045],[-54.76403,-30.04352],[-54.76276,-30.04217],[-54.76149,-30.04038],[-54.76043,-30.04015],[-54.75914,-30.04082],[-54.75788,-30.04036],[-54.75751,-30.03905],[-54.75671,-30.03865],[-54.75634,-30.03725],[-54.75678,-30.03635],[-54.75558,-30.03471],[-54.75702,-30.03395],[-54.75718,-30.03255],[-54.75956,-30.03077],[-54.75699,-30.02982],[-54.75579,-30.02854],[-54.75584,-30.02716],[-54.75691,-30.02649],[-54.75568,-30.02574],[-54.75477,-30.02444],[-54.75574,-30.02235],[-54.75568,-30.02132],[-54.75495,-30.02097],[-54.75277,-30.02091],[-54.75081,-30.02124],[-54.74982,-30.02185],[-54.74864,-30.02133],[-54.74801,-30.02231],[-54.74675,-30.02303],[-54.74492,-30.02349],[-54.74332,-30.02335],[-54.74057,-30.02258],[-54.73756,-30.02093],[-54.73593,-30.02097],[-54.73325,-30.02294],[-54.73218,-30.02335],[-54.73173,-30.02404],[-54.73251,-30.02683],[-54.73127,-30.02828],[-54.72912,-30.02933],[-54.72448,-30.02961],[-54.72314,-30.0301],[-54.72099,-30.03164],[-54.71913,-30.0323],[-54.71686,-30.03205],[-54.71546,-30.03227],[-54.7134,-30.03189],[-54.71221,-30.03068],[-54.71207,-30.02925],[-54.71232,-30.02778],[-54.71213,-30.02656],[-54.71116,-30.02519],[-54.70903,-30.02473],[-54.70718,-30.025],[-54.70635,-30.02567],[-54.70526,-30.02764],[-54.70428,-30.02867],[-54.70299,-30.02902],[-54.69965,-30.02882],[-54.69794,-30.02905],[-54.6958,-30.02987],[-54.69458,-30.03178],[-54.69438,-30.03302],[-54.69338,-30.03558],[-54.69151,-30.03723],[-54.68894,-30.03765],[-54.68699,-30.03716],[-54.68508,-30.03597],[-54.68432,-30.03518],[-54.68365,-30.03374],[-54.68218,-30.03207],[-54.67993,-30.03112],[-54.67736,-30.03094],[-54.67376,-30.0319],[-54.6722,-30.03254],[-54.67061,-30.03364],[-54.66863,-30.03455],[-54.66655,-30.03455],[-54.66366,-30.0337],[-54.65962,-30.03213],[-54.65839,-30.03138],[-54.65737,-30.02999],[-54.65645,-30.02774],[-54.65543,-30.02609],[-54.65399,-30.02494],[-54.65301,-30.02458],[-54.65082,-30.02445],[-54.64792,-30.02544],[-54.64503,-30.02549],[-54.6421,-30.02607],[-54.64092,-30.02602],[-54.63947,-30.02518],[-54.63885,-30.02421],[-54.63796,-30.02162],[-54.6383,-30.02024],[-54.64166,-30.01926],[-54.64263,-30.01806],[-54.64264,-30.01588],[-54.64189,-30.01475],[-54.63844,-30.01171],[-54.6348,-30.00933],[-54.6326,-30.00712],[-54.63057,-30.00575],[-54.62957,-30.00458],[-54.62932,-30.00269],[-54.6301,-30.00073],[-54.63115,-29.99964],[-54.63263,-29.99754],[-54.63274,-29.99593],[-54.63171,-29.99467],[-54.63037,-29.9937],[-54.62864,-29.99157],[-54.62695,-29.99126],[-54.62588,-29.99154],[-54.62374,-29.99294],[-54.61981,-29.99373],[-54.61833,-29.99298],[-54.61657,-29.98853],[-54.61507,-29.98751],[-54.61724,-29.98597],[-54.61726,-29.98441],[-54.61872,-29.98198],[-54.61873,-29.98066],[-54.61762,-29.97873],[-54.61676,-29.97317],[-54.61675,-29.97006],[-54.61764,-29.96671],[-54.61934,-29.96226],[-54.6198,-29.9588],[-54.62322,-29.95352],[-54.62311,-29.95201],[-54.62169,-29.94635],[-54.62317,-29.94005],[-54.62391,-29.93962],[-54.62536,-29.93748],[-54.62632,-29.93659],[-54.6311,-29.93743],[-54.6334,-29.93674],[-54.63593,-29.935],[-54.63722,-29.93499],[-54.63823,-29.93618],[-54.64226,-29.93695],[-54.64335,-29.93742],[-54.64584,-29.94037],[-54.64608,-29.94394],[-54.64871,-29.94774],[-54.65003,-29.94814],[-54.65363,-29.94876],[-54.65587,-29.94978],[-54.65638,-29.949],[-54.65755,-29.94837],[-54.65929,-29.94636],[-54.65986,-29.94432],[-54.66063,-29.94319],[-54.66118,-29.94169],[-54.66152,-29.93926],[-54.66171,-29.93461],[-54.66131,-29.9327],[-54.66312,-29.93163],[-54.66387,-29.93038],[-54.66494,-29.9304],[-54.66577,-29.92985],[-54.66571,-29.92899],[-54.66688,-29.92807],[-54.66791,-29.92798],[-54.66914,-29.92719],[-54.67025,-29.92703],[-54.67076,-29.92635],[-54.67312,-29.9257],[-54.67375,-29.92484],[-54.6761,-29.92372],[-54.67882,-29.92131],[-54.67964,-29.92034],[-54.68117,-29.91685],[-54.68331,-29.91681],[-54.68423,-29.9161],[-54.6831,-29.9144],[-54.68332,-29.91378],[-54.68479,-29.9121],[-54.68689,-29.91207],[-54.68753,-29.91111],[-54.68747,-29.90911],[-54.68838,-29.90718],[-54.68782,-29.90637],[-54.68815,-29.90447],[-54.68897,-29.90392],[-54.68994,-29.90084],[-54.69139,-29.89933],[-54.69208,-29.89731],[-54.69305,-29.89604],[-54.69401,-29.89554],[-54.69557,-29.89546],[-54.69734,-29.89334],[-54.69946,-29.88954],[-54.70099,-29.88939],[-54.70272,-29.88778],[-54.70367,-29.88769],[-54.70464,-29.88837],[-54.70569,-29.88731],[-54.70676,-29.88739],[-54.70821,-29.88693],[-54.70937,-29.88725],[-54.71031,-29.88549],[-54.71218,-29.88455],[-54.71365,-29.88227],[-54.71457,-29.88132],[-54.71598,-29.88072],[-54.71832,-29.88093],[-54.72003,-29.87974],[-54.71942,-29.87472],[-54.72106,-29.87298],[-54.72054,-29.86979],[-54.72106,-29.86869],[-54.72295,-29.86695],[-54.7223,-29.86581],[-54.721,-29.8652],[-54.72198,-29.86324],[-54.72156,-29.86188],[-54.72357,-29.85936],[-54.72482,-29.85872],[-54.72756,-29.85922],[-54.72889,-29.85742],[-54.73039,-29.85644],[-54.7327,-29.85429],[-54.73308,-29.85346],[-54.73281,-29.85181],[-54.73333,-29.85081],[-54.7345,-29.8499],[-54.73453,-29.84868],[-54.73523,-29.84637],[-54.7347,-29.84353],[-54.73599,-29.84122],[-54.73585,-29.84011],[-54.73632,-29.83939],[-54.73812,-29.83963],[-54.73895,-29.83834],[-54.73741,-29.83734],[-54.73701,-29.83473],[-54.73753,-29.83372],[-54.73903,-29.835],[-54.7403,-29.83539],[-54.74171,-29.83519],[-54.74196,-29.83448],[-54.74164,-29.83143],[-54.74347,-29.83222],[-54.74501,-29.83319],[-54.74654,-29.83295],[-54.74682,-29.83197],[-54.74634,-29.82999],[-54.74714,-29.82883],[-54.74843,-29.82871],[-54.75002,-29.82916],[-54.7514,-29.83002],[-54.75393,-29.82993],[-54.75473,-29.82904],[-54.75473,-29.82725],[-54.75558,-29.82617],[-54.75719,-29.82728],[-54.75961,-29.82855],[-54.76126,-29.83048],[-54.76159,-29.83285],[-54.76299,-29.83373],[-54.7669,-29.83423],[-54.76846,-29.83407],[-54.77108,-29.83231],[-54.77404,-29.83178],[-54.77507,-29.83062],[-54.77523,-29.82899],[-54.7767,-29.82853],[-54.77841,-29.82955],[-54.77956,-29.82972],[-54.78227,-29.82946],[-54.78612,-29.82981],[-54.78771,-29.82964],[-54.79006,-29.83012],[-54.79141,-29.83144],[-54.79265,-29.83351],[-54.79349,-29.8341],[-54.79622,-29.83502],[-54.79828,-29.83639],[-54.80125,-29.83854],[-54.80256,-29.83899],[-54.80592,-29.83919],[-54.80818,-29.84015],[-54.80852,-29.84086],[-54.8085,-29.84309],[-54.80873,-29.84447],[-54.80973,-29.84552],[-54.81053,-29.84552],[-54.81269,-29.84463],[-54.81538,-29.84486],[-54.81677,-29.84559],[-54.81818,-29.84673],[-54.82131,-29.84819],[-54.82266,-29.84795],[-54.82392,-29.84728],[-54.8244,-29.84565],[-54.8241,-29.84425],[-54.82468,-29.84256],[-54.82573,-29.84173],[-54.82779,-29.84192],[-54.82825,-29.84312],[-54.8261,-29.84636],[-54.82593,-29.84758],[-54.82713,-29.85076],[-54.82802,-29.85178],[-54.83017,-29.8535],[-54.83212,-29.85589],[-54.83319,-29.85621],[-54.83534,-29.85541],[-54.83594,-29.85422],[-54.83662,-29.85088],[-54.83743,-29.84954],[-54.83904,-29.84929],[-54.84209,-29.85012],[-54.84311,-29.84997],[-54.84468,-29.84838],[-54.84594,-29.845],[-54.84729,-29.84413],[-54.85051,-29.84315],[-54.85111,-29.84209],[-54.85094,-29.84052],[-54.84918,-29.83943],[-54.84877,-29.83804],[-54.84984,-29.83714],[-54.85124,-29.8372],[-54.85327,-29.83788],[-54.85448,-29.83791],[-54.85745,-29.83747],[-54.85816,-29.83699],[-54.85898,-29.83446],[-54.86113,-29.8327],[-54.86265,-29.83015],[-54.86413,-29.82935],[-54.86565,-29.8291],[-54.86783,-29.82914],[-54.86886,-29.82875],[-54.86942,-29.82787],[-54.86939,-29.82662],[-54.86843,-29.82549],[-54.86726,-29.82491],[-54.86678,-29.82419],[-54.86729,-29.82286],[-54.86859,-29.82222],[-54.87175,-29.82162],[-54.87341,-29.82005],[-54.87381,-29.819],[-54.87379,-29.81749],[-54.8734,-29.81617],[-54.87354,-29.81449],[-54.87418,-29.81353],[-54.87551,-29.81305],[-54.87804,-29.81251],[-54.8792,-29.81121],[-54.87914,-29.809],[-54.87732,-29.80712],[-54.87789,-29.80567],[-54.87993,-29.80576],[-54.88143,-29.80681],[-54.88282,-29.807],[-54.88425,-29.8067],[-54.88742,-29.80668],[-54.88995,-29.80799],[-54.8966,-29.80909],[-54.89794,-29.80972],[-54.89906,-29.81088],[-54.90133,-29.81183],[-54.90313,-29.8117],[-54.9063,-29.81026],[-54.90938,-29.80954],[-54.90925,-29.80681],[-54.90669,-29.80453],[-54.90678,-29.80152],[-54.90747,-29.80065],[-54.90922,-29.80081],[-54.9119,-29.80232],[-54.91256,-29.80401],[-54.91241,-29.80677],[-54.91196,-29.80935],[-54.91228,-29.81021],[-54.91348,-29.81067],[-54.91584,-29.81103],[-54.91775,-29.81091],[-54.91983,-29.8095],[-54.92024,-29.8086],[-54.92031,-29.80638],[-54.92095,-29.80286],[-54.9219,-29.80451],[-54.92532,-29.80744],[-54.92678,-29.80979],[-54.92701,-29.81126],[-54.92685,-29.81522],[-54.92509,-29.81945],[-54.92617,-29.82347],[-54.92665,-29.82637],[-54.9251,-29.83009],[-54.92019,-29.83239],[-54.91697,-29.8357],[-54.91059,-29.83777],[-54.90953,-29.8392],[-54.90918,-29.84444],[-54.90567,-29.84879],[-54.9067,-29.85023],[-54.91362,-29.85335],[-54.9159,-29.85605],[-54.9159,-29.85776],[-54.91142,-29.86239],[-54.91129,-29.86488],[-54.9131,-29.8687],[-54.9135,-29.87242],[-54.91214,-29.87512],[-54.90956,-29.87604],[-54.9008,-29.87509],[-54.89848,-29.87612],[-54.89671,-29.87876],[-54.8966,-29.88085],[-54.89813,-29.88296],[-54.90115,-29.88448],[-54.90539,-29.88502],[-54.90709,-29.88585],[-54.90967,-29.8887],[-54.90989,-29.89091],[-54.90925,-29.892],[-54.90479,-29.89405],[-54.90373,-29.89554],[-54.90381,-29.89815],[-54.90552,-29.89994],[-54.90742,-29.90107],[-54.90984,-29.90326],[-54.90953,-29.90499],[-54.9098,-29.90682],[-54.91098,-29.90951],[-54.91485,-29.91484],[-54.91482,-29.92095],[-54.91615,-29.92283],[-54.91946,-29.92401],[-54.92522,-29.92358],[-54.92687,-29.92372],[-54.92934,-29.92518],[-54.93074,-29.92712],[-54.93062,-29.92984],[-54.9308,-29.93408],[-54.93201,-29.93725],[-54.93222,-29.94015],[-54.93196,-29.94293],[-54.9348,-29.94477],[-54.93633,-29.94758],[-54.93257,-29.95072],[-54.93004,-29.95226],[-54.92911,-29.95441],[-54.93041,-29.95656],[-54.9323,-29.95725],[-54.93494,-29.95777],[-54.93811,-29.95882],[-54.9401,-29.96123],[-54.94071,-29.96417],[-54.94061,-29.96561],[-54.93938,-29.96861],[-54.9396,-29.97145],[-54.94049,-29.97352],[-54.94832,-29.97649],[-54.95143,-29.97862],[-54.95266,-29.98058],[-54.95237,-29.98429],[-54.95226,-29.98985],[-54.95158,-29.99445],[-54.94907,-29.99673],[-54.94575,-29.99749],[-54.94326,-29.9969],[-54.94069,-29.99512],[-54.93934,-29.99052],[-54.93745,-29.98916],[-54.93426,-29.98913],[-54.93205,-29.98968],[-54.93101,-29.99059],[-54.93194,-29.99159],[-54.93415,-29.9927],[-54.93549,-29.99446],[-54.93611,-29.99765],[-54.93599,-30.00003],[-54.93486,-30.00334],[-54.9333,-30.00552],[-54.9272,-30.00679],[-54.92503,-30.00896],[-54.92468,-30.01249],[-54.92552,-30.01665],[-54.92366,-30.02009],[-54.92411,-30.02184],[-54.92541,-30.0238],[-54.93387,-30.02927],[-54.93453,-30.03226],[-54.9328,-30.03299],[-54.92706,-30.03197],[-54.9254,-30.03229],[-54.92376,-30.03386],[-54.92399,-30.03589],[-54.92519,-30.03765],[-54.9273,-30.03832],[-54.93219,-30.0393],[-54.93305,-30.04088],[-54.93198,-30.04295],[-54.9276,-30.04725],[-54.92768,-30.0498],[-54.92975,-30.05462],[-54.93277,-30.05765],[-54.93323,-30.05868],[-54.93337,-30.06035],[-54.93269,-30.06361],[-54.92998,-30.06651],[-54.92828,-30.06798],[-54.92487,-30.06954],[-54.92156,-30.07007],[-54.91851,-30.07112],[-54.91691,-30.07237],[-54.91469,-30.07329]]]},"properties":{"codigo":"430290705","name":"Cacequi","population":9716,"households":4415,"areaKm2":651.338,"density":14.9}},{"type":"Feature","geometry":{"type":"Polygon","coordinates":[[[-55.31307,-30.08131],[-55.31447,-30.08312],[-55.31328,-30.0849],[-55.3108,-30.08656],[-55.30799,-30.08778],[-55.30552,-30.08794],[-55.30379,-30.08857],[-55.3025,-30.08868],[-55.30056,-30.08791],[-55.29738,-30.08795],[-55.29558,-30.08855],[-55.29305,-30.09233],[-55.29132,-30.09572],[-55.29127,-30.09686],[-55.2919,-30.10038],[-55.29176,-30.10217],[-55.29091,-30.10295],[-55.28844,-30.10364],[-55.28734,-30.10331],[-55.287,-30.10226],[-55.28742,-30.10091],[-55.28723,-30.09836],[-55.28509,-30.09628],[-55.28491,-30.09351],[-55.28505,-30.09157],[-55.28242,-30.09021],[-55.28196,-30.08867],[-55.2811,-30.08821],[-55.28045,-30.08585],[-55.27881,-30.08318],[-55.27409,-30.08102],[-55.27366,-30.08127],[-55.27128,-30.08108],[-55.26922,-30.08204],[-55.26905,-30.08241],[-55.26632,-30.08332],[-55.2649,-30.08314],[-55.2635,-30.08376],[-55.26284,-30.08445],[-55.26112,-30.08426],[-55.2604,-30.08467],[-55.25921,-30.08366],[-55.25638,-30.08327],[-55.25591,-30.082],[-55.25428,-30.08203],[-55.25385,-30.07966],[-55.25065,-30.07948],[-55.24903,-30.08052],[-55.24729,-30.07992],[-55.2466,-30.08061],[-55.24504,-30.08115],[-55.24213,-30.08041],[-55.24023,-30.07936],[-55.23801,-30.07927],[-55.23759,-30.07853],[-55.23665,-30.07895],[-55.23523,-30.07891],[-55.23309,-30.07792],[-55.23212,-30.07836],[-55.23077,-30.07791],[-55.22914,-30.07807],[-55.22852,-30.07862],[-55.2276,-30.07806],[-55.22706,-30.07676],[-55.22516,-30.07657],[-55.22411,-30.07578],[-55.22277,-30.07576],[-55.22261,-30.0775],[-55.22298,-30.07805],[-55.22234,-30.07947],[-55.21871,-30.08025],[-55.21607,-30.08028],[-55.21511,-30.0813],[-55.21493,-30.08277],[-55.21242,-30.08526],[-55.20919,-30.08569],[-55.20571,-30.08492],[-55.20151,-30.08374],[-55.19932,-30.0824],[-55.19607,-30.0812],[-55.19444,-30.08012],[-55.19134,-30.0803],[-55.18803,-30.07897],[-55.18758,-30.07663],[-55.18632,-30.07441],[-55.18539,-30.07143],[-55.18465,-30.0711],[-55.18441,-30.06992],[-55.18349,-30.06955],[-55.18468,-30.06831],[-55.18584,-30.0684],[-55.18754,-30.06789],[-55.18768,-30.06695],[-55.18737,-30.06468],[-55.18677,-30.06339],[-55.18701,-30.06099],[-55.18639,-30.06009],[-55.18435,-30.05882],[-55.1833,-30.05631],[-55.18227,-30.0554],[-55.18176,-30.05378],[-55.17975,-30.05083],[-55.17982,-30.04822],[-55.17785,-30.04771],[-55.17839,-30.04678],[-55.17824,-30.04585],[-55.17723,-30.04534],[-55.17551,-30.04535],[-55.17435,-30.04478],[-55.17226,-30.04483],[-55.17105,-30.04355],[-55.17042,-30.04373],[-55.16845,-30.04287],[-55.16703,-30.04368],[-55.16552,-30.04401],[-55.16277,-30.04367],[-55.16172,-30.04514],[-55.16089,-30.04715],[-55.15898,-30.04964],[-55.15767,-30.05047],[-55.15582,-30.05046],[-55.15443,-30.0485],[-55.15203,-30.04781],[-55.15066,-30.04814],[-55.14938,-30.04946],[-55.14713,-30.05056],[-55.14679,-30.05208],[-55.14396,-30.05391],[-55.14205,-30.05415],[-55.14167,-30.04884],[-55.14095,-30.04848],[-55.14077,-30.04607],[-55.13997,-30.04507],[-55.13724,-30.04243],[-55.13566,-30.04175],[-55.13381,-30.04186],[-55.13259,-30.04127],[-55.12839,-30.0415],[-55.12596,-30.04273],[-55.12467,-30.04263],[-55.11983,-30.04399],[-55.11938,-30.04598],[-55.1172,-30.04682],[-55.11547,-30.04665],[-55.11318,-30.04613],[-55.11085,-30.04496],[-55.11006,-30.04338],[-55.11002,-30.04222],[-55.10918,-30.04197],[-55.10779,-30.03972],[-55.10586,-30.03903],[-55.10509,-30.03947],[-55.10283,-30.03769],[-55.10259,-30.0364],[-55.10051,-30.03509],[-55.0993,-30.03573],[-55.09821,-30.03516],[-55.09614,-30.03457],[-55.09483,-30.03551],[-55.09494,-30.03681],[-55.09566,-30.03722],[-55.09479,-30.03981],[-55.09403,-30.04067],[-55.09596,-30.04229],[-55.09728,-30.04199],[-55.09721,-30.04298],[-55.09824,-30.0444],[-55.09918,-30.04492],[-55.09992,-30.04621],[-55.10146,-30.0465],[-55.10127,-30.04715],[-55.09973,-30.04768],[-55.10092,-30.04921],[-55.1003,-30.05036],[-55.10083,-30.05132],[-55.10065,-30.05258],[-55.10108,-30.05354],[-55.10038,-30.05435],[-55.09832,-30.05599],[-55.09803,-30.05677],[-55.09841,-30.05769],[-55.09815,-30.05981],[-55.09873,-30.06069],[-55.09702,-30.06181],[-55.09573,-30.06301],[-55.09438,-30.06386],[-55.0936,-30.06482],[-55.09381,-30.06606],[-55.09349,-30.06712],[-55.09235,-30.06921],[-55.09107,-30.07022],[-55.0905,-30.07158],[-55.08692,-30.07769],[-55.08466,-30.08364],[-55.08481,-30.09215],[-55.08517,-30.09287],[-55.08431,-30.09435],[-55.08474,-30.09549],[-55.08353,-30.09675],[-55.08367,-30.09869],[-55.08252,-30.09922],[-55.0812,-30.09897],[-55.08114,-30.10163],[-55.0822,-30.10297],[-55.07976,-30.10558],[-55.07767,-30.10661],[-55.07543,-30.1094],[-55.07453,-30.10919],[-55.07348,-30.11073],[-55.07361,-30.11179],[-55.07553,-30.11438],[-55.07569,-30.11547],[-55.07497,-30.11714],[-55.07528,-30.11928],[-55.07682,-30.12008],[-55.07652,-30.12077],[-55.07695,-30.12201],[-55.07706,-30.12426],[-55.07611,-30.12473],[-55.07596,-30.12602],[-55.07511,-30.12719],[-55.07289,-30.12734],[-55.07149,-30.12781],[-55.07052,-30.12934],[-55.06997,-30.13099],[-55.07018,-30.13174],[-55.06966,-30.1339],[-55.0695,-30.13707],[-55.06814,-30.14182],[-55.06566,-30.14175],[-55.06256,-30.14333],[-55.06145,-30.14353],[-55.06055,-30.14492],[-55.05887,-30.14338],[-55.05817,-30.14344],[-55.05661,-30.14184],[-55.05614,-30.13993],[-55.05465,-30.13887],[-55.05338,-30.13868],[-55.05257,-30.13901],[-55.0501,-30.13831],[-55.04995,-30.13725],[-55.04841,-30.1373],[-55.04592,-30.13623],[-55.04433,-30.13627],[-55.04351,-30.13513],[-55.04169,-30.13514],[-55.03979,-30.13546],[-55.03082,-30.13482],[-55.02948,-30.13428],[-55.0271,-30.13387],[-55.02647,-30.13321],[-55.02469,-30.13219],[-55.02474,-30.1317],[-55.02302,-30.13153],[-55.02195,-30.1299],[-55.01911,-30.12868],[-55.01716,-30.12968],[-55.01499,-30.13002],[-55.0123,-30.12952],[-55.01111,-30.12984],[-55.00972,-30.12966],[-55.00884,-30.13027],[-55.00724,-30.13032],[-55.00594,-30.12933],[-55.00579,-30.12814],[-55.00492,-30.12706],[-55.00273,-30.1251],[-55.00215,-30.12328],[-55.0013,-30.12263],[-55.00127,-30.12161],[-55.00047,-30.11884],[-55.00112,-30.11719],[-55.00067,-30.11595],[-55.00133,-30.11511],[-55.00161,-30.11206],[-55.00004,-30.1106],[-54.99852,-30.11061],[-54.99647,-30.10852],[-54.99427,-30.10718],[-54.98628,-30.0962],[-54.98043,-30.0946],[-54.98051,-30.09339],[-54.98007,-30.0927],[-54.97811,-30.09261],[-54.97839,-30.09168],[-54.97738,-30.09056],[-54.97668,-30.08892],[-54.97491,-30.08898],[-54.97447,-30.08744],[-54.97164,-30.08714],[-54.96928,-30.08781],[-54.96809,-30.08744],[-54.96712,-30.08875],[-54.96584,-30.08814],[-54.96383,-30.08874],[-54.96155,-30.08712],[-54.95956,-30.08718],[-54.95733,-30.08538],[-54.95574,-30.08572],[-54.95105,-30.08417],[-54.94974,-30.08347],[-54.94891,-30.08261],[-54.94871,-30.08021],[-54.94828,-30.0792],[-54.94867,-30.07798],[-54.94862,-30.07657],[-54.9465,-30.0754],[-54.94642,-30.07431],[-54.94527,-30.07323],[-54.94328,-30.07345],[-54.94238,-30.07321],[-54.94148,-30.0723],[-54.94274,-30.07125],[-54.94255,-30.07004],[-54.9406,-30.06861],[-54.94006,-30.06759],[-54.9385,-30.06613],[-54.93686,-30.06609],[-54.93633,-30.06559],[-54.93447,-30.0656],[-54.9343,-30.06511],[-54.93269,-30.06361],[-54.93337,-30.06035],[-54.93323,-30.05868],[-54.93277,-30.05765],[-54.92975,-30.05462],[-54.92768,-30.0498],[-54.9276,-30.04725],[-54.93198,-30.04295],[-54.93305,-30.04088],[-54.93219,-30.0393],[-54.9273,-30.03832],[-54.92519,-30.03765],[-54.92399,-30.03589],[-54.92376,-30.03386],[-54.9254,-30.03229],[-54.92706,-30.03197],[-54.9328,-30.03299],[-54.93453,-30.03226],[-54.93387,-30.02927],[-54.92541,-30.0238],[-54.92411,-30.02184],[-54.92366,-30.02009],[-54.92552,-30.01665],[-54.92468,-30.01249],[-54.92503,-30.00896],[-54.9272,-30.00679],[-54.9333,-30.00552],[-54.93486,-30.00334],[-54.93599,-30.00003],[-54.93611,-29.99765],[-54.93549,-29.99446],[-54.93415,-29.9927],[-54.93194,-29.99159],[-54.93101,-29.99059],[-54.93205,-29.98968],[-54.93426,-29.98913],[-54.93745,-29.98916],[-54.93934,-29.99052],[-54.94069,-29.99512],[-54.94326,-29.9969],[-54.94575,-29.99749],[-54.94907,-29.99673],[-54.95158,-29.99445],[-54.95226,-29.98985],[-54.95237,-29.98429],[-54.95266,-29.98058],[-54.95143,-29.97862],[-54.94832,-29.97649],[-54.94049,-29.97352],[-54.9396,-29.97145],[-54.93938,-29.96861],[-54.94061,-29.96561],[-54.94071,-29.96417],[-54.9401,-29.96123],[-54.93811,-29.95882],[-54.93494,-29.95777],[-54.9323,-29.95725],[-54.93041,-29.95656],[-54.92911,-29.95441],[-54.93004,-29.95226],[-54.93257,-29.95072],[-54.93633,-29.94758],[-54.9348,-29.94477],[-54.93196,-29.94293],[-54.93222,-29.94015],[-54.93201,-29.93725],[-54.9308,-29.93408],[-54.93062,-29.92984],[-54.93074,-29.92712],[-54.92934,-29.92518],[-54.92687,-29.92372],[-54.92522,-29.92358],[-54.91946,-29.92401],[-54.91615,-29.92283],[-54.91482,-29.92095],[-54.91485,-29.91484],[-54.91098,-29.90951],[-54.9098,-29.90682],[-54.90953,-29.90499],[-54.90984,-29.90326],[-54.90742,-29.90107],[-54.90552,-29.89994],[-54.90381,-29.89815],[-54.90373,-29.89554],[-54.90479,-29.89405],[-54.90925,-29.892],[-54.90989,-29.89091],[-54.90967,-29.8887],[-54.90709,-29.88585],[-54.90539,-29.88502],[-54.90115,-29.88448],[-54.89813,-29.88296],[-54.8966,-29.88085],[-54.89671,-29.87876],[-54.89848,-29.87612],[-54.9008,-29.87509],[-54.90956,-29.87604],[-54.91214,-29.87512],[-54.9135,-29.87242],[-54.9131,-29.8687],[-54.91129,-29.86488],[-54.91142,-29.86239],[-54.9159,-29.85776],[-54.9159,-29.85605],[-54.91362,-29.85335],[-54.9067,-29.85023],[-54.90567,-29.84879],[-54.90918,-29.84444],[-54.90953,-29.8392],[-54.91059,-29.83777],[-54.91697,-29.8357],[-54.92019,-29.83239],[-54.9251,-29.83009],[-54.92665,-29.82637],[-54.92617,-29.82347],[-54.92509,-29.81945],[-54.92685,-29.81522],[-54.92701,-29.81126],[-54.92678,-29.80979],[-54.92532,-29.80744],[-54.9219,-29.80451],[-54.92095,-29.80286],[-54.92033,-29.79979],[-54.92018,-29.79801],[-54.92061,-29.79599],[-54.92265,-29.79068],[-54.92429,-29.78779],[-54.92571,-29.78601],[-54.9271,-29.78486],[-54.92888,-29.78402],[-54.93207,-29.78308],[-54.93671,-29.78217],[-54.93869,-29.78264],[-54.9444,-29.78512],[-54.9465,-29.78585],[-54.94919,-29.78585],[-54.95106,-29.78502],[-54.95264,-29.78385],[-54.95403,-29.78218],[-54.95563,-29.77968],[-54.95655,-29.77871],[-54.95809,-29.77779],[-54.95996,-29.77714],[-54.96363,-29.7767],[-54.9674,-29.77671],[-54.97054,-29.77725],[-54.97393,-29.77831],[-54.97773,-29.77928],[-54.98219,-29.78064],[-54.98664,-29.78074],[-54.99213,-29.77984],[-54.99758,-29.77914],[-55.0009,-29.77884],[-55.00544,-29.77887],[-55.00763,-29.77901],[-55.00983,-29.77979],[-55.01249,-29.78096],[-55.015,-29.78187],[-55.02697,-29.7829],[-55.0346,-29.78384],[-55.03744,-29.78459],[-55.03966,-29.78485],[-55.04138,-29.78465],[-55.04412,-29.78364],[-55.04706,-29.78168],[-55.05051,-29.77886],[-55.05227,-29.7769],[-55.05379,-29.77434],[-55.05469,-29.7711],[-55.05479,-29.76973],[-55.05556,-29.76713],[-55.05693,-29.76578],[-55.0586,-29.7647],[-55.06136,-29.76385],[-55.06468,-29.76343],[-55.06706,-29.76413],[-55.06898,-29.76611],[-55.06959,-29.76769],[-55.0695,-29.7725],[-55.06977,-29.77437],[-55.07046,-29.77667],[-55.07177,-29.77797],[-55.07377,-29.77901],[-55.07592,-29.7796],[-55.07765,-29.77938],[-55.08213,-29.77733],[-55.08373,-29.77697],[-55.08541,-29.77693],[-55.09061,-29.77779],[-55.09257,-29.77768],[-55.09539,-29.77699],[-55.09718,-29.77565],[-55.09844,-29.77342],[-55.09841,-29.77111],[-55.09795,-29.76922],[-55.09666,-29.76827],[-55.09495,-29.76797],[-55.08798,-29.766],[-55.08397,-29.76543],[-55.08208,-29.76441],[-55.0795,-29.76187],[-55.07946,-29.76007],[-55.07994,-29.75859],[-55.08089,-29.75764],[-55.08447,-29.75634],[-55.08701,-29.75526],[-55.08901,-29.75485],[-55.09067,-29.75486],[-55.09593,-29.75578],[-55.09799,-29.75644],[-55.10211,-29.7581],[-55.10353,-29.759],[-55.10666,-29.76141],[-55.10898,-29.76271],[-55.11007,-29.76361],[-55.11247,-29.76468],[-55.11546,-29.76562],[-55.11867,-29.76643],[-55.12174,-29.76696],[-55.12146,-29.76891],[-55.11977,-29.76924],[-55.1195,-29.77008],[-55.12011,-29.77071],[-55.12143,-29.77104],[-55.12264,-29.7709],[-55.12331,-29.77032],[-55.12382,-29.76843],[-55.12472,-29.7684],[-55.12564,-29.77005],[-55.12525,-29.7714],[-55.1236,-29.77273],[-55.12368,-29.7737],[-55.1251,-29.77399],[-55.12511,-29.77549],[-55.12375,-29.77575],[-55.12307,-29.77495],[-55.12207,-29.77594],[-55.12074,-29.77648],[-55.11968,-29.7776],[-55.11859,-29.77779],[-55.11689,-29.77695],[-55.11545,-29.77771],[-55.11588,-29.77996],[-55.11525,-29.78152],[-55.11677,-29.78536],[-55.11655,-29.78683],[-55.11579,-29.78874],[-55.11403,-29.7912],[-55.11289,-29.79201],[-55.11246,-29.79284],[-55.11375,-29.79428],[-55.11418,-29.79576],[-55.11564,-29.79827],[-55.11533,-29.7988],[-55.11375,-29.79926],[-55.11234,-29.79916],[-55.11189,-29.80018],[-55.11415,-29.80131],[-55.11512,-29.80259],[-55.1151,-29.80361],[-55.11576,-29.80433],[-55.11741,-29.805],[-55.11993,-29.80718],[-55.12028,-29.80821],[-55.11982,-29.80927],[-55.12081,-29.8103],[-55.11998,-29.81226],[-55.12073,-29.81247],[-55.12135,-29.81418],[-55.12253,-29.81462],[-55.12335,-29.81566],[-55.12536,-29.81611],[-55.12539,-29.81775],[-55.12629,-29.81999],[-55.12732,-29.82109],[-55.12854,-29.82119],[-55.12929,-29.82175],[-55.13108,-29.82154],[-55.13164,-29.82088],[-55.13325,-29.82061],[-55.13576,-29.82101],[-55.1392,-29.8222],[-55.13974,-29.82166],[-55.14078,-29.82182],[-55.14149,-29.82137],[-55.14457,-29.82313],[-55.1482,-29.82573],[-55.15009,-29.82655],[-55.14947,-29.82702],[-55.15099,-29.82835],[-55.1514,-29.82961],[-55.15023,-29.82971],[-55.14904,-29.83131],[-55.14808,-29.83109],[-55.14748,-29.83178],[-55.14735,-29.83421],[-55.1489,-29.83587],[-55.1472,-29.83693],[-55.14658,-29.83796],[-55.14716,-29.83887],[-55.14655,-29.84097],[-55.14554,-29.84167],[-55.14429,-29.8419],[-55.14203,-29.84152],[-55.14064,-29.84359],[-55.13983,-29.84388],[-55.1401,-29.84696],[-55.13948,-29.84817],[-55.13973,-29.84945],[-55.14035,-29.84991],[-55.14033,-29.85108],[-55.14162,-29.85209],[-55.14298,-29.85199],[-55.14384,-29.85257],[-55.14457,-29.85215],[-55.14606,-29.85308],[-55.14716,-29.85311],[-55.14797,-29.85413],[-55.14865,-29.8534],[-55.15004,-29.8533],[-55.15114,-29.85367],[-55.15311,-29.85562],[-55.15306,-29.85795],[-55.15222,-29.85908],[-55.1527,-29.85982],[-55.15091,-29.86103],[-55.15047,-29.86243],[-55.15082,-29.86417],[-55.15157,-29.86498],[-55.14899,-29.8685],[-55.14857,-29.87001],[-55.14941,-29.87189],[-55.15027,-29.87208],[-55.15127,-29.87356],[-55.15221,-29.87395],[-55.15257,-29.87523],[-55.15593,-29.87543],[-55.15618,-29.87597],[-55.15762,-29.87545],[-55.1593,-29.87532],[-55.15992,-29.87483],[-55.16091,-29.87529],[-55.16324,-29.87431],[-55.1644,-29.87442],[-55.16536,-29.87543],[-55.1659,-29.87665],[-55.16711,-29.87768],[-55.16964,-29.87862],[-55.17038,-29.87963],[-55.17175,-29.88019],[-55.17306,-29.88184],[-55.1737,-29.88313],[-55.17331,-29.88515],[-55.1741,-29.88612],[-55.17444,-29.8874],[-55.17435,-29.88899],[-55.17488,-29.89103],[-55.17613,-29.89201],[-55.17609,-29.89324],[-55.17688,-29.89522],[-55.17966,-29.89959],[-55.18159,-29.89996],[-55.18384,-29.90366],[-55.18583,-29.90555],[-55.18736,-29.90657],[-55.18857,-29.90885],[-55.18969,-29.90963],[-55.19139,-29.91207],[-55.19271,-29.91322],[-55.1944,-29.9155],[-55.19602,-29.91619],[-55.19746,-29.91581],[-55.20075,-29.91692],[-55.20315,-29.91922],[-55.20466,-29.91889],[-55.2058,-29.92014],[-55.20735,-29.92086],[-55.20828,-29.92187],[-55.21012,-29.9218],[-55.21113,-29.92204],[-55.21201,-29.92292],[-55.21506,-29.92121],[-55.21669,-29.92149],[-55.21756,-29.92072],[-55.21977,-29.91982],[-55.22247,-29.91997],[-55.22441,-29.92184],[-55.22627,-29.92442],[-55.22828,-29.92765],[-55.22958,-29.92936],[-55.23032,-29.93237],[-55.23044,-29.93445],[-55.23212,-29.93911],[-55.23315,-29.93974],[-55.23428,-29.94272],[-55.23451,-29.94476],[-55.23386,-29.94561],[-55.23432,-29.9467],[-55.23329,-29.94856],[-55.23419,-29.94998],[-55.2353,-29.95075],[-55.23538,-29.95273],[-55.23696,-29.95366],[-55.23723,-29.95465],[-55.24004,-29.95744],[-55.24005,-29.96107],[-55.24042,-29.96251],[-55.24,-29.96387],[-55.2409,-29.96497],[-55.24178,-29.96768],[-55.24348,-29.96965],[-55.24458,-29.97219],[-55.24434,-29.97464],[-55.24388,-29.97655],[-55.24448,-29.98036],[-55.24492,-29.98228],[-55.24611,-29.98421],[-55.24501,-29.98646],[-55.24519,-29.98793],[-55.24651,-29.98865],[-55.24884,-29.99032],[-55.24965,-29.99131],[-55.25215,-29.99203],[-55.25303,-29.99374],[-55.25505,-29.99557],[-55.25567,-29.99654],[-55.25575,-29.99786],[-55.25795,-30.00126],[-55.25947,-30.00211],[-55.25992,-30.00303],[-55.26001,-30.00446],[-55.25825,-30.00821],[-55.25948,-30.01022],[-55.25888,-30.01283],[-55.25939,-30.01388],[-55.26088,-30.01465],[-55.26307,-30.01493],[-55.26519,-30.01665],[-55.26683,-30.0166],[-55.26724,-30.01765],[-55.26651,-30.01904],[-55.26638,-30.02187],[-55.26781,-30.02317],[-55.26803,-30.02457],[-55.26747,-30.02583],[-55.2673,-30.02769],[-55.26685,-30.02927],[-55.26787,-30.03081],[-55.26763,-30.03186],[-55.26851,-30.03495],[-55.26946,-30.03527],[-55.27001,-30.03609],[-55.26911,-30.03753],[-55.26898,-30.0384],[-55.26957,-30.03987],[-55.27073,-30.04039],[-55.27164,-30.03946],[-55.27364,-30.04138],[-55.27527,-30.04086],[-55.27803,-30.04201],[-55.2784,-30.04299],[-55.27838,-30.04474],[-55.27889,-30.0457],[-55.28083,-30.04619],[-55.28044,-30.04853],[-55.28096,-30.04998],[-55.2811,-30.05174],[-55.28341,-30.0526],[-55.28553,-30.05489],[-55.28717,-30.0582],[-55.29073,-30.06031],[-55.29205,-30.0608],[-55.29245,-30.06162],[-55.29447,-30.0635],[-55.29762,-30.0642],[-55.29857,-30.06551],[-55.29841,-30.06617],[-55.29965,-30.06648],[-55.30042,-30.06765],[-55.30214,-30.06895],[-55.30245,-30.06976],[-55.30527,-30.07211],[-55.30432,-30.07347],[-55.30446,-30.07491],[-55.30748,-30.07699],[-55.30855,-30.07713],[-55.30925,-30.07852],[-55.3107,-30.07909],[-55.31234,-30.08007],[-55.31307,-30.08131]]]},"properties":{"codigo":"430290710","name":"Saicã","population":766,"households":491,"areaKm2":937.9465,"density":0.8}},{"type":"Feature","geometry":{"type":"Polygon","coordinates":[[[-54.61507,-29.98751],[-54.61409,-29.98773],[-54.61335,-29.98688],[-54.61271,-29.98529],[-54.612,-29.98475],[-54.60853,-29.98349],[-54.60658,-29.98193],[-54.60298,-29.9811],[-54.6016,-29.98019],[-54.60382,-29.97732],[-54.60379,-29.97644],[-54.6022,-29.97514],[-54.60084,-29.975],[-54.59901,-29.97545],[-54.59812,-29.9763],[-54.59583,-29.9776],[-54.59364,-29.97767],[-54.59129,-29.97623],[-54.58938,-29.97563],[-54.58791,-29.97395],[-54.58851,-29.97112],[-54.5877,-29.97048],[-54.58585,-29.97029],[-54.58544,-29.96992],[-54.58543,-29.96798],[-54.5879,-29.9663],[-54.58807,-29.96515],[-54.58589,-29.96245],[-54.58399,-29.96192],[-54.58205,-29.96277],[-54.57719,-29.96314],[-54.57574,-29.96268],[-54.57563,-29.96202],[-54.577,-29.96135],[-54.57697,-29.9598],[-54.57538,-29.95847],[-54.57282,-29.95767],[-54.57175,-29.95781],[-54.57072,-29.95909],[-54.56947,-29.95982],[-54.5674,-29.95905],[-54.56562,-29.95912],[-54.5649,-29.95719],[-54.56337,-29.95652],[-54.56181,-29.95723],[-54.56171,-29.95849],[-54.55909,-29.95896],[-54.55829,-29.95975],[-54.55797,-29.96113],[-54.55604,-29.96109],[-54.55559,-29.9604],[-54.55574,-29.9582],[-54.55373,-29.95611],[-54.55245,-29.95594],[-54.55054,-29.95717],[-54.54798,-29.95714],[-54.54737,-29.95692],[-54.54814,-29.95501],[-54.5481,-29.9535],[-54.54618,-29.95294],[-54.54465,-29.95157],[-54.54332,-29.95155],[-54.54119,-29.95211],[-54.53963,-29.95011],[-54.53798,-29.94943],[-54.53607,-29.94999],[-54.53313,-29.95039],[-54.53246,-29.95004],[-54.53214,-29.94891],[-54.53123,-29.94796],[-54.52942,-29.94777],[-54.52884,-29.94664],[-54.52754,-29.94542],[-54.52519,-29.94479],[-54.52386,-29.94467],[-54.52044,-29.94312],[-54.5199,-29.94244],[-54.51822,-29.94287],[-54.51565,-29.94278],[-54.51354,-29.94323],[-54.51084,-29.94247],[-54.51125,-29.94107],[-54.51035,-29.93991],[-54.50881,-29.93971],[-54.50755,-29.93819],[-54.50523,-29.93676],[-54.50434,-29.93696],[-54.50336,-29.93563],[-54.5026,-29.93556],[-54.50213,-29.93447],[-54.50009,-29.93313],[-54.49887,-29.93296],[-54.49789,-29.93362],[-54.49556,-29.93336],[-54.49447,-29.93382],[-54.49357,-29.93527],[-54.49216,-29.93596],[-54.48671,-29.93714],[-54.48581,-29.938],[-54.48392,-29.9386],[-54.48272,-29.93815],[-54.48037,-29.93854],[-54.47909,-29.93999],[-54.47719,-29.94107],[-54.47546,-29.94389],[-54.47517,-29.94507],[-54.47178,-29.94863],[-54.47116,-29.94983],[-54.47093,-29.95163],[-54.47168,-29.95434],[-54.4714,-29.95592],[-54.47168,-29.95717],[-54.47092,-29.95784],[-54.47039,-29.95898],[-54.45439,-29.95982],[-54.4537,-29.96012],[-54.44491,-29.95573],[-54.44278,-29.95496],[-54.43938,-29.95402],[-54.43157,-29.95258],[-54.42527,-29.95121],[-54.42381,-29.95101],[-54.41572,-29.95053],[-54.40505,-29.94841],[-54.40452,-29.94649],[-54.40337,-29.94353],[-54.40113,-29.93948],[-54.40066,-29.93914],[-54.39491,-29.93859],[-54.39379,-29.93911],[-54.39287,-29.94003],[-54.3916,-29.93998],[-54.38918,-29.94046],[-54.38775,-29.94019],[-54.3861,-29.9387],[-54.3846,-29.93832],[-54.38274,-29.93838],[-54.37537,-29.93752],[-54.37371,-29.9371],[-54.3722,-29.93475],[-54.36894,-29.93408],[-54.36553,-29.93408],[-54.35325,-29.93581],[-54.35072,-29.93552],[-54.34904,-29.93476],[-54.34802,-29.93392],[-54.34494,-29.92994],[-54.34274,-29.92825],[-54.34018,-29.92768],[-54.33844,-29.92782],[-54.33541,-29.92862],[-54.33336,-29.92879],[-54.33104,-29.92836],[-54.32925,-29.92747],[-54.3264,-29.92496],[-54.32715,-29.91974],[-54.32418,-29.91957],[-54.32253,-29.91871],[-54.32144,-29.91853],[-54.32064,-29.91694],[-54.3207,-29.91448],[-54.31965,-29.91234],[-54.31958,-29.91135],[-54.31865,-29.90926],[-54.31765,-29.90781],[-54.31747,-29.90626],[-54.31651,-29.90411],[-54.3164,-29.90206],[-54.31606,-29.90116],[-54.31553,-29.8979],[-54.31562,-29.89517],[-54.31615,-29.89237],[-54.31658,-29.89126],[-54.31664,-29.88937],[-54.31546,-29.88751],[-54.31366,-29.88723],[-54.31219,-29.8864],[-54.31032,-29.88428],[-54.30935,-29.88205],[-54.30764,-29.88009],[-54.30578,-29.87897],[-54.3043,-29.87696],[-54.30413,-29.87473],[-54.30053,-29.87197],[-54.29908,-29.86981],[-54.29736,-29.86956],[-54.29597,-29.86903],[-54.29455,-29.86754],[-54.29389,-29.86526],[-54.29306,-29.86444],[-54.29106,-29.86455],[-54.29015,-29.86429],[-54.28659,-29.86131],[-54.28546,-29.85979],[-54.28501,-29.85749],[-54.28378,-29.85729],[-54.28226,-29.85602],[-54.2827,-29.85501],[-54.28185,-29.85374],[-54.28225,-29.85304],[-54.28406,-29.85122],[-54.2838,-29.84982],[-54.28258,-29.84962],[-54.28209,-29.84721],[-54.28152,-29.84654],[-54.28089,-29.84427],[-54.27975,-29.84312],[-54.27984,-29.84188],[-54.27876,-29.84035],[-54.27783,-29.83858],[-54.27836,-29.83759],[-54.27826,-29.8363],[-54.27926,-29.83521],[-54.27901,-29.83355],[-54.27835,-29.8329],[-54.27661,-29.83258],[-54.27489,-29.83133],[-54.27432,-29.82885],[-54.2727,-29.82625],[-54.27187,-29.82411],[-54.26985,-29.82215],[-54.26976,-29.8206],[-54.26755,-29.81752],[-54.26602,-29.81666],[-54.26494,-29.81542],[-54.2651,-29.81344],[-54.26667,-29.81158],[-54.26623,-29.81034],[-54.26635,-29.80944],[-54.26842,-29.80711],[-54.26904,-29.8046],[-54.27096,-29.80221],[-54.2726,-29.80189],[-54.27604,-29.79818],[-54.2774,-29.79502],[-54.27999,-29.79288],[-54.28207,-29.79181],[-54.28284,-29.79007],[-54.28413,-29.78904],[-54.28497,-29.78733],[-54.28516,-29.78611],[-54.28629,-29.78433],[-54.28591,-29.77918],[-54.28783,-29.7781],[-54.28902,-29.77668],[-54.28926,-29.77419],[-54.29067,-29.7712],[-54.29376,-29.76571],[-54.29394,-29.76486],[-54.2935,-29.76315],[-54.29275,-29.76182],[-54.29228,-29.75889],[-54.2934,-29.75631],[-54.29468,-29.75466],[-54.29504,-29.75291],[-54.29653,-29.75113],[-54.29775,-29.75052],[-54.3014,-29.74787],[-54.30308,-29.74733],[-54.30377,-29.74655],[-54.30532,-29.74369],[-54.30591,-29.73891],[-54.30504,-29.73691],[-54.30655,-29.73675],[-54.30819,-29.73744],[-54.30986,-29.73746],[-54.31053,-29.73782],[-54.31163,-29.73682],[-54.31331,-29.73596],[-54.31365,-29.73465],[-54.31452,-29.73494],[-54.3163,-29.73442],[-54.31684,-29.73385],[-54.31916,-29.73294],[-54.31941,-29.7319],[-54.32045,-29.73156],[-54.3208,-29.73067],[-54.32238,-29.73049],[-54.32351,-29.73113],[-54.32414,-29.73221],[-54.32627,-29.73205],[-54.32733,-29.73149],[-54.32746,-29.72991],[-54.32881,-29.73021],[-54.3305,-29.73098],[-54.33081,-29.72973],[-54.33182,-29.73022],[-54.33266,-29.72976],[-54.33369,-29.72811],[-54.33406,-29.72698],[-54.33504,-29.72756],[-54.33597,-29.72668],[-54.33808,-29.72686],[-54.33873,-29.72635],[-54.34053,-29.72739],[-54.34149,-29.72949],[-54.34346,-29.72944],[-54.34413,-29.73024],[-54.34641,-29.7298],[-54.34783,-29.7306],[-54.34875,-29.73225],[-54.3496,-29.73278],[-54.35138,-29.73268],[-54.35199,-29.73313],[-54.35318,-29.73293],[-54.35466,-29.73202],[-54.35723,-29.73158],[-54.35875,-29.73196],[-54.36028,-29.73286],[-54.36007,-29.73489],[-54.36103,-29.73567],[-54.35999,-29.73637],[-54.36053,-29.73751],[-54.36001,-29.73835],[-54.36381,-29.73951],[-54.36308,-29.74045],[-54.36361,-29.74151],[-54.36434,-29.74171],[-54.36566,-29.74023],[-54.36653,-29.74055],[-54.36733,-29.74005],[-54.36948,-29.73967],[-54.37001,-29.73868],[-54.36806,-29.73826],[-54.36868,-29.73688],[-54.36834,-29.73592],[-54.37066,-29.73533],[-54.37341,-29.73491],[-54.37459,-29.73524],[-54.37502,-29.73623],[-54.37789,-29.73344],[-54.37922,-29.73292],[-54.38143,-29.73312],[-54.38258,-29.73407],[-54.38257,-29.73514],[-54.38332,-29.73599],[-54.38424,-29.73611],[-54.38459,-29.73693],[-54.3858,-29.73714],[-54.38655,-29.73796],[-54.38639,-29.73957],[-54.38733,-29.7396],[-54.38812,-29.7388],[-54.38906,-29.73868],[-54.38975,-29.73799],[-54.39075,-29.73779],[-54.39173,-29.73678],[-54.39223,-29.73777],[-54.39391,-29.73802],[-54.39499,-29.73785],[-54.39581,-29.73867],[-54.39683,-29.73863],[-54.39728,-29.73929],[-54.39852,-29.73759],[-54.39947,-29.73779],[-54.40061,-29.73728],[-54.40159,-29.73818],[-54.40254,-29.73844],[-54.40544,-29.73812],[-54.40713,-29.7385],[-54.40828,-29.73949],[-54.40799,-29.7404],[-54.4088,-29.74207],[-54.40989,-29.74159],[-54.41255,-29.74146],[-54.41433,-29.74173],[-54.41445,-29.74312],[-54.41626,-29.74339],[-54.41757,-29.74303],[-54.41782,-29.74376],[-54.41893,-29.74428],[-54.42026,-29.74341],[-54.4211,-29.74434],[-54.42241,-29.74372],[-54.42331,-29.7438],[-54.42359,-29.74509],[-54.42534,-29.74505],[-54.42501,-29.74671],[-54.4259,-29.74757],[-54.42684,-29.7463],[-54.42791,-29.74703],[-54.42873,-29.74635],[-54.43066,-29.74662],[-54.43189,-29.74777],[-54.43292,-29.74744],[-54.43283,-29.74663],[-54.43505,-29.74555],[-54.43616,-29.74543],[-54.43821,-29.74685],[-54.44094,-29.74706],[-54.44246,-29.74532],[-54.44353,-29.74451],[-54.44468,-29.74559],[-54.44426,-29.74671],[-54.44456,-29.74756],[-54.44588,-29.74739],[-54.44643,-29.74688],[-54.44602,-29.7455],[-54.4474,-29.74582],[-54.45011,-29.7457],[-54.45062,-29.74437],[-54.45419,-29.74308],[-54.45497,-29.74402],[-54.45603,-29.74385],[-54.45621,-29.74273],[-54.45713,-29.74256],[-54.4605,-29.7407],[-54.46149,-29.7415],[-54.46243,-29.7413],[-54.46252,-29.74019],[-54.46385,-29.73914],[-54.46558,-29.73938],[-54.466,-29.73814],[-54.46847,-29.73815],[-54.46975,-29.7389],[-54.47084,-29.73892],[-54.47275,-29.73805],[-54.47349,-29.73887],[-54.47493,-29.73816],[-54.47662,-29.73871],[-54.47762,-29.73821],[-54.47874,-29.73821],[-54.47952,-29.73681],[-54.48232,-29.73651],[-54.48579,-29.73714],[-54.48691,-29.73584],[-54.48819,-29.73553],[-54.48869,-29.73658],[-54.49012,-29.73673],[-54.49099,-29.7376],[-54.49073,-29.73831],[-54.49174,-29.73936],[-54.49153,-29.74182],[-54.49199,-29.74253],[-54.49146,-29.74431],[-54.4914,-29.74733],[-54.49219,-29.74953],[-54.49311,-29.75029],[-54.49488,-29.7504],[-54.4996,-29.74864],[-54.50187,-29.74743],[-54.5031,-29.74713],[-54.50396,-29.74791],[-54.50414,-29.74959],[-54.5048,-29.75066],[-54.50814,-29.7522],[-54.51123,-29.75211],[-54.51211,-29.75262],[-54.51311,-29.75425],[-54.51442,-29.75474],[-54.51637,-29.75315],[-54.51771,-29.75274],[-54.51936,-29.75307],[-54.51992,-29.75457],[-54.5193,-29.75555],[-54.51695,-29.75736],[-54.51742,-29.7582],[-54.51916,-29.75884],[-54.52158,-29.7609],[-54.52251,-29.76107],[-54.52599,-29.7604],[-54.52745,-29.76055],[-54.52904,-29.75992],[-54.52916,-29.75835],[-54.53005,-29.75774],[-54.5306,-29.75835],[-54.53117,-29.76119],[-54.53148,-29.76382],[-54.53107,-29.76484],[-54.52921,-29.76634],[-54.52931,-29.76742],[-54.53105,-29.76969],[-54.53227,-29.77056],[-54.53511,-29.7708],[-54.53577,-29.77161],[-54.53615,-29.77361],[-54.53741,-29.77446],[-54.54073,-29.77524],[-54.54262,-29.77628],[-54.54407,-29.77769],[-54.54481,-29.77877],[-54.54617,-29.77984],[-54.54788,-29.77991],[-54.55047,-29.77835],[-54.5526,-29.7782],[-54.55327,-29.77916],[-54.55285,-29.78027],[-54.55088,-29.78156],[-54.55081,-29.78241],[-54.55242,-29.78251],[-54.55409,-29.78119],[-54.55481,-29.77923],[-54.55651,-29.7791],[-54.55836,-29.78106],[-54.55916,-29.7822],[-54.55957,-29.7845],[-54.55869,-29.78573],[-54.55635,-29.78655],[-54.55556,-29.78715],[-54.55536,-29.78883],[-54.55589,-29.78968],[-54.55852,-29.79131],[-54.56129,-29.79239],[-54.56265,-29.79257],[-54.5642,-29.79332],[-54.56467,-29.79405],[-54.56417,-29.79591],[-54.56436,-29.79753],[-54.56504,-29.79796],[-54.56725,-29.79806],[-54.56993,-29.79921],[-54.57226,-29.79976],[-54.5746,-29.79948],[-54.5759,-29.8002],[-54.57627,-29.80208],[-54.5761,-29.80308],[-54.57515,-29.80421],[-54.57341,-29.80442],[-54.57139,-29.80345],[-54.57028,-29.80353],[-54.57013,-29.80424],[-54.5712,-29.80638],[-54.57107,-29.80728],[-54.57023,-29.80785],[-54.56904,-29.80783],[-54.56804,-29.807],[-54.56809,-29.80526],[-54.56669,-29.80492],[-54.56547,-29.80549],[-54.56521,-29.80628],[-54.56672,-29.80778],[-54.56688,-29.81002],[-54.56795,-29.81052],[-54.56993,-29.81018],[-54.57103,-29.81064],[-54.57164,-29.81145],[-54.57257,-29.81164],[-54.57473,-29.81097],[-54.57613,-29.81163],[-54.57704,-29.8141],[-54.5776,-29.81457],[-54.57949,-29.81471],[-54.58184,-29.81417],[-54.58537,-29.81461],[-54.58744,-29.81527],[-54.58888,-29.81606],[-54.59138,-29.81808],[-54.59372,-29.82019],[-54.59622,-29.82117],[-54.59882,-29.82145],[-54.59986,-29.8212],[-54.60425,-29.8191],[-54.60539,-29.81834],[-54.60666,-29.81673],[-54.60674,-29.81523],[-54.60528,-29.8137],[-54.60307,-29.81342],[-54.60184,-29.81302],[-54.60125,-29.81236],[-54.60129,-29.81081],[-54.60216,-29.80956],[-54.60336,-29.80872],[-54.60555,-29.80876],[-54.60762,-29.81147],[-54.60872,-29.81204],[-54.61024,-29.81186],[-54.61282,-29.81068],[-54.61385,-29.80976],[-54.61511,-29.80922],[-54.61632,-29.80917],[-54.6183,-29.81027],[-54.61917,-29.81257],[-54.61894,-29.81448],[-54.61919,-29.81515],[-54.62065,-29.81553],[-54.62295,-29.81518],[-54.62478,-29.81398],[-54.62509,-29.8124],[-54.62581,-29.81129],[-54.62728,-29.81115],[-54.6282,-29.81216],[-54.62881,-29.81366],[-54.62953,-29.81436],[-54.63294,-29.81462],[-54.63561,-29.81532],[-54.63816,-29.81709],[-54.63884,-29.81733],[-54.64096,-29.81723],[-54.64231,-29.81602],[-54.64233,-29.81467],[-54.64041,-29.81293],[-54.64019,-29.81214],[-54.64083,-29.81124],[-54.64326,-29.81038],[-54.64432,-29.80868],[-54.64479,-29.80629],[-54.64639,-29.80598],[-54.64898,-29.80677],[-54.65501,-29.8074],[-54.65586,-29.80795],[-54.65662,-29.80906],[-54.65661,-29.81092],[-54.65694,-29.81188],[-54.65779,-29.81188],[-54.65923,-29.81108],[-54.66254,-29.81047],[-54.66469,-29.80927],[-54.66602,-29.80891],[-54.6679,-29.80898],[-54.67023,-29.81015],[-54.67169,-29.81016],[-54.67307,-29.80936],[-54.67402,-29.80829],[-54.6757,-29.80792],[-54.67708,-29.80804],[-54.67854,-29.80868],[-54.68028,-29.81109],[-54.68097,-29.8117],[-54.68252,-29.8121],[-54.6841,-29.81174],[-54.68594,-29.81015],[-54.68657,-29.80877],[-54.68742,-29.80869],[-54.68811,-29.80941],[-54.68843,-29.81122],[-54.68918,-29.81347],[-54.68989,-29.81461],[-54.69159,-29.81539],[-54.69263,-29.81542],[-54.69479,-29.81616],[-54.69663,-29.81772],[-54.69717,-29.81879],[-54.69724,-29.82335],[-54.69774,-29.82462],[-54.69876,-29.82533],[-54.70093,-29.8256],[-54.70272,-29.82659],[-54.70355,-29.82901],[-54.70507,-29.82969],[-54.70697,-29.82933],[-54.70791,-29.82876],[-54.70919,-29.82662],[-54.711,-29.82604],[-54.71191,-29.82687],[-54.71174,-29.82951],[-54.71256,-29.83048],[-54.71348,-29.83043],[-54.71684,-29.82921],[-54.7191,-29.82912],[-54.72072,-29.82839],[-54.72086,-29.82704],[-54.72024,-29.82579],[-54.72021,-29.8247],[-54.72132,-29.82405],[-54.72356,-29.82394],[-54.72454,-29.82455],[-54.72447,-29.82591],[-54.72287,-29.82844],[-54.72164,-29.82994],[-54.72213,-29.83108],[-54.72324,-29.8313],[-54.72471,-29.83031],[-54.72663,-29.82701],[-54.72778,-29.82583],[-54.72986,-29.82563],[-54.73189,-29.82646],[-54.73336,-29.82622],[-54.73551,-29.8236],[-54.73603,-29.82333],[-54.73743,-29.82371],[-54.73814,-29.82455],[-54.73809,-29.82672],[-54.73663,-29.82831],[-54.73627,-29.82972],[-54.7371,-29.83102],[-54.7379,-29.83136],[-54.74164,-29.83143],[-54.74196,-29.83448],[-54.74171,-29.83519],[-54.7403,-29.83539],[-54.73903,-29.835],[-54.73753,-29.83372],[-54.73701,-29.83473],[-54.73741,-29.83734],[-54.73895,-29.83834],[-54.73812,-29.83963],[-54.73632,-29.83939],[-54.73585,-29.84011],[-54.73599,-29.84122],[-54.7347,-29.84353],[-54.73523,-29.84637],[-54.73453,-29.84868],[-54.7345,-29.8499],[-54.73333,-29.85081],[-54.73281,-29.85181],[-54.73308,-29.85346],[-54.7327,-29.85429],[-54.73039,-29.85644],[-54.72889,-29.85742],[-54.72756,-29.85922],[-54.72482,-29.85872],[-54.72357,-29.85936],[-54.72156,-29.86188],[-54.72198,-29.86324],[-54.721,-29.8652],[-54.7223,-29.86581],[-54.72295,-29.86695],[-54.72106,-29.86869],[-54.72054,-29.86979],[-54.72106,-29.87298],[-54.71942,-29.87472],[-54.72003,-29.87974],[-54.71832,-29.88093],[-54.71598,-29.88072],[-54.71457,-29.88132],[-54.71365,-29.88227],[-54.71218,-29.88455],[-54.71031,-29.88549],[-54.70937,-29.88725],[-54.70821,-29.88693],[-54.70676,-29.88739],[-54.70569,-29.88731],[-54.70464,-29.88837],[-54.70367,-29.88769],[-54.70272,-29.88778],[-54.70099,-29.88939],[-54.69946,-29.88954],[-54.69734,-29.89334],[-54.69557,-29.89546],[-54.69401,-29.89554],[-54.69305,-29.89604],[-54.69208,-29.89731],[-54.69139,-29.89933],[-54.68994,-29.90084],[-54.68897,-29.90392],[-54.68815,-29.90447],[-54.68782,-29.90637],[-54.68838,-29.90718],[-54.68747,-29.90911],[-54.68753,-29.91111],[-54.68689,-29.91207],[-54.68479,-29.9121],[-54.68332,-29.91378],[-54.6831,-29.9144],[-54.68423,-29.9161],[-54.68331,-29.91681],[-54.68117,-29.91685],[-54.67964,-29.92034],[-54.67882,-29.92131],[-54.6761,-29.92372],[-54.67375,-29.92484],[-54.67312,-29.9257],[-54.67076,-29.92635],[-54.67025,-29.92703],[-54.66914,-29.92719],[-54.66791,-29.92798],[-54.66688,-29.92807],[-54.66571,-29.92899],[-54.66577,-29.92985],[-54.66494,-29.9304],[-54.66387,-29.93038],[-54.66312,-29.93163],[-54.66131,-29.9327],[-54.66171,-29.93461],[-54.66152,-29.93926],[-54.66118,-29.94169],[-54.66063,-29.94319],[-54.65986,-29.94432],[-54.65929,-29.94636],[-54.65755,-29.94837],[-54.65638,-29.949],[-54.65587,-29.94978],[-54.65363,-29.94876],[-54.65003,-29.94814],[-54.64871,-29.94774],[-54.64608,-29.94394],[-54.64584,-29.94037],[-54.64335,-29.93742],[-54.64226,-29.93695],[-54.63823,-29.93618],[-54.63722,-29.93499],[-54.63593,-29.935],[-54.6334,-29.93674],[-54.6311,-29.93743],[-54.62632,-29.93659],[-54.62536,-29.93748],[-54.62391,-29.93962],[-54.62317,-29.94005],[-54.62169,-29.94635],[-54.62311,-29.95201],[-54.62322,-29.95352],[-54.6198,-29.9588],[-54.61934,-29.96226],[-54.61764,-29.96671],[-54.61675,-29.97006],[-54.61676,-29.97317],[-54.61762,-29.97873],[-54.61873,-29.98066],[-54.61872,-29.98198],[-54.61726,-29.98441],[-54.61724,-29.98597],[-54.61507,-29.98751]]]},"properties":{"codigo":"430290715","name":"Umbu","population":675,"households":406,"areaKm2":784.2223,"density":0.9}}]}