{"type":"FeatureCollection","features":[{"type":"Feature","geometry":{"type":"Polygon","coordinates":[[[-51.05555,-29.66735],[-51.05536,-29.66762],[-51.05545,-29.66871],[-51.05457,-29.66885],[-51.0547,-29.66969],[-51.05396,-29.66953],[-51.05413,-29.66784],[-51.05312,-29.66647],[-51.05143,-29.66556],[-51.05054,-29.66525],[-51.05107,-29.66398],[-51.05484,-29.66012],[-51.0554,-29.65932],[-51.05714,-29.65917],[-51.05795,-29.66466],[-51.05827,-29.66648],[-51.0567,-29.66667],[-51.05599,-29.66692],[-51.05555,-29.66735]]]},"properties":{"codigo":"4303905001","name":"Alto Paulista","population":2380,"households":1150,"areaKm2":0.4424,"density":5379.3}}]}