{"type":"FeatureCollection","features":[{"type":"Feature","geometry":{"type":"Polygon","coordinates":[[[-53.50963,-27.20392],[-53.51099,-27.21019],[-53.51005,-27.21012],[-53.5086,-27.21108],[-53.50716,-27.21316],[-53.5072,-27.21355],[-53.50927,-27.21538],[-53.50923,-27.21667],[-53.5074,-27.22017],[-53.50545,-27.22223],[-53.50489,-27.22433],[-53.50299,-27.22587],[-53.50265,-27.2268],[-53.5035,-27.2301],[-53.5034,-27.23239],[-53.50296,-27.23509],[-53.50186,-27.23848],[-53.50039,-27.24093],[-53.49987,-27.24252],[-53.49876,-27.24426],[-53.49784,-27.24468],[-53.49678,-27.24582],[-53.49714,-27.24917],[-53.50002,-27.24923],[-53.5018,-27.2483],[-53.50395,-27.24595],[-53.50743,-27.24562],[-53.50896,-27.24607],[-53.51189,-27.24614],[-53.51319,-27.24676],[-53.5153,-27.24676],[-53.51662,-27.24644],[-53.51904,-27.24674],[-53.52046,-27.24768],[-53.52227,-27.24847],[-53.52275,-27.24898],[-53.52279,-27.25084],[-53.52311,-27.25189],[-53.52527,-27.25351],[-53.52702,-27.25513],[-53.52814,-27.25542],[-53.52875,-27.25413],[-53.52959,-27.25357],[-53.53037,-27.25217],[-53.5323,-27.25101],[-53.53294,-27.24992],[-53.53374,-27.24952],[-53.53552,-27.24722],[-53.53683,-27.2466],[-53.53908,-27.24913],[-53.53855,-27.25012],[-53.53882,-27.26039],[-53.53772,-27.26172],[-53.53022,-27.2646],[-53.52753,-27.26045],[-53.52562,-27.25903],[-53.52361,-27.25919],[-53.52206,-27.26071],[-53.52154,-27.26392],[-53.52211,-27.2694],[-53.52099,-27.27295],[-53.52112,-27.27668],[-53.52004,-27.27867],[-53.51851,-27.27928],[-53.51601,-27.27882],[-53.51486,-27.27733],[-53.51566,-27.27385],[-53.51217,-27.27331],[-53.50733,-27.27676],[-53.50769,-27.28106],[-53.50443,-27.28436],[-53.50312,-27.28479],[-53.50081,-27.28361],[-53.49867,-27.28354],[-53.49646,-27.28509],[-53.4951,-27.28829],[-53.49326,-27.2891],[-53.4901,-27.28902],[-53.48772,-27.29001],[-53.48769,-27.29028],[-53.4854,-27.29061],[-53.48365,-27.29026],[-53.48189,-27.29097],[-53.4809,-27.29184],[-53.47957,-27.29236],[-53.4772,-27.29382],[-53.47343,-27.29405],[-53.4721,-27.29443],[-53.47047,-27.29548],[-53.46984,-27.2962],[-53.4694,-27.29757],[-53.46852,-27.29804],[-53.46651,-27.29751],[-53.46535,-27.29678],[-53.46429,-27.29705],[-53.46252,-27.29565],[-53.46121,-27.29578],[-53.46016,-27.29539],[-53.45877,-27.29625],[-53.45768,-27.29631],[-53.45681,-27.29716],[-53.45646,-27.29825],[-53.45412,-27.29964],[-53.45128,-27.30037],[-53.44879,-27.30046],[-53.44715,-27.30183],[-53.44659,-27.30385],[-53.44579,-27.30467],[-53.44467,-27.30714],[-53.44134,-27.3092],[-53.4401,-27.31046],[-53.43955,-27.31165],[-53.4367,-27.31336],[-53.43423,-27.31295],[-53.43377,-27.31349],[-53.43228,-27.31371],[-53.4315,-27.31419],[-53.43035,-27.31412],[-53.42854,-27.31551],[-53.4272,-27.31804],[-53.42554,-27.32056],[-53.42453,-27.32101],[-53.42409,-27.32274],[-53.42328,-27.32256],[-53.42279,-27.32171],[-53.42206,-27.31838],[-53.41912,-27.31899],[-53.41682,-27.31856],[-53.4136,-27.31866],[-53.4111,-27.31955],[-53.40953,-27.31974],[-53.40647,-27.31935],[-53.40502,-27.31949],[-53.40405,-27.32015],[-53.40268,-27.32055],[-53.40185,-27.32001],[-53.39971,-27.31799],[-53.39776,-27.31764],[-53.39738,-27.31635],[-53.3987,-27.31481],[-53.39773,-27.31411],[-53.39544,-27.3139],[-53.39447,-27.31273],[-53.39442,-27.31086],[-53.39125,-27.30865],[-53.39013,-27.30932],[-53.38912,-27.30911],[-53.38893,-27.30703],[-53.39001,-27.30589],[-53.39029,-27.30482],[-53.39033,-27.30268],[-53.39013,-27.3014],[-53.38901,-27.30021],[-53.38577,-27.29879],[-53.3837,-27.29637],[-53.38181,-27.29583],[-53.38116,-27.29652],[-53.38012,-27.29607],[-53.37982,-27.29483],[-53.3815,-27.29372],[-53.38242,-27.29262],[-53.38078,-27.29049],[-53.37925,-27.28919],[-53.37898,-27.28835],[-53.37774,-27.28674],[-53.37591,-27.2849],[-53.37532,-27.28366],[-53.37461,-27.28314],[-53.372,-27.27916],[-53.37257,-27.27804],[-53.37173,-27.27682],[-53.37173,-27.27592],[-53.3711,-27.27481],[-53.37078,-27.27324],[-53.36961,-27.27064],[-53.36751,-27.26919],[-53.36588,-27.26863],[-53.36487,-27.26787],[-53.36369,-27.26772],[-53.36241,-27.26871],[-53.36093,-27.26868],[-53.3608,-27.2676],[-53.3595,-27.26761],[-53.35623,-27.26909],[-53.35511,-27.26902],[-53.35512,-27.26816],[-53.35725,-27.26464],[-53.35757,-27.26378],[-53.35651,-27.26363],[-53.35423,-27.2628],[-53.3544,-27.26107],[-53.35572,-27.25905],[-53.35537,-27.25778],[-53.35295,-27.25621],[-53.35224,-27.25651],[-53.35132,-27.25612],[-53.35083,-27.25494],[-53.35237,-27.25217],[-53.35193,-27.25108],[-53.35095,-27.25126],[-53.34985,-27.25199],[-53.34864,-27.25092],[-53.34736,-27.25093],[-53.34636,-27.25264],[-53.34516,-27.25258],[-53.34542,-27.25021],[-53.34516,-27.24851],[-53.34553,-27.24788],[-53.34763,-27.2478],[-53.34788,-27.24733],[-53.34631,-27.24535],[-53.34578,-27.2439],[-53.34766,-27.24275],[-53.34948,-27.24132],[-53.34974,-27.24064],[-53.34934,-27.23958],[-53.3514,-27.23983],[-53.3522,-27.23947],[-53.35336,-27.237],[-53.35635,-27.23708],[-53.36128,-27.23485],[-53.36202,-27.23382],[-53.36448,-27.23449],[-53.36893,-27.23328],[-53.37261,-27.23627],[-53.37573,-27.23701],[-53.38182,-27.23664],[-53.38661,-27.23832],[-53.38931,-27.23699],[-53.39119,-27.23431],[-53.39269,-27.23406],[-53.39482,-27.23858],[-53.39637,-27.23547],[-53.40081,-27.23654],[-53.40637,-27.23311],[-53.40932,-27.229],[-53.41208,-27.22281],[-53.41543,-27.22554],[-53.42084,-27.2243],[-53.42372,-27.22159],[-53.43026,-27.22171],[-53.43183,-27.21942],[-53.43423,-27.21776],[-53.43802,-27.20793],[-53.43967,-27.20831],[-53.43964,-27.20701],[-53.44424,-27.20456],[-53.44398,-27.20366],[-53.4471,-27.19981],[-53.44885,-27.20044],[-53.45429,-27.19968],[-53.45729,-27.19967],[-53.45936,-27.19718],[-53.46305,-27.19568],[-53.46902,-27.19538],[-53.47791,-27.19329],[-53.48147,-27.19387],[-53.48259,-27.19056],[-53.48476,-27.19286],[-53.48817,-27.19377],[-53.48833,-27.19545],[-53.4896,-27.19952],[-53.49046,-27.20104],[-53.49206,-27.2028],[-53.49308,-27.20348],[-53.49641,-27.20418],[-53.50057,-27.20433],[-53.50446,-27.20418],[-53.50748,-27.20421],[-53.50963,-27.20392]]]},"properties":{"codigo":"430340005","name":"Caiçara","population":3931,"households":1729,"areaKm2":143.8918,"density":27.3}},{"type":"Feature","geometry":{"type":"Polygon","coordinates":[[[-53.59971,-27.18935],[-53.60019,-27.19155],[-53.59994,-27.19484],[-53.59917,-27.19564],[-53.59788,-27.19589],[-53.59507,-27.19519],[-53.59208,-27.19494],[-53.58682,-27.19491],[-53.58577,-27.1955],[-53.58542,-27.19678],[-53.58539,-27.20258],[-53.58464,-27.20509],[-53.58243,-27.20776],[-53.58203,-27.20859],[-53.58008,-27.21041],[-53.57891,-27.21032],[-53.57697,-27.20858],[-53.57691,-27.2064],[-53.57614,-27.20362],[-53.57584,-27.20325],[-53.57216,-27.20775],[-53.57031,-27.20963],[-53.56808,-27.21385],[-53.56797,-27.21931],[-53.56659,-27.22188],[-53.56532,-27.22283],[-53.5654,-27.2235],[-53.56113,-27.22462],[-53.56203,-27.22699],[-53.56244,-27.23001],[-53.56209,-27.23054],[-53.56046,-27.23093],[-53.55929,-27.23156],[-53.55837,-27.23505],[-53.55766,-27.23589],[-53.55397,-27.23766],[-53.54963,-27.23626],[-53.54633,-27.23755],[-53.54955,-27.24888],[-53.5487,-27.25],[-53.54623,-27.25026],[-53.54228,-27.24739],[-53.54021,-27.24786],[-53.53855,-27.25012],[-53.53908,-27.24913],[-53.53683,-27.2466],[-53.53552,-27.24722],[-53.53374,-27.24952],[-53.53294,-27.24992],[-53.5323,-27.25101],[-53.53037,-27.25217],[-53.52959,-27.25357],[-53.52875,-27.25413],[-53.52814,-27.25542],[-53.52702,-27.25513],[-53.52527,-27.25351],[-53.52311,-27.25189],[-53.52279,-27.25084],[-53.52275,-27.24898],[-53.52227,-27.24847],[-53.52046,-27.24768],[-53.51904,-27.24674],[-53.51662,-27.24644],[-53.5153,-27.24676],[-53.51319,-27.24676],[-53.51189,-27.24614],[-53.50896,-27.24607],[-53.50743,-27.24562],[-53.50395,-27.24595],[-53.5018,-27.2483],[-53.50002,-27.24923],[-53.49714,-27.24917],[-53.49678,-27.24582],[-53.49784,-27.24468],[-53.49876,-27.24426],[-53.49987,-27.24252],[-53.50039,-27.24093],[-53.50186,-27.23848],[-53.50296,-27.23509],[-53.5034,-27.23239],[-53.5035,-27.2301],[-53.50265,-27.2268],[-53.50299,-27.22587],[-53.50489,-27.22433],[-53.50545,-27.22223],[-53.5074,-27.22017],[-53.50923,-27.21667],[-53.50927,-27.21538],[-53.5072,-27.21355],[-53.50716,-27.21316],[-53.5086,-27.21108],[-53.51005,-27.21012],[-53.51099,-27.21019],[-53.50963,-27.20392],[-53.51537,-27.20296],[-53.51825,-27.20218],[-53.52385,-27.19947],[-53.52603,-27.19823],[-53.53074,-27.19455],[-53.53181,-27.19323],[-53.53723,-27.18719],[-53.53842,-27.18609],[-53.54137,-27.18235],[-53.54242,-27.1808],[-53.54549,-27.17805],[-53.54779,-27.17637],[-53.55191,-27.17401],[-53.554,-27.17318],[-53.55624,-27.17265],[-53.55939,-27.17233],[-53.56288,-27.17258],[-53.56545,-27.17343],[-53.57111,-27.17566],[-53.5746,-27.17757],[-53.58156,-27.18202],[-53.58911,-27.18641],[-53.59144,-27.18747],[-53.59971,-27.18935]]]},"properties":{"codigo":"430340010","name":"Ipuaçu","population":905,"households":485,"areaKm2":45.2686,"density":20}}]}