{"type":"FeatureCollection","features":[{"type":"Feature","geometry":{"type":"Polygon","coordinates":[[[-53.78021,-27.75479],[-53.77827,-27.75627],[-53.77441,-27.75781],[-53.77339,-27.75917],[-53.77196,-27.75945],[-53.76966,-27.75837],[-53.76895,-27.75842],[-53.76739,-27.76002],[-53.76696,-27.76157],[-53.76984,-27.76317],[-53.77175,-27.76582],[-53.7735,-27.76958],[-53.77354,-27.77026],[-53.77271,-27.77169],[-53.77079,-27.77302],[-53.76955,-27.77247],[-53.76726,-27.77382],[-53.76655,-27.77384],[-53.76388,-27.77206],[-53.76364,-27.77045],[-53.76259,-27.76901],[-53.7618,-27.76893],[-53.75982,-27.77078],[-53.75873,-27.77141],[-53.75686,-27.77155],[-53.7548,-27.7714],[-53.75243,-27.77064],[-53.7507,-27.7697],[-53.7475,-27.76907],[-53.74688,-27.76982],[-53.74719,-27.77086],[-53.74724,-27.77294],[-53.74626,-27.77451],[-53.74526,-27.77502],[-53.74364,-27.77516],[-53.74163,-27.77477],[-53.74092,-27.77501],[-53.73991,-27.77563],[-53.73915,-27.77688],[-53.73748,-27.77764],[-53.73657,-27.77746],[-53.73697,-27.7761],[-53.73512,-27.77513],[-53.73318,-27.77494],[-53.73265,-27.77462],[-53.7309,-27.77252],[-53.72976,-27.77403],[-53.72798,-27.77488],[-53.7259,-27.77548],[-53.72403,-27.77461],[-53.72341,-27.77272],[-53.72129,-27.77149],[-53.71928,-27.77367],[-53.71594,-27.7722],[-53.71515,-27.7723],[-53.71217,-27.77404],[-53.70992,-27.77401],[-53.70812,-27.77484],[-53.70717,-27.77661],[-53.70529,-27.77709],[-53.70371,-27.77641],[-53.70294,-27.77655],[-53.70211,-27.77786],[-53.70281,-27.77874],[-53.70274,-27.77962],[-53.70192,-27.7798],[-53.7009,-27.78085],[-53.69923,-27.78105],[-53.69903,-27.7818],[-53.69706,-27.78368],[-53.69556,-27.78337],[-53.6917,-27.78378],[-53.68863,-27.78552],[-53.69011,-27.78624],[-53.68896,-27.7874],[-53.6875,-27.78799],[-53.68755,-27.78892],[-53.68642,-27.78965],[-53.68546,-27.78882],[-53.6845,-27.78742],[-53.68349,-27.78704],[-53.68199,-27.78753],[-53.68051,-27.78725],[-53.67914,-27.78562],[-53.67752,-27.78531],[-53.67544,-27.78601],[-53.67514,-27.78646],[-53.67545,-27.78885],[-53.67466,-27.79056],[-53.67406,-27.7911],[-53.67221,-27.79133],[-53.67091,-27.79269],[-53.66789,-27.79308],[-53.6657,-27.79401],[-53.66479,-27.79537],[-53.66461,-27.79732],[-53.66566,-27.79857],[-53.66562,-27.79941],[-53.66464,-27.79991],[-53.66345,-27.8023],[-53.6618,-27.80336],[-53.66058,-27.80154],[-53.65991,-27.80116],[-53.659,-27.80197],[-53.65847,-27.80385],[-53.65687,-27.80395],[-53.65572,-27.80299],[-53.65549,-27.80231],[-53.65386,-27.80201],[-53.65252,-27.80228],[-53.65209,-27.80282],[-53.65234,-27.80396],[-53.65178,-27.80541],[-53.65032,-27.80685],[-53.64904,-27.80648],[-53.64761,-27.80452],[-53.64712,-27.80426],[-53.64485,-27.80421],[-53.64332,-27.80311],[-53.64118,-27.80258],[-53.63619,-27.80247],[-53.63338,-27.80131],[-53.63195,-27.80104],[-53.62757,-27.79893],[-53.62327,-27.79932],[-53.62166,-27.79927],[-53.62002,-27.79853],[-53.61818,-27.79886],[-53.61476,-27.79857],[-53.61301,-27.79885],[-53.60944,-27.79867],[-53.60723,-27.79828],[-53.60608,-27.79639],[-53.60502,-27.79546],[-53.59882,-27.79586],[-53.59745,-27.7948],[-53.59384,-27.79335],[-53.5916,-27.79142],[-53.59093,-27.79013],[-53.5909,-27.78894],[-53.59174,-27.78689],[-53.5914,-27.78636],[-53.58956,-27.78529],[-53.58864,-27.78434],[-53.58611,-27.78309],[-53.58563,-27.78245],[-53.58025,-27.77901],[-53.57592,-27.77716],[-53.57487,-27.77632],[-53.57308,-27.77671],[-53.57217,-27.77582],[-53.56878,-27.77428],[-53.56798,-27.77274],[-53.56509,-27.77081],[-53.56378,-27.77075],[-53.56184,-27.77025],[-53.56047,-27.76824],[-53.55917,-27.76735],[-53.55966,-27.76473],[-53.56049,-27.76333],[-53.56177,-27.7641],[-53.56301,-27.76266],[-53.56306,-27.76176],[-53.56134,-27.76134],[-53.56071,-27.76042],[-53.56083,-27.75892],[-53.56049,-27.75628],[-53.56078,-27.75515],[-53.56055,-27.75381],[-53.5621,-27.75344],[-53.56294,-27.75411],[-53.56306,-27.75556],[-53.56465,-27.75643],[-53.56718,-27.75652],[-53.5696,-27.75632],[-53.57237,-27.75382],[-53.57333,-27.7537],[-53.57411,-27.75467],[-53.57542,-27.75478],[-53.57633,-27.75194],[-53.57627,-27.7487],[-53.57651,-27.74752],[-53.5758,-27.74631],[-53.57468,-27.74571],[-53.57361,-27.74602],[-53.57316,-27.74686],[-53.57182,-27.74797],[-53.57047,-27.74869],[-53.56956,-27.74864],[-53.56915,-27.74682],[-53.56702,-27.74569],[-53.56599,-27.7447],[-53.5658,-27.74329],[-53.56391,-27.74328],[-53.56136,-27.74423],[-53.56051,-27.74381],[-53.56093,-27.74268],[-53.56159,-27.74228],[-53.56335,-27.74218],[-53.5652,-27.7412],[-53.56633,-27.73962],[-53.56585,-27.73824],[-53.5666,-27.73645],[-53.56639,-27.73491],[-53.56455,-27.73401],[-53.56407,-27.73215],[-53.56457,-27.73152],[-53.56654,-27.73147],[-53.56784,-27.73033],[-53.56844,-27.72937],[-53.56959,-27.72921],[-53.57042,-27.72998],[-53.56996,-27.7312],[-53.56855,-27.73225],[-53.56833,-27.73469],[-53.56916,-27.73566],[-53.57022,-27.73535],[-53.5713,-27.73429],[-53.57237,-27.73276],[-53.5742,-27.73082],[-53.57494,-27.73057],[-53.57568,-27.732],[-53.57435,-27.73431],[-53.57456,-27.73541],[-53.57674,-27.73519],[-53.57823,-27.73635],[-53.57922,-27.7362],[-53.58065,-27.73494],[-53.58006,-27.73209],[-53.58108,-27.73049],[-53.58127,-27.72938],[-53.58008,-27.7292],[-53.57886,-27.72837],[-53.57751,-27.72526],[-53.57573,-27.72512],[-53.57506,-27.72447],[-53.57416,-27.72248],[-53.5739,-27.72028],[-53.57339,-27.71951],[-53.57192,-27.71906],[-53.57109,-27.71847],[-53.57068,-27.71623],[-53.57242,-27.71649],[-53.57391,-27.71746],[-53.57522,-27.71767],[-53.57715,-27.71727],[-53.57869,-27.71643],[-53.57842,-27.71469],[-53.58045,-27.71217],[-53.58124,-27.71198],[-53.58419,-27.71207],[-53.58751,-27.71416],[-53.58831,-27.71536],[-53.59019,-27.71542],[-53.59111,-27.71456],[-53.59161,-27.7134],[-53.59188,-27.7113],[-53.5913,-27.71054],[-53.58774,-27.70904],[-53.58667,-27.70763],[-53.58431,-27.70638],[-53.58281,-27.70637],[-53.58105,-27.70765],[-53.57917,-27.70846],[-53.577,-27.70773],[-53.57624,-27.70588],[-53.57671,-27.70356],[-53.57843,-27.70176],[-53.5818,-27.7007],[-53.58259,-27.69882],[-53.58265,-27.6974],[-53.58149,-27.69522],[-53.58139,-27.69432],[-53.58228,-27.69223],[-53.58344,-27.69051],[-53.58295,-27.68842],[-53.58135,-27.68648],[-53.58063,-27.68629],[-53.57877,-27.68752],[-53.57652,-27.68858],[-53.5756,-27.68843],[-53.57587,-27.68639],[-53.57527,-27.68599],[-53.57348,-27.68602],[-53.57089,-27.68751],[-53.57027,-27.68685],[-53.57148,-27.68516],[-53.57153,-27.68442],[-53.57091,-27.68231],[-53.57137,-27.68172],[-53.57241,-27.68201],[-53.57387,-27.68307],[-53.5755,-27.68385],[-53.57711,-27.68391],[-53.57917,-27.68248],[-53.57982,-27.68092],[-53.58064,-27.68057],[-53.5814,-27.68108],[-53.58264,-27.68114],[-53.58365,-27.6825],[-53.58481,-27.68273],[-53.5859,-27.68234],[-53.58683,-27.68292],[-53.58704,-27.68372],[-53.5886,-27.6848],[-53.58913,-27.68573],[-53.58949,-27.68785],[-53.59005,-27.68843],[-53.59128,-27.68835],[-53.59283,-27.68756],[-53.59469,-27.68773],[-53.59626,-27.68879],[-53.59875,-27.68846],[-53.6011,-27.6887],[-53.60199,-27.68853],[-53.6048,-27.6894],[-53.60522,-27.69053],[-53.60626,-27.69191],[-53.60633,-27.69434],[-53.60736,-27.69552],[-53.60885,-27.69542],[-53.60969,-27.69627],[-53.61204,-27.69584],[-53.61316,-27.69659],[-53.61561,-27.69678],[-53.61755,-27.69753],[-53.621,-27.70041],[-53.62321,-27.70348],[-53.62433,-27.70477],[-53.62634,-27.70558],[-53.62777,-27.70643],[-53.62988,-27.70711],[-53.63123,-27.70777],[-53.63227,-27.70902],[-53.63487,-27.70783],[-53.67265,-27.68957],[-53.67538,-27.68813],[-53.6758,-27.68487],[-53.67734,-27.68295],[-53.67935,-27.68237],[-53.6809,-27.68159],[-53.68351,-27.67892],[-53.68485,-27.67885],[-53.6859,-27.67732],[-53.68677,-27.67529],[-53.68799,-27.67498],[-53.6893,-27.67322],[-53.69066,-27.6727],[-53.69145,-27.6728],[-53.6952,-27.67126],[-53.70067,-27.66977],[-53.70499,-27.66819],[-53.70681,-27.66772],[-53.70981,-27.66731],[-53.71109,-27.66736],[-53.714,-27.66703],[-53.71367,-27.67024],[-53.7126,-27.67452],[-53.71261,-27.67594],[-53.71317,-27.67768],[-53.71335,-27.67926],[-53.71299,-27.68027],[-53.71287,-27.68424],[-53.71261,-27.6858],[-53.71167,-27.68767],[-53.71177,-27.68929],[-53.71539,-27.69234],[-53.71662,-27.69241],[-53.71841,-27.69183],[-53.71848,-27.68955],[-53.71931,-27.68901],[-53.72143,-27.68939],[-53.72316,-27.68883],[-53.72586,-27.68714],[-53.72916,-27.68597],[-53.72888,-27.68689],[-53.72733,-27.68806],[-53.72626,-27.68993],[-53.72583,-27.69231],[-53.72503,-27.69435],[-53.72262,-27.69713],[-53.72026,-27.69852],[-53.71992,-27.69895],[-53.7197,-27.70211],[-53.72153,-27.70248],[-53.7248,-27.70376],[-53.72818,-27.70657],[-53.7296,-27.70666],[-53.73202,-27.70484],[-53.73368,-27.70412],[-53.73627,-27.70519],[-53.73712,-27.70616],[-53.7376,-27.70736],[-53.73915,-27.70955],[-53.73994,-27.71231],[-53.74091,-27.71371],[-53.74305,-27.7133],[-53.74353,-27.71265],[-53.74461,-27.7132],[-53.74551,-27.71106],[-53.74628,-27.71196],[-53.74717,-27.71226],[-53.74819,-27.71334],[-53.74904,-27.71194],[-53.75025,-27.71156],[-53.75041,-27.71009],[-53.75389,-27.70894],[-53.75509,-27.70998],[-53.75662,-27.70922],[-53.75826,-27.71001],[-53.76093,-27.70974],[-53.76248,-27.71067],[-53.76426,-27.71006],[-53.76539,-27.71084],[-53.7646,-27.71173],[-53.76318,-27.71198],[-53.76252,-27.71263],[-53.76197,-27.71446],[-53.76203,-27.71678],[-53.76176,-27.71855],[-53.76098,-27.71918],[-53.75852,-27.71696],[-53.75848,-27.71497],[-53.75656,-27.71508],[-53.75573,-27.71678],[-53.75418,-27.71819],[-53.75405,-27.71875],[-53.75469,-27.72091],[-53.7553,-27.7217],[-53.75725,-27.72207],[-53.75858,-27.72296],[-53.76019,-27.7236],[-53.76326,-27.72338],[-53.76468,-27.72365],[-53.76746,-27.72361],[-53.77097,-27.72442],[-53.77106,-27.72874],[-53.77058,-27.72936],[-53.76803,-27.73028],[-53.76809,-27.72912],[-53.76756,-27.72879],[-53.76514,-27.72983],[-53.76361,-27.73146],[-53.7652,-27.73371],[-53.76673,-27.73453],[-53.7665,-27.73564],[-53.76489,-27.73538],[-53.76301,-27.73689],[-53.762,-27.73817],[-53.76113,-27.73986],[-53.76107,-27.74073],[-53.76265,-27.74268],[-53.76499,-27.74228],[-53.76659,-27.74304],[-53.76652,-27.74343],[-53.76464,-27.7445],[-53.76296,-27.74658],[-53.76142,-27.74597],[-53.7599,-27.74635],[-53.75772,-27.75169],[-53.75764,-27.75309],[-53.75883,-27.75459],[-53.76132,-27.75507],[-53.76314,-27.75439],[-53.76293,-27.75263],[-53.76392,-27.75037],[-53.76508,-27.75079],[-53.76566,-27.75302],[-53.76683,-27.75426],[-53.77021,-27.75421],[-53.77215,-27.75439],[-53.77497,-27.75363],[-53.77657,-27.75363],[-53.7783,-27.75279],[-53.77945,-27.75262],[-53.78025,-27.7533],[-53.78021,-27.75479]]]},"properties":{"codigo":"430590005","name":"Coronel Bicaco","population":5537,"households":2600,"areaKm2":196.0585,"density":28.2}},{"type":"Feature","geometry":{"type":"Polygon","coordinates":[[[-53.74473,-27.65596],[-53.74915,-27.66055],[-53.74938,-27.6606],[-53.75241,-27.66359],[-53.75412,-27.66475],[-53.75599,-27.66662],[-53.75875,-27.66845],[-53.76034,-27.67042],[-53.76264,-27.67226],[-53.76411,-27.67462],[-53.767,-27.67786],[-53.76863,-27.68023],[-53.76995,-27.68369],[-53.77022,-27.68498],[-53.77007,-27.6915],[-53.77084,-27.69238],[-53.77284,-27.69317],[-53.77292,-27.69373],[-53.77203,-27.69582],[-53.7731,-27.69796],[-53.77352,-27.69945],[-53.77316,-27.70193],[-53.77216,-27.70442],[-53.7744,-27.70708],[-53.77464,-27.70878],[-53.77412,-27.71004],[-53.77271,-27.71177],[-53.77169,-27.71265],[-53.7699,-27.71254],[-53.76891,-27.71158],[-53.76613,-27.71073],[-53.76539,-27.71084],[-53.76426,-27.71006],[-53.76248,-27.71067],[-53.76093,-27.70974],[-53.75826,-27.71001],[-53.75662,-27.70922],[-53.75509,-27.70998],[-53.75389,-27.70894],[-53.75041,-27.71009],[-53.75025,-27.71156],[-53.74904,-27.71194],[-53.74819,-27.71334],[-53.74717,-27.71226],[-53.74628,-27.71196],[-53.74551,-27.71106],[-53.74461,-27.7132],[-53.74353,-27.71265],[-53.74305,-27.7133],[-53.74091,-27.71371],[-53.73994,-27.71231],[-53.73915,-27.70955],[-53.7376,-27.70736],[-53.73712,-27.70616],[-53.73627,-27.70519],[-53.73368,-27.70412],[-53.73202,-27.70484],[-53.7296,-27.70666],[-53.72818,-27.70657],[-53.7248,-27.70376],[-53.72153,-27.70248],[-53.7197,-27.70211],[-53.71992,-27.69895],[-53.72026,-27.69852],[-53.72262,-27.69713],[-53.72503,-27.69435],[-53.72583,-27.69231],[-53.72626,-27.68993],[-53.72733,-27.68806],[-53.72888,-27.68689],[-53.72916,-27.68597],[-53.72586,-27.68714],[-53.72316,-27.68883],[-53.72143,-27.68939],[-53.71931,-27.68901],[-53.71848,-27.68955],[-53.71841,-27.69183],[-53.71662,-27.69241],[-53.71539,-27.69234],[-53.71177,-27.68929],[-53.71167,-27.68767],[-53.71261,-27.6858],[-53.71287,-27.68424],[-53.71299,-27.68027],[-53.71335,-27.67926],[-53.71317,-27.67768],[-53.71261,-27.67594],[-53.7126,-27.67452],[-53.71367,-27.67024],[-53.714,-27.66703],[-53.71565,-27.66694],[-53.71799,-27.66607],[-53.72156,-27.66445],[-53.72392,-27.66429],[-53.7258,-27.66466],[-53.72716,-27.66442],[-53.72926,-27.66297],[-53.73112,-27.66299],[-53.73164,-27.66246],[-53.73368,-27.66188],[-53.73513,-27.66024],[-53.73647,-27.66015],[-53.73738,-27.65897],[-53.73814,-27.65895],[-53.73952,-27.66066],[-53.74161,-27.65964],[-53.74245,-27.65872],[-53.74447,-27.65851],[-53.74514,-27.65768],[-53.74403,-27.65661],[-53.74473,-27.65596]]]},"properties":{"codigo":"430590010","name":"Antônio Kerpel","population":38,"households":21,"areaKm2":25.9111,"density":1.5}},{"type":"Feature","geometry":{"type":"Polygon","coordinates":[[[-53.65847,-27.80385],[-53.6582,-27.80559],[-53.65891,-27.80777],[-53.65901,-27.81048],[-53.65925,-27.8111],[-53.66087,-27.81302],[-53.6609,-27.81389],[-53.66002,-27.81517],[-53.65971,-27.81674],[-53.65803,-27.81952],[-53.65765,-27.82169],[-53.65762,-27.82491],[-53.65678,-27.82748],[-53.65661,-27.83092],[-53.65691,-27.83203],[-53.65811,-27.83323],[-53.65832,-27.83488],[-53.65944,-27.83626],[-53.65997,-27.83745],[-53.65957,-27.8394],[-53.66156,-27.84015],[-53.66814,-27.84185],[-53.66936,-27.84179],[-53.67152,-27.84087],[-53.67354,-27.8408],[-53.67479,-27.84045],[-53.67575,-27.83974],[-53.67755,-27.83692],[-53.67894,-27.83617],[-53.68094,-27.83572],[-53.68136,-27.83503],[-53.68431,-27.83376],[-53.68723,-27.83441],[-53.68895,-27.83421],[-53.68972,-27.8335],[-53.6909,-27.83336],[-53.6934,-27.83382],[-53.69527,-27.83442],[-53.69702,-27.83461],[-53.69834,-27.83523],[-53.70074,-27.83756],[-53.70275,-27.83765],[-53.7037,-27.83806],[-53.70502,-27.83926],[-53.70678,-27.83947],[-53.70904,-27.84083],[-53.71327,-27.84132],[-53.71543,-27.83935],[-53.71635,-27.84116],[-53.71805,-27.84106],[-53.71964,-27.84157],[-53.72319,-27.84531],[-53.72349,-27.84596],[-53.723,-27.84814],[-53.72094,-27.84978],[-53.71805,-27.8513],[-53.71826,-27.8521],[-53.72097,-27.8532],[-53.72319,-27.85451],[-53.72315,-27.85836],[-53.72257,-27.8584],[-53.7212,-27.85755],[-53.718,-27.85658],[-53.71595,-27.85638],[-53.71402,-27.85781],[-53.71361,-27.85931],[-53.71376,-27.86108],[-53.71222,-27.86173],[-53.70786,-27.86182],[-53.70536,-27.86536],[-53.70526,-27.8665],[-53.70454,-27.8674],[-53.70242,-27.86837],[-53.70034,-27.87046],[-53.69943,-27.87039],[-53.69811,-27.8697],[-53.69714,-27.86837],[-53.69615,-27.86807],[-53.69563,-27.86872],[-53.69542,-27.87],[-53.69486,-27.87084],[-53.69284,-27.87069],[-53.68959,-27.8714],[-53.68981,-27.87254],[-53.6912,-27.8728],[-53.69312,-27.87387],[-53.69358,-27.87481],[-53.69299,-27.87599],[-53.6908,-27.8773],[-53.69141,-27.88005],[-53.69134,-27.88206],[-53.6917,-27.8836],[-53.69294,-27.88425],[-53.69408,-27.88335],[-53.69501,-27.88165],[-53.69558,-27.88124],[-53.69699,-27.88184],[-53.69832,-27.88195],[-53.69958,-27.88302],[-53.70068,-27.88334],[-53.70108,-27.8841],[-53.70038,-27.88607],[-53.69911,-27.88743],[-53.69769,-27.88846],[-53.69705,-27.8885],[-53.69485,-27.88726],[-53.69236,-27.88788],[-53.69192,-27.8888],[-53.69007,-27.89001],[-53.68948,-27.89089],[-53.68814,-27.89182],[-53.68649,-27.89358],[-53.68481,-27.89458],[-53.68264,-27.89531],[-53.68266,-27.896],[-53.68418,-27.89598],[-53.68475,-27.89652],[-53.68553,-27.89921],[-53.68691,-27.90126],[-53.68784,-27.90217],[-53.68822,-27.9034],[-53.68795,-27.90443],[-53.68719,-27.90499],[-53.68611,-27.90668],[-53.68409,-27.90797],[-53.68259,-27.90942],[-53.68215,-27.91041],[-53.68303,-27.91136],[-53.6837,-27.91099],[-53.6845,-27.90967],[-53.68557,-27.90985],[-53.68606,-27.91158],[-53.68722,-27.91379],[-53.68833,-27.91335],[-53.68775,-27.91253],[-53.68878,-27.91214],[-53.69002,-27.91346],[-53.69206,-27.91412],[-53.69184,-27.91503],[-53.69038,-27.91601],[-53.6887,-27.91777],[-53.69036,-27.91984],[-53.6897,-27.92368],[-53.68815,-27.92463],[-53.68814,-27.92625],[-53.68871,-27.92736],[-53.68751,-27.92776],[-53.68726,-27.92862],[-53.68773,-27.92977],[-53.68655,-27.93112],[-53.68587,-27.93128],[-53.68396,-27.93293],[-53.68256,-27.93253],[-53.67995,-27.93342],[-53.67854,-27.93322],[-53.67727,-27.93264],[-53.67763,-27.93129],[-53.67576,-27.93153],[-53.67571,-27.93011],[-53.67455,-27.92801],[-53.67297,-27.92897],[-53.67165,-27.92918],[-53.66856,-27.92906],[-53.66669,-27.93038],[-53.66452,-27.92912],[-53.66463,-27.92687],[-53.66288,-27.92617],[-53.66346,-27.92522],[-53.66134,-27.92441],[-53.65878,-27.9247],[-53.65838,-27.92542],[-53.66029,-27.9288],[-53.66028,-27.92962],[-53.65943,-27.93043],[-53.6569,-27.93082],[-53.65663,-27.93198],[-53.65567,-27.93267],[-53.65442,-27.93262],[-53.65327,-27.93156],[-53.65134,-27.93153],[-53.65246,-27.93282],[-53.64988,-27.93332],[-53.64836,-27.93513],[-53.64778,-27.93636],[-53.64762,-27.93799],[-53.6452,-27.93928],[-53.64284,-27.93868],[-53.64309,-27.93688],[-53.64296,-27.93572],[-53.64399,-27.93165],[-53.64294,-27.93249],[-53.64229,-27.93401],[-53.64088,-27.934],[-53.63942,-27.9336],[-53.63866,-27.93389],[-53.63842,-27.93564],[-53.63914,-27.93787],[-53.64024,-27.93926],[-53.63911,-27.94104],[-53.63772,-27.94183],[-53.63936,-27.94246],[-53.63968,-27.94402],[-53.63828,-27.94489],[-53.63813,-27.94591],[-53.63986,-27.94619],[-53.64167,-27.94585],[-53.64204,-27.94695],[-53.64092,-27.94978],[-53.64204,-27.95111],[-53.64333,-27.95127],[-53.64313,-27.9533],[-53.6424,-27.9536],[-53.63971,-27.95355],[-53.63701,-27.95081],[-53.63608,-27.95056],[-53.63527,-27.95165],[-53.63642,-27.95227],[-53.63621,-27.95286],[-53.63441,-27.95299],[-53.63284,-27.95639],[-53.63097,-27.95662],[-53.6308,-27.95582],[-53.6326,-27.9538],[-53.63176,-27.95246],[-53.63047,-27.95283],[-53.62968,-27.95379],[-53.62879,-27.95366],[-53.62876,-27.95265],[-53.6297,-27.95187],[-53.63039,-27.95065],[-53.63026,-27.95007],[-53.62864,-27.94928],[-53.62741,-27.94784],[-53.62653,-27.94729],[-53.62543,-27.9453],[-53.62415,-27.94538],[-53.6228,-27.9453],[-53.6228,-27.94464],[-53.62152,-27.94235],[-53.6214,-27.9408],[-53.62,-27.94063],[-53.61949,-27.93916],[-53.61868,-27.93869],[-53.61586,-27.93961],[-53.61498,-27.94021],[-53.61429,-27.93906],[-53.61464,-27.93817],[-53.61374,-27.93757],[-53.61346,-27.9364],[-53.61191,-27.93595],[-53.61124,-27.93429],[-53.61175,-27.93297],[-53.61155,-27.93212],[-53.6091,-27.93122],[-53.60823,-27.93065],[-53.60696,-27.92872],[-53.60699,-27.92612],[-53.60436,-27.92389],[-53.60372,-27.92246],[-53.60257,-27.92166],[-53.60133,-27.92128],[-53.60056,-27.91986],[-53.59969,-27.91896],[-53.59728,-27.91833],[-53.59589,-27.91621],[-53.59474,-27.91536],[-53.59422,-27.91435],[-53.59329,-27.91436],[-53.59257,-27.91582],[-53.59067,-27.91735],[-53.58978,-27.91741],[-53.58612,-27.91312],[-53.58365,-27.91205],[-53.58107,-27.9118],[-53.57891,-27.90952],[-53.57817,-27.90933],[-53.57657,-27.90821],[-53.57562,-27.90796],[-53.57441,-27.90709],[-53.57314,-27.90695],[-53.57283,-27.90454],[-53.57206,-27.90352],[-53.57056,-27.90289],[-53.56957,-27.90205],[-53.56804,-27.90145],[-53.56748,-27.89904],[-53.56692,-27.89838],[-53.56692,-27.89667],[-53.56628,-27.89618],[-53.56549,-27.89324],[-53.5645,-27.89164],[-53.5638,-27.88971],[-53.56263,-27.8883],[-53.56053,-27.88791],[-53.55813,-27.88644],[-53.55584,-27.88532],[-53.55559,-27.88619],[-53.55403,-27.89491],[-53.55135,-27.89875],[-53.54984,-27.89992],[-53.54767,-27.89705],[-53.54635,-27.8946],[-53.5458,-27.89403],[-53.54538,-27.89223],[-53.54538,-27.89066],[-53.54425,-27.88962],[-53.54309,-27.88746],[-53.54258,-27.88605],[-53.54214,-27.88357],[-53.54137,-27.88209],[-53.53946,-27.88061],[-53.53878,-27.87897],[-53.53663,-27.87651],[-53.53638,-27.87538],[-53.5348,-27.87348],[-53.53329,-27.87127],[-53.53226,-27.87057],[-53.53107,-27.86853],[-53.52911,-27.86642],[-53.5267,-27.86578],[-53.52582,-27.86424],[-53.52617,-27.85959],[-53.52646,-27.8588],[-53.52596,-27.85745],[-53.52458,-27.85646],[-53.52487,-27.85433],[-53.52398,-27.85286],[-53.52426,-27.85207],[-53.52287,-27.84645],[-53.52057,-27.84537],[-53.51863,-27.84363],[-53.51897,-27.84015],[-53.51845,-27.83907],[-53.51731,-27.83894],[-53.51658,-27.83811],[-53.51638,-27.83601],[-53.51677,-27.83452],[-53.51597,-27.83313],[-53.51755,-27.83236],[-53.51783,-27.83126],[-53.51884,-27.83051],[-53.52052,-27.82985],[-53.52198,-27.8286],[-53.52335,-27.82676],[-53.52284,-27.8246],[-53.52392,-27.82355],[-53.52234,-27.82255],[-53.52085,-27.82231],[-53.51909,-27.82256],[-53.51732,-27.8218],[-53.5167,-27.82271],[-53.51482,-27.82259],[-53.51331,-27.8205],[-53.51372,-27.81936],[-53.51313,-27.81794],[-53.51195,-27.81715],[-53.51228,-27.81643],[-53.51342,-27.81696],[-53.51357,-27.816],[-53.51288,-27.8154],[-53.51564,-27.81272],[-53.51766,-27.81278],[-53.51807,-27.81351],[-53.5201,-27.81214],[-53.52102,-27.81062],[-53.52129,-27.80953],[-53.52349,-27.80663],[-53.52461,-27.80634],[-53.52538,-27.80758],[-53.52668,-27.80751],[-53.52807,-27.80613],[-53.52714,-27.80368],[-53.52594,-27.80258],[-53.52584,-27.8013],[-53.52641,-27.79982],[-53.52864,-27.79902],[-53.52844,-27.79814],[-53.52509,-27.79901],[-53.52508,-27.79775],[-53.52601,-27.7971],[-53.52491,-27.7954],[-53.52548,-27.79488],[-53.52754,-27.79461],[-53.52899,-27.7939],[-53.53006,-27.79299],[-53.53168,-27.79361],[-53.5338,-27.79311],[-53.53564,-27.79375],[-53.53631,-27.79329],[-53.53639,-27.79187],[-53.53584,-27.79101],[-53.53244,-27.78819],[-53.53073,-27.78601],[-53.53152,-27.78345],[-53.53179,-27.78055],[-53.53296,-27.78004],[-53.53443,-27.78084],[-53.5364,-27.78266],[-53.53806,-27.78368],[-53.53993,-27.7838],[-53.54124,-27.78319],[-53.54332,-27.78131],[-53.54817,-27.77552],[-53.54845,-27.77423],[-53.54781,-27.77246],[-53.54806,-27.77105],[-53.54945,-27.77035],[-53.55254,-27.76983],[-53.55493,-27.76831],[-53.55552,-27.76756],[-53.55758,-27.76594],[-53.55727,-27.76427],[-53.55736,-27.76308],[-53.5585,-27.76262],[-53.56049,-27.76333],[-53.55966,-27.76473],[-53.55917,-27.76735],[-53.56047,-27.76824],[-53.56184,-27.77025],[-53.56378,-27.77075],[-53.56509,-27.77081],[-53.56798,-27.77274],[-53.56878,-27.77428],[-53.57217,-27.77582],[-53.57308,-27.77671],[-53.57487,-27.77632],[-53.57592,-27.77716],[-53.58025,-27.77901],[-53.58563,-27.78245],[-53.58611,-27.78309],[-53.58864,-27.78434],[-53.58956,-27.78529],[-53.5914,-27.78636],[-53.59174,-27.78689],[-53.5909,-27.78894],[-53.59093,-27.79013],[-53.5916,-27.79142],[-53.59384,-27.79335],[-53.59745,-27.7948],[-53.59882,-27.79586],[-53.60502,-27.79546],[-53.60608,-27.79639],[-53.60723,-27.79828],[-53.60944,-27.79867],[-53.61301,-27.79885],[-53.61476,-27.79857],[-53.61818,-27.79886],[-53.62002,-27.79853],[-53.62166,-27.79927],[-53.62327,-27.79932],[-53.62757,-27.79893],[-53.63195,-27.80104],[-53.63338,-27.80131],[-53.63619,-27.80247],[-53.64118,-27.80258],[-53.64332,-27.80311],[-53.64485,-27.80421],[-53.64712,-27.80426],[-53.64761,-27.80452],[-53.64904,-27.80648],[-53.65032,-27.80685],[-53.65178,-27.80541],[-53.65234,-27.80396],[-53.65209,-27.80282],[-53.65252,-27.80228],[-53.65386,-27.80201],[-53.65549,-27.80231],[-53.65572,-27.80299],[-53.65687,-27.80395],[-53.65847,-27.80385]]]},"properties":{"codigo":"430590015","name":"Campo Santo","population":394,"households":169,"areaKm2":225.7552,"density":1.7}},{"type":"Feature","geometry":{"type":"Polygon","coordinates":[[[-53.74092,-27.77501],[-53.74342,-27.77856],[-53.74442,-27.77917],[-53.74553,-27.78156],[-53.74534,-27.7829],[-53.74448,-27.78464],[-53.74435,-27.78557],[-53.74493,-27.78662],[-53.74578,-27.78677],[-53.7495,-27.78586],[-53.75182,-27.78671],[-53.75186,-27.78739],[-53.7499,-27.7889],[-53.74858,-27.79021],[-53.74754,-27.79066],[-53.74648,-27.79023],[-53.74467,-27.78895],[-53.74257,-27.78848],[-53.7405,-27.78852],[-53.73915,-27.78941],[-53.73868,-27.79027],[-53.7372,-27.79166],[-53.73658,-27.79219],[-53.73571,-27.79169],[-53.73475,-27.79001],[-53.73414,-27.78823],[-53.73343,-27.78753],[-53.7317,-27.78899],[-53.72848,-27.78985],[-53.7277,-27.79024],[-53.72782,-27.79198],[-53.72933,-27.79318],[-53.73158,-27.79367],[-53.7324,-27.79494],[-53.73386,-27.79642],[-53.73585,-27.79676],[-53.73671,-27.79744],[-53.73884,-27.79791],[-53.74142,-27.79779],[-53.74281,-27.79826],[-53.74325,-27.79936],[-53.74312,-27.80214],[-53.74195,-27.80284],[-53.73984,-27.8034],[-53.73841,-27.80427],[-53.73635,-27.80477],[-53.73378,-27.80464],[-53.73188,-27.80152],[-53.73047,-27.79971],[-53.7278,-27.80058],[-53.72543,-27.80254],[-53.7222,-27.80413],[-53.71968,-27.80452],[-53.71982,-27.80527],[-53.72118,-27.80711],[-53.72175,-27.80712],[-53.72385,-27.80616],[-53.7261,-27.80465],[-53.72733,-27.80472],[-53.72781,-27.80562],[-53.72951,-27.80729],[-53.73183,-27.80801],[-53.7325,-27.80873],[-53.73197,-27.81093],[-53.73084,-27.81127],[-53.7278,-27.81291],[-53.72672,-27.81396],[-53.726,-27.81302],[-53.7241,-27.81328],[-53.7245,-27.81537],[-53.72566,-27.81635],[-53.72412,-27.81719],[-53.72363,-27.8179],[-53.72556,-27.82218],[-53.72804,-27.82397],[-53.72894,-27.82509],[-53.73043,-27.82474],[-53.73072,-27.82518],[-53.72994,-27.82676],[-53.72855,-27.82804],[-53.72608,-27.82929],[-53.72212,-27.82972],[-53.72178,-27.83033],[-53.72409,-27.83228],[-53.7245,-27.83437],[-53.72584,-27.83532],[-53.72895,-27.83517],[-53.72948,-27.83545],[-53.72899,-27.83736],[-53.72831,-27.83875],[-53.72686,-27.84001],[-53.72544,-27.83971],[-53.72327,-27.8386],[-53.72096,-27.83841],[-53.71984,-27.83901],[-53.71779,-27.83902],[-53.71621,-27.8387],[-53.71543,-27.83935],[-53.71327,-27.84132],[-53.70904,-27.84083],[-53.70678,-27.83947],[-53.70502,-27.83926],[-53.7037,-27.83806],[-53.70275,-27.83765],[-53.70074,-27.83756],[-53.69834,-27.83523],[-53.69702,-27.83461],[-53.69527,-27.83442],[-53.6934,-27.83382],[-53.6909,-27.83336],[-53.68972,-27.8335],[-53.68895,-27.83421],[-53.68723,-27.83441],[-53.68431,-27.83376],[-53.68136,-27.83503],[-53.68094,-27.83572],[-53.67894,-27.83617],[-53.67755,-27.83692],[-53.67575,-27.83974],[-53.67479,-27.84045],[-53.67354,-27.8408],[-53.67152,-27.84087],[-53.66936,-27.84179],[-53.66814,-27.84185],[-53.66156,-27.84015],[-53.65957,-27.8394],[-53.65997,-27.83745],[-53.65944,-27.83626],[-53.65832,-27.83488],[-53.65811,-27.83323],[-53.65691,-27.83203],[-53.65661,-27.83092],[-53.65678,-27.82748],[-53.65762,-27.82491],[-53.65765,-27.82169],[-53.65803,-27.81952],[-53.65971,-27.81674],[-53.66002,-27.81517],[-53.6609,-27.81389],[-53.66087,-27.81302],[-53.65925,-27.8111],[-53.65901,-27.81048],[-53.65891,-27.80777],[-53.6582,-27.80559],[-53.65847,-27.80385],[-53.659,-27.80197],[-53.65991,-27.80116],[-53.66058,-27.80154],[-53.6618,-27.80336],[-53.66345,-27.8023],[-53.66464,-27.79991],[-53.66562,-27.79941],[-53.66566,-27.79857],[-53.66461,-27.79732],[-53.66479,-27.79537],[-53.6657,-27.79401],[-53.66789,-27.79308],[-53.67091,-27.79269],[-53.67221,-27.79133],[-53.67406,-27.7911],[-53.67466,-27.79056],[-53.67545,-27.78885],[-53.67514,-27.78646],[-53.67544,-27.78601],[-53.67752,-27.78531],[-53.67914,-27.78562],[-53.68051,-27.78725],[-53.68199,-27.78753],[-53.68349,-27.78704],[-53.6845,-27.78742],[-53.68546,-27.78882],[-53.68642,-27.78965],[-53.68755,-27.78892],[-53.6875,-27.78799],[-53.68896,-27.7874],[-53.69011,-27.78624],[-53.68863,-27.78552],[-53.6917,-27.78378],[-53.69556,-27.78337],[-53.69706,-27.78368],[-53.69903,-27.7818],[-53.69923,-27.78105],[-53.7009,-27.78085],[-53.70192,-27.7798],[-53.70274,-27.77962],[-53.70281,-27.77874],[-53.70211,-27.77786],[-53.70294,-27.77655],[-53.70371,-27.77641],[-53.70529,-27.77709],[-53.70717,-27.77661],[-53.70812,-27.77484],[-53.70992,-27.77401],[-53.71217,-27.77404],[-53.71515,-27.7723],[-53.71594,-27.7722],[-53.71928,-27.77367],[-53.72129,-27.77149],[-53.72341,-27.77272],[-53.72403,-27.77461],[-53.7259,-27.77548],[-53.72798,-27.77488],[-53.72976,-27.77403],[-53.7309,-27.77252],[-53.73265,-27.77462],[-53.73318,-27.77494],[-53.73512,-27.77513],[-53.73697,-27.7761],[-53.73657,-27.77746],[-53.73748,-27.77764],[-53.73915,-27.77688],[-53.73991,-27.77563],[-53.74092,-27.77501]]]},"properties":{"codigo":"430590020","name":"Turvinho","population":175,"households":87,"areaKm2":44.5783,"density":3.9}}]}