{"type":"FeatureCollection","features":[{"type":"Feature","geometry":{"type":"Polygon","coordinates":[[[-53.95901,-27.33529],[-53.96202,-27.33584],[-53.9649,-27.33584],[-53.96761,-27.33408],[-53.96901,-27.33389],[-53.97263,-27.33298],[-53.97531,-27.33353],[-53.97924,-27.33227],[-53.9816,-27.33257],[-53.98347,-27.33374],[-53.98506,-27.33557],[-53.98688,-27.33551],[-53.99027,-27.33585],[-53.99274,-27.33677],[-53.99371,-27.33571],[-53.99455,-27.33392],[-53.9954,-27.33351],[-53.99672,-27.33405],[-53.99857,-27.33256],[-53.99944,-27.33019],[-53.9996,-27.32856],[-54.00068,-27.32688],[-54.00146,-27.32619],[-54.00403,-27.32309],[-54.00465,-27.32085],[-54.02075,-27.33836],[-54.02163,-27.33722],[-54.03039,-27.34716],[-54.02971,-27.3481],[-54.03002,-27.3498],[-54.02922,-27.35011],[-54.02683,-27.35021],[-54.02291,-27.35006],[-54.02122,-27.35147],[-54.02015,-27.35337],[-54.02034,-27.35572],[-54.01985,-27.35651],[-54.01796,-27.35558],[-54.01673,-27.35458],[-54.01294,-27.35288],[-54.0115,-27.35286],[-54.01118,-27.35343],[-54.01283,-27.35634],[-54.01383,-27.35774],[-54.01369,-27.35834],[-54.01219,-27.35859],[-54.00872,-27.35823],[-54.00756,-27.35882],[-54.00702,-27.35999],[-54.00838,-27.36244],[-54.00852,-27.36319],[-54.00748,-27.36456],[-54.00602,-27.36498],[-54.00385,-27.36626],[-54.00117,-27.36683],[-53.99951,-27.36764],[-53.99852,-27.37033],[-53.99858,-27.37434],[-53.99832,-27.3747],[-53.99411,-27.37535],[-53.99256,-27.3761],[-53.99127,-27.37711],[-53.9899,-27.37911],[-53.98855,-27.38058],[-53.98516,-27.38277],[-53.98476,-27.38345],[-53.98472,-27.38517],[-53.9836,-27.38615],[-53.98367,-27.38702],[-53.98218,-27.38804],[-53.98141,-27.38807],[-53.97917,-27.3895],[-53.96631,-27.37996],[-53.96531,-27.37792],[-53.96282,-27.37615],[-53.96046,-27.37636],[-53.95802,-27.37826],[-53.95654,-27.37838],[-53.95522,-27.37091],[-53.96238,-27.36466],[-53.96713,-27.36004],[-53.96892,-27.35793],[-53.96893,-27.35679],[-53.9679,-27.35441],[-53.96679,-27.35309],[-53.9662,-27.35102],[-53.9664,-27.34903],[-53.9673,-27.3478],[-53.96573,-27.3458],[-53.96262,-27.34379],[-53.96238,-27.34338],[-53.96262,-27.34162],[-53.96231,-27.34069],[-53.96146,-27.33984],[-53.96061,-27.33802],[-53.95901,-27.33529]]]},"properties":{"codigo":"430745005","name":"Esperança do Sul","population":1588,"households":732,"areaKm2":27.2776,"density":58.2}},{"type":"Feature","geometry":{"type":"Polygon","coordinates":[[[-53.95342,-27.31964],[-53.95416,-27.3214],[-53.95656,-27.32335],[-53.95641,-27.32498],[-53.95683,-27.32602],[-53.95756,-27.32641],[-53.95773,-27.32829],[-53.95703,-27.32904],[-53.95701,-27.33025],[-53.95772,-27.33125],[-53.95824,-27.33373],[-53.95901,-27.33529],[-53.96061,-27.33802],[-53.96146,-27.33984],[-53.96231,-27.34069],[-53.96262,-27.34162],[-53.96238,-27.34338],[-53.96262,-27.34379],[-53.96573,-27.3458],[-53.9673,-27.3478],[-53.9664,-27.34903],[-53.9662,-27.35102],[-53.96679,-27.35309],[-53.9679,-27.35441],[-53.96893,-27.35679],[-53.96892,-27.35793],[-53.96713,-27.36004],[-53.96238,-27.36466],[-53.95522,-27.37091],[-53.95133,-27.36484],[-53.94983,-27.36003],[-53.94728,-27.35801],[-53.9411,-27.35747],[-53.93974,-27.356],[-53.93619,-27.35511],[-53.93576,-27.35437],[-53.9374,-27.3526],[-53.93752,-27.35095],[-53.93496,-27.34948],[-53.9337,-27.34569],[-53.92967,-27.34495],[-53.93333,-27.33962],[-53.93292,-27.33851],[-53.92876,-27.33644],[-53.92983,-27.33112],[-53.92653,-27.33047],[-53.92327,-27.32648],[-53.91774,-27.32719],[-53.91697,-27.32533],[-53.91829,-27.3234],[-53.93066,-27.32297],[-53.93235,-27.32204],[-53.93511,-27.31772],[-53.93632,-27.30915],[-53.94664,-27.32124],[-53.95161,-27.32088],[-53.95342,-27.31964]]]},"properties":{"codigo":"430745007","name":"Açoita Cavalo","population":159,"households":67,"areaKm2":14.8659,"density":10.7}},{"type":"Feature","geometry":{"type":"Polygon","coordinates":[[[-54.03039,-27.34716],[-54.03666,-27.34812],[-54.03843,-27.34697],[-54.03903,-27.34613],[-54.03944,-27.34412],[-54.0404,-27.34301],[-54.04169,-27.34259],[-54.04291,-27.34263],[-54.04833,-27.34482],[-54.04971,-27.34588],[-54.05093,-27.34591],[-54.0522,-27.34471],[-54.0567,-27.34396],[-54.05806,-27.34423],[-54.05991,-27.34602],[-54.05972,-27.34597],[-54.05775,-27.34975],[-54.05878,-27.35315],[-54.05592,-27.35538],[-54.05378,-27.35555],[-54.05492,-27.35697],[-54.0547,-27.35888],[-54.04633,-27.36202],[-54.04392,-27.36525],[-54.0395,-27.36712],[-54.03876,-27.37077],[-54.03597,-27.37173],[-54.03581,-27.37518],[-54.03034,-27.37866],[-54.03334,-27.38191],[-54.03015,-27.38368],[-54.03005,-27.38848],[-54.02828,-27.39173],[-54.02776,-27.39619],[-54.02607,-27.3975],[-54.02491,-27.40023],[-54.00047,-27.39113],[-54.00043,-27.3887],[-53.99335,-27.38888],[-53.99333,-27.38763],[-53.98218,-27.38804],[-53.98367,-27.38702],[-53.9836,-27.38615],[-53.98472,-27.38517],[-53.98476,-27.38345],[-53.98516,-27.38277],[-53.98855,-27.38058],[-53.9899,-27.37911],[-53.99127,-27.37711],[-53.99256,-27.3761],[-53.99411,-27.37535],[-53.99832,-27.3747],[-53.99858,-27.37434],[-53.99852,-27.37033],[-53.99951,-27.36764],[-54.00117,-27.36683],[-54.00385,-27.36626],[-54.00602,-27.36498],[-54.00748,-27.36456],[-54.00852,-27.36319],[-54.00838,-27.36244],[-54.00702,-27.35999],[-54.00756,-27.35882],[-54.00872,-27.35823],[-54.01219,-27.35859],[-54.01369,-27.35834],[-54.01383,-27.35774],[-54.01283,-27.35634],[-54.01118,-27.35343],[-54.0115,-27.35286],[-54.01294,-27.35288],[-54.01673,-27.35458],[-54.01796,-27.35558],[-54.01985,-27.35651],[-54.02034,-27.35572],[-54.02015,-27.35337],[-54.02122,-27.35147],[-54.02291,-27.35006],[-54.02683,-27.35021],[-54.02922,-27.35011],[-54.03002,-27.3498],[-54.02971,-27.3481],[-54.03039,-27.34716]]]},"properties":{"codigo":"430745008","name":"Bom Jardim","population":263,"households":120,"areaKm2":21.0902,"density":12.5}},{"type":"Feature","geometry":{"type":"Polygon","coordinates":[[[-54.02549,-27.27986],[-54.02365,-27.28099],[-54.02373,-27.28173],[-54.0259,-27.28391],[-54.02623,-27.28532],[-54.02383,-27.28663],[-54.02573,-27.2877],[-54.02567,-27.28931],[-54.02474,-27.29033],[-54.02317,-27.29336],[-54.02298,-27.29508],[-54.02064,-27.29888],[-54.02019,-27.30005],[-54.01897,-27.30095],[-54.0173,-27.30072],[-54.01607,-27.3021],[-54.01457,-27.30272],[-54.01258,-27.30321],[-54.01152,-27.30378],[-54.01026,-27.30507],[-54.00929,-27.30648],[-54.00833,-27.30868],[-54.00672,-27.31118],[-54.00603,-27.31353],[-54.00528,-27.31888],[-54.00465,-27.32085],[-54.00403,-27.32309],[-54.00146,-27.32619],[-54.00068,-27.32688],[-53.9996,-27.32856],[-53.99944,-27.33019],[-53.99857,-27.33256],[-53.99672,-27.33405],[-53.9954,-27.33351],[-53.99455,-27.33392],[-53.99371,-27.33571],[-53.99274,-27.33677],[-53.99027,-27.33585],[-53.98688,-27.33551],[-53.98506,-27.33557],[-53.98347,-27.33374],[-53.9816,-27.33257],[-53.97924,-27.33227],[-53.97531,-27.33353],[-53.97263,-27.33298],[-53.96901,-27.33389],[-53.96761,-27.33408],[-53.9649,-27.33584],[-53.96202,-27.33584],[-53.95901,-27.33529],[-53.95824,-27.33373],[-53.95772,-27.33125],[-53.95701,-27.33025],[-53.95703,-27.32904],[-53.95773,-27.32829],[-53.95756,-27.32641],[-53.95683,-27.32602],[-53.95641,-27.32498],[-53.95656,-27.32335],[-53.95416,-27.3214],[-53.95342,-27.31964],[-53.95388,-27.31522],[-53.95294,-27.31148],[-53.94319,-27.30843],[-53.93757,-27.30579],[-53.9322,-27.29881],[-53.93255,-27.29644],[-53.93529,-27.29603],[-53.94804,-27.29798],[-53.95845,-27.3024],[-53.96154,-27.30104],[-53.9645,-27.29657],[-53.96897,-27.29256],[-53.9735,-27.29232],[-53.97577,-27.29117],[-53.97879,-27.28375],[-53.98081,-27.28184],[-53.98292,-27.28134],[-53.98845,-27.28288],[-53.9899,-27.28246],[-53.98995,-27.28124],[-53.98216,-27.27403],[-53.98252,-27.27185],[-53.99512,-27.27239],[-54.00061,-27.27433],[-54.00162,-27.27399],[-54.00132,-27.27226],[-53.99289,-27.26867],[-53.9913,-27.26726],[-53.99132,-27.26625],[-53.99469,-27.26335],[-53.99806,-27.26267],[-54.00152,-27.26471],[-54.00678,-27.27034],[-54.01226,-27.27449],[-54.02549,-27.27986]]]},"properties":{"codigo":"430745010","name":"Lara","population":392,"households":177,"areaKm2":35.9108,"density":10.9}},{"type":"Feature","geometry":{"type":"Polygon","coordinates":[[[-54.05502,-27.26398],[-54.0564,-27.26508],[-54.06039,-27.26947],[-54.06478,-27.27591],[-54.0682,-27.28241],[-54.07077,-27.28693],[-54.07228,-27.29095],[-54.07575,-27.29454],[-54.08028,-27.29775],[-54.08236,-27.29894],[-54.08911,-27.30132],[-54.09651,-27.30278],[-54.10105,-27.30326],[-54.10753,-27.30301],[-54.11146,-27.3025],[-54.11066,-27.30495],[-54.11548,-27.30429],[-54.11374,-27.30707],[-54.11164,-27.30835],[-54.10779,-27.30798],[-54.10745,-27.3103],[-54.10621,-27.31163],[-54.10308,-27.31161],[-54.09935,-27.31361],[-54.09514,-27.31314],[-54.09622,-27.31729],[-54.09132,-27.32039],[-54.08762,-27.32625],[-54.08619,-27.32582],[-54.08608,-27.32001],[-54.08256,-27.31768],[-54.07902,-27.31874],[-54.07875,-27.32464],[-54.06751,-27.32846],[-54.06802,-27.32967],[-54.07198,-27.33249],[-54.07308,-27.33618],[-54.07245,-27.33688],[-54.06898,-27.33676],[-54.06465,-27.3411],[-54.06462,-27.34238],[-54.06696,-27.34675],[-54.06664,-27.34781],[-54.05991,-27.34602],[-54.05806,-27.34423],[-54.0567,-27.34396],[-54.0522,-27.34471],[-54.05093,-27.34591],[-54.04971,-27.34588],[-54.04833,-27.34482],[-54.04291,-27.34263],[-54.04169,-27.34259],[-54.0404,-27.34301],[-54.03944,-27.34412],[-54.03903,-27.34613],[-54.03843,-27.34697],[-54.03666,-27.34812],[-54.03039,-27.34716],[-54.02163,-27.33722],[-54.02075,-27.33836],[-54.00465,-27.32085],[-54.00528,-27.31888],[-54.00603,-27.31353],[-54.00672,-27.31118],[-54.00833,-27.30868],[-54.00929,-27.30648],[-54.01026,-27.30507],[-54.01152,-27.30378],[-54.01258,-27.30321],[-54.01457,-27.30272],[-54.01607,-27.3021],[-54.0173,-27.30072],[-54.01897,-27.30095],[-54.02019,-27.30005],[-54.02064,-27.29888],[-54.02298,-27.29508],[-54.02317,-27.29336],[-54.02474,-27.29033],[-54.02567,-27.28931],[-54.02573,-27.2877],[-54.02383,-27.28663],[-54.02623,-27.28532],[-54.0259,-27.28391],[-54.02373,-27.28173],[-54.02365,-27.28099],[-54.02549,-27.27986],[-54.02886,-27.28012],[-54.03005,-27.27928],[-54.03062,-27.27664],[-54.02783,-27.27265],[-54.02756,-27.27071],[-54.03114,-27.27048],[-54.04288,-27.27649],[-54.04968,-27.2768],[-54.05207,-27.27503],[-54.05279,-27.27353],[-54.05165,-27.26592],[-54.05502,-27.26398]]]},"properties":{"codigo":"430745020","name":"Ismael","population":824,"households":471,"areaKm2":49.7648,"density":16.6}}]}