{"type":"FeatureCollection","features":[{"type":"Feature","geometry":{"type":"Polygon","coordinates":[[[-52.49944,-27.40357],[-52.49868,-27.40328],[-52.49804,-27.40204],[-52.49951,-27.39733],[-52.49593,-27.3957],[-52.49574,-27.39449],[-52.49685,-27.39324],[-52.50328,-27.39166],[-52.50437,-27.39071],[-52.50352,-27.38592],[-52.50034,-27.38519],[-52.50035,-27.38071],[-52.50169,-27.37822],[-52.50694,-27.37928],[-52.50942,-27.37836],[-52.51277,-27.38121],[-52.51402,-27.38051],[-52.51449,-27.37734],[-52.51293,-27.37242],[-52.51301,-27.36898],[-52.51142,-27.36968],[-52.50287,-27.36884],[-52.50305,-27.36442],[-52.50519,-27.36255],[-52.49869,-27.36093],[-52.49831,-27.35982],[-52.49996,-27.35773],[-52.50385,-27.35281],[-52.50732,-27.35611],[-52.51144,-27.35301],[-52.51257,-27.35321],[-52.51106,-27.35354],[-52.51085,-27.35495],[-52.51111,-27.35588],[-52.5115,-27.36061],[-52.51187,-27.36113],[-52.51406,-27.36099],[-52.51466,-27.36209],[-52.51401,-27.36262],[-52.51412,-27.36425],[-52.51697,-27.36525],[-52.51749,-27.36658],[-52.52035,-27.36818],[-52.52063,-27.3693],[-52.52231,-27.3702],[-52.52334,-27.37121],[-52.52465,-27.37128],[-52.52531,-27.37252],[-52.52719,-27.37275],[-52.52724,-27.37463],[-52.52928,-27.37486],[-52.52956,-27.37629],[-52.53106,-27.37689],[-52.53091,-27.37776],[-52.53218,-27.37928],[-52.53432,-27.37961],[-52.53532,-27.37896],[-52.54111,-27.37802],[-52.54201,-27.37843],[-52.54403,-27.37868],[-52.54569,-27.37766],[-52.54809,-27.37693],[-52.55106,-27.37517],[-52.55304,-27.37361],[-52.55675,-27.37607],[-52.55997,-27.3778],[-52.56126,-27.37757],[-52.56371,-27.37651],[-52.56596,-27.37461],[-52.56634,-27.37353],[-52.56741,-27.37263],[-52.56704,-27.371],[-52.56812,-27.37082],[-52.56946,-27.36972],[-52.5723,-27.36671],[-52.57334,-27.36632],[-52.57357,-27.36525],[-52.57448,-27.36515],[-52.57444,-27.36378],[-52.57605,-27.36328],[-52.57655,-27.364],[-52.57806,-27.3631],[-52.57858,-27.36245],[-52.58126,-27.36174],[-52.58306,-27.36168],[-52.58523,-27.36123],[-52.58478,-27.36018],[-52.58746,-27.35926],[-52.58704,-27.35781],[-52.58801,-27.35742],[-52.58888,-27.3564],[-52.58876,-27.35587],[-52.58723,-27.35532],[-52.58876,-27.35429],[-52.58936,-27.35286],[-52.59012,-27.35234],[-52.59012,-27.35146],[-52.58898,-27.35063],[-52.58984,-27.3491],[-52.58998,-27.34815],[-52.58804,-27.34861],[-52.58778,-27.34794],[-52.5891,-27.3469],[-52.59105,-27.34485],[-52.59204,-27.34566],[-52.59271,-27.34351],[-52.59509,-27.34346],[-52.59564,-27.34312],[-52.5957,-27.34161],[-52.59407,-27.33874],[-52.59448,-27.33796],[-52.59619,-27.33636],[-52.59714,-27.33348],[-52.60755,-27.33143],[-52.61037,-27.33386],[-52.6145,-27.33698],[-52.61616,-27.33835],[-52.61705,-27.34024],[-52.61775,-27.34002],[-52.62047,-27.34089],[-52.62271,-27.34114],[-52.63072,-27.33787],[-52.63308,-27.33716],[-52.63532,-27.33519],[-52.63645,-27.3352],[-52.63837,-27.33705],[-52.6378,-27.33744],[-52.63863,-27.34045],[-52.637,-27.34225],[-52.63856,-27.34482],[-52.6342,-27.34706],[-52.63356,-27.34932],[-52.63071,-27.34874],[-52.62598,-27.35008],[-52.62577,-27.34639],[-52.6244,-27.34567],[-52.62297,-27.34616],[-52.61982,-27.34968],[-52.62053,-27.35063],[-52.62281,-27.35128],[-52.62277,-27.35662],[-52.61954,-27.35953],[-52.61834,-27.36193],[-52.61919,-27.36273],[-52.62247,-27.3609],[-52.6221,-27.36346],[-52.62072,-27.36492],[-52.61769,-27.36487],[-52.61273,-27.37004],[-52.61283,-27.37114],[-52.61497,-27.3736],[-52.61721,-27.37441],[-52.62067,-27.37791],[-52.61965,-27.37864],[-52.61576,-27.37857],[-52.61298,-27.38269],[-52.61029,-27.38273],[-52.60985,-27.38342],[-52.60983,-27.38551],[-52.60637,-27.38679],[-52.60722,-27.38904],[-52.60841,-27.38975],[-52.61039,-27.38828],[-52.61264,-27.38924],[-52.61297,-27.38991],[-52.61178,-27.39217],[-52.61345,-27.39441],[-52.6106,-27.39724],[-52.6041,-27.39603],[-52.60355,-27.39798],[-52.60752,-27.39837],[-52.60831,-27.4004],[-52.60133,-27.40292],[-52.60129,-27.4043],[-52.60338,-27.40303],[-52.60402,-27.40334],[-52.60159,-27.40892],[-52.60555,-27.40891],[-52.6073,-27.41021],[-52.60716,-27.41136],[-52.60412,-27.41364],[-52.6025,-27.41399],[-52.6022,-27.41514],[-52.60025,-27.41589],[-52.59941,-27.41676],[-52.59849,-27.4169],[-52.59678,-27.4164],[-52.59609,-27.41691],[-52.59657,-27.41778],[-52.59484,-27.41904],[-52.5922,-27.41946],[-52.59073,-27.4206],[-52.58852,-27.42104],[-52.5883,-27.42213],[-52.58749,-27.42208],[-52.58511,-27.42303],[-52.58424,-27.4225],[-52.58297,-27.42286],[-52.58163,-27.42262],[-52.57988,-27.42299],[-52.5779,-27.42457],[-52.57675,-27.42433],[-52.57573,-27.42349],[-52.57496,-27.42515],[-52.57401,-27.4258],[-52.57232,-27.42549],[-52.57139,-27.42632],[-52.56924,-27.42665],[-52.56861,-27.42776],[-52.56856,-27.43015],[-52.56793,-27.43232],[-52.56665,-27.4332],[-52.56409,-27.43642],[-52.56291,-27.43716],[-52.56117,-27.43944],[-52.55955,-27.43998],[-52.55969,-27.44074],[-52.55653,-27.443],[-52.55488,-27.44376],[-52.55411,-27.44458],[-52.55261,-27.44538],[-52.55117,-27.44573],[-52.54968,-27.44767],[-52.54844,-27.44793],[-52.54831,-27.44875],[-52.54632,-27.44949],[-52.54515,-27.4475],[-52.54505,-27.44619],[-52.54526,-27.44185],[-52.54552,-27.44112],[-52.54697,-27.43938],[-52.54622,-27.43907],[-52.54203,-27.43964],[-52.54035,-27.44052],[-52.5377,-27.44096],[-52.53415,-27.44278],[-52.53093,-27.44198],[-52.52952,-27.44103],[-52.52747,-27.44011],[-52.52619,-27.44044],[-52.52536,-27.44122],[-52.52468,-27.44104],[-52.5229,-27.44183],[-52.52126,-27.44208],[-52.52105,-27.44201],[-52.51485,-27.44254],[-52.51596,-27.43713],[-52.51199,-27.43723],[-52.50906,-27.43463],[-52.50958,-27.43045],[-52.51082,-27.42766],[-52.51402,-27.4286],[-52.51492,-27.42538],[-52.51714,-27.42392],[-52.51751,-27.42185],[-52.5142,-27.41899],[-52.51636,-27.41173],[-52.51204,-27.41313],[-52.51083,-27.41267],[-52.5097,-27.41344],[-52.50975,-27.41763],[-52.50837,-27.41777],[-52.50423,-27.41464],[-52.50422,-27.41366],[-52.50671,-27.41075],[-52.50582,-27.40955],[-52.49992,-27.40966],[-52.50181,-27.40447],[-52.49944,-27.40357]]]},"properties":{"codigo":"430720305","name":"Erval Grande","population":3875,"households":1875,"areaKm2":84.2427,"density":46}},{"type":"Feature","geometry":{"type":"Polygon","coordinates":[[[-52.69152,-27.28442],[-52.68979,-27.29024],[-52.68468,-27.29473],[-52.6849,-27.29596],[-52.68275,-27.29719],[-52.68117,-27.29556],[-52.67947,-27.29554],[-52.67618,-27.30055],[-52.67317,-27.30177],[-52.67159,-27.30113],[-52.67174,-27.30357],[-52.67181,-27.30488],[-52.67111,-27.30596],[-52.66215,-27.30985],[-52.66463,-27.31278],[-52.66503,-27.31455],[-52.66366,-27.31552],[-52.66093,-27.31491],[-52.66081,-27.31903],[-52.66339,-27.32258],[-52.65939,-27.32667],[-52.66171,-27.327],[-52.6629,-27.32771],[-52.66295,-27.32871],[-52.66048,-27.3289],[-52.65844,-27.32906],[-52.65023,-27.33644],[-52.64652,-27.34099],[-52.64544,-27.34081],[-52.64297,-27.33717],[-52.63859,-27.33689],[-52.63837,-27.33705],[-52.63645,-27.3352],[-52.63532,-27.33519],[-52.63308,-27.33716],[-52.63072,-27.33787],[-52.62271,-27.34114],[-52.62047,-27.34089],[-52.61775,-27.34002],[-52.61705,-27.34024],[-52.61616,-27.33835],[-52.6145,-27.33698],[-52.61037,-27.33386],[-52.60755,-27.33143],[-52.59714,-27.33348],[-52.59648,-27.33369],[-52.59647,-27.33163],[-52.59725,-27.3312],[-52.59697,-27.33019],[-52.59722,-27.32858],[-52.59588,-27.3283],[-52.59587,-27.32749],[-52.59403,-27.3273],[-52.59427,-27.32581],[-52.59247,-27.32569],[-52.59259,-27.3247],[-52.59341,-27.32397],[-52.59287,-27.32191],[-52.59472,-27.32122],[-52.59561,-27.32004],[-52.59558,-27.31936],[-52.59369,-27.31886],[-52.59338,-27.31816],[-52.59438,-27.3154],[-52.59286,-27.31548],[-52.59147,-27.31506],[-52.5914,-27.31412],[-52.59377,-27.31214],[-52.59213,-27.31143],[-52.59249,-27.31017],[-52.59328,-27.30989],[-52.59275,-27.30889],[-52.59141,-27.30769],[-52.59118,-27.3064],[-52.59193,-27.3055],[-52.59202,-27.30394],[-52.59241,-27.30276],[-52.59237,-27.30002],[-52.5905,-27.29951],[-52.59021,-27.29814],[-52.58866,-27.29775],[-52.58798,-27.29577],[-52.58945,-27.29526],[-52.58971,-27.29301],[-52.5883,-27.29313],[-52.58861,-27.29021],[-52.58827,-27.28867],[-52.58886,-27.28708],[-52.58781,-27.28599],[-52.58559,-27.28495],[-52.58479,-27.28369],[-52.58341,-27.28286],[-52.58271,-27.28283],[-52.58238,-27.28119],[-52.58094,-27.27971],[-52.58006,-27.27816],[-52.57942,-27.27643],[-52.5784,-27.27525],[-52.58013,-27.27361],[-52.58321,-27.27217],[-52.58225,-27.26882],[-52.58335,-27.26822],[-52.58508,-27.26422],[-52.58619,-27.26335],[-52.58759,-27.26296],[-52.58951,-27.26303],[-52.59012,-27.26251],[-52.59066,-27.26021],[-52.59253,-27.25872],[-52.59517,-27.25702],[-52.59594,-27.25616],[-52.5969,-27.25588],[-52.59777,-27.25417],[-52.60319,-27.25931],[-52.60536,-27.26109],[-52.61128,-27.26407],[-52.6147,-27.26515],[-52.61789,-27.26571],[-52.62659,-27.26609],[-52.63095,-27.26581],[-52.63322,-27.26548],[-52.63787,-27.26421],[-52.63968,-27.26383],[-52.64236,-27.26294],[-52.64489,-27.26167],[-52.64716,-27.25946],[-52.64813,-27.25722],[-52.64994,-27.25043],[-52.65288,-27.24498],[-52.65532,-27.24151],[-52.65746,-27.23953],[-52.65974,-27.23806],[-52.66263,-27.23709],[-52.66378,-27.23706],[-52.66758,-27.23785],[-52.66859,-27.23834],[-52.67203,-27.24052],[-52.67393,-27.24249],[-52.6764,-27.24574],[-52.6774,-27.24908],[-52.67756,-27.25166],[-52.67739,-27.25437],[-52.67729,-27.26051],[-52.67744,-27.26283],[-52.67992,-27.27155],[-52.68099,-27.27405],[-52.68188,-27.27558],[-52.68425,-27.2789],[-52.68614,-27.2813],[-52.68721,-27.2823],[-52.68942,-27.28386],[-52.69152,-27.28442]]]},"properties":{"codigo":"430720310","name":"Goio-Êm","population":168,"households":123,"areaKm2":74.8983,"density":2.2}},{"type":"Feature","geometry":{"type":"Polygon","coordinates":[[[-52.51257,-27.35321],[-52.51478,-27.35361],[-52.51922,-27.35401],[-52.51961,-27.35282],[-52.51837,-27.35184],[-52.51483,-27.35029],[-52.51369,-27.34933],[-52.51354,-27.34807],[-52.52007,-27.3467],[-52.52225,-27.34518],[-52.52041,-27.34107],[-52.52656,-27.33676],[-52.52498,-27.33487],[-52.52062,-27.33465],[-52.52025,-27.33328],[-52.52436,-27.33294],[-52.52659,-27.32989],[-52.53238,-27.32712],[-52.53288,-27.32778],[-52.53391,-27.32796],[-52.53593,-27.32962],[-52.53651,-27.33251],[-52.53534,-27.33421],[-52.5356,-27.33653],[-52.54999,-27.33517],[-52.54974,-27.3336],[-52.55015,-27.33257],[-52.55237,-27.33035],[-52.55273,-27.32828],[-52.55403,-27.327],[-52.55372,-27.32592],[-52.55423,-27.32515],[-52.55391,-27.32445],[-52.55453,-27.32307],[-52.55423,-27.32049],[-52.55387,-27.31979],[-52.5546,-27.31907],[-52.55496,-27.31776],[-52.55579,-27.31744],[-52.55603,-27.31341],[-52.55495,-27.31109],[-52.55649,-27.30745],[-52.55612,-27.30563],[-52.55614,-27.30403],[-52.55554,-27.30361],[-52.55708,-27.30272],[-52.55911,-27.3002],[-52.56057,-27.29738],[-52.56141,-27.29617],[-52.56178,-27.29453],[-52.56129,-27.29367],[-52.5628,-27.29231],[-52.5639,-27.29093],[-52.56543,-27.29013],[-52.56545,-27.28772],[-52.56672,-27.28765],[-52.56789,-27.28826],[-52.56822,-27.28711],[-52.56959,-27.28591],[-52.57306,-27.28382],[-52.57375,-27.28207],[-52.57542,-27.28079],[-52.5764,-27.27892],[-52.57761,-27.27874],[-52.57942,-27.27643],[-52.58006,-27.27816],[-52.58094,-27.27971],[-52.58238,-27.28119],[-52.58271,-27.28283],[-52.58341,-27.28286],[-52.58479,-27.28369],[-52.58559,-27.28495],[-52.58781,-27.28599],[-52.58886,-27.28708],[-52.58827,-27.28867],[-52.58861,-27.29021],[-52.5883,-27.29313],[-52.58971,-27.29301],[-52.58945,-27.29526],[-52.58798,-27.29577],[-52.58866,-27.29775],[-52.59021,-27.29814],[-52.5905,-27.29951],[-52.59237,-27.30002],[-52.59241,-27.30276],[-52.59202,-27.30394],[-52.59193,-27.3055],[-52.59118,-27.3064],[-52.59141,-27.30769],[-52.59275,-27.30889],[-52.59328,-27.30989],[-52.59249,-27.31017],[-52.59213,-27.31143],[-52.59377,-27.31214],[-52.5914,-27.31412],[-52.59147,-27.31506],[-52.59286,-27.31548],[-52.59438,-27.3154],[-52.59338,-27.31816],[-52.59369,-27.31886],[-52.59558,-27.31936],[-52.59561,-27.32004],[-52.59472,-27.32122],[-52.59287,-27.32191],[-52.59341,-27.32397],[-52.59259,-27.3247],[-52.59247,-27.32569],[-52.59427,-27.32581],[-52.59403,-27.3273],[-52.59587,-27.32749],[-52.59588,-27.3283],[-52.59722,-27.32858],[-52.59697,-27.33019],[-52.59725,-27.3312],[-52.59647,-27.33163],[-52.59648,-27.33369],[-52.59714,-27.33348],[-52.59619,-27.33636],[-52.59448,-27.33796],[-52.59407,-27.33874],[-52.5957,-27.34161],[-52.59564,-27.34312],[-52.59509,-27.34346],[-52.59271,-27.34351],[-52.59204,-27.34566],[-52.59105,-27.34485],[-52.5891,-27.3469],[-52.58778,-27.34794],[-52.58804,-27.34861],[-52.58998,-27.34815],[-52.58984,-27.3491],[-52.58898,-27.35063],[-52.59012,-27.35146],[-52.59012,-27.35234],[-52.58936,-27.35286],[-52.58876,-27.35429],[-52.58723,-27.35532],[-52.58876,-27.35587],[-52.58888,-27.3564],[-52.58801,-27.35742],[-52.58704,-27.35781],[-52.58746,-27.35926],[-52.58478,-27.36018],[-52.58523,-27.36123],[-52.58306,-27.36168],[-52.58126,-27.36174],[-52.57858,-27.36245],[-52.57806,-27.3631],[-52.57655,-27.364],[-52.57605,-27.36328],[-52.57444,-27.36378],[-52.57448,-27.36515],[-52.57357,-27.36525],[-52.57334,-27.36632],[-52.5723,-27.36671],[-52.56946,-27.36972],[-52.56812,-27.37082],[-52.56704,-27.371],[-52.56741,-27.37263],[-52.56634,-27.37353],[-52.56596,-27.37461],[-52.56371,-27.37651],[-52.56126,-27.37757],[-52.55997,-27.3778],[-52.55675,-27.37607],[-52.55304,-27.37361],[-52.55106,-27.37517],[-52.54809,-27.37693],[-52.54569,-27.37766],[-52.54403,-27.37868],[-52.54201,-27.37843],[-52.54111,-27.37802],[-52.53532,-27.37896],[-52.53432,-27.37961],[-52.53218,-27.37928],[-52.53091,-27.37776],[-52.53106,-27.37689],[-52.52956,-27.37629],[-52.52928,-27.37486],[-52.52724,-27.37463],[-52.52719,-27.37275],[-52.52531,-27.37252],[-52.52465,-27.37128],[-52.52334,-27.37121],[-52.52231,-27.3702],[-52.52063,-27.3693],[-52.52035,-27.36818],[-52.51749,-27.36658],[-52.51697,-27.36525],[-52.51412,-27.36425],[-52.51401,-27.36262],[-52.51466,-27.36209],[-52.51406,-27.36099],[-52.51187,-27.36113],[-52.5115,-27.36061],[-52.51111,-27.35588],[-52.51085,-27.35495],[-52.51106,-27.35354],[-52.51257,-27.35321]]]},"properties":{"codigo":"430720315","name":"Pinhalzinho","population":327,"households":270,"areaKm2":50.1346,"density":6.5}},{"type":"Feature","geometry":{"type":"Polygon","coordinates":[[[-52.59008,-27.24806],[-52.59357,-27.25029],[-52.59777,-27.25417],[-52.5969,-27.25588],[-52.59594,-27.25616],[-52.59517,-27.25702],[-52.59253,-27.25872],[-52.59066,-27.26021],[-52.59012,-27.26251],[-52.58951,-27.26303],[-52.58759,-27.26296],[-52.58619,-27.26335],[-52.58508,-27.26422],[-52.58335,-27.26822],[-52.58225,-27.26882],[-52.58321,-27.27217],[-52.58013,-27.27361],[-52.5784,-27.27525],[-52.57942,-27.27643],[-52.57761,-27.27874],[-52.5764,-27.27892],[-52.57542,-27.28079],[-52.57375,-27.28207],[-52.57306,-27.28382],[-52.56959,-27.28591],[-52.56822,-27.28711],[-52.56789,-27.28826],[-52.56672,-27.28765],[-52.56545,-27.28772],[-52.56543,-27.29013],[-52.5639,-27.29093],[-52.5628,-27.29231],[-52.56129,-27.29367],[-52.56178,-27.29453],[-52.56141,-27.29617],[-52.56057,-27.29738],[-52.55911,-27.3002],[-52.55708,-27.30272],[-52.55554,-27.30361],[-52.55614,-27.30403],[-52.55612,-27.30563],[-52.55649,-27.30745],[-52.55495,-27.31109],[-52.55603,-27.31341],[-52.55579,-27.31744],[-52.55496,-27.31776],[-52.5546,-27.31907],[-52.55387,-27.31979],[-52.55423,-27.32049],[-52.55453,-27.32307],[-52.55391,-27.32445],[-52.55423,-27.32515],[-52.55372,-27.32592],[-52.55403,-27.327],[-52.55273,-27.32828],[-52.55237,-27.33035],[-52.55015,-27.33257],[-52.54974,-27.3336],[-52.54999,-27.33517],[-52.5356,-27.33653],[-52.53534,-27.33421],[-52.53651,-27.33251],[-52.53593,-27.32962],[-52.53391,-27.32796],[-52.53288,-27.32778],[-52.53238,-27.32712],[-52.53093,-27.32365],[-52.53131,-27.32255],[-52.53508,-27.32025],[-52.53514,-27.31674],[-52.53884,-27.30941],[-52.53851,-27.3076],[-52.53709,-27.30755],[-52.52862,-27.30958],[-52.52574,-27.30914],[-52.52855,-27.30585],[-52.53113,-27.3],[-52.53167,-27.29811],[-52.52963,-27.29554],[-52.53168,-27.29494],[-52.53524,-27.29177],[-52.53841,-27.29136],[-52.54075,-27.28956],[-52.53436,-27.28625],[-52.53147,-27.28776],[-52.52658,-27.28494],[-52.52626,-27.28316],[-52.52838,-27.28023],[-52.52634,-27.27978],[-52.5255,-27.27908],[-52.52564,-27.27803],[-52.52741,-27.27709],[-52.52858,-27.27448],[-52.53073,-27.27636],[-52.53562,-27.27714],[-52.53791,-27.27645],[-52.53638,-27.2724],[-52.53794,-27.26875],[-52.53307,-27.26799],[-52.53578,-27.26637],[-52.53734,-27.26387],[-52.53626,-27.26009],[-52.53752,-27.25834],[-52.53868,-27.25596],[-52.54001,-27.25156],[-52.54064,-27.24867],[-52.54218,-27.24383],[-52.54386,-27.24108],[-52.54455,-27.24061],[-52.5457,-27.23964],[-52.54742,-27.23875],[-52.55074,-27.23837],[-52.55289,-27.23928],[-52.55499,-27.24135],[-52.55791,-27.24518],[-52.5599,-27.247],[-52.56107,-27.24779],[-52.5636,-27.24892],[-52.56647,-27.24934],[-52.56975,-27.24903],[-52.57797,-27.24733],[-52.58274,-27.24668],[-52.5875,-27.24689],[-52.58878,-27.24726],[-52.59008,-27.24806]]]},"properties":{"codigo":"430720320","name":"Santana","population":153,"households":78,"areaKm2":35.0305,"density":4.4}},{"type":"Feature","geometry":{"type":"Polygon","coordinates":[[[-52.59287,-27.46777],[-52.58222,-27.45836],[-52.57027,-27.46415],[-52.53885,-27.49244],[-52.53474,-27.48907],[-52.53439,-27.4878],[-52.53185,-27.4872],[-52.53212,-27.48524],[-52.53034,-27.48358],[-52.53102,-27.48125],[-52.5264,-27.47643],[-52.52168,-27.47548],[-52.51715,-27.47664],[-52.51922,-27.46925],[-52.523,-27.46841],[-52.52372,-27.46682],[-52.52333,-27.46497],[-52.52665,-27.46508],[-52.52763,-27.46387],[-52.52442,-27.4571],[-52.51985,-27.45821],[-52.51506,-27.45538],[-52.51522,-27.45417],[-52.51987,-27.45162],[-52.51884,-27.44719],[-52.52259,-27.44252],[-52.52126,-27.44208],[-52.5229,-27.44183],[-52.52468,-27.44104],[-52.52536,-27.44122],[-52.52619,-27.44044],[-52.52747,-27.44011],[-52.52952,-27.44103],[-52.53093,-27.44198],[-52.53415,-27.44278],[-52.5377,-27.44096],[-52.54035,-27.44052],[-52.54203,-27.43964],[-52.54622,-27.43907],[-52.54697,-27.43938],[-52.54552,-27.44112],[-52.54526,-27.44185],[-52.54505,-27.44619],[-52.54515,-27.4475],[-52.54632,-27.44949],[-52.54831,-27.44875],[-52.54844,-27.44793],[-52.54968,-27.44767],[-52.55117,-27.44573],[-52.55261,-27.44538],[-52.55411,-27.44458],[-52.55488,-27.44376],[-52.55653,-27.443],[-52.55969,-27.44074],[-52.55955,-27.43998],[-52.56117,-27.43944],[-52.56291,-27.43716],[-52.56409,-27.43642],[-52.56665,-27.4332],[-52.56793,-27.43232],[-52.56856,-27.43015],[-52.56861,-27.42776],[-52.56924,-27.42665],[-52.57139,-27.42632],[-52.57232,-27.42549],[-52.57401,-27.4258],[-52.57496,-27.42515],[-52.57573,-27.42349],[-52.57675,-27.42433],[-52.5779,-27.42457],[-52.57988,-27.42299],[-52.58163,-27.42262],[-52.58297,-27.42286],[-52.58424,-27.4225],[-52.58511,-27.42303],[-52.58749,-27.42208],[-52.5883,-27.42213],[-52.58852,-27.42104],[-52.59073,-27.4206],[-52.5922,-27.41946],[-52.59484,-27.41904],[-52.59657,-27.41778],[-52.59609,-27.41691],[-52.59678,-27.4164],[-52.59849,-27.4169],[-52.59941,-27.41676],[-52.60025,-27.41589],[-52.6022,-27.41514],[-52.6025,-27.41399],[-52.60412,-27.41364],[-52.61043,-27.41757],[-52.60912,-27.42001],[-52.61022,-27.42072],[-52.61093,-27.42261],[-52.61101,-27.4287],[-52.61339,-27.42802],[-52.61408,-27.43073],[-52.61588,-27.43047],[-52.61843,-27.43224],[-52.61818,-27.4334],[-52.61866,-27.43452],[-52.61706,-27.43557],[-52.61598,-27.43872],[-52.61616,-27.44014],[-52.61519,-27.44101],[-52.6165,-27.44179],[-52.61733,-27.44073],[-52.61802,-27.44189],[-52.61911,-27.44126],[-52.61977,-27.44156],[-52.61926,-27.44331],[-52.62031,-27.44442],[-52.61878,-27.44452],[-52.61789,-27.44513],[-52.61761,-27.4466],[-52.61913,-27.44862],[-52.61908,-27.44983],[-52.6199,-27.45158],[-52.61766,-27.45246],[-52.61409,-27.45305],[-52.6128,-27.45402],[-52.61015,-27.45702],[-52.60925,-27.45731],[-52.60646,-27.45762],[-52.60097,-27.46094],[-52.60076,-27.46153],[-52.59793,-27.46386],[-52.59686,-27.46419],[-52.59537,-27.46576],[-52.59499,-27.46654],[-52.59343,-27.46809],[-52.59287,-27.46777]]]},"properties":{"codigo":"430720325","name":"Sete de Setembro","population":407,"households":213,"areaKm2":41.3711,"density":9.8}}]}