{"type":"FeatureCollection","features":[{"type":"Feature","geometry":{"type":"Polygon","coordinates":[[[-51.05027,-29.96909],[-51.04809,-29.96861],[-51.04688,-29.96766],[-51.04769,-29.9665],[-51.04725,-29.96522],[-51.0478,-29.96333],[-51.04609,-29.96263],[-51.04501,-29.96425],[-51.04379,-29.96411],[-51.04278,-29.96539],[-51.04199,-29.96524],[-51.04014,-29.96788],[-51.03836,-29.96741],[-51.03753,-29.9677],[-51.03688,-29.9668],[-51.03591,-29.96661],[-51.03533,-29.96586],[-51.034,-29.96575],[-51.03286,-29.96461],[-51.03144,-29.96469],[-51.03003,-29.96257],[-51.02866,-29.9614],[-51.02638,-29.96137],[-51.0248,-29.95979],[-51.02307,-29.96001],[-51.02024,-29.95885],[-51.01867,-29.95857],[-51.01788,-29.9575],[-51.01686,-29.95781],[-51.01056,-29.95656],[-51.0094,-29.95647],[-51.0073,-29.9569],[-51.0064,-29.95735],[-51.00383,-29.9593],[-51.00554,-29.96021],[-51.00583,-29.96162],[-51.00552,-29.96309],[-51.00455,-29.96348],[-51.00266,-29.96307],[-51.00163,-29.96234],[-51.0009,-29.9624],[-50.99991,-29.96339],[-50.99917,-29.96478],[-50.9976,-29.96513],[-50.99627,-29.96451],[-50.99387,-29.96475],[-50.99349,-29.96422],[-50.99176,-29.96329],[-50.98883,-29.96289],[-50.98743,-29.96314],[-50.98643,-29.96414],[-50.98551,-29.96649],[-50.9839,-29.96696],[-50.98324,-29.96585],[-50.98456,-29.96561],[-50.98358,-29.96399],[-50.98003,-29.96404],[-50.97716,-29.96482],[-50.97583,-29.96496],[-50.97383,-29.96574],[-50.97243,-29.96692],[-50.97032,-29.96776],[-50.96808,-29.96803],[-50.96532,-29.96731],[-50.96461,-29.9666],[-50.96461,-29.96578],[-50.96575,-29.96424],[-50.96388,-29.96215],[-50.96326,-29.9619],[-50.95918,-29.96135],[-50.95679,-29.96138],[-50.95218,-29.96034],[-50.94872,-29.96068],[-50.94817,-29.95996],[-50.94713,-29.9577],[-50.94623,-29.95776],[-50.94535,-29.95681],[-50.94399,-29.95698],[-50.94243,-29.95653],[-50.94104,-29.95504],[-50.93895,-29.9546],[-50.9371,-29.95215],[-50.93651,-29.95091],[-50.93655,-29.94978],[-50.93447,-29.94561],[-50.9343,-29.94467],[-50.93522,-29.9443],[-50.93601,-29.94305],[-50.93371,-29.94269],[-50.92965,-29.94243],[-50.92843,-29.94261],[-50.90951,-29.94283],[-50.90661,-29.94306],[-50.9015,-29.94302],[-50.90144,-29.94233],[-50.89939,-29.92972],[-50.89971,-29.92497],[-50.90194,-29.91797],[-50.90437,-29.91816],[-50.90911,-29.9202],[-50.90937,-29.91704],[-50.90789,-29.91587],[-50.90705,-29.91421],[-50.90676,-29.91221],[-50.90509,-29.90861],[-50.90412,-29.90752],[-50.90395,-29.90614],[-50.90279,-29.90177],[-50.90285,-29.89907],[-50.90428,-29.89649],[-50.90419,-29.89494],[-50.91829,-29.89577],[-50.94473,-29.89727],[-50.94684,-29.89769],[-50.9495,-29.89891],[-50.95173,-29.90022],[-50.95339,-29.90225],[-50.95702,-29.90369],[-50.95815,-29.90356],[-50.97557,-29.89341],[-50.97821,-29.89424],[-50.98162,-29.8959],[-50.98553,-29.896],[-50.98848,-29.89645],[-50.99063,-29.89782],[-50.99014,-29.89991],[-50.98982,-29.90295],[-50.99848,-29.89233],[-51.00098,-29.89073],[-51.00379,-29.89259],[-51.0039,-29.89356],[-51.00586,-29.89479],[-51.00713,-29.89718],[-51.0073,-29.89835],[-51.00833,-29.8989],[-51.00747,-29.9007],[-51.00874,-29.90129],[-51.01064,-29.90085],[-51.01202,-29.90361],[-51.01259,-29.90579],[-51.01347,-29.90698],[-51.01586,-29.90878],[-51.01818,-29.90954],[-51.01841,-29.90824],[-51.01822,-29.90403],[-51.01792,-29.90229],[-51.01683,-29.89938],[-51.01898,-29.89788],[-51.02029,-29.89563],[-51.02242,-29.89456],[-51.02421,-29.89055],[-51.02425,-29.88919],[-51.02476,-29.88678],[-51.02664,-29.88724],[-51.03048,-29.88446],[-51.03156,-29.88287],[-51.03263,-29.88304],[-51.03482,-29.88288],[-51.0364,-29.88188],[-51.03514,-29.87735],[-51.03584,-29.87734],[-51.03695,-29.87811],[-51.03762,-29.87999],[-51.03953,-29.88224],[-51.04176,-29.88255],[-51.04327,-29.88209],[-51.04512,-29.88346],[-51.04637,-29.88384],[-51.04749,-29.88469],[-51.04831,-29.88592],[-51.04986,-29.88644],[-51.05466,-29.88731],[-51.05627,-29.88551],[-51.05956,-29.88389],[-51.06447,-29.88644],[-51.06602,-29.88904],[-51.06567,-29.88976],[-51.06588,-29.89097],[-51.06605,-29.89441],[-51.06555,-29.89592],[-51.06539,-29.90027],[-51.06404,-29.90403],[-51.06296,-29.90564],[-51.0646,-29.90884],[-51.06789,-29.91375],[-51.0681,-29.91525],[-51.07109,-29.91939],[-51.07392,-29.92297],[-51.07436,-29.92429],[-51.07429,-29.92609],[-51.0746,-29.92761],[-51.07653,-29.93183],[-51.07579,-29.93332],[-51.07539,-29.94185],[-51.074,-29.96696],[-51.07266,-29.96749],[-51.07081,-29.96587],[-51.06883,-29.96651],[-51.06858,-29.96857],[-51.07025,-29.96919],[-51.07093,-29.96983],[-51.07025,-29.97077],[-51.06887,-29.97061],[-51.06879,-29.97169],[-51.06696,-29.97228],[-51.06406,-29.97169],[-51.06439,-29.97047],[-51.06449,-29.96801],[-51.06225,-29.96758],[-51.0618,-29.967],[-51.06245,-29.96579],[-51.0623,-29.96521],[-51.0599,-29.96461],[-51.05914,-29.96471],[-51.05818,-29.96635],[-51.05682,-29.9661],[-51.05549,-29.96652],[-51.05464,-29.96564],[-51.05573,-29.96527],[-51.05401,-29.96362],[-51.05333,-29.96415],[-51.05172,-29.96392],[-51.05101,-29.9643],[-51.05197,-29.96561],[-51.05074,-29.96593],[-51.05044,-29.96714],[-51.05145,-29.96753],[-51.05133,-29.96839],[-51.05027,-29.96909]]]},"properties":{"codigo":"430920905","name":"Gravataí","population":232525,"households":102643,"areaKm2":117.3859,"density":1980.9}},{"type":"Feature","geometry":{"type":"Polygon","coordinates":[[[-50.94931,-29.96628],[-50.94781,-29.96844],[-50.94533,-29.96977],[-50.94428,-29.97087],[-50.94364,-29.97273],[-50.94199,-29.97474],[-50.93832,-29.97705],[-50.92531,-29.99562],[-50.92355,-29.99764],[-50.92006,-30.00019],[-50.91741,-30.00147],[-50.91434,-30.00259],[-50.88991,-30.00948],[-50.88049,-30.01226],[-50.86871,-30.01557],[-50.8663,-30.01589],[-50.8636,-30.01577],[-50.86131,-30.01511],[-50.85938,-30.01432],[-50.82762,-29.99983],[-50.82625,-29.99953],[-50.82075,-29.99879],[-50.83033,-29.98961],[-50.83011,-29.98872],[-50.83128,-29.98736],[-50.83385,-29.98322],[-50.83398,-29.98246],[-50.83509,-29.98126],[-50.83597,-29.98078],[-50.83653,-29.97905],[-50.83815,-29.97815],[-50.83932,-29.97714],[-50.84029,-29.97677],[-50.84088,-29.97525],[-50.84005,-29.97241],[-50.84026,-29.9707],[-50.84139,-29.96982],[-50.84171,-29.9635],[-50.84098,-29.96081],[-50.83978,-29.95789],[-50.84039,-29.9567],[-50.84069,-29.95352],[-50.83961,-29.9509],[-50.83953,-29.94951],[-50.83772,-29.94794],[-50.8359,-29.94683],[-50.83583,-29.94565],[-50.83667,-29.94523],[-50.83765,-29.94354],[-50.83827,-29.9416],[-50.8395,-29.94087],[-50.83985,-29.93876],[-50.841,-29.93574],[-50.84293,-29.93351],[-50.84413,-29.93096],[-50.84596,-29.92906],[-50.84621,-29.92748],[-50.84496,-29.92639],[-50.8448,-29.92547],[-50.84527,-29.92372],[-50.84445,-29.92166],[-50.84265,-29.92013],[-50.8426,-29.91966],[-50.84389,-29.91829],[-50.84385,-29.91632],[-50.84417,-29.91442],[-50.84578,-29.91303],[-50.84611,-29.91195],[-50.84654,-29.91088],[-50.84737,-29.91026],[-50.84811,-29.90881],[-50.84789,-29.90619],[-50.84747,-29.90541],[-50.84768,-29.90445],[-50.84667,-29.9036],[-50.84516,-29.90348],[-50.84414,-29.90245],[-50.8443,-29.9007],[-50.84295,-29.89957],[-50.84293,-29.89741],[-50.84194,-29.89622],[-50.84034,-29.89498],[-50.83924,-29.89292],[-50.83885,-29.89039],[-50.83941,-29.88851],[-50.83882,-29.8877],[-50.83932,-29.88577],[-50.83897,-29.8848],[-50.83951,-29.88377],[-50.84164,-29.88488],[-50.84275,-29.88466],[-50.84493,-29.88274],[-50.84617,-29.88115],[-50.84675,-29.88097],[-50.8487,-29.87898],[-50.84897,-29.87736],[-50.85016,-29.87571],[-50.85051,-29.8748],[-50.85142,-29.87493],[-50.85281,-29.87441],[-50.85443,-29.87238],[-50.85524,-29.87199],[-50.85605,-29.87269],[-50.88768,-29.88736],[-50.88771,-29.88663],[-50.90419,-29.89494],[-50.90428,-29.89649],[-50.90285,-29.89907],[-50.90279,-29.90177],[-50.90395,-29.90614],[-50.90412,-29.90752],[-50.90509,-29.90861],[-50.90676,-29.91221],[-50.90705,-29.91421],[-50.90789,-29.91587],[-50.90937,-29.91704],[-50.90911,-29.9202],[-50.90437,-29.91816],[-50.90194,-29.91797],[-50.89971,-29.92497],[-50.89939,-29.92972],[-50.90144,-29.94233],[-50.9015,-29.94302],[-50.90661,-29.94306],[-50.90951,-29.94283],[-50.92843,-29.94261],[-50.92965,-29.94243],[-50.93371,-29.94269],[-50.93601,-29.94305],[-50.93522,-29.9443],[-50.9343,-29.94467],[-50.93447,-29.94561],[-50.93655,-29.94978],[-50.93651,-29.95091],[-50.9371,-29.95215],[-50.93895,-29.9546],[-50.94104,-29.95504],[-50.94243,-29.95653],[-50.94399,-29.95698],[-50.94535,-29.95681],[-50.94623,-29.95776],[-50.94713,-29.9577],[-50.94817,-29.95996],[-50.94872,-29.96068],[-50.9483,-29.96227],[-50.94859,-29.96367],[-50.94928,-29.96512],[-50.94931,-29.96628]]]},"properties":{"codigo":"430920915","name":"Barro Vermelho","population":8159,"households":3875,"areaKm2":109.3036,"density":74.6}},{"type":"Feature","geometry":{"type":"Polygon","coordinates":[[[-51.06588,-29.89097],[-51.06567,-29.88976],[-51.06602,-29.88904],[-51.06447,-29.88644],[-51.05956,-29.88389],[-51.05627,-29.88551],[-51.05466,-29.88731],[-51.04986,-29.88644],[-51.04831,-29.88592],[-51.04749,-29.88469],[-51.04637,-29.88384],[-51.04512,-29.88346],[-51.04327,-29.88209],[-51.04176,-29.88255],[-51.03953,-29.88224],[-51.03762,-29.87999],[-51.03695,-29.87811],[-51.03584,-29.87734],[-51.03514,-29.87735],[-51.0364,-29.88188],[-51.03482,-29.88288],[-51.03263,-29.88304],[-51.03156,-29.88287],[-51.02834,-29.8813],[-51.02744,-29.8796],[-51.02445,-29.87765],[-51.01873,-29.8759],[-51.01685,-29.87606],[-51.0155,-29.87482],[-51.01376,-29.87447],[-51.01201,-29.87334],[-51.0097,-29.87228],[-51.00888,-29.87161],[-51.00737,-29.86943],[-51.00557,-29.86922],[-51.00354,-29.86798],[-51.0009,-29.86769],[-50.99992,-29.86686],[-50.99788,-29.86616],[-50.99731,-29.86459],[-50.99668,-29.8639],[-50.99653,-29.86278],[-50.9953,-29.85971],[-50.99436,-29.85856],[-50.99357,-29.85699],[-50.99224,-29.85535],[-50.99254,-29.85321],[-50.99112,-29.85186],[-50.99132,-29.85007],[-50.99042,-29.84589],[-50.98924,-29.84552],[-50.98967,-29.84357],[-50.9892,-29.84284],[-50.98743,-29.84181],[-50.9858,-29.8393],[-50.98642,-29.83837],[-50.98702,-29.83606],[-50.98646,-29.83536],[-50.98437,-29.83494],[-50.98366,-29.83415],[-50.98349,-29.83291],[-50.98137,-29.83173],[-50.98092,-29.83077],[-50.98252,-29.82845],[-50.98228,-29.82579],[-50.98178,-29.82416],[-50.98037,-29.82301],[-50.9799,-29.82151],[-50.97869,-29.8189],[-50.97681,-29.81708],[-50.97607,-29.81594],[-50.97568,-29.81361],[-50.97629,-29.81185],[-50.97764,-29.81172],[-50.97697,-29.80929],[-50.97737,-29.80803],[-50.97738,-29.80634],[-50.97488,-29.80297],[-50.97447,-29.80206],[-50.97462,-29.8008],[-50.97424,-29.7996],[-50.97498,-29.7968],[-50.97647,-29.79574],[-51.00539,-29.80569],[-51.0409,-29.81794],[-51.07834,-29.83082],[-51.07845,-29.83048],[-51.08114,-29.82976],[-51.08191,-29.83124],[-51.08288,-29.83181],[-51.08322,-29.83405],[-51.08407,-29.83547],[-51.08409,-29.83705],[-51.08481,-29.83836],[-51.0866,-29.83956],[-51.0875,-29.84062],[-51.08691,-29.84224],[-51.08712,-29.84378],[-51.08832,-29.84546],[-51.08971,-29.84884],[-51.09166,-29.84994],[-51.09245,-29.85119],[-51.09385,-29.85167],[-51.09538,-29.85486],[-51.09571,-29.85803],[-51.09609,-29.85895],[-51.09551,-29.86117],[-51.09557,-29.86416],[-51.0969,-29.86548],[-51.09807,-29.86571],[-51.09928,-29.86664],[-51.10078,-29.86848],[-51.0976,-29.87246],[-51.09502,-29.87364],[-51.0923,-29.87653],[-51.09161,-29.87801],[-51.09069,-29.87856],[-51.08808,-29.8791],[-51.08638,-29.87855],[-51.085,-29.87934],[-51.08294,-29.88148],[-51.0797,-29.88366],[-51.07789,-29.88545],[-51.06588,-29.89097]]]},"properties":{"codigo":"430920930","name":"Ipiranga","population":6829,"households":3370,"areaKm2":71.5821,"density":95.4}},{"type":"Feature","geometry":{"type":"Polygon","coordinates":[[[-50.95815,-29.90356],[-50.95801,-29.90258],[-50.95807,-29.89871],[-50.95645,-29.89682],[-50.95503,-29.89592],[-50.95453,-29.89349],[-50.95507,-29.89117],[-50.95447,-29.88931],[-50.95373,-29.8887],[-50.95169,-29.88538],[-50.95145,-29.88415],[-50.95184,-29.88197],[-50.9506,-29.8809],[-50.95123,-29.87601],[-50.95114,-29.87515],[-50.95193,-29.87428],[-50.95176,-29.87275],[-50.95062,-29.87138],[-50.95127,-29.86764],[-50.9525,-29.86571],[-50.95191,-29.86501],[-50.95336,-29.8636],[-50.95375,-29.86157],[-50.95238,-29.85853],[-50.9534,-29.85795],[-50.95456,-29.85594],[-50.95819,-29.85442],[-50.95865,-29.85321],[-50.95791,-29.8514],[-50.95868,-29.84982],[-50.9588,-29.84845],[-50.95809,-29.84715],[-50.95859,-29.84589],[-50.96034,-29.84436],[-50.96231,-29.84367],[-50.96375,-29.84246],[-50.96386,-29.84109],[-50.96548,-29.84025],[-50.96439,-29.83924],[-50.96345,-29.83784],[-50.96476,-29.83506],[-50.96549,-29.83423],[-50.96565,-29.83324],[-50.96645,-29.8328],[-50.96657,-29.83182],[-50.96805,-29.83037],[-50.97017,-29.83011],[-50.97064,-29.83112],[-50.97224,-29.83142],[-50.97309,-29.83212],[-50.97439,-29.83212],[-50.97562,-29.83324],[-50.97733,-29.83339],[-50.97948,-29.83201],[-50.9798,-29.83098],[-50.98092,-29.83077],[-50.98137,-29.83173],[-50.98349,-29.83291],[-50.98366,-29.83415],[-50.98437,-29.83494],[-50.98646,-29.83536],[-50.98702,-29.83606],[-50.98642,-29.83837],[-50.9858,-29.8393],[-50.98743,-29.84181],[-50.9892,-29.84284],[-50.98967,-29.84357],[-50.98924,-29.84552],[-50.99042,-29.84589],[-50.99132,-29.85007],[-50.99112,-29.85186],[-50.99254,-29.85321],[-50.99224,-29.85535],[-50.99357,-29.85699],[-50.99436,-29.85856],[-50.9953,-29.85971],[-50.99653,-29.86278],[-50.99668,-29.8639],[-50.99731,-29.86459],[-50.99788,-29.86616],[-50.99992,-29.86686],[-51.0009,-29.86769],[-51.00354,-29.86798],[-51.00557,-29.86922],[-51.00737,-29.86943],[-51.00888,-29.87161],[-51.0097,-29.87228],[-51.01201,-29.87334],[-51.01376,-29.87447],[-51.0155,-29.87482],[-51.01685,-29.87606],[-51.01873,-29.8759],[-51.02445,-29.87765],[-51.02744,-29.8796],[-51.02834,-29.8813],[-51.03156,-29.88287],[-51.03048,-29.88446],[-51.02664,-29.88724],[-51.02476,-29.88678],[-51.02425,-29.88919],[-51.02421,-29.89055],[-51.02242,-29.89456],[-51.02029,-29.89563],[-51.01898,-29.89788],[-51.01683,-29.89938],[-51.01792,-29.90229],[-51.01822,-29.90403],[-51.01841,-29.90824],[-51.01818,-29.90954],[-51.01586,-29.90878],[-51.01347,-29.90698],[-51.01259,-29.90579],[-51.01202,-29.90361],[-51.01064,-29.90085],[-51.00874,-29.90129],[-51.00747,-29.9007],[-51.00833,-29.8989],[-51.0073,-29.89835],[-51.00713,-29.89718],[-51.00586,-29.89479],[-51.0039,-29.89356],[-51.00379,-29.89259],[-51.00098,-29.89073],[-50.99848,-29.89233],[-50.98982,-29.90295],[-50.99014,-29.89991],[-50.99063,-29.89782],[-50.98848,-29.89645],[-50.98553,-29.896],[-50.98162,-29.8959],[-50.97821,-29.89424],[-50.97557,-29.89341],[-50.95815,-29.90356]]]},"properties":{"codigo":"430920933","name":"Itacolomi","population":9817,"households":4602,"areaKm2":34.6122,"density":283.6}},{"type":"Feature","geometry":{"type":"Polygon","coordinates":[[[-50.81204,-29.77376],[-50.81226,-29.77271],[-50.81235,-29.77229],[-50.81397,-29.77139],[-50.81359,-29.77073],[-50.82223,-29.76535],[-50.82457,-29.76635],[-50.8266,-29.76621],[-50.82764,-29.76639],[-50.8301,-29.76618],[-50.83088,-29.76635],[-50.8341,-29.7657],[-50.83547,-29.76574],[-50.83723,-29.76785],[-50.83773,-29.76912],[-50.83848,-29.76965],[-50.83875,-29.77095],[-50.83981,-29.77279],[-50.83974,-29.77538],[-50.84066,-29.77813],[-50.84043,-29.77915],[-50.84207,-29.77911],[-50.84276,-29.78024],[-50.84419,-29.78356],[-50.84509,-29.78467],[-50.84808,-29.78564],[-50.84941,-29.78647],[-50.85124,-29.78711],[-50.85195,-29.78776],[-50.85266,-29.78945],[-50.85263,-29.79057],[-50.85478,-29.79058],[-50.8571,-29.79166],[-50.85841,-29.79334],[-50.86039,-29.79374],[-50.86169,-29.79336],[-50.86199,-29.791],[-50.86242,-29.78977],[-50.86365,-29.78914],[-50.90901,-29.78922],[-50.95774,-29.78928],[-50.97647,-29.79574],[-50.97498,-29.7968],[-50.97424,-29.7996],[-50.97462,-29.8008],[-50.97447,-29.80206],[-50.97488,-29.80297],[-50.97738,-29.80634],[-50.97737,-29.80803],[-50.97697,-29.80929],[-50.97764,-29.81172],[-50.97629,-29.81185],[-50.97568,-29.81361],[-50.97607,-29.81594],[-50.97681,-29.81708],[-50.97869,-29.8189],[-50.9799,-29.82151],[-50.98037,-29.82301],[-50.98178,-29.82416],[-50.98228,-29.82579],[-50.98252,-29.82845],[-50.98092,-29.83077],[-50.9798,-29.83098],[-50.97948,-29.83201],[-50.97733,-29.83339],[-50.97562,-29.83324],[-50.97439,-29.83212],[-50.97309,-29.83212],[-50.97224,-29.83142],[-50.97064,-29.83112],[-50.97017,-29.83011],[-50.96805,-29.83037],[-50.96657,-29.83182],[-50.96645,-29.8328],[-50.96565,-29.83324],[-50.96549,-29.83423],[-50.96476,-29.83506],[-50.96345,-29.83784],[-50.96439,-29.83924],[-50.96548,-29.84025],[-50.96386,-29.84109],[-50.96375,-29.84246],[-50.96231,-29.84367],[-50.96034,-29.84436],[-50.95859,-29.84589],[-50.95809,-29.84715],[-50.9588,-29.84845],[-50.95868,-29.84982],[-50.95791,-29.8514],[-50.95865,-29.85321],[-50.95819,-29.85442],[-50.95456,-29.85594],[-50.9534,-29.85795],[-50.95238,-29.85853],[-50.95375,-29.86157],[-50.95336,-29.8636],[-50.95191,-29.86501],[-50.9525,-29.86571],[-50.95127,-29.86764],[-50.95062,-29.87138],[-50.95176,-29.87275],[-50.95193,-29.87428],[-50.95114,-29.87515],[-50.95123,-29.87601],[-50.9506,-29.8809],[-50.95184,-29.88197],[-50.95145,-29.88415],[-50.95169,-29.88538],[-50.95373,-29.8887],[-50.95447,-29.88931],[-50.95507,-29.89117],[-50.95453,-29.89349],[-50.95503,-29.89592],[-50.95645,-29.89682],[-50.95807,-29.89871],[-50.95801,-29.90258],[-50.95815,-29.90356],[-50.95702,-29.90369],[-50.95339,-29.90225],[-50.95173,-29.90022],[-50.9495,-29.89891],[-50.94684,-29.89769],[-50.94473,-29.89727],[-50.91829,-29.89577],[-50.90419,-29.89494],[-50.88771,-29.88663],[-50.88768,-29.88736],[-50.85605,-29.87269],[-50.85524,-29.87199],[-50.85279,-29.83546],[-50.82036,-29.79291],[-50.81967,-29.7908],[-50.82037,-29.7892],[-50.82052,-29.78809],[-50.81879,-29.78721],[-50.81782,-29.78614],[-50.81603,-29.78486],[-50.81544,-29.78411],[-50.81395,-29.78367],[-50.81335,-29.78172],[-50.81126,-29.77885],[-50.81217,-29.77679],[-50.81169,-29.77512],[-50.81204,-29.77376]]]},"properties":{"codigo":"430920935","name":"Morungava","population":7744,"households":4873,"areaKm2":135.4041,"density":57.2}}]}