{"type":"FeatureCollection","features":[{"type":"Feature","geometry":{"type":"Polygon","coordinates":[[[-55.49475,-29.58759],[-55.49593,-29.59165],[-55.49615,-29.59217],[-55.49492,-29.59233],[-55.49268,-29.59276],[-55.48899,-29.59381],[-55.48813,-29.59414],[-55.48526,-29.59484],[-55.48426,-29.59518],[-55.48154,-29.59583],[-55.48114,-29.5938],[-55.48268,-29.59342],[-55.48562,-29.5924],[-55.48499,-29.58971],[-55.48644,-29.58924],[-55.48951,-29.58871],[-55.49362,-29.58791],[-55.49475,-29.58759]]]},"properties":{"codigo":"4311759003","name":"Navegantes","population":388,"households":194,"areaKm2":0.632,"density":613.9}},{"type":"Feature","geometry":{"type":"Polygon","coordinates":[[[-55.48154,-29.59583],[-55.48028,-29.59603],[-55.47925,-29.59579],[-55.47827,-29.59473],[-55.47741,-29.59437],[-55.47841,-29.59387],[-55.47798,-29.59341],[-55.47668,-29.59335],[-55.4774,-29.59148],[-55.47728,-29.59095],[-55.47647,-29.59063],[-55.47704,-29.59002],[-55.47655,-29.58931],[-55.47638,-29.58873],[-55.47598,-29.58873],[-55.47397,-29.58577],[-55.47721,-29.58401],[-55.47733,-29.58453],[-55.47908,-29.58396],[-55.47943,-29.58566],[-55.48002,-29.58836],[-55.48053,-29.59106],[-55.48114,-29.5938],[-55.48154,-29.59583]]]},"properties":{"codigo":"4311759001","name":"Restinga","population":788,"households":382,"areaKm2":0.48,"density":1641.6}},{"type":"Feature","geometry":{"type":"Polygon","coordinates":[[[-55.48499,-29.58971],[-55.48432,-29.58704],[-55.48288,-29.58749],[-55.48221,-29.58487],[-55.48369,-29.58439],[-55.48669,-29.58359],[-55.48824,-29.58338],[-55.48978,-29.58301],[-55.49157,-29.58278],[-55.49221,-29.58343],[-55.49434,-29.58627],[-55.49475,-29.58759],[-55.49362,-29.58791],[-55.48951,-29.58871],[-55.48644,-29.58924],[-55.48499,-29.58971]]]},"properties":{"codigo":"4311759002","name":"Progresso","population":1306,"households":606,"areaKm2":0.5906,"density":2211.5}},{"type":"Feature","geometry":{"type":"Polygon","coordinates":[[[-55.48114,-29.5938],[-55.48053,-29.59106],[-55.48002,-29.58836],[-55.47943,-29.58566],[-55.48221,-29.58487],[-55.48288,-29.58749],[-55.48432,-29.58704],[-55.48499,-29.58971],[-55.48562,-29.5924],[-55.48268,-29.59342],[-55.48114,-29.5938]]]},"properties":{"codigo":"4311759004","name":"Centro","population":715,"households":397,"areaKm2":0.3635,"density":1966.8}},{"type":"Feature","geometry":{"type":"Polygon","coordinates":[[[-55.47721,-29.58401],[-55.47891,-29.58324],[-55.48011,-29.58256],[-55.47977,-29.58145],[-55.48052,-29.5811],[-55.4808,-29.58209],[-55.48415,-29.58023],[-55.48453,-29.58134],[-55.483,-29.58161],[-55.48369,-29.58439],[-55.48221,-29.58487],[-55.47943,-29.58566],[-55.47908,-29.58396],[-55.47733,-29.58453],[-55.47721,-29.58401]]]},"properties":{"codigo":"4311759005","name":"Cidade Alta","population":462,"households":224,"areaKm2":0.1827,"density":2528.6}},{"type":"Feature","geometry":{"type":"Polygon","coordinates":[[[-55.48369,-29.58439],[-55.483,-29.58161],[-55.48453,-29.58134],[-55.48415,-29.58023],[-55.48714,-29.57873],[-55.48872,-29.57803],[-55.48939,-29.57918],[-55.49087,-29.5787],[-55.49355,-29.58254],[-55.49221,-29.58343],[-55.49157,-29.58278],[-55.48978,-29.58301],[-55.48824,-29.58338],[-55.48669,-29.58359],[-55.48369,-29.58439]]]},"properties":{"codigo":"4311759006","name":"Vila Nova","population":1306,"households":629,"areaKm2":0.4118,"density":3171.1}}]}