{"type":"FeatureCollection","features":[{"type":"Feature","geometry":{"type":"Polygon","coordinates":[[[-53.68119,-27.54798],[-53.67994,-27.55017],[-53.67811,-27.55036],[-53.67636,-27.55122],[-53.67428,-27.55086],[-53.67157,-27.55014],[-53.66981,-27.55045],[-53.66782,-27.55019],[-53.66757,-27.54964],[-53.66516,-27.54869],[-53.66379,-27.54723],[-53.66296,-27.54582],[-53.66238,-27.54406],[-53.66105,-27.54264],[-53.66057,-27.54163],[-53.65926,-27.54033],[-53.663,-27.53574],[-53.66403,-27.53471],[-53.67038,-27.53021],[-53.67059,-27.52848],[-53.67201,-27.52653],[-53.67539,-27.51343],[-53.67547,-27.51209],[-53.6765,-27.50942],[-53.67684,-27.50732],[-53.67768,-27.50446],[-53.67824,-27.50382],[-53.68197,-27.49625],[-53.68256,-27.49482],[-53.68322,-27.49202],[-53.68371,-27.48852],[-53.68469,-27.48821],[-53.68391,-27.48485],[-53.68717,-27.48549],[-53.68951,-27.48625],[-53.69183,-27.48653],[-53.69526,-27.48624],[-53.69774,-27.48532],[-53.70213,-27.4831],[-53.70299,-27.48283],[-53.70491,-27.48344],[-53.70693,-27.48449],[-53.70889,-27.48473],[-53.71078,-27.48521],[-53.7131,-27.48428],[-53.71588,-27.48499],[-53.7175,-27.48609],[-53.71948,-27.48671],[-53.72144,-27.48812],[-53.72417,-27.48855],[-53.72582,-27.48905],[-53.72744,-27.49012],[-53.72911,-27.49228],[-53.73102,-27.49272],[-53.73237,-27.49259],[-53.73285,-27.49338],[-53.73444,-27.49406],[-53.73607,-27.49526],[-53.73741,-27.49691],[-53.7387,-27.49735],[-53.74152,-27.49643],[-53.7454,-27.49594],[-53.74673,-27.49614],[-53.74967,-27.49606],[-53.75211,-27.49737],[-53.75382,-27.49701],[-53.75479,-27.49594],[-53.75643,-27.49551],[-53.75641,-27.4963],[-53.75565,-27.49741],[-53.75523,-27.49903],[-53.75451,-27.49986],[-53.75038,-27.50281],[-53.74852,-27.50526],[-53.74666,-27.50669],[-53.74356,-27.50796],[-53.74214,-27.50813],[-53.74101,-27.50975],[-53.7403,-27.51171],[-53.739,-27.51251],[-53.73846,-27.51386],[-53.73374,-27.51702],[-53.73257,-27.51837],[-53.73068,-27.51852],[-53.72807,-27.5198],[-53.72637,-27.52022],[-53.725,-27.52102],[-53.72205,-27.52195],[-53.72035,-27.5228],[-53.71873,-27.52296],[-53.71717,-27.52424],[-53.71479,-27.52564],[-53.71277,-27.52652],[-53.71134,-27.52758],[-53.70878,-27.52874],[-53.70721,-27.52925],[-53.71056,-27.53251],[-53.70868,-27.53721],[-53.70727,-27.53947],[-53.70688,-27.54152],[-53.70755,-27.54382],[-53.7073,-27.54437],[-53.70773,-27.54651],[-53.70891,-27.54679],[-53.70764,-27.5479],[-53.70604,-27.5481],[-53.70401,-27.54689],[-53.70265,-27.54806],[-53.70104,-27.54786],[-53.69978,-27.54707],[-53.69827,-27.54668],[-53.69751,-27.54573],[-53.69607,-27.54594],[-53.69536,-27.5442],[-53.6945,-27.5443],[-53.69314,-27.54545],[-53.69252,-27.54728],[-53.69033,-27.54624],[-53.68873,-27.54603],[-53.6866,-27.54663],[-53.68586,-27.54735],[-53.68594,-27.5486],[-53.684,-27.549],[-53.68268,-27.548],[-53.68119,-27.54798]]]},"properties":{"codigo":"431230205","name":"Miraguaí","population":2758,"households":1284,"areaKm2":36.5402,"density":75.5}},{"type":"Feature","geometry":{"type":"Polygon","coordinates":[[[-53.81122,-27.49836],[-53.80865,-27.50017],[-53.80802,-27.50116],[-53.80691,-27.50191],[-53.80616,-27.50316],[-53.8052,-27.50344],[-53.8034,-27.50297],[-53.79879,-27.50422],[-53.79802,-27.50506],[-53.79708,-27.50511],[-53.7941,-27.50584],[-53.79339,-27.50671],[-53.79193,-27.50672],[-53.79111,-27.50615],[-53.79009,-27.50664],[-53.78961,-27.50747],[-53.78718,-27.50808],[-53.78515,-27.50931],[-53.78304,-27.51122],[-53.77835,-27.5116],[-53.7759,-27.51216],[-53.77261,-27.51523],[-53.77249,-27.517],[-53.77267,-27.51959],[-53.77147,-27.5206],[-53.76823,-27.5239],[-53.76602,-27.52538],[-53.76482,-27.52718],[-53.76229,-27.53018],[-53.76054,-27.53054],[-53.75962,-27.53115],[-53.75725,-27.53213],[-53.75514,-27.53236],[-53.7484,-27.53355],[-53.74313,-27.53336],[-53.74254,-27.53417],[-53.74257,-27.53618],[-53.74222,-27.53667],[-53.74036,-27.53731],[-53.73835,-27.53704],[-53.73643,-27.53713],[-53.73244,-27.53835],[-53.72638,-27.53797],[-53.72387,-27.53701],[-53.72153,-27.53569],[-53.72035,-27.53554],[-53.71928,-27.53592],[-53.72099,-27.53772],[-53.72149,-27.53854],[-53.72159,-27.54025],[-53.72198,-27.54097],[-53.72362,-27.54247],[-53.7244,-27.54362],[-53.72452,-27.54747],[-53.7239,-27.54917],[-53.72428,-27.54976],[-53.72215,-27.55103],[-53.72064,-27.55099],[-53.71795,-27.55201],[-53.71678,-27.55153],[-53.71646,-27.54962],[-53.71486,-27.54796],[-53.71238,-27.54734],[-53.71085,-27.54748],[-53.70891,-27.54679],[-53.70773,-27.54651],[-53.7073,-27.54437],[-53.70755,-27.54382],[-53.70688,-27.54152],[-53.70727,-27.53947],[-53.70868,-27.53721],[-53.71056,-27.53251],[-53.70721,-27.52925],[-53.70878,-27.52874],[-53.71134,-27.52758],[-53.71277,-27.52652],[-53.71479,-27.52564],[-53.71717,-27.52424],[-53.71873,-27.52296],[-53.72035,-27.5228],[-53.72205,-27.52195],[-53.725,-27.52102],[-53.72637,-27.52022],[-53.72807,-27.5198],[-53.73068,-27.51852],[-53.73257,-27.51837],[-53.73374,-27.51702],[-53.73846,-27.51386],[-53.739,-27.51251],[-53.7403,-27.51171],[-53.74101,-27.50975],[-53.74214,-27.50813],[-53.74356,-27.50796],[-53.74666,-27.50669],[-53.74852,-27.50526],[-53.75038,-27.50281],[-53.75451,-27.49986],[-53.75523,-27.49903],[-53.75565,-27.49741],[-53.75641,-27.4963],[-53.75643,-27.49551],[-53.75714,-27.49472],[-53.75872,-27.49417],[-53.76009,-27.49437],[-53.76346,-27.49708],[-53.76515,-27.498],[-53.7659,-27.49725],[-53.7658,-27.49634],[-53.76701,-27.49377],[-53.76683,-27.49254],[-53.76746,-27.49098],[-53.76904,-27.49024],[-53.77247,-27.4898],[-53.77429,-27.49084],[-53.77566,-27.49105],[-53.77756,-27.48945],[-53.77955,-27.48857],[-53.78052,-27.48673],[-53.78077,-27.4852],[-53.78137,-27.48382],[-53.78384,-27.48267],[-53.78668,-27.48186],[-53.78786,-27.48059],[-53.78941,-27.47964],[-53.79223,-27.47872],[-53.79501,-27.47732],[-53.79739,-27.47738],[-53.80049,-27.4785],[-53.80204,-27.47852],[-53.80261,-27.47787],[-53.80337,-27.47575],[-53.80447,-27.4742],[-53.80623,-27.47356],[-53.80851,-27.47421],[-53.81065,-27.47428],[-53.81355,-27.47524],[-53.81454,-27.47539],[-53.817,-27.47447],[-53.81784,-27.4739],[-53.81989,-27.47161],[-53.8211,-27.4715],[-53.82164,-27.4724],[-53.82289,-27.47237],[-53.8242,-27.47131],[-53.82586,-27.4716],[-53.82686,-27.47303],[-53.82796,-27.47365],[-53.82935,-27.47626],[-53.83184,-27.47879],[-53.83239,-27.47955],[-53.83322,-27.48181],[-53.83322,-27.4833],[-53.83101,-27.4874],[-53.83014,-27.48834],[-53.82734,-27.48916],[-53.82485,-27.48905],[-53.82138,-27.48844],[-53.81762,-27.48676],[-53.81316,-27.4856],[-53.81041,-27.48543],[-53.8089,-27.48577],[-53.80784,-27.48721],[-53.80816,-27.48853],[-53.81047,-27.49285],[-53.81129,-27.49536],[-53.81122,-27.49836]]]},"properties":{"codigo":"431230210","name":"Sítio Gabriel","population":461,"households":200,"areaKm2":32.7682,"density":14.1}},{"type":"Feature","geometry":{"type":"Polygon","coordinates":[[[-53.68391,-27.48485],[-53.6856,-27.48246],[-53.68554,-27.48096],[-53.68616,-27.48009],[-53.68725,-27.48031],[-53.68736,-27.47549],[-53.68804,-27.47356],[-53.6913,-27.46672],[-53.69095,-27.46127],[-53.69168,-27.45926],[-53.69264,-27.45746],[-53.69381,-27.45629],[-53.69753,-27.4544],[-53.69811,-27.45131],[-53.69941,-27.44953],[-53.70012,-27.44684],[-53.70411,-27.44307],[-53.70761,-27.44129],[-53.70978,-27.44614],[-53.71158,-27.44576],[-53.71606,-27.44682],[-53.71853,-27.44774],[-53.71923,-27.44878],[-53.72087,-27.44944],[-53.72218,-27.44928],[-53.72369,-27.45009],[-53.72416,-27.44991],[-53.72747,-27.45115],[-53.72901,-27.4507],[-53.7298,-27.45181],[-53.73147,-27.45343],[-53.73189,-27.45472],[-53.73276,-27.45526],[-53.73422,-27.45516],[-53.73612,-27.45464],[-53.74014,-27.45233],[-53.74175,-27.45218],[-53.74487,-27.45004],[-53.74622,-27.44975],[-53.75001,-27.44784],[-53.75151,-27.44744],[-53.75413,-27.44803],[-53.75413,-27.44915],[-53.75467,-27.44996],[-53.75661,-27.44928],[-53.75763,-27.44995],[-53.75949,-27.45063],[-53.76101,-27.44866],[-53.76249,-27.44746],[-53.76489,-27.44687],[-53.76678,-27.44556],[-53.76725,-27.44463],[-53.76913,-27.44432],[-53.7723,-27.44353],[-53.77409,-27.44384],[-53.77566,-27.44526],[-53.77775,-27.44773],[-53.77832,-27.44801],[-53.77973,-27.44697],[-53.78065,-27.44467],[-53.78136,-27.44411],[-53.78146,-27.44281],[-53.78214,-27.44169],[-53.78313,-27.44083],[-53.78469,-27.44066],[-53.78783,-27.44081],[-53.78922,-27.44194],[-53.79081,-27.44231],[-53.79172,-27.44107],[-53.79296,-27.44162],[-53.79346,-27.44347],[-53.79423,-27.44404],[-53.79551,-27.44326],[-53.79891,-27.43966],[-53.8005,-27.43907],[-53.80261,-27.43954],[-53.80398,-27.4391],[-53.80514,-27.43984],[-53.80535,-27.44239],[-53.80597,-27.44343],[-53.80713,-27.44341],[-53.80922,-27.4419],[-53.81204,-27.44043],[-53.81303,-27.4406],[-53.81488,-27.44196],[-53.81695,-27.44262],[-53.81778,-27.44354],[-53.81749,-27.44648],[-53.81814,-27.44718],[-53.81982,-27.44553],[-53.82114,-27.44302],[-53.82208,-27.44005],[-53.82525,-27.4388],[-53.82563,-27.43888],[-53.82567,-27.43964],[-53.82642,-27.44107],[-53.82764,-27.44254],[-53.83105,-27.44438],[-53.83358,-27.44539],[-53.84012,-27.44567],[-53.8432,-27.44624],[-53.84373,-27.44717],[-53.84309,-27.45036],[-53.84193,-27.45347],[-53.84137,-27.4542],[-53.83887,-27.45552],[-53.83707,-27.45601],[-53.83405,-27.45787],[-53.83161,-27.45775],[-53.82886,-27.4585],[-53.82789,-27.45994],[-53.82892,-27.46214],[-53.83284,-27.46411],[-53.83522,-27.46551],[-53.83514,-27.46605],[-53.83322,-27.46636],[-53.82962,-27.4676],[-53.8275,-27.4687],[-53.82689,-27.4694],[-53.82586,-27.4716],[-53.8242,-27.47131],[-53.82289,-27.47237],[-53.82164,-27.4724],[-53.8211,-27.4715],[-53.81989,-27.47161],[-53.81784,-27.4739],[-53.817,-27.47447],[-53.81454,-27.47539],[-53.81355,-27.47524],[-53.81065,-27.47428],[-53.80851,-27.47421],[-53.80623,-27.47356],[-53.80447,-27.4742],[-53.80337,-27.47575],[-53.80261,-27.47787],[-53.80204,-27.47852],[-53.80049,-27.4785],[-53.79739,-27.47738],[-53.79501,-27.47732],[-53.79223,-27.47872],[-53.78941,-27.47964],[-53.78786,-27.48059],[-53.78668,-27.48186],[-53.78384,-27.48267],[-53.78137,-27.48382],[-53.78077,-27.4852],[-53.78052,-27.48673],[-53.77955,-27.48857],[-53.77756,-27.48945],[-53.77566,-27.49105],[-53.77429,-27.49084],[-53.77247,-27.4898],[-53.76904,-27.49024],[-53.76746,-27.49098],[-53.76683,-27.49254],[-53.76701,-27.49377],[-53.7658,-27.49634],[-53.7659,-27.49725],[-53.76515,-27.498],[-53.76346,-27.49708],[-53.76009,-27.49437],[-53.75872,-27.49417],[-53.75714,-27.49472],[-53.75643,-27.49551],[-53.75479,-27.49594],[-53.75382,-27.49701],[-53.75211,-27.49737],[-53.74967,-27.49606],[-53.74673,-27.49614],[-53.7454,-27.49594],[-53.74152,-27.49643],[-53.7387,-27.49735],[-53.73741,-27.49691],[-53.73607,-27.49526],[-53.73444,-27.49406],[-53.73285,-27.49338],[-53.73237,-27.49259],[-53.73102,-27.49272],[-53.72911,-27.49228],[-53.72744,-27.49012],[-53.72582,-27.48905],[-53.72417,-27.48855],[-53.72144,-27.48812],[-53.71948,-27.48671],[-53.7175,-27.48609],[-53.71588,-27.48499],[-53.7131,-27.48428],[-53.71078,-27.48521],[-53.70889,-27.48473],[-53.70693,-27.48449],[-53.70491,-27.48344],[-53.70299,-27.48283],[-53.70213,-27.4831],[-53.69774,-27.48532],[-53.69526,-27.48624],[-53.69183,-27.48653],[-53.68951,-27.48625],[-53.68717,-27.48549],[-53.68391,-27.48485]]]},"properties":{"codigo":"431230215","name":"Tronqueiras","population":1208,"households":497,"areaKm2":61.9273,"density":19.5}}]}