{"type":"FeatureCollection","features":[{"type":"Feature","geometry":{"type":"Polygon","coordinates":[[[-51.10198,-29.37677],[-51.10398,-29.37591],[-51.10682,-29.3746],[-51.10805,-29.37391],[-51.11046,-29.37477],[-51.11085,-29.37506],[-51.11313,-29.37826],[-51.11115,-29.37849],[-51.10959,-29.37857],[-51.10937,-29.37832],[-51.10776,-29.37846],[-51.10383,-29.37853],[-51.102,-29.37861],[-51.10198,-29.37677]]]},"properties":{"codigo":"4313201001","name":"Pousada da Neve","population":741,"households":406,"areaKm2":0.366,"density":2024.6}}]}