{"type":"FeatureCollection","features":[{"type":"Feature","geometry":{"type":"Polygon","coordinates":[[[-53.67741,-31.59252],[-53.68413,-31.59336],[-53.68621,-31.59524],[-53.68622,-31.59657],[-53.68284,-31.598],[-53.68229,-31.59921],[-53.68549,-31.60419],[-53.68737,-31.60996],[-53.68801,-31.61302],[-53.68697,-31.61678],[-53.68737,-31.61889],[-53.69198,-31.62226],[-53.6973,-31.62196],[-53.70746,-31.62911],[-53.70726,-31.63049],[-53.70436,-31.63371],[-53.70034,-31.64504],[-53.69866,-31.64773],[-53.70179,-31.6505],[-53.70447,-31.65063],[-53.70698,-31.64861],[-53.70769,-31.64649],[-53.70949,-31.64755],[-53.71232,-31.64671],[-53.71443,-31.64744],[-53.7154,-31.64554],[-53.71759,-31.64628],[-53.71804,-31.64526],[-53.72525,-31.64821],[-53.73124,-31.64882],[-53.73619,-31.65123],[-53.73953,-31.65034],[-53.74013,-31.65202],[-53.74152,-31.65108],[-53.74398,-31.65102],[-53.74697,-31.64917],[-53.74904,-31.64968],[-53.74981,-31.64852],[-53.75194,-31.64787],[-53.75286,-31.64785],[-53.75457,-31.65022],[-53.75744,-31.65022],[-53.7583,-31.64954],[-53.75916,-31.64542],[-53.76126,-31.64419],[-53.76504,-31.64602],[-53.76757,-31.64594],[-53.76866,-31.64813],[-53.77187,-31.65063],[-53.7717,-31.65321],[-53.77301,-31.65458],[-53.77158,-31.65762],[-53.77326,-31.66252],[-53.76878,-31.66885],[-53.76845,-31.67038],[-53.77015,-31.67323],[-53.76959,-31.6758],[-53.7713,-31.68312],[-53.76969,-31.68765],[-53.76911,-31.68819],[-53.76929,-31.69149],[-53.77116,-31.69291],[-53.77389,-31.69395],[-53.77488,-31.69477],[-53.77457,-31.69642],[-53.77493,-31.69754],[-53.77656,-31.69873],[-53.77722,-31.70022],[-53.77669,-31.70227],[-53.77282,-31.70715],[-53.76991,-31.70744],[-53.76708,-31.70885],[-53.76436,-31.71041],[-53.76445,-31.7116],[-53.76261,-31.71414],[-53.76268,-31.71637],[-53.76322,-31.71768],[-53.76262,-31.72173],[-53.76563,-31.72339],[-53.76703,-31.72542],[-53.77026,-31.72749],[-53.77037,-31.72924],[-53.76873,-31.73011],[-53.76506,-31.73483],[-53.76479,-31.73687],[-53.76372,-31.73738],[-53.76336,-31.73899],[-53.76624,-31.74126],[-53.76902,-31.74161],[-53.76954,-31.74305],[-53.76899,-31.74348],[-53.7705,-31.74724],[-53.77173,-31.74701],[-53.77609,-31.74843],[-53.77876,-31.75053],[-53.775,-31.75065],[-53.76989,-31.75114],[-53.76673,-31.75095],[-53.76282,-31.75189],[-53.75869,-31.75356],[-53.75517,-31.7555],[-53.75076,-31.75588],[-53.7486,-31.7565],[-53.74463,-31.75649],[-53.74168,-31.75697],[-53.7385,-31.75719],[-53.73464,-31.75679],[-53.73079,-31.75732],[-53.7264,-31.75774],[-53.72406,-31.76019],[-53.71741,-31.76257],[-53.71391,-31.76629],[-53.71072,-31.76903],[-53.70692,-31.76982],[-53.70744,-31.77461],[-53.70656,-31.77612],[-53.70463,-31.77684],[-53.70301,-31.77784],[-53.70214,-31.77987],[-53.70046,-31.78134],[-53.69803,-31.77974],[-53.69449,-31.78237],[-53.68908,-31.78581],[-53.68559,-31.78692],[-53.68331,-31.78916],[-53.68435,-31.79179],[-53.6843,-31.79382],[-53.68259,-31.79524],[-53.68099,-31.79558],[-53.67988,-31.79441],[-53.67759,-31.7932],[-53.67864,-31.79147],[-53.67808,-31.7895],[-53.6757,-31.7898],[-53.6744,-31.79161],[-53.67285,-31.79237],[-53.6682,-31.79301],[-53.66827,-31.78972],[-53.66786,-31.78693],[-53.66554,-31.78525],[-53.66198,-31.78544],[-53.65944,-31.78723],[-53.65743,-31.789],[-53.65582,-31.7886],[-53.65496,-31.78545],[-53.65238,-31.78647],[-53.64957,-31.78951],[-53.64447,-31.78759],[-53.64294,-31.78618],[-53.64139,-31.78759],[-53.63918,-31.79043],[-53.63633,-31.7927],[-53.63444,-31.7965],[-53.63163,-31.80089],[-53.62931,-31.80301],[-53.62693,-31.80402],[-53.62247,-31.80475],[-53.61743,-31.80587],[-53.6129,-31.80744],[-53.60986,-31.81262],[-53.60303,-31.81663],[-53.59824,-31.81822],[-53.58503,-31.82299],[-53.57082,-31.82612],[-53.5592,-31.82927],[-53.55097,-31.82968],[-53.54536,-31.84129],[-53.53626,-31.8499],[-53.53545,-31.86191],[-53.53377,-31.86273],[-53.53113,-31.86361],[-53.52839,-31.86416],[-53.52311,-31.86636],[-53.51749,-31.86631],[-53.51144,-31.86943],[-53.50771,-31.87712],[-53.50547,-31.87626],[-53.50382,-31.87737],[-53.50415,-31.87936],[-53.50505,-31.88039],[-53.50403,-31.88303],[-53.49856,-31.88398],[-53.49735,-31.88477],[-53.49708,-31.88342],[-53.49462,-31.88347],[-53.49259,-31.88295],[-53.4911,-31.88204],[-53.49066,-31.88142],[-53.49044,-31.87986],[-53.48804,-31.87788],[-53.48709,-31.87634],[-53.48516,-31.8749],[-53.48288,-31.87449],[-53.48114,-31.87286],[-53.47221,-31.86809],[-53.47259,-31.86714],[-53.47226,-31.86399],[-53.47106,-31.86064],[-53.47011,-31.85861],[-53.46916,-31.8575],[-53.4646,-31.8512],[-53.4645,-31.84931],[-53.46276,-31.84685],[-53.46241,-31.84434],[-53.46088,-31.84157],[-53.45777,-31.83894],[-53.45662,-31.83736],[-53.45633,-31.83644],[-53.45505,-31.83472],[-53.45389,-31.8339],[-53.45356,-31.833],[-53.45146,-31.83311],[-53.45079,-31.83413],[-53.45182,-31.83611],[-53.45123,-31.8372],[-53.45148,-31.84007],[-53.45009,-31.84167],[-53.45031,-31.84287],[-53.44977,-31.84486],[-53.44826,-31.84504],[-53.44734,-31.84325],[-53.44591,-31.84235],[-53.44498,-31.84134],[-53.44583,-31.84019],[-53.44506,-31.83953],[-53.44387,-31.83961],[-53.44278,-31.83881],[-53.44427,-31.83808],[-53.44586,-31.83642],[-53.44512,-31.83471],[-53.44335,-31.83314],[-53.44339,-31.83097],[-53.44682,-31.82855],[-53.44808,-31.82608],[-53.44783,-31.82471],[-53.44845,-31.82331],[-53.44978,-31.82205],[-53.44923,-31.81872],[-53.44958,-31.81699],[-53.45068,-31.8165],[-53.45233,-31.8164],[-53.4528,-31.81463],[-53.45248,-31.8045],[-53.45207,-31.80359],[-53.45329,-31.80165],[-53.45552,-31.80011],[-53.45856,-31.79629],[-53.45928,-31.79382],[-53.46066,-31.79241],[-53.4633,-31.7914],[-53.46503,-31.79025],[-53.465,-31.78841],[-53.46399,-31.78744],[-53.46231,-31.78661],[-53.46066,-31.78534],[-53.46751,-31.78225],[-53.46864,-31.78036],[-53.46812,-31.77761],[-53.46893,-31.77681],[-53.47099,-31.77709],[-53.473,-31.77517],[-53.47374,-31.77412],[-53.47322,-31.77242],[-53.47406,-31.7709],[-53.47708,-31.76986],[-53.48062,-31.76938],[-53.48213,-31.76858],[-53.48246,-31.76744],[-53.48148,-31.76618],[-53.47908,-31.7653],[-53.47798,-31.76444],[-53.47816,-31.76355],[-53.47686,-31.76004],[-53.47758,-31.75853],[-53.47889,-31.75827],[-53.48038,-31.75884],[-53.48262,-31.76134],[-53.48432,-31.76252],[-53.48622,-31.76278],[-53.48825,-31.7624],[-53.48895,-31.76129],[-53.4885,-31.75957],[-53.48784,-31.75881],[-53.48765,-31.75736],[-53.49019,-31.75609],[-53.49158,-31.75498],[-53.49396,-31.75376],[-53.49559,-31.75354],[-53.49765,-31.75374],[-53.49954,-31.75088],[-53.49935,-31.74992],[-53.49822,-31.7489],[-53.4985,-31.74766],[-53.50015,-31.74632],[-53.49942,-31.74315],[-53.5,-31.74147],[-53.50252,-31.73912],[-53.50312,-31.73802],[-53.50292,-31.73652],[-53.50169,-31.73658],[-53.50025,-31.7375],[-53.49837,-31.73688],[-53.49848,-31.73481],[-53.49943,-31.73146],[-53.49964,-31.73013],[-53.49919,-31.72945],[-53.4981,-31.73035],[-53.49747,-31.72868],[-53.49811,-31.72529],[-53.50022,-31.72355],[-53.49986,-31.72282],[-53.50129,-31.72128],[-53.4996,-31.72028],[-53.49761,-31.72022],[-53.49689,-31.71917],[-53.49858,-31.71745],[-53.49953,-31.71328],[-53.49974,-31.71067],[-53.50073,-31.70971],[-53.50132,-31.70819],[-53.50123,-31.70712],[-53.4985,-31.70572],[-53.49826,-31.70429],[-53.50041,-31.70323],[-53.50141,-31.70144],[-53.50069,-31.70017],[-53.49947,-31.69972],[-53.49865,-31.69869],[-53.49834,-31.69758],[-53.49879,-31.69599],[-53.50128,-31.69511],[-53.50164,-31.69414],[-53.5008,-31.69303],[-53.49893,-31.69263],[-53.49928,-31.69109],[-53.49824,-31.68982],[-53.49693,-31.68655],[-53.49578,-31.68534],[-53.49712,-31.68433],[-53.49833,-31.68442],[-53.49865,-31.68202],[-53.4999,-31.68079],[-53.50008,-31.67936],[-53.49934,-31.67493],[-53.4999,-31.67384],[-53.50325,-31.6729],[-53.50435,-31.67296],[-53.50527,-31.67243],[-53.5067,-31.67273],[-53.50833,-31.67362],[-53.50998,-31.67289],[-53.51162,-31.67007],[-53.5123,-31.66849],[-53.51369,-31.66723],[-53.51401,-31.66594],[-53.51527,-31.6635],[-53.51627,-31.66049],[-53.51611,-31.65926],[-53.51763,-31.65821],[-53.51801,-31.65758],[-53.51803,-31.65261],[-53.52144,-31.65154],[-53.52477,-31.65034],[-53.52584,-31.64927],[-53.52888,-31.6478],[-53.53251,-31.64722],[-53.53415,-31.64579],[-53.53727,-31.64451],[-53.53855,-31.64524],[-53.54034,-31.64467],[-53.54189,-31.64508],[-53.54367,-31.644],[-53.54494,-31.6444],[-53.54564,-31.64532],[-53.54769,-31.64582],[-53.54883,-31.64447],[-53.55068,-31.64368],[-53.55358,-31.64086],[-53.55603,-31.64035],[-53.55816,-31.63907],[-53.5599,-31.63903],[-53.56095,-31.63968],[-53.56217,-31.63975],[-53.56445,-31.63834],[-53.56595,-31.63633],[-53.5685,-31.63688],[-53.56927,-31.63667],[-53.57037,-31.63566],[-53.57144,-31.63575],[-53.57387,-31.63418],[-53.57601,-31.63347],[-53.57791,-31.6333],[-53.58033,-31.63364],[-53.58088,-31.63395],[-53.58104,-31.63518],[-53.58228,-31.63561],[-53.583,-31.63814],[-53.58731,-31.63807],[-53.58974,-31.63782],[-53.59118,-31.63744],[-53.59274,-31.63781],[-53.59423,-31.63681],[-53.5972,-31.63711],[-53.59819,-31.6379],[-53.59928,-31.63782],[-53.60033,-31.63617],[-53.60121,-31.63573],[-53.60489,-31.63555],[-53.6059,-31.63497],[-53.60614,-31.63421],[-53.6056,-31.63331],[-53.60609,-31.63184],[-53.60701,-31.63118],[-53.60743,-31.63026],[-53.60995,-31.62785],[-53.61,-31.62572],[-53.61052,-31.62442],[-53.61188,-31.62233],[-53.61153,-31.62126],[-53.61049,-31.62],[-53.61053,-31.61856],[-53.61305,-31.61647],[-53.6133,-31.61596],[-53.61274,-31.61458],[-53.61281,-31.61358],[-53.61504,-31.61178],[-53.61623,-31.60945],[-53.61683,-31.60888],[-53.62277,-31.60497],[-53.62597,-31.60483],[-53.63102,-31.60266],[-53.63238,-31.60399],[-53.63319,-31.60668],[-53.63449,-31.60748],[-53.63744,-31.6065],[-53.63814,-31.60507],[-53.64078,-31.60384],[-53.64472,-31.60494],[-53.64882,-31.59935],[-53.65012,-31.59932],[-53.65243,-31.60083],[-53.65426,-31.60064],[-53.658,-31.59526],[-53.66331,-31.59639],[-53.66442,-31.59505],[-53.66475,-31.59246],[-53.66555,-31.59226],[-53.66877,-31.59144],[-53.67741,-31.59252]]]},"properties":{"codigo":"431417505","name":"Pedras Altas","population":968,"households":619,"areaKm2":534.9248,"density":1.8}},{"type":"Feature","geometry":{"type":"Polygon","coordinates":[[[-53.85577,-31.83428],[-53.85712,-31.83528],[-53.85671,-31.84127],[-53.85553,-31.84319],[-53.85326,-31.84631],[-53.85137,-31.85008],[-53.84694,-31.8569],[-53.84264,-31.86147],[-53.84034,-31.8685],[-53.83963,-31.87143],[-53.83675,-31.87249],[-53.83149,-31.87518],[-53.82647,-31.87973],[-53.82584,-31.88482],[-53.82692,-31.88691],[-53.82595,-31.89034],[-53.82683,-31.89415],[-53.82803,-31.89538],[-53.82653,-31.89883],[-53.82397,-31.90642],[-53.82085,-31.91078],[-53.81574,-31.91698],[-53.81007,-31.91929],[-53.80548,-31.92],[-53.80208,-31.92039],[-53.799,-31.92098],[-53.79372,-31.92234],[-53.79125,-31.92698],[-53.78937,-31.92818],[-53.78428,-31.93573],[-53.78473,-31.93872],[-53.78297,-31.95065],[-53.78323,-31.95712],[-53.77667,-31.96989],[-53.76938,-31.98235],[-53.76509,-31.98724],[-53.75688,-31.99466],[-53.75333,-31.99366],[-53.74947,-31.97408],[-53.7454,-31.97649],[-53.73803,-31.98035],[-53.73663,-31.97708],[-53.73214,-31.96938],[-53.7257,-31.96745],[-53.72039,-31.96331],[-53.72101,-31.95504],[-53.71944,-31.95043],[-53.71674,-31.95011],[-53.71481,-31.94845],[-53.71368,-31.94715],[-53.71249,-31.94458],[-53.71061,-31.94148],[-53.70794,-31.94075],[-53.70604,-31.94059],[-53.7039,-31.93535],[-53.70267,-31.93108],[-53.6983,-31.92677],[-53.69768,-31.92638],[-53.69616,-31.92672],[-53.68985,-31.92605],[-53.68572,-31.92646],[-53.68482,-31.9254],[-53.68333,-31.92211],[-53.68358,-31.92135],[-53.68315,-31.91854],[-53.68042,-31.91527],[-53.67994,-31.91405],[-53.67945,-31.91067],[-53.67945,-31.90841],[-53.67871,-31.90567],[-53.67791,-31.9044],[-53.67616,-31.90234],[-53.67628,-31.89907],[-53.67599,-31.89816],[-53.67404,-31.89567],[-53.67207,-31.89387],[-53.67133,-31.89351],[-53.66913,-31.8932],[-53.66842,-31.89284],[-53.66847,-31.89195],[-53.6678,-31.89007],[-53.66691,-31.88906],[-53.66159,-31.88721],[-53.65749,-31.88544],[-53.6518,-31.88269],[-53.65189,-31.88168],[-53.651,-31.88064],[-53.6494,-31.87765],[-53.64965,-31.87608],[-53.64749,-31.87427],[-53.64564,-31.87325],[-53.64394,-31.872],[-53.64354,-31.86982],[-53.6425,-31.867],[-53.63817,-31.8628],[-53.63615,-31.86169],[-53.63423,-31.86115],[-53.63111,-31.86164],[-53.62932,-31.8584],[-53.62939,-31.85741],[-53.62785,-31.85569],[-53.62774,-31.85446],[-53.62808,-31.85174],[-53.62815,-31.8467],[-53.62478,-31.84127],[-53.62008,-31.84032],[-53.61939,-31.83883],[-53.61397,-31.8291],[-53.61162,-31.82767],[-53.60756,-31.82583],[-53.60606,-31.824],[-53.60462,-31.81953],[-53.60303,-31.81663],[-53.60986,-31.81262],[-53.6129,-31.80744],[-53.61743,-31.80587],[-53.62247,-31.80475],[-53.62693,-31.80402],[-53.62931,-31.80301],[-53.63163,-31.80089],[-53.63444,-31.7965],[-53.63633,-31.7927],[-53.63918,-31.79043],[-53.64139,-31.78759],[-53.64294,-31.78618],[-53.64447,-31.78759],[-53.64957,-31.78951],[-53.65238,-31.78647],[-53.65496,-31.78545],[-53.65582,-31.7886],[-53.65743,-31.789],[-53.65944,-31.78723],[-53.66198,-31.78544],[-53.66554,-31.78525],[-53.66786,-31.78693],[-53.66827,-31.78972],[-53.6682,-31.79301],[-53.67285,-31.79237],[-53.6744,-31.79161],[-53.6757,-31.7898],[-53.67808,-31.7895],[-53.67864,-31.79147],[-53.67759,-31.7932],[-53.67988,-31.79441],[-53.68099,-31.79558],[-53.68259,-31.79524],[-53.6843,-31.79382],[-53.68435,-31.79179],[-53.68331,-31.78916],[-53.68559,-31.78692],[-53.68908,-31.78581],[-53.69449,-31.78237],[-53.69803,-31.77974],[-53.70046,-31.78134],[-53.70214,-31.77987],[-53.70301,-31.77784],[-53.70463,-31.77684],[-53.70656,-31.77612],[-53.70744,-31.77461],[-53.70692,-31.76982],[-53.71072,-31.76903],[-53.71391,-31.76629],[-53.71741,-31.76257],[-53.72406,-31.76019],[-53.7264,-31.75774],[-53.73079,-31.75732],[-53.73464,-31.75679],[-53.7385,-31.75719],[-53.74168,-31.75697],[-53.74463,-31.75649],[-53.7486,-31.7565],[-53.75076,-31.75588],[-53.75517,-31.7555],[-53.75869,-31.75356],[-53.76282,-31.75189],[-53.76673,-31.75095],[-53.76989,-31.75114],[-53.775,-31.75065],[-53.77876,-31.75053],[-53.78033,-31.75175],[-53.78749,-31.75147],[-53.79013,-31.75175],[-53.79231,-31.75298],[-53.79382,-31.75589],[-53.79542,-31.758],[-53.79932,-31.76105],[-53.80032,-31.76919],[-53.79934,-31.77149],[-53.80226,-31.77549],[-53.80261,-31.77741],[-53.80006,-31.78749],[-53.80057,-31.78912],[-53.80167,-31.78951],[-53.80382,-31.79216],[-53.8045,-31.79433],[-53.80908,-31.79756],[-53.80977,-31.8004],[-53.8082,-31.8035],[-53.80909,-31.80567],[-53.81185,-31.80619],[-53.81326,-31.80471],[-53.81797,-31.80626],[-53.81878,-31.80689],[-53.81998,-31.80849],[-53.81955,-31.81102],[-53.81741,-31.81213],[-53.81804,-31.81411],[-53.82087,-31.81543],[-53.82185,-31.81672],[-53.82486,-31.81613],[-53.82817,-31.81859],[-53.82784,-31.82073],[-53.82997,-31.8221],[-53.83125,-31.82355],[-53.83252,-31.8243],[-53.83266,-31.82646],[-53.83415,-31.82756],[-53.83617,-31.82841],[-53.83808,-31.82759],[-53.84234,-31.82604],[-53.84372,-31.82499],[-53.84616,-31.82474],[-53.8463,-31.82592],[-53.84518,-31.82724],[-53.84563,-31.82805],[-53.84784,-31.82932],[-53.85058,-31.83145],[-53.85139,-31.83158],[-53.85319,-31.83365],[-53.85411,-31.83414],[-53.85577,-31.83428]]]},"properties":{"codigo":"431417510","name":"Arroio Mau","population":512,"households":245,"areaKm2":340.6177,"density":1.5}},{"type":"Feature","geometry":{"type":"Polygon","coordinates":[[[-53.49735,-31.88477],[-53.49856,-31.88398],[-53.50403,-31.88303],[-53.50505,-31.88039],[-53.50415,-31.87936],[-53.50382,-31.87737],[-53.50547,-31.87626],[-53.50771,-31.87712],[-53.51144,-31.86943],[-53.51749,-31.86631],[-53.52311,-31.86636],[-53.52839,-31.86416],[-53.53113,-31.86361],[-53.53377,-31.86273],[-53.53545,-31.86191],[-53.53626,-31.8499],[-53.54536,-31.84129],[-53.55097,-31.82968],[-53.5592,-31.82927],[-53.57082,-31.82612],[-53.58503,-31.82299],[-53.59824,-31.81822],[-53.60303,-31.81663],[-53.60462,-31.81953],[-53.60606,-31.824],[-53.60756,-31.82583],[-53.61162,-31.82767],[-53.61397,-31.8291],[-53.61939,-31.83883],[-53.62008,-31.84032],[-53.62478,-31.84127],[-53.62815,-31.8467],[-53.62808,-31.85174],[-53.62774,-31.85446],[-53.62785,-31.85569],[-53.62939,-31.85741],[-53.62932,-31.8584],[-53.63111,-31.86164],[-53.63423,-31.86115],[-53.63615,-31.86169],[-53.63817,-31.8628],[-53.6425,-31.867],[-53.64354,-31.86982],[-53.64394,-31.872],[-53.64564,-31.87325],[-53.64749,-31.87427],[-53.64965,-31.87608],[-53.6494,-31.87765],[-53.651,-31.88064],[-53.65189,-31.88168],[-53.6518,-31.88269],[-53.65749,-31.88544],[-53.66159,-31.88721],[-53.66691,-31.88906],[-53.6678,-31.89007],[-53.66847,-31.89195],[-53.66842,-31.89284],[-53.66913,-31.8932],[-53.67133,-31.89351],[-53.67207,-31.89387],[-53.67404,-31.89567],[-53.67599,-31.89816],[-53.67628,-31.89907],[-53.67616,-31.90234],[-53.67791,-31.9044],[-53.67871,-31.90567],[-53.67945,-31.90841],[-53.67945,-31.91067],[-53.67994,-31.91405],[-53.68042,-31.91527],[-53.68315,-31.91854],[-53.68358,-31.92135],[-53.68333,-31.92211],[-53.68482,-31.9254],[-53.68572,-31.92646],[-53.68985,-31.92605],[-53.69616,-31.92672],[-53.69768,-31.92638],[-53.6983,-31.92677],[-53.70267,-31.93108],[-53.7039,-31.93535],[-53.70604,-31.94059],[-53.70794,-31.94075],[-53.71061,-31.94148],[-53.71249,-31.94458],[-53.71368,-31.94715],[-53.71481,-31.94845],[-53.71674,-31.95011],[-53.71944,-31.95043],[-53.71635,-31.95311],[-53.71522,-31.9562],[-53.71357,-31.95765],[-53.71205,-31.9584],[-53.70772,-31.95937],[-53.70724,-31.95987],[-53.70761,-31.96142],[-53.70863,-31.96285],[-53.70757,-31.96559],[-53.70738,-31.9682],[-53.70597,-31.96811],[-53.70445,-31.96853],[-53.70307,-31.96949],[-53.70247,-31.97039],[-53.70092,-31.97097],[-53.69961,-31.97325],[-53.69816,-31.97755],[-53.69784,-31.98124],[-53.69647,-31.98257],[-53.69532,-31.98327],[-53.69303,-31.98402],[-53.69128,-31.9857],[-53.68724,-31.98696],[-53.6855,-31.98822],[-53.68484,-31.98934],[-53.68362,-31.99003],[-53.68097,-31.99046],[-53.67725,-31.99012],[-53.67645,-31.99098],[-53.67431,-31.99099],[-53.67178,-31.99028],[-53.67098,-31.9888],[-53.67038,-31.98659],[-53.66821,-31.98505],[-53.66495,-31.98572],[-53.66069,-31.98705],[-53.65916,-31.98772],[-53.65577,-31.98839],[-53.65331,-31.98836],[-53.65284,-31.98758],[-53.65101,-31.98635],[-53.6468,-31.98579],[-53.64559,-31.98512],[-53.6457,-31.98324],[-53.64538,-31.98275],[-53.64302,-31.98208],[-53.63964,-31.98248],[-53.63529,-31.98159],[-53.63646,-31.98024],[-53.63714,-31.97683],[-53.63666,-31.97456],[-53.63743,-31.97397],[-53.63927,-31.97353],[-53.64251,-31.97069],[-53.6428,-31.96958],[-53.64162,-31.96756],[-53.63882,-31.96708],[-53.63757,-31.96648],[-53.6361,-31.96477],[-53.63336,-31.96265],[-53.63373,-31.96004],[-53.63198,-31.95928],[-53.63101,-31.96],[-53.63024,-31.96323],[-53.62929,-31.96548],[-53.62851,-31.96645],[-53.62741,-31.96652],[-53.62649,-31.9673],[-53.62527,-31.96717],[-53.6219,-31.96588],[-53.62044,-31.96584],[-53.61973,-31.96662],[-53.61862,-31.9688],[-53.61691,-31.96884],[-53.61611,-31.96809],[-53.61529,-31.96498],[-53.61546,-31.9638],[-53.61488,-31.9631],[-53.61284,-31.96192],[-53.61268,-31.96104],[-53.61145,-31.96019],[-53.61022,-31.95806],[-53.61038,-31.9563],[-53.61091,-31.95487],[-53.60996,-31.95418],[-53.60723,-31.95387],[-53.60631,-31.95301],[-53.60515,-31.95297],[-53.6038,-31.95547],[-53.60224,-31.95575],[-53.59987,-31.9546],[-53.59606,-31.95203],[-53.59298,-31.9515],[-53.59223,-31.95117],[-53.59223,-31.94794],[-53.59157,-31.94518],[-53.59087,-31.94421],[-53.58905,-31.94269],[-53.58887,-31.94195],[-53.58998,-31.94088],[-53.59058,-31.93966],[-53.59117,-31.93751],[-53.59206,-31.93637],[-53.59432,-31.93467],[-53.59574,-31.93293],[-53.59595,-31.92975],[-53.59727,-31.9298],[-53.60015,-31.92834],[-53.60017,-31.92762],[-53.59791,-31.92621],[-53.59735,-31.9254],[-53.59604,-31.92583],[-53.59527,-31.92506],[-53.59689,-31.92168],[-53.59812,-31.92175],[-53.59884,-31.92126],[-53.59897,-31.91999],[-53.60065,-31.91904],[-53.60129,-31.91802],[-53.60121,-31.91726],[-53.59942,-31.91667],[-53.59626,-31.91655],[-53.59592,-31.91615],[-53.59631,-31.91317],[-53.5961,-31.91053],[-53.59683,-31.90901],[-53.59647,-31.90758],[-53.5941,-31.90852],[-53.58653,-31.91279],[-53.5844,-31.9153],[-53.58614,-31.91747],[-53.58548,-31.92241],[-53.58106,-31.92207],[-53.58003,-31.92058],[-53.57846,-31.91975],[-53.57643,-31.91981],[-53.57556,-31.9204],[-53.57432,-31.92051],[-53.57265,-31.92012],[-53.57151,-31.92083],[-53.57063,-31.92085],[-53.56864,-31.92177],[-53.56729,-31.9219],[-53.56574,-31.92313],[-53.56238,-31.92303],[-53.56,-31.92347],[-53.55818,-31.92354],[-53.55774,-31.92276],[-53.55567,-31.92135],[-53.55464,-31.92031],[-53.5556,-31.91942],[-53.55501,-31.91791],[-53.55399,-31.9176],[-53.55266,-31.9164],[-53.55133,-31.91659],[-53.5509,-31.91589],[-53.55171,-31.91521],[-53.55094,-31.91422],[-53.54996,-31.91467],[-53.5496,-31.91572],[-53.5475,-31.91437],[-53.54631,-31.91559],[-53.54521,-31.91502],[-53.54158,-31.9145],[-53.54048,-31.91175],[-53.53943,-31.91006],[-53.53637,-31.91021],[-53.5356,-31.91001],[-53.53469,-31.90819],[-53.53331,-31.90775],[-53.53341,-31.90594],[-53.53302,-31.90539],[-53.53212,-31.90255],[-53.5321,-31.90122],[-53.52969,-31.89965],[-53.52774,-31.90012],[-53.52388,-31.90025],[-53.52221,-31.89925],[-53.5206,-31.89862],[-53.51951,-31.89883],[-53.51879,-31.8983],[-53.51729,-31.89805],[-53.51401,-31.8992],[-53.50786,-31.88959],[-53.49735,-31.88477]]]},"properties":{"codigo":"431417515","name":"Cerro do Baú","population":38,"households":36,"areaKm2":182.4042,"density":0.2}},{"type":"Feature","geometry":{"type":"Polygon","coordinates":[[[-53.94751,-31.95463],[-53.94477,-31.95557],[-53.94317,-31.95671],[-53.94242,-31.9583],[-53.94093,-31.95882],[-53.9385,-31.95779],[-53.93639,-31.95841],[-53.93225,-31.96118],[-53.93295,-31.96193],[-53.93281,-31.96287],[-53.93031,-31.96332],[-53.92777,-31.96206],[-53.92573,-31.96212],[-53.92632,-31.96312],[-53.92523,-31.9637],[-53.92281,-31.96281],[-53.92116,-31.96366],[-53.91846,-31.96383],[-53.9167,-31.96466],[-53.91689,-31.96548],[-53.91578,-31.9661],[-53.91425,-31.96548],[-53.91324,-31.96568],[-53.91244,-31.96666],[-53.91269,-31.96735],[-53.91153,-31.96852],[-53.91013,-31.96915],[-53.90975,-31.96996],[-53.90978,-31.97218],[-53.90861,-31.97257],[-53.90845,-31.97418],[-53.90673,-31.97611],[-53.90558,-31.97598],[-53.90427,-31.97732],[-53.90401,-31.97812],[-53.90202,-31.97919],[-53.89948,-31.97788],[-53.89845,-31.97847],[-53.89867,-31.97956],[-53.89655,-31.98115],[-53.89729,-31.98175],[-53.89679,-31.98498],[-53.89487,-31.98622],[-53.89434,-31.98587],[-53.8934,-31.98765],[-53.89282,-31.98764],[-53.89172,-31.98877],[-53.89198,-31.99071],[-53.89292,-31.99162],[-53.89304,-31.99283],[-53.89213,-31.99539],[-53.888,-31.99567],[-53.88692,-31.99504],[-53.88156,-31.99484],[-53.87932,-31.99496],[-53.87859,-31.99579],[-53.873,-31.99878],[-53.87168,-31.99909],[-53.86988,-31.99798],[-53.87135,-31.99673],[-53.8708,-31.99546],[-53.86859,-31.99529],[-53.86725,-31.9945],[-53.86639,-31.99327],[-53.86407,-31.99291],[-53.86412,-31.99415],[-53.86475,-31.99466],[-53.86343,-31.99611],[-53.86182,-31.99625],[-53.86141,-31.99513],[-53.86018,-31.99495],[-53.86062,-31.99651],[-53.86048,-31.99755],[-53.85903,-31.99755],[-53.85724,-31.99668],[-53.85637,-31.99792],[-53.85512,-31.9981],[-53.85351,-31.99988],[-53.85281,-31.99946],[-53.85204,-32.00015],[-53.85075,-32.00016],[-53.84943,-32.00113],[-53.85117,-32.00222],[-53.85345,-32.006],[-53.85366,-32.00855],[-53.85416,-32.01039],[-53.85365,-32.01165],[-53.85255,-32.01163],[-53.85153,-32.01346],[-53.85156,-32.01425],[-53.853,-32.01697],[-53.85315,-32.01836],[-53.85274,-32.02012],[-53.85382,-32.02167],[-53.85347,-32.02266],[-53.85198,-32.02335],[-53.85177,-32.02533],[-53.85115,-32.02739],[-53.85231,-32.02791],[-53.85262,-32.02968],[-53.85203,-32.0305],[-53.85069,-32.03055],[-53.85,-32.02918],[-53.84682,-32.02898],[-53.84469,-32.02965],[-53.83815,-32.03283],[-53.83747,-32.03389],[-53.83868,-32.03429],[-53.83959,-32.03375],[-53.84133,-32.03608],[-53.8426,-32.03721],[-53.84273,-32.03889],[-53.84217,-32.03998],[-53.84092,-32.0402],[-53.83944,-32.03958],[-53.83707,-32.03958],[-53.83523,-32.04088],[-53.83411,-32.04253],[-53.8331,-32.04622],[-53.83592,-32.04829],[-53.83621,-32.0493],[-53.83551,-32.05021],[-53.83578,-32.05112],[-53.83455,-32.05279],[-53.83475,-32.05363],[-53.83292,-32.05438],[-53.83332,-32.05514],[-53.8309,-32.05576],[-53.82909,-32.05747],[-53.82842,-32.05874],[-53.82686,-32.0597],[-53.82452,-32.05969],[-53.82371,-32.05899],[-53.82197,-32.05984],[-53.81983,-32.0591],[-53.81729,-32.05958],[-53.81537,-32.05908],[-53.81389,-32.05956],[-53.81493,-32.06202],[-53.81359,-32.06315],[-53.81239,-32.06485],[-53.81113,-32.06558],[-53.80942,-32.06578],[-53.8077,-32.06798],[-53.80756,-32.06901],[-53.80628,-32.06925],[-53.804,-32.07073],[-53.80193,-32.0712],[-53.80096,-32.0711],[-53.79811,-32.07009],[-53.79394,-32.06918],[-53.79158,-32.06798],[-53.78927,-32.06835],[-53.78914,-32.06909],[-53.79021,-32.0694],[-53.79114,-32.07059],[-53.78924,-32.07221],[-53.78739,-32.07111],[-53.7859,-32.07132],[-53.78514,-32.07192],[-53.78319,-32.07227],[-53.78203,-32.07191],[-53.78116,-32.06982],[-53.77868,-32.07174],[-53.77779,-32.07163],[-53.7738,-32.07273],[-53.77127,-32.07277],[-53.76907,-32.07372],[-53.76863,-32.07646],[-53.76707,-32.07818],[-53.765,-32.0793],[-53.76384,-32.07957],[-53.76112,-32.07906],[-53.75935,-32.07695],[-53.75855,-32.07654],[-53.75629,-32.07615],[-53.755,-32.07917],[-53.75417,-32.07942],[-53.75065,-32.0789],[-53.74787,-32.07786],[-53.74583,-32.07809],[-53.74568,-32.07937],[-53.74644,-32.08146],[-53.74764,-32.0832],[-53.7467,-32.08401],[-53.74628,-32.08561],[-53.74672,-32.08687],[-53.74661,-32.08901],[-53.74537,-32.09144],[-53.74421,-32.09191],[-53.74232,-32.09218],[-53.73728,-32.09243],[-53.73352,-32.09302],[-53.73096,-32.0945],[-53.72802,-32.09505],[-53.72527,-32.09585],[-53.7251,-32.09723],[-53.72563,-32.09836],[-53.72252,-32.09775],[-53.72163,-32.09836],[-53.72078,-32.10015],[-53.71814,-32.10031],[-53.71562,-32.10084],[-53.71461,-32.10131],[-53.71271,-32.10074],[-53.71134,-32.09955],[-53.70961,-32.09515],[-53.7084,-32.093],[-53.70776,-32.09243],[-53.70729,-32.09014],[-53.70725,-32.08754],[-53.70693,-32.08665],[-53.70554,-32.08597],[-53.70587,-32.0839],[-53.70464,-32.08384],[-53.70404,-32.08283],[-53.70434,-32.0821],[-53.70411,-32.08033],[-53.70304,-32.07865],[-53.70373,-32.07726],[-53.70335,-32.07621],[-53.70477,-32.07585],[-53.70648,-32.07589],[-53.70759,-32.07547],[-53.70797,-32.07423],[-53.71176,-32.07334],[-53.7127,-32.07241],[-53.71346,-32.07093],[-53.71485,-32.07028],[-53.71706,-32.07036],[-53.71754,-32.0692],[-53.71914,-32.06799],[-53.71935,-32.06662],[-53.71914,-32.06533],[-53.71765,-32.06356],[-53.71721,-32.06197],[-53.71639,-32.06077],[-53.71626,-32.0596],[-53.71557,-32.05771],[-53.71667,-32.05601],[-53.71846,-32.05642],[-53.71999,-32.05499],[-53.72003,-32.05235],[-53.72036,-32.05173],[-53.71923,-32.05018],[-53.71808,-32.05034],[-53.71706,-32.04863],[-53.71782,-32.04806],[-53.71795,-32.04697],[-53.71747,-32.04588],[-53.71824,-32.04512],[-53.71803,-32.04342],[-53.71917,-32.04143],[-53.71802,-32.0405],[-53.71769,-32.0396],[-53.71795,-32.03721],[-53.71943,-32.03628],[-53.71914,-32.03534],[-53.71827,-32.03487],[-53.71785,-32.03311],[-53.71893,-32.03233],[-53.71877,-32.0313],[-53.71804,-32.03055],[-53.71697,-32.0302],[-53.71698,-32.02864],[-53.71504,-32.02827],[-53.71425,-32.0276],[-53.71454,-32.02646],[-53.71559,-32.02502],[-53.71525,-32.0241],[-53.71426,-32.02363],[-53.71318,-32.02393],[-53.71097,-32.02355],[-53.71052,-32.02125],[-53.71169,-32.02105],[-53.71257,-32.01828],[-53.71233,-32.01792],[-53.7103,-32.01844],[-53.71109,-32.01731],[-53.71022,-32.01605],[-53.71205,-32.01444],[-53.71272,-32.01117],[-53.71191,-32.01044],[-53.71247,-32.00961],[-53.71239,-32.00838],[-53.71462,-32.00543],[-53.71522,-32.00236],[-53.71432,-32.00053],[-53.7131,-31.99985],[-53.71046,-31.99793],[-53.70848,-31.99744],[-53.70801,-31.99694],[-53.70971,-31.99594],[-53.70981,-31.99533],[-53.70872,-31.99427],[-53.70715,-31.99388],[-53.70451,-31.99412],[-53.70448,-31.99314],[-53.70373,-31.99205],[-53.70518,-31.98976],[-53.70376,-31.98928],[-53.70295,-31.98779],[-53.70312,-31.9865],[-53.70239,-31.98602],[-53.70191,-31.98416],[-53.7012,-31.98349],[-53.7002,-31.98437],[-53.69915,-31.98372],[-53.69928,-31.98232],[-53.69826,-31.98216],[-53.69784,-31.98124],[-53.69816,-31.97755],[-53.69961,-31.97325],[-53.70092,-31.97097],[-53.70247,-31.97039],[-53.70307,-31.96949],[-53.70445,-31.96853],[-53.70597,-31.96811],[-53.70738,-31.9682],[-53.70757,-31.96559],[-53.70863,-31.96285],[-53.70761,-31.96142],[-53.70724,-31.95987],[-53.70772,-31.95937],[-53.71205,-31.9584],[-53.71357,-31.95765],[-53.71522,-31.9562],[-53.71635,-31.95311],[-53.71944,-31.95043],[-53.72101,-31.95504],[-53.72039,-31.96331],[-53.7257,-31.96745],[-53.73214,-31.96938],[-53.73663,-31.97708],[-53.73803,-31.98035],[-53.7454,-31.97649],[-53.74947,-31.97408],[-53.75333,-31.99366],[-53.75688,-31.99466],[-53.76509,-31.98724],[-53.76938,-31.98235],[-53.77667,-31.96989],[-53.78323,-31.95712],[-53.78297,-31.95065],[-53.78473,-31.93872],[-53.78428,-31.93573],[-53.78937,-31.92818],[-53.79125,-31.92698],[-53.79372,-31.92234],[-53.799,-31.92098],[-53.80208,-31.92039],[-53.80548,-31.92],[-53.81007,-31.91929],[-53.81574,-31.91698],[-53.82085,-31.91078],[-53.82397,-31.90642],[-53.82653,-31.89883],[-53.82803,-31.89538],[-53.82683,-31.89415],[-53.82595,-31.89034],[-53.82692,-31.88691],[-53.82584,-31.88482],[-53.82647,-31.87973],[-53.83149,-31.87518],[-53.83675,-31.87249],[-53.83963,-31.87143],[-53.84034,-31.8685],[-53.84264,-31.86147],[-53.84694,-31.8569],[-53.85137,-31.85008],[-53.85326,-31.84631],[-53.85553,-31.84319],[-53.85671,-31.84127],[-53.85712,-31.83528],[-53.85577,-31.83428],[-53.86012,-31.83496],[-53.86148,-31.83415],[-53.86725,-31.83646],[-53.86618,-31.83722],[-53.86612,-31.83867],[-53.87008,-31.84034],[-53.8719,-31.84206],[-53.87238,-31.8436],[-53.87899,-31.84897],[-53.87925,-31.85053],[-53.87575,-31.85554],[-53.8758,-31.85724],[-53.8774,-31.85917],[-53.88123,-31.85932],[-53.88328,-31.86154],[-53.88599,-31.8617],[-53.88672,-31.86095],[-53.88684,-31.85867],[-53.88821,-31.85798],[-53.88834,-31.85713],[-53.88741,-31.85627],[-53.88848,-31.85445],[-53.8887,-31.85333],[-53.88956,-31.85322],[-53.88912,-31.85039],[-53.89214,-31.85002],[-53.89419,-31.84939],[-53.89629,-31.85153],[-53.89709,-31.85189],[-53.8987,-31.85114],[-53.9001,-31.85089],[-53.90278,-31.8536],[-53.90558,-31.85355],[-53.90822,-31.85251],[-53.9117,-31.85248],[-53.91269,-31.85223],[-53.91327,-31.85296],[-53.91387,-31.85514],[-53.9138,-31.85664],[-53.91478,-31.85719],[-53.9176,-31.85752],[-53.91804,-31.8588],[-53.91641,-31.8603],[-53.91562,-31.86139],[-53.91644,-31.86177],[-53.91574,-31.86335],[-53.91699,-31.86411],[-53.91699,-31.86496],[-53.91845,-31.86478],[-53.91897,-31.86557],[-53.92206,-31.86727],[-53.92332,-31.86823],[-53.92378,-31.86939],[-53.92534,-31.87111],[-53.92729,-31.87236],[-53.93103,-31.87396],[-53.93171,-31.87555],[-53.93164,-31.87915],[-53.93196,-31.88495],[-53.93288,-31.89287],[-53.93281,-31.89401],[-53.93144,-31.89495],[-53.93033,-31.89697],[-53.93045,-31.89939],[-53.931,-31.90207],[-53.9321,-31.90528],[-53.9354,-31.909],[-53.93636,-31.91152],[-53.93795,-31.9116],[-53.93885,-31.91265],[-53.94063,-31.91279],[-53.94167,-31.9125],[-53.94397,-31.9133],[-53.94461,-31.91429],[-53.94345,-31.91488],[-53.9438,-31.91571],[-53.94483,-31.91551],[-53.94589,-31.91585],[-53.94658,-31.91701],[-53.94792,-31.91706],[-53.949,-31.91815],[-53.95073,-31.91876],[-53.95189,-31.91848],[-53.95304,-31.91924],[-53.95269,-31.92054],[-53.95346,-31.92201],[-53.95258,-31.92219],[-53.95251,-31.92322],[-53.95403,-31.92393],[-53.95508,-31.92544],[-53.95399,-31.92753],[-53.95377,-31.92956],[-53.95452,-31.93012],[-53.95424,-31.9313],[-53.95274,-31.93249],[-53.95162,-31.9321],[-53.95106,-31.93261],[-53.95125,-31.93465],[-53.95061,-31.9354],[-53.94826,-31.93704],[-53.94762,-31.93806],[-53.94901,-31.93936],[-53.94952,-31.94118],[-53.94948,-31.94255],[-53.94847,-31.94233],[-53.94773,-31.94309],[-53.94768,-31.94428],[-53.94704,-31.94499],[-53.94806,-31.94805],[-53.94752,-31.94855],[-53.946,-31.94845],[-53.94373,-31.95101],[-53.94424,-31.95201],[-53.94567,-31.95261],[-53.94711,-31.95208],[-53.94829,-31.9533],[-53.94751,-31.95463]]]},"properties":{"codigo":"431417525","name":"São Diogo","population":543,"households":290,"areaKm2":316.0383,"density":1.7}}]}