{"type":"FeatureCollection","features":[{"type":"Feature","geometry":{"type":"Polygon","coordinates":[[[-50.9045,-29.63664],[-50.90233,-29.63611],[-50.89765,-29.63539],[-50.89512,-29.63576],[-50.89344,-29.63666],[-50.88662,-29.64073],[-50.88253,-29.64172],[-50.87688,-29.64199],[-50.86406,-29.64189],[-50.86491,-29.6488],[-50.86433,-29.65004],[-50.86258,-29.65123],[-50.86292,-29.65291],[-50.86362,-29.65408],[-50.86507,-29.6573],[-50.86442,-29.65723],[-50.85848,-29.65767],[-50.85918,-29.6606],[-50.85987,-29.66118],[-50.85945,-29.66231],[-50.86027,-29.66456],[-50.86034,-29.66588],[-50.85995,-29.66712],[-50.85993,-29.66883],[-50.8603,-29.66975],[-50.86107,-29.66995],[-50.85986,-29.67205],[-50.85983,-29.67426],[-50.86045,-29.67481],[-50.86134,-29.67671],[-50.8638,-29.67874],[-50.8626,-29.67985],[-50.86198,-29.6809],[-50.86081,-29.68202],[-50.85754,-29.68341],[-50.85521,-29.68413],[-50.85226,-29.6858],[-50.84969,-29.68645],[-50.84732,-29.68581],[-50.84576,-29.68577],[-50.8437,-29.68697],[-50.84224,-29.68837],[-50.84076,-29.68878],[-50.83636,-29.68853],[-50.83389,-29.68885],[-50.83047,-29.68806],[-50.82895,-29.68852],[-50.82763,-29.68776],[-50.82621,-29.68657],[-50.82348,-29.6851],[-50.82042,-29.68535],[-50.81868,-29.6851],[-50.81722,-29.68522],[-50.81432,-29.68493],[-50.81128,-29.68596],[-50.80895,-29.68355],[-50.80783,-29.68391],[-50.80599,-29.6837],[-50.80482,-29.68142],[-50.80447,-29.68007],[-50.8033,-29.67852],[-50.80116,-29.67898],[-50.79964,-29.67868],[-50.79747,-29.67656],[-50.79709,-29.67465],[-50.7963,-29.67372],[-50.79656,-29.67288],[-50.79626,-29.67127],[-50.79651,-29.66941],[-50.79585,-29.6684],[-50.7963,-29.66767],[-50.79879,-29.66753],[-50.80147,-29.66649],[-50.80225,-29.66531],[-50.80147,-29.66312],[-50.80106,-29.66023],[-50.80246,-29.65826],[-50.80239,-29.65643],[-50.80432,-29.65575],[-50.80689,-29.65324],[-50.80727,-29.65216],[-50.80679,-29.6508],[-50.80264,-29.646],[-50.80179,-29.64458],[-50.80076,-29.64346],[-50.8027,-29.64125],[-50.80372,-29.63742],[-50.80335,-29.6367],[-50.80365,-29.63506],[-50.80596,-29.63211],[-50.80659,-29.63053],[-50.80802,-29.62878],[-50.8095,-29.62574],[-50.81094,-29.62563],[-50.80882,-29.62436],[-50.80805,-29.62232],[-50.80693,-29.62059],[-50.80688,-29.61797],[-50.80596,-29.61743],[-50.80643,-29.6161],[-50.80832,-29.61627],[-50.80963,-29.61517],[-50.81051,-29.61303],[-50.81019,-29.61028],[-50.8111,-29.60921],[-50.81016,-29.60751],[-50.81023,-29.60626],[-50.81242,-29.60574],[-50.81341,-29.605],[-50.81465,-29.60009],[-50.81581,-29.59844],[-50.81966,-29.60073],[-50.81911,-29.60264],[-50.82122,-29.60301],[-50.82166,-29.60218],[-50.82402,-29.60218],[-50.82396,-29.60414],[-50.83145,-29.60341],[-50.83103,-29.59811],[-50.83242,-29.59779],[-50.83454,-29.5979],[-50.83788,-29.59724],[-50.83788,-29.5957],[-50.837,-29.59239],[-50.85197,-29.58637],[-50.85655,-29.58443],[-50.85764,-29.59304],[-50.85942,-29.60791],[-50.88048,-29.63672],[-50.88353,-29.63571],[-50.88929,-29.63212],[-50.89229,-29.63075],[-50.89528,-29.63014],[-50.89822,-29.63011],[-50.90599,-29.63138],[-50.9045,-29.63664]]]},"properties":{"codigo":"431405005","name":"Parobé","population":49575,"households":21452,"areaKm2":59.6546,"density":831}},{"type":"Feature","geometry":{"type":"Polygon","coordinates":[[[-50.92656,-29.67557],[-50.92509,-29.67524],[-50.92239,-29.67423],[-50.92054,-29.67466],[-50.92145,-29.67534],[-50.92148,-29.67603],[-50.92046,-29.67676],[-50.91911,-29.67694],[-50.91732,-29.6764],[-50.91466,-29.67614],[-50.91425,-29.67671],[-50.91355,-29.67761],[-50.91397,-29.67878],[-50.91691,-29.68022],[-50.91576,-29.68134],[-50.91441,-29.68195],[-50.91102,-29.6826],[-50.91001,-29.68208],[-50.90946,-29.68084],[-50.90917,-29.67908],[-50.90848,-29.67709],[-50.905,-29.67465],[-50.9023,-29.67359],[-50.90072,-29.67443],[-50.89943,-29.67644],[-50.8997,-29.67841],[-50.90115,-29.68243],[-50.89925,-29.68346],[-50.89648,-29.68799],[-50.89323,-29.68713],[-50.89282,-29.6865],[-50.89271,-29.68477],[-50.89217,-29.68414],[-50.88852,-29.68364],[-50.88718,-29.68317],[-50.88679,-29.68257],[-50.88915,-29.67761],[-50.88838,-29.6762],[-50.88664,-29.67509],[-50.88505,-29.67538],[-50.88403,-29.67598],[-50.88194,-29.67885],[-50.8792,-29.68101],[-50.87814,-29.67991],[-50.87629,-29.6768],[-50.87098,-29.67618],[-50.86983,-29.67656],[-50.86947,-29.67733],[-50.86903,-29.68049],[-50.86837,-29.68122],[-50.86699,-29.68137],[-50.86602,-29.68082],[-50.86457,-29.67915],[-50.8638,-29.67874],[-50.86134,-29.67671],[-50.86045,-29.67481],[-50.85983,-29.67426],[-50.85986,-29.67205],[-50.86107,-29.66995],[-50.8603,-29.66975],[-50.85993,-29.66883],[-50.85995,-29.66712],[-50.86034,-29.66588],[-50.86027,-29.66456],[-50.85945,-29.66231],[-50.85987,-29.66118],[-50.85918,-29.6606],[-50.85848,-29.65767],[-50.86442,-29.65723],[-50.86507,-29.6573],[-50.86362,-29.65408],[-50.86292,-29.65291],[-50.86258,-29.65123],[-50.86433,-29.65004],[-50.86491,-29.6488],[-50.86406,-29.64189],[-50.87688,-29.64199],[-50.88253,-29.64172],[-50.88662,-29.64073],[-50.89344,-29.63666],[-50.89512,-29.63576],[-50.89765,-29.63539],[-50.90233,-29.63611],[-50.9045,-29.63664],[-50.9045,-29.63776],[-50.9056,-29.63924],[-50.90624,-29.64072],[-50.90678,-29.64547],[-50.90785,-29.64765],[-50.90744,-29.64948],[-50.90847,-29.65198],[-50.90899,-29.65246],[-50.91142,-29.65226],[-50.91328,-29.65336],[-50.9142,-29.65558],[-50.91518,-29.65705],[-50.91699,-29.65716],[-50.91767,-29.65767],[-50.91922,-29.65766],[-50.92049,-29.65887],[-50.92174,-29.6591],[-50.92274,-29.66045],[-50.92282,-29.66186],[-50.92325,-29.66274],[-50.92335,-29.66416],[-50.92531,-29.66507],[-50.92641,-29.66648],[-50.92774,-29.66742],[-50.92754,-29.6686],[-50.92622,-29.66972],[-50.92795,-29.67072],[-50.9288,-29.67208],[-50.92767,-29.67288],[-50.92755,-29.67446],[-50.92656,-29.67557]]]},"properties":{"codigo":"431405012","name":"Poço Fundo","population":669,"households":529,"areaKm2":23.6588,"density":28.3}},{"type":"Feature","geometry":{"type":"Polygon","coordinates":[[[-50.8638,-29.67874],[-50.86457,-29.67915],[-50.86602,-29.68082],[-50.86699,-29.68137],[-50.86837,-29.68122],[-50.86903,-29.68049],[-50.86947,-29.67733],[-50.86983,-29.67656],[-50.87098,-29.67618],[-50.87629,-29.6768],[-50.87814,-29.67991],[-50.8792,-29.68101],[-50.88194,-29.67885],[-50.88403,-29.67598],[-50.88505,-29.67538],[-50.88664,-29.67509],[-50.88838,-29.6762],[-50.88915,-29.67761],[-50.88679,-29.68257],[-50.88718,-29.68317],[-50.88852,-29.68364],[-50.89217,-29.68414],[-50.89271,-29.68477],[-50.89282,-29.6865],[-50.89323,-29.68713],[-50.89648,-29.68799],[-50.89925,-29.68346],[-50.90115,-29.68243],[-50.8997,-29.67841],[-50.89943,-29.67644],[-50.90072,-29.67443],[-50.9023,-29.67359],[-50.905,-29.67465],[-50.90848,-29.67709],[-50.90917,-29.67908],[-50.90946,-29.68084],[-50.91001,-29.68208],[-50.91102,-29.6826],[-50.91441,-29.68195],[-50.91576,-29.68134],[-50.91691,-29.68022],[-50.91397,-29.67878],[-50.91355,-29.67761],[-50.91425,-29.67671],[-50.91705,-29.67774],[-50.91771,-29.67758],[-50.91855,-29.67847],[-50.92119,-29.68004],[-50.92207,-29.68099],[-50.92281,-29.68642],[-50.92281,-29.68769],[-50.91972,-29.68791],[-50.91797,-29.68759],[-50.91675,-29.68792],[-50.91507,-29.68886],[-50.91445,-29.69003],[-50.9122,-29.69094],[-50.90872,-29.69141],[-50.90795,-29.69235],[-50.90625,-29.69307],[-50.90496,-29.69304],[-50.90378,-29.69441],[-50.90277,-29.69513],[-50.89773,-29.69768],[-50.89589,-29.69826],[-50.89281,-29.69862],[-50.89184,-29.69919],[-50.8893,-29.69979],[-50.88786,-29.70077],[-50.88562,-29.69878],[-50.88343,-29.69898],[-50.88027,-29.6978],[-50.87863,-29.69629],[-50.87618,-29.69472],[-50.87316,-29.69424],[-50.87182,-29.69297],[-50.87102,-29.69442],[-50.87143,-29.69591],[-50.87116,-29.69759],[-50.87191,-29.69978],[-50.87209,-29.70157],[-50.87306,-29.70303],[-50.87436,-29.70383],[-50.87629,-29.70463],[-50.87748,-29.70562],[-50.87834,-29.70704],[-50.87859,-29.70865],[-50.87839,-29.71108],[-50.87877,-29.71236],[-50.8781,-29.71317],[-50.87698,-29.71353],[-50.87589,-29.7151],[-50.87525,-29.71665],[-50.87327,-29.71822],[-50.87238,-29.71857],[-50.87142,-29.71998],[-50.87172,-29.72164],[-50.87162,-29.72342],[-50.87303,-29.72499],[-50.87346,-29.72632],[-50.87254,-29.72689],[-50.87106,-29.72936],[-50.87083,-29.7296],[-50.86904,-29.7297],[-50.86777,-29.7293],[-50.86721,-29.72866],[-50.86526,-29.72927],[-50.86425,-29.72833],[-50.86068,-29.72711],[-50.85717,-29.72776],[-50.85543,-29.72782],[-50.85506,-29.72696],[-50.8554,-29.72535],[-50.85661,-29.72448],[-50.85763,-29.72293],[-50.85875,-29.72197],[-50.85966,-29.7201],[-50.85895,-29.7186],[-50.85785,-29.71792],[-50.85537,-29.71722],[-50.85427,-29.71752],[-50.85208,-29.71864],[-50.84972,-29.71877],[-50.84789,-29.71918],[-50.84751,-29.72125],[-50.84596,-29.72141],[-50.84603,-29.72255],[-50.84547,-29.72327],[-50.84301,-29.72365],[-50.83973,-29.72475],[-50.8391,-29.72352],[-50.83946,-29.72138],[-50.83809,-29.71714],[-50.83812,-29.71629],[-50.8391,-29.71509],[-50.83912,-29.71396],[-50.83808,-29.71219],[-50.83649,-29.7109],[-50.83567,-29.70975],[-50.83549,-29.70741],[-50.83444,-29.70447],[-50.83288,-29.7031],[-50.83249,-29.70231],[-50.83272,-29.70072],[-50.83369,-29.69902],[-50.83316,-29.698],[-50.83218,-29.6975],[-50.83061,-29.69781],[-50.82975,-29.69902],[-50.82835,-29.69942],[-50.82671,-29.69824],[-50.82657,-29.69754],[-50.82825,-29.69507],[-50.8281,-29.6931],[-50.82683,-29.692],[-50.82149,-29.6904],[-50.82199,-29.68857],[-50.82398,-29.68807],[-50.8268,-29.68815],[-50.82763,-29.68776],[-50.82895,-29.68852],[-50.83047,-29.68806],[-50.83389,-29.68885],[-50.83636,-29.68853],[-50.84076,-29.68878],[-50.84224,-29.68837],[-50.8437,-29.68697],[-50.84576,-29.68577],[-50.84732,-29.68581],[-50.84969,-29.68645],[-50.85226,-29.6858],[-50.85521,-29.68413],[-50.85754,-29.68341],[-50.86081,-29.68202],[-50.86198,-29.6809],[-50.8626,-29.67985],[-50.8638,-29.67874]]]},"properties":{"codigo":"431405015","name":"Santa Cristina","population":1814,"households":852,"areaKm2":25.3938,"density":71.4}}]}