{"type":"FeatureCollection","features":[{"type":"Feature","geometry":{"type":"Polygon","coordinates":[[[-52.15164,-29.08782],[-52.15104,-29.08688],[-52.14951,-29.08597],[-52.14854,-29.08594],[-52.14662,-29.08515],[-52.14405,-29.08654],[-52.14204,-29.08675],[-52.13981,-29.0878],[-52.13917,-29.08752],[-52.1381,-29.08829],[-52.13681,-29.0882],[-52.13468,-29.08659],[-52.13315,-29.08642],[-52.13255,-29.08492],[-52.13088,-29.08588],[-52.13,-29.08565],[-52.12789,-29.08441],[-52.12609,-29.08638],[-52.12511,-29.08717],[-52.12609,-29.08928],[-52.12496,-29.08977],[-52.1241,-29.0927],[-52.12199,-29.0932],[-52.12084,-29.09397],[-52.1196,-29.09538],[-52.11819,-29.09499],[-52.11653,-29.096],[-52.11192,-29.09658],[-52.10928,-29.09753],[-52.10866,-29.09718],[-52.10839,-29.09572],[-52.10727,-29.09517],[-52.10647,-29.09529],[-52.10558,-29.09719],[-52.10572,-29.09811],[-52.10354,-29.10003],[-52.10194,-29.10101],[-52.10009,-29.10156],[-52.09761,-29.10275],[-52.09528,-29.10465],[-52.09371,-29.10522],[-52.09369,-29.10677],[-52.09217,-29.10634],[-52.09114,-29.10687],[-52.08981,-29.10824],[-52.08929,-29.08693],[-52.07809,-29.09028],[-52.07813,-29.09281],[-52.05734,-29.09273],[-52.05826,-29.05877],[-52.05719,-29.05947],[-52.05471,-29.05944],[-52.05526,-29.05685],[-52.0552,-29.05544],[-52.05593,-29.05424],[-52.05821,-29.05386],[-52.05929,-29.05421],[-52.06054,-29.05398],[-52.05948,-29.05143],[-52.0597,-29.0505],[-52.06174,-29.04936],[-52.06337,-29.04918],[-52.06449,-29.04868],[-52.06454,-29.0471],[-52.06272,-29.0451],[-52.06266,-29.04418],[-52.06354,-29.04316],[-52.06565,-29.0443],[-52.06749,-29.04568],[-52.069,-29.04586],[-52.06978,-29.04526],[-52.07044,-29.04259],[-52.07105,-29.04153],[-52.07169,-29.04165],[-52.07374,-29.0436],[-52.07462,-29.04323],[-52.07423,-29.04122],[-52.07576,-29.04026],[-52.07865,-29.04057],[-52.08123,-29.04218],[-52.08223,-29.04193],[-52.08262,-29.03943],[-52.08372,-29.03867],[-52.08511,-29.03854],[-52.08637,-29.03907],[-52.08737,-29.04075],[-52.08831,-29.04115],[-52.08941,-29.04024],[-52.09001,-29.03837],[-52.09058,-29.0379],[-52.09295,-29.03957],[-52.09412,-29.03901],[-52.09602,-29.03657],[-52.09734,-29.03451],[-52.09903,-29.03379],[-52.09982,-29.03286],[-52.10101,-29.03064],[-52.10366,-29.03032],[-52.1051,-29.0307],[-52.1063,-29.03053],[-52.10721,-29.0286],[-52.10684,-29.02707],[-52.10827,-29.02512],[-52.11011,-29.02526],[-52.10987,-29.02369],[-52.1103,-29.02326],[-52.10813,-29.01971],[-52.10728,-29.01691],[-52.10544,-29.01524],[-52.11058,-28.9977],[-52.10622,-28.99589],[-52.10413,-28.99394],[-52.10541,-28.9927],[-52.10426,-28.99126],[-52.10508,-28.99011],[-52.10897,-28.98955],[-52.10911,-28.98836],[-52.10885,-28.98689],[-52.10964,-28.98631],[-52.11012,-28.98388],[-52.10999,-28.98191],[-52.12162,-28.98283],[-52.12251,-28.97293],[-52.15474,-28.97491],[-52.15759,-28.97512],[-52.1582,-28.96621],[-52.15988,-28.96637],[-52.16073,-28.95452],[-52.16113,-28.94831],[-52.17778,-28.94939],[-52.17702,-28.95831],[-52.19436,-28.95925],[-52.19377,-28.9685],[-52.21414,-28.96948],[-52.22829,-28.97006],[-52.22753,-28.97041],[-52.22701,-28.97146],[-52.22708,-28.97259],[-52.2286,-28.97563],[-52.23017,-28.98118],[-52.23084,-28.98416],[-52.23079,-28.98737],[-52.23034,-28.98886],[-52.2288,-28.9894],[-52.22652,-28.98893],[-52.22481,-28.98889],[-52.22428,-28.98954],[-52.22443,-28.99109],[-52.22543,-28.99227],[-52.22785,-28.99382],[-52.23062,-28.995],[-52.23211,-28.99614],[-52.23251,-28.99725],[-52.23156,-28.99854],[-52.22993,-28.99903],[-52.22717,-28.99927],[-52.22483,-29.00038],[-52.22197,-29.00236],[-52.21889,-29.00511],[-52.21786,-29.00715],[-52.21477,-29.01065],[-52.2151,-29.01167],[-52.22052,-29.01091],[-52.22167,-29.01198],[-52.22193,-29.01282],[-52.22299,-29.01391],[-52.22534,-29.0154],[-52.22849,-29.01573],[-52.22949,-29.01613],[-52.22977,-29.0171],[-52.22887,-29.01792],[-52.22646,-29.01889],[-52.22547,-29.02002],[-52.22103,-29.02406],[-52.21894,-29.02533],[-52.21624,-29.02604],[-52.21504,-29.02666],[-52.2151,-29.02817],[-52.21594,-29.02838],[-52.2173,-29.03095],[-52.21936,-29.03257],[-52.22039,-29.03295],[-52.2234,-29.03475],[-52.22605,-29.03781],[-52.22706,-29.0388],[-52.22814,-29.04071],[-52.22758,-29.04164],[-52.22608,-29.04198],[-52.22188,-29.04185],[-52.2207,-29.04158],[-52.2166,-29.03933],[-52.21528,-29.03987],[-52.2152,-29.04235],[-52.21484,-29.04424],[-52.21491,-29.04549],[-52.21572,-29.04695],[-52.21678,-29.04734],[-52.21996,-29.04742],[-52.22183,-29.04825],[-52.22272,-29.04949],[-52.22268,-29.05024],[-52.22079,-29.05236],[-52.21953,-29.05347],[-52.21818,-29.0536],[-52.21716,-29.05299],[-52.21451,-29.05025],[-52.21325,-29.04943],[-52.21232,-29.04933],[-52.20948,-29.05047],[-52.20864,-29.05158],[-52.20941,-29.05255],[-52.21025,-29.05433],[-52.21026,-29.05614],[-52.20938,-29.05759],[-52.20925,-29.05873],[-52.20981,-29.06214],[-52.21031,-29.06279],[-52.21287,-29.06406],[-52.21378,-29.06411],[-52.21465,-29.06226],[-52.21596,-29.06151],[-52.21737,-29.06167],[-52.21821,-29.06227],[-52.2185,-29.06366],[-52.22045,-29.06552],[-52.22305,-29.06681],[-52.22378,-29.06815],[-52.22301,-29.06896],[-52.22106,-29.06961],[-52.21848,-29.07004],[-52.21525,-29.07158],[-52.21338,-29.07229],[-52.21148,-29.07257],[-52.20916,-29.07209],[-52.20634,-29.07198],[-52.20514,-29.07227],[-52.20469,-29.07291],[-52.20697,-29.08019],[-52.20833,-29.08059],[-52.20915,-29.08031],[-52.21067,-29.07881],[-52.2116,-29.07841],[-52.2149,-29.07818],[-52.22036,-29.07618],[-52.22159,-29.07672],[-52.22009,-29.07818],[-52.21827,-29.07933],[-52.21628,-29.08103],[-52.21424,-29.08237],[-52.21139,-29.08358],[-52.20954,-29.08361],[-52.20776,-29.08418],[-52.20672,-29.08484],[-52.20677,-29.08604],[-52.2086,-29.0876],[-52.21076,-29.09035],[-52.21219,-29.09284],[-52.21226,-29.09457],[-52.212,-29.09559],[-52.21045,-29.09579],[-52.20841,-29.09463],[-52.20643,-29.09414],[-52.20471,-29.09427],[-52.2027,-29.09502],[-52.20156,-29.09515],[-52.19797,-29.09485],[-52.19677,-29.09501],[-52.19586,-29.0959],[-52.19673,-29.09727],[-52.2005,-29.09886],[-52.2022,-29.09939],[-52.20386,-29.10054],[-52.20405,-29.10144],[-52.20379,-29.10391],[-52.20398,-29.10512],[-52.20577,-29.10884],[-52.20646,-29.11094],[-52.20589,-29.11219],[-52.20483,-29.11208],[-52.20358,-29.11103],[-52.20138,-29.10996],[-52.20019,-29.11008],[-52.19912,-29.11092],[-52.19772,-29.11376],[-52.19513,-29.11677],[-52.19407,-29.11536],[-52.19384,-29.11283],[-52.19318,-29.11222],[-52.19191,-29.11028],[-52.18831,-29.11052],[-52.1877,-29.10996],[-52.18794,-29.10869],[-52.185,-29.10822],[-52.18455,-29.10738],[-52.18329,-29.10827],[-52.18068,-29.10766],[-52.17973,-29.10772],[-52.17705,-29.10703],[-52.17624,-29.1074],[-52.17441,-29.10751],[-52.17279,-29.1061],[-52.1711,-29.105],[-52.17022,-29.10277],[-52.16829,-29.10082],[-52.16796,-29.09932],[-52.1682,-29.09674],[-52.16787,-29.09199],[-52.16553,-29.0888],[-52.16077,-29.0886],[-52.15164,-29.08782]]]},"properties":{"codigo":"431520605","name":"Putinga","population":3317,"households":1561,"areaKm2":185.4671,"density":17.9}},{"type":"Feature","geometry":{"type":"Polygon","coordinates":[[[-52.09204,-28.98044],[-52.10999,-28.98191],[-52.11012,-28.98388],[-52.10964,-28.98631],[-52.10885,-28.98689],[-52.10911,-28.98836],[-52.10897,-28.98955],[-52.10508,-28.99011],[-52.10426,-28.99126],[-52.10541,-28.9927],[-52.10413,-28.99394],[-52.10622,-28.99589],[-52.11058,-28.9977],[-52.10544,-29.01524],[-52.10728,-29.01691],[-52.10813,-29.01971],[-52.1103,-29.02326],[-52.10987,-29.02369],[-52.11011,-29.02526],[-52.10827,-29.02512],[-52.10684,-29.02707],[-52.10721,-29.0286],[-52.1063,-29.03053],[-52.1051,-29.0307],[-52.10366,-29.03032],[-52.10101,-29.03064],[-52.09982,-29.03286],[-52.09903,-29.03379],[-52.09734,-29.03451],[-52.09602,-29.03657],[-52.09412,-29.03901],[-52.09295,-29.03957],[-52.09058,-29.0379],[-52.09001,-29.03837],[-52.08941,-29.04024],[-52.08831,-29.04115],[-52.08737,-29.04075],[-52.08637,-29.03907],[-52.08511,-29.03854],[-52.08372,-29.03867],[-52.08262,-29.03943],[-52.08223,-29.04193],[-52.08123,-29.04218],[-52.07865,-29.04057],[-52.07576,-29.04026],[-52.07423,-29.04122],[-52.07462,-29.04323],[-52.07374,-29.0436],[-52.07169,-29.04165],[-52.07105,-29.04153],[-52.07044,-29.04259],[-52.06978,-29.04526],[-52.069,-29.04586],[-52.06749,-29.04568],[-52.06565,-29.0443],[-52.06354,-29.04316],[-52.06266,-29.04418],[-52.06272,-29.0451],[-52.06454,-29.0471],[-52.06449,-29.04868],[-52.06337,-29.04918],[-52.06174,-29.04936],[-52.0597,-29.0505],[-52.05948,-29.05143],[-52.06054,-29.05398],[-52.05929,-29.05421],[-52.05821,-29.05386],[-52.05593,-29.05424],[-52.0552,-29.05544],[-52.05526,-29.05685],[-52.05471,-29.05944],[-52.05393,-29.06056],[-52.05253,-29.06084],[-52.05166,-29.05935],[-52.04964,-29.05793],[-52.04778,-29.05744],[-52.04605,-29.05771],[-52.04871,-29.02059],[-52.04952,-29.02052],[-52.05103,-29.02131],[-52.05179,-29.02045],[-52.054,-29.01971],[-52.05559,-29.01983],[-52.05678,-29.01954],[-52.05774,-29.01866],[-52.05531,-29.01853],[-52.05486,-29.01744],[-52.05506,-29.01635],[-52.05252,-29.01556],[-52.05187,-29.01484],[-52.05248,-29.01327],[-52.05204,-29.01268],[-52.05323,-29.01186],[-52.05321,-29.01042],[-52.05243,-29.00968],[-52.05361,-29.00929],[-52.05428,-29.0085],[-52.05542,-29.00978],[-52.05725,-29.011],[-52.06027,-29.01125],[-52.06109,-29.01085],[-52.06157,-29.00568],[-52.06691,-29.00614],[-52.06757,-28.99735],[-52.07763,-28.99832],[-52.07842,-28.98931],[-52.09116,-28.98973],[-52.09204,-28.98044]]]},"properties":{"codigo":"431520615","name":"Xarqueada","population":430,"households":184,"areaKm2":30.6924,"density":14}}]}