{"type":"FeatureCollection","features":[{"type":"Feature","geometry":{"type":"Polygon","coordinates":[[[-54.04002,-30.22616],[-54.04284,-30.22712],[-54.04518,-30.2264],[-54.04391,-30.22531],[-54.04375,-30.22288],[-54.0429,-30.2216],[-54.04476,-30.22045],[-54.04614,-30.21909],[-54.04591,-30.21641],[-54.04388,-30.21528],[-54.04305,-30.21437],[-54.04321,-30.21318],[-54.04522,-30.21323],[-54.04629,-30.21404],[-54.04811,-30.21409],[-54.04906,-30.2147],[-54.05091,-30.21395],[-54.05102,-30.21653],[-54.053,-30.21529],[-54.05427,-30.21363],[-54.05611,-30.21288],[-54.05984,-30.21207],[-54.0616,-30.21052],[-54.06356,-30.20978],[-54.06465,-30.20812],[-54.06603,-30.20666],[-54.06798,-30.20651],[-54.069,-30.20475],[-54.0691,-30.20356],[-54.0701,-30.20249],[-54.07524,-30.20152],[-54.07682,-30.20155],[-54.07769,-30.20296],[-54.07914,-30.20309],[-54.08103,-30.20105],[-54.08378,-30.20062],[-54.08394,-30.19924],[-54.08265,-30.19782],[-54.08071,-30.19748],[-54.08135,-30.1963],[-54.08349,-30.19605],[-54.08578,-30.1967],[-54.08758,-30.19763],[-54.0884,-30.19844],[-54.08962,-30.19649],[-54.09108,-30.19632],[-54.09294,-30.19527],[-54.0952,-30.19473],[-54.09565,-30.19603],[-54.09649,-30.19654],[-54.09736,-30.19567],[-54.09664,-30.19139],[-54.09726,-30.18893],[-54.09836,-30.18846],[-54.09966,-30.18997],[-54.10126,-30.18932],[-54.1022,-30.18815],[-54.10586,-30.18783],[-54.10854,-30.18789],[-54.10976,-30.18742],[-54.1131,-30.1875],[-54.11534,-30.18586],[-54.11771,-30.18165],[-54.122,-30.18046],[-54.12555,-30.17975],[-54.13204,-30.18048],[-54.13507,-30.18055],[-54.13681,-30.17657],[-54.13628,-30.17609],[-54.13801,-30.1737],[-54.14025,-30.17221],[-54.13986,-30.17416],[-54.13819,-30.17592],[-54.14015,-30.17809],[-54.14257,-30.17882],[-54.1449,-30.18277],[-54.14927,-30.18822],[-54.1517,-30.19076],[-54.15134,-30.19359],[-54.15046,-30.19608],[-54.15143,-30.19947],[-54.15589,-30.20299],[-54.1581,-30.20618],[-54.15972,-30.20813],[-54.1591,-30.20999],[-54.15772,-30.21155],[-54.156,-30.21476],[-54.15473,-30.21592],[-54.15474,-30.21723],[-54.15245,-30.21853],[-54.15042,-30.22063],[-54.1477,-30.22214],[-54.14651,-30.22324],[-54.14608,-30.22493],[-54.1432,-30.2283],[-54.14273,-30.2317],[-54.14175,-30.23376],[-54.14042,-30.23748],[-54.13901,-30.24053],[-54.13975,-30.24276],[-54.13917,-30.24452],[-54.13998,-30.24757],[-54.13913,-30.25098],[-54.13977,-30.25258],[-54.14109,-30.26173],[-54.14433,-30.26426],[-54.14544,-30.267],[-54.14672,-30.26952],[-54.14689,-30.2709],[-54.1485,-30.27309],[-54.15017,-30.2738],[-54.15117,-30.27387],[-54.1524,-30.27503],[-54.15161,-30.27603],[-54.15191,-30.27682],[-54.153,-30.27788],[-54.15373,-30.27998],[-54.15265,-30.27999],[-54.15078,-30.27873],[-54.1499,-30.2792],[-54.15108,-30.28019],[-54.15098,-30.28082],[-54.14966,-30.28295],[-54.14879,-30.28355],[-54.14928,-30.28498],[-54.1508,-30.28367],[-54.15187,-30.2839],[-54.15172,-30.28563],[-54.15229,-30.28634],[-54.15061,-30.28777],[-54.15041,-30.28862],[-54.15127,-30.28928],[-54.15126,-30.29027],[-54.15254,-30.29],[-54.15314,-30.29042],[-54.15263,-30.29258],[-54.15037,-30.29365],[-54.14865,-30.2941],[-54.14771,-30.29495],[-54.14752,-30.29645],[-54.14653,-30.30007],[-54.14481,-30.30247],[-54.14338,-30.30479],[-54.14168,-30.30147],[-54.14048,-30.30344],[-54.13923,-30.30599],[-54.13886,-30.30469],[-54.13755,-30.30415],[-54.13575,-30.3044],[-54.13277,-30.30585],[-54.13231,-30.30667],[-54.13236,-30.30945],[-54.13205,-30.31008],[-54.13218,-30.3126],[-54.13347,-30.31423],[-54.13388,-30.31598],[-54.13316,-30.31638],[-54.13295,-30.31783],[-54.13213,-30.31774],[-54.13065,-30.31853],[-54.13052,-30.32064],[-54.13135,-30.32136],[-54.13179,-30.32362],[-54.13076,-30.32407],[-54.12929,-30.32658],[-54.13035,-30.32734],[-54.12838,-30.32935],[-54.12772,-30.33203],[-54.12559,-30.33277],[-54.12392,-30.33448],[-54.12426,-30.3356],[-54.12422,-30.33789],[-54.12338,-30.33781],[-54.12385,-30.34056],[-54.12513,-30.34317],[-54.12339,-30.34396],[-54.12373,-30.34468],[-54.12264,-30.3457],[-54.12243,-30.34773],[-54.1091,-30.34423],[-54.10639,-30.34384],[-54.09847,-30.34299],[-54.09537,-30.34235],[-54.09483,-30.3455],[-54.08105,-30.34293],[-54.07972,-30.34692],[-54.07463,-30.34765],[-54.07433,-30.34495],[-54.07319,-30.33878],[-54.06979,-30.33846],[-54.06854,-30.33849],[-54.05248,-30.34028],[-54.05259,-30.33854],[-54.05128,-30.33801],[-54.04903,-30.33785],[-54.04844,-30.33706],[-54.04814,-30.33553],[-54.04846,-30.33429],[-54.04924,-30.33311],[-54.04939,-30.33136],[-54.04883,-30.33008],[-54.04996,-30.32975],[-54.05093,-30.32831],[-54.05432,-30.3284],[-54.05507,-30.32765],[-54.05708,-30.32728],[-54.05845,-30.32637],[-54.05841,-30.32514],[-54.05785,-30.32443],[-54.05527,-30.32229],[-54.05463,-30.32022],[-54.05143,-30.31619],[-54.05159,-30.31537],[-54.05269,-30.31359],[-54.05495,-30.31223],[-54.05806,-30.30982],[-54.05434,-30.30717],[-54.04868,-30.30396],[-54.04763,-30.30036],[-54.04714,-30.29662],[-54.05071,-30.29356],[-54.05468,-30.29268],[-54.05492,-30.28931],[-54.05371,-30.28653],[-54.05404,-30.28464],[-54.05588,-30.28256],[-54.05641,-30.28065],[-54.05795,-30.27847],[-54.06148,-30.27814],[-54.06371,-30.27461],[-54.06144,-30.27332],[-54.05899,-30.27157],[-54.05805,-30.26769],[-54.05367,-30.26015],[-54.05087,-30.25592],[-54.0482,-30.25324],[-54.04846,-30.25078],[-54.0477,-30.24898],[-54.04734,-30.24622],[-54.04644,-30.24499],[-54.04592,-30.24338],[-54.04505,-30.24263],[-54.04544,-30.24063],[-54.04483,-30.2376],[-54.04383,-30.23548],[-54.04184,-30.23428],[-54.03967,-30.23245],[-54.03962,-30.23137],[-54.0408,-30.22992],[-54.04075,-30.22803],[-54.04002,-30.22616]]]},"properties":{"codigo":"431697205","name":"Santa Margarida do Sul","population":1510,"households":726,"areaKm2":147.3968,"density":10.2}},{"type":"Feature","geometry":{"type":"Polygon","coordinates":[[[-54.14025,-30.17221],[-54.14193,-30.16779],[-54.14553,-30.16835],[-54.14929,-30.17008],[-54.15244,-30.17199],[-54.15709,-30.17334],[-54.16008,-30.17292],[-54.16277,-30.17424],[-54.16369,-30.17558],[-54.16098,-30.17818],[-54.16191,-30.18037],[-54.16359,-30.18033],[-54.16349,-30.18365],[-54.16392,-30.18515],[-54.16285,-30.18598],[-54.16281,-30.18726],[-54.162,-30.18998],[-54.16222,-30.19156],[-54.16351,-30.19031],[-54.16446,-30.19033],[-54.16546,-30.19163],[-54.1683,-30.1931],[-54.16967,-30.19304],[-54.17116,-30.19205],[-54.17447,-30.19157],[-54.17496,-30.19269],[-54.1761,-30.1934],[-54.1774,-30.19197],[-54.17792,-30.1919],[-54.17908,-30.19342],[-54.18111,-30.19559],[-54.1816,-30.19697],[-54.18135,-30.19824],[-54.17826,-30.19813],[-54.17803,-30.1989],[-54.18324,-30.20003],[-54.18686,-30.1999],[-54.18871,-30.20105],[-54.18869,-30.20181],[-54.18968,-30.20371],[-54.19079,-30.20327],[-54.19173,-30.20354],[-54.19202,-30.2044],[-54.19196,-30.20653],[-54.19446,-30.20693],[-54.19523,-30.20759],[-54.19631,-30.2065],[-54.19795,-30.20756],[-54.19993,-30.20794],[-54.20086,-30.21031],[-54.2024,-30.21145],[-54.20444,-30.21346],[-54.20547,-30.21224],[-54.20912,-30.21283],[-54.21017,-30.21277],[-54.21162,-30.21131],[-54.21266,-30.21158],[-54.21303,-30.2133],[-54.21498,-30.21496],[-54.21602,-30.21515],[-54.21724,-30.21463],[-54.21881,-30.21466],[-54.22026,-30.2152],[-54.22246,-30.21533],[-54.22359,-30.21587],[-54.2247,-30.21551],[-54.22605,-30.21614],[-54.22601,-30.2175],[-54.22745,-30.21847],[-54.22744,-30.21681],[-54.22857,-30.2176],[-54.23163,-30.21706],[-54.23246,-30.21734],[-54.23404,-30.21869],[-54.23241,-30.22079],[-54.23267,-30.22293],[-54.23355,-30.22316],[-54.23496,-30.22157],[-54.23568,-30.22201],[-54.23673,-30.22562],[-54.2379,-30.22671],[-54.23904,-30.22725],[-54.24032,-30.22642],[-54.24056,-30.2254],[-54.24309,-30.22486],[-54.24338,-30.22388],[-54.24654,-30.22318],[-54.24954,-30.22452],[-54.25136,-30.2232],[-54.25257,-30.22292],[-54.254,-30.22449],[-54.2562,-30.22419],[-54.25622,-30.2256],[-54.25828,-30.22693],[-54.2594,-30.22814],[-54.26282,-30.23325],[-54.26203,-30.23528],[-54.26267,-30.23679],[-54.2642,-30.23818],[-54.26585,-30.23924],[-54.26567,-30.24171],[-54.26735,-30.24358],[-54.26836,-30.24514],[-54.2683,-30.24702],[-54.26911,-30.24782],[-54.26893,-30.24975],[-54.26731,-30.25206],[-54.26609,-30.25303],[-54.26546,-30.25489],[-54.26619,-30.25628],[-54.26761,-30.2576],[-54.26796,-30.25847],[-54.26785,-30.26012],[-54.26919,-30.26194],[-54.26919,-30.2637],[-54.26783,-30.26618],[-54.26641,-30.26729],[-54.26459,-30.26997],[-54.25992,-30.27254],[-54.25711,-30.27482],[-54.25637,-30.27683],[-54.25585,-30.27742],[-54.2552,-30.2793],[-54.25142,-30.28774],[-54.25073,-30.29167],[-54.25135,-30.29454],[-54.25116,-30.29761],[-54.25089,-30.29779],[-54.25123,-30.30007],[-54.24993,-30.30215],[-54.25054,-30.30346],[-54.24937,-30.30523],[-54.249,-30.30811],[-54.24917,-30.30955],[-54.24823,-30.31157],[-54.24806,-30.31259],[-54.24905,-30.32022],[-54.24879,-30.32102],[-54.24746,-30.32211],[-54.24781,-30.32408],[-54.24743,-30.32528],[-54.24576,-30.32498],[-54.24571,-30.32565],[-54.24674,-30.32766],[-54.24562,-30.32874],[-54.2463,-30.32965],[-54.24578,-30.33105],[-54.24624,-30.33266],[-54.24592,-30.33353],[-54.24597,-30.33525],[-54.2464,-30.33638],[-54.24571,-30.33898],[-54.24608,-30.34145],[-54.24554,-30.34443],[-54.24459,-30.34582],[-54.24512,-30.34738],[-54.24715,-30.34832],[-54.2471,-30.34895],[-54.24787,-30.3503],[-54.25257,-30.35163],[-54.25445,-30.35249],[-54.25511,-30.35309],[-54.25696,-30.35373],[-54.25572,-30.35499],[-54.25605,-30.35649],[-54.25686,-30.35789],[-54.25578,-30.35944],[-54.25664,-30.36125],[-54.25666,-30.36128],[-54.24552,-30.36451],[-54.23424,-30.36783],[-54.23169,-30.36851],[-54.22944,-30.36854],[-54.2283,-30.36833],[-54.21189,-30.36456],[-54.20937,-30.3643],[-54.19861,-30.36449],[-54.18765,-30.3629],[-54.18495,-30.36222],[-54.17651,-30.35935],[-54.17527,-30.35902],[-54.1729,-30.35889],[-54.16699,-30.35913],[-54.16502,-30.35894],[-54.16313,-30.35849],[-54.15147,-30.35537],[-54.14138,-30.35276],[-54.12243,-30.34773],[-54.12264,-30.3457],[-54.12373,-30.34468],[-54.12339,-30.34396],[-54.12513,-30.34317],[-54.12385,-30.34056],[-54.12338,-30.33781],[-54.12422,-30.33789],[-54.12426,-30.3356],[-54.12392,-30.33448],[-54.12559,-30.33277],[-54.12772,-30.33203],[-54.12838,-30.32935],[-54.13035,-30.32734],[-54.12929,-30.32658],[-54.13076,-30.32407],[-54.13179,-30.32362],[-54.13135,-30.32136],[-54.13052,-30.32064],[-54.13065,-30.31853],[-54.13213,-30.31774],[-54.13295,-30.31783],[-54.13316,-30.31638],[-54.13388,-30.31598],[-54.13347,-30.31423],[-54.13218,-30.3126],[-54.13205,-30.31008],[-54.13236,-30.30945],[-54.13231,-30.30667],[-54.13277,-30.30585],[-54.13575,-30.3044],[-54.13755,-30.30415],[-54.13886,-30.30469],[-54.13923,-30.30599],[-54.14048,-30.30344],[-54.14168,-30.30147],[-54.14338,-30.30479],[-54.14481,-30.30247],[-54.14653,-30.30007],[-54.14752,-30.29645],[-54.14771,-30.29495],[-54.14865,-30.2941],[-54.15037,-30.29365],[-54.15263,-30.29258],[-54.15314,-30.29042],[-54.15254,-30.29],[-54.15126,-30.29027],[-54.15127,-30.28928],[-54.15041,-30.28862],[-54.15061,-30.28777],[-54.15229,-30.28634],[-54.15172,-30.28563],[-54.15187,-30.2839],[-54.1508,-30.28367],[-54.14928,-30.28498],[-54.14879,-30.28355],[-54.14966,-30.28295],[-54.15098,-30.28082],[-54.15108,-30.28019],[-54.1499,-30.2792],[-54.15078,-30.27873],[-54.15265,-30.27999],[-54.15373,-30.27998],[-54.153,-30.27788],[-54.15191,-30.27682],[-54.15161,-30.27603],[-54.1524,-30.27503],[-54.15117,-30.27387],[-54.15017,-30.2738],[-54.1485,-30.27309],[-54.14689,-30.2709],[-54.14672,-30.26952],[-54.14544,-30.267],[-54.14433,-30.26426],[-54.14109,-30.26173],[-54.13977,-30.25258],[-54.13913,-30.25098],[-54.13998,-30.24757],[-54.13917,-30.24452],[-54.13975,-30.24276],[-54.13901,-30.24053],[-54.14042,-30.23748],[-54.14175,-30.23376],[-54.14273,-30.2317],[-54.1432,-30.2283],[-54.14608,-30.22493],[-54.14651,-30.22324],[-54.1477,-30.22214],[-54.15042,-30.22063],[-54.15245,-30.21853],[-54.15474,-30.21723],[-54.15473,-30.21592],[-54.156,-30.21476],[-54.15772,-30.21155],[-54.1591,-30.20999],[-54.15972,-30.20813],[-54.1581,-30.20618],[-54.15589,-30.20299],[-54.15143,-30.19947],[-54.15046,-30.19608],[-54.15134,-30.19359],[-54.1517,-30.19076],[-54.14927,-30.18822],[-54.1449,-30.18277],[-54.14257,-30.17882],[-54.14015,-30.17809],[-54.13819,-30.17592],[-54.13986,-30.17416],[-54.14025,-30.17221]]]},"properties":{"codigo":"431697210","name":"Bolso","population":437,"households":230,"areaKm2":192.2,"density":2.3}},{"type":"Feature","geometry":{"type":"Polygon","coordinates":[[[-54.05248,-30.34028],[-54.05206,-30.34619],[-54.05002,-30.35108],[-54.0525,-30.36244],[-54.0563,-30.36324],[-54.05872,-30.37077],[-54.05549,-30.37368],[-54.05685,-30.37692],[-54.05514,-30.377],[-54.05415,-30.37925],[-54.05602,-30.38632],[-54.05299,-30.38614],[-54.05284,-30.38892],[-54.05203,-30.3929],[-54.04553,-30.39319],[-54.04518,-30.39063],[-54.04001,-30.39177],[-54.04303,-30.39508],[-54.04068,-30.398],[-54.03871,-30.39965],[-54.03586,-30.39984],[-54.03421,-30.40379],[-54.03095,-30.40406],[-54.02684,-30.40576],[-54.02322,-30.40393],[-54.02222,-30.40616],[-54.02095,-30.40743],[-54.01692,-30.40602],[-54.01594,-30.40745],[-54.00703,-30.4084],[-54.00626,-30.40532],[-54.00287,-30.40441],[-53.99874,-30.40508],[-53.9978,-30.40943],[-53.99441,-30.41299],[-53.99319,-30.41506],[-53.99017,-30.41623],[-53.98653,-30.41914],[-53.98275,-30.42342],[-53.98531,-30.42671],[-53.98647,-30.42627],[-53.98854,-30.427],[-53.98748,-30.42811],[-53.98748,-30.42906],[-53.98829,-30.43077],[-53.98943,-30.43144],[-53.99033,-30.43099],[-53.99119,-30.43264],[-53.99063,-30.43478],[-53.99108,-30.43548],[-53.98975,-30.43752],[-53.98851,-30.43874],[-53.98765,-30.43891],[-53.98694,-30.44118],[-53.98631,-30.44124],[-53.98383,-30.43964],[-53.97997,-30.43788],[-53.97934,-30.43935],[-53.97703,-30.44244],[-53.97537,-30.44235],[-53.97464,-30.44385],[-53.9687,-30.44405],[-53.9678,-30.44218],[-53.96027,-30.43787],[-53.9562,-30.43329],[-53.94044,-30.42437],[-53.93829,-30.41987],[-53.93785,-30.41671],[-53.93824,-30.41556],[-53.93998,-30.41465],[-53.94194,-30.40996],[-53.94131,-30.40756],[-53.93924,-30.40569],[-53.93839,-30.40365],[-53.94062,-30.40101],[-53.93913,-30.39884],[-53.94166,-30.39584],[-53.94119,-30.39496],[-53.93939,-30.395],[-53.93922,-30.3942],[-53.94168,-30.39275],[-53.94528,-30.38901],[-53.94693,-30.38127],[-53.95111,-30.37927],[-53.94994,-30.37739],[-53.95182,-30.37194],[-53.95868,-30.36925],[-53.96121,-30.36715],[-53.96125,-30.36621],[-53.9588,-30.36418],[-53.95869,-30.36329],[-53.96244,-30.36106],[-53.96642,-30.36307],[-53.97167,-30.35919],[-53.97145,-30.35304],[-53.97311,-30.34958],[-53.97279,-30.3481],[-53.96874,-30.34638],[-53.96757,-30.34463],[-53.96756,-30.34351],[-53.96553,-30.34233],[-53.96438,-30.33979],[-53.9643,-30.33719],[-53.96519,-30.33647],[-53.96699,-30.33723],[-53.96822,-30.33649],[-53.97239,-30.33252],[-53.97188,-30.33105],[-53.97358,-30.33033],[-53.97399,-30.32891],[-53.97741,-30.32718],[-53.97855,-30.32005],[-53.98108,-30.31833],[-53.98025,-30.31677],[-53.98228,-30.31516],[-53.98205,-30.31304],[-53.98362,-30.3133],[-53.98474,-30.31243],[-53.98398,-30.31112],[-53.98441,-30.31071],[-53.98753,-30.31062],[-53.98951,-30.30905],[-53.99176,-30.30935],[-53.99287,-30.30793],[-53.99034,-30.30415],[-53.98801,-30.30256],[-53.98731,-30.30029],[-53.98852,-30.29869],[-53.98746,-30.29721],[-53.99038,-30.29675],[-53.9923,-30.29759],[-53.9971,-30.29788],[-54.00052,-30.29722],[-54.00086,-30.29145],[-54.00003,-30.2885],[-53.9999,-30.28541],[-54.00161,-30.2837],[-54.00244,-30.28411],[-54.00312,-30.28562],[-54.00498,-30.28397],[-54.00607,-30.28136],[-54.0082,-30.28006],[-54.00859,-30.27884],[-54.01092,-30.27702],[-54.01025,-30.27618],[-54.0113,-30.27589],[-54.0123,-30.27477],[-54.01291,-30.27197],[-54.01377,-30.27149],[-54.01411,-30.27057],[-54.01502,-30.26986],[-54.01637,-30.26963],[-54.01637,-30.26825],[-54.01801,-30.26638],[-54.01818,-30.26494],[-54.01636,-30.26499],[-54.0171,-30.26382],[-54.01496,-30.26352],[-54.0139,-30.26311],[-54.01383,-30.2616],[-54.01246,-30.25912],[-54.01005,-30.25858],[-54.00882,-30.25967],[-54.00827,-30.26146],[-54.00635,-30.26146],[-54.00525,-30.25816],[-54.00381,-30.25665],[-54.00072,-30.25501],[-54.00031,-30.25432],[-54.00127,-30.25308],[-54.00079,-30.2524],[-54.00052,-30.24737],[-54.00706,-30.24608],[-54.00818,-30.24687],[-54.00953,-30.24554],[-54.00957,-30.24438],[-54.01146,-30.2448],[-54.01269,-30.24348],[-54.01141,-30.24064],[-54.01203,-30.2394],[-54.01172,-30.23823],[-54.01341,-30.23739],[-54.01498,-30.23462],[-54.01824,-30.23286],[-54.01984,-30.23096],[-54.02186,-30.22907],[-54.0245,-30.22845],[-54.02734,-30.22871],[-54.02933,-30.22769],[-54.03065,-30.22733],[-54.03336,-30.22439],[-54.03532,-30.22444],[-54.0372,-30.22496],[-54.04002,-30.22616],[-54.04075,-30.22803],[-54.0408,-30.22992],[-54.03962,-30.23137],[-54.03967,-30.23245],[-54.04184,-30.23428],[-54.04383,-30.23548],[-54.04483,-30.2376],[-54.04544,-30.24063],[-54.04505,-30.24263],[-54.04592,-30.24338],[-54.04644,-30.24499],[-54.04734,-30.24622],[-54.0477,-30.24898],[-54.04846,-30.25078],[-54.0482,-30.25324],[-54.05087,-30.25592],[-54.05367,-30.26015],[-54.05805,-30.26769],[-54.05899,-30.27157],[-54.06144,-30.27332],[-54.06371,-30.27461],[-54.06148,-30.27814],[-54.05795,-30.27847],[-54.05641,-30.28065],[-54.05588,-30.28256],[-54.05404,-30.28464],[-54.05371,-30.28653],[-54.05492,-30.28931],[-54.05468,-30.29268],[-54.05071,-30.29356],[-54.04714,-30.29662],[-54.04763,-30.30036],[-54.04868,-30.30396],[-54.05434,-30.30717],[-54.05806,-30.30982],[-54.05495,-30.31223],[-54.05269,-30.31359],[-54.05159,-30.31537],[-54.05143,-30.31619],[-54.05463,-30.32022],[-54.05527,-30.32229],[-54.05785,-30.32443],[-54.05841,-30.32514],[-54.05845,-30.32637],[-54.05708,-30.32728],[-54.05507,-30.32765],[-54.05432,-30.3284],[-54.05093,-30.32831],[-54.04996,-30.32975],[-54.04883,-30.33008],[-54.04939,-30.33136],[-54.04924,-30.33311],[-54.04846,-30.33429],[-54.04814,-30.33553],[-54.04844,-30.33706],[-54.04903,-30.33785],[-54.05128,-30.33801],[-54.05259,-30.33854],[-54.05248,-30.34028]]]},"properties":{"codigo":"431697215","name":"Cambaizinho","population":116,"households":78,"areaKm2":148.0526,"density":0.8}},{"type":"Feature","geometry":{"type":"Polygon","coordinates":[[[-54.25666,-30.36128],[-54.25899,-30.3633],[-54.26118,-30.36377],[-54.26435,-30.36674],[-54.26722,-30.36902],[-54.26619,-30.3704],[-54.26483,-30.37387],[-54.26635,-30.37595],[-54.26681,-30.38019],[-54.26821,-30.3826],[-54.27003,-30.3835],[-54.26993,-30.38694],[-54.27094,-30.39338],[-54.2712,-30.39692],[-54.26863,-30.40107],[-54.26324,-30.40583],[-54.26083,-30.4074],[-54.25828,-30.41111],[-54.25452,-30.41528],[-54.24974,-30.41792],[-54.24784,-30.42013],[-54.24663,-30.42405],[-54.24518,-30.42728],[-54.24213,-30.43158],[-54.24072,-30.43788],[-54.23914,-30.44125],[-54.23625,-30.44474],[-54.2307,-30.45396],[-54.22403,-30.45858],[-54.21443,-30.4666],[-54.20927,-30.47092],[-54.20192,-30.47641],[-54.19576,-30.48242],[-54.19027,-30.48856],[-54.18363,-30.49436],[-54.17844,-30.4994],[-54.17466,-30.50009],[-54.17062,-30.50146],[-54.16836,-30.50206],[-54.16137,-30.50603],[-54.1567,-30.50819],[-54.15334,-30.51009],[-54.15283,-30.51269],[-54.15348,-30.51535],[-54.15502,-30.51649],[-54.1552,-30.51944],[-54.15648,-30.52254],[-54.16091,-30.52729],[-54.16116,-30.5296],[-54.16036,-30.5318],[-54.15989,-30.53541],[-54.15909,-30.53744],[-54.15728,-30.53817],[-54.15441,-30.53755],[-54.14997,-30.53848],[-54.14702,-30.53859],[-54.14537,-30.53578],[-54.14513,-30.53313],[-54.14655,-30.53154],[-54.14391,-30.5299],[-54.14324,-30.52775],[-54.14162,-30.52567],[-54.14037,-30.52547],[-54.14151,-30.524],[-54.14008,-30.52261],[-54.13972,-30.52072],[-54.13837,-30.51992],[-54.13612,-30.51983],[-54.13448,-30.51834],[-54.13411,-30.51655],[-54.13111,-30.51494],[-54.12964,-30.51333],[-54.12769,-30.51167],[-54.12621,-30.51189],[-54.12596,-30.50958],[-54.12524,-30.50731],[-54.12362,-30.50514],[-54.12316,-30.50316],[-54.12011,-30.50318],[-54.1173,-30.50385],[-54.11488,-30.50413],[-54.11231,-30.4987],[-54.11423,-30.4978],[-54.11671,-30.49722],[-54.11686,-30.49577],[-54.1131,-30.49134],[-54.11101,-30.49129],[-54.10826,-30.48982],[-54.1079,-30.48802],[-54.10813,-30.48717],[-54.10667,-30.48697],[-54.10489,-30.4851],[-54.10524,-30.48357],[-54.10719,-30.48165],[-54.10582,-30.4803],[-54.10524,-30.47858],[-54.10462,-30.47822],[-54.10311,-30.47938],[-54.1,-30.47821],[-54.09916,-30.47635],[-54.09647,-30.47484],[-54.096,-30.47287],[-54.09634,-30.47211],[-54.09404,-30.46997],[-54.09407,-30.46894],[-54.09232,-30.46788],[-54.0917,-30.46386],[-54.09094,-30.46303],[-54.08715,-30.46337],[-54.08525,-30.45976],[-54.08915,-30.45311],[-54.08952,-30.45093],[-54.09091,-30.44863],[-54.09013,-30.44784],[-54.09075,-30.44539],[-54.08915,-30.44096],[-54.08912,-30.43914],[-54.09194,-30.42853],[-54.09676,-30.42085],[-54.09817,-30.41835],[-54.09956,-30.41458],[-54.10091,-30.41186],[-54.10321,-30.41094],[-54.10523,-30.40862],[-54.10468,-30.40596],[-54.10709,-30.40462],[-54.10972,-30.40088],[-54.10989,-30.39666],[-54.11371,-30.39461],[-54.11892,-30.38417],[-54.11946,-30.38074],[-54.11868,-30.37907],[-54.11648,-30.37983],[-54.11445,-30.37787],[-54.11591,-30.37659],[-54.11547,-30.37221],[-54.11495,-30.37091],[-54.11539,-30.36691],[-54.11644,-30.36039],[-54.11552,-30.35862],[-54.11518,-30.35737],[-54.11648,-30.35522],[-54.119,-30.35255],[-54.11863,-30.35141],[-54.11999,-30.34887],[-54.12178,-30.34879],[-54.12243,-30.34773],[-54.14138,-30.35276],[-54.15147,-30.35537],[-54.16313,-30.35849],[-54.16502,-30.35894],[-54.16699,-30.35913],[-54.1729,-30.35889],[-54.17527,-30.35902],[-54.17651,-30.35935],[-54.18495,-30.36222],[-54.18765,-30.3629],[-54.19861,-30.36449],[-54.20937,-30.3643],[-54.21189,-30.36456],[-54.2283,-30.36833],[-54.22944,-30.36854],[-54.23169,-30.36851],[-54.23424,-30.36783],[-54.24552,-30.36451],[-54.25666,-30.36128]]]},"properties":{"codigo":"431697220","name":"Canas","population":366,"households":236,"areaKm2":211.5855,"density":1.7}},{"type":"Feature","geometry":{"type":"Polygon","coordinates":[[[-53.88728,-30.49719],[-53.896,-30.4958],[-53.8971,-30.49209],[-53.90129,-30.48991],[-53.90741,-30.49018],[-53.91511,-30.49279],[-53.91834,-30.49294],[-53.9244,-30.49045],[-53.94563,-30.48914],[-53.96072,-30.48203],[-53.96179,-30.47846],[-53.96118,-30.4746],[-53.95915,-30.47147],[-53.96097,-30.46512],[-53.95899,-30.46423],[-53.96103,-30.4622],[-53.96236,-30.45813],[-53.96058,-30.45474],[-53.96561,-30.45217],[-53.96638,-30.4509],[-53.96886,-30.45074],[-53.97024,-30.44952],[-53.97097,-30.44725],[-53.97309,-30.44644],[-53.97464,-30.44385],[-53.97537,-30.44235],[-53.97703,-30.44244],[-53.97934,-30.43935],[-53.97997,-30.43788],[-53.98383,-30.43964],[-53.98631,-30.44124],[-53.98694,-30.44118],[-53.98765,-30.43891],[-53.98851,-30.43874],[-53.98975,-30.43752],[-53.99108,-30.43548],[-53.99063,-30.43478],[-53.99119,-30.43264],[-53.99033,-30.43099],[-53.98943,-30.43144],[-53.98829,-30.43077],[-53.98748,-30.42906],[-53.98748,-30.42811],[-53.98854,-30.427],[-53.98647,-30.42627],[-53.98531,-30.42671],[-53.98275,-30.42342],[-53.98653,-30.41914],[-53.99017,-30.41623],[-53.99319,-30.41506],[-53.99441,-30.41299],[-53.9978,-30.40943],[-53.99874,-30.40508],[-54.00287,-30.40441],[-54.00626,-30.40532],[-54.00703,-30.4084],[-54.01594,-30.40745],[-54.01692,-30.40602],[-54.02095,-30.40743],[-54.02222,-30.40616],[-54.02322,-30.40393],[-54.02684,-30.40576],[-54.03095,-30.40406],[-54.03421,-30.40379],[-54.03586,-30.39984],[-54.03871,-30.39965],[-54.04068,-30.398],[-54.04303,-30.39508],[-54.04001,-30.39177],[-54.04518,-30.39063],[-54.04553,-30.39319],[-54.05203,-30.3929],[-54.05284,-30.38892],[-54.05299,-30.38614],[-54.05602,-30.38632],[-54.05415,-30.37925],[-54.05514,-30.377],[-54.05685,-30.37692],[-54.05549,-30.37368],[-54.05872,-30.37077],[-54.0563,-30.36324],[-54.0525,-30.36244],[-54.05002,-30.35108],[-54.05206,-30.34619],[-54.05248,-30.34028],[-54.06854,-30.33849],[-54.06979,-30.33846],[-54.07319,-30.33878],[-54.07433,-30.34495],[-54.07463,-30.34765],[-54.07972,-30.34692],[-54.08105,-30.34293],[-54.09483,-30.3455],[-54.09537,-30.34235],[-54.09847,-30.34299],[-54.10639,-30.34384],[-54.1091,-30.34423],[-54.12243,-30.34773],[-54.12178,-30.34879],[-54.11999,-30.34887],[-54.11863,-30.35141],[-54.119,-30.35255],[-54.11648,-30.35522],[-54.11518,-30.35737],[-54.11552,-30.35862],[-54.11644,-30.36039],[-54.11539,-30.36691],[-54.11495,-30.37091],[-54.11547,-30.37221],[-54.11591,-30.37659],[-54.11445,-30.37787],[-54.11648,-30.37983],[-54.11868,-30.37907],[-54.11946,-30.38074],[-54.11892,-30.38417],[-54.11371,-30.39461],[-54.10989,-30.39666],[-54.10972,-30.40088],[-54.10709,-30.40462],[-54.10468,-30.40596],[-54.10523,-30.40862],[-54.10321,-30.41094],[-54.10091,-30.41186],[-54.09956,-30.41458],[-54.09817,-30.41835],[-54.09676,-30.42085],[-54.09194,-30.42853],[-54.08912,-30.43914],[-54.08915,-30.44096],[-54.09075,-30.44539],[-54.09013,-30.44784],[-54.09091,-30.44863],[-54.08952,-30.45093],[-54.08915,-30.45311],[-54.08525,-30.45976],[-54.08419,-30.45904],[-54.08196,-30.46397],[-54.082,-30.47055],[-54.07756,-30.47165],[-54.07308,-30.47773],[-54.0705,-30.48205],[-54.0656,-30.48573],[-54.06565,-30.49231],[-54.06392,-30.49665],[-54.06062,-30.50056],[-54.06068,-30.50654],[-54.06388,-30.5104],[-54.06578,-30.51224],[-54.06497,-30.51501],[-54.0623,-30.51794],[-54.06542,-30.5202],[-54.06558,-30.5234],[-54.06807,-30.52605],[-54.07002,-30.52649],[-54.06869,-30.53004],[-54.07173,-30.53509],[-54.07228,-30.53981],[-54.07205,-30.54041],[-54.06914,-30.53874],[-54.06551,-30.53707],[-54.06135,-30.53657],[-54.05429,-30.53841],[-54.05174,-30.54174],[-54.04807,-30.54544],[-54.04519,-30.54318],[-54.04026,-30.54367],[-54.0368,-30.5404],[-54.0314,-30.54048],[-54.025,-30.54113],[-54.01568,-30.5447],[-54.00759,-30.5483],[-54.00091,-30.55393],[-53.98894,-30.55604],[-53.9794,-30.55861],[-53.97243,-30.55765],[-53.96499,-30.56027],[-53.95895,-30.56093],[-53.95662,-30.55859],[-53.9554,-30.55769],[-53.95389,-30.55787],[-53.95209,-30.55913],[-53.95191,-30.565],[-53.95064,-30.5654],[-53.94941,-30.56472],[-53.94575,-30.56138],[-53.94356,-30.55959],[-53.94206,-30.55933],[-53.93901,-30.56056],[-53.93768,-30.56292],[-53.93708,-30.56617],[-53.93667,-30.57161],[-53.93444,-30.5744],[-53.93229,-30.56696],[-53.92753,-30.56074],[-53.92535,-30.55531],[-53.92281,-30.55279],[-53.92062,-30.54794],[-53.91172,-30.54092],[-53.90446,-30.53823],[-53.90354,-30.537],[-53.90341,-30.53398],[-53.90255,-30.53271],[-53.89096,-30.52074],[-53.88367,-30.51783],[-53.8821,-30.51632],[-53.88159,-30.51446],[-53.88151,-30.51112],[-53.88224,-30.50613],[-53.88252,-30.50541],[-53.88783,-30.50052],[-53.88824,-30.49923],[-53.88728,-30.49719]]]},"properties":{"codigo":"431697230","name":"Serrinha","population":167,"households":108,"areaKm2":256.0642,"density":0.7}}]}