{"type":"FeatureCollection","features":[{"type":"Feature","geometry":{"type":"Polygon","coordinates":[[[-55.02531,-28.17651],[-55.02366,-28.17464],[-55.02027,-28.1724],[-55.01659,-28.17121],[-55.01403,-28.16928],[-55.01112,-28.16813],[-55.00971,-28.16736],[-55.00771,-28.16695],[-55.00229,-28.16777],[-54.99995,-28.16877],[-54.99738,-28.16954],[-54.99539,-28.17041],[-54.99352,-28.17007],[-54.99255,-28.1695],[-54.99256,-28.168],[-54.99431,-28.16459],[-54.99793,-28.15923],[-54.99958,-28.15734],[-55.00125,-28.15509],[-55.00309,-28.15301],[-55.00713,-28.14909],[-55.00803,-28.1475],[-55.00853,-28.14581],[-55.00848,-28.1441],[-55.00763,-28.14276],[-55.00623,-28.14178],[-55.0042,-28.14175],[-55.00076,-28.14324],[-54.99892,-28.1444],[-54.99687,-28.14666],[-54.99532,-28.14778],[-54.99264,-28.15057],[-54.99066,-28.15382],[-54.99019,-28.15561],[-54.98941,-28.15744],[-54.9885,-28.15851],[-54.98703,-28.15941],[-54.98485,-28.1595],[-54.98267,-28.15923],[-54.97912,-28.15814],[-54.97718,-28.15818],[-54.97545,-28.15868],[-54.97414,-28.15949],[-54.97238,-28.16175],[-54.97161,-28.16351],[-54.97114,-28.16655],[-54.97076,-28.1719],[-54.97082,-28.181],[-54.97071,-28.18328],[-54.97032,-28.1858],[-54.96954,-28.18749],[-54.96839,-28.18901],[-54.96531,-28.19257],[-54.96342,-28.19257],[-54.96162,-28.19194],[-54.9589,-28.18826],[-54.95787,-28.18587],[-54.95536,-28.18184],[-54.95412,-28.18029],[-54.95204,-28.17892],[-54.94926,-28.1786],[-54.94608,-28.17983],[-54.94525,-28.18055],[-54.94399,-28.18252],[-54.94245,-28.1821],[-54.93765,-28.18012],[-54.93686,-28.17796],[-54.93734,-28.1765],[-54.93951,-28.17512],[-54.943,-28.17489],[-54.94414,-28.17439],[-54.94437,-28.17336],[-54.94406,-28.17219],[-54.94291,-28.17145],[-54.94277,-28.1691],[-54.94319,-28.16752],[-54.94277,-28.16632],[-54.94091,-28.16595],[-54.94037,-28.16424],[-54.94057,-28.16276],[-54.9404,-28.15994],[-54.93899,-28.15787],[-54.93855,-28.15613],[-54.93744,-28.15471],[-54.93789,-28.15338],[-54.93788,-28.15169],[-54.93716,-28.15004],[-54.93497,-28.14873],[-54.93355,-28.14855],[-54.93149,-28.14888],[-54.93059,-28.14876],[-54.92865,-28.1475],[-54.92784,-28.14419],[-54.92807,-28.14282],[-54.92737,-28.14175],[-54.92554,-28.14039],[-54.92519,-28.13894],[-54.92557,-28.13818],[-54.92524,-28.13663],[-54.92622,-28.13717],[-54.93071,-28.14042],[-54.93348,-28.14283],[-54.93612,-28.14332],[-54.93941,-28.1434],[-54.94073,-28.14382],[-54.94676,-28.14665],[-54.95224,-28.14007],[-54.95907,-28.14309],[-54.96448,-28.12965],[-54.96705,-28.13061],[-54.9704,-28.12397],[-54.97724,-28.1113],[-54.97831,-28.10763],[-54.97803,-28.10548],[-54.97851,-28.10181],[-54.97834,-28.10005],[-54.97772,-28.09878],[-54.97758,-28.09745],[-54.9759,-28.09584],[-54.97518,-28.09456],[-54.97387,-28.09327],[-54.97359,-28.09244],[-54.97473,-28.08929],[-54.97476,-28.08873],[-54.97329,-28.08587],[-54.97352,-28.08464],[-54.97288,-28.08093],[-54.9722,-28.07943],[-54.97365,-28.07721],[-54.97369,-28.07627],[-54.97288,-28.07289],[-54.97214,-28.07113],[-54.97273,-28.06973],[-54.97237,-28.06781],[-54.97245,-28.0666],[-54.97297,-28.06585],[-54.97292,-28.0639],[-54.97462,-28.06259],[-54.97421,-28.06152],[-54.97552,-28.06002],[-54.97766,-28.05831],[-54.97876,-28.05808],[-54.98109,-28.0561],[-54.9819,-28.05538],[-54.98573,-28.05423],[-54.98751,-28.05461],[-54.98983,-28.05447],[-54.99067,-28.05353],[-54.99218,-28.05276],[-54.99359,-28.05326],[-54.99389,-28.05152],[-54.99497,-28.04995],[-54.99649,-28.04864],[-54.9969,-28.04791],[-54.9986,-28.04691],[-55.00234,-28.04592],[-55.00371,-28.0445],[-55.00643,-28.04331],[-55.00648,-28.04263],[-55.0074,-28.04117],[-55.00841,-28.04074],[-55.01553,-28.03828],[-55.01639,-28.03809],[-55.01777,-28.03954],[-55.02332,-28.02903],[-55.02249,-28.02864],[-55.02907,-28.02162],[-55.02667,-28.01926],[-55.02974,-28.01627],[-55.03106,-28.01963],[-55.0391,-28.01145],[-55.03849,-28.01081],[-55.04548,-28.00313],[-55.04766,-28.00208],[-55.04882,-28.0025],[-55.05001,-28.00177],[-55.05274,-28.00224],[-55.0532,-28.00176],[-55.05587,-28.00249],[-55.05629,-28.0019],[-55.05857,-28.00278],[-55.05962,-28.00411],[-55.06176,-28.00517],[-55.06264,-28.00521],[-55.06369,-28.00621],[-55.06436,-28.00617],[-55.06704,-28.00699],[-55.06764,-28.00758],[-55.06804,-28.00947],[-55.06685,-28.01022],[-55.06709,-28.01157],[-55.07325,-28.01151],[-55.07345,-28.00988],[-55.08948,-28.00952],[-55.08932,-28.0272],[-55.09117,-28.0274],[-55.0926,-28.02659],[-55.10082,-28.02314],[-55.10344,-28.02262],[-55.10577,-28.02242],[-55.10743,-28.02131],[-55.1087,-28.02364],[-55.10866,-28.02546],[-55.10806,-28.02613],[-55.10897,-28.03319],[-55.10925,-28.03367],[-55.11136,-28.03359],[-55.11434,-28.03387],[-55.11852,-28.03342],[-55.12031,-28.03308],[-55.12543,-28.0326],[-55.12631,-28.03266],[-55.13231,-28.03374],[-55.13422,-28.03427],[-55.13665,-28.0339],[-55.13868,-28.03298],[-55.14418,-28.03466],[-55.14693,-28.03528],[-55.14973,-28.03696],[-55.15074,-28.03718],[-55.15452,-28.03624],[-55.15845,-28.03449],[-55.1602,-28.03039],[-55.15999,-28.02732],[-55.16021,-28.02665],[-55.16351,-28.02312],[-55.16501,-28.01991],[-55.16857,-28.02211],[-55.17062,-28.02216],[-55.171,-28.02148],[-55.17293,-28.02076],[-55.17357,-28.02138],[-55.17476,-28.02108],[-55.17594,-28.01882],[-55.17704,-28.01782],[-55.17905,-28.0168],[-55.18023,-28.01531],[-55.18113,-28.01467],[-55.18123,-28.01345],[-55.18244,-28.01301],[-55.18234,-28.01439],[-55.18282,-28.01567],[-55.18442,-28.01765],[-55.1857,-28.0202],[-55.18651,-28.02135],[-55.18848,-28.02355],[-55.18972,-28.02456],[-55.19303,-28.02631],[-55.19382,-28.02711],[-55.19423,-28.0283],[-55.19399,-28.02973],[-55.19338,-28.03099],[-55.19145,-28.03243],[-55.18885,-28.03328],[-55.18575,-28.03391],[-55.18318,-28.03411],[-55.18172,-28.03451],[-55.1801,-28.03597],[-55.17954,-28.03719],[-55.17932,-28.03866],[-55.17942,-28.04062],[-55.17998,-28.0431],[-55.18111,-28.04495],[-55.18163,-28.04627],[-55.18166,-28.04756],[-55.18081,-28.04935],[-55.17935,-28.05103],[-55.17583,-28.05336],[-55.17368,-28.05406],[-55.17251,-28.05402],[-55.17076,-28.05282],[-55.16741,-28.04843],[-55.16579,-28.04689],[-55.16385,-28.0454],[-55.1607,-28.04366],[-55.15884,-28.04286],[-55.15704,-28.04245],[-55.15534,-28.0425],[-55.15377,-28.04294],[-55.15237,-28.0437],[-55.15182,-28.0444],[-55.15133,-28.04633],[-55.15098,-28.05116],[-55.15095,-28.05465],[-55.14988,-28.06256],[-55.1499,-28.06387],[-55.15064,-28.06781],[-55.15158,-28.07092],[-55.15006,-28.0772],[-55.14924,-28.07965],[-55.14802,-28.08214],[-55.14608,-28.08485],[-55.1448,-28.08617],[-55.14298,-28.08683],[-55.14174,-28.08684],[-55.14033,-28.08559],[-55.13935,-28.08295],[-55.13848,-28.07945],[-55.13822,-28.07759],[-55.13826,-28.07509],[-55.13712,-28.07244],[-55.13546,-28.07057],[-55.13415,-28.06813],[-55.13029,-28.06275],[-55.12913,-28.061],[-55.12728,-28.05908],[-55.12558,-28.05817],[-55.12432,-28.05784],[-55.12192,-28.05787],[-55.11913,-28.05857],[-55.11764,-28.05919],[-55.11513,-28.0609],[-55.10961,-28.0621],[-55.10564,-28.06311],[-55.10395,-28.06368],[-55.10144,-28.06392],[-55.10034,-28.06457],[-55.10047,-28.06633],[-55.10194,-28.06838],[-55.10308,-28.06923],[-55.10635,-28.07103],[-55.1088,-28.07266],[-55.11026,-28.07433],[-55.1118,-28.07652],[-55.11277,-28.07841],[-55.11417,-28.08048],[-55.11556,-28.08332],[-55.11583,-28.08499],[-55.11575,-28.08671],[-55.11618,-28.0906],[-55.11654,-28.09231],[-55.11637,-28.09388],[-55.1148,-28.09701],[-55.11396,-28.09822],[-55.11214,-28.09932],[-55.11075,-28.09951],[-55.10649,-28.09849],[-55.1039,-28.09684],[-55.10242,-28.0967],[-55.10132,-28.09751],[-55.10082,-28.09939],[-55.10125,-28.10259],[-55.10179,-28.105],[-55.10351,-28.10858],[-55.10527,-28.11025],[-55.10594,-28.11213],[-55.10569,-28.11473],[-55.10473,-28.11694],[-55.10319,-28.11854],[-55.09954,-28.12107],[-55.09728,-28.12316],[-55.09398,-28.12498],[-55.08907,-28.12698],[-55.08803,-28.12719],[-55.08613,-28.12663],[-55.08382,-28.12514],[-55.07964,-28.12183],[-55.07758,-28.11976],[-55.07382,-28.11693],[-55.0692,-28.11249],[-55.06686,-28.11138],[-55.0646,-28.11114],[-55.06201,-28.11152],[-55.05909,-28.11268],[-55.05703,-28.11395],[-55.05349,-28.11567],[-55.05193,-28.11615],[-55.04989,-28.1177],[-55.04959,-28.11917],[-55.04964,-28.12087],[-55.05034,-28.12262],[-55.05324,-28.12505],[-55.05516,-28.12696],[-55.05708,-28.12807],[-55.06018,-28.129],[-55.06178,-28.13064],[-55.06483,-28.13257],[-55.06546,-28.13375],[-55.06691,-28.14149],[-55.06689,-28.14363],[-55.06615,-28.14538],[-55.06475,-28.14687],[-55.06314,-28.14775],[-55.06113,-28.14849],[-55.05904,-28.14879],[-55.05702,-28.14852],[-55.05543,-28.14762],[-55.05432,-28.14661],[-55.05342,-28.1451],[-55.05268,-28.14159],[-55.05066,-28.1399],[-55.04386,-28.13678],[-55.04126,-28.13666],[-55.03833,-28.13717],[-55.03593,-28.13784],[-55.03405,-28.13889],[-55.03262,-28.14002],[-55.03121,-28.14163],[-55.03043,-28.14358],[-55.03077,-28.14564],[-55.03225,-28.14778],[-55.03725,-28.15258],[-55.03846,-28.15509],[-55.03928,-28.15762],[-55.03956,-28.16023],[-55.04,-28.16237],[-55.04108,-28.16469],[-55.04313,-28.16674],[-55.04483,-28.16972],[-55.045,-28.17175],[-55.04364,-28.17357],[-55.04149,-28.1753],[-55.03978,-28.17644],[-55.03825,-28.17813],[-55.03625,-28.17906],[-55.03245,-28.17987],[-55.02907,-28.17859],[-55.02531,-28.17651]]]},"properties":{"codigo":"431630305","name":"Roque Gonzales","population":4798,"households":2340,"areaKm2":216.717,"density":22.1}},{"type":"Feature","geometry":{"type":"Polygon","coordinates":[[[-54.92524,-28.13663],[-54.92597,-28.13528],[-54.92522,-28.13337],[-54.92544,-28.13183],[-54.92508,-28.13099],[-54.92579,-28.12869],[-54.92787,-28.12901],[-54.92792,-28.12537],[-54.92785,-28.11822],[-54.92798,-28.11017],[-54.92801,-28.05755],[-54.92805,-28.05584],[-54.93828,-28.05575],[-54.96888,-28.05591],[-54.98109,-28.0561],[-54.97876,-28.05808],[-54.97766,-28.05831],[-54.97552,-28.06002],[-54.97421,-28.06152],[-54.97462,-28.06259],[-54.97292,-28.0639],[-54.97297,-28.06585],[-54.97245,-28.0666],[-54.97237,-28.06781],[-54.97273,-28.06973],[-54.97214,-28.07113],[-54.97288,-28.07289],[-54.97369,-28.07627],[-54.97365,-28.07721],[-54.9722,-28.07943],[-54.97288,-28.08093],[-54.97352,-28.08464],[-54.97329,-28.08587],[-54.97476,-28.08873],[-54.97473,-28.08929],[-54.97359,-28.09244],[-54.97387,-28.09327],[-54.97518,-28.09456],[-54.9759,-28.09584],[-54.97758,-28.09745],[-54.97772,-28.09878],[-54.97834,-28.10005],[-54.97851,-28.10181],[-54.97803,-28.10548],[-54.97831,-28.10763],[-54.97724,-28.1113],[-54.9704,-28.12397],[-54.96705,-28.13061],[-54.96448,-28.12965],[-54.95907,-28.14309],[-54.95224,-28.14007],[-54.94676,-28.14665],[-54.94073,-28.14382],[-54.93941,-28.1434],[-54.93612,-28.14332],[-54.93348,-28.14283],[-54.93071,-28.14042],[-54.92622,-28.13717],[-54.92524,-28.13663]]]},"properties":{"codigo":"431630310","name":"Dona Otília","population":857,"households":359,"areaKm2":42.4346,"density":20.2}},{"type":"Feature","geometry":{"type":"Polygon","coordinates":[[[-55.18244,-28.01301],[-55.18123,-28.01345],[-55.18113,-28.01467],[-55.18023,-28.01531],[-55.17905,-28.0168],[-55.17704,-28.01782],[-55.17594,-28.01882],[-55.17476,-28.02108],[-55.17357,-28.02138],[-55.17293,-28.02076],[-55.171,-28.02148],[-55.17062,-28.02216],[-55.16857,-28.02211],[-55.16501,-28.01991],[-55.16378,-28.01908],[-55.16298,-28.01783],[-55.16143,-28.01701],[-55.15932,-28.01691],[-55.15726,-28.01612],[-55.15438,-28.01599],[-55.15381,-28.01545],[-55.15288,-28.0136],[-55.16812,-28.01146],[-55.16826,-27.99189],[-55.17995,-27.99227],[-55.18008,-27.98769],[-55.18058,-27.98225],[-55.18326,-27.97838],[-55.18617,-27.97803],[-55.1882,-27.97702],[-55.1889,-27.977],[-55.1898,-27.97501],[-55.18993,-27.97384],[-55.19208,-27.97269],[-55.19681,-27.96959],[-55.19792,-27.96736],[-55.20029,-27.96458],[-55.20344,-27.96197],[-55.20531,-27.96127],[-55.20665,-27.96037],[-55.20765,-27.9588],[-55.21136,-27.95504],[-55.21242,-27.95453],[-55.21307,-27.95321],[-55.21522,-27.95343],[-55.21605,-27.9532],[-55.21765,-27.95338],[-55.21975,-27.95456],[-55.22063,-27.95382],[-55.22232,-27.95465],[-55.22445,-27.95487],[-55.2253,-27.95454],[-55.22603,-27.95501],[-55.22794,-27.95485],[-55.2285,-27.9563],[-55.23112,-27.95836],[-55.23437,-27.95839],[-55.23576,-27.95715],[-55.23726,-27.95672],[-55.23978,-27.95706],[-55.24025,-27.95921],[-55.24213,-27.95965],[-55.2435,-27.95882],[-55.24504,-27.9583],[-55.24569,-27.95768],[-55.24782,-27.95667],[-55.24982,-27.95503],[-55.25026,-27.95392],[-55.25035,-27.95189],[-55.25247,-27.9514],[-55.25427,-27.9499],[-55.25616,-27.94977],[-55.25763,-27.95029],[-55.25996,-27.94865],[-55.26119,-27.94886],[-55.26293,-27.95022],[-55.26506,-27.95078],[-55.2662,-27.9502],[-55.27037,-27.949],[-55.27294,-27.94923],[-55.2737,-27.94821],[-55.27453,-27.94796],[-55.2751,-27.94882],[-55.2772,-27.94945],[-55.27838,-27.94851],[-55.27809,-27.93411],[-55.27777,-27.93292],[-55.2858,-27.93228],[-55.29283,-27.9296],[-55.3005,-27.92529],[-55.30937,-27.92225],[-55.31926,-27.92195],[-55.32728,-27.92674],[-55.33031,-27.93145],[-55.33333,-27.93931],[-55.3353,-27.95025],[-55.33743,-27.95992],[-55.33978,-27.96598],[-55.33685,-27.9663],[-55.3341,-27.96778],[-55.33162,-27.96834],[-55.32906,-27.96979],[-55.32524,-27.97144],[-55.32248,-27.97191],[-55.31982,-27.9718],[-55.31877,-27.97213],[-55.31717,-27.97376],[-55.31539,-27.97652],[-55.31415,-27.97909],[-55.31173,-27.98312],[-55.3109,-27.98563],[-55.31065,-27.98753],[-55.31076,-27.98998],[-55.31199,-27.9925],[-55.31193,-27.99386],[-55.31038,-27.99557],[-55.3083,-27.99612],[-55.30486,-27.99647],[-55.30312,-27.99644],[-55.29944,-27.99588],[-55.29754,-27.99467],[-55.2967,-27.9927],[-55.29671,-27.99091],[-55.29704,-27.98847],[-55.29716,-27.98597],[-55.29676,-27.98315],[-55.29619,-27.98171],[-55.29513,-27.98101],[-55.29357,-27.98075],[-55.2913,-27.98099],[-55.29003,-27.98143],[-55.28639,-27.98332],[-55.28512,-27.9835],[-55.28298,-27.98289],[-55.28091,-27.982],[-55.27938,-27.98202],[-55.27757,-27.9825],[-55.27507,-27.98346],[-55.273,-27.98464],[-55.26945,-27.98792],[-55.2656,-27.98961],[-55.2628,-27.99024],[-55.26069,-27.99051],[-55.25637,-27.99066],[-55.25485,-27.99055],[-55.2536,-27.99089],[-55.25265,-27.9918],[-55.25092,-27.99506],[-55.24949,-27.99913],[-55.2481,-28.00127],[-55.24686,-28.00234],[-55.24416,-28.00298],[-55.24199,-28.00305],[-55.23956,-28.00274],[-55.23379,-28.00288],[-55.2307,-28.00279],[-55.22851,-28.00313],[-55.22257,-28.00302],[-55.21815,-28.00221],[-55.21687,-28.00228],[-55.21468,-28.00308],[-55.21329,-28.00446],[-55.21379,-28.00627],[-55.21485,-28.00709],[-55.21713,-28.00806],[-55.22243,-28.00878],[-55.2244,-28.01015],[-55.22815,-28.01393],[-55.23005,-28.01624],[-55.23267,-28.01683],[-55.23668,-28.01685],[-55.23857,-28.01616],[-55.2415,-28.01611],[-55.24315,-28.01678],[-55.24384,-28.01812],[-55.24409,-28.01952],[-55.24375,-28.02086],[-55.24233,-28.02298],[-55.23971,-28.02421],[-55.23731,-28.02434],[-55.23303,-28.02392],[-55.23139,-28.02414],[-55.22884,-28.02522],[-55.22806,-28.02598],[-55.2275,-28.02745],[-55.22721,-28.03114],[-55.22746,-28.03337],[-55.22675,-28.03543],[-55.22545,-28.03738],[-55.22367,-28.038],[-55.22194,-28.03745],[-55.22084,-28.0359],[-55.2204,-28.03401],[-55.22032,-28.03119],[-55.22055,-28.0288],[-55.22122,-28.02697],[-55.22146,-28.02539],[-55.22063,-28.02348],[-55.21984,-28.02231],[-55.21809,-28.02101],[-55.2148,-28.02006],[-55.20861,-28.01927],[-55.20645,-28.0186],[-55.20227,-28.01658],[-55.1995,-28.01453],[-55.19757,-28.01217],[-55.19444,-28.01093],[-55.19051,-28.01008],[-55.18969,-28.01006],[-55.18745,-28.01072],[-55.18244,-28.01301]]]},"properties":{"codigo":"431630315","name":"Rincão Vermelho","population":921,"households":482,"areaKm2":89.9227,"density":10.2}}]}