{"type":"FeatureCollection","features":[{"type":"Feature","geometry":{"type":"Polygon","coordinates":[[[-53.25005,-28.36705],[-53.24707,-28.36306],[-53.24444,-28.35909],[-53.24535,-28.3593],[-53.24754,-28.3591],[-53.24823,-28.35956],[-53.2503,-28.36227],[-53.25195,-28.36426],[-53.2523,-28.36507],[-53.25233,-28.36585],[-53.2533,-28.3653],[-53.25461,-28.36695],[-53.25475,-28.36789],[-53.25456,-28.3703],[-53.25485,-28.37044],[-53.25427,-28.37134],[-53.25343,-28.3711],[-53.25289,-28.37076],[-53.2529,-28.37051],[-53.25005,-28.36705]]]},"properties":{"codigo":"4316709006","name":"Centro","population":728,"households":334,"areaKm2":0.4621,"density":1575.3}},{"type":"Feature","geometry":{"type":"Polygon","coordinates":[[[-53.24487,-28.37491],[-53.24657,-28.37386],[-53.24708,-28.37382],[-53.24895,-28.37429],[-53.24965,-28.37415],[-53.25032,-28.37348],[-53.2524,-28.37614],[-53.25493,-28.37964],[-53.25643,-28.38195],[-53.258,-28.38419],[-53.25822,-28.3845],[-53.2522,-28.38227],[-53.24927,-28.38119],[-53.2482,-28.37883],[-53.24726,-28.37746],[-53.24487,-28.37491]]]},"properties":{"codigo":"4316709002","name":"Padroeira","population":243,"households":98,"areaKm2":0.6065,"density":400.7}},{"type":"Feature","geometry":{"type":"MultiPolygon","coordinates":[[[[-53.2522,-28.38227],[-53.24811,-28.38391],[-53.24745,-28.3841],[-53.24507,-28.38507],[-53.24436,-28.38581],[-53.24328,-28.38592],[-53.24406,-28.38516],[-53.24367,-28.38433],[-53.24211,-28.38152],[-53.24209,-28.38036],[-53.24235,-28.37974],[-53.24275,-28.37943],[-53.24423,-28.37369],[-53.24429,-28.37363],[-53.24487,-28.37491],[-53.24726,-28.37746],[-53.2482,-28.37883],[-53.24927,-28.38119],[-53.2522,-28.38227]]],[[[-53.24325,-28.38793],[-53.24424,-28.38609],[-53.24602,-28.38817],[-53.24497,-28.38892],[-53.24427,-28.38919],[-53.24325,-28.38793]]]]},"properties":{"codigo":"4316709001","name":"Tiradentes","population":1031,"households":445,"areaKm2":0.627,"density":1644.3}},{"type":"Feature","geometry":{"type":"Polygon","coordinates":[[[-53.25005,-28.36705],[-53.24784,-28.36933],[-53.24698,-28.37009],[-53.24453,-28.37197],[-53.2442,-28.3713],[-53.23926,-28.36794],[-53.24398,-28.36575],[-53.24311,-28.35649],[-53.24304,-28.35624],[-53.24403,-28.35709],[-53.24399,-28.3581],[-53.24444,-28.35909],[-53.24707,-28.36306],[-53.25005,-28.36705]]]},"properties":{"codigo":"4316709007","name":"Morada do Sol","population":1499,"households":651,"areaKm2":0.6425,"density":2333.2}},{"type":"Feature","geometry":{"type":"Polygon","coordinates":[[[-53.25289,-28.37076],[-53.2526,-28.37117],[-53.25032,-28.37348],[-53.24965,-28.37415],[-53.24895,-28.37429],[-53.24708,-28.37382],[-53.24657,-28.37386],[-53.24487,-28.37491],[-53.24429,-28.37363],[-53.24453,-28.37197],[-53.24698,-28.37009],[-53.24784,-28.36933],[-53.25005,-28.36705],[-53.2529,-28.37051],[-53.25289,-28.37076]]]},"properties":{"codigo":"4316709008","name":"Fátima","population":1056,"households":494,"areaKm2":0.3812,"density":2770.5}},{"type":"Feature","geometry":{"type":"Polygon","coordinates":[[[-53.25195,-28.36426],[-53.25562,-28.36214],[-53.25866,-28.36023],[-53.26021,-28.35843],[-53.26432,-28.36055],[-53.26189,-28.3669],[-53.25877,-28.37077],[-53.25818,-28.37444],[-53.25689,-28.37259],[-53.25427,-28.37134],[-53.25485,-28.37044],[-53.25456,-28.3703],[-53.25475,-28.36789],[-53.25461,-28.36695],[-53.2533,-28.3653],[-53.25233,-28.36585],[-53.2523,-28.36507],[-53.25195,-28.36426]]]},"properties":{"codigo":"4316709004","name":"Loeblein","population":551,"households":253,"areaKm2":0.9986,"density":551.8}},{"type":"Feature","geometry":{"type":"Polygon","coordinates":[[[-53.25427,-28.37134],[-53.25689,-28.37259],[-53.25752,-28.37457],[-53.25916,-28.37736],[-53.25939,-28.38233],[-53.25957,-28.38355],[-53.258,-28.38419],[-53.25643,-28.38195],[-53.25493,-28.37964],[-53.2524,-28.37614],[-53.25032,-28.37348],[-53.2526,-28.37117],[-53.25289,-28.37076],[-53.25343,-28.3711],[-53.25427,-28.37134]]]},"properties":{"codigo":"4316709003","name":"Cerutti","population":378,"households":164,"areaKm2":0.6449,"density":586.2}},{"type":"Feature","geometry":{"type":"Polygon","coordinates":[[[-53.24444,-28.35909],[-53.24399,-28.3581],[-53.24403,-28.35709],[-53.24304,-28.35624],[-53.24196,-28.35562],[-53.24052,-28.3551],[-53.23923,-28.3548],[-53.23685,-28.35443],[-53.23902,-28.35005],[-53.24018,-28.34802],[-53.26021,-28.35843],[-53.25866,-28.36023],[-53.25562,-28.36214],[-53.25195,-28.36426],[-53.2503,-28.36227],[-53.24823,-28.35956],[-53.24754,-28.3591],[-53.24535,-28.3593],[-53.24444,-28.35909]]]},"properties":{"codigo":"4316709005","name":"Aparecida","population":1081,"households":493,"areaKm2":1.6277,"density":664.1}}]}