{"type":"FeatureCollection","features":[{"type":"Feature","geometry":{"type":"Polygon","coordinates":[[[-53.80721,-29.72144],[-53.80597,-29.72476],[-53.80519,-29.72631],[-53.80451,-29.72717],[-53.80267,-29.72897],[-53.80182,-29.72997],[-53.79756,-29.73656],[-53.79605,-29.73905],[-53.79412,-29.74201],[-53.79216,-29.74611],[-53.791,-29.74928],[-53.79077,-29.74987],[-53.79018,-29.74887],[-53.78989,-29.748],[-53.78979,-29.7471],[-53.78918,-29.74693],[-53.789,-29.74627],[-53.78845,-29.74549],[-53.78771,-29.74407],[-53.78617,-29.74276],[-53.78506,-29.74259],[-53.78376,-29.74325],[-53.78112,-29.74339],[-53.77937,-29.74295],[-53.7781,-29.74287],[-53.7771,-29.74266],[-53.7782,-29.74078],[-53.77759,-29.73993],[-53.77788,-29.73942],[-53.77799,-29.73829],[-53.7778,-29.73744],[-53.77839,-29.73707],[-53.77902,-29.7371],[-53.77933,-29.73668],[-53.77959,-29.73576],[-53.77942,-29.73481],[-53.77974,-29.73372],[-53.78083,-29.73284],[-53.78098,-29.73182],[-53.7807,-29.73055],[-53.78183,-29.72917],[-53.78123,-29.72857],[-53.78126,-29.72818],[-53.78215,-29.727],[-53.78207,-29.72666],[-53.78281,-29.72609],[-53.78317,-29.72559],[-53.78353,-29.72385],[-53.78331,-29.72326],[-53.78254,-29.72291],[-53.78261,-29.72123],[-53.78199,-29.71989],[-53.78149,-29.71852],[-53.78561,-29.71857],[-53.78564,-29.71724],[-53.78697,-29.71698],[-53.78797,-29.71855],[-53.79226,-29.71853],[-53.79489,-29.71753],[-53.79593,-29.71851],[-53.79735,-29.71896],[-53.79838,-29.71886],[-53.80009,-29.71936],[-53.80115,-29.71945],[-53.8035,-29.72008],[-53.80406,-29.72037],[-53.80475,-29.72133],[-53.80588,-29.72192],[-53.8067,-29.72197],[-53.80721,-29.72144]]]},"properties":{"codigo":"4316907015","name":"Tomazetti","population":2890,"households":1113,"areaKm2":5.5656,"density":519.3}},{"type":"Feature","geometry":{"type":"Polygon","coordinates":[[[-53.81862,-29.67252],[-53.81942,-29.67151],[-53.82062,-29.67067],[-53.82437,-29.66932],[-53.82983,-29.66753],[-53.8298,-29.67415],[-53.83276,-29.6746],[-53.83369,-29.67482],[-53.83456,-29.67474],[-53.83544,-29.67487],[-53.83763,-29.67584],[-53.83872,-29.6756],[-53.83839,-29.67648],[-53.83917,-29.67702],[-53.83928,-29.67773],[-53.83853,-29.67809],[-53.8382,-29.67782],[-53.83719,-29.67773],[-53.83786,-29.67946],[-53.83716,-29.67981],[-53.8347,-29.68047],[-53.83149,-29.68123],[-53.82971,-29.68207],[-53.82986,-29.67988],[-53.83023,-29.67871],[-53.82542,-29.6781],[-53.826,-29.67625],[-53.82557,-29.67621],[-53.82454,-29.67655],[-53.82332,-29.67655],[-53.82307,-29.676],[-53.82186,-29.67513],[-53.82028,-29.67482],[-53.81914,-29.67493],[-53.81768,-29.67433],[-53.81862,-29.67252]]]},"properties":{"codigo":"4316907006","name":"Salgado Filho","population":9729,"households":3668,"areaKm2":1.3894,"density":7002.4}},{"type":"Feature","geometry":{"type":"Polygon","coordinates":[[[-53.82343,-29.70893],[-53.82329,-29.70916],[-53.8222,-29.70969],[-53.81805,-29.71216],[-53.81678,-29.71295],[-53.81301,-29.71501],[-53.81179,-29.71523],[-53.81013,-29.71501],[-53.81362,-29.70758],[-53.81447,-29.70592],[-53.81539,-29.70473],[-53.81711,-29.70583],[-53.81966,-29.7069],[-53.82343,-29.70893]]]},"properties":{"codigo":"4316907042","name":"Uglione","population":1851,"households":967,"areaKm2":0.6862,"density":2697.4}},{"type":"Feature","geometry":{"type":"Polygon","coordinates":[[[-53.80276,-29.70349],[-53.80164,-29.70403],[-53.80121,-29.70439],[-53.80133,-29.70492],[-53.80219,-29.70529],[-53.80062,-29.70808],[-53.79645,-29.70477],[-53.79456,-29.7032],[-53.78671,-29.69616],[-53.78531,-29.69515],[-53.78715,-29.69351],[-53.78796,-29.69247],[-53.78888,-29.6923],[-53.78983,-29.69171],[-53.79038,-29.69246],[-53.79159,-29.69448],[-53.79257,-29.69442],[-53.79294,-29.69416],[-53.79453,-29.69361],[-53.79541,-29.69442],[-53.79603,-29.69472],[-53.79705,-29.69459],[-53.79812,-29.69264],[-53.79842,-29.69242],[-53.80051,-29.69038],[-53.80219,-29.69186],[-53.8046,-29.69424],[-53.80536,-29.69491],[-53.80368,-29.69608],[-53.8029,-29.69535],[-53.80088,-29.6967],[-53.79885,-29.69786],[-53.79869,-29.69853],[-53.79966,-29.69963],[-53.79973,-29.70026],[-53.80035,-29.70105],[-53.8,-29.70143],[-53.80065,-29.70175],[-53.80276,-29.70349]]]},"properties":{"codigo":"4316907003","name":"Nossa Senhora de Lourdes","population":5844,"households":3148,"areaKm2":1.541,"density":3792.4}},{"type":"Feature","geometry":{"type":"Polygon","coordinates":[[[-53.7971,-29.6695],[-53.79585,-29.66961],[-53.79499,-29.66833],[-53.79446,-29.66786],[-53.79389,-29.66676],[-53.79326,-29.66632],[-53.79314,-29.66537],[-53.79261,-29.66489],[-53.7915,-29.66509],[-53.79081,-29.66639],[-53.78943,-29.66715],[-53.78862,-29.66863],[-53.78741,-29.66949],[-53.78741,-29.66996],[-53.78702,-29.67049],[-53.78651,-29.67074],[-53.78604,-29.67153],[-53.78614,-29.6724],[-53.78587,-29.67299],[-53.78585,-29.67385],[-53.7801,-29.67575],[-53.7786,-29.67764],[-53.77806,-29.67845],[-53.77834,-29.67674],[-53.77812,-29.67609],[-53.77631,-29.67474],[-53.77574,-29.67455],[-53.77317,-29.6745],[-53.77254,-29.67375],[-53.77295,-29.67098],[-53.77297,-29.67004],[-53.7728,-29.66901],[-53.77234,-29.66743],[-53.77241,-29.6663],[-53.77285,-29.66588],[-53.77364,-29.66558],[-53.77489,-29.66474],[-53.7755,-29.66375],[-53.7759,-29.66281],[-53.77576,-29.66231],[-53.77502,-29.66131],[-53.77477,-29.65982],[-53.77441,-29.65929],[-53.77601,-29.65893],[-53.77684,-29.65853],[-53.77743,-29.6575],[-53.77797,-29.65725],[-53.77935,-29.65554],[-53.77628,-29.6541],[-53.7747,-29.6508],[-53.78345,-29.64274],[-53.80116,-29.64592],[-53.80208,-29.64379],[-53.80613,-29.64168],[-53.80693,-29.64012],[-53.80817,-29.63905],[-53.80869,-29.63695],[-53.81093,-29.63233],[-53.81268,-29.6297],[-53.81548,-29.62711],[-53.81591,-29.62502],[-53.81896,-29.6223],[-53.81914,-29.6229],[-53.82002,-29.62449],[-53.81975,-29.62506],[-53.81832,-29.62644],[-53.81811,-29.62691],[-53.81853,-29.62809],[-53.8182,-29.62859],[-53.81716,-29.62907],[-53.81598,-29.63034],[-53.8157,-29.63088],[-53.81558,-29.63169],[-53.81578,-29.63244],[-53.81628,-29.63319],[-53.81622,-29.63391],[-53.8149,-29.63487],[-53.81405,-29.63589],[-53.81363,-29.63674],[-53.81365,-29.63719],[-53.81405,-29.6378],[-53.81558,-29.63822],[-53.816,-29.6388],[-53.81584,-29.63948],[-53.81518,-29.64105],[-53.81569,-29.64216],[-53.81525,-29.64306],[-53.81308,-29.64394],[-53.81275,-29.64454],[-53.81283,-29.64495],[-53.81357,-29.64592],[-53.81506,-29.64685],[-53.81547,-29.6476],[-53.81545,-29.64811],[-53.81503,-29.64865],[-53.81281,-29.64936],[-53.81233,-29.65047],[-53.81147,-29.6513],[-53.81038,-29.65126],[-53.80953,-29.65168],[-53.80834,-29.65188],[-53.80777,-29.65248],[-53.80765,-29.65338],[-53.80698,-29.65382],[-53.80565,-29.65338],[-53.80491,-29.65342],[-53.80344,-29.65407],[-53.80276,-29.65488],[-53.80179,-29.65708],[-53.80228,-29.65841],[-53.80194,-29.65906],[-53.80093,-29.65991],[-53.80074,-29.66034],[-53.80077,-29.66143],[-53.80001,-29.66221],[-53.79947,-29.66324],[-53.79805,-29.66369],[-53.79772,-29.66407],[-53.79721,-29.66599],[-53.79735,-29.66888],[-53.7971,-29.6695]]]},"properties":{"codigo":"4316907028","name":"Campestre do Menino Deus","population":2665,"households":1163,"areaKm2":9.5995,"density":277.6}},{"type":"Feature","geometry":{"type":"Polygon","coordinates":[[[-53.8714,-29.7078],[-53.86797,-29.70814],[-53.864,-29.70847],[-53.86135,-29.70849],[-53.85904,-29.70835],[-53.85772,-29.7082],[-53.85435,-29.70757],[-53.85217,-29.70702],[-53.85217,-29.70537],[-53.85209,-29.70241],[-53.85193,-29.69965],[-53.85157,-29.69786],[-53.85167,-29.69589],[-53.85642,-29.69516],[-53.85906,-29.69456],[-53.86357,-29.69314],[-53.86746,-29.69188],[-53.87829,-29.68835],[-53.88162,-29.68739],[-53.8835,-29.68739],[-53.88269,-29.68767],[-53.88308,-29.68971],[-53.88233,-29.69196],[-53.87752,-29.69357],[-53.87282,-29.69519],[-53.87044,-29.69595],[-53.87049,-29.69701],[-53.87094,-29.70258],[-53.8714,-29.7078]]]},"properties":{"codigo":"4316907019","name":"Pinheiro Machado","population":13935,"households":5689,"areaKm2":3.5683,"density":3905.2}},{"type":"Feature","geometry":{"type":"Polygon","coordinates":[[[-53.86744,-29.6881],[-53.86273,-29.6885],[-53.86009,-29.68877],[-53.85868,-29.68882],[-53.85691,-29.68855],[-53.85555,-29.68663],[-53.85491,-29.6856],[-53.85217,-29.68645],[-53.85206,-29.6861],[-53.85029,-29.68673],[-53.84678,-29.68604],[-53.84618,-29.68582],[-53.8477,-29.6817],[-53.84812,-29.68067],[-53.84936,-29.67952],[-53.84998,-29.67907],[-53.85159,-29.67848],[-53.85369,-29.67769],[-53.8555,-29.67621],[-53.8569,-29.67637],[-53.85998,-29.67842],[-53.86108,-29.67873],[-53.86369,-29.6781],[-53.86442,-29.67805],[-53.86612,-29.67844],[-53.86693,-29.67815],[-53.86716,-29.68303],[-53.86736,-29.68503],[-53.86744,-29.6881]]]},"properties":{"codigo":"4316907038","name":"Nova Santa Marta","population":12716,"households":4677,"areaKm2":2.0071,"density":6335.5}},{"type":"Feature","geometry":{"type":"Polygon","coordinates":[[[-53.80721,-29.72144],[-53.80777,-29.72182],[-53.80896,-29.72327],[-53.80908,-29.72437],[-53.81083,-29.72413],[-53.81185,-29.72388],[-53.8134,-29.72331],[-53.81497,-29.72391],[-53.81767,-29.72455],[-53.82444,-29.72345],[-53.82441,-29.72392],[-53.82311,-29.72405],[-53.82374,-29.72509],[-53.82359,-29.7255],[-53.82277,-29.72572],[-53.82316,-29.72687],[-53.82264,-29.72773],[-53.82151,-29.73012],[-53.82104,-29.73188],[-53.82035,-29.73313],[-53.82013,-29.73423],[-53.81919,-29.73633],[-53.81883,-29.73775],[-53.81917,-29.73818],[-53.81974,-29.73833],[-53.81984,-29.739],[-53.81898,-29.74034],[-53.81984,-29.7408],[-53.82042,-29.74131],[-53.82109,-29.74239],[-53.82056,-29.74309],[-53.81568,-29.74333],[-53.81114,-29.74414],[-53.80554,-29.74421],[-53.80438,-29.74414],[-53.80026,-29.74307],[-53.8003,-29.74432],[-53.8002,-29.74578],[-53.80018,-29.74976],[-53.79815,-29.74955],[-53.79657,-29.74969],[-53.79436,-29.75031],[-53.79398,-29.75027],[-53.791,-29.74928],[-53.79216,-29.74611],[-53.79412,-29.74201],[-53.79605,-29.73905],[-53.79756,-29.73656],[-53.80182,-29.72997],[-53.80267,-29.72897],[-53.80451,-29.72717],[-53.80519,-29.72631],[-53.80597,-29.72476],[-53.80721,-29.72144]]]},"properties":{"codigo":"4316907033","name":"Lorenzi","population":6150,"households":2482,"areaKm2":5.1086,"density":1203.9}},{"type":"Feature","geometry":{"type":"Polygon","coordinates":[[[-53.82983,-29.66753],[-53.83114,-29.66706],[-53.83128,-29.66025],[-53.83134,-29.65883],[-53.84009,-29.65907],[-53.84127,-29.66228],[-53.84254,-29.66555],[-53.84257,-29.66636],[-53.84985,-29.66688],[-53.85121,-29.66726],[-53.85294,-29.66796],[-53.85554,-29.66887],[-53.85515,-29.67014],[-53.85457,-29.67044],[-53.85315,-29.6707],[-53.85265,-29.67099],[-53.85193,-29.6724],[-53.85289,-29.67483],[-53.85025,-29.6764],[-53.85159,-29.67848],[-53.84998,-29.67907],[-53.84936,-29.67952],[-53.84873,-29.67865],[-53.84824,-29.6783],[-53.8472,-29.67813],[-53.8462,-29.67851],[-53.84496,-29.67833],[-53.84343,-29.67836],[-53.84238,-29.67773],[-53.84145,-29.67733],[-53.84093,-29.67742],[-53.84009,-29.67837],[-53.83924,-29.67905],[-53.83786,-29.67946],[-53.83719,-29.67773],[-53.8382,-29.67782],[-53.83853,-29.67809],[-53.83928,-29.67773],[-53.83917,-29.67702],[-53.83839,-29.67648],[-53.83872,-29.6756],[-53.83763,-29.67584],[-53.83544,-29.67487],[-53.83456,-29.67474],[-53.83369,-29.67482],[-53.83276,-29.6746],[-53.8298,-29.67415],[-53.82983,-29.66753]]]},"properties":{"codigo":"4316907021","name":"Caturrita","population":4024,"households":1671,"areaKm2":3.3743,"density":1192.5}},{"type":"Feature","geometry":{"type":"Polygon","coordinates":[[[-53.8309,-29.70509],[-53.83221,-29.70417],[-53.83368,-29.70344],[-53.83547,-29.70276],[-53.83894,-29.70145],[-53.84106,-29.70048],[-53.84179,-29.7015],[-53.84369,-29.70359],[-53.84585,-29.70491],[-53.85217,-29.70702],[-53.85218,-29.7079],[-53.85121,-29.71198],[-53.85082,-29.71249],[-53.84983,-29.71195],[-53.84774,-29.71178],[-53.84576,-29.71098],[-53.84044,-29.7106],[-53.8394,-29.71056],[-53.83885,-29.71036],[-53.8352,-29.7087],[-53.83243,-29.70667],[-53.8309,-29.70509]]]},"properties":{"codigo":"4316907039","name":"Renascença","population":2000,"households":1001,"areaKm2":1.435,"density":1393.8}},{"type":"Feature","geometry":{"type":"Polygon","coordinates":[[[-53.77806,-29.67845],[-53.77676,-29.6807],[-53.7771,-29.68135],[-53.77827,-29.6822],[-53.77868,-29.68305],[-53.77866,-29.68357],[-53.77822,-29.68552],[-53.77759,-29.68632],[-53.77588,-29.68757],[-53.77457,-29.68871],[-53.77413,-29.6895],[-53.77404,-29.69005],[-53.77432,-29.6917],[-53.77741,-29.69074],[-53.77862,-29.69014],[-53.78038,-29.68887],[-53.78184,-29.68719],[-53.7829,-29.68553],[-53.7843,-29.68542],[-53.78521,-29.68581],[-53.78582,-29.68558],[-53.78728,-29.68616],[-53.78756,-29.68684],[-53.78813,-29.68704],[-53.7883,-29.68728],[-53.78512,-29.68902],[-53.78452,-29.68977],[-53.78373,-29.69021],[-53.78424,-29.6909],[-53.78487,-29.69126],[-53.78584,-29.69245],[-53.78338,-29.6932],[-53.78473,-29.69492],[-53.78397,-29.69485],[-53.78164,-29.69512],[-53.77879,-29.69594],[-53.77738,-29.69618],[-53.77622,-29.69585],[-53.77557,-29.69538],[-53.77222,-29.69584],[-53.76987,-29.69623],[-53.76866,-29.69629],[-53.76742,-29.69596],[-53.76437,-29.69459],[-53.76361,-29.69315],[-53.76394,-29.69163],[-53.77441,-29.65929],[-53.77477,-29.65982],[-53.77502,-29.66131],[-53.77576,-29.66231],[-53.7759,-29.66281],[-53.7755,-29.66375],[-53.77489,-29.66474],[-53.77364,-29.66558],[-53.77285,-29.66588],[-53.77241,-29.6663],[-53.77234,-29.66743],[-53.7728,-29.66901],[-53.77297,-29.67004],[-53.77295,-29.67098],[-53.77254,-29.67375],[-53.77317,-29.6745],[-53.77574,-29.67455],[-53.77631,-29.67474],[-53.77812,-29.67609],[-53.77834,-29.67674],[-53.77806,-29.67845]]]},"properties":{"codigo":"4316907011","name":"Km Três","population":2389,"households":1002,"areaKm2":3.4306,"density":696.4}},{"type":"Feature","geometry":{"type":"Polygon","coordinates":[[[-53.80051,-29.69038],[-53.79934,-29.68953],[-53.80012,-29.68835],[-53.80071,-29.68728],[-53.80108,-29.68544],[-53.80063,-29.68327],[-53.80077,-29.68157],[-53.80111,-29.68058],[-53.8026,-29.68077],[-53.80563,-29.67932],[-53.80588,-29.67871],[-53.80552,-29.67833],[-53.80642,-29.6779],[-53.81035,-29.67723],[-53.81179,-29.67688],[-53.81196,-29.67725],[-53.81118,-29.67984],[-53.81015,-29.68352],[-53.81386,-29.68425],[-53.81169,-29.69176],[-53.81114,-29.69364],[-53.81009,-29.69558],[-53.80914,-29.69732],[-53.80678,-29.69627],[-53.80536,-29.69491],[-53.8046,-29.69424],[-53.80219,-29.69186],[-53.80051,-29.69038]]]},"properties":{"codigo":"4316907001","name":"Centro","population":18117,"households":13527,"areaKm2":1.9091,"density":9490.1}},{"type":"Feature","geometry":{"type":"Polygon","coordinates":[[[-53.81169,-29.69176],[-53.8131,-29.69233],[-53.81367,-29.6903],[-53.81522,-29.69069],[-53.81567,-29.68905],[-53.81723,-29.68937],[-53.81678,-29.69104],[-53.82057,-29.69188],[-53.81961,-29.69502],[-53.82277,-29.69633],[-53.82203,-29.69908],[-53.8214,-29.6999],[-53.82036,-29.70067],[-53.81968,-29.70024],[-53.81863,-29.70012],[-53.81703,-29.69954],[-53.81661,-29.69866],[-53.81516,-29.69814],[-53.81403,-29.69799],[-53.81245,-29.69726],[-53.81211,-29.69626],[-53.81108,-29.69574],[-53.81009,-29.69558],[-53.81114,-29.69364],[-53.81169,-29.69176]]]},"properties":{"codigo":"4316907037","name":"Nossa Senhora de Fátima","population":8443,"households":5091,"areaKm2":0.8337,"density":10126.6}},{"type":"Feature","geometry":{"type":"Polygon","coordinates":[[[-53.7561,-29.7221],[-53.74806,-29.71825],[-53.73883,-29.71386],[-53.73553,-29.71684],[-53.7355,-29.71794],[-53.73655,-29.72076],[-53.73601,-29.72239],[-53.73457,-29.72414],[-53.73265,-29.72475],[-53.73016,-29.72629],[-53.72623,-29.72837],[-53.72455,-29.72885],[-53.72306,-29.72941],[-53.72062,-29.73064],[-53.71723,-29.73363],[-53.71452,-29.73584],[-53.71084,-29.73341],[-53.70928,-29.73065],[-53.70778,-29.72766],[-53.7073,-29.72504],[-53.70705,-29.72457],[-53.70498,-29.72261],[-53.70278,-29.71922],[-53.70197,-29.71716],[-53.70113,-29.71725],[-53.69964,-29.71798],[-53.69855,-29.71804],[-53.69688,-29.71788],[-53.69612,-29.71794],[-53.69465,-29.71864],[-53.69394,-29.71973],[-53.69219,-29.72175],[-53.69083,-29.72268],[-53.69019,-29.72272],[-53.68954,-29.72309],[-53.68794,-29.72316],[-53.68593,-29.7226],[-53.68242,-29.72069],[-53.68042,-29.71996],[-53.6776,-29.7191],[-53.6679,-29.71628],[-53.6696,-29.71167],[-53.6703,-29.71041],[-53.67189,-29.70846],[-53.67364,-29.7071],[-53.6765,-29.7054],[-53.67739,-29.70501],[-53.68001,-29.7043],[-53.68512,-29.70343],[-53.69044,-29.70248],[-53.69255,-29.70215],[-53.7079,-29.69952],[-53.71008,-29.69887],[-53.70862,-29.69742],[-53.70926,-29.69748],[-53.71006,-29.69695],[-53.71113,-29.69682],[-53.71141,-29.69631],[-53.71311,-29.69591],[-53.7135,-29.69512],[-53.71316,-29.69461],[-53.71459,-29.69456],[-53.71554,-29.69473],[-53.71634,-29.69444],[-53.71735,-29.69486],[-53.71717,-29.69353],[-53.71807,-29.69255],[-53.71813,-29.69172],[-53.71906,-29.69149],[-53.71969,-29.69093],[-53.72108,-29.69101],[-53.72248,-29.69074],[-53.72302,-29.6901],[-53.72439,-29.69072],[-53.7243,-29.69009],[-53.7268,-29.68988],[-53.72875,-29.69096],[-53.72958,-29.69172],[-53.73059,-29.69327],[-53.73116,-29.69464],[-53.73189,-29.69459],[-53.73283,-29.69412],[-53.73344,-29.69338],[-53.73552,-29.69667],[-53.73827,-29.69536],[-53.73908,-29.69506],[-53.73885,-29.69768],[-53.73983,-29.69749],[-53.73968,-29.70119],[-53.73844,-29.70107],[-53.738,-29.70582],[-53.73931,-29.70603],[-53.7442,-29.70698],[-53.74621,-29.70729],[-53.75009,-29.70748],[-53.7559,-29.70772],[-53.75556,-29.7084],[-53.75468,-29.70942],[-53.75436,-29.71027],[-53.75309,-29.71191],[-53.75309,-29.71272],[-53.75289,-29.7142],[-53.75299,-29.71557],[-53.75268,-29.71615],[-53.75284,-29.7169],[-53.75384,-29.71759],[-53.7561,-29.7221]]]},"properties":{"codigo":"4316907023","name":"Camobi","population":25891,"households":13841,"areaKm2":20.2302,"density":1279.8}},{"type":"Feature","geometry":{"type":"Polygon","coordinates":[[[-53.83786,-29.67946],[-53.83924,-29.67905],[-53.84009,-29.67837],[-53.84093,-29.67742],[-53.84145,-29.67733],[-53.84238,-29.67773],[-53.84343,-29.67836],[-53.84496,-29.67833],[-53.8462,-29.67851],[-53.8472,-29.67813],[-53.84824,-29.6783],[-53.84873,-29.67865],[-53.84936,-29.67952],[-53.84812,-29.68067],[-53.8477,-29.6817],[-53.84618,-29.68582],[-53.8444,-29.69022],[-53.84404,-29.69262],[-53.84115,-29.69293],[-53.83993,-29.69327],[-53.83914,-29.69321],[-53.83809,-29.69263],[-53.83526,-29.69025],[-53.83384,-29.68967],[-53.83228,-29.68936],[-53.83053,-29.68912],[-53.8261,-29.68861],[-53.82294,-29.68889],[-53.82146,-29.68856],[-53.82239,-29.68611],[-53.82371,-29.6826],[-53.82432,-29.68145],[-53.82908,-29.68239],[-53.82971,-29.68207],[-53.83149,-29.68123],[-53.8347,-29.68047],[-53.83716,-29.67981],[-53.83786,-29.67946]]]},"properties":{"codigo":"4316907017","name":"Passo D'Areia","population":7327,"households":3241,"areaKm2":2.6593,"density":2755.2}},{"type":"Feature","geometry":{"type":"Polygon","coordinates":[[[-53.76987,-29.69623],[-53.77028,-29.6995],[-53.76842,-29.7006],[-53.76975,-29.70136],[-53.77094,-29.70086],[-53.77182,-29.70099],[-53.77399,-29.70157],[-53.77536,-29.70245],[-53.77635,-29.702],[-53.77766,-29.70372],[-53.77667,-29.70424],[-53.77664,-29.70528],[-53.77597,-29.70548],[-53.77477,-29.70613],[-53.77577,-29.70784],[-53.77587,-29.70829],[-53.77362,-29.70841],[-53.76682,-29.70815],[-53.76267,-29.70802],[-53.7559,-29.70772],[-53.75009,-29.70748],[-53.74621,-29.70729],[-53.7442,-29.70698],[-53.73931,-29.70603],[-53.738,-29.70582],[-53.73844,-29.70107],[-53.73968,-29.70119],[-53.73983,-29.69749],[-53.73885,-29.69768],[-53.73908,-29.69506],[-53.73989,-29.69476],[-53.7412,-29.69463],[-53.74687,-29.69441],[-53.75044,-29.69416],[-53.75293,-29.69405],[-53.75723,-29.69414],[-53.76265,-29.69429],[-53.76437,-29.69459],[-53.76742,-29.69596],[-53.76866,-29.69629],[-53.76987,-29.69623]]]},"properties":{"codigo":"4316907012","name":"São José","population":6108,"households":2478,"areaKm2":4.7689,"density":1280.8}},{"type":"Feature","geometry":{"type":"Polygon","coordinates":[[[-53.86746,-29.69188],[-53.86741,-29.68975],[-53.86744,-29.6881],[-53.86736,-29.68503],[-53.86716,-29.68303],[-53.86693,-29.67815],[-53.86612,-29.67844],[-53.86442,-29.67805],[-53.86369,-29.6781],[-53.86108,-29.67873],[-53.85998,-29.67842],[-53.8569,-29.67637],[-53.8555,-29.67621],[-53.85369,-29.67769],[-53.85159,-29.67848],[-53.85025,-29.6764],[-53.85289,-29.67483],[-53.85193,-29.6724],[-53.85265,-29.67099],[-53.85315,-29.6707],[-53.85457,-29.67044],[-53.85515,-29.67014],[-53.85554,-29.66887],[-53.85723,-29.66919],[-53.85842,-29.66928],[-53.86034,-29.6692],[-53.86167,-29.66898],[-53.86325,-29.66845],[-53.88074,-29.66224],[-53.8842,-29.66103],[-53.88845,-29.6596],[-53.89063,-29.65881],[-53.89201,-29.65852],[-53.8922,-29.65911],[-53.89214,-29.65977],[-53.89135,-29.66041],[-53.89033,-29.66192],[-53.8891,-29.66302],[-53.8885,-29.66218],[-53.88812,-29.66224],[-53.88848,-29.66421],[-53.88785,-29.6646],[-53.88812,-29.66553],[-53.88879,-29.66584],[-53.88904,-29.66636],[-53.88848,-29.66701],[-53.88856,-29.66777],[-53.88844,-29.66857],[-53.8875,-29.66926],[-53.88677,-29.66948],[-53.88611,-29.66907],[-53.88517,-29.6688],[-53.88376,-29.66907],[-53.88338,-29.6693],[-53.88319,-29.67014],[-53.88331,-29.67057],[-53.88417,-29.67132],[-53.88406,-29.6716],[-53.88431,-29.67279],[-53.88432,-29.67349],[-53.88483,-29.67528],[-53.8854,-29.67645],[-53.88531,-29.67778],[-53.88692,-29.68067],[-53.88799,-29.68217],[-53.88879,-29.68272],[-53.88984,-29.68285],[-53.89071,-29.68369],[-53.89016,-29.6846],[-53.89041,-29.68564],[-53.89009,-29.68644],[-53.89027,-29.68713],[-53.89185,-29.6883],[-53.89208,-29.68898],[-53.88847,-29.6884],[-53.88418,-29.68743],[-53.8835,-29.68739],[-53.88162,-29.68739],[-53.87829,-29.68835],[-53.86746,-29.69188]]]},"properties":{"codigo":"4316907025","name":"Agro-Industrial","population":1075,"households":410,"areaKm2":7.0573,"density":152.3}},{"type":"Feature","geometry":{"type":"Polygon","coordinates":[[[-53.81013,-29.71501],[-53.80871,-29.71437],[-53.80491,-29.71147],[-53.80062,-29.70808],[-53.80219,-29.70529],[-53.80133,-29.70492],[-53.80121,-29.70439],[-53.80164,-29.70403],[-53.80276,-29.70349],[-53.8046,-29.70281],[-53.80563,-29.70349],[-53.80692,-29.70112],[-53.80914,-29.69732],[-53.81009,-29.69558],[-53.81108,-29.69574],[-53.81211,-29.69626],[-53.81245,-29.69726],[-53.81403,-29.69799],[-53.81516,-29.69814],[-53.81661,-29.69866],[-53.81703,-29.69954],[-53.81863,-29.70012],[-53.81968,-29.70024],[-53.82036,-29.70067],[-53.81697,-29.70321],[-53.81539,-29.70473],[-53.81447,-29.70592],[-53.81362,-29.70758],[-53.81013,-29.71501]]]},"properties":{"codigo":"4316907004","name":"Nossa Senhora Medianeira","population":8912,"households":4376,"areaKm2":1.866,"density":4776}},{"type":"Feature","geometry":{"type":"Polygon","coordinates":[[[-53.85167,-29.69589],[-53.84953,-29.69621],[-53.84794,-29.69662],[-53.8454,-29.69795],[-53.84209,-29.69984],[-53.84106,-29.70048],[-53.83894,-29.70145],[-53.83547,-29.70276],[-53.83569,-29.70154],[-53.83558,-29.69895],[-53.83569,-29.69812],[-53.83657,-29.69698],[-53.83872,-29.69553],[-53.83964,-29.69447],[-53.83993,-29.69327],[-53.84115,-29.69293],[-53.84404,-29.69262],[-53.8444,-29.69022],[-53.84618,-29.68582],[-53.84678,-29.68604],[-53.85029,-29.68673],[-53.85206,-29.6861],[-53.85217,-29.68645],[-53.85491,-29.6856],[-53.85555,-29.68663],[-53.85691,-29.68855],[-53.85868,-29.68882],[-53.86009,-29.68877],[-53.86273,-29.6885],[-53.86744,-29.6881],[-53.86741,-29.68975],[-53.86746,-29.69188],[-53.86357,-29.69314],[-53.85906,-29.69456],[-53.85642,-29.69516],[-53.85167,-29.69589]]]},"properties":{"codigo":"4316907018","name":"Juscelino Kubitschek","population":12180,"households":5707,"areaKm2":2.466,"density":4939.2}},{"type":"Feature","geometry":{"type":"Polygon","coordinates":[[[-53.80009,-29.71936],[-53.80095,-29.71774],[-53.80167,-29.71535],[-53.80251,-29.7156],[-53.80324,-29.71399],[-53.80491,-29.71147],[-53.80871,-29.71437],[-53.81013,-29.71501],[-53.80767,-29.72024],[-53.80721,-29.72144],[-53.8067,-29.72197],[-53.80588,-29.72192],[-53.80475,-29.72133],[-53.80406,-29.72037],[-53.8035,-29.72008],[-53.80115,-29.71945],[-53.80009,-29.71936]]]},"properties":{"codigo":"4316907043","name":"Dom Antônio Reis","population":1911,"households":756,"areaKm2":0.6046,"density":3160.5}},{"type":"Feature","geometry":{"type":"Polygon","coordinates":[[[-53.82542,-29.6781],[-53.82489,-29.67992],[-53.82486,-29.68032],[-53.8216,-29.67974],[-53.82004,-29.67911],[-53.81871,-29.67887],[-53.81618,-29.67907],[-53.81529,-29.67869],[-53.81486,-29.67896],[-53.81426,-29.67842],[-53.8136,-29.67752],[-53.81294,-29.6771],[-53.81225,-29.67697],[-53.81497,-29.67653],[-53.81594,-29.67631],[-53.81659,-29.67594],[-53.81728,-29.67521],[-53.81768,-29.67433],[-53.81914,-29.67493],[-53.82028,-29.67482],[-53.82186,-29.67513],[-53.82307,-29.676],[-53.82332,-29.67655],[-53.82454,-29.67655],[-53.82557,-29.67621],[-53.826,-29.67625],[-53.82542,-29.6781]]]},"properties":{"codigo":"4316907029","name":"Carolina","population":2616,"households":1173,"areaKm2":0.4608,"density":5676.6}},{"type":"Feature","geometry":{"type":"Polygon","coordinates":[[[-53.82057,-29.69188],[-53.82146,-29.68856],[-53.82294,-29.68889],[-53.8261,-29.68861],[-53.83053,-29.68912],[-53.83228,-29.68936],[-53.83384,-29.68967],[-53.83526,-29.69025],[-53.83809,-29.69263],[-53.83914,-29.69321],[-53.83993,-29.69327],[-53.83964,-29.69447],[-53.83872,-29.69553],[-53.83657,-29.69698],[-53.83569,-29.69812],[-53.83348,-29.69754],[-53.83356,-29.69683],[-53.83158,-29.69591],[-53.83127,-29.69683],[-53.82926,-29.69633],[-53.82948,-29.69501],[-53.82346,-29.69389],[-53.82277,-29.69633],[-53.81961,-29.69502],[-53.82057,-29.69188]]]},"properties":{"codigo":"4316907035","name":"Noal","population":7274,"households":3081,"areaKm2":1.2578,"density":5782.9}},{"type":"Feature","geometry":{"type":"Polygon","coordinates":[[[-53.81386,-29.68425],[-53.81696,-29.6849],[-53.82239,-29.68611],[-53.82146,-29.68856],[-53.82057,-29.69188],[-53.81678,-29.69104],[-53.81723,-29.68937],[-53.81567,-29.68905],[-53.81522,-29.69069],[-53.81367,-29.6903],[-53.8131,-29.69233],[-53.81169,-29.69176],[-53.81386,-29.68425]]]},"properties":{"codigo":"4316907027","name":"Bonfim","population":6748,"households":4715,"areaKm2":0.5578,"density":12096.8}},{"type":"Feature","geometry":{"type":"Polygon","coordinates":[[[-53.81862,-29.67252],[-53.81798,-29.67245],[-53.81579,-29.6726],[-53.81619,-29.67035],[-53.81486,-29.66946],[-53.81458,-29.66811],[-53.8143,-29.6674],[-53.81337,-29.66803],[-53.81203,-29.66159],[-53.81226,-29.66088],[-53.81226,-29.659],[-53.81705,-29.65889],[-53.81847,-29.65836],[-53.8262,-29.65865],[-53.83051,-29.65884],[-53.83134,-29.65883],[-53.83128,-29.66025],[-53.83114,-29.66706],[-53.82983,-29.66753],[-53.82437,-29.66932],[-53.82062,-29.67067],[-53.81942,-29.67151],[-53.81862,-29.67252]]]},"properties":{"codigo":"4316907007","name":"Chácara das Flores","population":3915,"households":1547,"areaKm2":2.1822,"density":1794.1}},{"type":"Feature","geometry":{"type":"Polygon","coordinates":[[[-53.78585,-29.67385],[-53.78573,-29.67475],[-53.78502,-29.67563],[-53.78564,-29.67625],[-53.78606,-29.6773],[-53.78776,-29.6785],[-53.78815,-29.67922],[-53.78896,-29.67878],[-53.79114,-29.67839],[-53.79278,-29.67846],[-53.79388,-29.67876],[-53.79367,-29.68],[-53.79309,-29.68111],[-53.79276,-29.68269],[-53.7926,-29.68579],[-53.79253,-29.68664],[-53.7889,-29.68639],[-53.78813,-29.68704],[-53.78756,-29.68684],[-53.78728,-29.68616],[-53.78582,-29.68558],[-53.78521,-29.68581],[-53.7843,-29.68542],[-53.7829,-29.68553],[-53.78184,-29.68719],[-53.78038,-29.68887],[-53.77862,-29.69014],[-53.77741,-29.69074],[-53.77432,-29.6917],[-53.77404,-29.69005],[-53.77413,-29.6895],[-53.77457,-29.68871],[-53.77588,-29.68757],[-53.77759,-29.68632],[-53.77822,-29.68552],[-53.77866,-29.68357],[-53.77868,-29.68305],[-53.77827,-29.6822],[-53.7771,-29.68135],[-53.77676,-29.6807],[-53.77806,-29.67845],[-53.7786,-29.67764],[-53.7801,-29.67575],[-53.78585,-29.67385]]]},"properties":{"codigo":"4316907010","name":"Presidente João Goulart","population":5522,"households":2363,"areaKm2":1.7798,"density":3102.6}},{"type":"Feature","geometry":{"type":"Polygon","coordinates":[[[-53.80012,-29.68835],[-53.7983,-29.6875],[-53.79726,-29.68782],[-53.79719,-29.68731],[-53.79649,-29.68698],[-53.7953,-29.68665],[-53.79509,-29.68586],[-53.79514,-29.68509],[-53.79411,-29.68523],[-53.79397,-29.68569],[-53.7926,-29.68579],[-53.79276,-29.68269],[-53.79309,-29.68111],[-53.79367,-29.68],[-53.79388,-29.67876],[-53.79853,-29.67989],[-53.80111,-29.68058],[-53.80077,-29.68157],[-53.80063,-29.68327],[-53.80108,-29.68544],[-53.80071,-29.68728],[-53.80012,-29.68835]]]},"properties":{"codigo":"4316907034","name":"Menino Jesus","population":5363,"households":2765,"areaKm2":0.6222,"density":8620}},{"type":"Feature","geometry":{"type":"Polygon","coordinates":[[[-53.82343,-29.70893],[-53.82388,-29.70784],[-53.82424,-29.70738],[-53.82529,-29.70794],[-53.82567,-29.70824],[-53.82746,-29.70736],[-53.8309,-29.70509],[-53.83243,-29.70667],[-53.83193,-29.70701],[-53.83098,-29.7094],[-53.83051,-29.71029],[-53.82932,-29.71311],[-53.82833,-29.71472],[-53.82801,-29.71604],[-53.82764,-29.71642],[-53.82641,-29.71896],[-53.826,-29.72112],[-53.82579,-29.7215],[-53.82445,-29.72191],[-53.8237,-29.72226],[-53.82351,-29.72273],[-53.82444,-29.72345],[-53.81767,-29.72455],[-53.81497,-29.72391],[-53.8134,-29.72331],[-53.81185,-29.72388],[-53.81083,-29.72413],[-53.80908,-29.72437],[-53.80896,-29.72327],[-53.80777,-29.72182],[-53.80721,-29.72144],[-53.80767,-29.72024],[-53.81013,-29.71501],[-53.81179,-29.71523],[-53.81301,-29.71501],[-53.81678,-29.71295],[-53.81805,-29.71216],[-53.8222,-29.70969],[-53.82329,-29.70916],[-53.82343,-29.70893]]]},"properties":{"codigo":"4316907014","name":"Urlândia","population":8609,"households":3836,"areaKm2":2.6077,"density":3301.3}},{"type":"Feature","geometry":{"type":"Polygon","coordinates":[[[-53.81539,-29.70473],[-53.81697,-29.70321],[-53.82036,-29.70067],[-53.8214,-29.6999],[-53.82203,-29.69908],[-53.82586,-29.70092],[-53.82598,-29.70127],[-53.82582,-29.70255],[-53.82543,-29.70317],[-53.82548,-29.70378],[-53.82525,-29.70432],[-53.82542,-29.70495],[-53.82529,-29.70794],[-53.82424,-29.70738],[-53.82388,-29.70784],[-53.82343,-29.70893],[-53.81966,-29.7069],[-53.81711,-29.70583],[-53.81539,-29.70473]]]},"properties":{"codigo":"4316907031","name":"Duque de Caxias","population":2840,"households":1406,"areaKm2":0.6328,"density":4488}},{"type":"Feature","geometry":{"type":"Polygon","coordinates":[[[-53.8714,-29.7078],[-53.87715,-29.70729],[-53.87928,-29.70728],[-53.8818,-29.70766],[-53.8832,-29.70805],[-53.88542,-29.70889],[-53.88925,-29.71067],[-53.88855,-29.71155],[-53.88734,-29.71195],[-53.88681,-29.7127],[-53.88713,-29.71379],[-53.8877,-29.7143],[-53.88827,-29.71562],[-53.88829,-29.71605],[-53.88692,-29.71726],[-53.88476,-29.71864],[-53.88427,-29.71993],[-53.88288,-29.72047],[-53.88181,-29.72036],[-53.88014,-29.72052],[-53.87677,-29.72235],[-53.87464,-29.7241],[-53.87402,-29.72434],[-53.87318,-29.72493],[-53.8727,-29.72653],[-53.87235,-29.72713],[-53.87136,-29.72728],[-53.87026,-29.72782],[-53.86872,-29.72837],[-53.86845,-29.72872],[-53.86744,-29.72787],[-53.86689,-29.72713],[-53.86671,-29.72659],[-53.86613,-29.72595],[-53.86432,-29.72448],[-53.86254,-29.7237],[-53.8601,-29.7232],[-53.85832,-29.72338],[-53.85631,-29.72245],[-53.85399,-29.72071],[-53.85294,-29.72002],[-53.85058,-29.71772],[-53.85004,-29.71759],[-53.85038,-29.71623],[-53.85048,-29.71499],[-53.85022,-29.71354],[-53.85082,-29.71249],[-53.85121,-29.71198],[-53.85218,-29.7079],[-53.85217,-29.70702],[-53.85435,-29.70757],[-53.85772,-29.7082],[-53.85904,-29.70835],[-53.86135,-29.70849],[-53.864,-29.70847],[-53.86797,-29.70814],[-53.8714,-29.7078]]]},"properties":{"codigo":"4316907026","name":"Boi Morto","population":2890,"households":1250,"areaKm2":5.8551,"density":493.6}},{"type":"Feature","geometry":{"type":"Polygon","coordinates":[[[-53.85217,-29.70702],[-53.84585,-29.70491],[-53.84369,-29.70359],[-53.84179,-29.7015],[-53.84106,-29.70048],[-53.84209,-29.69984],[-53.8454,-29.69795],[-53.84794,-29.69662],[-53.84953,-29.69621],[-53.85167,-29.69589],[-53.85157,-29.69786],[-53.85193,-29.69965],[-53.85209,-29.70241],[-53.85217,-29.70537],[-53.85217,-29.70702]]]},"properties":{"codigo":"4316907040","name":"São João","population":1738,"households":728,"areaKm2":0.8247,"density":2107.5}},{"type":"Feature","geometry":{"type":"Polygon","coordinates":[[[-53.78531,-29.69515],[-53.78473,-29.69492],[-53.78338,-29.6932],[-53.78584,-29.69245],[-53.78487,-29.69126],[-53.78424,-29.6909],[-53.78373,-29.69021],[-53.78452,-29.68977],[-53.78512,-29.68902],[-53.7883,-29.68728],[-53.78813,-29.68704],[-53.7889,-29.68639],[-53.79253,-29.68664],[-53.7926,-29.68579],[-53.79397,-29.68569],[-53.79411,-29.68523],[-53.79514,-29.68509],[-53.79509,-29.68586],[-53.7953,-29.68665],[-53.79649,-29.68698],[-53.79719,-29.68731],[-53.79726,-29.68782],[-53.7983,-29.6875],[-53.80012,-29.68835],[-53.79934,-29.68953],[-53.80051,-29.69038],[-53.79842,-29.69242],[-53.79812,-29.69264],[-53.79705,-29.69459],[-53.79603,-29.69472],[-53.79541,-29.69442],[-53.79453,-29.69361],[-53.79294,-29.69416],[-53.79257,-29.69442],[-53.79159,-29.69448],[-53.79038,-29.69246],[-53.78983,-29.69171],[-53.78888,-29.6923],[-53.78796,-29.69247],[-53.78715,-29.69351],[-53.78531,-29.69515]]]},"properties":{"codigo":"4316907002","name":"Nossa Senhora das Dores","population":4935,"households":2839,"areaKm2":1.0693,"density":4615.3}},{"type":"Feature","geometry":{"type":"Polygon","coordinates":[[[-53.76437,-29.69459],[-53.76265,-29.69429],[-53.75723,-29.69414],[-53.75293,-29.69405],[-53.75044,-29.69416],[-53.74687,-29.69441],[-53.7412,-29.69463],[-53.73989,-29.69476],[-53.73908,-29.69506],[-53.73827,-29.69536],[-53.73552,-29.69667],[-53.73344,-29.69338],[-53.73283,-29.69412],[-53.73189,-29.69459],[-53.73116,-29.69464],[-53.73059,-29.69327],[-53.72958,-29.69172],[-53.72875,-29.69096],[-53.7268,-29.68988],[-53.7243,-29.69009],[-53.72435,-29.68985],[-53.7263,-29.68783],[-53.72685,-29.68764],[-53.72702,-29.68721],[-53.7267,-29.68596],[-53.72705,-29.68526],[-53.72869,-29.68376],[-53.72973,-29.68247],[-53.73018,-29.68243],[-53.73128,-29.6815],[-53.73249,-29.68119],[-53.7335,-29.68138],[-53.73358,-29.68084],[-53.73493,-29.67978],[-53.73573,-29.67999],[-53.73661,-29.6806],[-53.73779,-29.68053],[-53.73912,-29.681],[-53.74003,-29.6809],[-53.74006,-29.68179],[-53.74158,-29.68196],[-53.74207,-29.68249],[-53.74284,-29.6821],[-53.74329,-29.68258],[-53.74429,-29.68244],[-53.74497,-29.68289],[-53.74628,-29.68322],[-53.74803,-29.68237],[-53.74911,-29.68273],[-53.75084,-29.68247],[-53.75188,-29.68317],[-53.75325,-29.68337],[-53.75397,-29.68382],[-53.75494,-29.68642],[-53.75589,-29.68615],[-53.75614,-29.68663],[-53.7567,-29.68689],[-53.75749,-29.68633],[-53.75827,-29.68701],[-53.75796,-29.68896],[-53.75887,-29.68973],[-53.76069,-29.69042],[-53.76178,-29.69117],[-53.76325,-29.69161],[-53.76394,-29.69163],[-53.76361,-29.69315],[-53.76437,-29.69459]]]},"properties":{"codigo":"4316907022","name":"Pé de Platano","population":2532,"households":1027,"areaKm2":4.1123,"density":615.7}},{"type":"Feature","geometry":{"type":"Polygon","coordinates":[[[-53.7771,-29.74266],[-53.7756,-29.74172],[-53.77435,-29.7413],[-53.77247,-29.7411],[-53.76898,-29.74199],[-53.76706,-29.74164],[-53.76493,-29.74113],[-53.76357,-29.74037],[-53.76339,-29.73958],[-53.76352,-29.73858],[-53.76408,-29.73748],[-53.76465,-29.73742],[-53.76488,-29.73689],[-53.76494,-29.73588],[-53.76475,-29.73545],[-53.76526,-29.73403],[-53.76405,-29.73388],[-53.7637,-29.7334],[-53.76441,-29.73271],[-53.7641,-29.73239],[-53.76411,-29.73163],[-53.76462,-29.73104],[-53.76422,-29.73022],[-53.76438,-29.72945],[-53.76394,-29.72855],[-53.76353,-29.72837],[-53.76312,-29.72748],[-53.76227,-29.72684],[-53.76258,-29.72575],[-53.76313,-29.72545],[-53.7638,-29.7243],[-53.76382,-29.72388],[-53.76322,-29.72344],[-53.76293,-29.72289],[-53.76183,-29.72193],[-53.76085,-29.72176],[-53.76028,-29.72102],[-53.75889,-29.72153],[-53.758,-29.72206],[-53.75679,-29.72196],[-53.7561,-29.7221],[-53.75384,-29.71759],[-53.75284,-29.7169],[-53.75268,-29.71615],[-53.75299,-29.71557],[-53.75289,-29.7142],[-53.75309,-29.71272],[-53.75309,-29.71191],[-53.75436,-29.71027],[-53.75468,-29.70942],[-53.75556,-29.7084],[-53.7559,-29.70772],[-53.76267,-29.70802],[-53.76682,-29.70815],[-53.77362,-29.70841],[-53.77587,-29.70829],[-53.78169,-29.70773],[-53.78376,-29.70758],[-53.78462,-29.70743],[-53.78582,-29.70699],[-53.78769,-29.7097],[-53.78678,-29.71077],[-53.78589,-29.71089],[-53.78538,-29.71114],[-53.78353,-29.71247],[-53.78394,-29.71293],[-53.78513,-29.71308],[-53.78612,-29.71294],[-53.78574,-29.71494],[-53.78348,-29.7146],[-53.78273,-29.71465],[-53.78248,-29.71574],[-53.78279,-29.71652],[-53.78195,-29.71717],[-53.78149,-29.71852],[-53.78199,-29.71989],[-53.78261,-29.72123],[-53.78254,-29.72291],[-53.78331,-29.72326],[-53.78353,-29.72385],[-53.78317,-29.72559],[-53.78281,-29.72609],[-53.78207,-29.72666],[-53.78215,-29.727],[-53.78126,-29.72818],[-53.78123,-29.72857],[-53.78183,-29.72917],[-53.7807,-29.73055],[-53.78098,-29.73182],[-53.78083,-29.73284],[-53.77974,-29.73372],[-53.77942,-29.73481],[-53.77959,-29.73576],[-53.77933,-29.73668],[-53.77902,-29.7371],[-53.77839,-29.73707],[-53.7778,-29.73744],[-53.77799,-29.73829],[-53.77788,-29.73942],[-53.77759,-29.73993],[-53.7782,-29.74078],[-53.7771,-29.74266]]]},"properties":{"codigo":"4316907032","name":"João Luiz Pozzobon","population":10564,"households":4319,"areaKm2":7.9961,"density":1321.1}},{"type":"Feature","geometry":{"type":"Polygon","coordinates":[[[-53.8835,-29.68739],[-53.88418,-29.68743],[-53.88847,-29.6884],[-53.89208,-29.68898],[-53.89153,-29.68996],[-53.89097,-29.69016],[-53.88988,-29.69015],[-53.88994,-29.69074],[-53.88965,-29.69129],[-53.89052,-29.69226],[-53.89031,-29.69288],[-53.88962,-29.6937],[-53.88946,-29.69425],[-53.89056,-29.6947],[-53.89077,-29.69507],[-53.89075,-29.69646],[-53.89012,-29.69765],[-53.89041,-29.69892],[-53.89013,-29.6999],[-53.88923,-29.70035],[-53.8891,-29.70115],[-53.88955,-29.70187],[-53.88936,-29.70234],[-53.88926,-29.70358],[-53.88983,-29.70411],[-53.89006,-29.70482],[-53.88993,-29.70535],[-53.89025,-29.70576],[-53.8898,-29.70634],[-53.8906,-29.70706],[-53.89082,-29.70775],[-53.89057,-29.70847],[-53.88942,-29.70988],[-53.88925,-29.71067],[-53.88542,-29.70889],[-53.8832,-29.70805],[-53.8818,-29.70766],[-53.87928,-29.70728],[-53.87715,-29.70729],[-53.8714,-29.7078],[-53.87094,-29.70258],[-53.87049,-29.69701],[-53.87044,-29.69595],[-53.87282,-29.69519],[-53.87752,-29.69357],[-53.88233,-29.69196],[-53.88308,-29.68971],[-53.88269,-29.68767],[-53.8835,-29.68739]]]},"properties":{"codigo":"4316907041","name":"Tancredo Neves","population":9494,"households":4061,"areaKm2":3.4276,"density":2769.8}},{"type":"Feature","geometry":{"type":"Polygon","coordinates":[[[-53.82971,-29.68207],[-53.82908,-29.68239],[-53.82432,-29.68145],[-53.82486,-29.68032],[-53.82489,-29.67992],[-53.82542,-29.6781],[-53.83023,-29.67871],[-53.82986,-29.67988],[-53.82971,-29.68207]]]},"properties":{"codigo":"4316907030","name":"Divina Providência","population":1176,"households":431,"areaKm2":0.1944,"density":6049.6}},{"type":"Feature","geometry":{"type":"Polygon","coordinates":[[[-53.80536,-29.69491],[-53.80678,-29.69627],[-53.80914,-29.69732],[-53.80692,-29.70112],[-53.80563,-29.70349],[-53.8046,-29.70281],[-53.80276,-29.70349],[-53.80065,-29.70175],[-53.8,-29.70143],[-53.80035,-29.70105],[-53.79973,-29.70026],[-53.79966,-29.69963],[-53.79869,-29.69853],[-53.79885,-29.69786],[-53.80088,-29.6967],[-53.8029,-29.69535],[-53.80368,-29.69608],[-53.80536,-29.69491]]]},"properties":{"codigo":"4316907036","name":"Nonoai","population":3895,"households":2154,"areaKm2":0.5849,"density":6659.6}},{"type":"Feature","geometry":{"type":"Polygon","coordinates":[[[-53.81179,-29.67688],[-53.81225,-29.67697],[-53.81294,-29.6771],[-53.8136,-29.67752],[-53.81426,-29.67842],[-53.81486,-29.67896],[-53.81529,-29.67869],[-53.81618,-29.67907],[-53.81871,-29.67887],[-53.82004,-29.67911],[-53.8216,-29.67974],[-53.82486,-29.68032],[-53.82432,-29.68145],[-53.82371,-29.6826],[-53.82239,-29.68611],[-53.81696,-29.6849],[-53.81386,-29.68425],[-53.81015,-29.68352],[-53.81118,-29.67984],[-53.81196,-29.67725],[-53.81179,-29.67688]]]},"properties":{"codigo":"4316907005","name":"Nossa Senhora do Rosário","population":6220,"households":4054,"areaKm2":0.8406,"density":7399.8}},{"type":"Feature","geometry":{"type":"Polygon","coordinates":[[[-53.8309,-29.70509],[-53.82746,-29.70736],[-53.82567,-29.70824],[-53.82529,-29.70794],[-53.82542,-29.70495],[-53.82525,-29.70432],[-53.82548,-29.70378],[-53.82543,-29.70317],[-53.82582,-29.70255],[-53.82598,-29.70127],[-53.82586,-29.70092],[-53.82203,-29.69908],[-53.82277,-29.69633],[-53.82346,-29.69389],[-53.82948,-29.69501],[-53.82926,-29.69633],[-53.83127,-29.69683],[-53.83158,-29.69591],[-53.83356,-29.69683],[-53.83348,-29.69754],[-53.83569,-29.69812],[-53.83558,-29.69895],[-53.83569,-29.70154],[-53.83547,-29.70276],[-53.83368,-29.70344],[-53.83221,-29.70417],[-53.8309,-29.70509]]]},"properties":{"codigo":"4316907016","name":"Patronato","population":1973,"households":923,"areaKm2":1.1926,"density":1654.3}},{"type":"Feature","geometry":{"type":"Polygon","coordinates":[[[-53.7971,-29.6695],[-53.79736,-29.66913],[-53.79846,-29.66907],[-53.80429,-29.6703],[-53.80488,-29.67038],[-53.80521,-29.67177],[-53.80454,-29.67184],[-53.80544,-29.67596],[-53.80445,-29.67714],[-53.80552,-29.67833],[-53.80588,-29.67871],[-53.80563,-29.67932],[-53.8026,-29.68077],[-53.80111,-29.68058],[-53.79853,-29.67989],[-53.79388,-29.67876],[-53.79278,-29.67846],[-53.79114,-29.67839],[-53.78896,-29.67878],[-53.78815,-29.67922],[-53.78776,-29.6785],[-53.78606,-29.6773],[-53.78564,-29.67625],[-53.78502,-29.67563],[-53.78573,-29.67475],[-53.78585,-29.67385],[-53.78587,-29.67299],[-53.78614,-29.6724],[-53.78604,-29.67153],[-53.78651,-29.67074],[-53.78702,-29.67049],[-53.78741,-29.66996],[-53.78741,-29.66949],[-53.78862,-29.66863],[-53.78943,-29.66715],[-53.79081,-29.66639],[-53.7915,-29.66509],[-53.79261,-29.66489],[-53.79314,-29.66537],[-53.79326,-29.66632],[-53.79389,-29.66676],[-53.79446,-29.66786],[-53.79499,-29.66833],[-53.79585,-29.66961],[-53.7971,-29.6695]]]},"properties":{"codigo":"4316907009","name":"Itararé","population":5867,"households":2485,"areaKm2":2.2078,"density":2657.4}},{"type":"Feature","geometry":{"type":"Polygon","coordinates":[[[-53.78149,-29.71852],[-53.78195,-29.71717],[-53.78279,-29.71652],[-53.78248,-29.71574],[-53.78273,-29.71465],[-53.78348,-29.7146],[-53.78574,-29.71494],[-53.78612,-29.71294],[-53.78513,-29.71308],[-53.78394,-29.71293],[-53.78353,-29.71247],[-53.78538,-29.71114],[-53.78589,-29.71089],[-53.78678,-29.71077],[-53.78769,-29.7097],[-53.78582,-29.70699],[-53.78462,-29.70743],[-53.78376,-29.70758],[-53.78169,-29.70773],[-53.77587,-29.70829],[-53.77577,-29.70784],[-53.77477,-29.70613],[-53.77597,-29.70548],[-53.77664,-29.70528],[-53.77667,-29.70424],[-53.77766,-29.70372],[-53.77635,-29.702],[-53.77536,-29.70245],[-53.77399,-29.70157],[-53.77182,-29.70099],[-53.77094,-29.70086],[-53.76975,-29.70136],[-53.76842,-29.7006],[-53.77028,-29.6995],[-53.76987,-29.69623],[-53.77222,-29.69584],[-53.77557,-29.69538],[-53.77622,-29.69585],[-53.77738,-29.69618],[-53.77879,-29.69594],[-53.78164,-29.69512],[-53.78397,-29.69485],[-53.78473,-29.69492],[-53.78531,-29.69515],[-53.78671,-29.69616],[-53.79456,-29.7032],[-53.79645,-29.70477],[-53.80062,-29.70808],[-53.80491,-29.71147],[-53.80324,-29.71399],[-53.80251,-29.7156],[-53.80167,-29.71535],[-53.80095,-29.71774],[-53.80009,-29.71936],[-53.79838,-29.71886],[-53.79735,-29.71896],[-53.79593,-29.71851],[-53.79489,-29.71753],[-53.79226,-29.71853],[-53.78797,-29.71855],[-53.78697,-29.71698],[-53.78564,-29.71724],[-53.78561,-29.71857],[-53.78149,-29.71852]]]},"properties":{"codigo":"4316907013","name":"Cerrito","population":2206,"households":863,"areaKm2":4.637,"density":475.7}},{"type":"Feature","geometry":{"type":"Polygon","coordinates":[[[-53.81768,-29.67433],[-53.81728,-29.67521],[-53.81659,-29.67594],[-53.81594,-29.67631],[-53.81497,-29.67653],[-53.81225,-29.67697],[-53.81179,-29.67688],[-53.81035,-29.67723],[-53.80642,-29.6779],[-53.80552,-29.67833],[-53.80445,-29.67714],[-53.80544,-29.67596],[-53.80454,-29.67184],[-53.80521,-29.67177],[-53.80488,-29.67038],[-53.80429,-29.6703],[-53.79846,-29.66907],[-53.79736,-29.66913],[-53.7971,-29.6695],[-53.79735,-29.66888],[-53.79721,-29.66599],[-53.79772,-29.66407],[-53.79805,-29.66369],[-53.79947,-29.66324],[-53.80001,-29.66221],[-53.80077,-29.66143],[-53.80074,-29.66034],[-53.80093,-29.65991],[-53.80194,-29.65906],[-53.80228,-29.65841],[-53.80179,-29.65708],[-53.80276,-29.65488],[-53.80344,-29.65407],[-53.80491,-29.65342],[-53.80565,-29.65338],[-53.80698,-29.65382],[-53.80765,-29.65338],[-53.80777,-29.65248],[-53.80834,-29.65188],[-53.80953,-29.65168],[-53.81038,-29.65126],[-53.81147,-29.6513],[-53.81233,-29.65047],[-53.81281,-29.64936],[-53.81503,-29.64865],[-53.81545,-29.64811],[-53.81547,-29.6476],[-53.81929,-29.65112],[-53.81922,-29.65359],[-53.81874,-29.65371],[-53.81865,-29.65474],[-53.81812,-29.65624],[-53.81847,-29.65836],[-53.81705,-29.65889],[-53.81226,-29.659],[-53.81226,-29.66088],[-53.81203,-29.66159],[-53.81337,-29.66803],[-53.8143,-29.6674],[-53.81458,-29.66811],[-53.81486,-29.66946],[-53.81619,-29.67035],[-53.81579,-29.6726],[-53.81798,-29.67245],[-53.81862,-29.67252],[-53.81768,-29.67433]]]},"properties":{"codigo":"4316907008","name":"Nossa Senhora do Perpétuo Socorro","population":4988,"households":2299,"areaKm2":3.9361,"density":1267.2}}]}