{"type":"FeatureCollection","features":[{"type":"Feature","geometry":{"type":"Polygon","coordinates":[[[-55.16381,-28.4277],[-55.16387,-28.42417],[-55.16037,-28.42022],[-55.15502,-28.40902],[-55.15526,-28.40732],[-55.15775,-28.40393],[-55.15897,-28.40382],[-55.1615,-28.40537],[-55.16378,-28.40477],[-55.16417,-28.39747],[-55.16724,-28.39623],[-55.17089,-28.3972],[-55.17937,-28.39748],[-55.18053,-28.3994],[-55.17887,-28.40856],[-55.18088,-28.40912],[-55.19252,-28.40717],[-55.20199,-28.39838],[-55.20851,-28.39664],[-55.20935,-28.39566],[-55.20964,-28.39315],[-55.20817,-28.39159],[-55.20413,-28.39126],[-55.20158,-28.39287],[-55.19981,-28.39304],[-55.19638,-28.39206],[-55.19562,-28.39088],[-55.19584,-28.38508],[-55.19504,-28.38032],[-55.19322,-28.37587],[-55.19656,-28.37168],[-55.18843,-28.36786],[-55.18707,-28.36644],[-55.18349,-28.35872],[-55.17851,-28.35669],[-55.17668,-28.35323],[-55.17791,-28.35214],[-55.18517,-28.35202],[-55.18654,-28.35119],[-55.18854,-28.34642],[-55.1898,-28.34553],[-55.19493,-28.34992],[-55.19711,-28.35016],[-55.20018,-28.34928],[-55.20646,-28.33987],[-55.20585,-28.33929],[-55.20358,-28.33979],[-55.20123,-28.33843],[-55.21086,-28.32597],[-55.2114,-28.32178],[-55.21304,-28.31821],[-55.21261,-28.31723],[-55.20584,-28.31266],[-55.20454,-28.31108],[-55.20474,-28.30938],[-55.21065,-28.30524],[-55.21582,-28.30296],[-55.21714,-28.29728],[-55.22013,-28.29237],[-55.22142,-28.29232],[-55.2223,-28.2935],[-55.22269,-28.29568],[-55.22105,-28.29759],[-55.22395,-28.30533],[-55.23177,-28.30802],[-55.2431,-28.30854],[-55.25642,-28.30502],[-55.26132,-28.30552],[-55.2645,-28.30788],[-55.26612,-28.31081],[-55.26954,-28.31241],[-55.27445,-28.31291],[-55.28245,-28.31521],[-55.29335,-28.31025],[-55.30379,-28.3081],[-55.30904,-28.30802],[-55.31224,-28.30679],[-55.29971,-28.29672],[-55.29751,-28.29606],[-55.28998,-28.29923],[-55.28835,-28.30319],[-55.28491,-28.3061],[-55.28167,-28.30477],[-55.28004,-28.30177],[-55.27938,-28.2981],[-55.28166,-28.29047],[-55.28379,-28.28743],[-55.28454,-28.28469],[-55.28282,-28.27766],[-55.28439,-28.27557],[-55.29207,-28.27574],[-55.29478,-28.27762],[-55.29642,-28.28227],[-55.30037,-28.28546],[-55.30303,-28.2851],[-55.31115,-28.28113],[-55.32189,-28.28053],[-55.32604,-28.27833],[-55.32756,-28.27656],[-55.32738,-28.2758],[-55.32037,-28.27287],[-55.31633,-28.27017],[-55.31439,-28.26649],[-55.31544,-28.26361],[-55.32175,-28.26468],[-55.32402,-28.26364],[-55.32682,-28.2587],[-55.32665,-28.25592],[-55.32807,-28.25065],[-55.32738,-28.24949],[-55.31741,-28.24702],[-55.31547,-28.24748],[-55.30941,-28.25144],[-55.30622,-28.2553],[-55.29698,-28.25812],[-55.28956,-28.25731],[-55.28724,-28.25599],[-55.28659,-28.2548],[-55.2862,-28.24915],[-55.28675,-28.24739],[-55.28982,-28.24215],[-55.29294,-28.23922],[-55.29464,-28.2354],[-55.2897,-28.23203],[-55.28671,-28.22654],[-55.28564,-28.22315],[-55.28555,-28.21586],[-55.28409,-28.20896],[-55.28574,-28.20785],[-55.28717,-28.20846],[-55.29085,-28.21455],[-55.29495,-28.21729],[-55.298,-28.22085],[-55.29916,-28.22744],[-55.30026,-28.22966],[-55.30224,-28.22922],[-55.30245,-28.22806],[-55.30193,-28.22216],[-55.30452,-28.21868],[-55.31023,-28.2198],[-55.31157,-28.22214],[-55.31352,-28.22361],[-55.31601,-28.22341],[-55.3175,-28.22216],[-55.31906,-28.21771],[-55.31811,-28.20894],[-55.32188,-28.20793],[-55.32653,-28.20929],[-55.32667,-28.21247],[-55.33257,-28.2203],[-55.33254,-28.22215],[-55.342,-28.23758],[-55.34193,-28.23942],[-55.35047,-28.24657],[-55.35144,-28.25412],[-55.35945,-28.26221],[-55.36444,-28.2616],[-55.3702,-28.27245],[-55.38091,-28.28723],[-55.38184,-28.29721],[-55.38372,-28.30491],[-55.38643,-28.30475],[-55.39555,-28.30086],[-55.40027,-28.29982],[-55.40977,-28.29456],[-55.41316,-28.28958],[-55.4129,-28.28634],[-55.41427,-28.28299],[-55.41838,-28.27696],[-55.42334,-28.27438],[-55.42938,-28.26995],[-55.43662,-28.25931],[-55.43865,-28.25728],[-55.44357,-28.24877],[-55.44451,-28.24917],[-55.44833,-28.25316],[-55.46073,-28.25169],[-55.46403,-28.2569],[-55.47879,-28.26583],[-55.48623,-28.27227],[-55.48753,-28.27524],[-55.48724,-28.28115],[-55.49018,-28.28598],[-55.48818,-28.29182],[-55.48844,-28.2999],[-55.49026,-28.30528],[-55.49478,-28.31003],[-55.49787,-28.31626],[-55.49795,-28.32054],[-55.50403,-28.32702],[-55.50466,-28.3285],[-55.50416,-28.3312],[-55.5073,-28.33369],[-55.50922,-28.3335],[-55.511,-28.33635],[-55.51373,-28.33692],[-55.52533,-28.34335],[-55.52061,-28.34785],[-55.51976,-28.35174],[-55.50938,-28.36206],[-55.5005,-28.36521],[-55.49998,-28.36613],[-55.50145,-28.38172],[-55.50346,-28.39232],[-55.50269,-28.39978],[-55.50642,-28.4028],[-55.50454,-28.40392],[-55.50424,-28.40496],[-55.50328,-28.40662],[-55.50286,-28.40857],[-55.50312,-28.40977],[-55.50226,-28.4114],[-55.50042,-28.41218],[-55.49926,-28.41177],[-55.49765,-28.41272],[-55.49723,-28.41371],[-55.4961,-28.41413],[-55.49352,-28.41431],[-55.49053,-28.41392],[-55.4893,-28.41461],[-55.48756,-28.41618],[-55.48468,-28.41754],[-55.48335,-28.42009],[-55.48232,-28.42025],[-55.48128,-28.42215],[-55.47882,-28.42216],[-55.47768,-28.4235],[-55.47662,-28.42328],[-55.47479,-28.42239],[-55.47305,-28.42281],[-55.46977,-28.42312],[-55.46725,-28.42252],[-55.46456,-28.42259],[-55.46084,-28.42419],[-55.45984,-28.42603],[-55.45769,-28.42685],[-55.45648,-28.4264],[-55.45283,-28.42788],[-55.45104,-28.42823],[-55.4484,-28.42988],[-55.4454,-28.43],[-55.44388,-28.42873],[-55.44349,-28.42763],[-55.44229,-28.4273],[-55.44041,-28.42768],[-55.43699,-28.42918],[-55.436,-28.42933],[-55.43447,-28.42865],[-55.43233,-28.42648],[-55.4301,-28.42593],[-55.42704,-28.42614],[-55.42407,-28.42615],[-55.41926,-28.4271],[-55.41796,-28.42685],[-55.41635,-28.42598],[-55.41443,-28.42564],[-55.41201,-28.42576],[-55.40971,-28.42697],[-55.40706,-28.42683],[-55.40358,-28.42788],[-55.40168,-28.42911],[-55.39803,-28.43008],[-55.39609,-28.43119],[-55.39382,-28.43133],[-55.39038,-28.4312],[-55.38492,-28.43204],[-55.38244,-28.43289],[-55.37981,-28.43412],[-55.3779,-28.43409],[-55.37625,-28.43377],[-55.37527,-28.43413],[-55.37222,-28.43369],[-55.37033,-28.43379],[-55.36573,-28.4346],[-55.3639,-28.43562],[-55.36202,-28.43794],[-55.36182,-28.43956],[-55.36124,-28.43997],[-55.36003,-28.43984],[-55.35848,-28.44063],[-55.35746,-28.44192],[-55.35673,-28.44389],[-55.35244,-28.44407],[-55.34968,-28.44568],[-55.34746,-28.44604],[-55.34648,-28.44728],[-55.34555,-28.44739],[-55.34241,-28.44931],[-55.34121,-28.45122],[-55.33883,-28.45368],[-55.33759,-28.45603],[-55.33573,-28.4578],[-55.33351,-28.45904],[-55.333,-28.4602],[-55.3316,-28.46077],[-55.33046,-28.46167],[-55.32893,-28.46359],[-55.32837,-28.46477],[-55.32574,-28.46705],[-55.32471,-28.46724],[-55.32247,-28.46924],[-55.32188,-28.47042],[-55.32196,-28.47282],[-55.32116,-28.47427],[-55.31899,-28.47707],[-55.31805,-28.47786],[-55.31673,-28.47818],[-55.31482,-28.47813],[-55.31337,-28.47779],[-55.30992,-28.47985],[-55.3083,-28.47993],[-55.30682,-28.4796],[-55.30412,-28.48052],[-55.302,-28.48198],[-55.30152,-28.48344],[-55.30046,-28.4839],[-55.29967,-28.48477],[-55.29727,-28.48549],[-55.29457,-28.48675],[-55.29232,-28.48659],[-55.2915,-28.48757],[-55.28635,-28.4904],[-55.28619,-28.4914],[-55.28491,-28.49252],[-55.28472,-28.49326],[-55.28323,-28.49497],[-55.28102,-28.49666],[-55.27994,-28.49715],[-55.27881,-28.49922],[-55.27605,-28.50112],[-55.27472,-28.50325],[-55.27315,-28.50636],[-55.27179,-28.50748],[-55.26998,-28.50967],[-55.2691,-28.51147],[-55.26752,-28.51345],[-55.26655,-28.51409],[-55.26636,-28.51521],[-55.26555,-28.51586],[-55.2636,-28.5167],[-55.26179,-28.51549],[-55.26109,-28.51464],[-55.25903,-28.51439],[-55.25779,-28.51395],[-55.25741,-28.51325],[-55.25493,-28.51246],[-55.25251,-28.51239],[-55.25189,-28.51212],[-55.24729,-28.51203],[-55.24677,-28.51615],[-55.2604,-28.52098],[-55.26495,-28.52204],[-55.27165,-28.52303],[-55.27304,-28.52336],[-55.29769,-28.53293],[-55.30285,-28.53498],[-55.30523,-28.53661],[-55.31717,-28.5496],[-55.32118,-28.55403],[-55.32302,-28.5557],[-55.32511,-28.55702],[-55.33075,-28.56014],[-55.33256,-28.56089],[-55.33589,-28.56176],[-55.33807,-28.56195],[-55.3405,-28.56187],[-55.34423,-28.56133],[-55.34684,-28.56144],[-55.34819,-28.56184],[-55.35013,-28.56283],[-55.35148,-28.56402],[-55.3524,-28.56529],[-55.35597,-28.5721],[-55.35738,-28.5745],[-55.35879,-28.57618],[-55.36024,-28.57744],[-55.36919,-28.58354],[-55.37967,-28.59061],[-55.38332,-28.5925],[-55.38574,-28.59336],[-55.38796,-28.59386],[-55.39255,-28.59451],[-55.39416,-28.59449],[-55.39982,-28.59364],[-55.40111,-28.60279],[-55.4031,-28.60292],[-55.40409,-28.60347],[-55.40466,-28.60531],[-55.40555,-28.60584],[-55.40747,-28.60612],[-55.40787,-28.6072],[-55.40951,-28.6081],[-55.41002,-28.61001],[-55.40981,-28.61072],[-55.41072,-28.61217],[-55.41034,-28.61439],[-55.41051,-28.61674],[-55.41027,-28.61761],[-55.41104,-28.61985],[-55.41212,-28.62201],[-55.41055,-28.62366],[-55.41062,-28.62473],[-55.4099,-28.62572],[-55.41093,-28.62786],[-55.41071,-28.62927],[-55.4101,-28.63083],[-55.4103,-28.6329],[-55.41073,-28.63368],[-55.41041,-28.63472],[-55.41151,-28.63571],[-55.41099,-28.63624],[-55.41066,-28.63912],[-55.40962,-28.64198],[-55.40965,-28.64304],[-55.41066,-28.64471],[-55.41098,-28.6475],[-55.41181,-28.6491],[-55.41025,-28.64954],[-55.40817,-28.65134],[-55.40577,-28.65188],[-55.40222,-28.6504],[-55.40029,-28.64904],[-55.39767,-28.65045],[-55.39539,-28.65119],[-55.39514,-28.65319],[-55.39552,-28.65664],[-55.39475,-28.65797],[-55.38972,-28.66069],[-55.38925,-28.66319],[-55.38623,-28.6642],[-55.3846,-28.66496],[-55.3816,-28.66884],[-55.38084,-28.66938],[-55.37973,-28.66893],[-55.37913,-28.66737],[-55.37789,-28.66675],[-55.3757,-28.66641],[-55.37528,-28.666],[-55.37384,-28.66163],[-55.37436,-28.66031],[-55.37578,-28.65795],[-55.37497,-28.65728],[-55.37175,-28.65591],[-55.37081,-28.65596],[-55.3697,-28.65495],[-55.3676,-28.65382],[-55.36609,-28.65403],[-55.36524,-28.65655],[-55.36527,-28.65882],[-55.36469,-28.66036],[-55.36355,-28.66078],[-55.36027,-28.65903],[-55.35872,-28.65846],[-55.35691,-28.65822],[-55.35598,-28.65771],[-55.35448,-28.65525],[-55.35403,-28.65287],[-55.35523,-28.65155],[-55.35673,-28.65066],[-55.356,-28.64949],[-55.34781,-28.64981],[-55.34623,-28.65079],[-55.34597,-28.65236],[-55.34696,-28.6547],[-55.34632,-28.65738],[-55.34771,-28.66091],[-55.3472,-28.6634],[-55.34616,-28.66547],[-55.34517,-28.66689],[-55.34381,-28.66706],[-55.34067,-28.66561],[-55.3383,-28.66563],[-55.33694,-28.66599],[-55.33343,-28.66607],[-55.33046,-28.66744],[-55.32348,-28.6602],[-55.32328,-28.65947],[-55.32436,-28.65762],[-55.32457,-28.6565],[-55.32259,-28.65545],[-55.32064,-28.65527],[-55.31599,-28.65756],[-55.31358,-28.6575],[-55.31417,-28.65909],[-55.31361,-28.65989],[-55.31165,-28.65926],[-55.31001,-28.65942],[-55.30824,-28.65832],[-55.30661,-28.65657],[-55.30616,-28.65303],[-55.30312,-28.64734],[-55.30176,-28.64609],[-55.29886,-28.64673],[-55.29772,-28.64897],[-55.29657,-28.64953],[-55.28935,-28.64999],[-55.28789,-28.65042],[-55.2864,-28.65184],[-55.28441,-28.65248],[-55.28258,-28.65391],[-55.28146,-28.65414],[-55.27783,-28.65002],[-55.27231,-28.64671],[-55.27177,-28.64582],[-55.27112,-28.64344],[-55.27051,-28.64285],[-55.26566,-28.64157],[-55.26176,-28.64136],[-55.25924,-28.64028],[-55.25583,-28.63845],[-55.2536,-28.63634],[-55.25275,-28.63382],[-55.25308,-28.63286],[-55.25213,-28.63216],[-55.25159,-28.63016],[-55.25089,-28.62966],[-55.24843,-28.6279],[-55.24589,-28.62354],[-55.24612,-28.62094],[-55.24555,-28.61232],[-55.24374,-28.6088],[-55.24106,-28.60488],[-55.23989,-28.60263],[-55.23852,-28.59931],[-55.23726,-28.5957],[-55.23644,-28.59153],[-55.23475,-28.58783],[-55.23221,-28.58276],[-55.23157,-28.57897],[-55.232,-28.57711],[-55.23346,-28.57328],[-55.23441,-28.56883],[-55.23495,-28.56283],[-55.23636,-28.55723],[-55.2389,-28.54932],[-55.23479,-28.54636],[-55.22976,-28.5461],[-55.22339,-28.54699],[-55.21771,-28.54653],[-55.21183,-28.54471],[-55.20572,-28.54366],[-55.20468,-28.54085],[-55.19975,-28.53502],[-55.20003,-28.527],[-55.19586,-28.52287],[-55.19396,-28.51975],[-55.19307,-28.51747],[-55.19296,-28.51543],[-55.19374,-28.50525],[-55.19314,-28.50063],[-55.19235,-28.49951],[-55.19275,-28.49848],[-55.19157,-28.49539],[-55.19253,-28.49126],[-55.19016,-28.49035],[-55.18941,-28.4892],[-55.18946,-28.48782],[-55.19091,-28.48549],[-55.19081,-28.48443],[-55.18893,-28.48237],[-55.18884,-28.48174],[-55.18971,-28.47914],[-55.18952,-28.4739],[-55.1901,-28.47136],[-55.19008,-28.47027],[-55.18958,-28.46833],[-55.18867,-28.46734],[-55.18802,-28.4659],[-55.1872,-28.46266],[-55.18576,-28.46026],[-55.18523,-28.45878],[-55.18521,-28.45727],[-55.18753,-28.45178],[-55.18742,-28.44831],[-55.18707,-28.44695],[-55.18764,-28.44399],[-55.18747,-28.44217],[-55.18564,-28.44085],[-55.1823,-28.43976],[-55.17885,-28.43746],[-55.1772,-28.43692],[-55.174,-28.43627],[-55.17262,-28.43499],[-55.17107,-28.43416],[-55.16999,-28.43259],[-55.16803,-28.43029],[-55.16647,-28.42923],[-55.16473,-28.42843],[-55.16381,-28.4277]]]},"properties":{"codigo":"431770705","name":"Santo Antônio das Missões","population":8794,"households":4179,"areaKm2":826.2712,"density":10.6}},{"type":"Feature","geometry":{"type":"Polygon","coordinates":[[[-55.50691,-28.40319],[-55.51763,-28.41237],[-55.52444,-28.41518],[-55.52451,-28.42399],[-55.52211,-28.42945],[-55.52338,-28.44818],[-55.52876,-28.45776],[-55.54189,-28.46243],[-55.5515,-28.46114],[-55.55489,-28.46212],[-55.56803,-28.46932],[-55.57049,-28.47498],[-55.57789,-28.47706],[-55.58397,-28.48434],[-55.58735,-28.48553],[-55.59038,-28.48845],[-55.60305,-28.48871],[-55.61116,-28.48699],[-55.62421,-28.48845],[-55.63179,-28.49316],[-55.63506,-28.49618],[-55.64648,-28.4982],[-55.65472,-28.49839],[-55.65872,-28.49797],[-55.66296,-28.49603],[-55.67927,-28.49833],[-55.68725,-28.51516],[-55.69548,-28.51966],[-55.69713,-28.53141],[-55.70139,-28.53683],[-55.70312,-28.53841],[-55.70648,-28.53899],[-55.71248,-28.54223],[-55.71553,-28.54637],[-55.71742,-28.54638],[-55.71885,-28.54875],[-55.72377,-28.54839],[-55.72835,-28.55047],[-55.72904,-28.5518],[-55.72928,-28.55741],[-55.7282,-28.55939],[-55.73041,-28.5635],[-55.72961,-28.56764],[-55.73312,-28.57057],[-55.73419,-28.57322],[-55.74409,-28.57662],[-55.74509,-28.5781],[-55.75032,-28.58153],[-55.75374,-28.58029],[-55.75706,-28.58214],[-55.76052,-28.58165],[-55.76488,-28.58399],[-55.76956,-28.58351],[-55.77019,-28.58234],[-55.77073,-28.58135],[-55.77237,-28.58521],[-55.77092,-28.59168],[-55.76951,-28.59451],[-55.76602,-28.59652],[-55.76266,-28.59728],[-55.75842,-28.59687],[-55.75456,-28.5986],[-55.73322,-28.62275],[-55.73127,-28.62261],[-55.72833,-28.61888],[-55.72474,-28.61698],[-55.72361,-28.61799],[-55.72557,-28.61971],[-55.72536,-28.62245],[-55.72246,-28.6256],[-55.717,-28.62614],[-55.71033,-28.624],[-55.7018,-28.62509],[-55.69976,-28.62614],[-55.69966,-28.62742],[-55.70758,-28.63799],[-55.7128,-28.64687],[-55.71999,-28.65315],[-55.71903,-28.65613],[-55.71717,-28.65784],[-55.70734,-28.66164],[-55.70412,-28.66022],[-55.69958,-28.65601],[-55.69661,-28.65484],[-55.6945,-28.6565],[-55.68959,-28.6633],[-55.68173,-28.66574],[-55.67568,-28.67153],[-55.67113,-28.67164],[-55.66595,-28.67005],[-55.66283,-28.67191],[-55.65899,-28.67204],[-55.64869,-28.66981],[-55.64169,-28.66919],[-55.63592,-28.67173],[-55.63431,-28.67605],[-55.62878,-28.68454],[-55.62731,-28.68478],[-55.62489,-28.68374],[-55.61831,-28.67844],[-55.61664,-28.67795],[-55.60672,-28.68439],[-55.60259,-28.68589],[-55.59633,-28.68644],[-55.59327,-28.69003],[-55.59091,-28.69078],[-55.58837,-28.68949],[-55.58543,-28.68587],[-55.57649,-28.68113],[-55.57552,-28.68024],[-55.57449,-28.67641],[-55.57297,-28.67628],[-55.56375,-28.68338],[-55.56387,-28.68465],[-55.57025,-28.69059],[-55.57197,-28.69295],[-55.57197,-28.69447],[-55.56172,-28.69701],[-55.55662,-28.70028],[-55.54984,-28.70747],[-55.54671,-28.70592],[-55.54441,-28.70419],[-55.54134,-28.70116],[-55.53682,-28.69872],[-55.53606,-28.698],[-55.53581,-28.69656],[-55.53647,-28.69263],[-55.53547,-28.69121],[-55.53337,-28.68899],[-55.53161,-28.68637],[-55.53014,-28.68667],[-55.52902,-28.68755],[-55.52623,-28.69041],[-55.52618,-28.69314],[-55.5257,-28.69546],[-55.52403,-28.69999],[-55.52231,-28.70343],[-55.51976,-28.70399],[-55.51838,-28.70476],[-55.51652,-28.707],[-55.51465,-28.70608],[-55.51455,-28.70471],[-55.51484,-28.70356],[-55.51386,-28.70076],[-55.51246,-28.69881],[-55.512,-28.69714],[-55.5099,-28.69472],[-55.50865,-28.69388],[-55.50528,-28.69458],[-55.50253,-28.69754],[-55.50055,-28.69873],[-55.49784,-28.69789],[-55.49317,-28.69482],[-55.4891,-28.69054],[-55.48778,-28.68764],[-55.48806,-28.68411],[-55.48867,-28.68176],[-55.48944,-28.68062],[-55.49042,-28.6804],[-55.49336,-28.68043],[-55.49503,-28.6802],[-55.49599,-28.67889],[-55.49562,-28.67766],[-55.49361,-28.67542],[-55.49455,-28.67242],[-55.49298,-28.66844],[-55.49096,-28.66471],[-55.48883,-28.66313],[-55.48709,-28.66273],[-55.48631,-28.66178],[-55.48544,-28.66163],[-55.48484,-28.66229],[-55.48464,-28.66367],[-55.48258,-28.66806],[-55.4815,-28.6687],[-55.48012,-28.66862],[-55.47789,-28.66777],[-55.47201,-28.66468],[-55.46834,-28.66434],[-55.46577,-28.66385],[-55.46386,-28.66383],[-55.46132,-28.66482],[-55.45944,-28.66627],[-55.45553,-28.6681],[-55.45467,-28.66818],[-55.45293,-28.66678],[-55.45131,-28.66676],[-55.44964,-28.66772],[-55.44795,-28.66935],[-55.44737,-28.67108],[-55.44661,-28.67468],[-55.4461,-28.67525],[-55.44278,-28.67446],[-55.44042,-28.67354],[-55.43973,-28.673],[-55.43801,-28.66986],[-55.43586,-28.668],[-55.43542,-28.66669],[-55.43517,-28.66296],[-55.4345,-28.66057],[-55.4327,-28.65794],[-55.4314,-28.65719],[-55.43115,-28.65597],[-55.43458,-28.65366],[-55.43621,-28.65295],[-55.4384,-28.65231],[-55.43892,-28.65137],[-55.4385,-28.65063],[-55.43697,-28.64995],[-55.42968,-28.65095],[-55.42727,-28.65099],[-55.42585,-28.65077],[-55.42385,-28.64917],[-55.42195,-28.64915],[-55.42092,-28.64959],[-55.4207,-28.65092],[-55.42137,-28.65372],[-55.42089,-28.65455],[-55.41635,-28.65648],[-55.41502,-28.65582],[-55.41435,-28.65327],[-55.41392,-28.65006],[-55.41221,-28.64899],[-55.41181,-28.6491],[-55.41098,-28.6475],[-55.41066,-28.64471],[-55.40965,-28.64304],[-55.40962,-28.64198],[-55.41066,-28.63912],[-55.41099,-28.63624],[-55.41151,-28.63571],[-55.41041,-28.63472],[-55.41073,-28.63368],[-55.4103,-28.6329],[-55.4101,-28.63083],[-55.41071,-28.62927],[-55.41093,-28.62786],[-55.4099,-28.62572],[-55.41062,-28.62473],[-55.41055,-28.62366],[-55.41212,-28.62201],[-55.41104,-28.61985],[-55.41027,-28.61761],[-55.41051,-28.61674],[-55.41034,-28.61439],[-55.41072,-28.61217],[-55.40981,-28.61072],[-55.41002,-28.61001],[-55.40951,-28.6081],[-55.40787,-28.6072],[-55.40747,-28.60612],[-55.40555,-28.60584],[-55.40466,-28.60531],[-55.40409,-28.60347],[-55.4031,-28.60292],[-55.40111,-28.60279],[-55.39982,-28.59364],[-55.39416,-28.59449],[-55.39255,-28.59451],[-55.38796,-28.59386],[-55.38574,-28.59336],[-55.38332,-28.5925],[-55.37967,-28.59061],[-55.36919,-28.58354],[-55.36024,-28.57744],[-55.35879,-28.57618],[-55.35738,-28.5745],[-55.35597,-28.5721],[-55.3524,-28.56529],[-55.35148,-28.56402],[-55.35013,-28.56283],[-55.34819,-28.56184],[-55.34684,-28.56144],[-55.34423,-28.56133],[-55.3405,-28.56187],[-55.33807,-28.56195],[-55.33589,-28.56176],[-55.33256,-28.56089],[-55.33075,-28.56014],[-55.32511,-28.55702],[-55.32302,-28.5557],[-55.32118,-28.55403],[-55.31717,-28.5496],[-55.30523,-28.53661],[-55.30285,-28.53498],[-55.29769,-28.53293],[-55.27304,-28.52336],[-55.27165,-28.52303],[-55.26495,-28.52204],[-55.2604,-28.52098],[-55.24677,-28.51615],[-55.24729,-28.51203],[-55.25189,-28.51212],[-55.25251,-28.51239],[-55.25493,-28.51246],[-55.25741,-28.51325],[-55.25779,-28.51395],[-55.25903,-28.51439],[-55.26109,-28.51464],[-55.26179,-28.51549],[-55.2636,-28.5167],[-55.26555,-28.51586],[-55.26636,-28.51521],[-55.26655,-28.51409],[-55.26752,-28.51345],[-55.2691,-28.51147],[-55.26998,-28.50967],[-55.27179,-28.50748],[-55.27315,-28.50636],[-55.27472,-28.50325],[-55.27605,-28.50112],[-55.27881,-28.49922],[-55.27994,-28.49715],[-55.28102,-28.49666],[-55.28323,-28.49497],[-55.28472,-28.49326],[-55.28491,-28.49252],[-55.28619,-28.4914],[-55.28635,-28.4904],[-55.2915,-28.48757],[-55.29232,-28.48659],[-55.29457,-28.48675],[-55.29727,-28.48549],[-55.29967,-28.48477],[-55.30046,-28.4839],[-55.30152,-28.48344],[-55.302,-28.48198],[-55.30412,-28.48052],[-55.30682,-28.4796],[-55.3083,-28.47993],[-55.30992,-28.47985],[-55.31337,-28.47779],[-55.31482,-28.47813],[-55.31673,-28.47818],[-55.31805,-28.47786],[-55.31899,-28.47707],[-55.32116,-28.47427],[-55.32196,-28.47282],[-55.32188,-28.47042],[-55.32247,-28.46924],[-55.32471,-28.46724],[-55.32574,-28.46705],[-55.32837,-28.46477],[-55.32893,-28.46359],[-55.33046,-28.46167],[-55.3316,-28.46077],[-55.333,-28.4602],[-55.33351,-28.45904],[-55.33573,-28.4578],[-55.33759,-28.45603],[-55.33883,-28.45368],[-55.34121,-28.45122],[-55.34241,-28.44931],[-55.34555,-28.44739],[-55.34648,-28.44728],[-55.34746,-28.44604],[-55.34968,-28.44568],[-55.35244,-28.44407],[-55.35673,-28.44389],[-55.35746,-28.44192],[-55.35848,-28.44063],[-55.36003,-28.43984],[-55.36124,-28.43997],[-55.36182,-28.43956],[-55.36202,-28.43794],[-55.3639,-28.43562],[-55.36573,-28.4346],[-55.37033,-28.43379],[-55.37222,-28.43369],[-55.37527,-28.43413],[-55.37625,-28.43377],[-55.3779,-28.43409],[-55.37981,-28.43412],[-55.38244,-28.43289],[-55.38492,-28.43204],[-55.39038,-28.4312],[-55.39382,-28.43133],[-55.39609,-28.43119],[-55.39803,-28.43008],[-55.40168,-28.42911],[-55.40358,-28.42788],[-55.40706,-28.42683],[-55.40971,-28.42697],[-55.41201,-28.42576],[-55.41443,-28.42564],[-55.41635,-28.42598],[-55.41796,-28.42685],[-55.41926,-28.4271],[-55.42407,-28.42615],[-55.42704,-28.42614],[-55.4301,-28.42593],[-55.43233,-28.42648],[-55.43447,-28.42865],[-55.436,-28.42933],[-55.43699,-28.42918],[-55.44041,-28.42768],[-55.44229,-28.4273],[-55.44349,-28.42763],[-55.44388,-28.42873],[-55.4454,-28.43],[-55.4484,-28.42988],[-55.45104,-28.42823],[-55.45283,-28.42788],[-55.45648,-28.4264],[-55.45769,-28.42685],[-55.45984,-28.42603],[-55.46084,-28.42419],[-55.46456,-28.42259],[-55.46725,-28.42252],[-55.46977,-28.42312],[-55.47305,-28.42281],[-55.47479,-28.42239],[-55.47662,-28.42328],[-55.47768,-28.4235],[-55.47882,-28.42216],[-55.48128,-28.42215],[-55.48232,-28.42025],[-55.48335,-28.42009],[-55.48468,-28.41754],[-55.48756,-28.41618],[-55.4893,-28.41461],[-55.49053,-28.41392],[-55.49352,-28.41431],[-55.4961,-28.41413],[-55.49723,-28.41371],[-55.49765,-28.41272],[-55.49926,-28.41177],[-55.50042,-28.41218],[-55.50226,-28.4114],[-55.50312,-28.40977],[-55.50286,-28.40857],[-55.50328,-28.40662],[-55.50424,-28.40496],[-55.50454,-28.40392],[-55.50642,-28.4028],[-55.50691,-28.40319]]]},"properties":{"codigo":"431770710","name":"São José","population":1506,"households":914,"areaKm2":884.5977,"density":1.7}}]}