{"type":"FeatureCollection","features":[{"type":"Feature","geometry":{"type":"Polygon","coordinates":[[[-54.74164,-29.83143],[-54.7379,-29.83136],[-54.7371,-29.83102],[-54.73627,-29.82972],[-54.73663,-29.82831],[-54.73809,-29.82672],[-54.73814,-29.82455],[-54.73743,-29.82371],[-54.73603,-29.82333],[-54.73551,-29.8236],[-54.73336,-29.82622],[-54.73189,-29.82646],[-54.72986,-29.82563],[-54.72778,-29.82583],[-54.72663,-29.82701],[-54.72471,-29.83031],[-54.72324,-29.8313],[-54.72213,-29.83108],[-54.72164,-29.82994],[-54.72287,-29.82844],[-54.72447,-29.82591],[-54.72454,-29.82455],[-54.72356,-29.82394],[-54.72132,-29.82405],[-54.72021,-29.8247],[-54.72024,-29.82579],[-54.72086,-29.82704],[-54.72072,-29.82839],[-54.7191,-29.82912],[-54.71684,-29.82921],[-54.71348,-29.83043],[-54.71256,-29.83048],[-54.71174,-29.82951],[-54.71191,-29.82687],[-54.711,-29.82604],[-54.70919,-29.82662],[-54.70791,-29.82876],[-54.70697,-29.82933],[-54.70507,-29.82969],[-54.70355,-29.82901],[-54.70272,-29.82659],[-54.70093,-29.8256],[-54.69876,-29.82533],[-54.69774,-29.82462],[-54.69724,-29.82335],[-54.69717,-29.81879],[-54.69663,-29.81772],[-54.69479,-29.81616],[-54.69263,-29.81542],[-54.69159,-29.81539],[-54.68989,-29.81461],[-54.68918,-29.81347],[-54.68843,-29.81122],[-54.68811,-29.80941],[-54.68742,-29.80869],[-54.68657,-29.80877],[-54.68594,-29.81015],[-54.6841,-29.81174],[-54.68252,-29.8121],[-54.68097,-29.8117],[-54.68028,-29.81109],[-54.67854,-29.80868],[-54.67708,-29.80804],[-54.6757,-29.80792],[-54.67402,-29.80829],[-54.67307,-29.80936],[-54.67169,-29.81016],[-54.67023,-29.81015],[-54.6679,-29.80898],[-54.66602,-29.80891],[-54.66469,-29.80927],[-54.66254,-29.81047],[-54.65923,-29.81108],[-54.65779,-29.81188],[-54.65694,-29.81188],[-54.65661,-29.81092],[-54.65662,-29.80906],[-54.65586,-29.80795],[-54.65501,-29.8074],[-54.64898,-29.80677],[-54.64639,-29.80598],[-54.64479,-29.80629],[-54.64432,-29.80868],[-54.64326,-29.81038],[-54.64083,-29.81124],[-54.64019,-29.81214],[-54.64041,-29.81293],[-54.64233,-29.81467],[-54.64231,-29.81602],[-54.64096,-29.81723],[-54.63884,-29.81733],[-54.63816,-29.81709],[-54.63561,-29.81532],[-54.63294,-29.81462],[-54.62953,-29.81436],[-54.62881,-29.81366],[-54.6282,-29.81216],[-54.62728,-29.81115],[-54.62581,-29.81129],[-54.62509,-29.8124],[-54.62478,-29.81398],[-54.62295,-29.81518],[-54.62065,-29.81553],[-54.61919,-29.81515],[-54.61894,-29.81448],[-54.61917,-29.81257],[-54.6183,-29.81027],[-54.61632,-29.80917],[-54.61511,-29.80922],[-54.61385,-29.80976],[-54.61282,-29.81068],[-54.61024,-29.81186],[-54.60872,-29.81204],[-54.60762,-29.81147],[-54.60555,-29.80876],[-54.60336,-29.80872],[-54.60216,-29.80956],[-54.60129,-29.81081],[-54.60125,-29.81236],[-54.60184,-29.81302],[-54.60307,-29.81342],[-54.60528,-29.8137],[-54.60674,-29.81523],[-54.60666,-29.81673],[-54.60539,-29.81834],[-54.60425,-29.8191],[-54.59986,-29.8212],[-54.59882,-29.82145],[-54.59622,-29.82117],[-54.59372,-29.82019],[-54.59138,-29.81808],[-54.58888,-29.81606],[-54.58744,-29.81527],[-54.58537,-29.81461],[-54.58184,-29.81417],[-54.57949,-29.81471],[-54.5776,-29.81457],[-54.57704,-29.8141],[-54.57613,-29.81163],[-54.57473,-29.81097],[-54.57257,-29.81164],[-54.57164,-29.81145],[-54.57103,-29.81064],[-54.56993,-29.81018],[-54.56795,-29.81052],[-54.56688,-29.81002],[-54.56672,-29.80778],[-54.56521,-29.80628],[-54.56547,-29.80549],[-54.56669,-29.80492],[-54.56809,-29.80526],[-54.56804,-29.807],[-54.56904,-29.80783],[-54.57023,-29.80785],[-54.57107,-29.80728],[-54.5712,-29.80638],[-54.57013,-29.80424],[-54.57028,-29.80353],[-54.57139,-29.80345],[-54.57341,-29.80442],[-54.57515,-29.80421],[-54.5761,-29.80308],[-54.57627,-29.80208],[-54.5759,-29.8002],[-54.5746,-29.79948],[-54.57226,-29.79976],[-54.56993,-29.79921],[-54.56725,-29.79806],[-54.56504,-29.79796],[-54.56436,-29.79753],[-54.56417,-29.79591],[-54.56467,-29.79405],[-54.5642,-29.79332],[-54.56265,-29.79257],[-54.56129,-29.79239],[-54.55852,-29.79131],[-54.55589,-29.78968],[-54.55536,-29.78883],[-54.55556,-29.78715],[-54.55635,-29.78655],[-54.55869,-29.78573],[-54.55957,-29.7845],[-54.55916,-29.7822],[-54.55836,-29.78106],[-54.55651,-29.7791],[-54.55481,-29.77923],[-54.55409,-29.78119],[-54.55242,-29.78251],[-54.55081,-29.78241],[-54.55088,-29.78156],[-54.55285,-29.78027],[-54.55327,-29.77916],[-54.5526,-29.7782],[-54.55047,-29.77835],[-54.54788,-29.77991],[-54.54617,-29.77984],[-54.54481,-29.77877],[-54.54407,-29.77769],[-54.54262,-29.77628],[-54.54073,-29.77524],[-54.53741,-29.77446],[-54.53615,-29.77361],[-54.53577,-29.77161],[-54.53511,-29.7708],[-54.53227,-29.77056],[-54.53105,-29.76969],[-54.52931,-29.76742],[-54.52921,-29.76634],[-54.53107,-29.76484],[-54.53148,-29.76382],[-54.53117,-29.76119],[-54.5306,-29.75835],[-54.53005,-29.75774],[-54.52916,-29.75835],[-54.52904,-29.75992],[-54.52745,-29.76055],[-54.52599,-29.7604],[-54.52251,-29.76107],[-54.52158,-29.7609],[-54.51916,-29.75884],[-54.51742,-29.7582],[-54.51695,-29.75736],[-54.5193,-29.75555],[-54.51992,-29.75457],[-54.51936,-29.75307],[-54.51771,-29.75274],[-54.51637,-29.75315],[-54.51442,-29.75474],[-54.51311,-29.75425],[-54.51211,-29.75262],[-54.51123,-29.75211],[-54.50814,-29.7522],[-54.5048,-29.75066],[-54.50414,-29.74959],[-54.50396,-29.74791],[-54.5031,-29.74713],[-54.50187,-29.74743],[-54.4996,-29.74864],[-54.49488,-29.7504],[-54.49311,-29.75029],[-54.49219,-29.74953],[-54.4914,-29.74733],[-54.49146,-29.74431],[-54.49199,-29.74253],[-54.49325,-29.74253],[-54.49345,-29.7433],[-54.49292,-29.74445],[-54.4932,-29.74549],[-54.49401,-29.74608],[-54.49481,-29.74562],[-54.49537,-29.74397],[-54.49724,-29.74329],[-54.49732,-29.74256],[-54.49605,-29.74131],[-54.49661,-29.74],[-54.49822,-29.73941],[-54.49921,-29.73814],[-54.49819,-29.73729],[-54.4971,-29.73855],[-54.49621,-29.73839],[-54.49716,-29.73633],[-54.49713,-29.73525],[-54.49533,-29.73143],[-54.4923,-29.73004],[-54.49065,-29.72862],[-54.49066,-29.72773],[-54.49191,-29.72705],[-54.4926,-29.72547],[-54.49358,-29.7248],[-54.49498,-29.72482],[-54.4967,-29.72526],[-54.49717,-29.72476],[-54.49693,-29.7233],[-54.49729,-29.72253],[-54.49915,-29.7214],[-54.4993,-29.7201],[-54.49776,-29.71874],[-54.49717,-29.71753],[-54.49744,-29.71687],[-54.49894,-29.71664],[-54.5013,-29.71692],[-54.50136,-29.71567],[-54.49986,-29.71468],[-54.49796,-29.71227],[-54.4952,-29.71155],[-54.49462,-29.71205],[-54.49549,-29.71426],[-54.49479,-29.71616],[-54.49359,-29.71611],[-54.49236,-29.71517],[-54.49017,-29.7141],[-54.48898,-29.71394],[-54.48845,-29.71448],[-54.48847,-29.716],[-54.48674,-29.7177],[-54.48493,-29.7182],[-54.484,-29.71815],[-54.48176,-29.71733],[-54.47857,-29.71402],[-54.47496,-29.7119],[-54.474,-29.71058],[-54.47405,-29.70976],[-54.47524,-29.707],[-54.47635,-29.70625],[-54.47852,-29.7059],[-54.48121,-29.70513],[-54.48406,-29.70376],[-54.4855,-29.70326],[-54.48528,-29.70219],[-54.48349,-29.70153],[-54.48215,-29.70052],[-54.4813,-29.69838],[-54.48124,-29.69574],[-54.48087,-29.69368],[-54.47975,-29.69309],[-54.47836,-29.69357],[-54.47661,-29.69533],[-54.47544,-29.69498],[-54.47391,-29.69238],[-54.47562,-29.69097],[-54.47619,-29.69019],[-54.4753,-29.68869],[-54.47475,-29.68711],[-54.47561,-29.68453],[-54.47559,-29.68364],[-54.47493,-29.68159],[-54.47439,-29.68086],[-54.47152,-29.67855],[-54.46834,-29.67689],[-54.46781,-29.67576],[-54.46885,-29.67508],[-54.47149,-29.67511],[-54.47232,-29.67394],[-54.47134,-29.67091],[-54.47194,-29.66767],[-54.47195,-29.66576],[-54.47744,-29.66635],[-54.47993,-29.666],[-54.4998,-29.66051],[-54.51949,-29.65496],[-54.52502,-29.6536],[-54.53481,-29.65096],[-54.53633,-29.65069],[-54.54181,-29.65046],[-54.54413,-29.65051],[-54.55095,-29.65108],[-54.55571,-29.6518],[-54.57273,-29.65456],[-54.57681,-29.6529],[-54.58081,-29.6518],[-54.58894,-29.65212],[-54.59203,-29.65291],[-54.59564,-29.65312],[-54.59884,-29.65162],[-54.59878,-29.64938],[-54.59912,-29.64719],[-54.60181,-29.64643],[-54.60414,-29.64497],[-54.60641,-29.6416],[-54.61001,-29.63776],[-54.61219,-29.63432],[-54.61346,-29.63386],[-54.6154,-29.63442],[-54.61754,-29.63646],[-54.62141,-29.63672],[-54.62749,-29.63426],[-54.62918,-29.63446],[-54.6289,-29.63321],[-54.63135,-29.63459],[-54.63413,-29.63401],[-54.63556,-29.63284],[-54.63635,-29.6311],[-54.63889,-29.62837],[-54.64102,-29.62558],[-54.64289,-29.62439],[-54.6442,-29.62246],[-54.64473,-29.6206],[-54.64632,-29.61887],[-54.64701,-29.61664],[-54.64795,-29.61578],[-54.64996,-29.61562],[-54.65319,-29.61285],[-54.65727,-29.61178],[-54.6614,-29.61176],[-54.66414,-29.61034],[-54.66593,-29.61013],[-54.66797,-29.61119],[-54.67139,-29.60998],[-54.67374,-29.60883],[-54.67597,-29.6096],[-54.67978,-29.61128],[-54.68185,-29.6137],[-54.68237,-29.616],[-54.68269,-29.61961],[-54.68218,-29.62055],[-54.68259,-29.62285],[-54.68455,-29.62527],[-54.68558,-29.62763],[-54.69042,-29.63139],[-54.69502,-29.63386],[-54.7,-29.63477],[-54.70214,-29.63408],[-54.70356,-29.63474],[-54.70456,-29.63622],[-54.70642,-29.63676],[-54.71152,-29.63753],[-54.7158,-29.63917],[-54.72044,-29.63973],[-54.72265,-29.63875],[-54.72371,-29.64137],[-54.726,-29.64209],[-54.72631,-29.64366],[-54.72767,-29.64427],[-54.72975,-29.64391],[-54.73024,-29.64509],[-54.73049,-29.64675],[-54.73559,-29.64871],[-54.73676,-29.64815],[-54.74133,-29.64691],[-54.74411,-29.64584],[-54.7464,-29.64612],[-54.74995,-29.6484],[-54.75329,-29.64787],[-54.75407,-29.64642],[-54.75494,-29.64629],[-54.75657,-29.6453],[-54.75748,-29.64575],[-54.75979,-29.64545],[-54.76073,-29.64573],[-54.76573,-29.64601],[-54.76854,-29.64606],[-54.76998,-29.64589],[-54.77244,-29.64646],[-54.77406,-29.64605],[-54.77645,-29.64617],[-54.77895,-29.6447],[-54.78033,-29.64448],[-54.78238,-29.64553],[-54.78438,-29.6461],[-54.78566,-29.64549],[-54.78697,-29.64371],[-54.7881,-29.64327],[-54.79132,-29.64303],[-54.79266,-29.64237],[-54.79314,-29.64135],[-54.79188,-29.63831],[-54.79306,-29.63706],[-54.79788,-29.63624],[-54.79934,-29.63529],[-54.80078,-29.63352],[-54.80085,-29.6311],[-54.80012,-29.62946],[-54.79902,-29.62861],[-54.79798,-29.6283],[-54.79821,-29.62752],[-54.7977,-29.6248],[-54.79862,-29.62314],[-54.8,-29.62278],[-54.80051,-29.62318],[-54.80189,-29.62532],[-54.80435,-29.62685],[-54.80489,-29.62785],[-54.8054,-29.63075],[-54.80647,-29.63214],[-54.80966,-29.63335],[-54.81081,-29.63428],[-54.81254,-29.63734],[-54.81332,-29.6383],[-54.81457,-29.63893],[-54.81654,-29.63821],[-54.81792,-29.6369],[-54.81926,-29.63523],[-54.8203,-29.63506],[-54.82146,-29.63544],[-54.82384,-29.6368],[-54.82469,-29.63758],[-54.82642,-29.63996],[-54.82729,-29.64396],[-54.82717,-29.64652],[-54.82663,-29.65012],[-54.82512,-29.65482],[-54.82537,-29.65689],[-54.82724,-29.65981],[-54.82971,-29.66271],[-54.83064,-29.66407],[-54.82977,-29.66455],[-54.82889,-29.66395],[-54.82737,-29.66428],[-54.82724,-29.66321],[-54.82472,-29.66339],[-54.82252,-29.66386],[-54.82125,-29.66446],[-54.81962,-29.66606],[-54.8176,-29.66591],[-54.81705,-29.66692],[-54.81491,-29.6675],[-54.81239,-29.6674],[-54.8109,-29.66917],[-54.80857,-29.66953],[-54.80736,-29.67046],[-54.80605,-29.671],[-54.80242,-29.67027],[-54.80135,-29.67076],[-54.80072,-29.6721],[-54.79944,-29.67314],[-54.79685,-29.67338],[-54.79568,-29.6751],[-54.79451,-29.67565],[-54.79349,-29.67697],[-54.79203,-29.67712],[-54.7918,-29.67824],[-54.79219,-29.67887],[-54.79097,-29.67997],[-54.79101,-29.68121],[-54.79145,-29.68217],[-54.79115,-29.68368],[-54.79007,-29.68613],[-54.79043,-29.68805],[-54.78954,-29.68916],[-54.78999,-29.68995],[-54.79041,-29.69204],[-54.78878,-29.69348],[-54.78635,-29.69714],[-54.78452,-29.69863],[-54.78277,-29.69967],[-54.77953,-29.70248],[-54.77789,-29.70464],[-54.77668,-29.70681],[-54.77678,-29.70867],[-54.77831,-29.71117],[-54.78077,-29.71385],[-54.78251,-29.71646],[-54.78432,-29.71846],[-54.78657,-29.72007],[-54.78732,-29.72344],[-54.78757,-29.72621],[-54.78808,-29.72723],[-54.78989,-29.72912],[-54.79055,-29.73081],[-54.79021,-29.73446],[-54.7915,-29.7392],[-54.79094,-29.74054],[-54.78895,-29.74315],[-54.7873,-29.74267],[-54.78519,-29.74376],[-54.78373,-29.74396],[-54.78407,-29.74633],[-54.78339,-29.74721],[-54.78159,-29.74775],[-54.78037,-29.74868],[-54.77914,-29.75012],[-54.77649,-29.74997],[-54.77519,-29.75011],[-54.77425,-29.75071],[-54.77369,-29.75233],[-54.77251,-29.75473],[-54.77021,-29.75671],[-54.76883,-29.75888],[-54.76796,-29.76095],[-54.76836,-29.7636],[-54.7682,-29.76472],[-54.76633,-29.76862],[-54.76576,-29.77013],[-54.76665,-29.77854],[-54.76649,-29.78768],[-54.76666,-29.78986],[-54.76763,-29.79093],[-54.77165,-29.79469],[-54.77323,-29.79658],[-54.77351,-29.79886],[-54.77412,-29.80143],[-54.77623,-29.80507],[-54.77885,-29.81112],[-54.78057,-29.81375],[-54.78203,-29.81484],[-54.78561,-29.81551],[-54.7898,-29.81536],[-54.79157,-29.81621],[-54.7974,-29.82262],[-54.79822,-29.82474],[-54.79764,-29.82881],[-54.7987,-29.83093],[-54.79828,-29.83639],[-54.79622,-29.83502],[-54.79349,-29.8341],[-54.79265,-29.83351],[-54.79141,-29.83144],[-54.79006,-29.83012],[-54.78771,-29.82964],[-54.78612,-29.82981],[-54.78227,-29.82946],[-54.77956,-29.82972],[-54.77841,-29.82955],[-54.7767,-29.82853],[-54.77523,-29.82899],[-54.77507,-29.83062],[-54.77404,-29.83178],[-54.77108,-29.83231],[-54.76846,-29.83407],[-54.7669,-29.83423],[-54.76299,-29.83373],[-54.76159,-29.83285],[-54.76126,-29.83048],[-54.75961,-29.82855],[-54.75719,-29.82728],[-54.75558,-29.82617],[-54.75473,-29.82725],[-54.75473,-29.82904],[-54.75393,-29.82993],[-54.7514,-29.83002],[-54.75002,-29.82916],[-54.74843,-29.82871],[-54.74714,-29.82883],[-54.74634,-29.82999],[-54.74682,-29.83197],[-54.74654,-29.83295],[-54.74501,-29.83319],[-54.74347,-29.83222],[-54.74164,-29.83143]]]},"properties":{"codigo":"431980205","name":"São Vicente do Sul","population":7102,"households":3584,"areaKm2":532.4761,"density":13.3}},{"type":"Feature","geometry":{"type":"Polygon","coordinates":[[[-54.74665,-29.59572],[-54.7452,-29.59566],[-54.74388,-29.59642],[-54.74367,-29.59712],[-54.74381,-29.60006],[-54.74463,-29.60086],[-54.74755,-29.60093],[-54.74979,-29.60198],[-54.7515,-29.60331],[-54.75236,-29.60436],[-54.75263,-29.60536],[-54.75382,-29.60708],[-54.75448,-29.6089],[-54.75384,-29.61142],[-54.75439,-29.61282],[-54.75578,-29.61347],[-54.75763,-29.61367],[-54.76327,-29.61333],[-54.76445,-29.61258],[-54.7656,-29.61073],[-54.76728,-29.61016],[-54.76927,-29.6103],[-54.77278,-29.61089],[-54.77485,-29.61076],[-54.77634,-29.61092],[-54.77755,-29.61201],[-54.77783,-29.61358],[-54.77764,-29.61432],[-54.77559,-29.61653],[-54.77555,-29.61835],[-54.77611,-29.61963],[-54.77705,-29.62076],[-54.77833,-29.62156],[-54.78453,-29.62392],[-54.78673,-29.62536],[-54.79004,-29.62685],[-54.79318,-29.62915],[-54.79446,-29.62955],[-54.79713,-29.62921],[-54.79798,-29.6283],[-54.79902,-29.62861],[-54.80012,-29.62946],[-54.80085,-29.6311],[-54.80078,-29.63352],[-54.79934,-29.63529],[-54.79788,-29.63624],[-54.79306,-29.63706],[-54.79188,-29.63831],[-54.79314,-29.64135],[-54.79266,-29.64237],[-54.79132,-29.64303],[-54.7881,-29.64327],[-54.78697,-29.64371],[-54.78566,-29.64549],[-54.78438,-29.6461],[-54.78238,-29.64553],[-54.78033,-29.64448],[-54.77895,-29.6447],[-54.77645,-29.64617],[-54.77406,-29.64605],[-54.77244,-29.64646],[-54.76998,-29.64589],[-54.76854,-29.64606],[-54.76573,-29.64601],[-54.76073,-29.64573],[-54.75979,-29.64545],[-54.75748,-29.64575],[-54.75657,-29.6453],[-54.75494,-29.64629],[-54.75407,-29.64642],[-54.75329,-29.64787],[-54.74995,-29.6484],[-54.7464,-29.64612],[-54.74411,-29.64584],[-54.74133,-29.64691],[-54.73676,-29.64815],[-54.73559,-29.64871],[-54.73049,-29.64675],[-54.73024,-29.64509],[-54.72975,-29.64391],[-54.72767,-29.64427],[-54.72631,-29.64366],[-54.726,-29.64209],[-54.72371,-29.64137],[-54.72265,-29.63875],[-54.72044,-29.63973],[-54.7158,-29.63917],[-54.71152,-29.63753],[-54.70642,-29.63676],[-54.70456,-29.63622],[-54.70356,-29.63474],[-54.70214,-29.63408],[-54.7,-29.63477],[-54.69502,-29.63386],[-54.69042,-29.63139],[-54.68558,-29.62763],[-54.68455,-29.62527],[-54.68259,-29.62285],[-54.68218,-29.62055],[-54.68269,-29.61961],[-54.68237,-29.616],[-54.68185,-29.6137],[-54.67978,-29.61128],[-54.67597,-29.6096],[-54.67374,-29.60883],[-54.67139,-29.60998],[-54.66797,-29.61119],[-54.66593,-29.61013],[-54.66414,-29.61034],[-54.6614,-29.61176],[-54.65727,-29.61178],[-54.65319,-29.61285],[-54.64996,-29.61562],[-54.64795,-29.61578],[-54.64701,-29.61664],[-54.64632,-29.61887],[-54.64473,-29.6206],[-54.6442,-29.62246],[-54.64289,-29.62439],[-54.64102,-29.62558],[-54.63889,-29.62837],[-54.63635,-29.6311],[-54.63556,-29.63284],[-54.63413,-29.63401],[-54.63135,-29.63459],[-54.6289,-29.63321],[-54.62918,-29.63446],[-54.62749,-29.63426],[-54.62141,-29.63672],[-54.61754,-29.63646],[-54.6154,-29.63442],[-54.61346,-29.63386],[-54.61219,-29.63432],[-54.61001,-29.63776],[-54.60641,-29.6416],[-54.60414,-29.64497],[-54.60181,-29.64643],[-54.59912,-29.64719],[-54.59878,-29.64938],[-54.59884,-29.65162],[-54.59564,-29.65312],[-54.59203,-29.65291],[-54.58894,-29.65212],[-54.58081,-29.6518],[-54.57681,-29.6529],[-54.57273,-29.65456],[-54.55571,-29.6518],[-54.55095,-29.65108],[-54.54413,-29.65051],[-54.54181,-29.65046],[-54.53633,-29.65069],[-54.53481,-29.65096],[-54.52502,-29.6536],[-54.51949,-29.65496],[-54.4998,-29.66051],[-54.47993,-29.666],[-54.47744,-29.66635],[-54.47195,-29.66576],[-54.47043,-29.66403],[-54.46716,-29.66243],[-54.46495,-29.66094],[-54.46335,-29.659],[-54.46374,-29.65658],[-54.46536,-29.6543],[-54.46919,-29.6515],[-54.46992,-29.65133],[-54.47139,-29.65233],[-54.47428,-29.6514],[-54.47733,-29.65194],[-54.47879,-29.65146],[-54.47914,-29.6498],[-54.47789,-29.64767],[-54.47892,-29.64635],[-54.48032,-29.64532],[-54.48289,-29.64459],[-54.48286,-29.64376],[-54.48397,-29.64366],[-54.48436,-29.64125],[-54.48577,-29.64099],[-54.48599,-29.64009],[-54.4889,-29.64025],[-54.4893,-29.63927],[-54.49023,-29.63891],[-54.4908,-29.63716],[-54.49195,-29.63677],[-54.4927,-29.63596],[-54.49174,-29.63507],[-54.49129,-29.63359],[-54.49223,-29.63342],[-54.49346,-29.63385],[-54.4946,-29.63311],[-54.49673,-29.63304],[-54.49701,-29.63201],[-54.49793,-29.63184],[-54.4991,-29.63045],[-54.5,-29.63038],[-54.50219,-29.62837],[-54.50324,-29.62848],[-54.50518,-29.6277],[-54.50729,-29.62794],[-54.50804,-29.62846],[-54.51154,-29.62866],[-54.51225,-29.62769],[-54.51194,-29.62715],[-54.51314,-29.62579],[-54.51465,-29.62456],[-54.51465,-29.62261],[-54.51573,-29.62184],[-54.51673,-29.62226],[-54.51769,-29.62109],[-54.51765,-29.62013],[-54.5188,-29.61995],[-54.52174,-29.61867],[-54.52154,-29.61815],[-54.5238,-29.6167],[-54.52587,-29.61419],[-54.52834,-29.61375],[-54.52939,-29.61291],[-54.5326,-29.61272],[-54.53544,-29.61287],[-54.53611,-29.61162],[-54.53698,-29.61107],[-54.53964,-29.6112],[-54.5412,-29.60925],[-54.54252,-29.60866],[-54.54271,-29.60765],[-54.54184,-29.60515],[-54.54299,-29.60363],[-54.54598,-29.60365],[-54.54763,-29.60465],[-54.55,-29.6042],[-54.55291,-29.60213],[-54.55577,-29.60137],[-54.55888,-29.60162],[-54.56017,-29.60075],[-54.5611,-29.59879],[-54.56172,-29.5981],[-54.56284,-29.59826],[-54.56464,-29.5957],[-54.56437,-29.59509],[-54.56468,-29.59342],[-54.56638,-29.59209],[-54.56417,-29.58938],[-54.56433,-29.58819],[-54.56607,-29.58789],[-54.56724,-29.5868],[-54.56848,-29.58483],[-54.56943,-29.58525],[-54.57087,-29.58528],[-54.57177,-29.58476],[-54.57288,-29.58226],[-54.573,-29.58096],[-54.57248,-29.57782],[-54.57141,-29.57445],[-54.57048,-29.57255],[-54.57047,-29.57184],[-54.56911,-29.57037],[-54.56879,-29.56917],[-54.56782,-29.56839],[-54.56688,-29.56875],[-54.56582,-29.56778],[-54.56502,-29.56758],[-54.56372,-29.56834],[-54.56181,-29.56877],[-54.55733,-29.568],[-54.55522,-29.56713],[-54.55385,-29.56686],[-54.55278,-29.56725],[-54.55184,-29.56697],[-54.54375,-29.55182],[-54.54269,-29.55044],[-54.543,-29.54812],[-54.54458,-29.5466],[-54.54608,-29.54608],[-54.54711,-29.54481],[-54.54927,-29.54283],[-54.55309,-29.54267],[-54.55419,-29.54197],[-54.55566,-29.54286],[-54.55649,-29.54298],[-54.55772,-29.5421],[-54.55957,-29.53983],[-54.56024,-29.53941],[-54.56123,-29.54005],[-54.56261,-29.54018],[-54.56381,-29.54131],[-54.5648,-29.54145],[-54.56615,-29.54248],[-54.56722,-29.54276],[-54.56968,-29.53974],[-54.56926,-29.5329],[-54.56938,-29.5309],[-54.57087,-29.53189],[-54.57285,-29.53363],[-54.57811,-29.53521],[-54.57964,-29.5342],[-54.58177,-29.53452],[-54.5818,-29.53383],[-54.58275,-29.53163],[-54.58355,-29.53076],[-54.58671,-29.52878],[-54.58758,-29.52882],[-54.58954,-29.53094],[-54.59137,-29.53251],[-54.59167,-29.53409],[-54.59283,-29.53744],[-54.5936,-29.53825],[-54.5966,-29.54027],[-54.59797,-29.54059],[-54.59971,-29.54258],[-54.60136,-29.54313],[-54.60313,-29.54189],[-54.60709,-29.54279],[-54.61111,-29.5449],[-54.61191,-29.54475],[-54.61705,-29.54577],[-54.61829,-29.54653],[-54.62008,-29.54699],[-54.62226,-29.54719],[-54.62415,-29.54837],[-54.62547,-29.54966],[-54.62736,-29.55054],[-54.63286,-29.57277],[-54.63523,-29.573],[-54.63652,-29.57288],[-54.63833,-29.57095],[-54.64068,-29.5702],[-54.64113,-29.57042],[-54.64284,-29.56987],[-54.64378,-29.56952],[-54.64497,-29.56812],[-54.64824,-29.5681],[-54.64983,-29.56847],[-54.65163,-29.56725],[-54.65282,-29.56574],[-54.65378,-29.56517],[-54.65469,-29.56365],[-54.65695,-29.56329],[-54.65767,-29.56289],[-54.65826,-29.56118],[-54.65961,-29.5611],[-54.66067,-29.56054],[-54.6632,-29.56081],[-54.66391,-29.56039],[-54.66547,-29.56141],[-54.66596,-29.56225],[-54.66699,-29.56196],[-54.66847,-29.5622],[-54.66902,-29.56269],[-54.67154,-29.56226],[-54.67311,-29.56256],[-54.67469,-29.56398],[-54.6757,-29.5655],[-54.67684,-29.56582],[-54.67862,-29.56529],[-54.68048,-29.56551],[-54.6817,-29.56487],[-54.68238,-29.56689],[-54.68357,-29.56672],[-54.68387,-29.56738],[-54.68306,-29.56901],[-54.68489,-29.57013],[-54.68698,-29.57203],[-54.68928,-29.57236],[-54.69054,-29.57343],[-54.69452,-29.57446],[-54.69487,-29.57558],[-54.69694,-29.57617],[-54.69859,-29.58009],[-54.69796,-29.58127],[-54.6985,-29.58155],[-54.69961,-29.58343],[-54.70037,-29.58363],[-54.70158,-29.58569],[-54.7031,-29.5854],[-54.70446,-29.5859],[-54.70547,-29.58679],[-54.70627,-29.58842],[-54.7072,-29.58872],[-54.70924,-29.58882],[-54.70984,-29.5894],[-54.71135,-29.5894],[-54.71215,-29.58997],[-54.71311,-29.58968],[-54.7149,-29.59023],[-54.71654,-29.59031],[-54.71806,-29.5899],[-54.71914,-29.59052],[-54.71923,-29.5924],[-54.72066,-29.59418],[-54.72351,-29.59377],[-54.72448,-29.59484],[-54.72585,-29.59457],[-54.72749,-29.59474],[-54.7287,-29.59412],[-54.72963,-29.59279],[-54.73162,-29.59125],[-54.73381,-29.59064],[-54.73449,-29.59001],[-54.73605,-29.58943],[-54.73705,-29.58946],[-54.73926,-29.59023],[-54.74181,-29.58926],[-54.74372,-29.58981],[-54.74662,-29.59021],[-54.74863,-29.59176],[-54.74897,-29.59328],[-54.74785,-29.59532],[-54.74665,-29.59572]]]},"properties":{"codigo":"431980210","name":"Cavajuretã","population":255,"households":188,"areaKm2":194.4502,"density":1.3}},{"type":"Feature","geometry":{"type":"Polygon","coordinates":[[[-55.12174,-29.76696],[-55.11867,-29.76643],[-55.11546,-29.76562],[-55.11247,-29.76468],[-55.11007,-29.76361],[-55.10898,-29.76271],[-55.10666,-29.76141],[-55.10353,-29.759],[-55.10211,-29.7581],[-55.09799,-29.75644],[-55.09593,-29.75578],[-55.09067,-29.75486],[-55.08901,-29.75485],[-55.08701,-29.75526],[-55.08447,-29.75634],[-55.08089,-29.75764],[-55.07994,-29.75859],[-55.07946,-29.76007],[-55.0795,-29.76187],[-55.08208,-29.76441],[-55.08397,-29.76543],[-55.08798,-29.766],[-55.09495,-29.76797],[-55.09666,-29.76827],[-55.09795,-29.76922],[-55.09841,-29.77111],[-55.09844,-29.77342],[-55.09718,-29.77565],[-55.09539,-29.77699],[-55.09257,-29.77768],[-55.09061,-29.77779],[-55.08541,-29.77693],[-55.08373,-29.77697],[-55.08213,-29.77733],[-55.07765,-29.77938],[-55.07592,-29.7796],[-55.07377,-29.77901],[-55.07177,-29.77797],[-55.07046,-29.77667],[-55.06977,-29.77437],[-55.0695,-29.7725],[-55.06959,-29.76769],[-55.06898,-29.76611],[-55.06706,-29.76413],[-55.06468,-29.76343],[-55.06136,-29.76385],[-55.0586,-29.7647],[-55.05693,-29.76578],[-55.05556,-29.76713],[-55.05479,-29.76973],[-55.05469,-29.7711],[-55.05379,-29.77434],[-55.05227,-29.7769],[-55.05051,-29.77886],[-55.04706,-29.78168],[-55.04412,-29.78364],[-55.04138,-29.78465],[-55.03966,-29.78485],[-55.03744,-29.78459],[-55.0346,-29.78384],[-55.02697,-29.7829],[-55.015,-29.78187],[-55.01249,-29.78096],[-55.00983,-29.77979],[-55.00763,-29.77901],[-55.00544,-29.77887],[-55.0009,-29.77884],[-54.99758,-29.77914],[-54.99213,-29.77984],[-54.98664,-29.78074],[-54.98219,-29.78064],[-54.97773,-29.77928],[-54.97393,-29.77831],[-54.97054,-29.77725],[-54.9674,-29.77671],[-54.96363,-29.7767],[-54.95996,-29.77714],[-54.95809,-29.77779],[-54.95655,-29.77871],[-54.95563,-29.77968],[-54.95403,-29.78218],[-54.95264,-29.78385],[-54.95106,-29.78502],[-54.94919,-29.78585],[-54.9465,-29.78585],[-54.9444,-29.78512],[-54.93869,-29.78264],[-54.93671,-29.78217],[-54.93207,-29.78308],[-54.92888,-29.78402],[-54.9271,-29.78486],[-54.92571,-29.78601],[-54.92429,-29.78779],[-54.92265,-29.79068],[-54.92061,-29.79599],[-54.92018,-29.79801],[-54.92033,-29.79979],[-54.92095,-29.80286],[-54.92031,-29.80638],[-54.92024,-29.8086],[-54.91983,-29.8095],[-54.91775,-29.81091],[-54.91584,-29.81103],[-54.91348,-29.81067],[-54.91228,-29.81021],[-54.91196,-29.80935],[-54.91241,-29.80677],[-54.91256,-29.80401],[-54.9119,-29.80232],[-54.90922,-29.80081],[-54.90747,-29.80065],[-54.90678,-29.80152],[-54.90669,-29.80453],[-54.90925,-29.80681],[-54.90938,-29.80954],[-54.9063,-29.81026],[-54.90313,-29.8117],[-54.90133,-29.81183],[-54.89906,-29.81088],[-54.89794,-29.80972],[-54.8966,-29.80909],[-54.88995,-29.80799],[-54.88742,-29.80668],[-54.88425,-29.8067],[-54.88282,-29.807],[-54.88143,-29.80681],[-54.87993,-29.80576],[-54.87789,-29.80567],[-54.87732,-29.80712],[-54.87914,-29.809],[-54.8792,-29.81121],[-54.87804,-29.81251],[-54.87551,-29.81305],[-54.87418,-29.81353],[-54.87354,-29.81449],[-54.8734,-29.81617],[-54.87379,-29.81749],[-54.87381,-29.819],[-54.87341,-29.82005],[-54.87175,-29.82162],[-54.86859,-29.82222],[-54.86729,-29.82286],[-54.86678,-29.82419],[-54.86726,-29.82491],[-54.86843,-29.82549],[-54.86939,-29.82662],[-54.86942,-29.82787],[-54.86886,-29.82875],[-54.86783,-29.82914],[-54.86565,-29.8291],[-54.86413,-29.82935],[-54.86265,-29.83015],[-54.86113,-29.8327],[-54.85898,-29.83446],[-54.85816,-29.83699],[-54.85745,-29.83747],[-54.85448,-29.83791],[-54.85327,-29.83788],[-54.85124,-29.8372],[-54.84984,-29.83714],[-54.84877,-29.83804],[-54.84918,-29.83943],[-54.85094,-29.84052],[-54.85111,-29.84209],[-54.85051,-29.84315],[-54.84729,-29.84413],[-54.84594,-29.845],[-54.84468,-29.84838],[-54.84311,-29.84997],[-54.84209,-29.85012],[-54.83904,-29.84929],[-54.83743,-29.84954],[-54.83662,-29.85088],[-54.83594,-29.85422],[-54.83534,-29.85541],[-54.83319,-29.85621],[-54.83212,-29.85589],[-54.83017,-29.8535],[-54.82802,-29.85178],[-54.82713,-29.85076],[-54.82593,-29.84758],[-54.8261,-29.84636],[-54.82825,-29.84312],[-54.82779,-29.84192],[-54.82573,-29.84173],[-54.82468,-29.84256],[-54.8241,-29.84425],[-54.8244,-29.84565],[-54.82392,-29.84728],[-54.82266,-29.84795],[-54.82131,-29.84819],[-54.81818,-29.84673],[-54.81677,-29.84559],[-54.81538,-29.84486],[-54.81269,-29.84463],[-54.81053,-29.84552],[-54.80973,-29.84552],[-54.80873,-29.84447],[-54.8085,-29.84309],[-54.80852,-29.84086],[-54.80818,-29.84015],[-54.80592,-29.83919],[-54.80256,-29.83899],[-54.80125,-29.83854],[-54.79828,-29.83639],[-54.7987,-29.83093],[-54.79764,-29.82881],[-54.79822,-29.82474],[-54.7974,-29.82262],[-54.79157,-29.81621],[-54.7898,-29.81536],[-54.78561,-29.81551],[-54.78203,-29.81484],[-54.78057,-29.81375],[-54.77885,-29.81112],[-54.77623,-29.80507],[-54.77412,-29.80143],[-54.77351,-29.79886],[-54.77323,-29.79658],[-54.77165,-29.79469],[-54.76763,-29.79093],[-54.76666,-29.78986],[-54.76649,-29.78768],[-54.76665,-29.77854],[-54.76576,-29.77013],[-54.76633,-29.76862],[-54.7682,-29.76472],[-54.76836,-29.7636],[-54.76796,-29.76095],[-54.76883,-29.75888],[-54.77021,-29.75671],[-54.77251,-29.75473],[-54.77369,-29.75233],[-54.77425,-29.75071],[-54.77519,-29.75011],[-54.77649,-29.74997],[-54.77914,-29.75012],[-54.78037,-29.74868],[-54.78159,-29.74775],[-54.78339,-29.74721],[-54.78407,-29.74633],[-54.78373,-29.74396],[-54.78519,-29.74376],[-54.7873,-29.74267],[-54.78895,-29.74315],[-54.79094,-29.74054],[-54.7915,-29.7392],[-54.79021,-29.73446],[-54.79055,-29.73081],[-54.78989,-29.72912],[-54.78808,-29.72723],[-54.78757,-29.72621],[-54.78732,-29.72344],[-54.78657,-29.72007],[-54.78432,-29.71846],[-54.78251,-29.71646],[-54.78077,-29.71385],[-54.77831,-29.71117],[-54.77678,-29.70867],[-54.77668,-29.70681],[-54.77789,-29.70464],[-54.77953,-29.70248],[-54.78277,-29.69967],[-54.78452,-29.69863],[-54.78635,-29.69714],[-54.78878,-29.69348],[-54.79041,-29.69204],[-54.78999,-29.68995],[-54.78954,-29.68916],[-54.79043,-29.68805],[-54.79007,-29.68613],[-54.79115,-29.68368],[-54.79145,-29.68217],[-54.79101,-29.68121],[-54.79097,-29.67997],[-54.79219,-29.67887],[-54.7918,-29.67824],[-54.79203,-29.67712],[-54.79349,-29.67697],[-54.79451,-29.67565],[-54.79568,-29.6751],[-54.79685,-29.67338],[-54.79944,-29.67314],[-54.80072,-29.6721],[-54.80135,-29.67076],[-54.80242,-29.67027],[-54.80605,-29.671],[-54.80736,-29.67046],[-54.80857,-29.66953],[-54.8109,-29.66917],[-54.81239,-29.6674],[-54.81491,-29.6675],[-54.81705,-29.66692],[-54.8176,-29.66591],[-54.81962,-29.66606],[-54.82125,-29.66446],[-54.82252,-29.66386],[-54.82472,-29.66339],[-54.82724,-29.66321],[-54.82737,-29.66428],[-54.82889,-29.66395],[-54.82977,-29.66455],[-54.83064,-29.66407],[-54.83212,-29.66572],[-54.83367,-29.66643],[-54.8349,-29.66634],[-54.83786,-29.66548],[-54.84138,-29.66364],[-54.84398,-29.66249],[-54.84542,-29.66206],[-54.84777,-29.66184],[-54.84907,-29.66143],[-54.8503,-29.66047],[-54.85205,-29.6578],[-54.85401,-29.65657],[-54.85534,-29.657],[-54.85479,-29.65874],[-54.85538,-29.66297],[-54.85796,-29.66557],[-54.85857,-29.66656],[-54.85889,-29.66834],[-54.85983,-29.66959],[-54.86259,-29.6705],[-54.86498,-29.67075],[-54.86738,-29.67075],[-54.87055,-29.67012],[-54.87381,-29.66817],[-54.87705,-29.6658],[-54.87904,-29.66473],[-54.88325,-29.66346],[-54.88537,-29.66333],[-54.88869,-29.66381],[-54.89153,-29.66362],[-54.89407,-29.66379],[-54.90111,-29.66577],[-54.90372,-29.66625],[-54.90577,-29.66767],[-54.90691,-29.66805],[-54.90812,-29.66792],[-54.91001,-29.66685],[-54.91519,-29.66317],[-54.91655,-29.66269],[-54.91843,-29.66249],[-54.92255,-29.66263],[-54.92502,-29.66347],[-54.9258,-29.66438],[-54.92753,-29.66859],[-54.92887,-29.67012],[-54.93156,-29.67206],[-54.93227,-29.67329],[-54.93298,-29.67621],[-54.93328,-29.68043],[-54.93465,-29.68093],[-54.93622,-29.67976],[-54.93733,-29.678],[-54.93839,-29.67714],[-54.94119,-29.67621],[-54.94247,-29.67616],[-54.944,-29.67655],[-54.94582,-29.67846],[-54.94858,-29.68311],[-54.94956,-29.68536],[-54.95045,-29.68684],[-54.95256,-29.68888],[-54.95514,-29.69025],[-54.95854,-29.69239],[-54.96057,-29.69407],[-54.96228,-29.69574],[-54.96339,-29.69647],[-54.96451,-29.69668],[-54.9683,-29.69664],[-54.96976,-29.69618],[-54.97147,-29.69609],[-54.97383,-29.69549],[-54.97559,-29.69452],[-54.97726,-29.69322],[-54.97924,-29.692],[-54.98042,-29.69219],[-54.9809,-29.6934],[-54.98067,-29.69543],[-54.98003,-29.69666],[-54.97789,-29.69839],[-54.97726,-29.69949],[-54.97766,-29.70093],[-54.97889,-29.702],[-54.98129,-29.70257],[-54.98255,-29.70239],[-54.98549,-29.70064],[-54.98776,-29.69973],[-54.98868,-29.6997],[-54.98988,-29.70044],[-54.99066,-29.70271],[-54.99198,-29.70493],[-54.99463,-29.70663],[-55.00026,-29.70879],[-55.00391,-29.70997],[-55.0071,-29.71073],[-55.00872,-29.71089],[-55.01042,-29.71061],[-55.01179,-29.70982],[-55.01421,-29.70806],[-55.01722,-29.70688],[-55.02075,-29.70622],[-55.02463,-29.70676],[-55.02697,-29.70634],[-55.02809,-29.70586],[-55.03101,-29.70538],[-55.03245,-29.70549],[-55.0366,-29.70645],[-55.03935,-29.70611],[-55.04205,-29.70449],[-55.04508,-29.70296],[-55.04734,-29.70045],[-55.0495,-29.69869],[-55.04994,-29.69794],[-55.0498,-29.69511],[-55.05162,-29.69399],[-55.05308,-29.69253],[-55.0556,-29.69192],[-55.05721,-29.69235],[-55.05977,-29.69399],[-55.06134,-29.69441],[-55.0628,-29.69392],[-55.0634,-29.69238],[-55.06351,-29.69078],[-55.06159,-29.68861],[-55.06102,-29.68651],[-55.06152,-29.68476],[-55.06305,-29.68284],[-55.06518,-29.68202],[-55.06803,-29.6817],[-55.07024,-29.6812],[-55.07206,-29.68027],[-55.07252,-29.67881],[-55.07191,-29.67664],[-55.07191,-29.67528],[-55.07298,-29.67436],[-55.07615,-29.67332],[-55.07697,-29.67229],[-55.07726,-29.67101],[-55.07708,-29.66958],[-55.07619,-29.66663],[-55.07444,-29.65981],[-55.0749,-29.65878],[-55.07727,-29.65726],[-55.08018,-29.65443],[-55.08251,-29.65153],[-55.0855,-29.64861],[-55.08824,-29.6471],[-55.09013,-29.64699],[-55.09198,-29.64729],[-55.09344,-29.64802],[-55.09454,-29.64897],[-55.09501,-29.65039],[-55.09476,-29.65224],[-55.0933,-29.65858],[-55.09387,-29.66061],[-55.09508,-29.66104],[-55.09654,-29.66072],[-55.09892,-29.65944],[-55.10259,-29.6584],[-55.10843,-29.65758],[-55.11374,-29.65716],[-55.11655,-29.65716],[-55.11869,-29.65741],[-55.12136,-29.65858],[-55.1241,-29.66025],[-55.12488,-29.66154],[-55.12486,-29.66308],[-55.12424,-29.66471],[-55.12307,-29.66595],[-55.12104,-29.66706],[-55.12022,-29.66809],[-55.12025,-29.66909],[-55.12115,-29.66981],[-55.12232,-29.67006],[-55.12357,-29.66959],[-55.12499,-29.67006],[-55.12563,-29.6713],[-55.12538,-29.67326],[-55.12588,-29.67461],[-55.12656,-29.67522],[-55.12752,-29.67518],[-55.13048,-29.67355],[-55.13226,-29.67369],[-55.13329,-29.67476],[-55.13404,-29.67625],[-55.13414,-29.67761],[-55.1335,-29.67871],[-55.13172,-29.67931],[-55.12884,-29.67964],[-55.12756,-29.68042],[-55.12674,-29.68149],[-55.12638,-29.68302],[-55.12783,-29.68465],[-55.12924,-29.68494],[-55.13188,-29.68487],[-55.13311,-29.68522],[-55.13402,-29.68597],[-55.13417,-29.68836],[-55.13373,-29.68943],[-55.13276,-29.6905],[-55.13154,-29.69119],[-55.1311,-29.69245],[-55.13135,-29.6938],[-55.13342,-29.69509],[-55.13471,-29.69493],[-55.13641,-29.6938],[-55.1381,-29.69339],[-55.14149,-29.69364],[-55.14299,-29.69425],[-55.14406,-29.69507],[-55.14206,-29.69593],[-55.13967,-29.69646],[-55.13703,-29.69668],[-55.1345,-29.69613],[-55.13158,-29.69573],[-55.1289,-29.69634],[-55.12616,-29.69769],[-55.12484,-29.70033],[-55.1242,-29.70354],[-55.12477,-29.70782],[-55.12591,-29.71057],[-55.12751,-29.71317],[-55.12851,-29.71609],[-55.12908,-29.7196],[-55.12833,-29.7242],[-55.12734,-29.72823],[-55.12694,-29.73037],[-55.12737,-29.73237],[-55.1273,-29.73815],[-55.12694,-29.74079],[-55.1263,-29.74321],[-55.12612,-29.74582],[-55.12641,-29.74917],[-55.12766,-29.75174],[-55.13104,-29.7541],[-55.13386,-29.75563],[-55.13543,-29.75713],[-55.136,-29.75923],[-55.13593,-29.7613],[-55.13488,-29.76312],[-55.13165,-29.76518],[-55.12794,-29.7664],[-55.12484,-29.7669],[-55.12174,-29.76696]]]},"properties":{"codigo":"431980215","name":"Loreto","population":740,"households":475,"areaKm2":447.8961,"density":1.7}}]}