{"type":"FeatureCollection","features":[{"type":"Feature","geometry":{"type":"Polygon","coordinates":[[[-52.85141,-27.61055],[-52.84832,-27.61335],[-52.84743,-27.61441],[-52.84674,-27.61365],[-52.84523,-27.61446],[-52.8464,-27.61602],[-52.84565,-27.61705],[-52.84504,-27.6176],[-52.8427,-27.61949],[-52.84077,-27.62113],[-52.84004,-27.62217],[-52.83873,-27.62533],[-52.83782,-27.62774],[-52.83443,-27.62135],[-52.83555,-27.61266],[-52.8362,-27.61243],[-52.83841,-27.61456],[-52.83902,-27.61504],[-52.83965,-27.61419],[-52.84091,-27.61504],[-52.84151,-27.61412],[-52.84265,-27.61338],[-52.8415,-27.61203],[-52.84158,-27.61124],[-52.84489,-27.61112],[-52.84648,-27.60959],[-52.84974,-27.61014],[-52.85112,-27.60888],[-52.85144,-27.60832],[-52.85154,-27.60753],[-52.85184,-27.60369],[-52.85337,-27.60381],[-52.85302,-27.60824],[-52.85272,-27.60916],[-52.85141,-27.61055]]]},"properties":{"codigo":"4321857004","name":"Centro","population":1506,"households":683,"areaKm2":1.3759,"density":1094.5}},{"type":"Feature","geometry":{"type":"Polygon","coordinates":[[[-52.8427,-27.61949],[-52.84338,-27.61953],[-52.84433,-27.61928],[-52.84562,-27.61849],[-52.84616,-27.61834],[-52.84675,-27.61849],[-52.84871,-27.61928],[-52.84987,-27.61963],[-52.85058,-27.61963],[-52.83817,-27.62941],[-52.83739,-27.62888],[-52.83782,-27.62774],[-52.83873,-27.62533],[-52.84004,-27.62217],[-52.84077,-27.62113],[-52.8427,-27.61949]]]},"properties":{"codigo":"4321857003","name":"São Pedro","population":258,"households":104,"areaKm2":0.5933,"density":434.8}},{"type":"Feature","geometry":{"type":"Polygon","coordinates":[[[-52.8362,-27.61243],[-52.83926,-27.61132],[-52.84158,-27.61124],[-52.8415,-27.61203],[-52.84265,-27.61338],[-52.84151,-27.61412],[-52.84091,-27.61504],[-52.83965,-27.61419],[-52.83902,-27.61504],[-52.83841,-27.61456],[-52.8362,-27.61243]]]},"properties":{"codigo":"4321857002","name":"São Luiz","population":164,"households":63,"areaKm2":0.1602,"density":1023.8}},{"type":"Feature","geometry":{"type":"Polygon","coordinates":[[[-52.85141,-27.61055],[-52.8515,-27.61061],[-52.85615,-27.61115],[-52.85058,-27.61963],[-52.84987,-27.61963],[-52.84871,-27.61928],[-52.84675,-27.61849],[-52.84616,-27.61834],[-52.84562,-27.61849],[-52.84433,-27.61928],[-52.84338,-27.61953],[-52.8427,-27.61949],[-52.84504,-27.6176],[-52.84565,-27.61705],[-52.8464,-27.61602],[-52.84523,-27.61446],[-52.84674,-27.61365],[-52.84743,-27.61441],[-52.84832,-27.61335],[-52.85141,-27.61055]]]},"properties":{"codigo":"4321857001","name":"Nossa Senhora Aparecida","population":318,"households":144,"areaKm2":0.6104,"density":520.9}}]}