{"type":"FeatureCollection","features":[{"type":"Feature","geometry":{"type":"Polygon","coordinates":[[[-51.81795,-29.47452],[-51.8186,-29.48673],[-51.81858,-29.48826],[-51.81836,-29.49],[-51.8171,-29.4948],[-51.81661,-29.49438],[-51.8033,-29.49417],[-51.80331,-29.49027],[-51.80336,-29.48915],[-51.80372,-29.48798],[-51.80391,-29.47726],[-51.79999,-29.4772],[-51.79998,-29.47435],[-51.81795,-29.47452]]]},"properties":{"codigo":"4321451002","name":"Centro Administrativo","population":1775,"households":805,"areaKm2":3.2215,"density":551}},{"type":"Feature","geometry":{"type":"Polygon","coordinates":[[[-51.81673,-29.47163],[-51.81577,-29.46983],[-51.8145,-29.46774],[-51.81384,-29.46629],[-51.81362,-29.46536],[-51.81356,-29.46419],[-51.81375,-29.46248],[-51.81478,-29.46252],[-51.81889,-29.46308],[-51.82171,-29.46383],[-51.82231,-29.46382],[-51.823,-29.46342],[-51.82402,-29.46256],[-51.82512,-29.46179],[-51.82522,-29.46063],[-51.82476,-29.45801],[-51.82438,-29.45689],[-51.82476,-29.4563],[-51.8256,-29.45597],[-51.82626,-29.45593],[-51.82749,-29.4567],[-51.8284,-29.45711],[-51.83014,-29.4576],[-51.83181,-29.45797],[-51.83298,-29.45865],[-51.83317,-29.45929],[-51.83289,-29.45964],[-51.83145,-29.46025],[-51.8309,-29.46071],[-51.8289,-29.46275],[-51.82842,-29.4635],[-51.82846,-29.47259],[-51.8176,-29.47253],[-51.81748,-29.47164],[-51.81673,-29.47163]]]},"properties":{"codigo":"4321451006","name":"Alesgut","population":1861,"households":772,"areaKm2":1.8066,"density":1030.1}},{"type":"Feature","geometry":{"type":"Polygon","coordinates":[[[-51.79998,-29.47435],[-51.78976,-29.47426],[-51.79021,-29.47075],[-51.7897,-29.47056],[-51.78758,-29.47021],[-51.78395,-29.47015],[-51.78394,-29.47205],[-51.78221,-29.47202],[-51.78245,-29.46908],[-51.78171,-29.46891],[-51.78257,-29.46795],[-51.78277,-29.46741],[-51.78265,-29.46507],[-51.78232,-29.46376],[-51.7839,-29.465],[-51.78485,-29.466],[-51.78543,-29.4664],[-51.78806,-29.46759],[-51.78989,-29.46774],[-51.79089,-29.4683],[-51.79164,-29.46834],[-51.79288,-29.4676],[-51.79368,-29.46656],[-51.79422,-29.46655],[-51.79511,-29.46698],[-51.7963,-29.46774],[-51.79685,-29.46771],[-51.79781,-29.46705],[-51.79946,-29.46534],[-51.79989,-29.46501],[-51.80189,-29.46392],[-51.80356,-29.46382],[-51.80434,-29.46393],[-51.80612,-29.46526],[-51.80631,-29.467],[-51.80715,-29.4676],[-51.8077,-29.46769],[-51.80831,-29.46703],[-51.80933,-29.46471],[-51.8093,-29.46398],[-51.80995,-29.46334],[-51.8118,-29.46296],[-51.8133,-29.4625],[-51.81375,-29.46248],[-51.81356,-29.46419],[-51.81362,-29.46536],[-51.81384,-29.46629],[-51.8145,-29.46774],[-51.81577,-29.46983],[-51.81673,-29.47163],[-51.81762,-29.47341],[-51.81795,-29.47452],[-51.79998,-29.47435]]]},"properties":{"codigo":"4321451003","name":"Languiru","population":3096,"households":1543,"areaKm2":2.7743,"density":1115.9}},{"type":"Feature","geometry":{"type":"Polygon","coordinates":[[[-51.78171,-29.46891],[-51.78025,-29.46824],[-51.77898,-29.46812],[-51.77773,-29.46916],[-51.77741,-29.46913],[-51.77576,-29.46715],[-51.7752,-29.46685],[-51.77297,-29.46737],[-51.77254,-29.46688],[-51.77146,-29.46712],[-51.77137,-29.46756],[-51.77086,-29.46821],[-51.76918,-29.46948],[-51.76864,-29.47006],[-51.76781,-29.4705],[-51.7671,-29.47168],[-51.76691,-29.4635],[-51.76867,-29.46414],[-51.76919,-29.46386],[-51.76942,-29.4634],[-51.76929,-29.46257],[-51.76886,-29.46185],[-51.76782,-29.46078],[-51.76723,-29.46001],[-51.76684,-29.45867],[-51.76697,-29.45782],[-51.76777,-29.45645],[-51.76909,-29.45598],[-51.77175,-29.45642],[-51.77244,-29.45665],[-51.77526,-29.45862],[-51.77737,-29.46026],[-51.77939,-29.46204],[-51.78232,-29.46376],[-51.78265,-29.46507],[-51.78277,-29.46741],[-51.78257,-29.46795],[-51.78171,-29.46891]]]},"properties":{"codigo":"4321451004","name":"Boa Vista","population":648,"households":276,"areaKm2":1.5052,"density":430.5}},{"type":"Feature","geometry":{"type":"Polygon","coordinates":[[[-51.8171,-29.4948],[-51.81674,-29.49623],[-51.81766,-29.49627],[-51.81861,-29.49656],[-51.81799,-29.49811],[-51.81848,-29.4981],[-51.81867,-29.50708],[-51.81786,-29.50709],[-51.81914,-29.51517],[-51.82191,-29.51508],[-51.82204,-29.51668],[-51.82061,-29.51673],[-51.82029,-29.51759],[-51.82074,-29.51801],[-51.8219,-29.51863],[-51.8224,-29.51908],[-51.82203,-29.51963],[-51.8214,-29.52134],[-51.82125,-29.52253],[-51.82052,-29.52279],[-51.82029,-29.52375],[-51.81957,-29.52392],[-51.8191,-29.52437],[-51.81974,-29.52616],[-51.81961,-29.52647],[-51.81861,-29.52683],[-51.81802,-29.52653],[-51.81793,-29.52565],[-51.81763,-29.52549],[-51.81705,-29.52597],[-51.8165,-29.52603],[-51.81606,-29.52557],[-51.81471,-29.52564],[-51.81537,-29.5244],[-51.81467,-29.52304],[-51.81326,-29.52133],[-51.81144,-29.5197],[-51.8095,-29.51907],[-51.80456,-29.51922],[-51.79368,-29.51911],[-51.79247,-29.51782],[-51.78941,-29.51728],[-51.78868,-29.51634],[-51.78802,-29.51493],[-51.78746,-29.51341],[-51.787,-29.51302],[-51.78642,-29.51297],[-51.78554,-29.51336],[-51.78468,-29.51246],[-51.7841,-29.51213],[-51.78278,-29.51189],[-51.78286,-29.51012],[-51.78344,-29.50838],[-51.78408,-29.50729],[-51.78416,-29.50635],[-51.78441,-29.50551],[-51.78442,-29.50453],[-51.78482,-29.50316],[-51.78557,-29.50201],[-51.7855,-29.50118],[-51.78644,-29.50119],[-51.78645,-29.49893],[-51.78951,-29.49896],[-51.79822,-29.49896],[-51.79823,-29.4948],[-51.8033,-29.4948],[-51.8033,-29.49417],[-51.81661,-29.49438],[-51.8171,-29.4948]]]},"properties":{"codigo":"4321451001","name":"Canabarro","population":14699,"households":6109,"areaKm2":8.6613,"density":1697.1}},{"type":"Feature","geometry":{"type":"Polygon","coordinates":[[[-51.81375,-29.46248],[-51.8133,-29.4625],[-51.8118,-29.46296],[-51.80995,-29.46334],[-51.8093,-29.46398],[-51.80933,-29.46471],[-51.80831,-29.46703],[-51.8077,-29.46769],[-51.80715,-29.4676],[-51.80631,-29.467],[-51.80612,-29.46526],[-51.80434,-29.46393],[-51.80356,-29.46382],[-51.80362,-29.46098],[-51.80353,-29.45873],[-51.80349,-29.45335],[-51.80314,-29.45238],[-51.79582,-29.45246],[-51.79116,-29.45244],[-51.79118,-29.44477],[-51.79405,-29.4448],[-51.79403,-29.44107],[-51.79465,-29.44035],[-51.79678,-29.43917],[-51.79743,-29.43872],[-51.7985,-29.43753],[-51.79898,-29.43729],[-51.80076,-29.43725],[-51.80121,-29.43703],[-51.80134,-29.43639],[-51.80084,-29.43535],[-51.80126,-29.43418],[-51.80611,-29.43504],[-51.80861,-29.43577],[-51.81039,-29.43652],[-51.81705,-29.43976],[-51.82214,-29.44219],[-51.82836,-29.44479],[-51.8284,-29.45711],[-51.82749,-29.4567],[-51.82626,-29.45593],[-51.8256,-29.45597],[-51.82476,-29.4563],[-51.82438,-29.45689],[-51.82476,-29.45801],[-51.82522,-29.46063],[-51.82512,-29.46179],[-51.82402,-29.46256],[-51.823,-29.46342],[-51.82231,-29.46382],[-51.82171,-29.46383],[-51.81889,-29.46308],[-51.81478,-29.46252],[-51.81375,-29.46248]]]},"properties":{"codigo":"4321451005","name":"Teutônia","population":4544,"households":1995,"areaKm2":8.0177,"density":566.7}}]}