{"type":"FeatureCollection","features":[{"type":"Feature","geometry":{"type":"Polygon","coordinates":[[[-55.13612,-29.05045],[-55.13481,-29.04717],[-55.13533,-29.04707],[-55.13657,-29.04652],[-55.13774,-29.04629],[-55.14097,-29.04712],[-55.14152,-29.04716],[-55.14454,-29.04707],[-55.14561,-29.04678],[-55.1472,-29.04596],[-55.14889,-29.0454],[-55.14826,-29.04853],[-55.14827,-29.04913],[-55.14551,-29.04956],[-55.14348,-29.04919],[-55.14173,-29.04914],[-55.13941,-29.04951],[-55.13612,-29.05045]]]},"properties":{"codigo":"4322376001","name":"Emiliano Trindade Prestes","population":204,"households":97,"areaKm2":0.403,"density":506.3}},{"type":"Feature","geometry":{"type":"Polygon","coordinates":[[[-55.14827,-29.04913],[-55.15086,-29.04959],[-55.15175,-29.04963],[-55.15286,-29.04942],[-55.15275,-29.05032],[-55.14733,-29.05089],[-55.14729,-29.05197],[-55.14412,-29.05196],[-55.14351,-29.0505],[-55.14088,-29.0503],[-55.13965,-29.0505],[-55.13646,-29.05138],[-55.13612,-29.05045],[-55.13941,-29.04951],[-55.14173,-29.04914],[-55.14348,-29.04919],[-55.14551,-29.04956],[-55.14827,-29.04913]]]},"properties":{"codigo":"4322376003","name":"Bertoldo Trindade","population":186,"households":88,"areaKm2":0.2569,"density":724.1}},{"type":"Feature","geometry":{"type":"Polygon","coordinates":[[[-55.15286,-29.04942],[-55.15338,-29.04646],[-55.15378,-29.04585],[-55.15402,-29.04469],[-55.16389,-29.04604],[-55.16383,-29.04797],[-55.1565,-29.04906],[-55.15275,-29.05032],[-55.15286,-29.04942]]]},"properties":{"codigo":"4322376002","name":"Democratino da Silva Ribeiro","population":231,"households":100,"areaKm2":0.4068,"density":567.9}}]}