{"type":"FeatureCollection","features":[{"type":"Feature","geometry":{"type":"Polygon","coordinates":[[[-53.4855,-19.58679],[-53.48644,-19.58654],[-53.48835,-19.58667],[-53.48906,-19.58598],[-53.4892,-19.5842],[-53.49113,-19.58316],[-53.49219,-19.58216],[-53.49349,-19.58175],[-53.49448,-19.58084],[-53.49573,-19.58041],[-53.49606,-19.57964],[-53.49582,-19.57823],[-53.49481,-19.57648],[-53.49486,-19.57572],[-53.49792,-19.57325],[-53.49915,-19.57178],[-53.50212,-19.57055],[-53.50371,-19.56928],[-53.50428,-19.56817],[-53.50382,-19.56714],[-53.50393,-19.56594],[-53.50229,-19.56397],[-53.50169,-19.56117],[-53.50221,-19.55885],[-53.50148,-19.55796],[-53.49973,-19.55695],[-53.49815,-19.55655],[-53.49738,-19.55581],[-53.49805,-19.55487],[-53.50284,-19.55255],[-53.5041,-19.55107],[-53.50411,-19.54995],[-53.50314,-19.54859],[-53.50035,-19.54705],[-53.49939,-19.54572],[-53.49986,-19.54495],[-53.50183,-19.54405],[-53.50343,-19.5424],[-53.50575,-19.54101],[-53.50636,-19.54101],[-53.50781,-19.54184],[-53.50885,-19.54183],[-53.51328,-19.54085],[-53.51467,-19.53975],[-53.51558,-19.53638],[-53.51489,-19.53421],[-53.51532,-19.53312],[-53.51622,-19.53206],[-53.518,-19.5309],[-53.51942,-19.52943],[-53.51966,-19.52543],[-53.52056,-19.52365],[-53.52057,-19.52206],[-53.51911,-19.52101],[-53.51863,-19.51984],[-53.51901,-19.51889],[-53.52055,-19.51806],[-53.52199,-19.51827],[-53.52311,-19.51788],[-53.52331,-19.51696],[-53.52444,-19.51607],[-53.52593,-19.51593],[-53.5266,-19.51512],[-53.52645,-19.51336],[-53.52558,-19.51147],[-53.52613,-19.50994],[-53.5284,-19.50865],[-53.52863,-19.50706],[-53.52795,-19.50622],[-53.52615,-19.50479],[-53.52639,-19.50367],[-53.52762,-19.50271],[-53.52853,-19.50151],[-53.52904,-19.49865],[-53.53003,-19.49662],[-53.52859,-19.49387],[-53.5289,-19.49241],[-53.53014,-19.49196],[-53.5309,-19.49127],[-53.53229,-19.48846],[-53.53239,-19.48765],[-53.53183,-19.48651],[-53.53223,-19.48526],[-53.53304,-19.4843],[-53.53368,-19.48256],[-53.53452,-19.48218],[-53.53559,-19.48284],[-53.53685,-19.4828],[-53.53867,-19.47837],[-53.53862,-19.47609],[-53.53929,-19.47546],[-53.54143,-19.47587],[-53.54256,-19.47471],[-53.54337,-19.47434],[-53.54631,-19.47447],[-53.5474,-19.47431],[-53.54816,-19.47367],[-53.54839,-19.47277],[-53.54831,-19.47048],[-53.54874,-19.46952],[-53.55019,-19.46785],[-53.55069,-19.46679],[-53.55095,-19.46402],[-53.55093,-19.46245],[-53.55201,-19.46098],[-53.55377,-19.4607],[-53.55462,-19.46018],[-53.55574,-19.4589],[-53.55612,-19.45736],[-53.55581,-19.45642],[-53.5545,-19.45481],[-53.55343,-19.45401],[-53.55215,-19.45374],[-53.55043,-19.45375],[-53.54886,-19.4532],[-53.5487,-19.45214],[-53.54998,-19.45042],[-53.54991,-19.4491],[-53.54801,-19.44799],[-53.54797,-19.44659],[-53.55138,-19.44346],[-53.55433,-19.44176],[-53.55566,-19.43967],[-53.55564,-19.43854],[-53.55484,-19.4364],[-53.55485,-19.43535],[-53.55641,-19.43345],[-53.5562,-19.43207],[-53.55445,-19.43065],[-53.55399,-19.42939],[-53.55423,-19.42841],[-53.55503,-19.42745],[-53.55718,-19.42661],[-53.55779,-19.42504],[-53.55924,-19.4232],[-53.55982,-19.42137],[-53.56053,-19.42077],[-53.56203,-19.42035],[-53.56244,-19.41985],[-53.56173,-19.4183],[-53.56191,-19.41673],[-53.56292,-19.41555],[-53.56325,-19.41437],[-53.56293,-19.4131],[-53.56101,-19.41165],[-53.56108,-19.41042],[-53.5619,-19.40922],[-53.56443,-19.40706],[-53.56468,-19.40595],[-53.5644,-19.40341],[-53.56566,-19.40158],[-53.56582,-19.40007],[-53.56436,-19.3993],[-53.5642,-19.39738],[-53.56368,-19.39584],[-53.56431,-19.39524],[-53.56579,-19.39461],[-53.56714,-19.39357],[-53.56841,-19.39132],[-53.56846,-19.39025],[-53.56781,-19.38841],[-53.56835,-19.38742],[-53.56994,-19.38599],[-53.57024,-19.38458],[-53.57019,-19.38233],[-53.57142,-19.37776],[-53.57299,-19.37612],[-53.57381,-19.37388],[-53.57477,-19.37255],[-53.57601,-19.37167],[-53.57767,-19.37149],[-53.57896,-19.37099],[-53.58036,-19.36887],[-53.5804,-19.3679],[-53.57976,-19.36718],[-53.57782,-19.36659],[-53.57663,-19.36485],[-53.57886,-19.36376],[-53.57991,-19.36233],[-53.58027,-19.3593],[-53.57962,-19.35814],[-53.57825,-19.35779],[-53.57919,-19.35605],[-53.5803,-19.35547],[-53.58103,-19.35459],[-53.58016,-19.35363],[-53.58008,-19.35284],[-53.58164,-19.35153],[-53.58279,-19.3511],[-53.58465,-19.35133],[-53.58586,-19.35074],[-53.58628,-19.34956],[-53.5869,-19.34899],[-53.5884,-19.34882],[-53.59,-19.34791],[-53.59045,-19.34524],[-53.59101,-19.34411],[-53.59278,-19.34385],[-53.59372,-19.34286],[-53.59346,-19.34157],[-53.59377,-19.3401],[-53.59529,-19.33897],[-53.59588,-19.33715],[-53.59803,-19.33634],[-53.59816,-19.33536],[-53.59769,-19.33221],[-53.5978,-19.33063],[-53.60064,-19.32931],[-53.60253,-19.32968],[-53.60451,-19.33035],[-53.60582,-19.33235],[-53.60709,-19.33223],[-53.61078,-19.33354],[-53.61208,-19.33513],[-53.61315,-19.33572],[-53.61515,-19.33438],[-53.61897,-19.33443],[-53.62087,-19.3337],[-53.6221,-19.33393],[-53.62474,-19.33319],[-53.62728,-19.33275],[-53.63206,-19.33268],[-53.63709,-19.33205],[-53.63804,-19.33163],[-53.64069,-19.33139],[-53.64207,-19.33087],[-53.64587,-19.33001],[-53.64757,-19.32998],[-53.64895,-19.32956],[-53.65102,-19.32998],[-53.65326,-19.33015],[-53.65474,-19.32993],[-53.65653,-19.32909],[-53.66089,-19.32913],[-53.66217,-19.32952],[-53.66433,-19.32893],[-53.66561,-19.32891],[-53.66677,-19.32839],[-53.66913,-19.32957],[-53.66997,-19.32955],[-53.67187,-19.32852],[-53.67347,-19.3291],[-53.67453,-19.32888],[-53.67693,-19.3298],[-53.67969,-19.32936],[-53.68246,-19.33023],[-53.6832,-19.32981],[-53.68498,-19.32797],[-53.68721,-19.32844],[-53.68902,-19.32831],[-53.69065,-19.32753],[-53.69149,-19.32672],[-53.69746,-19.32844],[-53.69811,-19.32914],[-53.70112,-19.33151],[-53.70374,-19.33274],[-53.70609,-19.33341],[-53.70875,-19.33337],[-53.7117,-19.33232],[-53.71277,-19.3326],[-53.71499,-19.33196],[-53.71941,-19.33286],[-53.72247,-19.3319],[-53.72397,-19.33239],[-53.72821,-19.33202],[-53.73138,-19.33086],[-53.73374,-19.32947],[-53.73626,-19.32771],[-53.73869,-19.32667],[-53.74781,-19.32603],[-53.74955,-19.32524],[-53.75091,-19.32431],[-53.75591,-19.31819],[-53.76254,-19.31456],[-53.76406,-19.31347],[-53.76604,-19.31143],[-53.77037,-19.30339],[-53.77156,-19.30151],[-53.77657,-19.29679],[-53.77974,-19.29584],[-53.78417,-19.29405],[-53.78727,-19.29204],[-53.79009,-19.28958],[-53.79303,-19.28731],[-53.79711,-19.28362],[-53.80083,-19.28099],[-53.80251,-19.28016],[-53.8078,-19.27866],[-53.8142,-19.27751],[-53.81939,-19.27672],[-53.82232,-19.27466],[-53.82985,-19.27126],[-53.83235,-19.2685],[-53.83378,-19.26475],[-53.83797,-19.26196],[-53.83863,-19.25978],[-53.83997,-19.25784],[-53.84249,-19.25579],[-53.84512,-19.25464],[-53.84712,-19.25349],[-53.84997,-19.25007],[-53.85415,-19.24627],[-53.85898,-19.24307],[-53.86109,-19.24254],[-53.8624,-19.24166],[-53.88333,-19.24385],[-53.88485,-19.24584],[-53.8893,-19.24824],[-53.89335,-19.24949],[-53.89731,-19.25114],[-53.89943,-19.25141],[-53.90165,-19.25077],[-53.90643,-19.24762],[-53.90949,-19.24676],[-53.91235,-19.24642],[-53.91555,-19.24717],[-53.91722,-19.24614],[-53.91998,-19.24312],[-53.92326,-19.24236],[-53.92626,-19.23888],[-53.92781,-19.23664],[-53.93502,-19.23355],[-53.93746,-19.23361],[-53.93981,-19.23428],[-53.94119,-19.23415],[-53.94371,-19.233],[-53.94616,-19.23347],[-53.95217,-19.2313],[-53.95382,-19.22905],[-53.95472,-19.22879],[-53.95702,-19.22693],[-53.95864,-19.22339],[-53.95999,-19.22269],[-53.96302,-19.21982],[-53.9647,-19.21919],[-53.96675,-19.21759],[-53.97001,-19.21623],[-53.97362,-19.21627],[-53.9766,-19.21652],[-53.97924,-19.21587],[-53.98053,-19.21429],[-53.98391,-19.21322],[-53.99239,-19.21309],[-53.99525,-19.21244],[-53.99893,-19.21086],[-54.00227,-19.21066],[-54.00447,-19.2088],[-54.00573,-19.20808],[-54.00785,-19.20835],[-54.0089,-19.20742],[-54.01048,-19.20709],[-54.01118,-19.20456],[-54.01306,-19.20403],[-54.01393,-19.20502],[-54.01508,-19.2044],[-54.0158,-19.20307],[-54.01695,-19.20215],[-54.01712,-19.19983],[-54.01786,-19.19961],[-54.01853,-19.20111],[-54.02069,-19.20032],[-54.02154,-19.20051],[-54.02297,-19.20311],[-54.02544,-19.20478],[-54.02605,-19.20376],[-54.02762,-19.20242],[-54.02847,-19.20231],[-54.02949,-19.20325],[-54.03076,-19.20273],[-54.03283,-19.19997],[-54.03671,-19.19779],[-54.03754,-19.19656],[-54.03911,-19.19533],[-54.04214,-19.19573],[-54.0454,-19.19437],[-54.04718,-19.19302],[-54.04908,-19.19219],[-54.05105,-19.18983],[-54.05071,-19.18893],[-54.05209,-19.18871],[-54.05062,-19.18667],[-54.05113,-19.18585],[-54.0526,-19.18502],[-54.05505,-19.18528],[-54.05566,-19.18416],[-54.05824,-19.18563],[-54.0572,-19.18676],[-54.05643,-19.18823],[-54.05604,-19.19046],[-54.05662,-19.19267],[-54.05759,-19.19356],[-54.05927,-19.19302],[-54.06004,-19.19442],[-54.06153,-19.1944],[-54.06268,-19.19377],[-54.06334,-19.19497],[-54.06425,-19.19531],[-54.06562,-19.19478],[-54.0668,-19.19557],[-54.06585,-19.19599],[-54.06672,-19.19678],[-54.06673,-19.19749],[-54.06537,-19.19842],[-54.06538,-19.19922],[-54.06656,-19.19991],[-54.06563,-19.20094],[-54.06729,-19.20187],[-54.06776,-19.20428],[-54.06946,-19.20435],[-54.0716,-19.20573],[-54.07235,-19.20571],[-54.07232,-19.20451],[-54.07412,-19.20417],[-54.07487,-19.20466],[-54.0775,-19.20351],[-54.0801,-19.20312],[-54.0836,-19.20336],[-54.08316,-19.20246],[-54.08399,-19.20154],[-54.08534,-19.20103],[-54.08721,-19.20241],[-54.08847,-19.20198],[-54.08978,-19.20199],[-54.0899,-19.20065],[-54.09131,-19.20029],[-54.09105,-19.20184],[-54.09312,-19.20294],[-54.09403,-19.20239],[-54.09568,-19.20357],[-54.09616,-19.20289],[-54.09729,-19.20274],[-54.09833,-19.20343],[-54.09995,-19.20293],[-54.10144,-19.20324],[-54.10256,-19.20275],[-54.10461,-19.20258],[-54.10537,-19.20176],[-54.10687,-19.20227],[-54.10805,-19.20131],[-54.10862,-19.19979],[-54.10983,-19.19977],[-54.11051,-19.20252],[-54.11202,-19.20357],[-54.1124,-19.2049],[-54.11128,-19.20573],[-54.11258,-19.20725],[-54.11375,-19.2074],[-54.11563,-19.20932],[-54.11718,-19.20943],[-54.1172,-19.21003],[-54.116,-19.21059],[-54.11682,-19.21239],[-54.11684,-19.2134],[-54.11827,-19.21432],[-54.11703,-19.21609],[-54.118,-19.21725],[-54.11857,-19.2173],[-54.11961,-19.21628],[-54.12061,-19.21653],[-54.12184,-19.21785],[-54.12107,-19.21867],[-54.11924,-19.21918],[-54.11919,-19.22012],[-54.11965,-19.22172],[-54.1208,-19.22106],[-54.12229,-19.22158],[-54.12364,-19.22155],[-54.12352,-19.22257],[-54.12416,-19.22316],[-54.12399,-19.22531],[-54.12295,-19.22607],[-54.1222,-19.22763],[-54.12258,-19.22917],[-54.12232,-19.23065],[-54.12586,-19.22894],[-54.12672,-19.22913],[-54.12789,-19.22777],[-54.13122,-19.22805],[-54.1327,-19.22741],[-54.13313,-19.22774],[-54.13294,-19.22916],[-54.13433,-19.22971],[-54.13457,-19.23098],[-54.1353,-19.23245],[-54.13601,-19.23237],[-54.13761,-19.23113],[-54.13862,-19.23185],[-54.13953,-19.23143],[-54.14053,-19.23182],[-54.14149,-19.23389],[-54.1422,-19.23421],[-54.14335,-19.23349],[-54.14469,-19.23333],[-54.14768,-19.23422],[-54.14852,-19.23373],[-54.14856,-19.23212],[-54.14984,-19.2327],[-54.15025,-19.23182],[-54.15158,-19.23126],[-54.15419,-19.23219],[-54.15574,-19.2321],[-54.16007,-19.22947],[-54.16325,-19.22928],[-54.16366,-19.2284],[-54.16293,-19.227],[-54.16354,-19.22578],[-54.16303,-19.22478],[-54.16175,-19.22466],[-54.16219,-19.22355],[-54.16528,-19.22249],[-54.16554,-19.221],[-54.16425,-19.22022],[-54.16383,-19.21713],[-54.16591,-19.21666],[-54.16695,-19.21557],[-54.16882,-19.21728],[-54.16981,-19.2172],[-54.17078,-19.21631],[-54.17172,-19.21703],[-54.17256,-19.21641],[-54.17384,-19.21679],[-54.17454,-19.21638],[-54.17579,-19.21753],[-54.17598,-19.21968],[-54.18005,-19.22183],[-54.18064,-19.22289],[-54.18157,-19.22355],[-54.18326,-19.22352],[-54.18444,-19.22222],[-54.18523,-19.22288],[-54.18547,-19.22395],[-54.18622,-19.22444],[-54.18727,-19.22395],[-54.18912,-19.22459],[-54.19275,-19.22204],[-54.19417,-19.22256],[-54.19444,-19.22179],[-54.19553,-19.22222],[-54.19824,-19.22116],[-54.19944,-19.22101],[-54.20063,-19.22127],[-54.20166,-19.22197],[-54.20084,-19.22341],[-54.20094,-19.22505],[-54.20187,-19.22561],[-54.20425,-19.22645],[-54.2051,-19.2274],[-54.20456,-19.22802],[-54.20505,-19.229],[-54.20496,-19.23032],[-54.20389,-19.23119],[-54.20194,-19.2323],[-54.19978,-19.23306],[-54.19783,-19.23449],[-54.19726,-19.23569],[-54.19804,-19.23665],[-54.20014,-19.23659],[-54.19913,-19.23858],[-54.19941,-19.24025],[-54.19993,-19.24085],[-54.20185,-19.24067],[-54.20304,-19.24147],[-54.20448,-19.24086],[-54.20616,-19.241],[-54.20769,-19.24015],[-54.20838,-19.24011],[-54.20863,-19.24187],[-54.20996,-19.24171],[-54.21043,-19.24218],[-54.20909,-19.24296],[-54.20772,-19.24444],[-54.20676,-19.24633],[-54.20825,-19.25016],[-54.20837,-19.25112],[-54.20669,-19.25115],[-54.20558,-19.2516],[-54.20602,-19.25297],[-54.20713,-19.25335],[-54.20849,-19.25323],[-54.20946,-19.25263],[-54.21038,-19.25292],[-54.21096,-19.25373],[-54.21463,-19.25286],[-54.21499,-19.25415],[-54.21582,-19.25425],[-54.21695,-19.2535],[-54.2222,-19.25242],[-54.22555,-19.25129],[-54.22811,-19.25113],[-54.23045,-19.25325],[-54.23201,-19.2534],[-54.23266,-19.25312],[-54.23435,-19.25161],[-54.23515,-19.25126],[-54.23678,-19.25139],[-54.23921,-19.25331],[-54.2399,-19.25512],[-54.24199,-19.25526],[-54.24472,-19.25593],[-54.24663,-19.25664],[-54.2475,-19.25568],[-54.24852,-19.25622],[-54.24919,-19.25722],[-54.25028,-19.25748],[-54.25077,-19.25814],[-54.25031,-19.25953],[-54.25065,-19.26044],[-54.25147,-19.26118],[-54.25344,-19.26197],[-54.25432,-19.26291],[-54.25415,-19.26365],[-54.25239,-19.26604],[-54.25362,-19.26699],[-54.25357,-19.26942],[-54.25326,-19.27103],[-54.25528,-19.27211],[-54.25641,-19.27383],[-54.25819,-19.27476],[-54.25984,-19.27592],[-54.26061,-19.27682],[-54.2609,-19.27786],[-54.26028,-19.28032],[-54.26064,-19.2811],[-54.26196,-19.2816],[-54.26192,-19.28026],[-54.26283,-19.27993],[-54.26402,-19.28156],[-54.26644,-19.28315],[-54.26908,-19.28346],[-54.26974,-19.28493],[-54.271,-19.28601],[-54.2731,-19.28888],[-54.2745,-19.29037],[-54.27475,-19.29101],[-54.27452,-19.29322],[-54.27522,-19.29482],[-54.27684,-19.29679],[-54.27689,-19.29824],[-54.27466,-19.29986],[-54.27382,-19.30172],[-54.27385,-19.30303],[-54.27452,-19.30518],[-54.27441,-19.30637],[-54.27497,-19.30823],[-54.27363,-19.31104],[-54.27453,-19.31283],[-54.27623,-19.31422],[-54.27877,-19.31516],[-54.28019,-19.31629],[-54.28323,-19.31665],[-54.28601,-19.31597],[-54.28817,-19.31456],[-54.28912,-19.3144],[-54.29074,-19.31549],[-54.292,-19.3156],[-54.2929,-19.31526],[-54.29371,-19.31398],[-54.29479,-19.31358],[-54.29666,-19.31477],[-54.29746,-19.31435],[-54.29719,-19.31358],[-54.29872,-19.31356],[-54.30003,-19.31505],[-54.30259,-19.31514],[-54.30577,-19.31599],[-54.30705,-19.31679],[-54.30883,-19.31846],[-54.31071,-19.31884],[-54.3114,-19.31923],[-54.31322,-19.32221],[-54.31369,-19.3226],[-54.31766,-19.32436],[-54.31676,-19.41096],[-54.31822,-19.41065],[-54.32067,-19.40978],[-54.32209,-19.40897],[-54.32465,-19.41072],[-54.32669,-19.41118],[-54.3285,-19.41107],[-54.3289,-19.41151],[-54.32754,-19.41268],[-54.32799,-19.41608],[-54.32949,-19.41719],[-54.33206,-19.41671],[-54.33329,-19.4171],[-54.33429,-19.41702],[-54.33434,-19.4161],[-54.33618,-19.41373],[-54.33677,-19.41488],[-54.33757,-19.41527],[-54.34046,-19.41561],[-54.34098,-19.41441],[-54.3427,-19.41479],[-54.34393,-19.41421],[-54.3444,-19.41337],[-54.34579,-19.41363],[-54.34668,-19.41284],[-54.34792,-19.41256],[-54.34944,-19.41084],[-54.35095,-19.40947],[-54.35175,-19.40921],[-54.35249,-19.41006],[-54.35207,-19.41125],[-54.35086,-19.41221],[-54.35071,-19.41456],[-54.35133,-19.41599],[-54.35223,-19.41638],[-54.35265,-19.41506],[-54.35337,-19.41478],[-54.35421,-19.41532],[-54.35413,-19.41643],[-54.35447,-19.41779],[-54.35526,-19.41812],[-54.35615,-19.41754],[-54.35796,-19.41757],[-54.35873,-19.41885],[-54.35964,-19.41883],[-54.36025,-19.41721],[-54.36145,-19.41639],[-54.36231,-19.41527],[-54.3643,-19.41617],[-54.36575,-19.41517],[-54.36667,-19.41346],[-54.3682,-19.41302],[-54.36903,-19.41371],[-54.37002,-19.41348],[-54.37166,-19.41421],[-54.37318,-19.41421],[-54.37452,-19.41531],[-54.37535,-19.41476],[-54.37724,-19.4153],[-54.37762,-19.41599],[-54.37739,-19.4174],[-54.37631,-19.4191],[-54.37238,-19.42343],[-54.37143,-19.42549],[-54.37164,-19.42673],[-54.37305,-19.42933],[-54.37283,-19.43131],[-54.37393,-19.43218],[-54.37471,-19.43407],[-54.37561,-19.43522],[-54.37591,-19.43618],[-54.37608,-19.44029],[-54.37757,-19.44277],[-54.37715,-19.44521],[-54.378,-19.44613],[-54.3798,-19.44584],[-54.38064,-19.44678],[-54.38276,-19.44702],[-54.38344,-19.44752],[-54.38262,-19.44895],[-54.38325,-19.44961],[-54.38317,-19.45068],[-54.38488,-19.45154],[-54.38586,-19.45163],[-54.38811,-19.45343],[-54.38786,-19.45503],[-54.38883,-19.45561],[-54.38863,-19.45836],[-54.38877,-19.46005],[-54.38924,-19.46136],[-54.38972,-19.46161],[-54.39149,-19.46138],[-54.39269,-19.46191],[-54.39303,-19.4634],[-54.39355,-19.46411],[-54.39586,-19.46594],[-54.3982,-19.46725],[-54.40049,-19.46954],[-54.40323,-19.4705],[-54.40413,-19.47044],[-54.40596,-19.46971],[-54.4084,-19.46999],[-54.41031,-19.47066],[-54.41249,-19.47115],[-54.41647,-19.47114],[-54.41809,-19.47148],[-54.42243,-19.47424],[-54.42458,-19.47519],[-54.42688,-19.47598],[-54.42979,-19.47634],[-54.43002,-19.47776],[-54.43014,-19.48141],[-54.43152,-19.48612],[-54.4322,-19.49202],[-54.43139,-19.49465],[-54.43045,-19.49637],[-54.42962,-19.49847],[-54.42916,-19.50057],[-54.42972,-19.50517],[-54.43108,-19.50917],[-54.43199,-19.5112],[-54.4328,-19.51354],[-54.43367,-19.5154],[-54.43658,-19.52069],[-54.43741,-19.5219],[-54.43745,-19.52514],[-54.43666,-19.52803],[-54.43647,-19.53021],[-54.43675,-19.53447],[-54.43627,-19.53689],[-54.43615,-19.53947],[-54.43588,-19.54074],[-54.43499,-19.54247],[-54.4333,-19.54458],[-54.43174,-19.54724],[-54.43065,-19.55331],[-54.42899,-19.55591],[-54.42288,-19.56496],[-54.42072,-19.56788],[-54.41221,-19.57772],[-54.40731,-19.58367],[-54.40594,-19.5856],[-54.39897,-19.59612],[-54.39377,-19.5932],[-54.39084,-19.59691],[-54.38862,-19.59817],[-54.38102,-19.59953],[-54.37784,-19.59976],[-54.37422,-19.60023],[-54.37172,-19.60014],[-54.36763,-19.59893],[-54.36502,-19.59845],[-54.36279,-19.59828],[-54.36022,-19.5984],[-54.35811,-19.59885],[-54.35479,-19.60031],[-54.34779,-19.60314],[-54.34662,-19.60406],[-54.34557,-19.60577],[-54.34284,-19.60892],[-54.34077,-19.61042],[-54.33872,-19.6111],[-54.33454,-19.61116],[-54.33218,-19.61148],[-54.32933,-19.61217],[-54.32646,-19.61321],[-54.32304,-19.61395],[-54.32125,-19.61472],[-54.31838,-19.61533],[-54.31518,-19.61556],[-54.31195,-19.61625],[-54.30916,-19.61664],[-54.30773,-19.61704],[-54.30464,-19.6183],[-54.30243,-19.61864],[-54.29963,-19.61885],[-54.29673,-19.61938],[-54.29495,-19.61988],[-54.28976,-19.62164],[-54.28731,-19.62213],[-54.28616,-19.622],[-54.28362,-19.62097],[-54.28157,-19.62041],[-54.27787,-19.61984],[-54.27239,-19.61857],[-54.26653,-19.61763],[-54.26298,-19.61652],[-54.26147,-19.61644],[-54.25967,-19.61705],[-54.25657,-19.61771],[-54.25199,-19.61994],[-54.2498,-19.62076],[-54.24732,-19.62105],[-54.24324,-19.62105],[-54.23922,-19.62083],[-54.23408,-19.61994],[-54.23088,-19.61956],[-54.22711,-19.61855],[-54.22464,-19.61736],[-54.22082,-19.61576],[-54.21879,-19.61508],[-54.21637,-19.6145],[-54.2128,-19.61467],[-54.21152,-19.61431],[-54.20863,-19.6131],[-54.20604,-19.61328],[-54.20339,-19.61423],[-54.20191,-19.61457],[-54.19951,-19.61477],[-54.19764,-19.61551],[-54.19419,-19.61786],[-54.19202,-19.61886],[-54.19004,-19.6195],[-54.18748,-19.61994],[-54.18486,-19.62059],[-54.18268,-19.62145],[-54.18051,-19.62323],[-54.17873,-19.62526],[-54.17646,-19.62666],[-54.17429,-19.62728],[-54.17312,-19.62738],[-54.17079,-19.62718],[-54.17015,-19.62759],[-54.16759,-19.63108],[-54.16562,-19.63326],[-54.16146,-19.63709],[-54.15893,-19.63898],[-54.15569,-19.63984],[-54.15424,-19.64054],[-54.1533,-19.64142],[-54.15216,-19.64314],[-54.14911,-19.64625],[-54.14661,-19.64722],[-54.14548,-19.64868],[-54.14437,-19.64936],[-54.14379,-19.65059],[-54.14236,-19.65144],[-54.14147,-19.65125],[-54.13936,-19.65242],[-54.13801,-19.65242],[-54.13603,-19.65311],[-54.13301,-19.65545],[-54.13181,-19.65712],[-54.13103,-19.66003],[-54.1296,-19.66148],[-54.12863,-19.66163],[-54.12733,-19.66116],[-54.12609,-19.65987],[-54.12501,-19.65941],[-54.12422,-19.65829],[-54.12123,-19.65955],[-54.11895,-19.66106],[-54.11689,-19.66363],[-54.11529,-19.66413],[-54.1122,-19.66325],[-54.11004,-19.6635],[-54.10841,-19.66267],[-54.10425,-19.6625],[-54.10232,-19.66221],[-54.09807,-19.6609],[-54.0953,-19.65958],[-54.09572,-19.658],[-54.09521,-19.65705],[-54.0942,-19.65693],[-54.0921,-19.65566],[-54.09082,-19.65446],[-54.08883,-19.65433],[-54.08808,-19.6537],[-54.08783,-19.65225],[-54.08691,-19.65069],[-54.08599,-19.64984],[-54.08605,-19.64878],[-54.08541,-19.64715],[-54.08398,-19.64728],[-54.08294,-19.64826],[-54.08207,-19.64808],[-54.0815,-19.64659],[-54.08014,-19.6457],[-54.07918,-19.64641],[-54.0784,-19.64616],[-54.07719,-19.64485],[-54.07435,-19.64401],[-54.07257,-19.64301],[-54.07172,-19.64226],[-54.07175,-19.64143],[-54.07106,-19.64038],[-54.0693,-19.63866],[-54.06879,-19.63754],[-54.06706,-19.63607],[-54.06523,-19.63422],[-54.0625,-19.63403],[-54.06164,-19.63446],[-54.06039,-19.63425],[-54.05765,-19.63469],[-54.05641,-19.63523],[-54.05552,-19.63471],[-54.05454,-19.63472],[-54.05324,-19.63412],[-54.05122,-19.63424],[-54.0488,-19.63381],[-54.04773,-19.63311],[-54.04619,-19.63351],[-54.04471,-19.63342],[-54.04344,-19.6328],[-54.04204,-19.633],[-54.0397,-19.63225],[-54.03744,-19.63271],[-54.03569,-19.63243],[-54.03307,-19.63255],[-54.03132,-19.63235],[-54.02786,-19.63366],[-54.02541,-19.6336],[-54.02278,-19.63278],[-54.0211,-19.63349],[-54.01957,-19.63576],[-54.01696,-19.63805],[-54.0164,-19.63939],[-54.01675,-19.641],[-54.01769,-19.64221],[-54.0178,-19.64385],[-54.01848,-19.64553],[-54.01855,-19.64648],[-54.01729,-19.65005],[-54.01661,-19.65292],[-54.01583,-19.65427],[-54.01562,-19.65591],[-54.01254,-19.65861],[-54.01184,-19.66046],[-54.01064,-19.66198],[-54.01008,-19.66392],[-54.01072,-19.6654],[-54.00871,-19.66911],[-54.00695,-19.67073],[-54.00582,-19.67232],[-54.0043,-19.67306],[-54.00362,-19.6739],[-54.00136,-19.67456],[-54.00034,-19.67594],[-53.99788,-19.6777],[-53.99666,-19.67925],[-53.99497,-19.68211],[-53.99446,-19.68402],[-53.9929,-19.6862],[-53.99316,-19.68711],[-53.99306,-19.6886],[-53.99255,-19.68939],[-53.99344,-19.69021],[-53.99274,-19.69317],[-53.99445,-19.69385],[-53.99587,-19.69372],[-53.99738,-19.6947],[-53.99804,-19.69573],[-53.99813,-19.69717],[-53.99784,-19.69853],[-53.99812,-19.69973],[-53.99909,-19.70168],[-53.99914,-19.70311],[-53.99715,-19.70574],[-53.99591,-19.70656],[-53.99421,-19.70699],[-53.99364,-19.70794],[-53.99242,-19.70873],[-53.99156,-19.71005],[-53.99055,-19.71053],[-53.98927,-19.71212],[-53.98939,-19.71278],[-53.98852,-19.71365],[-53.98901,-19.71456],[-53.9881,-19.71502],[-53.98866,-19.7158],[-53.98839,-19.71856],[-53.9892,-19.71934],[-53.98774,-19.72127],[-53.98805,-19.72256],[-53.98592,-19.72223],[-53.98492,-19.72123],[-53.98228,-19.7211],[-53.98092,-19.72175],[-53.97872,-19.72174],[-53.97607,-19.72037],[-53.97494,-19.72107],[-53.97156,-19.72184],[-53.96988,-19.72289],[-53.96894,-19.7224],[-53.96743,-19.72277],[-53.96555,-19.72225],[-53.96514,-19.72084],[-53.96394,-19.71949],[-53.96415,-19.71891],[-53.96346,-19.71762],[-53.96246,-19.71726],[-53.96159,-19.71761],[-53.95944,-19.71506],[-53.95825,-19.71326],[-53.957,-19.71293],[-53.95651,-19.71222],[-53.95616,-19.71045],[-53.95464,-19.70996],[-53.9539,-19.71099],[-53.95289,-19.71114],[-53.95127,-19.70958],[-53.94999,-19.70959],[-53.94898,-19.70887],[-53.9473,-19.70839],[-53.94547,-19.70874],[-53.94386,-19.71029],[-53.94314,-19.71],[-53.94054,-19.71065],[-53.93901,-19.71125],[-53.93586,-19.71134],[-53.93515,-19.7128],[-53.93345,-19.71237],[-53.93259,-19.71325],[-53.93145,-19.71334],[-53.9299,-19.71295],[-53.9276,-19.71445],[-53.92366,-19.71374],[-53.92339,-19.71278],[-53.92357,-19.71123],[-53.92134,-19.71063],[-53.92228,-19.70959],[-53.92209,-19.70877],[-53.92056,-19.70893],[-53.91976,-19.70938],[-53.9188,-19.70927],[-53.91755,-19.70836],[-53.91792,-19.70752],[-53.91595,-19.70689],[-53.91452,-19.70719],[-53.91221,-19.70698],[-53.90965,-19.70732],[-53.90872,-19.7071],[-53.90608,-19.70387],[-53.90508,-19.70321],[-53.90435,-19.70224],[-53.8646,-19.53859],[-53.86259,-19.53028],[-53.85788,-19.53047],[-53.85545,-19.53077],[-53.85265,-19.53143],[-53.84982,-19.53261],[-53.8465,-19.53349],[-53.84457,-19.53455],[-53.8423,-19.53616],[-53.83915,-19.5373],[-53.8355,-19.53982],[-53.83325,-19.54336],[-53.83133,-19.54542],[-53.82791,-19.5477],[-53.82517,-19.54928],[-53.82249,-19.55121],[-53.82138,-19.55301],[-53.82026,-19.55416],[-53.81827,-19.5556],[-53.81715,-19.55715],[-53.81365,-19.56032],[-53.81219,-19.56235],[-53.81044,-19.5656],[-53.80956,-19.56695],[-53.80605,-19.5684],[-53.80475,-19.56964],[-53.80242,-19.57256],[-53.79917,-19.57545],[-53.79793,-19.57672],[-53.79613,-19.57914],[-53.79586,-19.58003],[-53.79477,-19.58104],[-53.79413,-19.58304],[-53.79305,-19.58491],[-53.79304,-19.58665],[-53.79181,-19.58873],[-53.79087,-19.59088],[-53.79018,-19.59377],[-53.78885,-19.5972],[-53.78797,-19.60106],[-53.78688,-19.60311],[-53.78648,-19.6049],[-53.7861,-19.60827],[-53.78609,-19.61054],[-53.78378,-19.61535],[-53.7827,-19.61688],[-53.78056,-19.61854],[-53.77941,-19.61913],[-53.77706,-19.61984],[-53.77463,-19.62033],[-53.77359,-19.62094],[-53.77253,-19.62256],[-53.77094,-19.62441],[-53.77005,-19.62592],[-53.76865,-19.62716],[-53.76738,-19.62982],[-53.76324,-19.63532],[-53.76202,-19.63672],[-53.75993,-19.6373],[-53.75836,-19.63862],[-53.75741,-19.64025],[-53.7567,-19.63992],[-53.75533,-19.64018],[-53.75316,-19.64175],[-53.75202,-19.64295],[-53.75073,-19.6438],[-53.74671,-19.6449],[-53.7433,-19.64792],[-53.74131,-19.65102],[-53.74015,-19.65197],[-53.73868,-19.65417],[-53.73629,-19.6563],[-53.73437,-19.65731],[-53.73232,-19.65892],[-53.73038,-19.66018],[-53.72777,-19.66149],[-53.72444,-19.6625],[-53.72134,-19.66426],[-53.71927,-19.66616],[-53.71703,-19.66931],[-53.71544,-19.67076],[-53.71393,-19.67277],[-53.71262,-19.67592],[-53.71227,-19.67797],[-53.71134,-19.6803],[-53.70988,-19.68156],[-53.7071,-19.68227],[-53.70452,-19.68355],[-53.70117,-19.68478],[-53.69809,-19.68459],[-53.69604,-19.68494],[-53.69406,-19.68577],[-53.69205,-19.68715],[-53.68952,-19.68816],[-53.6882,-19.68983],[-53.68539,-19.69111],[-53.68321,-19.69165],[-53.68094,-19.69259],[-53.67546,-19.69557],[-53.67447,-19.6958],[-53.67302,-19.69564],[-53.67197,-19.6959],[-53.67073,-19.69691],[-53.66905,-19.69721],[-53.66622,-19.69726],[-53.66429,-19.6984],[-53.66267,-19.70108],[-53.65963,-19.70367],[-53.65868,-19.70482],[-53.65849,-19.70603],[-53.65794,-19.70672],[-53.65683,-19.70718],[-53.65474,-19.70731],[-53.6532,-19.70772],[-53.65135,-19.70772],[-53.65019,-19.70799],[-53.64856,-19.70782],[-53.64744,-19.70933],[-53.64647,-19.71179],[-53.64555,-19.7135],[-53.64469,-19.71577],[-53.64359,-19.71736],[-53.64191,-19.71908],[-53.64126,-19.72053],[-53.64089,-19.72489],[-53.64013,-19.72719],[-53.63875,-19.72889],[-53.63891,-19.7304],[-53.63866,-19.73162],[-53.63883,-19.73307],[-53.63586,-19.73711],[-53.634,-19.73899],[-53.63395,-19.74003],[-53.63214,-19.74046],[-53.62884,-19.74263],[-53.62731,-19.74401],[-53.62581,-19.74405],[-53.62504,-19.74495],[-53.62409,-19.74504],[-53.62314,-19.74628],[-53.62109,-19.74724],[-53.61892,-19.74909],[-53.61803,-19.75014],[-53.61766,-19.75398],[-53.61731,-19.75523],[-53.61549,-19.75725],[-53.61535,-19.75881],[-53.61486,-19.75938],[-53.61355,-19.75951],[-53.61223,-19.76046],[-53.61192,-19.76171],[-53.6108,-19.76209],[-53.6093,-19.76304],[-53.60845,-19.76291],[-53.60833,-19.76388],[-53.6071,-19.76428],[-53.6049,-19.76658],[-53.60376,-19.76705],[-53.60312,-19.76819],[-53.60129,-19.7698],[-53.60121,-19.77087],[-53.59997,-19.77175],[-53.5984,-19.77119],[-53.59715,-19.77111],[-53.59565,-19.77145],[-53.59415,-19.77109],[-53.59306,-19.77165],[-53.59225,-19.77149],[-53.59165,-19.77049],[-53.58809,-19.76978],[-53.58669,-19.77162],[-53.58544,-19.77195],[-53.58433,-19.77089],[-53.58343,-19.77078],[-53.58195,-19.77211],[-53.58092,-19.77206],[-53.57966,-19.77105],[-53.5791,-19.77195],[-53.57966,-19.77414],[-53.57821,-19.77566],[-53.57714,-19.77601],[-53.57571,-19.7771],[-53.57459,-19.77743],[-53.57345,-19.77842],[-53.57134,-19.77959],[-53.57058,-19.77922],[-53.56908,-19.77957],[-53.56763,-19.78106],[-53.56568,-19.78146],[-53.56434,-19.78235],[-53.56436,-19.78324],[-53.56315,-19.78443],[-53.56181,-19.78315],[-53.56039,-19.78233],[-53.55881,-19.78221],[-53.5578,-19.78279],[-53.55546,-19.78299],[-53.55451,-19.78376],[-53.55269,-19.78437],[-53.55185,-19.78384],[-53.55079,-19.78457],[-53.54917,-19.78452],[-53.54837,-19.7838],[-53.54682,-19.7838],[-53.54546,-19.78341],[-53.54293,-19.78365],[-53.54111,-19.78318],[-53.54031,-19.78269],[-53.53958,-19.78392],[-53.53861,-19.78403],[-53.53607,-19.78353],[-53.53468,-19.78301],[-53.53321,-19.78108],[-53.53236,-19.78159],[-53.52939,-19.78169],[-53.52801,-19.7822],[-53.52688,-19.78184],[-53.52446,-19.7831],[-53.5221,-19.78201],[-53.52121,-19.78207],[-53.52079,-19.78289],[-53.51961,-19.78351],[-53.51785,-19.78385],[-53.51439,-19.78488],[-53.51382,-19.78545],[-53.51434,-19.78691],[-53.51379,-19.78877],[-53.51268,-19.79071],[-53.51161,-19.79101],[-53.50993,-19.79094],[-53.50894,-19.79127],[-53.50722,-19.79125],[-53.5062,-19.79081],[-53.50504,-19.79196],[-53.50405,-19.79229],[-53.50287,-19.79112],[-53.50199,-19.79095],[-53.50055,-19.79138],[-53.49871,-19.79292],[-53.49796,-19.7932],[-53.49592,-19.79324],[-53.49451,-19.79418],[-53.49354,-19.79421],[-53.49073,-19.79371],[-53.48781,-19.79302],[-53.48599,-19.79355],[-53.48385,-19.7925],[-53.48243,-19.79249],[-53.48091,-19.79154],[-53.47952,-19.79123],[-53.47704,-19.79163],[-53.47533,-19.79106],[-53.47457,-19.79043],[-53.47279,-19.79008],[-53.47219,-19.78881],[-53.47097,-19.78826],[-53.46973,-19.78933],[-53.46796,-19.78976],[-53.46691,-19.79106],[-53.46394,-19.79213],[-53.46121,-19.79431],[-53.46011,-19.79491],[-53.45768,-19.79518],[-53.45664,-19.79594],[-53.45607,-19.79724],[-53.45534,-19.79797],[-53.45266,-19.7978],[-53.45128,-19.79725],[-53.44935,-19.79461],[-53.44774,-19.79406],[-53.44505,-19.79214],[-53.44322,-19.79236],[-53.44232,-19.7917],[-53.44151,-19.79177],[-53.44091,-19.79085],[-53.43986,-19.79104],[-53.43568,-19.78961],[-53.43431,-19.78941],[-53.43209,-19.78971],[-53.43136,-19.78825],[-53.42974,-19.78759],[-53.42862,-19.78769],[-53.42621,-19.78743],[-53.42562,-19.78564],[-53.42472,-19.7849],[-53.42588,-19.78413],[-53.42696,-19.7815],[-53.42856,-19.7796],[-53.4306,-19.77888],[-53.43162,-19.77785],[-53.43313,-19.7752],[-53.43435,-19.77336],[-53.43384,-19.77265],[-53.43238,-19.77279],[-53.43289,-19.77169],[-53.43431,-19.77114],[-53.43475,-19.7697],[-53.43473,-19.76668],[-53.43505,-19.76545],[-53.43601,-19.76433],[-53.43674,-19.76295],[-53.43847,-19.76132],[-53.43982,-19.75954],[-53.44182,-19.759],[-53.44331,-19.75779],[-53.44381,-19.75538],[-53.44539,-19.75369],[-53.44524,-19.75275],[-53.44439,-19.75148],[-53.44411,-19.75023],[-53.44502,-19.74843],[-53.44668,-19.74752],[-53.44829,-19.74751],[-53.44923,-19.74683],[-53.45043,-19.74266],[-53.45153,-19.73959],[-53.45179,-19.73754],[-53.45163,-19.73671],[-53.44986,-19.73548],[-53.45044,-19.73417],[-53.45208,-19.73409],[-53.45533,-19.73175],[-53.45679,-19.73109],[-53.45856,-19.72995],[-53.4604,-19.73049],[-53.46125,-19.73039],[-53.4633,-19.72915],[-53.46373,-19.72775],[-53.4635,-19.72498],[-53.46303,-19.72401],[-53.46166,-19.72299],[-53.45961,-19.72269],[-53.45902,-19.72108],[-53.45916,-19.71994],[-53.45988,-19.71908],[-53.45921,-19.71676],[-53.45937,-19.7162],[-53.46136,-19.71599],[-53.46158,-19.71401],[-53.46232,-19.71172],[-53.4636,-19.70911],[-53.46361,-19.70719],[-53.46224,-19.70699],[-53.46324,-19.70541],[-53.46376,-19.7036],[-53.46479,-19.70267],[-53.4656,-19.70111],[-53.46674,-19.69981],[-53.46741,-19.69767],[-53.46823,-19.69717],[-53.47004,-19.69805],[-53.47216,-19.69601],[-53.47547,-19.69481],[-53.47792,-19.69465],[-53.47974,-19.69354],[-53.48105,-19.69305],[-53.48407,-19.6924],[-53.48767,-19.69137],[-53.48835,-19.69035],[-53.48799,-19.68942],[-53.48579,-19.68757],[-53.48534,-19.68696],[-53.48569,-19.68609],[-53.48679,-19.68565],[-53.48968,-19.68541],[-53.49041,-19.68516],[-53.49168,-19.68233],[-53.49066,-19.68061],[-53.49025,-19.67921],[-53.489,-19.67812],[-53.4892,-19.67746],[-53.49066,-19.67595],[-53.49201,-19.6741],[-53.4938,-19.67391],[-53.49473,-19.67346],[-53.49507,-19.67249],[-53.49023,-19.67046],[-53.488,-19.66845],[-53.48767,-19.66736],[-53.4891,-19.66661],[-53.4899,-19.6658],[-53.49071,-19.66428],[-53.49178,-19.66538],[-53.49326,-19.66512],[-53.49371,-19.66427],[-53.49363,-19.66208],[-53.49404,-19.66031],[-53.49369,-19.65942],[-53.49247,-19.65892],[-53.48961,-19.65837],[-53.48838,-19.65981],[-53.48779,-19.65947],[-53.48819,-19.65705],[-53.48787,-19.65594],[-53.48683,-19.65546],[-53.48566,-19.6561],[-53.48505,-19.65584],[-53.48558,-19.6538],[-53.48534,-19.65081],[-53.4866,-19.64689],[-53.48581,-19.64551],[-53.484,-19.64561],[-53.48285,-19.64616],[-53.48227,-19.64588],[-53.48131,-19.64401],[-53.48173,-19.6434],[-53.48549,-19.64189],[-53.48734,-19.64067],[-53.48779,-19.64003],[-53.48768,-19.6385],[-53.48865,-19.63598],[-53.4886,-19.63512],[-53.48774,-19.63403],[-53.48539,-19.63362],[-53.48376,-19.63522],[-53.48176,-19.63619],[-53.48162,-19.63716],[-53.47917,-19.63688],[-53.47857,-19.63611],[-53.48006,-19.63412],[-53.48145,-19.63335],[-53.48236,-19.63236],[-53.48252,-19.63069],[-53.48204,-19.6299],[-53.48032,-19.62967],[-53.47947,-19.62708],[-53.47854,-19.62517],[-53.47816,-19.62379],[-53.47933,-19.62203],[-53.47986,-19.62067],[-53.47966,-19.61881],[-53.47779,-19.61674],[-53.47525,-19.61594],[-53.47423,-19.61535],[-53.4748,-19.61437],[-53.47702,-19.61318],[-53.4775,-19.61205],[-53.47699,-19.60913],[-53.47708,-19.60826],[-53.478,-19.60678],[-53.47849,-19.60547],[-53.47842,-19.60441],[-53.47746,-19.60317],[-53.47822,-19.60187],[-53.47984,-19.60143],[-53.48112,-19.59985],[-53.48151,-19.5984],[-53.48187,-19.59564],[-53.48341,-19.594],[-53.48453,-19.59357],[-53.48431,-19.59236],[-53.48265,-19.59159],[-53.48217,-19.59101],[-53.48244,-19.58921],[-53.48312,-19.58817],[-53.4855,-19.58679]]]},"properties":{"codigo":"500260505","name":"Camapuã","population":12497,"households":6231,"areaKm2":3895.7203,"density":3.2}},{"type":"Feature","geometry":{"type":"Polygon","coordinates":[[[-53.60253,-19.32968],[-53.60322,-19.32849],[-53.60381,-19.32519],[-53.60339,-19.32318],[-53.60449,-19.32169],[-53.60361,-19.3206],[-53.6042,-19.31905],[-53.60528,-19.31777],[-53.60594,-19.31585],[-53.6059,-19.31437],[-53.60718,-19.3117],[-53.60907,-19.31046],[-53.60855,-19.30979],[-53.60705,-19.30905],[-53.60609,-19.30794],[-53.60614,-19.30689],[-53.60678,-19.30459],[-53.60686,-19.30271],[-53.60725,-19.30206],[-53.60905,-19.30074],[-53.61066,-19.29891],[-53.61187,-19.29797],[-53.61333,-19.29636],[-53.6149,-19.29601],[-53.61634,-19.29429],[-53.61991,-19.29379],[-53.6212,-19.29274],[-53.61978,-19.29137],[-53.61787,-19.29097],[-53.6168,-19.2899],[-53.61581,-19.28724],[-53.61608,-19.2865],[-53.61716,-19.28606],[-53.6187,-19.2859],[-53.61965,-19.28453],[-53.62045,-19.28421],[-53.62215,-19.2843],[-53.62331,-19.28228],[-53.62422,-19.28119],[-53.62747,-19.27868],[-53.62823,-19.27602],[-53.62921,-19.27507],[-53.63073,-19.27449],[-53.63165,-19.27288],[-53.63277,-19.2726],[-53.63408,-19.27084],[-53.63524,-19.27018],[-53.63651,-19.26787],[-53.63775,-19.26687],[-53.6362,-19.2647],[-53.63556,-19.26415],[-53.6356,-19.2623],[-53.63494,-19.26141],[-53.63323,-19.2613],[-53.63239,-19.26085],[-53.63223,-19.2597],[-53.63106,-19.25926],[-53.63022,-19.26006],[-53.62819,-19.25863],[-53.62713,-19.25829],[-53.62591,-19.25654],[-53.62429,-19.25719],[-53.62342,-19.25597],[-53.62193,-19.25474],[-53.62194,-19.25319],[-53.62128,-19.25201],[-53.62154,-19.25078],[-53.62034,-19.24809],[-53.61942,-19.24729],[-53.61865,-19.24525],[-53.61745,-19.24467],[-53.61732,-19.24264],[-53.61613,-19.24142],[-53.61529,-19.23893],[-53.61463,-19.23783],[-53.61347,-19.23697],[-53.61162,-19.2371],[-53.61223,-19.23431],[-53.61368,-19.23239],[-53.61458,-19.23215],[-53.61536,-19.22911],[-53.6151,-19.22733],[-53.61597,-19.22592],[-53.61626,-19.22399],[-53.61499,-19.22374],[-53.61449,-19.22325],[-53.61452,-19.22211],[-53.61622,-19.22041],[-53.61587,-19.21983],[-53.61396,-19.21993],[-53.61299,-19.21944],[-53.6113,-19.21677],[-53.60991,-19.21588],[-53.60921,-19.21504],[-53.60897,-19.21359],[-53.60938,-19.21279],[-53.60968,-19.21082],[-53.61009,-19.21013],[-53.60988,-19.20882],[-53.60912,-19.20682],[-53.60913,-19.20612],[-53.6102,-19.20484],[-53.60883,-19.20281],[-53.6087,-19.20112],[-53.60946,-19.19943],[-53.60899,-19.19806],[-53.60953,-19.19679],[-53.60907,-19.19537],[-53.60808,-19.19481],[-53.60971,-19.19404],[-53.6104,-19.19452],[-53.61107,-19.19391],[-53.61107,-19.19307],[-53.61026,-19.19187],[-53.61036,-19.19076],[-53.60957,-19.19016],[-53.6106,-19.18883],[-53.61033,-19.18842],[-53.60869,-19.18815],[-53.609,-19.18693],[-53.60848,-19.18547],[-53.60827,-19.18365],[-53.60652,-19.18273],[-53.60472,-19.18252],[-53.60379,-19.18081],[-53.60181,-19.17989],[-53.60018,-19.18098],[-53.5999,-19.18221],[-53.59803,-19.18273],[-53.59732,-19.18257],[-53.59601,-19.18127],[-53.59488,-19.18078],[-53.59328,-19.18077],[-53.58972,-19.18153],[-53.58724,-19.18272],[-53.58576,-19.18292],[-53.58364,-19.18383],[-53.58109,-19.18426],[-53.57851,-19.18518],[-53.57598,-19.18681],[-53.57427,-19.18713],[-53.57083,-19.18573],[-53.56946,-19.18569],[-53.56715,-19.1863],[-53.56555,-19.18579],[-53.56341,-19.18633],[-53.56146,-19.18599],[-53.55934,-19.18614],[-53.55771,-19.18557],[-53.55642,-19.18479],[-53.55451,-19.1847],[-53.55285,-19.18391],[-53.54885,-19.18443],[-53.54676,-19.18506],[-53.54512,-19.18528],[-53.54072,-19.18649],[-53.53935,-19.186],[-53.53725,-19.18607],[-53.53609,-19.18543],[-53.53432,-19.18511],[-53.53325,-19.1844],[-53.53087,-19.18344],[-53.52862,-19.18365],[-53.52578,-19.18371],[-53.52277,-19.18258],[-53.52054,-19.18131],[-53.51867,-19.18103],[-53.51657,-19.18134],[-53.5136,-19.18216],[-53.51171,-19.18245],[-53.51047,-19.18212],[-53.50966,-19.18245],[-53.50865,-19.18224],[-53.5076,-19.18273],[-53.50348,-19.18342],[-53.50159,-19.18427],[-53.49545,-19.18388],[-53.4942,-19.18468],[-53.49172,-19.18496],[-53.49033,-19.18472],[-53.4871,-19.18607],[-53.48126,-19.18547],[-53.47995,-19.18511],[-53.47693,-19.18505],[-53.47559,-19.18529],[-53.47436,-19.18484],[-53.47223,-19.18515],[-53.46864,-19.18517],[-53.46648,-19.18446],[-53.46562,-19.18389],[-53.46306,-19.18322],[-53.46163,-19.18249],[-53.46048,-19.18227],[-53.45893,-19.18241],[-53.45655,-19.18193],[-53.45226,-19.1799],[-53.44931,-19.17906],[-53.44553,-19.17905],[-53.44324,-19.1783],[-53.44174,-19.17741],[-53.4394,-19.17472],[-53.4388,-19.17313],[-53.43896,-19.17127],[-53.43657,-19.16816],[-53.43381,-19.16614],[-53.43252,-19.16444],[-53.43045,-19.16274],[-53.42959,-19.16143],[-53.42881,-19.16008],[-53.42851,-19.15884],[-53.42858,-19.15561],[-53.42884,-19.15406],[-53.42902,-19.15025],[-53.42872,-19.14551],[-53.42767,-19.14212],[-53.42666,-19.14092],[-53.42615,-19.13979],[-53.42469,-19.138],[-53.42321,-19.1341],[-53.42318,-19.13252],[-53.42359,-19.13105],[-53.42371,-19.12941],[-53.42471,-19.12659],[-53.42468,-19.12583],[-53.42385,-19.12456],[-53.4229,-19.12115],[-53.42314,-19.11849],[-53.42265,-19.11676],[-53.42279,-19.11426],[-53.42255,-19.11335],[-53.42129,-19.11177],[-53.41898,-19.1098],[-53.41646,-19.1086],[-53.41456,-19.10683],[-53.41281,-19.10408],[-53.41102,-19.10252],[-53.40834,-19.10199],[-53.40664,-19.10119],[-53.40481,-19.10063],[-53.40379,-19.09971],[-53.40253,-19.09772],[-53.40211,-19.09474],[-53.40119,-19.09173],[-53.40005,-19.08935],[-53.3984,-19.0876],[-53.39766,-19.08647],[-53.39758,-19.0841],[-53.39733,-19.08308],[-53.39618,-19.082],[-53.39507,-19.08017],[-53.39329,-19.07883],[-53.39037,-19.07741],[-53.3875,-19.07619],[-53.38558,-19.07553],[-53.38049,-19.07446],[-53.3774,-19.07407],[-53.37616,-19.07349],[-53.37199,-19.071],[-53.36891,-19.06885],[-53.36612,-19.0667],[-53.36466,-19.06582],[-53.36287,-19.0651],[-53.35799,-19.06379],[-53.35614,-19.06346],[-53.35461,-19.06289],[-53.35365,-19.06217],[-53.35142,-19.05908],[-53.34857,-19.05538],[-53.34756,-19.05451],[-53.34556,-19.05341],[-53.34371,-19.05207],[-53.34172,-19.05095],[-53.3397,-19.0501],[-53.36934,-19.02061],[-53.40193,-19.00638],[-53.39918,-19.00373],[-53.39841,-18.99834],[-53.39601,-18.99309],[-53.39235,-18.98818],[-53.38695,-18.98115],[-53.38315,-18.95708],[-53.38243,-18.94354],[-53.38771,-18.94278],[-53.39218,-18.94355],[-53.39577,-18.94318],[-53.39843,-18.94237],[-53.40107,-18.94124],[-53.4019,-18.93966],[-53.4061,-18.93577],[-53.40895,-18.93125],[-53.41134,-18.92825],[-53.41475,-18.91521],[-53.4161,-18.91277],[-53.41816,-18.91043],[-53.42067,-18.90819],[-53.42575,-18.90648],[-53.42839,-18.90501],[-53.4305,-18.9028],[-53.43403,-18.89835],[-53.43654,-18.89623],[-53.43897,-18.89543],[-53.4414,-18.8955],[-53.44605,-18.89665],[-53.44907,-18.89716],[-53.45289,-18.89689],[-53.45621,-18.89443],[-53.45744,-18.89133],[-53.45907,-18.88371],[-53.46322,-18.87451],[-53.46802,-18.86898],[-53.47454,-18.86327],[-53.48109,-18.85955],[-53.48632,-18.85266],[-53.48957,-18.84974],[-53.4934,-18.89552],[-53.49467,-18.89647],[-53.49587,-18.8979],[-53.49811,-18.8989],[-53.49985,-18.9003],[-53.50055,-18.90122],[-53.50169,-18.90345],[-53.50355,-18.90463],[-53.50539,-18.90526],[-53.50744,-18.90524],[-53.50892,-18.90555],[-53.51121,-18.90659],[-53.51447,-18.90666],[-53.51683,-18.90713],[-53.52164,-18.90835],[-53.52367,-18.90937],[-53.52659,-18.9103],[-53.5286,-18.91136],[-53.52932,-18.91207],[-53.53083,-18.9144],[-53.53238,-18.91613],[-53.53349,-18.91691],[-53.53522,-18.91874],[-53.53658,-18.91923],[-53.53899,-18.91947],[-53.54151,-18.92057],[-53.54613,-18.92492],[-53.54907,-18.92673],[-53.55008,-18.92772],[-53.55282,-18.9293],[-53.55418,-18.92939],[-53.5557,-18.92913],[-53.55878,-18.92826],[-53.56054,-18.92795],[-53.56272,-18.92829],[-53.56361,-18.9293],[-53.56499,-18.9318],[-53.56681,-18.93409],[-53.56987,-18.93677],[-53.57178,-18.9378],[-53.57291,-18.93907],[-53.57494,-18.94192],[-53.57707,-18.94566],[-53.57835,-18.9472],[-53.57911,-18.9486],[-53.57977,-18.95146],[-53.57954,-18.95386],[-53.57961,-18.95556],[-53.58062,-18.95763],[-53.58334,-18.95858],[-53.58577,-18.96049],[-53.58754,-18.96126],[-53.58861,-18.96242],[-53.58932,-18.96435],[-53.59125,-18.96576],[-53.59392,-18.96883],[-53.5945,-18.96989],[-53.59494,-18.97169],[-53.5959,-18.97253],[-53.59927,-18.97488],[-53.60219,-18.97601],[-53.60314,-18.97616],[-53.6055,-18.97574],[-53.6096,-18.97368],[-53.61075,-18.97326],[-53.61326,-18.97318],[-53.61435,-18.97368],[-53.61866,-18.97697],[-53.62113,-18.97794],[-53.62363,-18.97972],[-53.6248,-18.98005],[-53.6277,-18.98128],[-53.62956,-18.98306],[-53.63105,-18.98308],[-53.63232,-18.98373],[-53.63331,-18.98352],[-53.63435,-18.98438],[-53.63591,-18.98412],[-53.63658,-18.98507],[-53.63912,-18.98528],[-53.64014,-18.98409],[-53.64094,-18.98266],[-53.64195,-18.98278],[-53.64366,-18.98384],[-53.64823,-18.9851],[-53.65024,-18.98529],[-53.65302,-18.98581],[-53.65615,-18.98576],[-53.65857,-18.98602],[-53.66079,-18.98663],[-53.66188,-18.98724],[-53.66528,-18.99002],[-53.66688,-18.99172],[-53.66938,-18.99505],[-53.67038,-18.99589],[-53.67363,-18.99741],[-53.67459,-18.99813],[-53.67641,-18.9987],[-53.67944,-18.99902],[-53.68195,-18.99995],[-53.68434,-19.00131],[-53.68657,-19.00179],[-53.68987,-19.00094],[-53.69249,-18.99972],[-53.69743,-18.99952],[-53.69875,-18.99885],[-53.70109,-18.99654],[-53.7046,-18.99566],[-53.70674,-18.99477],[-53.70198,-18.96047],[-53.70263,-18.96241],[-53.70427,-18.965],[-53.70601,-18.96697],[-53.70737,-18.96931],[-53.70814,-18.97001],[-53.70972,-18.97074],[-53.71133,-18.97241],[-53.71421,-18.97459],[-53.7148,-18.97646],[-53.71603,-18.97713],[-53.71828,-18.97716],[-53.7202,-18.9767],[-53.72193,-18.97685],[-53.72407,-18.97672],[-53.72576,-18.97706],[-53.72621,-18.97763],[-53.72709,-18.98022],[-53.72849,-18.98206],[-53.72844,-18.98318],[-53.72902,-18.98442],[-53.72998,-18.98543],[-53.7305,-18.98678],[-53.7309,-18.98892],[-53.73281,-18.98959],[-53.73473,-18.99061],[-53.73626,-18.991],[-53.73689,-18.99082],[-53.73786,-18.99145],[-53.73883,-18.99288],[-53.73978,-18.99363],[-53.7423,-18.99417],[-53.74428,-18.99406],[-53.74529,-18.99434],[-53.74633,-18.99525],[-53.74742,-18.99692],[-53.74948,-18.99736],[-53.75105,-18.99851],[-53.75276,-18.99911],[-53.75446,-19.00083],[-53.75575,-19.00124],[-53.75865,-19.00259],[-53.76102,-19.00481],[-53.7625,-19.00515],[-53.76422,-19.00434],[-53.76525,-19.00446],[-53.76662,-19.00542],[-53.76894,-19.00601],[-53.77035,-19.00694],[-53.77149,-19.00718],[-53.77411,-19.00875],[-53.77512,-19.00896],[-53.77773,-19.00782],[-53.77856,-19.00797],[-53.77995,-19.00902],[-53.78133,-19.0095],[-53.78281,-19.00913],[-53.78409,-19.00844],[-53.786,-19.00814],[-53.78897,-19.00948],[-53.79062,-19.00957],[-53.79284,-19.00912],[-53.79452,-19.00838],[-53.79849,-19.00721],[-53.80097,-19.00623],[-53.80551,-19.004],[-53.80801,-19.00189],[-53.80993,-18.99976],[-53.81267,-18.99836],[-53.81559,-18.99764],[-53.8206,-18.99753],[-53.82294,-18.99697],[-53.8249,-18.99696],[-53.82705,-18.99661],[-53.83015,-18.99681],[-53.8319,-18.99738],[-53.83623,-18.99937],[-53.83941,-19.00059],[-53.84227,-19.00261],[-53.84396,-19.00345],[-53.84553,-19.00396],[-53.8473,-19.00395],[-53.85103,-19.00304],[-53.85307,-19.00308],[-53.85486,-19.00351],[-53.85876,-19.00592],[-53.85996,-19.00625],[-53.86081,-19.00588],[-53.86275,-19.00578],[-53.86504,-19.00499],[-53.86591,-19.00429],[-53.86748,-19.00247],[-53.86915,-19.00195],[-53.87217,-19.00269],[-53.87463,-19.00395],[-53.87584,-19.00428],[-53.87978,-19.00434],[-53.88123,-19.00465],[-53.88255,-19.00534],[-53.88637,-19.00815],[-53.88729,-19.00841],[-53.88978,-19.0085],[-53.89238,-19.00917],[-53.89454,-19.01226],[-53.8953,-19.01258],[-53.89723,-19.01237],[-53.89992,-19.01158],[-53.90177,-19.01136],[-53.90361,-19.01157],[-53.90608,-19.01271],[-53.90698,-19.01272],[-53.91017,-19.01085],[-53.91132,-19.00937],[-53.91225,-19.00715],[-53.91329,-19.00633],[-53.91447,-19.00676],[-53.91598,-19.00813],[-53.91702,-19.00858],[-53.91852,-19.00835],[-53.92026,-19.00731],[-53.92123,-19.00724],[-53.92282,-19.0077],[-53.92486,-19.00968],[-53.92563,-19.00989],[-53.92751,-19.00681],[-53.92912,-19.00557],[-53.93013,-19.00546],[-53.93199,-19.00632],[-53.93447,-19.00491],[-53.93648,-19.00467],[-53.93876,-19.00414],[-53.93813,-19.00254],[-53.9386,-19.00201],[-53.94082,-19.00237],[-53.94159,-19.00285],[-53.94247,-19.00403],[-53.94468,-19.00481],[-53.94607,-19.00609],[-53.94712,-19.00575],[-53.9485,-19.0045],[-53.94994,-19.00386],[-53.95241,-19.00348],[-53.95578,-19.00386],[-53.9583,-19.00502],[-53.95914,-19.00601],[-53.95917,-19.00708],[-53.95792,-19.00891],[-53.95774,-19.01027],[-53.95861,-19.01134],[-53.95826,-19.01299],[-53.95935,-19.0134],[-53.95938,-19.01561],[-53.96044,-19.01639],[-53.96208,-19.01581],[-53.9638,-19.01486],[-53.96484,-19.01498],[-53.96607,-19.01738],[-53.96693,-19.01626],[-53.96772,-19.01585],[-53.96875,-19.01719],[-53.96992,-19.01704],[-53.96954,-19.01553],[-53.97081,-19.01444],[-53.97253,-19.01444],[-53.97254,-19.01519],[-53.97155,-19.01628],[-53.97351,-19.01819],[-53.97531,-19.01838],[-53.97659,-19.01983],[-53.97766,-19.02044],[-53.9772,-19.02113],[-53.97755,-19.02311],[-53.97631,-19.02438],[-53.9749,-19.02515],[-53.97436,-19.02641],[-53.97474,-19.0272],[-53.97744,-19.02782],[-53.97801,-19.02841],[-53.97705,-19.03026],[-53.97688,-19.03153],[-53.97909,-19.03061],[-53.97945,-19.03137],[-53.97877,-19.03246],[-53.97984,-19.03388],[-53.98121,-19.03361],[-53.98161,-19.03662],[-53.98109,-19.03874],[-53.98211,-19.03935],[-53.98017,-19.04073],[-53.98052,-19.04269],[-53.97979,-19.04403],[-53.98043,-19.04513],[-53.98112,-19.0447],[-53.98258,-19.0449],[-53.98343,-19.04566],[-53.98438,-19.04516],[-53.98445,-19.04276],[-53.98483,-19.04198],[-53.98609,-19.04131],[-53.98759,-19.04215],[-53.98788,-19.04369],[-53.98629,-19.04652],[-53.98579,-19.04876],[-53.98533,-19.05179],[-53.98539,-19.05299],[-53.98479,-19.05379],[-53.98404,-19.05368],[-53.98311,-19.0553],[-53.9832,-19.05639],[-53.98191,-19.05675],[-53.98162,-19.05728],[-53.98249,-19.05882],[-53.98229,-19.05997],[-53.9834,-19.06075],[-53.9844,-19.05978],[-53.98532,-19.05985],[-53.98547,-19.06153],[-53.986,-19.06279],[-53.98524,-19.06356],[-53.98532,-19.06538],[-53.98484,-19.06622],[-53.98366,-19.06704],[-53.98342,-19.06828],[-53.98455,-19.07041],[-53.98417,-19.07318],[-53.98326,-19.07397],[-53.98312,-19.07541],[-53.98474,-19.07714],[-53.98625,-19.07643],[-53.98782,-19.07676],[-53.98911,-19.07623],[-53.99191,-19.07633],[-53.99296,-19.07874],[-53.99387,-19.0797],[-53.99529,-19.08037],[-53.99712,-19.08214],[-53.99868,-19.08314],[-54.00123,-19.08351],[-54.00214,-19.08449],[-54.00331,-19.08392],[-54.00409,-19.0844],[-54.00323,-19.08726],[-54.00474,-19.08868],[-54.00552,-19.08891],[-54.00786,-19.09061],[-54.00903,-19.09089],[-54.0106,-19.09221],[-54.01144,-19.09232],[-54.01254,-19.09141],[-54.01351,-19.09105],[-54.01468,-19.09303],[-54.01595,-19.09372],[-54.01678,-19.09457],[-54.01837,-19.09536],[-54.01855,-19.09638],[-54.01944,-19.09797],[-54.01987,-19.09929],[-54.02121,-19.10036],[-54.02405,-19.10122],[-54.02576,-19.10211],[-54.02691,-19.10121],[-54.02839,-19.10086],[-54.02965,-19.0997],[-54.03265,-19.09833],[-54.0331,-19.09719],[-54.034,-19.09694],[-54.03539,-19.09793],[-54.03539,-19.09905],[-54.03648,-19.09944],[-54.03648,-19.09833],[-54.0372,-19.09819],[-54.03886,-19.0989],[-54.04221,-19.09843],[-54.04455,-19.09762],[-54.04547,-19.09787],[-54.04568,-19.09956],[-54.04688,-19.10041],[-54.04869,-19.09992],[-54.04947,-19.10128],[-54.0509,-19.10057],[-54.05312,-19.09998],[-54.05401,-19.10021],[-54.05669,-19.10171],[-54.05821,-19.10164],[-54.06001,-19.0996],[-54.06115,-19.09769],[-54.06218,-19.09493],[-54.06177,-19.09293],[-54.06103,-19.09209],[-54.05848,-19.09116],[-54.05783,-19.09061],[-54.05811,-19.08983],[-54.06051,-19.08884],[-54.06228,-19.08889],[-54.06365,-19.0896],[-54.06477,-19.08963],[-54.06566,-19.088],[-54.0676,-19.08647],[-54.06807,-19.08536],[-54.06809,-19.08413],[-54.06872,-19.08264],[-54.06884,-19.08122],[-54.06954,-19.08028],[-54.07022,-19.08198],[-54.07153,-19.08136],[-54.07217,-19.08017],[-54.07194,-19.07856],[-54.0728,-19.07653],[-54.07462,-19.07467],[-54.07561,-19.07316],[-54.07684,-19.07345],[-54.07739,-19.07207],[-54.07985,-19.06988],[-54.08113,-19.06918],[-54.08221,-19.06759],[-54.08357,-19.06701],[-54.08472,-19.06812],[-54.08576,-19.06812],[-54.08722,-19.06746],[-54.08922,-19.0678],[-54.09201,-19.06674],[-54.09277,-19.065],[-54.09364,-19.06485],[-54.09783,-19.06494],[-54.10068,-19.06434],[-54.1016,-19.06235],[-54.10271,-19.0611],[-54.10335,-19.05891],[-54.10429,-19.05793],[-54.10474,-19.05685],[-54.1045,-19.05488],[-54.10498,-19.05387],[-54.10572,-19.05378],[-54.10718,-19.05449],[-54.10818,-19.05617],[-54.10946,-19.05652],[-54.11025,-19.05607],[-54.11008,-19.05518],[-54.11183,-19.05295],[-54.1136,-19.05283],[-54.11274,-19.05157],[-54.11363,-19.04998],[-54.11362,-19.04911],[-54.11442,-19.04695],[-54.11377,-19.04497],[-54.11403,-19.04315],[-54.11369,-19.04134],[-54.11407,-19.0406],[-54.11604,-19.04076],[-54.11714,-19.04038],[-54.11774,-19.0385],[-54.11913,-19.03803],[-54.12103,-19.03682],[-54.12315,-19.03429],[-54.12361,-19.03277],[-54.123,-19.02946],[-54.12383,-19.02817],[-54.12537,-19.02639],[-54.12554,-19.02514],[-54.12493,-19.02296],[-54.12486,-19.02118],[-54.1252,-19.01991],[-54.12604,-19.01938],[-54.1273,-19.01948],[-54.12907,-19.02042],[-54.13221,-19.01953],[-54.13404,-19.01878],[-54.13493,-19.0187],[-54.13712,-19.01911],[-54.1405,-19.01892],[-54.14296,-19.01917],[-54.14368,-19.01877],[-54.14502,-19.01893],[-54.14642,-19.01798],[-54.14818,-19.0182],[-54.15021,-19.0169],[-54.15198,-19.01742],[-54.15255,-19.01649],[-54.15328,-19.01619],[-54.15507,-19.01682],[-54.15606,-19.01788],[-54.15653,-19.01766],[-54.15661,-19.01617],[-54.15732,-19.01598],[-54.15832,-19.01659],[-54.15954,-19.01585],[-54.16054,-19.01652],[-54.16145,-19.0187],[-54.16205,-19.01951],[-54.1634,-19.0203],[-54.1644,-19.02132],[-54.167,-19.02306],[-54.16938,-19.02396],[-54.17097,-19.02485],[-54.17195,-19.02488],[-54.1736,-19.02406],[-54.1754,-19.0242],[-54.17706,-19.02397],[-54.17866,-19.02334],[-54.18285,-19.02058],[-54.18395,-19.02051],[-54.18504,-19.02129],[-54.18619,-19.02261],[-54.18798,-19.02433],[-54.18968,-19.02478],[-54.19122,-19.02418],[-54.19254,-19.02398],[-54.19744,-19.02479],[-54.19819,-19.02683],[-54.20052,-19.02806],[-54.20296,-19.03091],[-54.20307,-19.03146],[-54.20162,-19.03337],[-54.20199,-19.03417],[-54.20148,-19.03536],[-54.20171,-19.03623],[-54.20343,-19.03718],[-54.20577,-19.03686],[-54.20696,-19.03704],[-54.20711,-19.03817],[-54.20526,-19.04029],[-54.20453,-19.04227],[-54.20451,-19.04619],[-54.20506,-19.04767],[-54.2062,-19.04773],[-54.20918,-19.04747],[-54.21078,-19.04642],[-54.2145,-19.04598],[-54.21474,-19.0448],[-54.21608,-19.04416],[-54.21668,-19.04329],[-54.21688,-19.04123],[-54.21797,-19.03955],[-54.21884,-19.03877],[-54.22023,-19.03815],[-54.22199,-19.03822],[-54.22261,-19.03936],[-54.22284,-19.04272],[-54.22362,-19.04334],[-54.22471,-19.04289],[-54.22594,-19.04164],[-54.22746,-19.03903],[-54.22818,-19.03833],[-54.22866,-19.03962],[-54.22996,-19.03954],[-54.23066,-19.04016],[-54.23209,-19.03912],[-54.23333,-19.03898],[-54.2335,-19.038],[-54.2327,-19.03641],[-54.23248,-19.0352],[-54.23356,-19.03373],[-54.23455,-19.03325],[-54.23577,-19.03338],[-54.23683,-19.03405],[-54.23693,-19.0353],[-54.23771,-19.03585],[-54.23955,-19.0363],[-54.2415,-19.03618],[-54.24389,-19.03528],[-54.24516,-19.03379],[-54.24601,-19.03452],[-54.24927,-19.03615],[-54.25104,-19.03659],[-54.25356,-19.03781],[-54.2553,-19.03813],[-54.25649,-19.03931],[-54.2576,-19.03942],[-54.25818,-19.04047],[-54.25804,-19.04212],[-54.25689,-19.04376],[-54.25554,-19.04412],[-54.25382,-19.04407],[-54.2525,-19.04453],[-54.25098,-19.04569],[-54.24834,-19.04707],[-54.24718,-19.04827],[-54.24537,-19.04947],[-54.24204,-19.05243],[-54.2416,-19.05312],[-54.24253,-19.05437],[-54.24503,-19.05616],[-54.24557,-19.05769],[-54.24455,-19.05943],[-54.2454,-19.06163],[-54.24498,-19.06306],[-54.24527,-19.06411],[-54.24621,-19.06494],[-54.2465,-19.06619],[-54.2462,-19.06767],[-54.24662,-19.06835],[-54.24752,-19.06762],[-54.24805,-19.06789],[-54.24851,-19.06952],[-54.2491,-19.07031],[-54.25115,-19.07101],[-54.25213,-19.07174],[-54.25252,-19.07283],[-54.25347,-19.07349],[-54.25466,-19.07361],[-54.25468,-19.07451],[-54.2529,-19.0759],[-54.25303,-19.0766],[-54.25419,-19.07757],[-54.25417,-19.0788],[-54.25331,-19.07918],[-54.25154,-19.07809],[-54.25055,-19.0781],[-54.24885,-19.07971],[-54.24662,-19.08114],[-54.24345,-19.08236],[-54.24215,-19.08302],[-54.24041,-19.08521],[-54.23957,-19.08586],[-54.23809,-19.08626],[-54.23502,-19.08641],[-54.23168,-19.08704],[-54.23001,-19.08789],[-54.22996,-19.08873],[-54.23131,-19.08932],[-54.2323,-19.09046],[-54.23274,-19.09262],[-54.23166,-19.09399],[-54.23161,-19.09494],[-54.2322,-19.09601],[-54.23254,-19.09755],[-54.23243,-19.09928],[-54.2333,-19.10081],[-54.23467,-19.10169],[-54.2364,-19.10359],[-54.23787,-19.10319],[-54.23871,-19.10397],[-54.24046,-19.10366],[-54.24149,-19.10377],[-54.24242,-19.10459],[-54.24231,-19.1077],[-54.24195,-19.10885],[-54.24009,-19.11119],[-54.23833,-19.11424],[-54.23751,-19.11526],[-54.23677,-19.11541],[-54.23466,-19.11459],[-54.23373,-19.11461],[-54.23247,-19.11528],[-54.23115,-19.11664],[-54.22887,-19.11762],[-54.22817,-19.11832],[-54.22752,-19.11993],[-54.22637,-19.12042],[-54.22528,-19.12011],[-54.22334,-19.11883],[-54.22139,-19.11935],[-54.22098,-19.11846],[-54.22007,-19.11816],[-54.21654,-19.11806],[-54.21445,-19.11837],[-54.21284,-19.11818],[-54.21099,-19.12095],[-54.20994,-19.12064],[-54.20964,-19.11887],[-54.20865,-19.11915],[-54.20792,-19.12082],[-54.20726,-19.11999],[-54.20567,-19.1202],[-54.20536,-19.12197],[-54.20652,-19.12476],[-54.20732,-19.12576],[-54.20849,-19.12581],[-54.21004,-19.1241],[-54.21123,-19.12403],[-54.21285,-19.12518],[-54.21436,-19.12586],[-54.21613,-19.12632],[-54.21631,-19.12727],[-54.21611,-19.12905],[-54.21683,-19.13074],[-54.21642,-19.13279],[-54.21657,-19.13456],[-54.21637,-19.1377],[-54.2166,-19.14137],[-54.21725,-19.14245],[-54.21884,-19.14216],[-54.21922,-19.1425],[-54.21918,-19.14398],[-54.21717,-19.14612],[-54.21739,-19.14699],[-54.21835,-19.14809],[-54.21861,-19.14946],[-54.21801,-19.15031],[-54.21803,-19.15137],[-54.21863,-19.15252],[-54.21864,-19.15337],[-54.21798,-19.15487],[-54.2195,-19.1556],[-54.22057,-19.15667],[-54.22066,-19.15736],[-54.21993,-19.15826],[-54.21529,-19.16037],[-54.21397,-19.16126],[-54.21334,-19.16321],[-54.21181,-19.16509],[-54.20962,-19.16596],[-54.20825,-19.16893],[-54.2084,-19.1703],[-54.20939,-19.17187],[-54.20996,-19.17378],[-54.21096,-19.17612],[-54.21112,-19.17744],[-54.21059,-19.17902],[-54.21096,-19.17956],[-54.21314,-19.17977],[-54.21495,-19.18088],[-54.21699,-19.18135],[-54.21797,-19.18254],[-54.21914,-19.18325],[-54.2194,-19.18466],[-54.21901,-19.18546],[-54.21772,-19.18633],[-54.21493,-19.18688],[-54.21296,-19.18797],[-54.21217,-19.18812],[-54.21106,-19.18766],[-54.20963,-19.18576],[-54.20883,-19.18536],[-54.20759,-19.186],[-54.20653,-19.18777],[-54.20458,-19.18879],[-54.20399,-19.18934],[-54.20393,-19.1913],[-54.20265,-19.19224],[-54.20064,-19.19207],[-54.19952,-19.19311],[-54.19926,-19.19464],[-54.19857,-19.19478],[-54.19747,-19.19328],[-54.1968,-19.1935],[-54.19642,-19.19483],[-54.1974,-19.19574],[-54.19864,-19.19621],[-54.20092,-19.19556],[-54.20226,-19.19617],[-54.20395,-19.19629],[-54.2046,-19.19713],[-54.20664,-19.19641],[-54.20792,-19.19639],[-54.20925,-19.19695],[-54.20958,-19.19775],[-54.21017,-19.20397],[-54.21063,-19.20531],[-54.21229,-19.20854],[-54.21244,-19.20951],[-54.21161,-19.21092],[-54.2111,-19.21095],[-54.20853,-19.21003],[-54.20746,-19.20993],[-54.20448,-19.21106],[-54.20164,-19.21143],[-54.2005,-19.21294],[-54.19913,-19.21376],[-54.19794,-19.21514],[-54.19651,-19.21609],[-54.19532,-19.21794],[-54.19437,-19.21891],[-54.1929,-19.21964],[-54.19456,-19.2212],[-54.19444,-19.22179],[-54.19417,-19.22256],[-54.19275,-19.22204],[-54.18912,-19.22459],[-54.18727,-19.22395],[-54.18622,-19.22444],[-54.18547,-19.22395],[-54.18523,-19.22288],[-54.18444,-19.22222],[-54.18326,-19.22352],[-54.18157,-19.22355],[-54.18064,-19.22289],[-54.18005,-19.22183],[-54.17598,-19.21968],[-54.17579,-19.21753],[-54.17454,-19.21638],[-54.17384,-19.21679],[-54.17256,-19.21641],[-54.17172,-19.21703],[-54.17078,-19.21631],[-54.16981,-19.2172],[-54.16882,-19.21728],[-54.16695,-19.21557],[-54.16591,-19.21666],[-54.16383,-19.21713],[-54.16425,-19.22022],[-54.16554,-19.221],[-54.16528,-19.22249],[-54.16219,-19.22355],[-54.16175,-19.22466],[-54.16303,-19.22478],[-54.16354,-19.22578],[-54.16293,-19.227],[-54.16366,-19.2284],[-54.16325,-19.22928],[-54.16007,-19.22947],[-54.15574,-19.2321],[-54.15419,-19.23219],[-54.15158,-19.23126],[-54.15025,-19.23182],[-54.14984,-19.2327],[-54.14856,-19.23212],[-54.14852,-19.23373],[-54.14768,-19.23422],[-54.14469,-19.23333],[-54.14335,-19.23349],[-54.1422,-19.23421],[-54.14149,-19.23389],[-54.14053,-19.23182],[-54.13953,-19.23143],[-54.13862,-19.23185],[-54.13761,-19.23113],[-54.13601,-19.23237],[-54.1353,-19.23245],[-54.13457,-19.23098],[-54.13433,-19.22971],[-54.13294,-19.22916],[-54.13313,-19.22774],[-54.1327,-19.22741],[-54.13122,-19.22805],[-54.12789,-19.22777],[-54.12672,-19.22913],[-54.12586,-19.22894],[-54.12232,-19.23065],[-54.12258,-19.22917],[-54.1222,-19.22763],[-54.12295,-19.22607],[-54.12399,-19.22531],[-54.12416,-19.22316],[-54.12352,-19.22257],[-54.12364,-19.22155],[-54.12229,-19.22158],[-54.1208,-19.22106],[-54.11965,-19.22172],[-54.11919,-19.22012],[-54.11924,-19.21918],[-54.12107,-19.21867],[-54.12184,-19.21785],[-54.12061,-19.21653],[-54.11961,-19.21628],[-54.11857,-19.2173],[-54.118,-19.21725],[-54.11703,-19.21609],[-54.11827,-19.21432],[-54.11684,-19.2134],[-54.11682,-19.21239],[-54.116,-19.21059],[-54.1172,-19.21003],[-54.11718,-19.20943],[-54.11563,-19.20932],[-54.11375,-19.2074],[-54.11258,-19.20725],[-54.11128,-19.20573],[-54.1124,-19.2049],[-54.11202,-19.20357],[-54.11051,-19.20252],[-54.10983,-19.19977],[-54.10862,-19.19979],[-54.10805,-19.20131],[-54.10687,-19.20227],[-54.10537,-19.20176],[-54.10461,-19.20258],[-54.10256,-19.20275],[-54.10144,-19.20324],[-54.09995,-19.20293],[-54.09833,-19.20343],[-54.09729,-19.20274],[-54.09616,-19.20289],[-54.09568,-19.20357],[-54.09403,-19.20239],[-54.09312,-19.20294],[-54.09105,-19.20184],[-54.09131,-19.20029],[-54.0899,-19.20065],[-54.08978,-19.20199],[-54.08847,-19.20198],[-54.08721,-19.20241],[-54.08534,-19.20103],[-54.08399,-19.20154],[-54.08316,-19.20246],[-54.0836,-19.20336],[-54.0801,-19.20312],[-54.0775,-19.20351],[-54.07487,-19.20466],[-54.07412,-19.20417],[-54.07232,-19.20451],[-54.07235,-19.20571],[-54.0716,-19.20573],[-54.06946,-19.20435],[-54.06776,-19.20428],[-54.06729,-19.20187],[-54.06563,-19.20094],[-54.06656,-19.19991],[-54.06538,-19.19922],[-54.06537,-19.19842],[-54.06673,-19.19749],[-54.06672,-19.19678],[-54.06585,-19.19599],[-54.0668,-19.19557],[-54.06562,-19.19478],[-54.06425,-19.19531],[-54.06334,-19.19497],[-54.06268,-19.19377],[-54.06153,-19.1944],[-54.06004,-19.19442],[-54.05927,-19.19302],[-54.05759,-19.19356],[-54.05662,-19.19267],[-54.05604,-19.19046],[-54.05643,-19.18823],[-54.0572,-19.18676],[-54.05824,-19.18563],[-54.05566,-19.18416],[-54.05505,-19.18528],[-54.0526,-19.18502],[-54.05113,-19.18585],[-54.05062,-19.18667],[-54.05209,-19.18871],[-54.05071,-19.18893],[-54.05105,-19.18983],[-54.04908,-19.19219],[-54.04718,-19.19302],[-54.0454,-19.19437],[-54.04214,-19.19573],[-54.03911,-19.19533],[-54.03754,-19.19656],[-54.03671,-19.19779],[-54.03283,-19.19997],[-54.03076,-19.20273],[-54.02949,-19.20325],[-54.02847,-19.20231],[-54.02762,-19.20242],[-54.02605,-19.20376],[-54.02544,-19.20478],[-54.02297,-19.20311],[-54.02154,-19.20051],[-54.02069,-19.20032],[-54.01853,-19.20111],[-54.01786,-19.19961],[-54.01712,-19.19983],[-54.01695,-19.20215],[-54.0158,-19.20307],[-54.01508,-19.2044],[-54.01393,-19.20502],[-54.01306,-19.20403],[-54.01118,-19.20456],[-54.01048,-19.20709],[-54.0089,-19.20742],[-54.00785,-19.20835],[-54.00573,-19.20808],[-54.00447,-19.2088],[-54.00227,-19.21066],[-53.99893,-19.21086],[-53.99525,-19.21244],[-53.99239,-19.21309],[-53.98391,-19.21322],[-53.98053,-19.21429],[-53.97924,-19.21587],[-53.9766,-19.21652],[-53.97362,-19.21627],[-53.97001,-19.21623],[-53.96675,-19.21759],[-53.9647,-19.21919],[-53.96302,-19.21982],[-53.95999,-19.22269],[-53.95864,-19.22339],[-53.95702,-19.22693],[-53.95472,-19.22879],[-53.95382,-19.22905],[-53.95217,-19.2313],[-53.94616,-19.23347],[-53.94371,-19.233],[-53.94119,-19.23415],[-53.93981,-19.23428],[-53.93746,-19.23361],[-53.93502,-19.23355],[-53.92781,-19.23664],[-53.92626,-19.23888],[-53.92326,-19.24236],[-53.91998,-19.24312],[-53.91722,-19.24614],[-53.91555,-19.24717],[-53.91235,-19.24642],[-53.90949,-19.24676],[-53.90643,-19.24762],[-53.90165,-19.25077],[-53.89943,-19.25141],[-53.89731,-19.25114],[-53.89335,-19.24949],[-53.8893,-19.24824],[-53.88485,-19.24584],[-53.88333,-19.24385],[-53.8624,-19.24166],[-53.86109,-19.24254],[-53.85898,-19.24307],[-53.85415,-19.24627],[-53.84997,-19.25007],[-53.84712,-19.25349],[-53.84512,-19.25464],[-53.84249,-19.25579],[-53.83997,-19.25784],[-53.83863,-19.25978],[-53.83797,-19.26196],[-53.83378,-19.26475],[-53.83235,-19.2685],[-53.82985,-19.27126],[-53.82232,-19.27466],[-53.81939,-19.27672],[-53.8142,-19.27751],[-53.8078,-19.27866],[-53.80251,-19.28016],[-53.80083,-19.28099],[-53.79711,-19.28362],[-53.79303,-19.28731],[-53.79009,-19.28958],[-53.78727,-19.29204],[-53.78417,-19.29405],[-53.77974,-19.29584],[-53.77657,-19.29679],[-53.77156,-19.30151],[-53.77037,-19.30339],[-53.76604,-19.31143],[-53.76406,-19.31347],[-53.76254,-19.31456],[-53.75591,-19.31819],[-53.75091,-19.32431],[-53.74955,-19.32524],[-53.74781,-19.32603],[-53.73869,-19.32667],[-53.73626,-19.32771],[-53.73374,-19.32947],[-53.73138,-19.33086],[-53.72821,-19.33202],[-53.72397,-19.33239],[-53.72247,-19.3319],[-53.71941,-19.33286],[-53.71499,-19.33196],[-53.71277,-19.3326],[-53.7117,-19.33232],[-53.70875,-19.33337],[-53.70609,-19.33341],[-53.70374,-19.33274],[-53.70112,-19.33151],[-53.69811,-19.32914],[-53.69746,-19.32844],[-53.69149,-19.32672],[-53.69065,-19.32753],[-53.68902,-19.32831],[-53.68721,-19.32844],[-53.68498,-19.32797],[-53.6832,-19.32981],[-53.68246,-19.33023],[-53.67969,-19.32936],[-53.67693,-19.3298],[-53.67453,-19.32888],[-53.67347,-19.3291],[-53.67187,-19.32852],[-53.66997,-19.32955],[-53.66913,-19.32957],[-53.66677,-19.32839],[-53.66561,-19.32891],[-53.66433,-19.32893],[-53.66217,-19.32952],[-53.66089,-19.32913],[-53.65653,-19.32909],[-53.65474,-19.32993],[-53.65326,-19.33015],[-53.65102,-19.32998],[-53.64895,-19.32956],[-53.64757,-19.32998],[-53.64587,-19.33001],[-53.64207,-19.33087],[-53.64069,-19.33139],[-53.63804,-19.33163],[-53.63709,-19.33205],[-53.63206,-19.33268],[-53.62728,-19.33275],[-53.62474,-19.33319],[-53.6221,-19.33393],[-53.62087,-19.3337],[-53.61897,-19.33443],[-53.61515,-19.33438],[-53.61315,-19.33572],[-53.61208,-19.33513],[-53.61078,-19.33354],[-53.60709,-19.33223],[-53.60582,-19.33235],[-53.60451,-19.33035],[-53.60253,-19.32968]]]},"properties":{"codigo":"500260535","name":"Pontinha do Cocho","population":1086,"households":572,"areaKm2":2342.4069,"density":0.5}}]}