{"type":"FeatureCollection","features":[{"type":"Feature","geometry":{"type":"Polygon","coordinates":[[[-53.26896,-22.29342],[-53.26917,-22.29114],[-53.27325,-22.29145],[-53.27307,-22.29374],[-53.26896,-22.29342]]]},"properties":{"codigo":"5002001003","name":"Vila Antonia Nantes","population":639,"households":270,"areaKm2":0.1074,"density":5948.8}},{"type":"Feature","geometry":{"type":"Polygon","coordinates":[[[-53.27307,-22.29374],[-53.27408,-22.29382],[-53.27938,-22.2942],[-53.27905,-22.29843],[-53.27866,-22.30269],[-53.26815,-22.3019],[-53.2631,-22.30149],[-53.26345,-22.29725],[-53.26358,-22.29585],[-53.26383,-22.29305],[-53.26896,-22.29342],[-53.27307,-22.29374]]]},"properties":{"codigo":"5002001001","name":"Centro","population":2694,"households":1231,"areaKm2":1.516,"density":1777.1}},{"type":"Feature","geometry":{"type":"Polygon","coordinates":[[[-53.25824,-22.29686],[-53.25844,-22.29453],[-53.26099,-22.29471],[-53.26091,-22.29562],[-53.26081,-22.29703],[-53.25989,-22.29697],[-53.25824,-22.29686]]]},"properties":{"codigo":"5002001008","name":"Vila Militar","population":420,"households":151,"areaKm2":0.0682,"density":6159.5}},{"type":"Feature","geometry":{"type":"Polygon","coordinates":[[[-53.2631,-22.30149],[-53.26298,-22.30316],[-53.26033,-22.30293],[-53.26048,-22.30128],[-53.2631,-22.30149]]]},"properties":{"codigo":"5002001007","name":"Vila José Mustafá","population":373,"households":143,"areaKm2":0.0504,"density":7396.8}},{"type":"Feature","geometry":{"type":"Polygon","coordinates":[[[-53.25989,-22.29697],[-53.25968,-22.29953],[-53.25441,-22.29917],[-53.2546,-22.29659],[-53.25824,-22.29686],[-53.25989,-22.29697]]]},"properties":{"codigo":"5002001006","name":"Vila Maria Gonçalves da Silva","population":1222,"households":518,"areaKm2":0.1561,"density":7830.5}},{"type":"Feature","geometry":{"type":"Polygon","coordinates":[[[-53.26358,-22.29585],[-53.26091,-22.29562],[-53.26099,-22.29471],[-53.26113,-22.29286],[-53.26383,-22.29305],[-53.26358,-22.29585]]]},"properties":{"codigo":"5002001004","name":"Vila Nídio Boffo","population":649,"households":263,"areaKm2":0.0856,"density":7583.1}},{"type":"Feature","geometry":{"type":"Polygon","coordinates":[[[-53.26345,-22.29725],[-53.26081,-22.29703],[-53.26091,-22.29562],[-53.26358,-22.29585],[-53.26345,-22.29725]]]},"properties":{"codigo":"5002001005","name":"Vila Cantidiano Duarte","population":191,"households":75,"areaKm2":0.0428,"density":4464.7}},{"type":"Feature","geometry":{"type":"Polygon","coordinates":[[[-53.27325,-22.29145],[-53.27427,-22.29136],[-53.27408,-22.29382],[-53.27307,-22.29374],[-53.27325,-22.29145]]]},"properties":{"codigo":"5002001002","name":"Vila Nova Era","population":159,"households":71,"areaKm2":0.0283,"density":5627}}]}