{"type":"FeatureCollection","features":[{"type":"Feature","geometry":{"type":"Polygon","coordinates":[[[-54.22327,-22.31405],[-54.28058,-22.29218],[-54.28504,-22.30224],[-54.30262,-22.34204],[-54.32539,-22.39247],[-54.34822,-22.44292],[-54.3096,-22.4603],[-54.30492,-22.46237],[-54.28791,-22.4688],[-54.28696,-22.46939],[-54.28107,-22.47158],[-54.27388,-22.47437],[-54.26871,-22.47652],[-54.26304,-22.47873],[-54.26076,-22.47898],[-54.25918,-22.47793],[-54.25532,-22.4693],[-54.24999,-22.45795],[-54.24554,-22.44832],[-54.24061,-22.43778],[-54.15078,-22.4737],[-54.13257,-22.43406],[-54.12336,-22.41148],[-54.11268,-22.38615],[-54.11286,-22.38312],[-54.11336,-22.38222],[-54.11432,-22.38146],[-54.11396,-22.38024],[-54.1144,-22.37942],[-54.11571,-22.37834],[-54.11709,-22.37669],[-54.11764,-22.3751],[-54.11767,-22.37325],[-54.11698,-22.37101],[-54.1171,-22.36986],[-54.11794,-22.36789],[-54.11767,-22.36592],[-54.11817,-22.36385],[-54.11667,-22.36118],[-54.11663,-22.36063],[-54.1153,-22.3588],[-54.11484,-22.35708],[-54.11492,-22.35538],[-54.18976,-22.32683],[-54.22327,-22.31405]]]},"properties":{"codigo":"500400705","name":"Glória de Dourados","population":9557,"households":4421,"areaKm2":314.5449,"density":30.4}},{"type":"Feature","geometry":{"type":"Polygon","coordinates":[[[-54.25918,-22.47793],[-54.16819,-22.51328],[-54.11462,-22.53409],[-54.11412,-22.53516],[-54.11133,-22.54669],[-54.11023,-22.54899],[-54.11055,-22.55302],[-54.11021,-22.55824],[-54.11027,-22.56278],[-54.10926,-22.56411],[-54.10775,-22.56405],[-54.10401,-22.56454],[-54.103,-22.5671],[-54.10191,-22.56688],[-54.10005,-22.56428],[-54.09912,-22.56352],[-54.09809,-22.56323],[-54.09379,-22.56323],[-54.09027,-22.56153],[-54.08908,-22.55952],[-54.087,-22.55911],[-54.08375,-22.5594],[-54.08116,-22.55854],[-54.07938,-22.55831],[-54.07759,-22.55757],[-54.07449,-22.5571],[-54.07323,-22.55796],[-54.07234,-22.56013],[-54.07143,-22.56031],[-54.07028,-22.55951],[-54.06919,-22.5593],[-54.06774,-22.55967],[-54.06676,-22.5592],[-54.06602,-22.55712],[-54.0648,-22.55508],[-54.06415,-22.55345],[-54.06263,-22.55197],[-54.06035,-22.55153],[-54.05906,-22.54996],[-54.05802,-22.54966],[-54.05697,-22.55005],[-54.05618,-22.54968],[-54.05544,-22.54861],[-54.05456,-22.54665],[-54.05196,-22.54512],[-54.04973,-22.54444],[-54.04732,-22.54444],[-54.045,-22.54496],[-54.04346,-22.54492],[-54.04197,-22.54523],[-54.04146,-22.54594],[-54.04034,-22.54643],[-54.03991,-22.54709],[-54.03876,-22.54723],[-54.03708,-22.54563],[-54.03577,-22.54479],[-54.03479,-22.54367],[-54.03192,-22.54366],[-54.03103,-22.54407],[-54.03041,-22.54524],[-54.02779,-22.54392],[-54.02826,-22.54328],[-54.02844,-22.54163],[-54.02893,-22.53981],[-54.03012,-22.53871],[-54.0314,-22.53691],[-54.03243,-22.53612],[-54.03554,-22.53506],[-54.03602,-22.53415],[-54.03581,-22.53276],[-54.036,-22.53172],[-54.03503,-22.53077],[-54.03481,-22.52969],[-54.03414,-22.52856],[-54.03404,-22.52749],[-54.03461,-22.52545],[-54.03562,-22.52342],[-54.03587,-22.52189],[-54.03535,-22.52091],[-54.03637,-22.51869],[-54.03729,-22.51813],[-54.0372,-22.51588],[-54.03819,-22.51563],[-54.03986,-22.51641],[-54.04107,-22.51625],[-54.04151,-22.51568],[-54.04168,-22.51206],[-54.04216,-22.51134],[-54.04161,-22.51004],[-54.04181,-22.50898],[-54.0429,-22.5074],[-54.04296,-22.50634],[-54.04229,-22.50515],[-54.04282,-22.50252],[-54.04341,-22.50117],[-54.04387,-22.49919],[-54.04487,-22.49869],[-54.04595,-22.49901],[-54.04689,-22.49867],[-54.04681,-22.49646],[-54.04703,-22.49489],[-54.04796,-22.49355],[-54.04855,-22.49197],[-54.04867,-22.49081],[-54.04948,-22.48996],[-54.04961,-22.48797],[-54.04998,-22.48738],[-54.0515,-22.48685],[-54.05224,-22.48613],[-54.05261,-22.48496],[-54.05437,-22.4854],[-54.05466,-22.48476],[-54.05445,-22.4833],[-54.05486,-22.48236],[-54.05571,-22.48162],[-54.05558,-22.48034],[-54.05657,-22.47918],[-54.05668,-22.47796],[-54.05722,-22.47665],[-54.05812,-22.47591],[-54.05867,-22.47491],[-54.06004,-22.47545],[-54.06034,-22.47411],[-54.06168,-22.47296],[-54.06326,-22.47196],[-54.06311,-22.47054],[-54.0645,-22.47052],[-54.06479,-22.46991],[-54.06626,-22.46917],[-54.06775,-22.46896],[-54.06802,-22.46843],[-54.06702,-22.46758],[-54.06814,-22.46707],[-54.06824,-22.46588],[-54.06944,-22.46554],[-54.06989,-22.46463],[-54.07074,-22.46442],[-54.07184,-22.46509],[-54.07287,-22.46473],[-54.07325,-22.46329],[-54.07639,-22.45861],[-54.0769,-22.45689],[-54.07965,-22.45438],[-54.08034,-22.45342],[-54.08128,-22.45287],[-54.08148,-22.45212],[-54.08118,-22.4505],[-54.08198,-22.44811],[-54.08253,-22.44746],[-54.08479,-22.4473],[-54.08598,-22.44629],[-54.08726,-22.44654],[-54.08966,-22.44605],[-54.09065,-22.44544],[-54.09314,-22.44297],[-54.09425,-22.44226],[-54.09663,-22.44002],[-54.09982,-22.43597],[-54.10032,-22.43475],[-54.10027,-22.43261],[-54.10071,-22.43194],[-54.10369,-22.42915],[-54.104,-22.42821],[-54.10355,-22.42558],[-54.10375,-22.42444],[-54.10479,-22.4223],[-54.10553,-22.41895],[-54.10596,-22.41558],[-54.10671,-22.41352],[-54.10967,-22.40857],[-54.10993,-22.40726],[-54.10961,-22.40484],[-54.10855,-22.40224],[-54.10813,-22.39812],[-54.10841,-22.39654],[-54.11017,-22.39462],[-54.11027,-22.3938],[-54.10985,-22.39233],[-54.11088,-22.39071],[-54.11086,-22.38936],[-54.11235,-22.38717],[-54.11268,-22.38615],[-54.12336,-22.41148],[-54.13257,-22.43406],[-54.15078,-22.4737],[-54.24061,-22.43778],[-54.24554,-22.44832],[-54.24999,-22.45795],[-54.25532,-22.4693],[-54.25918,-22.47793]]]},"properties":{"codigo":"500400715","name":"Guaçulândia","population":887,"households":470,"areaKm2":178.5604,"density":5}}]}