{"type":"FeatureCollection","features":[{"type":"Feature","geometry":{"type":"Polygon","coordinates":[[[-54.18632,-23.05419],[-54.18669,-23.0528],[-54.18713,-23.05285],[-54.18854,-23.05301],[-54.18939,-23.05344],[-54.1883,-23.05519],[-54.18632,-23.05419]]]},"properties":{"codigo":"5005707027","name":"Residencial Morumbi","population":77,"households":24,"areaKm2":0.0514,"density":1498.2}},{"type":"Feature","geometry":{"type":"Polygon","coordinates":[[[-54.18871,-23.07387],[-54.19015,-23.07148],[-54.19108,-23.07196],[-54.19065,-23.07268],[-54.19249,-23.07363],[-54.19358,-23.07182],[-54.19451,-23.0723],[-54.19573,-23.07234],[-54.19492,-23.07366],[-54.19398,-23.07318],[-54.19292,-23.07493],[-54.19107,-23.07397],[-54.19056,-23.07482],[-54.18871,-23.07387]]]},"properties":{"codigo":"5005707007","name":"Residencial Oasis II","population":506,"households":225,"areaKm2":0.1186,"density":4267.7}},{"type":"Feature","geometry":{"type":"Polygon","coordinates":[[[-54.21496,-23.06335],[-54.21409,-23.06372],[-54.21337,-23.06384],[-54.21578,-23.05983],[-54.21623,-23.05998],[-54.21652,-23.06128],[-54.2165,-23.06205],[-54.21719,-23.06234],[-54.2155,-23.06322],[-54.21496,-23.06335]]]},"properties":{"codigo":"5005707016","name":"Jardim Vale Encantado","population":229,"households":103,"areaKm2":0.0704,"density":3252.8}},{"type":"Feature","geometry":{"type":"Polygon","coordinates":[[[-54.21719,-23.06234],[-54.21785,-23.06191],[-54.218,-23.06276],[-54.21851,-23.06269],[-54.21925,-23.06322],[-54.21977,-23.06322],[-54.22093,-23.06379],[-54.22129,-23.0641],[-54.22233,-23.06457],[-54.22361,-23.06485],[-54.22407,-23.06518],[-54.22167,-23.06894],[-54.21914,-23.07315],[-54.21707,-23.07672],[-54.21147,-23.07612],[-54.21404,-23.07193],[-54.21508,-23.07021],[-54.21727,-23.06657],[-54.21404,-23.0649],[-54.21496,-23.06335],[-54.2155,-23.06322],[-54.21719,-23.06234]]]},"properties":{"codigo":"5005707015","name":"Residencial Ipê","population":2723,"households":1127,"areaKm2":0.9641,"density":2824.4}},{"type":"Feature","geometry":{"type":"Polygon","coordinates":[[[-54.18657,-23.06465],[-54.19058,-23.06676],[-54.19031,-23.0672],[-54.18965,-23.06714],[-54.18844,-23.06651],[-54.18747,-23.06791],[-54.18566,-23.06697],[-54.1855,-23.06645],[-54.18657,-23.06465]]]},"properties":{"codigo":"5005707005","name":"Parque Beija Flor","population":267,"households":110,"areaKm2":0.0864,"density":3091.7}},{"type":"Feature","geometry":{"type":"Polygon","coordinates":[[[-54.17453,-23.05706],[-54.1751,-23.05177],[-54.1801,-23.05228],[-54.17953,-23.05758],[-54.17453,-23.05706]]]},"properties":{"codigo":"5005707032","name":"Condomínio Green Park Residence","population":240,"households":75,"areaKm2":0.3027,"density":792.9}},{"type":"Feature","geometry":{"type":"Polygon","coordinates":[[[-54.19725,-23.07731],[-54.19814,-23.07456],[-54.20011,-23.07507],[-54.19945,-23.07626],[-54.1986,-23.0791],[-54.19683,-23.07866],[-54.19725,-23.07731]]]},"properties":{"codigo":"5005707010","name":"Conjunto Habitacional BNH 1º Plano","population":528,"households":238,"areaKm2":0.0901,"density":5858.5}},{"type":"Feature","geometry":{"type":"Polygon","coordinates":[[[-54.1883,-23.05519],[-54.18747,-23.05651],[-54.18837,-23.05659],[-54.18742,-23.05819],[-54.18543,-23.05801],[-54.1815,-23.05766],[-54.18205,-23.05607],[-54.18497,-23.05633],[-54.1856,-23.0539],[-54.18632,-23.05419],[-54.1883,-23.05519]]]},"properties":{"codigo":"5005707004","name":"Classe A Residence","population":503,"households":196,"areaKm2":0.178,"density":2825.4}},{"type":"Feature","geometry":{"type":"Polygon","coordinates":[[[-54.21147,-23.07612],[-54.20836,-23.07581],[-54.20767,-23.07556],[-54.21082,-23.07029],[-54.21404,-23.07193],[-54.21147,-23.07612]]]},"properties":{"codigo":"5005707012","name":"Vila João de Barro","population":933,"households":430,"areaKm2":0.2261,"density":4126.8}},{"type":"Feature","geometry":{"type":"Polygon","coordinates":[[[-54.19573,-23.07234],[-54.19884,-23.07221],[-54.19814,-23.07456],[-54.19725,-23.07731],[-54.19622,-23.0771],[-54.19629,-23.07666],[-54.19336,-23.0765],[-54.19386,-23.07539],[-54.19492,-23.07366],[-54.19573,-23.07234]]]},"properties":{"codigo":"5005707009","name":"Jardim Oasis I","population":497,"households":198,"areaKm2":0.1871,"density":2656}},{"type":"Feature","geometry":{"type":"Polygon","coordinates":[[[-54.18939,-23.05344],[-54.18948,-23.0533],[-54.1916,-23.05348],[-54.19289,-23.05414],[-54.19132,-23.05675],[-54.18899,-23.05555],[-54.18837,-23.05659],[-54.18747,-23.05651],[-54.1883,-23.05519],[-54.18939,-23.05344]]]},"properties":{"codigo":"5005707003","name":"Jardim União","population":200,"households":104,"areaKm2":0.12,"density":1667.1}},{"type":"Feature","geometry":{"type":"Polygon","coordinates":[[[-54.17953,-23.05758],[-54.17936,-23.05902],[-54.17488,-23.05858],[-54.17485,-23.05891],[-54.16602,-23.05803],[-54.16612,-23.05622],[-54.17032,-23.05669],[-54.17453,-23.05706],[-54.17953,-23.05758]]]},"properties":{"codigo":"5005707033","name":"Chácara de Recreio Recanto do Bosque","population":6,"households":5,"areaKm2":0.2572,"density":23.3}},{"type":"Feature","geometry":{"type":"Polygon","coordinates":[[[-54.19814,-23.07456],[-54.19884,-23.07221],[-54.19573,-23.07234],[-54.19709,-23.07013],[-54.20767,-23.07556],[-54.2075,-23.07657],[-54.20127,-23.07335],[-54.20011,-23.07507],[-54.19814,-23.07456]]]},"properties":{"codigo":"5005707011","name":"Parque Industrial I","population":75,"households":31,"areaKm2":0.2193,"density":342}},{"type":"Feature","geometry":{"type":"Polygon","coordinates":[[[-54.18948,-23.0533],[-54.18897,-23.05314],[-54.19095,-23.04987],[-54.19142,-23.05006],[-54.19441,-23.05159],[-54.19289,-23.05414],[-54.1916,-23.05348],[-54.18948,-23.0533]]]},"properties":{"codigo":"5005707002","name":"Jardim Nova Era","population":266,"households":108,"areaKm2":0.1438,"density":1849.6}},{"type":"Feature","geometry":{"type":"Polygon","coordinates":[[[-54.18713,-23.05285],[-54.189,-23.04972],[-54.19095,-23.04987],[-54.18897,-23.05314],[-54.18948,-23.0533],[-54.18939,-23.05344],[-54.18854,-23.05301],[-54.18713,-23.05285]]]},"properties":{"codigo":"5005707026","name":"Condomínio Zeus Closed Village","population":15,"households":4,"areaKm2":0.0747,"density":200.9}},{"type":"Feature","geometry":{"type":"Polygon","coordinates":[[[-54.18543,-23.05801],[-54.18491,-23.05889],[-54.18525,-23.05907],[-54.18527,-23.05988],[-54.18652,-23.06037],[-54.18557,-23.06203],[-54.18326,-23.06163],[-54.18353,-23.06118],[-54.18449,-23.05955],[-54.17936,-23.05902],[-54.17953,-23.05758],[-54.1815,-23.05766],[-54.18543,-23.05801]]]},"properties":{"codigo":"5005707030","name":"Royal Park Residence","population":671,"households":284,"areaKm2":0.1558,"density":4307.1}},{"type":"Feature","geometry":{"type":"Polygon","coordinates":[[[-54.20818,-23.04674],[-54.20856,-23.04626],[-54.20926,-23.04668],[-54.20974,-23.04667],[-54.21,-23.04778],[-54.21033,-23.04808],[-54.21014,-23.04861],[-54.21037,-23.04943],[-54.21029,-23.05019],[-54.20929,-23.05076],[-54.20874,-23.0509],[-54.2084,-23.05132],[-54.20637,-23.05269],[-54.2067,-23.04876],[-54.20696,-23.04824],[-54.20818,-23.04674]]]},"properties":{"codigo":"5005707035","name":"Residencial Athenas","population":231,"households":95,"areaKm2":0.1738,"density":1329.1}},{"type":"Feature","geometry":{"type":"Polygon","coordinates":[[[-54.20206,-23.10285],[-54.20694,-23.10059],[-54.20757,-23.10178],[-54.20789,-23.10282],[-54.20862,-23.10472],[-54.20903,-23.10695],[-54.20959,-23.10804],[-54.2097,-23.10993],[-54.21021,-23.1109],[-54.21,-23.11131],[-54.20832,-23.11116],[-54.20763,-23.11083],[-54.20581,-23.10938],[-54.20538,-23.10872],[-54.20447,-23.10645],[-54.20373,-23.10598],[-54.20206,-23.10285]],[[-54.2033,-23.1048],[-54.20366,-23.10491],[-54.20464,-23.10447],[-54.20452,-23.10364],[-54.20412,-23.10351],[-54.20315,-23.10395],[-54.2033,-23.1048]]]},"properties":{"codigo":"5005707036","name":"Distrito Verde","population":84,"households":42,"areaKm2":0.4849,"density":173.2}},{"type":"Feature","geometry":{"type":"Polygon","coordinates":[[[-54.20818,-23.04674],[-54.20647,-23.04637],[-54.20212,-23.04656],[-54.19617,-23.04596],[-54.19566,-23.04507],[-54.19375,-23.04134],[-54.19937,-23.04198],[-54.20018,-23.04184],[-54.20274,-23.04353],[-54.20445,-23.04405],[-54.20534,-23.04412],[-54.20604,-23.04458],[-54.20754,-23.04529],[-54.20781,-23.04605],[-54.20856,-23.04626],[-54.20818,-23.04674]]]},"properties":{"codigo":"5005707022","name":"Conjunto Habitacional Harry Amorim Costa","population":2054,"households":854,"areaKm2":0.4976,"density":4127.5}},{"type":"Feature","geometry":{"type":"Polygon","coordinates":[[[-54.22611,-23.05714],[-54.22621,-23.05752],[-54.2235,-23.05824],[-54.2238,-23.05936],[-54.22322,-23.05956],[-54.22332,-23.0607],[-54.22174,-23.06113],[-54.22095,-23.05849],[-54.22611,-23.05714]]]},"properties":{"codigo":"5005707034","name":"Interlagos","population":276,"households":121,"areaKm2":0.0827,"density":3335.5}},{"type":"Feature","geometry":{"type":"Polygon","coordinates":[[[-54.19142,-23.05006],[-54.19391,-23.04586],[-54.19493,-23.04597],[-54.19607,-23.04877],[-54.19604,-23.04888],[-54.19441,-23.05159],[-54.19142,-23.05006]]]},"properties":{"codigo":"5005707025","name":"Residencial Portinari","population":677,"households":290,"areaKm2":0.171,"density":3958.8}},{"type":"Feature","geometry":{"type":"Polygon","coordinates":[[[-54.21029,-23.05019],[-54.21073,-23.05101],[-54.21106,-23.05111],[-54.21106,-23.05175],[-54.21014,-23.05244],[-54.20779,-23.05368],[-54.20636,-23.05292],[-54.20637,-23.05269],[-54.2084,-23.05132],[-54.20874,-23.0509],[-54.20929,-23.05076],[-54.21029,-23.05019]]]},"properties":{"codigo":"5005707020","name":"Jardim Alvorada","population":253,"households":103,"areaKm2":0.0877,"density":2885.4}},{"type":"Feature","geometry":{"type":"Polygon","coordinates":[[[-54.1855,-23.06645],[-54.1837,-23.06647],[-54.18349,-23.06285],[-54.18256,-23.06276],[-54.18326,-23.06163],[-54.18557,-23.06203],[-54.18652,-23.06037],[-54.18527,-23.05988],[-54.18525,-23.05907],[-54.18491,-23.05889],[-54.18543,-23.05801],[-54.18742,-23.05819],[-54.18837,-23.05659],[-54.18899,-23.05555],[-54.19132,-23.05675],[-54.18657,-23.06465],[-54.1855,-23.06645]]]},"properties":{"codigo":"5005707028","name":"Chácara Recreio Bandeirantes","population":342,"households":138,"areaKm2":0.408,"density":838.3}},{"type":"Feature","geometry":{"type":"Polygon","coordinates":[[[-54.18871,-23.07387],[-54.18778,-23.07339],[-54.18814,-23.0728],[-54.18538,-23.07138],[-54.18452,-23.07281],[-54.18344,-23.07221],[-54.18383,-23.07139],[-54.18356,-23.07042],[-54.1837,-23.06929],[-54.18407,-23.06866],[-54.1838,-23.06821],[-54.18451,-23.06712],[-54.1837,-23.06647],[-54.1855,-23.06645],[-54.18566,-23.06697],[-54.18747,-23.06791],[-54.18844,-23.06651],[-54.18965,-23.06714],[-54.19031,-23.0672],[-54.19058,-23.06676],[-54.19709,-23.07013],[-54.19573,-23.07234],[-54.19451,-23.0723],[-54.19358,-23.07182],[-54.19249,-23.07363],[-54.19065,-23.07268],[-54.19108,-23.07196],[-54.19015,-23.07148],[-54.18871,-23.07387]]]},"properties":{"codigo":"5005707006","name":"Residencial Sol Nascente","population":2435,"households":1008,"areaKm2":0.6989,"density":3484.2}},{"type":"Feature","geometry":{"type":"Polygon","coordinates":[[[-54.19492,-23.07366],[-54.19386,-23.07539],[-54.19336,-23.0765],[-54.19326,-23.0766],[-54.18604,-23.07628],[-54.18778,-23.07339],[-54.18871,-23.07387],[-54.19056,-23.07482],[-54.19107,-23.07397],[-54.19292,-23.07493],[-54.19398,-23.07318],[-54.19492,-23.07366]]]},"properties":{"codigo":"5005707008","name":"Residencial Portal","population":1237,"households":456,"areaKm2":0.1939,"density":6378}},{"type":"Feature","geometry":{"type":"Polygon","coordinates":[[[-54.21496,-23.06335],[-54.21404,-23.0649],[-54.21184,-23.06859],[-54.21082,-23.07029],[-54.20767,-23.07556],[-54.19709,-23.07013],[-54.19058,-23.06676],[-54.18657,-23.06465],[-54.19132,-23.05675],[-54.19289,-23.05414],[-54.19441,-23.05159],[-54.19604,-23.04888],[-54.19945,-23.05062],[-54.20632,-23.05417],[-54.20944,-23.0558],[-54.21137,-23.0535],[-54.21191,-23.05304],[-54.21212,-23.05393],[-54.21321,-23.05476],[-54.21359,-23.05527],[-54.21414,-23.05543],[-54.21424,-23.05619],[-54.2146,-23.05642],[-54.21452,-23.05687],[-54.21499,-23.05749],[-54.21506,-23.05875],[-54.21603,-23.05852],[-54.21646,-23.0586],[-54.21578,-23.05983],[-54.21337,-23.06384],[-54.21409,-23.06372],[-54.21496,-23.06335]]]},"properties":{"codigo":"5005707001","name":"Centro","population":12393,"households":6256,"areaKm2":5.0509,"density":2453.6}},{"type":"Feature","geometry":{"type":"Polygon","coordinates":[[[-54.21508,-23.07021],[-54.21501,-23.07022],[-54.21184,-23.06859],[-54.21404,-23.0649],[-54.21727,-23.06657],[-54.21508,-23.07021]]]},"properties":{"codigo":"5005707014","name":"Conjunto Habitacional Odercio de Matos","population":1182,"households":497,"areaKm2":0.1763,"density":6703.4}},{"type":"Feature","geometry":{"type":"Polygon","coordinates":[[[-54.21404,-23.07193],[-54.21082,-23.07029],[-54.21184,-23.06859],[-54.21501,-23.07022],[-54.21508,-23.07021],[-54.21404,-23.07193]]]},"properties":{"codigo":"5005707013","name":"Conjunto Habitacional Boa Vista","population":375,"households":153,"areaKm2":0.0809,"density":4634.8}},{"type":"Feature","geometry":{"type":"Polygon","coordinates":[[[-54.21578,-23.05983],[-54.21646,-23.0586],[-54.21603,-23.05852],[-54.21506,-23.05875],[-54.21499,-23.05749],[-54.21452,-23.05687],[-54.2146,-23.05642],[-54.21489,-23.05639],[-54.21535,-23.05706],[-54.2186,-23.05485],[-54.21773,-23.05376],[-54.21855,-23.05321],[-54.21752,-23.0519],[-54.22072,-23.04974],[-54.22259,-23.05213],[-54.22498,-23.05517],[-54.22583,-23.05604],[-54.22617,-23.05712],[-54.22611,-23.05714],[-54.22095,-23.05849],[-54.22,-23.05874],[-54.21882,-23.06045],[-54.21823,-23.0606],[-54.21785,-23.06191],[-54.21719,-23.06234],[-54.2165,-23.06205],[-54.21652,-23.06128],[-54.21623,-23.05998],[-54.21578,-23.05983]]]},"properties":{"codigo":"5005707018","name":"Jardim Paraíso","population":3658,"households":1608,"areaKm2":0.7124,"density":5134.5}},{"type":"Feature","geometry":{"type":"Polygon","coordinates":[[[-54.18353,-23.06118],[-54.17915,-23.06074],[-54.17936,-23.05902],[-54.18449,-23.05955],[-54.18353,-23.06118]]]},"properties":{"codigo":"5005707029","name":"Eco Park Residence","population":432,"households":172,"areaKm2":0.0936,"density":4615.2}},{"type":"Feature","geometry":{"type":"Polygon","coordinates":[[[-54.20856,-23.04626],[-54.21125,-23.04303],[-54.215,-23.04698],[-54.21559,-23.04745],[-54.21218,-23.04976],[-54.21073,-23.05101],[-54.21029,-23.05019],[-54.21037,-23.04943],[-54.21014,-23.04861],[-54.21033,-23.04808],[-54.21,-23.04778],[-54.20974,-23.04667],[-54.20926,-23.04668],[-54.20856,-23.04626]]]},"properties":{"codigo":"5005707023","name":"Vila Nova","population":1560,"households":654,"areaKm2":0.2888,"density":5401.5}},{"type":"Feature","geometry":{"type":"Polygon","coordinates":[[[-54.1801,-23.05228],[-54.18313,-23.05256],[-54.18205,-23.05607],[-54.1815,-23.05766],[-54.17953,-23.05758],[-54.1801,-23.05228]]]},"properties":{"codigo":"5005707031","name":"Royal Golf Residence","population":160,"households":53,"areaKm2":0.1503,"density":1064.6}},{"type":"Feature","geometry":{"type":"Polygon","coordinates":[[[-54.22259,-23.05213],[-54.22313,-23.05141],[-54.22459,-23.05109],[-54.2401,-23.05279],[-54.23584,-23.05544],[-54.2354,-23.056],[-54.23456,-23.05668],[-54.23281,-23.05894],[-54.23229,-23.06044],[-54.23116,-23.0603],[-54.23163,-23.05745],[-54.22712,-23.05687],[-54.22617,-23.05712],[-54.22583,-23.05604],[-54.22498,-23.05517],[-54.22259,-23.05213]]]},"properties":{"codigo":"5005707017","name":"Parque Industrial II","population":51,"households":21,"areaKm2":0.8337,"density":61.2}},{"type":"Feature","geometry":{"type":"Polygon","coordinates":[[[-54.21106,-23.05175],[-54.21165,-23.05202],[-54.21159,-23.05278],[-54.21191,-23.05304],[-54.21137,-23.0535],[-54.20944,-23.0558],[-54.20632,-23.05417],[-54.20636,-23.05292],[-54.20779,-23.05368],[-54.21014,-23.05244],[-54.21106,-23.05175]]]},"properties":{"codigo":"5005707019","name":"Jardim Tarumã","population":624,"households":262,"areaKm2":0.118,"density":5289.3}},{"type":"Feature","geometry":{"type":"Polygon","coordinates":[[[-54.20637,-23.05269],[-54.20636,-23.05292],[-54.20632,-23.05417],[-54.19945,-23.05062],[-54.19604,-23.04888],[-54.19607,-23.04877],[-54.19493,-23.04597],[-54.19391,-23.04586],[-54.1892,-23.04537],[-54.18857,-23.04091],[-54.18773,-23.03835],[-54.1873,-23.03662],[-54.18709,-23.0365],[-54.18663,-23.03454],[-54.19044,-23.03479],[-54.19375,-23.04134],[-54.19566,-23.04507],[-54.19617,-23.04596],[-54.20212,-23.04656],[-54.20647,-23.04637],[-54.20818,-23.04674],[-54.20696,-23.04824],[-54.2067,-23.04876],[-54.20637,-23.05269]]]},"properties":{"codigo":"5005707021","name":"Jardim Progresso","population":2387,"households":1072,"areaKm2":1.2892,"density":1851.5}},{"type":"Feature","geometry":{"type":"Polygon","coordinates":[[[-54.21321,-23.05476],[-54.21363,-23.05453],[-54.21752,-23.0519],[-54.21855,-23.05321],[-54.21773,-23.05376],[-54.2186,-23.05485],[-54.21535,-23.05706],[-54.21489,-23.05639],[-54.2146,-23.05642],[-54.21424,-23.05619],[-54.21414,-23.05543],[-54.21359,-23.05527],[-54.21321,-23.05476]]]},"properties":{"codigo":"5005707024","name":"Jardim Paraíso IV","population":819,"households":329,"areaKm2":0.1588,"density":5157.4}}]}