{"type":"FeatureCollection","features":[{"type":"Feature","geometry":{"type":"Polygon","coordinates":[[[-53.03496,-16.86213],[-53.03577,-16.85809],[-53.03681,-16.85833],[-53.03788,-16.85842],[-53.0386,-16.85987],[-53.03883,-16.86069],[-53.03875,-16.86158],[-53.03841,-16.86226],[-53.03768,-16.86284],[-53.03677,-16.86297],[-53.03604,-16.86282],[-53.03496,-16.86213]]]},"properties":{"codigo":"5101209005","name":"João de Barro","population":82,"households":63,"areaKm2":0.1668,"density":491.7}},{"type":"Feature","geometry":{"type":"Polygon","coordinates":[[[-53.03496,-16.86213],[-53.03456,-16.86203],[-53.03397,-16.86232],[-53.03352,-16.86295],[-53.0326,-16.8649],[-53.03187,-16.86399],[-53.03012,-16.86001],[-53.02957,-16.85883],[-53.03319,-16.85963],[-53.03389,-16.85661],[-53.03599,-16.85708],[-53.03577,-16.85809],[-53.03496,-16.86213]]]},"properties":{"codigo":"5101209003","name":"São Francisco","population":219,"households":108,"areaKm2":0.279,"density":784.9}},{"type":"Feature","geometry":{"type":"Polygon","coordinates":[[[-53.02957,-16.85883],[-53.02922,-16.85815],[-53.02979,-16.85575],[-53.03389,-16.85659],[-53.03389,-16.85661],[-53.03319,-16.85963],[-53.02957,-16.85883]]]},"properties":{"codigo":"5101209002","name":"Cohab","population":339,"households":172,"areaKm2":0.1523,"density":2226.3}},{"type":"Feature","geometry":{"type":"Polygon","coordinates":[[[-53.03577,-16.85809],[-53.03599,-16.85708],[-53.03389,-16.85661],[-53.03389,-16.85659],[-53.03481,-16.8526],[-53.03695,-16.85305],[-53.03731,-16.85343],[-53.03815,-16.85389],[-53.03798,-16.85446],[-53.03808,-16.85632],[-53.03779,-16.85788],[-53.03788,-16.85842],[-53.03681,-16.85833],[-53.03577,-16.85809]]]},"properties":{"codigo":"5101209001","name":"Centro","population":140,"households":75,"areaKm2":0.2021,"density":692.7}},{"type":"Feature","geometry":{"type":"Polygon","coordinates":[[[-53.02979,-16.85575],[-53.03005,-16.85475],[-53.03091,-16.85491],[-53.03139,-16.85413],[-53.03222,-16.85415],[-53.03262,-16.85225],[-53.03481,-16.8526],[-53.03389,-16.85659],[-53.02979,-16.85575]]]},"properties":{"codigo":"5101209004","name":"Nossa Senhora Aparecida","population":82,"households":53,"areaKm2":0.1398,"density":586.5}}]}