{"type":"FeatureCollection","features":[{"type":"Feature","geometry":{"type":"Polygon","coordinates":[[[-58.61155,-11.14507],[-58.60866,-11.14781],[-58.6064,-11.14683],[-58.60414,-11.14562],[-58.6026,-11.14486],[-58.60341,-11.14395],[-58.60664,-11.14101],[-58.60607,-11.1404],[-58.60834,-11.13837],[-58.60921,-11.13928],[-58.60912,-11.14027],[-58.60859,-11.14036],[-58.60721,-11.14162],[-58.60838,-11.14287],[-58.60898,-11.14229],[-58.61155,-11.14507]]]},"properties":{"codigo":"5102850003","name":"Guadalupe","population":1049,"households":466,"areaKm2":0.4418,"density":2374.3}},{"type":"Feature","geometry":{"type":"Polygon","coordinates":[[[-58.60921,-11.13928],[-58.60983,-11.13872],[-58.61099,-11.13994],[-58.61041,-11.14054],[-58.61083,-11.14095],[-58.61129,-11.14084],[-58.61319,-11.13908],[-58.61573,-11.14128],[-58.61351,-11.14336],[-58.61155,-11.14507],[-58.60898,-11.14229],[-58.60838,-11.14287],[-58.60721,-11.14162],[-58.60859,-11.14036],[-58.60912,-11.14027],[-58.60921,-11.13928]]]},"properties":{"codigo":"5102850004","name":"Santo Antônio","population":724,"households":316,"areaKm2":0.3131,"density":2312.5}},{"type":"Feature","geometry":{"type":"Polygon","coordinates":[[[-58.60341,-11.14395],[-58.60023,-11.14064],[-58.60168,-11.13893],[-58.60199,-11.13843],[-58.60313,-11.13727],[-58.60461,-11.13545],[-58.60552,-11.13646],[-58.60604,-11.13596],[-58.60834,-11.13837],[-58.60607,-11.1404],[-58.60664,-11.14101],[-58.60341,-11.14395]]]},"properties":{"codigo":"5102850002","name":"Santa Rita","population":776,"households":378,"areaKm2":0.413,"density":1879.1}},{"type":"Feature","geometry":{"type":"Polygon","coordinates":[[[-58.60615,-11.13355],[-58.6086,-11.13081],[-58.60964,-11.12954],[-58.61027,-11.12863],[-58.61032,-11.12993],[-58.61188,-11.1369],[-58.61047,-11.13815],[-58.60835,-11.13587],[-58.60985,-11.1345],[-58.60926,-11.13387],[-58.60775,-11.13526],[-58.60615,-11.13355]]]},"properties":{"codigo":"5102850005","name":"Noga","population":532,"households":238,"areaKm2":0.289,"density":1840.7}},{"type":"Feature","geometry":{"type":"Polygon","coordinates":[[[-58.60834,-11.13837],[-58.60604,-11.13596],[-58.60552,-11.13646],[-58.60461,-11.13545],[-58.60615,-11.13355],[-58.60775,-11.13526],[-58.60926,-11.13387],[-58.60985,-11.1345],[-58.60835,-11.13587],[-58.61047,-11.13815],[-58.61188,-11.1369],[-58.61228,-11.13796],[-58.61319,-11.13908],[-58.61129,-11.14084],[-58.61083,-11.14095],[-58.61041,-11.14054],[-58.61099,-11.13994],[-58.60983,-11.13872],[-58.60921,-11.13928],[-58.60834,-11.13837]]]},"properties":{"codigo":"5102850001","name":"Centro","population":385,"households":189,"areaKm2":0.2403,"density":1602.2}}]}