{"type":"FeatureCollection","features":[{"type":"Feature","geometry":{"type":"Polygon","coordinates":[[[-54.97673,-15.62716],[-54.97706,-15.62781],[-54.97637,-15.63161],[-54.97535,-15.63406],[-54.97411,-15.63555],[-54.97225,-15.63582],[-54.97241,-15.63679],[-54.97626,-15.63724],[-54.97813,-15.63802],[-54.97942,-15.63989],[-54.98013,-15.63973],[-54.98091,-15.63852],[-54.98168,-15.63842],[-54.98278,-15.63916],[-54.9828,-15.63972],[-54.98186,-15.64122],[-54.98255,-15.64202],[-54.98377,-15.64152],[-54.98436,-15.64206],[-54.98397,-15.6434],[-54.98229,-15.64752],[-54.98371,-15.64783],[-54.9833,-15.64898],[-54.98405,-15.65015],[-54.9845,-15.65204],[-54.98455,-15.6537],[-54.98432,-15.65673],[-54.98469,-15.65785],[-54.98564,-15.65899],[-54.98553,-15.66103],[-54.98607,-15.66258],[-54.98586,-15.66348],[-54.98512,-15.66409],[-54.9849,-15.66495],[-54.98531,-15.66574],[-54.98518,-15.66696],[-54.98563,-15.66741],[-54.98857,-15.66736],[-54.99077,-15.66787],[-54.99255,-15.66907],[-54.99592,-15.66979],[-54.99691,-15.66933],[-54.99666,-15.66808],[-54.99741,-15.66771],[-54.99985,-15.66811],[-55.00182,-15.67059],[-55.00358,-15.67081],[-55.00526,-15.67154],[-55.00609,-15.67244],[-55.00587,-15.67343],[-55.00347,-15.67353],[-55.00257,-15.67474],[-55.00265,-15.67556],[-55.00454,-15.67796],[-55.00504,-15.68061],[-55.00476,-15.6819],[-55.00305,-15.68495],[-55.00199,-15.68725],[-54.99972,-15.68841],[-54.99934,-15.689],[-55.00371,-15.68968],[-55.00639,-15.68988],[-55.0075,-15.69045],[-55.0077,-15.69245],[-55.00803,-15.69291],[-55.01031,-15.69438],[-55.01221,-15.69759],[-55.01184,-15.69883],[-55.01108,-15.69948],[-55.00943,-15.69964],[-55.00881,-15.7008],[-55.00735,-15.7015],[-55.00577,-15.70329],[-55.00404,-15.70461],[-55.0038,-15.70641],[-55.00418,-15.70878],[-55.00344,-15.70963],[-55.00436,-15.71067],[-55.00638,-15.71142],[-55.00778,-15.71253],[-55.0098,-15.71615],[-55.01025,-15.71827],[-55.00975,-15.71932],[-55.01078,-15.72082],[-55.01022,-15.72168],[-55.011,-15.72332],[-55.01298,-15.72471],[-55.01322,-15.72604],[-55.0121,-15.72662],[-55.00995,-15.7268],[-55.0103,-15.72764],[-55.0131,-15.72763],[-55.0141,-15.72857],[-55.01443,-15.73167],[-55.01368,-15.73379],[-55.01356,-15.73496],[-55.01241,-15.73594],[-55.0121,-15.73678],[-55.01219,-15.73923],[-55.01284,-15.74292],[-55.01277,-15.74515],[-55.01181,-15.74724],[-55.01287,-15.75056],[-55.01431,-15.75211],[-55.01488,-15.75311],[-55.015,-15.75443],[-55.01429,-15.75681],[-55.01487,-15.75777],[-55.0174,-15.7568],[-55.01879,-15.75558],[-55.02046,-15.75553],[-55.02241,-15.75429],[-55.02313,-15.75415],[-55.02443,-15.75479],[-55.02519,-15.75698],[-55.0246,-15.75813],[-55.02482,-15.75954],[-55.02449,-15.76052],[-55.02348,-15.7615],[-55.02113,-15.76256],[-55.01912,-15.76434],[-55.01708,-15.76485],[-55.01691,-15.76595],[-55.01611,-15.76692],[-55.01629,-15.76748],[-55.01771,-15.7674],[-55.01793,-15.76816],[-55.01689,-15.76997],[-55.01574,-15.77139],[-55.01494,-15.77302],[-55.01339,-15.77287],[-55.01219,-15.77138],[-55.011,-15.76923],[-55.01007,-15.76887],[-55.00882,-15.7692],[-55.00551,-15.77115],[-55.00384,-15.77255],[-55.0021,-15.77341],[-54.99967,-15.773],[-54.99774,-15.77175],[-54.99689,-15.77164],[-54.99559,-15.7724],[-54.99511,-15.77385],[-54.99283,-15.77582],[-54.99198,-15.77493],[-54.99241,-15.77387],[-54.99231,-15.77297],[-54.99146,-15.77269],[-54.98899,-15.77316],[-54.98695,-15.77299],[-54.98566,-15.7722],[-54.98533,-15.7707],[-54.98041,-15.77016],[-54.97939,-15.77079],[-54.97952,-15.77208],[-54.97796,-15.77179],[-54.97529,-15.77299],[-54.97365,-15.77236],[-54.97276,-15.77161],[-54.97095,-15.76945],[-54.96917,-15.7683],[-54.96775,-15.76845],[-54.96717,-15.76915],[-54.96781,-15.76972],[-54.96751,-15.77078],[-54.96825,-15.77231],[-54.96971,-15.77372],[-54.97013,-15.7749],[-54.96963,-15.77542],[-54.96754,-15.77528],[-54.96515,-15.77601],[-54.96305,-15.77628],[-54.96228,-15.77716],[-54.96203,-15.77878],[-54.96158,-15.77962],[-54.96158,-15.78149],[-54.9621,-15.78259],[-54.96397,-15.78451],[-54.96453,-15.78657],[-54.96371,-15.78873],[-54.96183,-15.79067],[-54.95978,-15.7923],[-54.95984,-15.79365],[-54.96242,-15.79431],[-54.96349,-15.79549],[-54.96438,-15.7959],[-54.96675,-15.79543],[-54.96788,-15.79578],[-54.96915,-15.79694],[-54.96953,-15.79821],[-54.9701,-15.80301],[-54.97063,-15.80477],[-54.97046,-15.80529],[-54.96825,-15.80702],[-54.96719,-15.80867],[-54.96597,-15.8093],[-54.96478,-15.81106],[-54.96407,-15.81139],[-54.96171,-15.81174],[-54.96029,-15.81154],[-54.95941,-15.81232],[-54.95984,-15.81434],[-54.9592,-15.81502],[-54.95898,-15.8164],[-54.95852,-15.81701],[-54.95679,-15.8179],[-54.95545,-15.81813],[-54.95284,-15.81816],[-54.95134,-15.81875],[-54.95125,-15.81993],[-54.95218,-15.82131],[-54.95301,-15.82143],[-54.95391,-15.82054],[-54.95478,-15.8206],[-54.95614,-15.82173],[-54.95718,-15.8233],[-54.9595,-15.82557],[-54.96143,-15.82591],[-54.96197,-15.82647],[-54.96184,-15.82731],[-54.96074,-15.82833],[-54.96029,-15.82972],[-54.95932,-15.83164],[-54.96073,-15.8331],[-54.96033,-15.83394],[-54.95862,-15.8351],[-54.95788,-15.83644],[-54.95682,-15.8374],[-54.95662,-15.83816],[-54.95727,-15.839],[-54.95845,-15.83929],[-54.95949,-15.83911],[-54.96085,-15.83823],[-54.96204,-15.83791],[-54.96237,-15.83921],[-54.96165,-15.84068],[-54.96114,-15.843],[-54.96021,-15.84524],[-54.96096,-15.846],[-54.96258,-15.84573],[-54.96299,-15.84721],[-54.96232,-15.84774],[-54.96049,-15.84811],[-54.95898,-15.84867],[-54.95753,-15.84981],[-54.95727,-15.85045],[-54.9575,-15.85249],[-54.95674,-15.85456],[-54.95479,-15.85701],[-54.9545,-15.85786],[-54.9548,-15.85879],[-54.956,-15.85938],[-54.95965,-15.85936],[-54.96074,-15.86012],[-54.96067,-15.86086],[-54.95985,-15.86205],[-54.95833,-15.86348],[-54.95664,-15.86452],[-54.95427,-15.86547],[-54.95159,-15.86571],[-54.94939,-15.86565],[-54.94757,-15.86605],[-54.9468,-15.86548],[-54.94608,-15.86583],[-54.94675,-15.86757],[-54.94927,-15.87014],[-54.95107,-15.87252],[-54.95317,-15.87337],[-54.95528,-15.87279],[-54.95611,-15.87283],[-54.95823,-15.87366],[-54.95891,-15.87551],[-54.95836,-15.87622],[-54.9569,-15.87545],[-54.95598,-15.8755],[-54.95561,-15.87618],[-54.95487,-15.87901],[-54.95401,-15.87975],[-54.95178,-15.88087],[-54.95206,-15.8819],[-54.95328,-15.88278],[-54.95349,-15.8836],[-54.95233,-15.88543],[-54.95292,-15.88615],[-54.95443,-15.88586],[-54.95539,-15.88654],[-54.9542,-15.88881],[-54.9516,-15.88971],[-54.9511,-15.89064],[-54.95004,-15.89148],[-54.94812,-15.89196],[-54.94787,-15.89359],[-54.94608,-15.89593],[-54.9453,-15.89642],[-54.94342,-15.89684],[-54.9423,-15.89755],[-54.94477,-15.90079],[-54.94563,-15.90267],[-54.94537,-15.90323],[-54.94397,-15.90363],[-54.94287,-15.90563],[-54.94251,-15.90773],[-54.94281,-15.90936],[-54.9437,-15.91042],[-54.94564,-15.91146],[-54.94666,-15.91236],[-54.94757,-15.91446],[-54.94485,-15.91447],[-54.94264,-15.915],[-54.94128,-15.91561],[-54.94036,-15.91652],[-54.93937,-15.915],[-54.93821,-15.91466],[-54.93653,-15.91209],[-54.93445,-15.91216],[-54.93565,-15.90928],[-54.93605,-15.90719],[-54.93503,-15.90688],[-54.93363,-15.90594],[-54.93295,-15.90452],[-54.93358,-15.9034],[-54.93255,-15.90256],[-54.93185,-15.90251],[-54.93077,-15.9005],[-54.93096,-15.90008],[-54.92895,-15.8976],[-54.92832,-15.89657],[-54.92692,-15.89758],[-54.92629,-15.8972],[-54.92623,-15.89622],[-54.92669,-15.89512],[-54.92664,-15.89371],[-54.92523,-15.89443],[-54.92435,-15.89411],[-54.9236,-15.89196],[-54.92323,-15.89158],[-54.92293,-15.88961],[-54.92199,-15.88825],[-54.91971,-15.88743],[-54.91941,-15.88596],[-54.91781,-15.88668],[-54.91546,-15.88647],[-54.91367,-15.88762],[-54.91303,-15.88737],[-54.91285,-15.88632],[-54.91209,-15.88625],[-54.91138,-15.88747],[-54.90964,-15.88906],[-54.90818,-15.88886],[-54.90762,-15.88805],[-54.90661,-15.88774],[-54.90501,-15.8878],[-54.90438,-15.88681],[-54.90368,-15.8868],[-54.90249,-15.88587],[-54.90102,-15.88597],[-54.9002,-15.88554],[-54.89968,-15.88609],[-54.89853,-15.88623],[-54.89738,-15.88754],[-54.89637,-15.88741],[-54.89492,-15.88628],[-54.89351,-15.88658],[-54.89199,-15.88619],[-54.89059,-15.88624],[-54.88883,-15.88493],[-54.88781,-15.88456],[-54.88647,-15.88516],[-54.88526,-15.88508],[-54.8842,-15.88329],[-54.883,-15.88254],[-54.88217,-15.88266],[-54.88129,-15.88209],[-54.8797,-15.88183],[-54.87901,-15.88078],[-54.87825,-15.88095],[-54.87769,-15.87997],[-54.8777,-15.87874],[-54.87688,-15.87793],[-54.87612,-15.8778],[-54.87549,-15.87699],[-54.87365,-15.87691],[-54.87193,-15.87739],[-54.87002,-15.87692],[-54.86944,-15.87732],[-54.86917,-15.87854],[-54.868,-15.8796],[-54.86636,-15.88004],[-54.86537,-15.87907],[-54.86458,-15.87885],[-54.86338,-15.87777],[-54.8625,-15.87644],[-54.8604,-15.87617],[-54.86004,-15.87484],[-54.8588,-15.87413],[-54.8576,-15.87217],[-54.85663,-15.86926],[-54.85685,-15.8683],[-54.85866,-15.86684],[-54.85845,-15.86603],[-54.85656,-15.86642],[-54.85528,-15.86539],[-54.85406,-15.86503],[-54.85256,-15.8675],[-54.85121,-15.86787],[-54.85011,-15.86872],[-54.84923,-15.8675],[-54.84824,-15.86754],[-54.84794,-15.86638],[-54.84695,-15.86586],[-54.84504,-15.86645],[-54.84282,-15.86572],[-54.84167,-15.86571],[-54.84152,-15.86444],[-54.84053,-15.86403],[-54.84029,-15.8627],[-54.83893,-15.86209],[-54.83763,-15.86218],[-54.8365,-15.8601],[-54.83616,-15.85726],[-54.83613,-15.85494],[-54.83577,-15.85438],[-54.83411,-15.8532],[-54.83223,-15.85272],[-54.83188,-15.85191],[-54.83258,-15.85055],[-54.83247,-15.84957],[-54.83299,-15.84797],[-54.83389,-15.84786],[-54.83364,-15.84675],[-54.83155,-15.84436],[-54.83025,-15.84327],[-54.82964,-15.84105],[-54.82978,-15.83921],[-54.82928,-15.83859],[-54.82994,-15.83577],[-54.83023,-15.83306],[-54.82785,-15.82984],[-54.8265,-15.82848],[-54.82597,-15.8271],[-54.8262,-15.82579],[-54.82716,-15.82471],[-54.82736,-15.82369],[-54.82653,-15.82229],[-54.82637,-15.82057],[-54.8274,-15.81896],[-54.8279,-15.8156],[-54.82552,-15.81474],[-54.82374,-15.8125],[-54.8231,-15.81061],[-54.82203,-15.80993],[-54.81699,-15.81048],[-54.81463,-15.80963],[-54.81305,-15.80961],[-54.8118,-15.80921],[-54.81091,-15.80785],[-54.81101,-15.80037],[-54.8094,-15.79885],[-54.80668,-15.79833],[-54.80455,-15.79702],[-54.8026,-15.79524],[-54.80111,-15.7915],[-54.80423,-15.79094],[-54.80578,-15.7903],[-54.80893,-15.78842],[-54.80899,-15.78751],[-54.80853,-15.78647],[-54.80718,-15.78497],[-54.80309,-15.78119],[-54.79717,-15.77557],[-54.79616,-15.7697],[-54.78903,-15.76562],[-54.782,-15.75475],[-54.78093,-15.75329],[-54.77762,-15.75433],[-54.76933,-15.75673],[-54.76297,-15.75743],[-54.756,-15.75839],[-54.75417,-15.75985],[-54.74758,-15.76309],[-54.73762,-15.7678],[-54.73717,-15.76845],[-54.73709,-15.77127],[-54.73659,-15.77167],[-54.73095,-15.7735],[-54.71327,-15.7709],[-54.69825,-15.76915],[-54.69617,-15.76861],[-54.68092,-15.7631],[-54.67556,-15.76129],[-54.66561,-15.76137],[-54.66505,-15.76103],[-54.66133,-15.75622],[-54.65978,-15.75579],[-54.64672,-15.75815],[-54.63949,-15.75951],[-54.63484,-15.76333],[-54.63192,-15.76648],[-54.6309,-15.76783],[-54.62742,-15.77429],[-54.62669,-15.77475],[-54.62421,-15.77561],[-54.61647,-15.7853],[-54.61334,-15.78303],[-54.61204,-15.78241],[-54.61006,-15.78184],[-54.60724,-15.78001],[-54.60652,-15.77974],[-54.60388,-15.77941],[-54.59864,-15.77947],[-54.59392,-15.77895],[-54.59024,-15.77809],[-54.58775,-15.77676],[-54.58699,-15.77381],[-54.58643,-15.77271],[-54.58413,-15.76911],[-54.5817,-15.76456],[-54.58049,-15.76291],[-54.5792,-15.7618],[-54.57697,-15.7609],[-54.57309,-15.76063],[-54.57141,-15.76002],[-54.57048,-15.75919],[-54.56952,-15.75724],[-54.56875,-15.7533],[-54.56824,-15.74967],[-54.56721,-15.74787],[-54.5819,-15.73627],[-54.61566,-15.71898],[-54.61304,-15.71737],[-54.61197,-15.71638],[-54.61108,-15.7144],[-54.61107,-15.71261],[-54.61197,-15.70937],[-54.61198,-15.70483],[-54.61278,-15.70299],[-54.61591,-15.69929],[-54.61741,-15.69768],[-54.61911,-15.69348],[-54.61983,-15.69238],[-54.62084,-15.69172],[-54.62368,-15.69086],[-54.62497,-15.69002],[-54.62609,-15.68876],[-54.62815,-15.68713],[-54.62987,-15.68467],[-54.6308,-15.68187],[-54.63119,-15.67823],[-54.63093,-15.6765],[-54.63124,-15.67405],[-54.63123,-15.66962],[-54.63191,-15.6657],[-54.63305,-15.66227],[-54.63421,-15.6601],[-54.63544,-15.65889],[-54.63645,-15.65736],[-54.63688,-15.6554],[-54.63679,-15.65384],[-54.63598,-15.65106],[-54.6359,-15.64891],[-54.63646,-15.64746],[-54.63841,-15.64658],[-54.64101,-15.64603],[-54.64222,-15.64552],[-54.64371,-15.64539],[-54.64458,-15.645],[-54.64958,-15.64076],[-54.65119,-15.63981],[-54.65524,-15.638],[-54.65638,-15.63685],[-54.65835,-15.63376],[-54.65928,-15.63271],[-54.66204,-15.63085],[-54.66468,-15.62778],[-54.6635,-15.62684],[-54.66314,-15.62556],[-54.66236,-15.62509],[-54.66004,-15.62492],[-54.65928,-15.6244],[-54.65719,-15.62396],[-54.6545,-15.62297],[-54.65062,-15.62242],[-54.64905,-15.62158],[-54.64686,-15.62164],[-54.64592,-15.62141],[-54.64389,-15.61958],[-54.63946,-15.618],[-54.63322,-15.61694],[-54.63059,-15.61622],[-54.62673,-15.61453],[-54.6236,-15.6137],[-54.62158,-15.61335],[-54.61972,-15.61229],[-54.6145,-15.61012],[-54.61122,-15.6096],[-54.60892,-15.60856],[-54.60818,-15.60753],[-54.60713,-15.60677],[-54.60574,-15.60635],[-54.60424,-15.60514],[-54.60036,-15.60365],[-54.59718,-15.60055],[-54.5954,-15.59783],[-54.5935,-15.59596],[-54.59106,-15.59492],[-54.58838,-15.5946],[-54.58627,-15.59383],[-54.58397,-15.59376],[-54.58244,-15.59252],[-54.58031,-15.59209],[-54.57765,-15.59096],[-54.57453,-15.59018],[-54.57403,-15.58956],[-54.57428,-15.58818],[-54.57325,-15.58715],[-54.57016,-15.58636],[-54.56943,-15.58509],[-54.56979,-15.58262],[-54.56948,-15.58163],[-54.5688,-15.58105],[-54.56499,-15.57854],[-54.56214,-15.5763],[-54.56015,-15.5751],[-54.5572,-15.5711],[-54.55677,-15.57014],[-54.55418,-15.56716],[-54.55249,-15.56474],[-54.55106,-15.56214],[-54.54778,-15.55575],[-54.54674,-15.55264],[-54.54634,-15.55023],[-54.54594,-15.54503],[-54.54619,-15.53593],[-54.54709,-15.53105],[-54.54825,-15.52719],[-54.5489,-15.5257],[-54.55048,-15.52324],[-54.55392,-15.51905],[-54.55657,-15.51494],[-54.55777,-15.51332],[-54.56207,-15.50862],[-54.56356,-15.50595],[-54.56395,-15.50457],[-54.56391,-15.50219],[-54.56279,-15.49953],[-54.56248,-15.49755],[-54.56191,-15.49626],[-54.56007,-15.49418],[-54.55743,-15.49199],[-54.5551,-15.49066],[-54.55444,-15.48977],[-54.55407,-15.48849],[-54.55303,-15.48763],[-54.55091,-15.48658],[-54.54796,-15.48432],[-54.54394,-15.47943],[-54.54229,-15.47781],[-54.54184,-15.47687],[-54.54172,-15.47525],[-54.5422,-15.47402],[-54.54175,-15.4729],[-54.54091,-15.47195],[-54.54087,-15.47099],[-54.54011,-15.46631],[-54.53906,-15.46381],[-54.53863,-15.46202],[-54.5386,-15.46077],[-54.53899,-15.4589],[-54.53863,-15.45593],[-54.53786,-15.45334],[-54.537,-15.45189],[-54.53598,-15.44955],[-54.53483,-15.44767],[-54.53295,-15.44572],[-54.53187,-15.4441],[-54.53066,-15.44046],[-54.52962,-15.4362],[-54.52858,-15.43406],[-54.52686,-15.43179],[-54.52483,-15.42982],[-54.52313,-15.42686],[-54.52176,-15.42599],[-54.52061,-15.42609],[-54.51947,-15.42519],[-54.5191,-15.424],[-54.51885,-15.42127],[-54.51769,-15.41924],[-54.51573,-15.41716],[-54.51292,-15.4153],[-54.51002,-15.41272],[-54.5098,-15.41099],[-54.51031,-15.40992],[-54.51051,-15.40827],[-54.50937,-15.40609],[-54.50858,-15.40516],[-54.50704,-15.40477],[-54.50639,-15.40386],[-54.50675,-15.40296],[-54.50648,-15.40222],[-54.50929,-15.40096],[-54.51115,-15.4008],[-54.51215,-15.40012],[-54.51198,-15.39877],[-54.51051,-15.39772],[-54.5096,-15.39656],[-54.51041,-15.39535],[-54.51191,-15.39569],[-54.51324,-15.39741],[-54.51424,-15.39979],[-54.51501,-15.40059],[-54.51625,-15.40125],[-54.51765,-15.40139],[-54.51989,-15.40016],[-54.52297,-15.40115],[-54.52545,-15.40091],[-54.52679,-15.40149],[-54.52755,-15.40089],[-54.52697,-15.39869],[-54.52934,-15.39719],[-54.53086,-15.39531],[-54.53213,-15.39146],[-54.5315,-15.39051],[-54.53035,-15.39041],[-54.52926,-15.38923],[-54.52949,-15.38801],[-54.53055,-15.38706],[-54.52952,-15.38552],[-54.52954,-15.38449],[-54.53086,-15.38276],[-54.5311,-15.3809],[-54.53075,-15.37981],[-54.53084,-15.37828],[-54.53221,-15.37647],[-54.53364,-15.37578],[-54.53591,-15.37537],[-54.53874,-15.3752],[-54.54155,-15.37435],[-54.5428,-15.37244],[-54.54285,-15.37104],[-54.54371,-15.3704],[-54.54535,-15.37078],[-54.54638,-15.37149],[-54.54964,-15.37516],[-54.55089,-15.37512],[-54.55286,-15.37397],[-54.5537,-15.37239],[-54.55337,-15.37101],[-54.55419,-15.36897],[-54.55381,-15.36764],[-54.55248,-15.36654],[-54.55241,-15.36552],[-54.55415,-15.36539],[-54.5569,-15.36655],[-54.55749,-15.36586],[-54.55677,-15.36428],[-54.55881,-15.36275],[-54.55962,-15.36159],[-54.56047,-15.3619],[-54.56109,-15.36287],[-54.56404,-15.36374],[-54.56604,-15.3638],[-54.56816,-15.36274],[-54.5699,-15.36143],[-54.57202,-15.36082],[-54.57334,-15.36109],[-54.5739,-15.36213],[-54.57358,-15.36325],[-54.57432,-15.36366],[-54.57602,-15.36328],[-54.57734,-15.36374],[-54.57735,-15.36515],[-54.57785,-15.36616],[-54.57986,-15.36763],[-54.58129,-15.36776],[-54.58238,-15.36697],[-54.58284,-15.36561],[-54.58388,-15.36413],[-54.58442,-15.36219],[-54.58545,-15.36216],[-54.58602,-15.36319],[-54.58611,-15.36589],[-54.58465,-15.36905],[-54.58472,-15.3702],[-54.58562,-15.37106],[-54.58671,-15.37131],[-54.58736,-15.37099],[-54.58737,-15.36984],[-54.58843,-15.36852],[-54.5896,-15.36798],[-54.58984,-15.36704],[-54.59071,-15.36678],[-54.5913,-15.3677],[-54.59202,-15.37004],[-54.59225,-15.37194],[-54.59311,-15.3728],[-54.59562,-15.37331],[-54.5967,-15.37261],[-54.59569,-15.37148],[-54.59572,-15.37035],[-54.59734,-15.36934],[-54.59798,-15.36844],[-54.59879,-15.36817],[-54.60328,-15.36951],[-54.60395,-15.37045],[-54.60398,-15.37196],[-54.60435,-15.37353],[-54.60574,-15.37463],[-54.60731,-15.37487],[-54.60885,-15.37474],[-54.61038,-15.37404],[-54.61132,-15.37253],[-54.61035,-15.37185],[-54.60821,-15.37139],[-54.6077,-15.36982],[-54.60883,-15.36926],[-54.61009,-15.36965],[-54.61189,-15.37089],[-54.61309,-15.3723],[-54.61528,-15.37418],[-54.61929,-15.37576],[-54.62082,-15.37585],[-54.62312,-15.37528],[-54.62533,-15.3751],[-54.62633,-15.37585],[-54.62672,-15.37818],[-54.62812,-15.37834],[-54.62877,-15.37728],[-54.63109,-15.3778],[-54.62964,-15.37915],[-54.62958,-15.38025],[-54.6303,-15.38231],[-54.6313,-15.38194],[-54.63167,-15.38006],[-54.6327,-15.38005],[-54.63339,-15.38071],[-54.63448,-15.3827],[-54.63675,-15.38374],[-54.63619,-15.38466],[-54.63427,-15.38464],[-54.6335,-15.38585],[-54.63502,-15.38612],[-54.63513,-15.38713],[-54.63586,-15.38712],[-54.63691,-15.38614],[-54.64091,-15.38531],[-54.64184,-15.38539],[-54.64278,-15.38635],[-54.64481,-15.38781],[-54.64386,-15.38932],[-54.64492,-15.39023],[-54.64571,-15.38982],[-54.64528,-15.38815],[-54.64508,-15.38611],[-54.6454,-15.38547],[-54.64677,-15.38478],[-54.64745,-15.38398],[-54.64859,-15.384],[-54.64931,-15.38457],[-54.6492,-15.38535],[-54.6499,-15.38583],[-54.65127,-15.38584],[-54.65167,-15.3866],[-54.6503,-15.38787],[-54.65065,-15.38854],[-54.65253,-15.38889],[-54.65295,-15.38811],[-54.65244,-15.38643],[-54.65354,-15.38593],[-54.65427,-15.38673],[-54.65528,-15.38965],[-54.65611,-15.38962],[-54.65693,-15.38896],[-54.65788,-15.38882],[-54.6592,-15.38997],[-54.66038,-15.39008],[-54.66118,-15.38938],[-54.66195,-15.3878],[-54.66354,-15.38702],[-54.66581,-15.38706],[-54.66696,-15.38749],[-54.66714,-15.38847],[-54.66569,-15.3888],[-54.66499,-15.39002],[-54.66631,-15.39062],[-54.66766,-15.39256],[-54.66872,-15.39285],[-54.67102,-15.39159],[-54.67289,-15.39127],[-54.67352,-15.39048],[-54.67334,-15.38952],[-54.67419,-15.38933],[-54.67596,-15.39045],[-54.67751,-15.38946],[-54.67809,-15.38992],[-54.67706,-15.39098],[-54.67722,-15.39171],[-54.68001,-15.39143],[-54.68209,-15.39161],[-54.68287,-15.39136],[-54.68492,-15.39239],[-54.68621,-15.39396],[-54.68809,-15.39474],[-54.68971,-15.39593],[-54.69024,-15.39698],[-54.68863,-15.39847],[-54.6894,-15.39971],[-54.69067,-15.40013],[-54.69222,-15.40013],[-54.69379,-15.39884],[-54.69295,-15.39775],[-54.69496,-15.39746],[-54.69529,-15.39608],[-54.69618,-15.39611],[-54.69794,-15.39733],[-54.6993,-15.39735],[-54.70103,-15.39676],[-54.70067,-15.39892],[-54.70139,-15.40028],[-54.70242,-15.40051],[-54.70344,-15.39953],[-54.70359,-15.39801],[-54.7021,-15.39706],[-54.70229,-15.39562],[-54.70354,-15.39585],[-54.70498,-15.39484],[-54.70545,-15.39557],[-54.70477,-15.39684],[-54.70587,-15.39731],[-54.70708,-15.39403],[-54.70848,-15.39395],[-54.71274,-15.39578],[-54.71483,-15.39713],[-54.71857,-15.39808],[-54.72012,-15.39877],[-54.72158,-15.40004],[-54.72617,-15.40296],[-54.72758,-15.40423],[-54.72837,-15.40529],[-54.73034,-15.40693],[-54.73199,-15.40786],[-54.73409,-15.40854],[-54.73651,-15.41027],[-54.73931,-15.41455],[-54.74188,-15.41685],[-54.7444,-15.41846],[-54.7488,-15.4226],[-54.75073,-15.42568],[-54.75392,-15.42875],[-54.75587,-15.42963],[-54.75756,-15.42984],[-54.76013,-15.43119],[-54.76246,-15.43181],[-54.76598,-15.43352],[-54.76709,-15.43374],[-54.77322,-15.4363],[-54.77502,-15.43663],[-54.77685,-15.4373],[-54.78457,-15.43789],[-54.78858,-15.43864],[-54.79227,-15.4405],[-54.79306,-15.44117],[-54.79757,-15.44321],[-54.80209,-15.44573],[-54.80694,-15.44893],[-54.81007,-15.45038],[-54.81879,-15.45392],[-54.82035,-15.45483],[-54.82194,-15.45639],[-54.82376,-15.45688],[-54.82582,-15.45684],[-54.82721,-15.45716],[-54.8309,-15.45891],[-54.83336,-15.46023],[-54.83709,-15.46126],[-54.83857,-15.46215],[-54.84321,-15.46368],[-54.84606,-15.46533],[-54.84798,-15.46605],[-54.85021,-15.46727],[-54.85215,-15.46757],[-54.85432,-15.46902],[-54.85879,-15.47398],[-54.86029,-15.47469],[-54.863,-15.47548],[-54.86468,-15.47642],[-54.86737,-15.47867],[-54.86873,-15.47941],[-54.87114,-15.47961],[-54.8762,-15.48121],[-54.88081,-15.48404],[-54.88552,-15.48663],[-54.88662,-15.48738],[-54.88923,-15.48962],[-54.89261,-15.49194],[-54.89696,-15.49429],[-54.90041,-15.49574],[-54.90284,-15.49649],[-54.90722,-15.49669],[-54.90873,-15.49652],[-54.91135,-15.49564],[-54.91325,-15.4944],[-54.91451,-15.49241],[-54.91594,-15.48978],[-54.92971,-15.48233],[-54.93255,-15.484],[-54.93398,-15.48414],[-54.93822,-15.48394],[-54.94146,-15.48409],[-54.945,-15.48572],[-54.94831,-15.48606],[-54.95039,-15.48572],[-54.95227,-15.4865],[-54.95472,-15.48918],[-54.95553,-15.49053],[-54.95573,-15.49155],[-54.95529,-15.49345],[-54.95383,-15.49555],[-54.95323,-15.49763],[-54.95331,-15.49913],[-54.9541,-15.50232],[-54.95434,-15.50446],[-54.95531,-15.50711],[-54.95583,-15.509],[-54.95588,-15.51209],[-54.95479,-15.51463],[-54.95463,-15.51656],[-54.95597,-15.51923],[-54.95627,-15.5208],[-54.9562,-15.52333],[-54.9557,-15.52575],[-54.95658,-15.52823],[-54.95649,-15.52991],[-54.95614,-15.53086],[-54.95762,-15.53208],[-54.95911,-15.53279],[-54.96198,-15.53317],[-54.96354,-15.53271],[-54.96457,-15.53278],[-54.96708,-15.53358],[-54.96782,-15.53417],[-54.96807,-15.53527],[-54.9673,-15.53612],[-54.9675,-15.53721],[-54.96882,-15.5387],[-54.96878,-15.53963],[-54.96944,-15.54129],[-54.97003,-15.54173],[-54.971,-15.54145],[-54.97209,-15.54215],[-54.97195,-15.54432],[-54.97101,-15.54664],[-54.97096,-15.54761],[-54.97193,-15.54896],[-54.97222,-15.55143],[-54.97442,-15.55417],[-54.97368,-15.55504],[-54.97408,-15.55569],[-54.97504,-15.55582],[-54.97521,-15.55685],[-54.97347,-15.55735],[-54.97149,-15.56032],[-54.97112,-15.5617],[-54.97175,-15.56265],[-54.97267,-15.56313],[-54.97276,-15.564],[-54.97213,-15.56503],[-54.97152,-15.56888],[-54.9718,-15.57058],[-54.9711,-15.57353],[-54.97092,-15.57531],[-54.97035,-15.57676],[-54.96992,-15.57876],[-54.96843,-15.5801],[-54.96878,-15.58122],[-54.96854,-15.58194],[-54.97138,-15.58516],[-54.97167,-15.58612],[-54.97017,-15.58923],[-54.96674,-15.59067],[-54.9657,-15.5915],[-54.9659,-15.59291],[-54.96834,-15.59731],[-54.96855,-15.59845],[-54.96727,-15.60032],[-54.96651,-15.6005],[-54.96554,-15.60181],[-54.96538,-15.6029],[-54.96435,-15.60397],[-54.96545,-15.60511],[-54.96523,-15.60646],[-54.96583,-15.60695],[-54.96664,-15.60632],[-54.96711,-15.60511],[-54.96825,-15.60532],[-54.96856,-15.60634],[-54.96712,-15.60889],[-54.96778,-15.60971],[-54.96648,-15.61089],[-54.96454,-15.61115],[-54.9628,-15.61255],[-54.96168,-15.61433],[-54.96286,-15.61603],[-54.96299,-15.61724],[-54.96472,-15.61904],[-54.96509,-15.62012],[-54.96767,-15.62117],[-54.9681,-15.622],[-54.96963,-15.62194],[-54.97127,-15.62283],[-54.97239,-15.62236],[-54.97312,-15.62287],[-54.97436,-15.62642],[-54.97454,-15.62778],[-54.97517,-15.62788],[-54.97673,-15.62716]]]},"properties":{"codigo":"510360105","name":"Dom Aquino","population":7048,"households":3538,"areaKm2":1811.5286,"density":3.9}},{"type":"Feature","geometry":{"type":"Polygon","coordinates":[[[-54.94757,-15.91446],[-54.94831,-15.9156],[-54.95045,-15.91622],[-54.95127,-15.91749],[-54.95206,-15.91771],[-54.95293,-15.91677],[-54.95373,-15.91661],[-54.95445,-15.9175],[-54.95441,-15.91868],[-54.95397,-15.91967],[-54.95265,-15.92088],[-54.94952,-15.92172],[-54.94895,-15.92218],[-54.94889,-15.9236],[-54.9482,-15.92389],[-54.94612,-15.92373],[-54.94594,-15.92489],[-54.94764,-15.92596],[-54.94752,-15.9277],[-54.94669,-15.92823],[-54.94418,-15.92823],[-54.94281,-15.92868],[-54.94227,-15.92929],[-54.94211,-15.93167],[-54.94312,-15.93479],[-54.94331,-15.93801],[-54.94445,-15.93837],[-54.94677,-15.93789],[-54.94906,-15.93801],[-54.951,-15.93929],[-54.95299,-15.93815],[-54.95432,-15.93852],[-54.95463,-15.93934],[-54.9544,-15.94054],[-54.95334,-15.9417],[-54.95323,-15.94408],[-54.95253,-15.94524],[-54.95114,-15.94599],[-54.95094,-15.94751],[-54.95204,-15.9487],[-54.95202,-15.94962],[-54.9511,-15.95079],[-54.95291,-15.95175],[-54.95288,-15.95308],[-54.95112,-15.95401],[-54.95085,-15.95564],[-54.95034,-15.95633],[-54.9491,-15.95607],[-54.94814,-15.95424],[-54.94543,-15.95302],[-54.9439,-15.95099],[-54.94258,-15.94997],[-54.94169,-15.94989],[-54.93944,-15.95069],[-54.93833,-15.95203],[-54.93742,-15.95216],[-54.93606,-15.9515],[-54.93507,-15.95147],[-54.93354,-15.95215],[-54.93335,-15.95288],[-54.93389,-15.95487],[-54.93318,-15.95683],[-54.93189,-15.95812],[-54.93028,-15.95795],[-54.9291,-15.95723],[-54.92889,-15.95994],[-54.92802,-15.96137],[-54.9257,-15.96264],[-54.923,-15.96269],[-54.92037,-15.96397],[-54.91731,-15.96395],[-54.91709,-15.96482],[-54.91849,-15.96789],[-54.91987,-15.96836],[-54.9209,-15.96759],[-54.92146,-15.96665],[-54.92252,-15.96749],[-54.92207,-15.96845],[-54.92059,-15.96952],[-54.91916,-15.97123],[-54.91886,-15.9721],[-54.91901,-15.97525],[-54.91845,-15.97603],[-54.91746,-15.97595],[-54.91614,-15.97424],[-54.9151,-15.97325],[-54.91411,-15.97301],[-54.91274,-15.97353],[-54.91252,-15.97462],[-54.91298,-15.9753],[-54.91458,-15.97587],[-54.91475,-15.9771],[-54.91337,-15.97864],[-54.91289,-15.98113],[-54.9116,-15.98096],[-54.91028,-15.98029],[-54.90951,-15.98061],[-54.90968,-15.98151],[-54.91244,-15.98293],[-54.91123,-15.98399],[-54.91014,-15.98384],[-54.90882,-15.98204],[-54.90851,-15.98051],[-54.90926,-15.97808],[-54.90825,-15.97687],[-54.90721,-15.97776],[-54.90642,-15.9779],[-54.90556,-15.97711],[-54.9057,-15.976],[-54.90693,-15.97462],[-54.90845,-15.97335],[-54.90873,-15.97257],[-54.90856,-15.97123],[-54.90773,-15.96953],[-54.90837,-15.96878],[-54.90821,-15.96806],[-54.90641,-15.96761],[-54.905,-15.96783],[-54.90363,-15.96707],[-54.90232,-15.96687],[-54.90169,-15.9664],[-54.9012,-15.9652],[-54.90149,-15.96374],[-54.90086,-15.96264],[-54.90092,-15.9617],[-54.90045,-15.96065],[-54.90099,-15.959],[-54.90173,-15.95879],[-54.90289,-15.95714],[-54.90122,-15.9539],[-54.90177,-15.95256],[-54.90054,-15.95153],[-54.90115,-15.95001],[-54.90077,-15.94974],[-54.8995,-15.95081],[-54.89666,-15.95232],[-54.89598,-15.95083],[-54.89458,-15.94995],[-54.89322,-15.94855],[-54.89124,-15.94773],[-54.89049,-15.94945],[-54.88956,-15.94861],[-54.88752,-15.94867],[-54.88647,-15.94761],[-54.88528,-15.9481],[-54.88487,-15.94743],[-54.88609,-15.94626],[-54.88545,-15.94587],[-54.88458,-15.94644],[-54.88385,-15.94614],[-54.88345,-15.9475],[-54.88166,-15.94678],[-54.88054,-15.94601],[-54.88029,-15.94713],[-54.87883,-15.94763],[-54.87808,-15.94726],[-54.87616,-15.94716],[-54.87533,-15.94756],[-54.87327,-15.94747],[-54.87258,-15.94821],[-54.87152,-15.94807],[-54.87066,-15.94731],[-54.86925,-15.94774],[-54.86879,-15.94654],[-54.8671,-15.94659],[-54.86623,-15.94616],[-54.86555,-15.94703],[-54.8644,-15.94589],[-54.8626,-15.94746],[-54.86143,-15.94702],[-54.86116,-15.94574],[-54.8585,-15.94618],[-54.85865,-15.94556],[-54.85815,-15.94379],[-54.85558,-15.94409],[-54.85412,-15.94323],[-54.85246,-15.94364],[-54.85157,-15.94287],[-54.85023,-15.9425],[-54.84954,-15.94137],[-54.84889,-15.94233],[-54.84806,-15.94247],[-54.84631,-15.94183],[-54.84633,-15.94078],[-54.84418,-15.94037],[-54.84378,-15.93895],[-54.84254,-15.93945],[-54.84149,-15.93942],[-54.84017,-15.9384],[-54.83917,-15.93842],[-54.8378,-15.93989],[-54.83678,-15.94042],[-54.83514,-15.94027],[-54.83379,-15.93983],[-54.83375,-15.93824],[-54.83323,-15.93733],[-54.83217,-15.93747],[-54.8302,-15.93682],[-54.82999,-15.93553],[-54.82743,-15.93555],[-54.8266,-15.9358],[-54.82458,-15.93723],[-54.82437,-15.93872],[-54.82289,-15.93872],[-54.82248,-15.93832],[-54.82206,-15.9367],[-54.82082,-15.93503],[-54.81999,-15.93466],[-54.81815,-15.93465],[-54.81732,-15.93564],[-54.81653,-15.93438],[-54.81487,-15.93279],[-54.8138,-15.93293],[-54.81308,-15.93253],[-54.81227,-15.93099],[-54.81159,-15.93047],[-54.81043,-15.92891],[-54.80935,-15.92845],[-54.80888,-15.92902],[-54.80746,-15.92966],[-54.80531,-15.92962],[-54.80442,-15.93044],[-54.8026,-15.9296],[-54.8018,-15.93045],[-54.80034,-15.92941],[-54.79732,-15.92932],[-54.79507,-15.92748],[-54.79467,-15.92616],[-54.79278,-15.92643],[-54.79148,-15.92501],[-54.79142,-15.92383],[-54.79002,-15.92253],[-54.78718,-15.92165],[-54.78703,-15.92041],[-54.78583,-15.91987],[-54.78458,-15.91872],[-54.78303,-15.91896],[-54.78219,-15.91758],[-54.78038,-15.91711],[-54.77726,-15.918],[-54.77237,-15.91767],[-54.76792,-15.91825],[-54.76456,-15.91768],[-54.7632,-15.91892],[-54.76244,-15.92042],[-54.76138,-15.92001],[-54.76019,-15.91762],[-54.76068,-15.91686],[-54.76125,-15.91482],[-54.76021,-15.91418],[-54.75979,-15.91298],[-54.75921,-15.91252],[-54.75794,-15.91269],[-54.75713,-15.91139],[-54.75542,-15.91145],[-54.75528,-15.90976],[-54.75417,-15.9092],[-54.7531,-15.90963],[-54.75144,-15.90915],[-54.75016,-15.90748],[-54.74866,-15.90633],[-54.74702,-15.90579],[-54.74649,-15.90462],[-54.7476,-15.90347],[-54.74727,-15.90276],[-54.74556,-15.90116],[-54.74514,-15.89964],[-54.74638,-15.89584],[-54.74587,-15.89492],[-54.7443,-15.89493],[-54.74246,-15.8942],[-54.74112,-15.89472],[-54.73873,-15.89435],[-54.7371,-15.89524],[-54.73622,-15.8949],[-54.73697,-15.89291],[-54.73672,-15.89223],[-54.73495,-15.89137],[-54.73278,-15.89126],[-54.72975,-15.89223],[-54.72745,-15.89251],[-54.72674,-15.89321],[-54.72329,-15.8931],[-54.72131,-15.89238],[-54.71851,-15.89089],[-54.71666,-15.88882],[-54.7163,-15.88781],[-54.71458,-15.88756],[-54.71359,-15.88839],[-54.71459,-15.88958],[-54.71415,-15.8912],[-54.71219,-15.89228],[-54.71137,-15.89197],[-54.71008,-15.8907],[-54.70989,-15.88952],[-54.70936,-15.88901],[-54.70737,-15.8884],[-54.70799,-15.88716],[-54.70771,-15.88672],[-54.70613,-15.88691],[-54.7053,-15.88655],[-54.70455,-15.88736],[-54.70497,-15.88864],[-54.70389,-15.88904],[-54.70328,-15.88827],[-54.70225,-15.8878],[-54.69978,-15.88789],[-54.69926,-15.88816],[-54.69889,-15.8898],[-54.69829,-15.89034],[-54.69707,-15.89061],[-54.69644,-15.8903],[-54.69593,-15.88926],[-54.69395,-15.88916],[-54.69309,-15.8884],[-54.69425,-15.88798],[-54.69456,-15.88724],[-54.69249,-15.88676],[-54.69163,-15.8863],[-54.69037,-15.88506],[-54.68963,-15.88518],[-54.68938,-15.88626],[-54.68859,-15.88681],[-54.68776,-15.88636],[-54.6874,-15.88469],[-54.68675,-15.88322],[-54.68687,-15.88198],[-54.68492,-15.88142],[-54.6838,-15.88075],[-54.68432,-15.87939],[-54.68512,-15.87933],[-54.68667,-15.87985],[-54.68744,-15.87972],[-54.68791,-15.87857],[-54.6894,-15.87754],[-54.69014,-15.87648],[-54.69011,-15.87553],[-54.68885,-15.87505],[-54.68728,-15.8759],[-54.68655,-15.87569],[-54.68692,-15.8745],[-54.6885,-15.87408],[-54.68883,-15.87317],[-54.68789,-15.87218],[-54.6886,-15.87074],[-54.68771,-15.87],[-54.68684,-15.86998],[-54.68482,-15.87132],[-54.68374,-15.87154],[-54.6838,-15.87],[-54.68315,-15.86914],[-54.68199,-15.86855],[-54.68238,-15.86734],[-54.68056,-15.86626],[-54.68015,-15.86541],[-54.68065,-15.86408],[-54.68003,-15.86352],[-54.67856,-15.8645],[-54.67813,-15.86424],[-54.67733,-15.86207],[-54.67787,-15.86113],[-54.68027,-15.86007],[-54.68091,-15.85895],[-54.68064,-15.85734],[-54.6797,-15.85624],[-54.67947,-15.8553],[-54.67868,-15.85403],[-54.67839,-15.8527],[-54.67749,-15.852],[-54.67781,-15.85013],[-54.67701,-15.84971],[-54.67573,-15.8508],[-54.67405,-15.85116],[-54.6735,-15.85049],[-54.67398,-15.84984],[-54.67506,-15.84944],[-54.67588,-15.84829],[-54.67504,-15.84644],[-54.67268,-15.8445],[-54.67166,-15.84336],[-54.67242,-15.8414],[-54.6696,-15.84139],[-54.66964,-15.83974],[-54.66744,-15.83859],[-54.66661,-15.83745],[-54.6668,-15.83534],[-54.66639,-15.8347],[-54.66668,-15.83296],[-54.66635,-15.83221],[-54.66765,-15.82986],[-54.6666,-15.82879],[-54.66685,-15.82786],[-54.66652,-15.82662],[-54.66515,-15.82689],[-54.66445,-15.82614],[-54.66291,-15.82623],[-54.6626,-15.82553],[-54.66123,-15.82442],[-54.66096,-15.82268],[-54.66127,-15.8216],[-54.66066,-15.82084],[-54.6592,-15.82101],[-54.65799,-15.81919],[-54.65677,-15.81854],[-54.65606,-15.81752],[-54.65499,-15.81661],[-54.65457,-15.81555],[-54.65522,-15.81396],[-54.65454,-15.81169],[-54.65626,-15.81109],[-54.65516,-15.80968],[-54.65328,-15.80844],[-54.65301,-15.80731],[-54.65201,-15.80728],[-54.65132,-15.80651],[-54.65007,-15.80669],[-54.64776,-15.80537],[-54.64701,-15.80471],[-54.64655,-15.8031],[-54.64452,-15.80228],[-54.64348,-15.80148],[-54.64326,-15.80045],[-54.63933,-15.80016],[-54.63791,-15.79931],[-54.63736,-15.79719],[-54.63645,-15.79708],[-54.63356,-15.79817],[-54.63286,-15.79806],[-54.63283,-15.79672],[-54.632,-15.79505],[-54.63061,-15.7911],[-54.62994,-15.79026],[-54.62684,-15.78791],[-54.62575,-15.78762],[-54.62378,-15.78777],[-54.62145,-15.78747],[-54.61818,-15.78653],[-54.61647,-15.7853],[-54.62421,-15.77561],[-54.62669,-15.77475],[-54.62742,-15.77429],[-54.6309,-15.76783],[-54.63192,-15.76648],[-54.63484,-15.76333],[-54.63949,-15.75951],[-54.64672,-15.75815],[-54.65978,-15.75579],[-54.66133,-15.75622],[-54.66505,-15.76103],[-54.66561,-15.76137],[-54.67556,-15.76129],[-54.68092,-15.7631],[-54.69617,-15.76861],[-54.69825,-15.76915],[-54.71327,-15.7709],[-54.73095,-15.7735],[-54.73659,-15.77167],[-54.73709,-15.77127],[-54.73717,-15.76845],[-54.73762,-15.7678],[-54.74758,-15.76309],[-54.75417,-15.75985],[-54.756,-15.75839],[-54.76297,-15.75743],[-54.76933,-15.75673],[-54.77762,-15.75433],[-54.78093,-15.75329],[-54.782,-15.75475],[-54.78903,-15.76562],[-54.79616,-15.7697],[-54.79717,-15.77557],[-54.80309,-15.78119],[-54.80718,-15.78497],[-54.80853,-15.78647],[-54.80899,-15.78751],[-54.80893,-15.78842],[-54.80578,-15.7903],[-54.80423,-15.79094],[-54.80111,-15.7915],[-54.8026,-15.79524],[-54.80455,-15.79702],[-54.80668,-15.79833],[-54.8094,-15.79885],[-54.81101,-15.80037],[-54.81091,-15.80785],[-54.8118,-15.80921],[-54.81305,-15.80961],[-54.81463,-15.80963],[-54.81699,-15.81048],[-54.82203,-15.80993],[-54.8231,-15.81061],[-54.82374,-15.8125],[-54.82552,-15.81474],[-54.8279,-15.8156],[-54.8274,-15.81896],[-54.82637,-15.82057],[-54.82653,-15.82229],[-54.82736,-15.82369],[-54.82716,-15.82471],[-54.8262,-15.82579],[-54.82597,-15.8271],[-54.8265,-15.82848],[-54.82785,-15.82984],[-54.83023,-15.83306],[-54.82994,-15.83577],[-54.82928,-15.83859],[-54.82978,-15.83921],[-54.82964,-15.84105],[-54.83025,-15.84327],[-54.83155,-15.84436],[-54.83364,-15.84675],[-54.83389,-15.84786],[-54.83299,-15.84797],[-54.83247,-15.84957],[-54.83258,-15.85055],[-54.83188,-15.85191],[-54.83223,-15.85272],[-54.83411,-15.8532],[-54.83577,-15.85438],[-54.83613,-15.85494],[-54.83616,-15.85726],[-54.8365,-15.8601],[-54.83763,-15.86218],[-54.83893,-15.86209],[-54.84029,-15.8627],[-54.84053,-15.86403],[-54.84152,-15.86444],[-54.84167,-15.86571],[-54.84282,-15.86572],[-54.84504,-15.86645],[-54.84695,-15.86586],[-54.84794,-15.86638],[-54.84824,-15.86754],[-54.84923,-15.8675],[-54.85011,-15.86872],[-54.85121,-15.86787],[-54.85256,-15.8675],[-54.85406,-15.86503],[-54.85528,-15.86539],[-54.85656,-15.86642],[-54.85845,-15.86603],[-54.85866,-15.86684],[-54.85685,-15.8683],[-54.85663,-15.86926],[-54.8576,-15.87217],[-54.8588,-15.87413],[-54.86004,-15.87484],[-54.8604,-15.87617],[-54.8625,-15.87644],[-54.86338,-15.87777],[-54.86458,-15.87885],[-54.86537,-15.87907],[-54.86636,-15.88004],[-54.868,-15.8796],[-54.86917,-15.87854],[-54.86944,-15.87732],[-54.87002,-15.87692],[-54.87193,-15.87739],[-54.87365,-15.87691],[-54.87549,-15.87699],[-54.87612,-15.8778],[-54.87688,-15.87793],[-54.8777,-15.87874],[-54.87769,-15.87997],[-54.87825,-15.88095],[-54.87901,-15.88078],[-54.8797,-15.88183],[-54.88129,-15.88209],[-54.88217,-15.88266],[-54.883,-15.88254],[-54.8842,-15.88329],[-54.88526,-15.88508],[-54.88647,-15.88516],[-54.88781,-15.88456],[-54.88883,-15.88493],[-54.89059,-15.88624],[-54.89199,-15.88619],[-54.89351,-15.88658],[-54.89492,-15.88628],[-54.89637,-15.88741],[-54.89738,-15.88754],[-54.89853,-15.88623],[-54.89968,-15.88609],[-54.9002,-15.88554],[-54.90102,-15.88597],[-54.90249,-15.88587],[-54.90368,-15.8868],[-54.90438,-15.88681],[-54.90501,-15.8878],[-54.90661,-15.88774],[-54.90762,-15.88805],[-54.90818,-15.88886],[-54.90964,-15.88906],[-54.91138,-15.88747],[-54.91209,-15.88625],[-54.91285,-15.88632],[-54.91303,-15.88737],[-54.91367,-15.88762],[-54.91546,-15.88647],[-54.91781,-15.88668],[-54.91941,-15.88596],[-54.91971,-15.88743],[-54.92199,-15.88825],[-54.92293,-15.88961],[-54.92323,-15.89158],[-54.9236,-15.89196],[-54.92435,-15.89411],[-54.92523,-15.89443],[-54.92664,-15.89371],[-54.92669,-15.89512],[-54.92623,-15.89622],[-54.92629,-15.8972],[-54.92692,-15.89758],[-54.92832,-15.89657],[-54.92895,-15.8976],[-54.93096,-15.90008],[-54.93077,-15.9005],[-54.93185,-15.90251],[-54.93255,-15.90256],[-54.93358,-15.9034],[-54.93295,-15.90452],[-54.93363,-15.90594],[-54.93503,-15.90688],[-54.93605,-15.90719],[-54.93565,-15.90928],[-54.93445,-15.91216],[-54.93653,-15.91209],[-54.93821,-15.91466],[-54.93937,-15.915],[-54.94036,-15.91652],[-54.94128,-15.91561],[-54.94264,-15.915],[-54.94485,-15.91447],[-54.94757,-15.91446]]]},"properties":{"codigo":"510360120","name":"Entre Rios","population":824,"households":505,"areaKm2":372.0745,"density":2.2}}]}