{"type":"FeatureCollection","features":[{"type":"Feature","geometry":{"type":"Polygon","coordinates":[[[-54.04482,-14.40685],[-54.04752,-14.41049],[-54.04812,-14.41144],[-54.04916,-14.41282],[-54.04948,-14.41308],[-54.05076,-14.41232],[-54.05531,-14.41451],[-54.05558,-14.41477],[-54.05613,-14.41666],[-54.05304,-14.41802],[-54.05271,-14.41845],[-54.0505,-14.42204],[-54.05008,-14.42273],[-54.04832,-14.42164],[-54.04765,-14.42111],[-54.04584,-14.4175],[-54.04539,-14.41484],[-54.04522,-14.41412],[-54.04427,-14.41164],[-54.04387,-14.40952],[-54.04381,-14.40835],[-54.04393,-14.40801],[-54.04482,-14.40685]]]},"properties":{"codigo":"5106307002","name":"Vista alegre","population":879,"households":329,"areaKm2":1.0095,"density":870.7}},{"type":"Feature","geometry":{"type":"Polygon","coordinates":[[[-54.05738,-14.43366],[-54.05774,-14.43426],[-54.05927,-14.43493],[-54.06021,-14.4362],[-54.05986,-14.43743],[-54.05938,-14.4387],[-54.05917,-14.4387],[-54.05886,-14.44028],[-54.05928,-14.44053],[-54.05916,-14.44139],[-54.06045,-14.44243],[-54.05958,-14.44348],[-54.06002,-14.44352],[-54.06144,-14.44402],[-54.06131,-14.44435],[-54.05949,-14.44403],[-54.05927,-14.4445],[-54.05932,-14.44558],[-54.06036,-14.44576],[-54.0604,-14.44611],[-54.06164,-14.44642],[-54.06047,-14.44875],[-54.06312,-14.45285],[-54.06231,-14.45331],[-54.0632,-14.45565],[-54.06435,-14.4584],[-54.06469,-14.45893],[-54.06675,-14.46162],[-54.06618,-14.46205],[-54.06515,-14.46213],[-54.06351,-14.46262],[-54.06297,-14.46255],[-54.06235,-14.4617],[-54.06165,-14.46112],[-54.06089,-14.46078],[-54.05939,-14.46087],[-54.05814,-14.46156],[-54.0567,-14.46266],[-54.05541,-14.46242],[-54.05499,-14.46192],[-54.05517,-14.46145],[-54.05434,-14.46046],[-54.0542,-14.45967],[-54.05346,-14.45903],[-54.05293,-14.45879],[-54.05275,-14.45831],[-54.05322,-14.45786],[-54.05295,-14.45734],[-54.05282,-14.45648],[-54.05219,-14.45595],[-54.05141,-14.45475],[-54.05187,-14.45424],[-54.05281,-14.4545],[-54.05371,-14.45357],[-54.05453,-14.45399],[-54.05475,-14.45376],[-54.05466,-14.45276],[-54.0554,-14.45238],[-54.05543,-14.45172],[-54.05601,-14.45056],[-54.05517,-14.45067],[-54.05459,-14.45022],[-54.05438,-14.44969],[-54.05394,-14.44974],[-54.05435,-14.44841],[-54.05411,-14.44788],[-54.05368,-14.4483],[-54.0525,-14.44748],[-54.05264,-14.44686],[-54.05155,-14.44702],[-54.05132,-14.44588],[-54.04951,-14.44633],[-54.04943,-14.44574],[-54.04999,-14.44583],[-54.0502,-14.44505],[-54.05001,-14.44449],[-54.05051,-14.44337],[-54.05002,-14.44296],[-54.05028,-14.44116],[-54.04995,-14.44073],[-54.04997,-14.44019],[-54.05023,-14.43961],[-54.05052,-14.43814],[-54.05011,-14.43644],[-54.05027,-14.43623],[-54.05144,-14.4363],[-54.05215,-14.43692],[-54.05248,-14.43741],[-54.05299,-14.43899],[-54.05345,-14.43938],[-54.05431,-14.43938],[-54.05472,-14.43865],[-54.05513,-14.4368],[-54.05523,-14.43628],[-54.05421,-14.43413],[-54.05455,-14.4338],[-54.0556,-14.43457],[-54.05612,-14.43471],[-54.05738,-14.43366]]]},"properties":{"codigo":"5106307007","name":"Vila Concórdia","population":4546,"households":1700,"areaKm2":2.8766,"density":1580.4}},{"type":"Feature","geometry":{"type":"Polygon","coordinates":[[[-54.0505,-14.42204],[-54.05444,-14.42455],[-54.05521,-14.42496],[-54.05535,-14.42526],[-54.05544,-14.4267],[-54.05533,-14.42747],[-54.05602,-14.42868],[-54.05561,-14.42951],[-54.05589,-14.43023],[-54.05565,-14.43155],[-54.05675,-14.4318],[-54.05693,-14.43143],[-54.05788,-14.43163],[-54.05871,-14.43093],[-54.05908,-14.43101],[-54.05738,-14.43366],[-54.05612,-14.43471],[-54.0556,-14.43457],[-54.05455,-14.4338],[-54.05421,-14.43413],[-54.05523,-14.43628],[-54.05513,-14.4368],[-54.05141,-14.43531],[-54.05018,-14.43495],[-54.04981,-14.43498],[-54.0476,-14.43393],[-54.04678,-14.43374],[-54.04664,-14.4327],[-54.04691,-14.43113],[-54.04671,-14.43072],[-54.04548,-14.43023],[-54.04613,-14.42958],[-54.04649,-14.42882],[-54.04622,-14.4285],[-54.05008,-14.42273],[-54.0505,-14.42204]]]},"properties":{"codigo":"5106307006","name":"Centro","population":2443,"households":1116,"areaKm2":1.2471,"density":1958.9}},{"type":"Feature","geometry":{"type":"Polygon","coordinates":[[[-54.04997,-14.44019],[-54.04947,-14.44052],[-54.04883,-14.44045],[-54.04864,-14.44009],[-54.04865,-14.43933],[-54.04769,-14.43888],[-54.04713,-14.44038],[-54.0467,-14.44098],[-54.04475,-14.44123],[-54.04425,-14.44116],[-54.04394,-14.44078],[-54.04393,-14.43939],[-54.04381,-14.43869],[-54.04352,-14.43839],[-54.04349,-14.43643],[-54.0437,-14.43575],[-54.04529,-14.43343],[-54.04587,-14.43348],[-54.04656,-14.43396],[-54.04678,-14.43374],[-54.0476,-14.43393],[-54.04981,-14.43498],[-54.05018,-14.43495],[-54.05141,-14.43531],[-54.05513,-14.4368],[-54.05472,-14.43865],[-54.05431,-14.43938],[-54.05345,-14.43938],[-54.05299,-14.43899],[-54.05248,-14.43741],[-54.05215,-14.43692],[-54.05144,-14.4363],[-54.05027,-14.43623],[-54.05011,-14.43644],[-54.05052,-14.43814],[-54.05023,-14.43961],[-54.04997,-14.44019]]]},"properties":{"codigo":"5106307008","name":"União","population":575,"households":247,"areaKm2":0.6009,"density":956.9}},{"type":"Feature","geometry":{"type":"Polygon","coordinates":[[[-54.04482,-14.40685],[-54.04645,-14.40466],[-54.047,-14.40339],[-54.04705,-14.40227],[-54.0465,-14.39814],[-54.04809,-14.39824],[-54.05007,-14.39889],[-54.05127,-14.40055],[-54.05299,-14.40136],[-54.05372,-14.40116],[-54.05467,-14.40183],[-54.05518,-14.40179],[-54.0555,-14.4022],[-54.05678,-14.40302],[-54.05713,-14.40339],[-54.057,-14.40405],[-54.05645,-14.40463],[-54.05626,-14.40606],[-54.05644,-14.40657],[-54.05763,-14.40684],[-54.0579,-14.40724],[-54.05807,-14.40813],[-54.05855,-14.40819],[-54.05824,-14.41271],[-54.06104,-14.41296],[-54.05973,-14.4152],[-54.05848,-14.41719],[-54.05878,-14.41729],[-54.06186,-14.42077],[-54.06249,-14.42157],[-54.06185,-14.42246],[-54.06164,-14.42206],[-54.05864,-14.41856],[-54.05793,-14.4195],[-54.05613,-14.41666],[-54.05558,-14.41477],[-54.05531,-14.41451],[-54.05076,-14.41232],[-54.04948,-14.41308],[-54.04916,-14.41282],[-54.04812,-14.41144],[-54.04752,-14.41049],[-54.04482,-14.40685]]]},"properties":{"codigo":"5106307001","name":"Teles Pires","population":1734,"households":597,"areaKm2":1.9481,"density":890.1}},{"type":"Feature","geometry":{"type":"Polygon","coordinates":[[[-54.05346,-14.45903],[-54.05271,-14.45909],[-54.05309,-14.45998],[-54.05352,-14.4602],[-54.05356,-14.46114],[-54.05312,-14.46145],[-54.05336,-14.46271],[-54.05274,-14.46311],[-54.0521,-14.46381],[-54.0508,-14.46374],[-54.04601,-14.46333],[-54.04578,-14.46306],[-54.04564,-14.46095],[-54.04548,-14.46078],[-54.04093,-14.46107],[-54.04127,-14.46021],[-54.04195,-14.4591],[-54.04285,-14.45809],[-54.04303,-14.45748],[-54.04272,-14.45639],[-54.04223,-14.45627],[-54.04033,-14.45531],[-54.04061,-14.45443],[-54.04063,-14.45366],[-54.04043,-14.45324],[-54.03988,-14.45139],[-54.03917,-14.4487],[-54.04163,-14.44895],[-54.04278,-14.44649],[-54.04427,-14.44373],[-54.04477,-14.44262],[-54.04475,-14.44123],[-54.0467,-14.44098],[-54.04713,-14.44038],[-54.04769,-14.43888],[-54.04865,-14.43933],[-54.04864,-14.44009],[-54.04883,-14.44045],[-54.04947,-14.44052],[-54.04997,-14.44019],[-54.04995,-14.44073],[-54.05028,-14.44116],[-54.05002,-14.44296],[-54.05051,-14.44337],[-54.05001,-14.44449],[-54.0502,-14.44505],[-54.04999,-14.44583],[-54.04943,-14.44574],[-54.04951,-14.44633],[-54.05132,-14.44588],[-54.05155,-14.44702],[-54.05264,-14.44686],[-54.0525,-14.44748],[-54.05368,-14.4483],[-54.05411,-14.44788],[-54.05435,-14.44841],[-54.05394,-14.44974],[-54.05438,-14.44969],[-54.05459,-14.45022],[-54.05517,-14.45067],[-54.05601,-14.45056],[-54.05543,-14.45172],[-54.0554,-14.45238],[-54.05466,-14.45276],[-54.05475,-14.45376],[-54.05453,-14.45399],[-54.05371,-14.45357],[-54.05281,-14.4545],[-54.05187,-14.45424],[-54.05141,-14.45475],[-54.05219,-14.45595],[-54.05282,-14.45648],[-54.05295,-14.45734],[-54.05322,-14.45786],[-54.05275,-14.45831],[-54.05293,-14.45879],[-54.05346,-14.45903]]]},"properties":{"codigo":"5106307009","name":"Rui Barbosa","population":2355,"households":872,"areaKm2":2.8152,"density":836.5}},{"type":"Feature","geometry":{"type":"Polygon","coordinates":[[[-54.05008,-14.42273],[-54.04622,-14.4285],[-54.04649,-14.42882],[-54.04613,-14.42958],[-54.04548,-14.43023],[-54.04476,-14.4303],[-54.04376,-14.43091],[-54.04284,-14.43349],[-54.04244,-14.43384],[-54.04148,-14.4335],[-54.04056,-14.43272],[-54.03992,-14.4329],[-54.03954,-14.4339],[-54.03884,-14.43402],[-54.03513,-14.43255],[-54.03539,-14.43067],[-54.03632,-14.42856],[-54.03869,-14.42377],[-54.04015,-14.4219],[-54.04169,-14.41929],[-54.04251,-14.41812],[-54.04539,-14.41484],[-54.04584,-14.4175],[-54.04765,-14.42111],[-54.04832,-14.42164],[-54.05008,-14.42273]]]},"properties":{"codigo":"5106307005","name":"Novo Horizonte","population":2177,"households":831,"areaKm2":1.6595,"density":1311.8}},{"type":"Feature","geometry":{"type":"Polygon","coordinates":[[[-54.05613,-14.41666],[-54.05793,-14.4195],[-54.0568,-14.42099],[-54.05444,-14.42455],[-54.0505,-14.42204],[-54.05271,-14.41845],[-54.05304,-14.41802],[-54.05613,-14.41666]]]},"properties":{"codigo":"5106307003","name":"Panorama","population":922,"households":343,"areaKm2":0.3778,"density":2440.5}},{"type":"Feature","geometry":{"type":"Polygon","coordinates":[[[-54.05444,-14.42455],[-54.0568,-14.42099],[-54.05793,-14.4195],[-54.05864,-14.41856],[-54.06164,-14.42206],[-54.06185,-14.42246],[-54.0667,-14.42813],[-54.06557,-14.42816],[-54.06521,-14.43037],[-54.06471,-14.43171],[-54.0634,-14.43124],[-54.06301,-14.43049],[-54.06255,-14.43076],[-54.0621,-14.43207],[-54.06118,-14.43232],[-54.05998,-14.43119],[-54.05908,-14.43101],[-54.05871,-14.43093],[-54.05788,-14.43163],[-54.05693,-14.43143],[-54.05675,-14.4318],[-54.05565,-14.43155],[-54.05589,-14.43023],[-54.05561,-14.42951],[-54.05602,-14.42868],[-54.05533,-14.42747],[-54.05544,-14.4267],[-54.05535,-14.42526],[-54.05521,-14.42496],[-54.05444,-14.42455]]]},"properties":{"codigo":"5106307004","name":"Vila Nova","population":3005,"households":1132,"areaKm2":1.1325,"density":2653.5}}]}