{"type":"FeatureCollection","features":[{"type":"Feature","geometry":{"type":"Polygon","coordinates":[[[-55.73689,-12.53609],[-55.7354,-12.5339],[-55.74181,-12.52992],[-55.74326,-12.53217],[-55.73794,-12.53549],[-55.73689,-12.53609]]]},"properties":{"codigo":"5107925019","name":"Residencial Alphaville","population":869,"households":361,"areaKm2":0.2433,"density":3572.4}},{"type":"Feature","geometry":{"type":"Polygon","coordinates":[[[-55.73142,-12.55013],[-55.73326,-12.55292],[-55.73573,-12.55675],[-55.73429,-12.55764],[-55.73388,-12.55789],[-55.72961,-12.55128],[-55.73142,-12.55013]]]},"properties":{"codigo":"5107925004","name":"Morada do Sol","population":1116,"households":418,"areaKm2":0.2048,"density":5449.8}},{"type":"Feature","geometry":{"type":"Polygon","coordinates":[[[-55.70738,-12.54029],[-55.7109,-12.53813],[-55.71251,-12.54063],[-55.70869,-12.54302],[-55.7083,-12.54235],[-55.70738,-12.54029]]]},"properties":{"codigo":"5107925005","name":"Benjamim Raiser","population":743,"households":286,"areaKm2":0.1556,"density":4776.1}},{"type":"Feature","geometry":{"type":"Polygon","coordinates":[[[-55.70257,-12.54988],[-55.70373,-12.55165],[-55.70307,-12.55206],[-55.70519,-12.55536],[-55.70764,-12.55908],[-55.70596,-12.56012],[-55.70491,-12.55851],[-55.70409,-12.55702],[-55.70057,-12.55113],[-55.70257,-12.54988]]]},"properties":{"codigo":"5107925010","name":"São Domingos","population":2830,"households":1018,"areaKm2":0.2454,"density":11530.2}},{"type":"Feature","geometry":{"type":"Polygon","coordinates":[[[-55.73283,-12.56269],[-55.73141,-12.56374],[-55.72825,-12.56569],[-55.72452,-12.56806],[-55.72405,-12.56737],[-55.72357,-12.56635],[-55.72238,-12.56475],[-55.72264,-12.56467],[-55.72531,-12.56303],[-55.72988,-12.56017],[-55.73007,-12.56031],[-55.731,-12.55982],[-55.73283,-12.56269]]]},"properties":{"codigo":"5107925026","name":"Jardim Tropical","population":1863,"households":682,"areaKm2":0.4495,"density":4144.8}},{"type":"Feature","geometry":{"type":"Polygon","coordinates":[[[-55.75213,-12.53452],[-55.75333,-12.53648],[-55.75478,-12.53854],[-55.75492,-12.5381],[-55.75545,-12.53797],[-55.75585,-12.53758],[-55.758,-12.54098],[-55.75835,-12.54143],[-55.75377,-12.54434],[-55.75135,-12.54063],[-55.75003,-12.53851],[-55.74877,-12.53661],[-55.75213,-12.53452]]]},"properties":{"codigo":"5107925027","name":"Jardim Taiamã","population":1760,"households":669,"areaKm2":0.5158,"density":3411.9}},{"type":"Feature","geometry":{"type":"Polygon","coordinates":[[[-55.75017,-12.54771],[-55.75126,-12.54703],[-55.75531,-12.55334],[-55.75427,-12.55389],[-55.75262,-12.55152],[-55.75017,-12.54771]]]},"properties":{"codigo":"5107925021","name":"São José II","population":1059,"households":354,"areaKm2":0.114,"density":9287.2}},{"type":"Feature","geometry":{"type":"Polygon","coordinates":[[[-55.73388,-12.55789],[-55.73102,-12.55969],[-55.7302,-12.55842],[-55.729,-12.55658],[-55.72811,-12.55519],[-55.72674,-12.55307],[-55.72961,-12.55128],[-55.73388,-12.55789]]]},"properties":{"codigo":"5107925014","name":"Jardim Itália","population":1356,"households":489,"areaKm2":0.321,"density":4223.9}},{"type":"Feature","geometry":{"type":"Polygon","coordinates":[[[-55.70057,-12.55113],[-55.69919,-12.54885],[-55.70114,-12.54767],[-55.70192,-12.54886],[-55.70339,-12.54795],[-55.70355,-12.54822],[-55.70209,-12.54914],[-55.70257,-12.54988],[-55.70057,-12.55113]]]},"properties":{"codigo":"5107925023","name":"Boa Esperança","population":869,"households":302,"areaKm2":0.0811,"density":10717.7}},{"type":"Feature","geometry":{"type":"Polygon","coordinates":[[[-55.74326,-12.53217],[-55.74524,-12.53095],[-55.74711,-12.53395],[-55.74409,-12.53583],[-55.73881,-12.53912],[-55.73689,-12.53609],[-55.73794,-12.53549],[-55.74326,-12.53217]]]},"properties":{"codigo":"5107925022","name":"Residencial Village","population":1479,"households":534,"areaKm2":0.4174,"density":3543.2}},{"type":"Feature","geometry":{"type":"Polygon","coordinates":[[[-55.73142,-12.55013],[-55.73373,-12.54869],[-55.73593,-12.55216],[-55.73799,-12.55533],[-55.73573,-12.55675],[-55.73326,-12.55292],[-55.73142,-12.55013]]]},"properties":{"codigo":"5107925016","name":"Jardim Europa","population":1348,"households":505,"areaKm2":0.2546,"density":5295.2}},{"type":"Feature","geometry":{"type":"Polygon","coordinates":[[[-55.74409,-12.53583],[-55.7455,-12.53801],[-55.74021,-12.54131],[-55.73881,-12.53912],[-55.74409,-12.53583]]]},"properties":{"codigo":"5107925006","name":"Jardim Bela Vista","population":1686,"households":613,"areaKm2":0.1944,"density":8672.5}},{"type":"Feature","geometry":{"type":"Polygon","coordinates":[[[-55.73373,-12.54869],[-55.74146,-12.54388],[-55.74286,-12.54601],[-55.74579,-12.55057],[-55.7452,-12.55082],[-55.74221,-12.55267],[-55.73799,-12.55533],[-55.73593,-12.55216],[-55.73373,-12.54869]]]},"properties":{"codigo":"5107925009","name":"Jardim Aurora","population":2067,"households":763,"areaKm2":0.8649,"density":2389.7}},{"type":"Feature","geometry":{"type":"Polygon","coordinates":[[[-55.74711,-12.53395],[-55.74847,-12.53616],[-55.74715,-12.53698],[-55.7455,-12.53801],[-55.74409,-12.53583],[-55.74711,-12.53395]]]},"properties":{"codigo":"5107925024","name":"Vitória Régia","population":647,"households":227,"areaKm2":0.1095,"density":5908.6}},{"type":"Feature","geometry":{"type":"Polygon","coordinates":[[[-55.73429,-12.55764],[-55.73879,-12.56454],[-55.73926,-12.56522],[-55.73869,-12.56528],[-55.7374,-12.56631],[-55.73613,-12.56567],[-55.73537,-12.56566],[-55.73463,-12.56547],[-55.73283,-12.56269],[-55.731,-12.55982],[-55.73102,-12.55969],[-55.73388,-12.55789],[-55.73429,-12.55764]]]},"properties":{"codigo":"5107925008","name":"Jardim Amazônia","population":2421,"households":852,"areaKm2":0.4031,"density":6006.2}},{"type":"Feature","geometry":{"type":"Polygon","coordinates":[[[-55.70764,-12.55908],[-55.71212,-12.56609],[-55.71251,-12.56658],[-55.71484,-12.57018],[-55.71306,-12.57127],[-55.71295,-12.57149],[-55.71157,-12.56915],[-55.70929,-12.5655],[-55.7068,-12.56138],[-55.70596,-12.56012],[-55.70764,-12.55908]]]},"properties":{"codigo":"5107925007","name":"Residencial Vila Bela","population":3069,"households":1071,"areaKm2":0.3314,"density":9260.8}},{"type":"Feature","geometry":{"type":"Polygon","coordinates":[[[-55.72961,-12.55128],[-55.72664,-12.54671],[-55.73078,-12.54414],[-55.73442,-12.5418],[-55.73881,-12.53912],[-55.74021,-12.54131],[-55.74177,-12.54368],[-55.74146,-12.54388],[-55.73373,-12.54869],[-55.73142,-12.55013],[-55.72961,-12.55128]]]},"properties":{"codigo":"5107925001","name":"Bela Vista","population":4403,"households":1720,"areaKm2":0.9376,"density":4696.2}},{"type":"Feature","geometry":{"type":"Polygon","coordinates":[[[-55.729,-12.55658],[-55.72795,-12.5573],[-55.72499,-12.55914],[-55.72046,-12.56192],[-55.71918,-12.55993],[-55.72139,-12.55857],[-55.72155,-12.55882],[-55.72492,-12.5567],[-55.72514,-12.55705],[-55.72811,-12.55519],[-55.729,-12.55658]]]},"properties":{"codigo":"5107925017","name":"Jardim das Américas","population":1030,"households":378,"areaKm2":0.2448,"density":4207.1}},{"type":"Feature","geometry":{"type":"Polygon","coordinates":[[[-55.69919,-12.54885],[-55.69874,-12.54806],[-55.7007,-12.54696],[-55.70114,-12.54767],[-55.69919,-12.54885]]]},"properties":{"codigo":"5107925011","name":"Fraternidade","population":307,"households":109,"areaKm2":0.0235,"density":13036.4}},{"type":"Feature","geometry":{"type":"Polygon","coordinates":[[[-55.72674,-12.55307],[-55.7243,-12.55459],[-55.72135,-12.55004],[-55.72664,-12.54671],[-55.72961,-12.55128],[-55.72674,-12.55307]]]},"properties":{"codigo":"5107925002","name":"Jardim Alvorada","population":1264,"households":514,"areaKm2":0.4075,"density":3102}},{"type":"Feature","geometry":{"type":"Polygon","coordinates":[[[-55.7455,-12.53801],[-55.74715,-12.53698],[-55.74869,-12.53937],[-55.74177,-12.54368],[-55.74021,-12.54131],[-55.7455,-12.53801]]]},"properties":{"codigo":"5107925012","name":"Jardim Primavera","population":2728,"households":994,"areaKm2":0.2787,"density":9787.8}},{"type":"Feature","geometry":{"type":"Polygon","coordinates":[[[-55.75262,-12.55152],[-55.75199,-12.55185],[-55.75292,-12.55332],[-55.75154,-12.55418],[-55.74913,-12.55033],[-55.74821,-12.54897],[-55.75017,-12.54771],[-55.75262,-12.55152]]]},"properties":{"codigo":"5107925015","name":"São José I","population":1644,"households":524,"areaKm2":0.1587,"density":10359.9}},{"type":"Feature","geometry":{"type":"Polygon","coordinates":[[[-55.71295,-12.57149],[-55.71433,-12.5739],[-55.71581,-12.57303],[-55.7171,-12.57513],[-55.718,-12.57466],[-55.71925,-12.5767],[-55.71702,-12.57802],[-55.71684,-12.57801],[-55.71384,-12.5797],[-55.71231,-12.58064],[-55.70986,-12.57651],[-55.70837,-12.57424],[-55.71295,-12.57149]]]},"properties":{"codigo":"5107925013","name":"Nova Prata","population":91,"households":40,"areaKm2":0.6025,"density":151}},{"type":"Feature","geometry":{"type":"Polygon","coordinates":[[[-55.74877,-12.53661],[-55.74847,-12.53616],[-55.74711,-12.53395],[-55.74524,-12.53095],[-55.74391,-12.52889],[-55.74745,-12.52665],[-55.75213,-12.53452],[-55.74877,-12.53661]]]},"properties":{"codigo":"5107925025","name":"Parque Universitário","population":722,"households":263,"areaKm2":0.4456,"density":1620.1}},{"type":"Feature","geometry":{"type":"Polygon","coordinates":[[[-55.7176,-12.53748],[-55.71411,-12.53202],[-55.71294,-12.53005],[-55.71342,-12.52915],[-55.71426,-12.52858],[-55.71475,-12.52861],[-55.71656,-12.53131],[-55.71709,-12.53223],[-55.71801,-12.53169],[-55.72326,-12.52842],[-55.72398,-12.52964],[-55.72501,-12.53287],[-55.71981,-12.53612],[-55.7176,-12.53748]]]},"properties":{"codigo":"5107925020","name":"Recanto dos Pássaros","population":1274,"households":468,"areaKm2":0.6555,"density":1943.4}},{"type":"Feature","geometry":{"type":"Polygon","coordinates":[[[-55.72238,-12.56475],[-55.72177,-12.56364],[-55.72283,-12.56302],[-55.72865,-12.55937],[-55.7302,-12.55842],[-55.73102,-12.55969],[-55.731,-12.55982],[-55.73007,-12.56031],[-55.72988,-12.56017],[-55.72531,-12.56303],[-55.72264,-12.56467],[-55.72238,-12.56475]]]},"properties":{"codigo":"5107925018","name":"Jardim Califónia","population":769,"households":291,"areaKm2":0.1617,"density":4756.5}},{"type":"Feature","geometry":{"type":"Polygon","coordinates":[[[-55.71981,-12.53612],[-55.72279,-12.54075],[-55.71752,-12.54405],[-55.71446,-12.53943],[-55.7176,-12.53748],[-55.71981,-12.53612]]]},"properties":{"codigo":"5107925003","name":"Bom Jesus","population":2033,"households":788,"areaKm2":0.4151,"density":4897.8}}]}