{"type":"FeatureCollection","features":[{"type":"Feature","geometry":{"type":"Polygon","coordinates":[[[-54.7269,-17.04082],[-54.72713,-17.03988],[-54.72799,-17.03943],[-54.7288,-17.03834],[-54.73406,-17.03807],[-54.73524,-17.03666],[-54.7373,-17.037],[-54.73784,-17.03568],[-54.73858,-17.03541],[-54.73928,-17.03431],[-54.73857,-17.03292],[-54.74109,-17.0333],[-54.74245,-17.03262],[-54.7431,-17.03067],[-54.74462,-17.03029],[-54.74668,-17.03105],[-54.74727,-17.03052],[-54.74711,-17.02969],[-54.74834,-17.0279],[-54.74908,-17.02632],[-54.75108,-17.02388],[-54.75259,-17.02306],[-54.75369,-17.02296],[-54.75459,-17.02212],[-54.7576,-17.01988],[-54.75884,-17.02051],[-54.75951,-17.01892],[-54.76251,-17.01981],[-54.76337,-17.01943],[-54.76469,-17.01978],[-54.7665,-17.01958],[-54.76609,-17.02061],[-54.76794,-17.02191],[-54.76967,-17.02216],[-54.77171,-17.021],[-54.77299,-17.022],[-54.7739,-17.02165],[-54.77564,-17.02221],[-54.777,-17.02042],[-54.77946,-17.02095],[-54.78079,-17.02044],[-54.78218,-17.02066],[-54.78257,-17.02015],[-54.78388,-17.0205],[-54.78409,-17.01946],[-54.78523,-17.01895],[-54.78597,-17.01965],[-54.78704,-17.0189],[-54.78867,-17.01967],[-54.78936,-17.01848],[-54.78967,-17.01694],[-54.79195,-17.01609],[-54.7923,-17.01481],[-54.79309,-17.01494],[-54.79376,-17.01578],[-54.79511,-17.01465],[-54.79708,-17.01478],[-54.79869,-17.01532],[-54.79945,-17.01428],[-54.80046,-17.01488],[-54.80129,-17.01466],[-54.80198,-17.01529],[-54.80254,-17.01429],[-54.80455,-17.01442],[-54.80451,-17.0135],[-54.80595,-17.01394],[-54.8072,-17.01517],[-54.80598,-17.01554],[-54.80581,-17.01607],[-54.80786,-17.01592],[-54.80879,-17.01472],[-54.81045,-17.0149],[-54.81143,-17.01363],[-54.81163,-17.01273],[-54.81298,-17.01309],[-54.81345,-17.0141],[-54.81538,-17.01245],[-54.8146,-17.01159],[-54.81491,-17.00936],[-54.81627,-17.0084],[-54.81697,-17.00678],[-54.81788,-17.00609],[-54.81744,-17.00394],[-54.81839,-17.00386],[-54.81877,-17.00268],[-54.81816,-17.00177],[-54.81973,-17.00122],[-54.82063,-17.00147],[-54.82141,-16.99973],[-54.82152,-16.99804],[-54.82225,-16.99731],[-54.82146,-16.99614],[-54.82245,-16.99457],[-54.82228,-16.99288],[-54.82293,-16.99287],[-54.82255,-16.99126],[-54.82377,-16.99151],[-54.82529,-16.99081],[-54.82555,-16.98984],[-54.82502,-16.98677],[-54.82464,-16.98575],[-54.8263,-16.98442],[-54.82581,-16.98336],[-54.82705,-16.98326],[-54.82682,-16.98215],[-54.82873,-16.98267],[-54.82828,-16.98164],[-54.82732,-16.98109],[-54.82808,-16.9804],[-54.82742,-16.97922],[-54.82778,-16.97843],[-54.82625,-16.97736],[-54.82723,-16.97595],[-54.82729,-16.9748],[-54.82613,-16.97376],[-54.82617,-16.97257],[-54.82702,-16.972],[-54.8254,-16.97114],[-54.82602,-16.97006],[-54.82673,-16.97031],[-54.82812,-16.96933],[-54.82757,-16.96758],[-54.82773,-16.96683],[-54.82898,-16.96666],[-54.82983,-16.96588],[-54.83075,-16.96371],[-54.83328,-16.96324],[-54.83319,-16.9638],[-54.83468,-16.96451],[-54.83593,-16.96287],[-54.83498,-16.96263],[-54.83379,-16.96151],[-54.834,-16.95928],[-54.83543,-16.95794],[-54.83447,-16.95623],[-54.83506,-16.95599],[-54.83375,-16.95345],[-54.83383,-16.95177],[-54.83518,-16.9491],[-54.83706,-16.94701],[-54.83778,-16.94572],[-54.83908,-16.94605],[-54.8406,-16.94593],[-54.84191,-16.94498],[-54.84131,-16.94314],[-54.84055,-16.94202],[-54.8396,-16.94171],[-54.83977,-16.94068],[-54.83936,-16.93637],[-54.83973,-16.93428],[-54.83837,-16.93324],[-54.838,-16.92924],[-54.83703,-16.9264],[-54.83596,-16.92416],[-54.83494,-16.9215],[-54.83404,-16.92086],[-54.83342,-16.91931],[-54.83346,-16.91792],[-54.83583,-16.91429],[-54.83556,-16.91291],[-54.83642,-16.90995],[-54.83642,-16.90708],[-54.83671,-16.90378],[-54.83619,-16.90136],[-54.83683,-16.89932],[-54.83837,-16.89837],[-54.83935,-16.89472],[-54.8387,-16.89287],[-54.83775,-16.89183],[-54.83701,-16.89164],[-54.83527,-16.88983],[-54.83363,-16.88411],[-54.83191,-16.88231],[-54.83083,-16.8817],[-54.82827,-16.88109],[-54.82761,-16.88023],[-54.82771,-16.87916],[-54.82697,-16.87786],[-54.82754,-16.87707],[-54.82766,-16.87587],[-54.82575,-16.87424],[-54.82527,-16.87305],[-54.82402,-16.87106],[-54.82372,-16.8697],[-54.82178,-16.8677],[-54.81956,-16.8679],[-54.81824,-16.86769],[-54.81645,-16.86635],[-54.8168,-16.86493],[-54.81489,-16.86269],[-54.81396,-16.86057],[-54.8143,-16.85857],[-54.81488,-16.85811],[-54.81495,-16.85611],[-54.81384,-16.85498],[-54.81213,-16.85266],[-54.81113,-16.85275],[-54.81045,-16.85162],[-54.80889,-16.85117],[-54.80856,-16.84945],[-54.80732,-16.84753],[-54.80443,-16.84639],[-54.80364,-16.84584],[-54.80234,-16.84434],[-54.79935,-16.84253],[-54.79835,-16.84121],[-54.7974,-16.84069],[-54.79547,-16.84133],[-54.79349,-16.84067],[-54.79251,-16.83928],[-54.79086,-16.83872],[-54.7896,-16.83753],[-54.78777,-16.83699],[-54.78749,-16.83558],[-54.78561,-16.83403],[-54.78436,-16.83178],[-54.7828,-16.83075],[-54.78189,-16.83076],[-54.78127,-16.83002],[-54.78052,-16.83029],[-54.7797,-16.83131],[-54.77672,-16.83251],[-54.77717,-16.83333],[-54.77597,-16.83382],[-54.77504,-16.83375],[-54.77376,-16.83461],[-54.77299,-16.83464],[-54.77028,-16.8381],[-54.76785,-16.83751],[-54.76496,-16.83822],[-54.76502,-16.83705],[-54.76457,-16.83661],[-54.76325,-16.83662],[-54.76264,-16.83596],[-54.76162,-16.83628],[-54.76122,-16.83415],[-54.75914,-16.83355],[-54.75724,-16.83401],[-54.75669,-16.83314],[-54.75548,-16.83328],[-54.75415,-16.83302],[-54.75328,-16.83184],[-54.7535,-16.83034],[-54.75315,-16.82929],[-54.75406,-16.82906],[-54.75549,-16.82743],[-54.75787,-16.82638],[-54.75751,-16.82571],[-54.75774,-16.82449],[-54.75722,-16.82387],[-54.75592,-16.82341],[-54.75541,-16.82241],[-54.75423,-16.82102],[-54.75362,-16.82073],[-54.75244,-16.81937],[-54.75176,-16.8195],[-54.74994,-16.8183],[-54.74761,-16.81749],[-54.74684,-16.81623],[-54.74573,-16.81558],[-54.74402,-16.81533],[-54.74275,-16.81567],[-54.74089,-16.81525],[-54.73829,-16.81407],[-54.73945,-16.81326],[-54.73876,-16.81278],[-54.7372,-16.81309],[-54.73688,-16.81153],[-54.73578,-16.80944],[-54.7332,-16.80732],[-54.7334,-16.8067],[-54.73222,-16.80567],[-54.73239,-16.80524],[-54.73109,-16.80255],[-54.73077,-16.80106],[-54.72924,-16.80095],[-54.72959,-16.79748],[-54.73065,-16.79655],[-54.72912,-16.79523],[-54.72797,-16.79174],[-54.72855,-16.79156],[-54.72858,-16.7903],[-54.72816,-16.78818],[-54.72767,-16.78756],[-54.72803,-16.78492],[-54.72723,-16.78391],[-54.72756,-16.7827],[-54.72709,-16.78215],[-54.72707,-16.78024],[-54.72642,-16.77995],[-54.72624,-16.77685],[-54.72541,-16.77606],[-54.72475,-16.77639],[-54.72428,-16.77516],[-54.7231,-16.77394],[-54.72243,-16.77184],[-54.72294,-16.77057],[-54.72211,-16.77042],[-54.72104,-16.7677],[-54.72074,-16.76534],[-54.71991,-16.76557],[-54.71981,-16.76431],[-54.71874,-16.76405],[-54.71839,-16.76344],[-54.71826,-16.76168],[-54.71956,-16.76123],[-54.7199,-16.75968],[-54.7193,-16.7592],[-54.71969,-16.75833],[-54.71962,-16.75713],[-54.72112,-16.75616],[-54.72155,-16.7553],[-54.72081,-16.75457],[-54.72139,-16.75213],[-54.72198,-16.75146],[-54.723,-16.74932],[-54.72207,-16.74827],[-54.7227,-16.7476],[-54.7239,-16.74752],[-54.72427,-16.74668],[-54.72325,-16.74626],[-54.72465,-16.74501],[-54.72641,-16.74544],[-54.72841,-16.7447],[-54.72853,-16.74411],[-54.72756,-16.7427],[-54.72908,-16.74223],[-54.72936,-16.74106],[-54.72881,-16.74028],[-54.73082,-16.73505],[-54.7307,-16.7346],[-54.73208,-16.73269],[-54.73291,-16.73113],[-54.73278,-16.73018],[-54.734,-16.72713],[-54.73333,-16.72665],[-54.73344,-16.72455],[-54.73248,-16.72359],[-54.73257,-16.72214],[-54.73467,-16.72175],[-54.73816,-16.72001],[-54.73804,-16.71897],[-54.74007,-16.71741],[-54.74092,-16.71736],[-54.74235,-16.71817],[-54.74498,-16.71851],[-54.7459,-16.71834],[-54.74663,-16.71708],[-54.74747,-16.71491],[-54.74936,-16.71208],[-54.75016,-16.71015],[-54.74795,-16.70838],[-54.74393,-16.70465],[-54.74311,-16.70303],[-54.74191,-16.70204],[-54.73516,-16.69906],[-54.7326,-16.69784],[-54.72375,-16.6976],[-54.71046,-16.69737],[-54.70928,-16.69633],[-54.70779,-16.68171],[-54.70535,-16.65914],[-54.70473,-16.65267],[-54.70402,-16.6471],[-54.7038,-16.64659],[-54.70097,-16.64261],[-54.70015,-16.64052],[-54.7005,-16.63989],[-54.7038,-16.63021],[-54.70392,-16.62945],[-54.70559,-16.62448],[-54.70318,-16.62633],[-54.67296,-16.65061],[-54.67204,-16.65142],[-54.66567,-16.65996],[-54.66393,-16.66098],[-54.66409,-16.66183],[-54.66173,-16.66463],[-54.65522,-16.67293],[-54.64636,-16.68312],[-54.64547,-16.68396],[-54.64294,-16.68694],[-54.64215,-16.69256],[-54.63916,-16.71121],[-54.63916,-16.71165],[-54.63733,-16.72322],[-54.63847,-16.73167],[-54.63806,-16.73415],[-54.63767,-16.73502],[-54.63624,-16.73698],[-54.63495,-16.73794],[-54.63324,-16.73872],[-54.6314,-16.73928],[-54.61985,-16.74307],[-54.61997,-16.7369],[-54.62139,-16.73617],[-54.62277,-16.7348],[-54.62416,-16.73018],[-54.62535,-16.727],[-54.62695,-16.72599],[-54.62797,-16.72445],[-54.62683,-16.72282],[-54.62616,-16.7212],[-54.62483,-16.71903],[-54.62352,-16.71759],[-54.61569,-16.7113],[-54.61455,-16.71004],[-54.61133,-16.70807],[-54.60655,-16.70655],[-54.60514,-16.70584],[-54.60314,-16.70531],[-54.59975,-16.70351],[-54.59916,-16.70304],[-54.5985,-16.70129],[-54.59561,-16.69663],[-54.5926,-16.69117],[-54.59127,-16.68769],[-54.59123,-16.68613],[-54.59009,-16.684],[-54.58854,-16.68248],[-54.58793,-16.68132],[-54.5885,-16.68021],[-54.58962,-16.67968],[-54.58992,-16.67888],[-54.5885,-16.6776],[-54.58916,-16.67639],[-54.58911,-16.67559],[-54.58824,-16.67365],[-54.58707,-16.67248],[-54.58289,-16.66996],[-54.58026,-16.66917],[-54.57678,-16.66967],[-54.57454,-16.66948],[-54.57182,-16.66951],[-54.56986,-16.66916],[-54.56871,-16.66792],[-54.56888,-16.66627],[-54.56794,-16.66247],[-54.56739,-16.66136],[-54.5658,-16.66048],[-54.56501,-16.65867],[-54.56395,-16.65781],[-54.56119,-16.65674],[-54.55907,-16.65652],[-54.55749,-16.65575],[-54.55466,-16.65379],[-54.55317,-16.65317],[-54.5491,-16.65291],[-54.54783,-16.6525],[-54.54645,-16.65166],[-54.54523,-16.6504],[-54.54445,-16.64912],[-54.54335,-16.64797],[-54.54231,-16.64523],[-54.5413,-16.64387],[-54.53969,-16.64219],[-54.53938,-16.64093],[-54.54024,-16.63902],[-54.54029,-16.63767],[-54.53987,-16.6362],[-54.54049,-16.63466],[-54.54252,-16.63209],[-54.54351,-16.6298],[-54.54465,-16.62763],[-54.54556,-16.62655],[-54.54625,-16.62635],[-54.54736,-16.62692],[-54.54816,-16.6265],[-54.54848,-16.62304],[-54.54965,-16.61876],[-54.55169,-16.61634],[-54.55264,-16.61413],[-54.55281,-16.61246],[-54.55372,-16.61021],[-54.55358,-16.60914],[-54.55167,-16.60688],[-54.55117,-16.60482],[-54.55018,-16.60275],[-54.54745,-16.59884],[-54.54682,-16.59689],[-54.54468,-16.59526],[-54.53949,-16.59236],[-54.5345,-16.59315],[-54.53299,-16.59244],[-54.53241,-16.58981],[-54.53102,-16.58735],[-54.52842,-16.58476],[-54.52787,-16.58343],[-54.52769,-16.58153],[-54.52732,-16.5804],[-54.52814,-16.578],[-54.52805,-16.57669],[-54.52689,-16.57539],[-54.52685,-16.57407],[-54.52802,-16.57295],[-54.52976,-16.57185],[-54.53109,-16.57061],[-54.53293,-16.5702],[-54.53407,-16.57056],[-54.53476,-16.56982],[-54.53464,-16.56664],[-54.53548,-16.56555],[-54.53792,-16.56486],[-54.54088,-16.56483],[-54.54243,-16.56264],[-54.5426,-16.56014],[-54.5454,-16.55993],[-54.54627,-16.55887],[-54.54679,-16.5551],[-54.54454,-16.55253],[-54.54295,-16.55094],[-54.54233,-16.55],[-54.54282,-16.54922],[-54.5443,-16.54838],[-54.54559,-16.54699],[-54.54771,-16.54655],[-54.54976,-16.54562],[-54.55158,-16.54592],[-54.55203,-16.54815],[-54.55333,-16.5495],[-54.5556,-16.54958],[-54.55764,-16.54908],[-54.5609,-16.54777],[-54.56197,-16.54901],[-54.56394,-16.55251],[-54.5648,-16.55548],[-54.5666,-16.55576],[-54.56812,-16.5543],[-54.56874,-16.55258],[-54.56862,-16.55],[-54.56964,-16.54862],[-54.5717,-16.54725],[-54.5718,-16.54608],[-54.571,-16.54291],[-54.57121,-16.54079],[-54.57055,-16.5391],[-54.57019,-16.53729],[-54.57074,-16.53617],[-54.57152,-16.53568],[-54.57385,-16.53579],[-54.57453,-16.5352],[-54.5742,-16.53151],[-54.57738,-16.52848],[-54.57809,-16.52817],[-54.58187,-16.52801],[-54.58319,-16.52758],[-54.58686,-16.52446],[-54.58886,-16.52343],[-54.58982,-16.52321],[-54.59066,-16.52093],[-54.59304,-16.52074],[-54.59515,-16.51938],[-54.59601,-16.51806],[-54.59634,-16.51681],[-54.59572,-16.51237],[-54.59516,-16.51002],[-54.59529,-16.50832],[-54.59581,-16.50717],[-54.59674,-16.50672],[-54.59908,-16.50684],[-54.60101,-16.50766],[-54.60217,-16.50711],[-54.60258,-16.50649],[-54.6026,-16.50461],[-54.6011,-16.50303],[-54.60061,-16.50188],[-54.59687,-16.50182],[-54.59365,-16.5014],[-54.58959,-16.50414],[-54.58556,-16.5063],[-54.5821,-16.50765],[-54.57873,-16.50849],[-54.57629,-16.5089],[-54.5752,-16.50863],[-54.57171,-16.50476],[-54.56896,-16.50074],[-54.57056,-16.4919],[-54.57051,-16.49065],[-54.56956,-16.48881],[-54.56814,-16.48678],[-54.56678,-16.48559],[-54.56468,-16.4844],[-54.56303,-16.48373],[-54.56095,-16.48246],[-54.55913,-16.48172],[-54.55551,-16.48138],[-54.54814,-16.48055],[-54.54428,-16.47952],[-54.54256,-16.47921],[-54.54116,-16.47964],[-54.53834,-16.48143],[-54.53479,-16.48435],[-54.52858,-16.48667],[-54.52526,-16.48816],[-54.52024,-16.48732],[-54.51917,-16.48894],[-54.51807,-16.49113],[-54.51268,-16.49172],[-54.50989,-16.49241],[-54.50878,-16.49308],[-54.50815,-16.49417],[-54.50819,-16.49861],[-54.50787,-16.50024],[-54.50709,-16.50197],[-54.5059,-16.50279],[-54.50227,-16.50355],[-54.50009,-16.50427],[-54.4971,-16.50613],[-54.49409,-16.50874],[-54.49149,-16.51309],[-54.48919,-16.51721],[-54.48806,-16.51789],[-54.48547,-16.51751],[-54.48413,-16.51471],[-54.48266,-16.51357],[-54.48112,-16.51206],[-54.48044,-16.51204],[-54.47768,-16.51522],[-54.47641,-16.5165],[-54.47486,-16.51731],[-54.47307,-16.51785],[-54.46662,-16.51874],[-54.46547,-16.51965],[-54.46512,-16.52499],[-54.46441,-16.52933],[-54.46342,-16.53007],[-54.46215,-16.53021],[-54.46118,-16.52952],[-54.46077,-16.52836],[-54.45983,-16.52719],[-54.46033,-16.52654],[-54.46192,-16.52638],[-54.46314,-16.52507],[-54.46307,-16.52439],[-54.46204,-16.52329],[-54.46016,-16.52209],[-54.45798,-16.52124],[-54.45559,-16.52138],[-54.45421,-16.5223],[-54.45422,-16.5233],[-54.45632,-16.52352],[-54.45675,-16.52413],[-54.45623,-16.52641],[-54.45719,-16.52826],[-54.45715,-16.5294],[-54.45623,-16.53037],[-54.4542,-16.53075],[-54.45069,-16.52745],[-54.4478,-16.52606],[-54.44452,-16.52487],[-54.44183,-16.52578],[-54.44068,-16.52711],[-54.43613,-16.52893],[-54.43365,-16.53216],[-54.4327,-16.5356],[-54.43195,-16.54001],[-54.43179,-16.54446],[-54.43109,-16.54905],[-54.43112,-16.55007],[-54.43061,-16.55212],[-54.42937,-16.55567],[-54.42697,-16.55617],[-54.42554,-16.55404],[-54.42411,-16.55334],[-54.42263,-16.55402],[-54.42109,-16.55328],[-54.4204,-16.55176],[-54.41899,-16.54626],[-54.41797,-16.54191],[-54.41772,-16.53974],[-54.41694,-16.53907],[-54.41595,-16.53924],[-54.41311,-16.54055],[-54.40792,-16.53879],[-54.406,-16.53891],[-54.40415,-16.53737],[-54.40157,-16.5363],[-54.40044,-16.53531],[-54.40002,-16.53401],[-54.39905,-16.53345],[-54.39706,-16.53343],[-54.39285,-16.53373],[-54.38931,-16.5291],[-54.38294,-16.52569],[-54.38261,-16.52523],[-54.38409,-16.52582],[-54.38363,-16.52304],[-54.38447,-16.52247],[-54.38331,-16.52179],[-54.38225,-16.5221],[-54.38175,-16.52163],[-54.38191,-16.52064],[-54.38064,-16.51998],[-54.37912,-16.51847],[-54.38009,-16.51621],[-54.38035,-16.51504],[-54.38174,-16.51364],[-54.38224,-16.5125],[-54.38102,-16.50989],[-54.38154,-16.50872],[-54.38174,-16.50731],[-54.38074,-16.50665],[-54.38118,-16.50571],[-54.38015,-16.50535],[-54.37823,-16.50522],[-54.37742,-16.50554],[-54.37624,-16.50672],[-54.37496,-16.50621],[-54.37403,-16.50676],[-54.37055,-16.50622],[-54.36741,-16.50613],[-54.36584,-16.50459],[-54.36496,-16.50414],[-54.36439,-16.50313],[-54.36348,-16.50288],[-54.36302,-16.50212],[-54.36213,-16.50189],[-54.36137,-16.50077],[-54.36031,-16.49997],[-54.35818,-16.49916],[-54.3562,-16.4987],[-54.35661,-16.49678],[-54.35867,-16.49415],[-54.35942,-16.49274],[-54.35973,-16.49136],[-54.36009,-16.48808],[-54.3608,-16.48704],[-54.3619,-16.4864],[-54.36242,-16.48442],[-54.36376,-16.48334],[-54.36558,-16.48327],[-54.36747,-16.48279],[-54.36816,-16.48144],[-54.36824,-16.47999],[-54.36691,-16.47824],[-54.36514,-16.47747],[-54.36531,-16.47565],[-54.365,-16.47507],[-54.36372,-16.47447],[-54.36192,-16.47271],[-54.36032,-16.47231],[-54.35988,-16.47168],[-54.35943,-16.46978],[-54.35787,-16.46626],[-54.35337,-16.42627],[-54.35211,-16.4268],[-54.3504,-16.42807],[-54.34882,-16.42891],[-54.34751,-16.42847],[-54.3466,-16.42697],[-54.34445,-16.42548],[-54.34325,-16.42421],[-54.34129,-16.42049],[-54.34002,-16.4186],[-54.33879,-16.41774],[-54.33589,-16.417],[-54.33403,-16.41618],[-54.33303,-16.41508],[-54.33201,-16.41344],[-54.33212,-16.41215],[-54.33267,-16.41043],[-54.33269,-16.40869],[-54.33223,-16.40639],[-54.33196,-16.40243],[-54.3325,-16.40106],[-54.33381,-16.4003],[-54.33529,-16.40006],[-54.33665,-16.40022],[-54.33783,-16.39891],[-54.3388,-16.39576],[-54.33988,-16.39383],[-54.34207,-16.3914],[-54.34396,-16.38894],[-54.34494,-16.3858],[-54.34547,-16.38485],[-54.34592,-16.38308],[-54.34562,-16.37893],[-54.34347,-16.37608],[-54.34323,-16.37542],[-54.34313,-16.37245],[-54.34256,-16.37089],[-54.33896,-16.3661],[-54.33801,-16.36412],[-54.33771,-16.36277],[-54.33762,-16.36018],[-54.33516,-16.35853],[-54.3335,-16.35865],[-54.33189,-16.35791],[-54.32804,-16.35757],[-54.3263,-16.35678],[-54.32489,-16.35571],[-54.32398,-16.35462],[-54.32384,-16.35282],[-54.32435,-16.3516],[-54.32638,-16.35139],[-54.32788,-16.35034],[-54.33086,-16.34679],[-54.33288,-16.34521],[-54.3338,-16.34372],[-54.33463,-16.34092],[-54.33594,-16.33851],[-54.33693,-16.33786],[-54.33842,-16.33791],[-54.33915,-16.33743],[-54.34033,-16.33508],[-54.34212,-16.33342],[-54.34271,-16.33219],[-54.3428,-16.32862],[-54.34227,-16.3276],[-54.34135,-16.3275],[-54.34009,-16.32637],[-54.33925,-16.32625],[-54.3381,-16.32668],[-54.33861,-16.3252],[-54.34034,-16.32272],[-54.34181,-16.32172],[-54.3465,-16.3214],[-54.34762,-16.32158],[-54.34878,-16.3225],[-54.34886,-16.3234],[-54.34767,-16.32644],[-54.34766,-16.32746],[-54.34923,-16.32943],[-54.35216,-16.33218],[-54.35354,-16.33309],[-54.35697,-16.33393],[-54.35851,-16.33392],[-54.36184,-16.33335],[-54.36622,-16.33218],[-54.37107,-16.33053],[-54.37394,-16.33017],[-54.37706,-16.33067],[-54.37804,-16.33063],[-54.38082,-16.32916],[-54.38246,-16.32848],[-54.38548,-16.32822],[-54.38771,-16.32769],[-54.38868,-16.32772],[-54.39164,-16.32834],[-54.40028,-16.32491],[-54.40115,-16.32545],[-54.40734,-16.33624],[-54.40816,-16.34029],[-54.40943,-16.34199],[-54.41407,-16.34478],[-54.41766,-16.3503],[-54.41804,-16.35148],[-54.41763,-16.35542],[-54.41486,-16.36445],[-54.42048,-16.36829],[-54.42105,-16.37037],[-54.42017,-16.37516],[-54.42057,-16.37688],[-54.42449,-16.38221],[-54.42786,-16.38555],[-54.43259,-16.38808],[-54.43408,-16.39105],[-54.43954,-16.39468],[-54.44133,-16.40198],[-54.44748,-16.40555],[-54.44886,-16.40741],[-54.44902,-16.41081],[-54.44707,-16.4138],[-54.44839,-16.42221],[-54.44906,-16.42332],[-54.45437,-16.4238],[-54.45538,-16.42523],[-54.45516,-16.42656],[-54.457,-16.42615],[-54.45712,-16.42512],[-54.45796,-16.42387],[-54.45769,-16.42262],[-54.458,-16.4221],[-54.45704,-16.42063],[-54.45693,-16.41908],[-54.45597,-16.41746],[-54.4565,-16.41669],[-54.45716,-16.41448],[-54.45858,-16.41352],[-54.45842,-16.41238],[-54.45984,-16.41139],[-54.46069,-16.41028],[-54.46142,-16.41043],[-54.46276,-16.40895],[-54.46265,-16.40778],[-54.46326,-16.40697],[-54.46239,-16.40588],[-54.4631,-16.40516],[-54.46431,-16.40499],[-54.46525,-16.40563],[-54.46652,-16.405],[-54.47058,-16.40511],[-54.47149,-16.40446],[-54.47196,-16.40333],[-54.47116,-16.4026],[-54.47183,-16.40203],[-54.47215,-16.4009],[-54.47349,-16.40036],[-54.47482,-16.39945],[-54.47452,-16.39711],[-54.47529,-16.39586],[-54.47504,-16.39501],[-54.47572,-16.39461],[-54.4754,-16.39371],[-54.47612,-16.39243],[-54.47503,-16.39166],[-54.47384,-16.39166],[-54.47259,-16.39252],[-54.47279,-16.39321],[-54.47148,-16.39352],[-54.47035,-16.39228],[-54.46957,-16.39205],[-54.46902,-16.39051],[-54.46991,-16.38961],[-54.47038,-16.38688],[-54.46983,-16.38592],[-54.46917,-16.38572],[-54.46795,-16.38328],[-54.46814,-16.38293],[-54.46685,-16.38143],[-54.46702,-16.38095],[-54.46568,-16.37926],[-54.46571,-16.37784],[-54.46669,-16.37602],[-54.46579,-16.37451],[-54.46604,-16.37265],[-54.46766,-16.37147],[-54.4692,-16.37101],[-54.46991,-16.3696],[-54.47095,-16.36978],[-54.47212,-16.369],[-54.47155,-16.36817],[-54.47251,-16.36666],[-54.47203,-16.36471],[-54.47258,-16.36185],[-54.47442,-16.36141],[-54.47555,-16.35984],[-54.47619,-16.35981],[-54.47652,-16.35805],[-54.47639,-16.35647],[-54.47537,-16.35485],[-54.47658,-16.35353],[-54.47929,-16.35015],[-54.47983,-16.34841],[-54.48139,-16.34795],[-54.48281,-16.34559],[-54.48483,-16.34471],[-54.48674,-16.34334],[-54.48836,-16.34288],[-54.48918,-16.34177],[-54.48963,-16.33874],[-54.48919,-16.33773],[-54.48732,-16.33643],[-54.48697,-16.33525],[-54.48596,-16.33411],[-54.48574,-16.33039],[-54.48228,-16.32913],[-54.4846,-16.32862],[-54.48536,-16.32781],[-54.48449,-16.32547],[-54.48548,-16.32207],[-54.487,-16.32179],[-54.48764,-16.32028],[-54.4884,-16.31993],[-54.4884,-16.3181],[-54.49004,-16.31626],[-54.49129,-16.31586],[-54.49444,-16.31633],[-54.49655,-16.31604],[-54.4978,-16.31518],[-54.49679,-16.31394],[-54.49703,-16.31225],[-54.4981,-16.31191],[-54.49764,-16.31082],[-54.49811,-16.3098],[-54.49682,-16.30953],[-54.49591,-16.30777],[-54.4959,-16.30636],[-54.49762,-16.30606],[-54.49835,-16.30662],[-54.499,-16.3062],[-54.49928,-16.30522],[-54.50134,-16.30312],[-54.50237,-16.30277],[-54.50302,-16.30398],[-54.50561,-16.30438],[-54.50756,-16.30502],[-54.50856,-16.30562],[-54.51054,-16.30606],[-54.51133,-16.30659],[-54.51308,-16.30699],[-54.51234,-16.3085],[-54.51255,-16.30909],[-54.51387,-16.3093],[-54.51386,-16.31004],[-54.51204,-16.31138],[-54.51216,-16.31258],[-54.51367,-16.31316],[-54.51255,-16.31402],[-54.51313,-16.31467],[-54.51289,-16.31573],[-54.51314,-16.31735],[-54.51281,-16.31769],[-54.5136,-16.31995],[-54.51285,-16.32029],[-54.51383,-16.32142],[-54.51276,-16.32319],[-54.51355,-16.32506],[-54.5147,-16.32586],[-54.51396,-16.32739],[-54.51331,-16.33],[-54.51266,-16.3311],[-54.51361,-16.33125],[-54.51395,-16.33282],[-54.51558,-16.33505],[-54.51521,-16.3371],[-54.51518,-16.33854],[-54.51389,-16.33971],[-54.51398,-16.3407],[-54.51521,-16.34112],[-54.51568,-16.34186],[-54.51779,-16.34303],[-54.52202,-16.34416],[-54.52351,-16.34503],[-54.52469,-16.34477],[-54.52473,-16.34573],[-54.52759,-16.34662],[-54.52734,-16.34758],[-54.52881,-16.34844],[-54.52817,-16.34954],[-54.52829,-16.35115],[-54.52787,-16.35306],[-54.53048,-16.35312],[-54.53248,-16.35256],[-54.53358,-16.35255],[-54.53308,-16.35847],[-54.53409,-16.35946],[-54.53334,-16.36044],[-54.53334,-16.36294],[-54.53066,-16.36248],[-54.52916,-16.36469],[-54.52796,-16.36676],[-54.52655,-16.36746],[-54.52521,-16.36713],[-54.52498,-16.36813],[-54.52588,-16.36818],[-54.52659,-16.36919],[-54.52769,-16.36909],[-54.52841,-16.36848],[-54.5306,-16.36911],[-54.53137,-16.369],[-54.53373,-16.37073],[-54.53539,-16.3705],[-54.53752,-16.36858],[-54.53932,-16.36918],[-54.54177,-16.37095],[-54.54216,-16.37026],[-54.54432,-16.3724],[-54.54457,-16.3751],[-54.54556,-16.37701],[-54.54691,-16.37671],[-54.54777,-16.37691],[-54.54953,-16.37659],[-54.55115,-16.37761],[-54.55154,-16.37872],[-54.55097,-16.38223],[-54.54981,-16.38437],[-54.55083,-16.38531],[-54.55287,-16.38589],[-54.55255,-16.38716],[-54.55176,-16.38882],[-54.55386,-16.3905],[-54.55361,-16.395],[-54.55293,-16.39599],[-54.55127,-16.39695],[-54.55022,-16.39696],[-54.5499,-16.4],[-54.55063,-16.40175],[-54.55179,-16.40347],[-54.55358,-16.40484],[-54.55505,-16.40566],[-54.55546,-16.40661],[-54.55405,-16.40843],[-54.55431,-16.40932],[-54.55562,-16.40847],[-54.55759,-16.4096],[-54.55864,-16.40909],[-54.5602,-16.40727],[-54.56154,-16.40615],[-54.56207,-16.40727],[-54.56199,-16.40828],[-54.56098,-16.41035],[-54.56163,-16.41148],[-54.56285,-16.41199],[-54.56266,-16.41328],[-54.56284,-16.41526],[-54.56407,-16.41606],[-54.56463,-16.41688],[-54.56763,-16.41783],[-54.56868,-16.41748],[-54.5697,-16.41836],[-54.57027,-16.41762],[-54.57012,-16.41639],[-54.57103,-16.41557],[-54.57205,-16.4155],[-54.57313,-16.41599],[-54.57362,-16.41509],[-54.57429,-16.41509],[-54.57528,-16.41677],[-54.57712,-16.41753],[-54.57716,-16.41848],[-54.57823,-16.41894],[-54.57989,-16.41904],[-54.58187,-16.41981],[-54.58264,-16.41983],[-54.58351,-16.42092],[-54.58288,-16.42246],[-54.58455,-16.42292],[-54.58486,-16.42385],[-54.58592,-16.4252],[-54.58744,-16.42594],[-54.58918,-16.425],[-54.59108,-16.42533],[-54.59131,-16.426],[-54.59008,-16.42717],[-54.58963,-16.42824],[-54.5897,-16.43053],[-54.59072,-16.43075],[-54.59083,-16.43183],[-54.58975,-16.43293],[-54.59015,-16.43389],[-54.58942,-16.43521],[-54.58951,-16.43624],[-54.58854,-16.43802],[-54.5894,-16.43933],[-54.59155,-16.43967],[-54.59282,-16.43914],[-54.59384,-16.43926],[-54.59485,-16.43993],[-54.59746,-16.44067],[-54.59967,-16.44187],[-54.5996,-16.44374],[-54.60053,-16.44486],[-54.60197,-16.44561],[-54.60318,-16.44591],[-54.60576,-16.44778],[-54.60569,-16.44884],[-54.60636,-16.44916],[-54.60894,-16.44912],[-54.60986,-16.45036],[-54.60901,-16.45094],[-54.60951,-16.45193],[-54.61187,-16.45301],[-54.6125,-16.45407],[-54.61496,-16.45415],[-54.61689,-16.45556],[-54.61888,-16.45671],[-54.61993,-16.45633],[-54.61935,-16.45537],[-54.62109,-16.4524],[-54.62297,-16.45163],[-54.62411,-16.45057],[-54.62832,-16.44797],[-54.6304,-16.4477],[-54.63146,-16.44825],[-54.63488,-16.4489],[-54.63575,-16.44763],[-54.63642,-16.44758],[-54.63656,-16.44446],[-54.63725,-16.44452],[-54.63768,-16.43694],[-54.6376,-16.43671],[-54.63796,-16.43128],[-54.63826,-16.4287],[-54.63896,-16.42873],[-54.63944,-16.42136],[-54.64076,-16.41618],[-54.64107,-16.4136],[-54.64552,-16.40353],[-54.64651,-16.4029],[-54.64691,-16.40167],[-54.64911,-16.40073],[-54.65282,-16.39882],[-54.65344,-16.39926],[-54.65555,-16.39849],[-54.65631,-16.39877],[-54.65786,-16.3986],[-54.65826,-16.39783],[-54.65955,-16.39689],[-54.66143,-16.39601],[-54.66256,-16.39523],[-54.66308,-16.39356],[-54.66234,-16.39231],[-54.6631,-16.39141],[-54.66311,-16.39062],[-54.6623,-16.38933],[-54.66316,-16.38826],[-54.66297,-16.38675],[-54.66351,-16.38608],[-54.66559,-16.38505],[-54.66752,-16.38297],[-54.66854,-16.38051],[-54.66937,-16.3796],[-54.66843,-16.37662],[-54.66771,-16.37493],[-54.66761,-16.37331],[-54.66872,-16.37242],[-54.66946,-16.37063],[-54.66936,-16.36488],[-54.67298,-16.3639],[-54.67365,-16.36113],[-54.67328,-16.35818],[-54.67263,-16.35676],[-54.67234,-16.3552],[-54.67127,-16.35465],[-54.67113,-16.35392],[-54.67145,-16.3518],[-54.67119,-16.34939],[-54.67176,-16.34868],[-54.67203,-16.34686],[-54.67331,-16.34534],[-54.67364,-16.34409],[-54.67441,-16.34283],[-54.6739,-16.3425],[-54.67352,-16.34114],[-54.67336,-16.33859],[-54.67173,-16.33593],[-54.67147,-16.33469],[-54.67186,-16.33319],[-54.67102,-16.32801],[-54.67067,-16.32665],[-54.66914,-16.32483],[-54.66566,-16.32004],[-54.6622,-16.31593],[-54.65887,-16.30911],[-54.65612,-16.28668],[-54.64832,-16.22304],[-54.65089,-16.2237],[-54.65493,-16.22355],[-54.6579,-16.22211],[-54.66036,-16.22272],[-54.66524,-16.22552],[-54.66622,-16.22822],[-54.66744,-16.22879],[-54.66782,-16.22952],[-54.6698,-16.23056],[-54.67098,-16.23193],[-54.67223,-16.23233],[-54.67238,-16.23356],[-54.6741,-16.23521],[-54.67515,-16.23858],[-54.67571,-16.23977],[-54.67625,-16.24222],[-54.68005,-16.24697],[-54.68098,-16.25037],[-54.68254,-16.25084],[-54.68285,-16.25392],[-54.68331,-16.25447],[-54.68314,-16.25576],[-54.68426,-16.25585],[-54.68587,-16.25696],[-54.68608,-16.25824],[-54.68684,-16.25885],[-54.68842,-16.25911],[-54.68855,-16.26169],[-54.6897,-16.26307],[-54.69136,-16.26373],[-54.69241,-16.26584],[-54.69435,-16.26645],[-54.69501,-16.26818],[-54.69929,-16.26905],[-54.69936,-16.27198],[-54.69969,-16.2737],[-54.70145,-16.27432],[-54.7017,-16.27483],[-54.70115,-16.27605],[-54.70195,-16.27639],[-54.70305,-16.27607],[-54.70477,-16.27644],[-54.70506,-16.27747],[-54.70634,-16.27726],[-54.70808,-16.27776],[-54.7096,-16.27906],[-54.71029,-16.2806],[-54.7097,-16.28196],[-54.70968,-16.28317],[-54.71127,-16.28239],[-54.7121,-16.28247],[-54.71265,-16.28506],[-54.71433,-16.28534],[-54.71454,-16.28749],[-54.71509,-16.28849],[-54.71609,-16.28901],[-54.71729,-16.2884],[-54.7181,-16.28922],[-54.71975,-16.2898],[-54.72056,-16.29279],[-54.72262,-16.29155],[-54.72298,-16.29383],[-54.72427,-16.29573],[-54.72591,-16.29734],[-54.72721,-16.29604],[-54.72915,-16.29628],[-54.72979,-16.29389],[-54.73331,-16.29314],[-54.73503,-16.2933],[-54.73601,-16.29216],[-54.73691,-16.29181],[-54.738,-16.29063],[-54.7408,-16.29003],[-54.74216,-16.28747],[-54.74376,-16.28658],[-54.74457,-16.28716],[-54.74497,-16.28826],[-54.74586,-16.28851],[-54.74924,-16.28684],[-54.75033,-16.28495],[-54.75145,-16.28561],[-54.75309,-16.28452],[-54.75412,-16.28478],[-54.75542,-16.28434],[-54.75626,-16.28526],[-54.75801,-16.28572],[-54.75916,-16.2865],[-54.75941,-16.28743],[-54.76049,-16.28958],[-54.76314,-16.29247],[-54.76406,-16.29287],[-54.76656,-16.29513],[-54.76752,-16.29631],[-54.769,-16.29686],[-54.77121,-16.29861],[-54.77165,-16.30018],[-54.77235,-16.30047],[-54.77313,-16.29992],[-54.77423,-16.30019],[-54.77581,-16.29999],[-54.77714,-16.3007],[-54.77867,-16.29939],[-54.77939,-16.29785],[-54.78155,-16.29862],[-54.78247,-16.29841],[-54.78337,-16.2999],[-54.78461,-16.29976],[-54.78687,-16.29995],[-54.78829,-16.2994],[-54.79208,-16.29987],[-54.79348,-16.29939],[-54.79502,-16.2997],[-54.79734,-16.30053],[-54.79944,-16.30082],[-54.80028,-16.30012],[-54.80095,-16.29809],[-54.80548,-16.29361],[-54.80777,-16.29302],[-54.81052,-16.29315],[-54.81139,-16.29233],[-54.81345,-16.2923],[-54.81467,-16.29299],[-54.8174,-16.2928],[-54.8197,-16.29058],[-54.82161,-16.29072],[-54.82328,-16.29315],[-54.82541,-16.29381],[-54.82647,-16.29213],[-54.82949,-16.28943],[-54.82983,-16.28895],[-54.82977,-16.28693],[-54.83002,-16.28653],[-54.83318,-16.28713],[-54.83509,-16.28707],[-54.83802,-16.28573],[-54.84001,-16.28591],[-54.84177,-16.28496],[-54.84377,-16.28482],[-54.84582,-16.28686],[-54.84708,-16.28713],[-54.84808,-16.28616],[-54.84842,-16.28535],[-54.85066,-16.28626],[-54.85068,-16.28449],[-54.84952,-16.28392],[-54.85036,-16.28312],[-54.85038,-16.28159],[-54.85202,-16.28145],[-54.85319,-16.27859],[-54.85338,-16.27531],[-54.85563,-16.27474],[-54.85625,-16.2768],[-54.85664,-16.27713],[-54.85813,-16.27706],[-54.85983,-16.27624],[-54.8619,-16.2761],[-54.86382,-16.27707],[-54.86524,-16.27627],[-54.86554,-16.27496],[-54.86656,-16.27457],[-54.86928,-16.27449],[-54.87137,-16.27426],[-54.87357,-16.27315],[-54.8746,-16.27195],[-54.87467,-16.27024],[-54.87525,-16.26886],[-54.87601,-16.26819],[-54.87731,-16.26781],[-54.87813,-16.26684],[-54.88011,-16.2664],[-54.88238,-16.26544],[-54.883,-16.26568],[-54.88308,-16.26674],[-54.88151,-16.2685],[-54.88148,-16.26951],[-54.88336,-16.27029],[-54.88481,-16.2701],[-54.88531,-16.27119],[-54.88698,-16.27117],[-54.88863,-16.2699],[-54.89044,-16.26967],[-54.89177,-16.27014],[-54.89296,-16.27009],[-54.89452,-16.27052],[-54.89528,-16.26922],[-54.89676,-16.26918],[-54.8979,-16.26961],[-54.89792,-16.27054],[-54.89735,-16.27199],[-54.89917,-16.27219],[-54.90109,-16.27123],[-54.90164,-16.26993],[-54.90632,-16.26968],[-54.90722,-16.26869],[-54.90863,-16.2689],[-54.90907,-16.2699],[-54.91011,-16.27032],[-54.91066,-16.27184],[-54.90993,-16.27312],[-54.90876,-16.27278],[-54.90823,-16.27339],[-54.90864,-16.27492],[-54.91033,-16.27663],[-54.9118,-16.27905],[-54.91237,-16.28174],[-54.91215,-16.28429],[-54.9111,-16.28483],[-54.90937,-16.28449],[-54.90874,-16.28542],[-54.90873,-16.28864],[-54.90888,-16.29039],[-54.90949,-16.29334],[-54.90968,-16.29558],[-54.90916,-16.29656],[-54.90894,-16.29892],[-54.90933,-16.30133],[-54.91037,-16.30228],[-54.91163,-16.30209],[-54.91239,-16.30246],[-54.91247,-16.30389],[-54.91135,-16.30569],[-54.91124,-16.30668],[-54.91269,-16.30992],[-54.91396,-16.31042],[-54.91554,-16.30984],[-54.91711,-16.30978],[-54.91945,-16.30829],[-54.92086,-16.30805],[-54.92537,-16.30824],[-54.92608,-16.30859],[-54.92641,-16.3102],[-54.92494,-16.3105],[-54.92272,-16.31138],[-54.92245,-16.31273],[-54.92395,-16.31377],[-54.92659,-16.31467],[-54.92846,-16.3151],[-54.93083,-16.31754],[-54.93097,-16.31839],[-54.93048,-16.32134],[-54.93088,-16.32415],[-54.93151,-16.32498],[-54.93393,-16.32571],[-54.9354,-16.32591],[-54.9386,-16.32684],[-54.93938,-16.32726],[-54.94056,-16.32851],[-54.94054,-16.32961],[-54.93998,-16.33098],[-54.93723,-16.33529],[-54.93625,-16.33778],[-54.93609,-16.3401],[-54.93647,-16.34178],[-54.93821,-16.34189],[-54.94071,-16.34264],[-54.94232,-16.34381],[-54.9425,-16.34526],[-54.94151,-16.34876],[-54.94164,-16.35025],[-54.94283,-16.35189],[-54.94409,-16.35457],[-54.94405,-16.35562],[-54.94354,-16.35697],[-54.94269,-16.35829],[-54.9407,-16.36039],[-54.94016,-16.36222],[-54.93989,-16.36506],[-54.93907,-16.36629],[-54.93763,-16.36706],[-54.93698,-16.36794],[-54.93651,-16.36971],[-54.93528,-16.37139],[-54.93459,-16.37359],[-54.93461,-16.37446],[-54.9357,-16.37645],[-54.93587,-16.37867],[-54.9354,-16.38],[-54.93519,-16.38261],[-54.93565,-16.38388],[-54.93645,-16.38455],[-54.93882,-16.38536],[-54.93967,-16.38599],[-54.93956,-16.38674],[-54.93822,-16.38772],[-54.93675,-16.38956],[-54.93627,-16.39075],[-54.93713,-16.39186],[-54.93834,-16.3921],[-54.93937,-16.3917],[-54.94096,-16.39013],[-54.94235,-16.39046],[-54.94249,-16.39118],[-54.94181,-16.39248],[-54.94218,-16.39393],[-54.94183,-16.39555],[-54.94222,-16.39634],[-54.94397,-16.3972],[-54.9442,-16.39851],[-54.94276,-16.39942],[-54.94325,-16.40073],[-54.94279,-16.40316],[-54.94323,-16.40401],[-54.94399,-16.40434],[-54.94576,-16.40349],[-54.94642,-16.40358],[-54.94681,-16.4049],[-54.94808,-16.40466],[-54.94797,-16.40269],[-54.94841,-16.40229],[-54.9495,-16.40315],[-54.95151,-16.40356],[-54.95196,-16.40414],[-54.95145,-16.40503],[-54.94925,-16.40646],[-54.94988,-16.40752],[-54.95199,-16.40765],[-54.95169,-16.40903],[-54.95259,-16.40922],[-54.95365,-16.40843],[-54.95601,-16.40806],[-54.95649,-16.40696],[-54.95622,-16.4057],[-54.95732,-16.40502],[-54.95861,-16.40671],[-54.95863,-16.40737],[-54.95781,-16.40883],[-54.95837,-16.40978],[-54.95966,-16.41071],[-54.9598,-16.41154],[-54.95926,-16.41252],[-54.95971,-16.41356],[-54.96116,-16.4133],[-54.96225,-16.41349],[-54.96229,-16.41441],[-54.96142,-16.41536],[-54.95985,-16.41558],[-54.95844,-16.41453],[-54.95755,-16.41512],[-54.95739,-16.41705],[-54.95766,-16.41822],[-54.95834,-16.41878],[-54.96022,-16.41868],[-54.96091,-16.41919],[-54.96131,-16.42156],[-54.96242,-16.42187],[-54.9633,-16.42041],[-54.96477,-16.42086],[-54.9652,-16.42268],[-54.96571,-16.42337],[-54.96819,-16.42228],[-54.96948,-16.42258],[-54.96947,-16.42327],[-54.96748,-16.42515],[-54.96754,-16.42593],[-54.96829,-16.42679],[-54.9704,-16.42796],[-54.9696,-16.42921],[-54.96983,-16.43022],[-54.97111,-16.4304],[-54.97162,-16.43118],[-54.97177,-16.43313],[-54.97102,-16.43402],[-54.96984,-16.43371],[-54.96954,-16.43502],[-54.97139,-16.43559],[-54.97161,-16.43678],[-54.97016,-16.43668],[-54.9693,-16.43726],[-54.96993,-16.43853],[-54.97175,-16.43981],[-54.97323,-16.43898],[-54.97413,-16.43906],[-54.97536,-16.43989],[-54.97589,-16.44176],[-54.97511,-16.44345],[-54.97654,-16.44514],[-54.97633,-16.44718],[-54.97734,-16.4487],[-54.97663,-16.45069],[-54.97625,-16.45294],[-54.97717,-16.45412],[-54.97823,-16.45454],[-54.978,-16.4558],[-54.97665,-16.45592],[-54.97583,-16.45656],[-54.97665,-16.45838],[-54.97641,-16.45923],[-54.97552,-16.45917],[-54.9745,-16.4585],[-54.97362,-16.45867],[-54.97296,-16.46032],[-54.97196,-16.4604],[-54.97009,-16.4579],[-54.96895,-16.45773],[-54.96879,-16.45869],[-54.96919,-16.45975],[-54.97041,-16.46073],[-54.97147,-16.46237],[-54.97316,-16.46215],[-54.97387,-16.46264],[-54.97366,-16.46388],[-54.97118,-16.4648],[-54.97039,-16.46543],[-54.97163,-16.46691],[-54.97158,-16.46772],[-54.97075,-16.47002],[-54.96989,-16.47064],[-54.96424,-16.48152],[-54.93652,-16.53486],[-54.93827,-16.5363],[-54.94195,-16.53659],[-54.94443,-16.53776],[-54.94585,-16.54056],[-54.94872,-16.54249],[-54.95201,-16.54163],[-54.95491,-16.54052],[-54.95832,-16.54119],[-54.96079,-16.54413],[-54.96128,-16.54537],[-54.96125,-16.5476],[-54.96055,-16.54807],[-54.9583,-16.54798],[-54.95738,-16.54858],[-54.95731,-16.54925],[-54.95812,-16.55183],[-54.95821,-16.55424],[-54.95573,-16.55631],[-54.95426,-16.55709],[-54.95117,-16.55751],[-54.94839,-16.55721],[-54.94809,-16.55826],[-54.9493,-16.56051],[-54.95196,-16.5627],[-54.95364,-16.56337],[-54.9551,-16.56441],[-54.95619,-16.56477],[-54.9602,-16.56521],[-54.96163,-16.56656],[-54.96297,-16.56628],[-54.96507,-16.56633],[-54.96698,-16.5657],[-54.96787,-16.56572],[-54.96978,-16.56702],[-54.97255,-16.56751],[-54.9743,-16.56933],[-54.97249,-16.56956],[-54.97201,-16.57064],[-54.9707,-16.57161],[-54.96866,-16.57189],[-54.96807,-16.57277],[-54.96754,-16.57453],[-54.96743,-16.57599],[-54.96852,-16.57764],[-54.96995,-16.5782],[-54.97061,-16.57997],[-54.97133,-16.58052],[-54.97154,-16.58296],[-54.97327,-16.58421],[-54.97207,-16.58595],[-54.97068,-16.58682],[-54.96972,-16.58682],[-54.9688,-16.58734],[-54.96672,-16.58776],[-54.9656,-16.58743],[-54.96379,-16.5878],[-54.96324,-16.58916],[-54.96257,-16.58966],[-54.96076,-16.58951],[-54.96031,-16.59075],[-54.95919,-16.59227],[-54.95839,-16.59518],[-54.95866,-16.59604],[-54.95852,-16.59779],[-54.95802,-16.59967],[-54.95712,-16.60126],[-54.95531,-16.60272],[-54.95355,-16.60331],[-54.95161,-16.605],[-54.95225,-16.60598],[-54.95261,-16.60799],[-54.95477,-16.60628],[-54.95634,-16.60576],[-54.95683,-16.60499],[-54.95939,-16.60347],[-54.96075,-16.60396],[-54.96199,-16.60384],[-54.96295,-16.60444],[-54.96381,-16.60629],[-54.9649,-16.60708],[-54.96678,-16.60735],[-54.96752,-16.60852],[-54.96608,-16.60925],[-54.96572,-16.61046],[-54.96482,-16.61039],[-54.96334,-16.61195],[-54.96257,-16.61349],[-54.96214,-16.61497],[-54.9643,-16.61831],[-54.96346,-16.61871],[-54.96311,-16.62014],[-54.96143,-16.62051],[-54.9613,-16.62199],[-54.95873,-16.62463],[-54.95774,-16.62535],[-54.95372,-16.62683],[-54.95357,-16.62731],[-54.95478,-16.62856],[-54.95485,-16.63004],[-54.95589,-16.62983],[-54.95708,-16.62776],[-54.95862,-16.62702],[-54.95961,-16.62757],[-54.96268,-16.62845],[-54.96379,-16.62941],[-54.96592,-16.6308],[-54.96792,-16.63174],[-54.96831,-16.63289],[-54.9677,-16.63544],[-54.96849,-16.6369],[-54.97075,-16.63898],[-54.97079,-16.63948],[-54.96802,-16.64034],[-54.96673,-16.64135],[-54.96655,-16.64431],[-54.96712,-16.64584],[-54.96821,-16.64769],[-54.97188,-16.65157],[-54.97418,-16.65356],[-54.97714,-16.65381],[-54.98114,-16.65448],[-54.98211,-16.65507],[-54.98432,-16.65505],[-54.98523,-16.65543],[-54.98658,-16.65685],[-54.98944,-16.65859],[-54.99106,-16.65997],[-54.99199,-16.66135],[-54.99325,-16.66192],[-54.99403,-16.66392],[-54.9937,-16.66525],[-54.9947,-16.66663],[-54.99365,-16.66806],[-54.9921,-16.66854],[-54.99227,-16.66975],[-54.99456,-16.6723],[-54.99323,-16.67433],[-54.99399,-16.67638],[-54.99406,-16.67823],[-54.99491,-16.6793],[-54.99527,-16.68037],[-54.99627,-16.6813],[-54.99528,-16.68195],[-54.99283,-16.68146],[-54.9913,-16.68211],[-54.98862,-16.68128],[-54.98692,-16.68209],[-54.98387,-16.67997],[-54.98289,-16.6788],[-54.98185,-16.67709],[-54.98003,-16.67614],[-54.97543,-16.67324],[-54.97207,-16.67381],[-54.97014,-16.67596],[-54.96873,-16.67716],[-54.96643,-16.67959],[-54.96327,-16.68191],[-54.96193,-16.68264],[-54.95834,-16.68376],[-54.95672,-16.68455],[-54.95016,-16.68268],[-54.94823,-16.68297],[-54.9488,-16.68468],[-54.95044,-16.6859],[-54.95365,-16.68937],[-54.95401,-16.69094],[-54.95316,-16.69265],[-54.95308,-16.69415],[-54.95434,-16.69657],[-54.95565,-16.69751],[-54.95558,-16.69888],[-54.95672,-16.69986],[-54.95936,-16.6998],[-54.96111,-16.70036],[-54.96124,-16.70158],[-54.95913,-16.70467],[-54.95751,-16.70514],[-54.95601,-16.70498],[-54.95348,-16.70536],[-54.95187,-16.70514],[-54.94865,-16.70375],[-54.94502,-16.70182],[-54.94321,-16.70059],[-54.94161,-16.69922],[-54.94043,-16.69785],[-54.93861,-16.69757],[-54.93721,-16.69688],[-54.93595,-16.6968],[-54.9344,-16.69712],[-54.93306,-16.69792],[-54.93268,-16.70069],[-54.93373,-16.70225],[-54.93495,-16.703],[-54.9346,-16.70514],[-54.93529,-16.70619],[-54.93703,-16.70743],[-54.93932,-16.70955],[-54.94086,-16.71058],[-54.94313,-16.71459],[-54.94395,-16.71685],[-54.94555,-16.71766],[-54.9498,-16.72149],[-54.95062,-16.72346],[-54.95053,-16.72529],[-54.9496,-16.72656],[-54.94791,-16.72749],[-54.94579,-16.72828],[-54.9455,-16.72957],[-54.94689,-16.73087],[-54.9482,-16.7325],[-54.94909,-16.73448],[-54.9481,-16.73588],[-54.94487,-16.73791],[-54.94645,-16.73912],[-54.94883,-16.73981],[-54.94972,-16.74131],[-54.95147,-16.74228],[-54.95357,-16.74311],[-54.95524,-16.74421],[-54.95635,-16.74578],[-54.9571,-16.74734],[-54.95784,-16.75012],[-54.95734,-16.7514],[-54.95607,-16.752],[-54.95415,-16.7514],[-54.95266,-16.74997],[-54.95101,-16.74783],[-54.94901,-16.74648],[-54.94743,-16.74575],[-54.94632,-16.74486],[-54.94495,-16.74526],[-54.94473,-16.74897],[-54.94416,-16.7514],[-54.94288,-16.75262],[-54.94123,-16.75304],[-54.93815,-16.75324],[-54.93581,-16.75283],[-54.93545,-16.75404],[-54.93655,-16.75816],[-54.93632,-16.75978],[-54.93518,-16.76146],[-54.93274,-16.76247],[-54.93322,-16.76349],[-54.93514,-16.76505],[-54.93625,-16.76648],[-54.93777,-16.76907],[-54.93909,-16.77203],[-54.93924,-16.77382],[-54.93581,-16.77527],[-54.93265,-16.77524],[-54.92991,-16.77501],[-54.92767,-16.77417],[-54.92565,-16.77266],[-54.92406,-16.77069],[-54.92211,-16.76925],[-54.91777,-16.76798],[-54.91587,-16.76817],[-54.9139,-16.76862],[-54.91276,-16.76983],[-54.91295,-16.77199],[-54.91529,-16.77601],[-54.9166,-16.77859],[-54.91679,-16.78015],[-54.91615,-16.78123],[-54.91082,-16.7806],[-54.90833,-16.7786],[-54.90855,-16.77608],[-54.90626,-16.77335],[-54.90466,-16.77232],[-54.90263,-16.77203],[-54.90066,-16.77214],[-54.89946,-16.77253],[-54.8984,-16.77347],[-54.89747,-16.77508],[-54.89794,-16.77705],[-54.89919,-16.77835],[-54.90071,-16.78039],[-54.90238,-16.78183],[-54.90642,-16.78444],[-54.90761,-16.7854],[-54.9088,-16.78582],[-54.91082,-16.78717],[-54.91132,-16.78816],[-54.90812,-16.78947],[-54.90629,-16.78992],[-54.90418,-16.79078],[-54.90219,-16.79218],[-54.90183,-16.79339],[-54.90201,-16.79651],[-54.90262,-16.79787],[-54.90261,-16.79922],[-54.90162,-16.79989],[-54.89945,-16.79905],[-54.89728,-16.79849],[-54.89587,-16.79861],[-54.89517,-16.79914],[-54.89513,-16.80212],[-54.89601,-16.80558],[-54.89611,-16.80923],[-54.89854,-16.81196],[-54.90042,-16.81334],[-54.9025,-16.81512],[-54.90337,-16.81629],[-54.90298,-16.81797],[-54.9016,-16.8188],[-54.89559,-16.82018],[-54.89446,-16.82065],[-54.89395,-16.82185],[-54.89405,-16.82342],[-54.89691,-16.82525],[-54.89827,-16.82646],[-54.90062,-16.82817],[-54.9011,-16.82962],[-54.90096,-16.83154],[-54.90006,-16.83334],[-54.89905,-16.83477],[-54.89616,-16.83655],[-54.89304,-16.83615],[-54.88692,-16.83597],[-54.88542,-16.83644],[-54.88503,-16.83775],[-54.88589,-16.83885],[-54.88775,-16.84055],[-54.89134,-16.84311],[-54.89295,-16.84409],[-54.89435,-16.84611],[-54.89628,-16.84797],[-54.90035,-16.85234],[-54.90232,-16.85525],[-54.90354,-16.85767],[-54.90377,-16.85983],[-54.90337,-16.86224],[-54.90222,-16.86427],[-54.90058,-16.86582],[-54.8987,-16.86676],[-54.89668,-16.8683],[-54.89676,-16.87083],[-54.89476,-16.87249],[-54.89536,-16.87442],[-54.89723,-16.87504],[-54.90133,-16.87677],[-54.90308,-16.87654],[-54.90783,-16.87683],[-54.91083,-16.87626],[-54.9137,-16.87641],[-54.91644,-16.87692],[-54.91905,-16.87887],[-54.92032,-16.88068],[-54.92504,-16.89084],[-54.92703,-16.8956],[-54.92783,-16.8982],[-54.92974,-16.89945],[-54.93188,-16.90209],[-54.93217,-16.90423],[-54.93103,-16.90481],[-54.92839,-16.90434],[-54.92413,-16.90502],[-54.92126,-16.90523],[-54.91962,-16.9063],[-54.92025,-16.90816],[-54.9226,-16.91187],[-54.92453,-16.91209],[-54.92546,-16.91401],[-54.92582,-16.91666],[-54.92767,-16.91908],[-54.92908,-16.92131],[-54.93015,-16.92391],[-54.93127,-16.9259],[-54.93113,-16.92794],[-54.92874,-16.92843],[-54.92667,-16.92922],[-54.92453,-16.92693],[-54.9231,-16.92479],[-54.92167,-16.92151],[-54.91875,-16.92015],[-54.91618,-16.92087],[-54.91561,-16.92287],[-54.91654,-16.92686],[-54.91889,-16.929],[-54.91835,-16.93465],[-54.91725,-16.93736],[-54.91796,-16.94028],[-54.92125,-16.94],[-54.92382,-16.94043],[-54.92684,-16.94269],[-54.92657,-16.9451],[-54.92505,-16.947],[-54.9249,-16.94869],[-54.92538,-16.95062],[-54.92799,-16.95233],[-54.92972,-16.95391],[-54.9324,-16.95579],[-54.93213,-16.95771],[-54.92967,-16.9592],[-54.9271,-16.95977],[-54.92379,-16.95902],[-54.92167,-16.959],[-54.91953,-16.95994],[-54.91828,-16.96016],[-54.91726,-16.96208],[-54.91661,-16.96486],[-54.91674,-16.96752],[-54.91554,-16.96755],[-54.91136,-16.96466],[-54.90899,-16.96392],[-54.9074,-16.96479],[-54.90611,-16.96636],[-54.90669,-16.96834],[-54.90928,-16.97198],[-54.91163,-16.97393],[-54.91448,-16.976],[-54.91739,-16.97747],[-54.92589,-16.9799],[-54.92789,-16.97912],[-54.92853,-16.98146],[-54.9275,-16.98515],[-54.92742,-16.99285],[-54.92864,-16.99539],[-54.93335,-16.9988],[-54.93356,-17.00217],[-54.93278,-17.00541],[-54.9331,-17.00953],[-54.93257,-17.01299],[-54.93253,-17.01566],[-54.93088,-17.01609],[-54.92853,-17.01547],[-54.9256,-17.01688],[-54.92382,-17.01645],[-54.92146,-17.01659],[-54.91904,-17.0161],[-54.91678,-17.01667],[-54.91353,-17.0164],[-54.9093,-17.01515],[-54.90797,-17.01492],[-54.90642,-17.01548],[-54.90497,-17.01559],[-54.90483,-17.01773],[-54.90419,-17.0198],[-54.90333,-17.02077],[-54.90294,-17.02261],[-54.9054,-17.0238],[-54.90683,-17.02373],[-54.90945,-17.02393],[-54.91225,-17.02673],[-54.91347,-17.02673],[-54.91425,-17.02759],[-54.91318,-17.03158],[-54.91247,-17.0318],[-54.91061,-17.03308],[-54.91032,-17.03558],[-54.9124,-17.0392],[-54.91625,-17.04248],[-54.91697,-17.04619],[-54.91789,-17.04933],[-54.92032,-17.05247],[-54.92196,-17.05661],[-54.92184,-17.05812],[-54.92089,-17.0594],[-54.91768,-17.05983],[-54.91604,-17.0599],[-54.91547,-17.06125],[-54.9177,-17.06395],[-54.91797,-17.06554],[-54.91756,-17.06732],[-54.91661,-17.06868],[-54.91484,-17.06922],[-54.91494,-17.07037],[-54.9169,-17.07103],[-54.9169,-17.07203],[-54.91368,-17.07546],[-54.91171,-17.07636],[-54.90928,-17.07694],[-54.90704,-17.07675],[-54.9053,-17.0771],[-54.90369,-17.07675],[-54.90226,-17.07549],[-54.90176,-17.07375],[-54.8998,-17.07239],[-54.89662,-17.0727],[-54.8951,-17.07416],[-54.89033,-17.07262],[-54.8893,-17.07255],[-54.88712,-17.07297],[-54.88401,-17.0733],[-54.88174,-17.07429],[-54.87649,-17.07609],[-54.87249,-17.07688],[-54.86836,-17.07728],[-54.86497,-17.07708],[-54.86078,-17.07529],[-54.85894,-17.07478],[-54.85522,-17.07431],[-54.85382,-17.07367],[-54.8513,-17.07205],[-54.84909,-17.07128],[-54.84683,-17.07101],[-54.84316,-17.07158],[-54.8417,-17.0723],[-54.84122,-17.07289],[-54.7269,-17.04082]]]},"properties":{"codigo":"510760205","name":"Rondonópolis","population":196850,"households":85179,"areaKm2":2740.6637,"density":71.8}},{"type":"Feature","geometry":{"type":"Polygon","coordinates":[[[-54.58248,-17.07834],[-54.58346,-17.0013],[-54.58422,-16.94227],[-54.58658,-16.75647],[-54.58815,-16.75562],[-54.59007,-16.75385],[-54.59148,-16.75139],[-54.59317,-16.744],[-54.59347,-16.74116],[-54.5941,-16.7384],[-54.59509,-16.73631],[-54.59598,-16.73344],[-54.59646,-16.73262],[-54.59786,-16.73133],[-54.59851,-16.73034],[-54.59819,-16.72917],[-54.59826,-16.7273],[-54.59802,-16.72519],[-54.59707,-16.72323],[-54.59682,-16.72206],[-54.596,-16.72086],[-54.59238,-16.71763],[-54.59091,-16.71572],[-54.59025,-16.71409],[-54.59015,-16.71209],[-54.59277,-16.70873],[-54.59575,-16.70628],[-54.59722,-16.70559],[-54.59879,-16.70535],[-54.59928,-16.70482],[-54.59916,-16.70304],[-54.59975,-16.70351],[-54.60314,-16.70531],[-54.60514,-16.70584],[-54.60655,-16.70655],[-54.61133,-16.70807],[-54.61455,-16.71004],[-54.61569,-16.7113],[-54.62352,-16.71759],[-54.62483,-16.71903],[-54.62616,-16.7212],[-54.62683,-16.72282],[-54.62797,-16.72445],[-54.62695,-16.72599],[-54.62535,-16.727],[-54.62416,-16.73018],[-54.62277,-16.7348],[-54.62139,-16.73617],[-54.61997,-16.7369],[-54.61985,-16.74307],[-54.6314,-16.73928],[-54.63324,-16.73872],[-54.63495,-16.73794],[-54.63624,-16.73698],[-54.63767,-16.73502],[-54.63806,-16.73415],[-54.63847,-16.73167],[-54.63733,-16.72322],[-54.63916,-16.71165],[-54.63916,-16.71121],[-54.64215,-16.69256],[-54.64294,-16.68694],[-54.64547,-16.68396],[-54.64636,-16.68312],[-54.65522,-16.67293],[-54.66173,-16.66463],[-54.66409,-16.66183],[-54.66393,-16.66098],[-54.66567,-16.65996],[-54.67204,-16.65142],[-54.67296,-16.65061],[-54.70318,-16.62633],[-54.70559,-16.62448],[-54.70392,-16.62945],[-54.7038,-16.63021],[-54.7005,-16.63989],[-54.70015,-16.64052],[-54.70097,-16.64261],[-54.7038,-16.64659],[-54.70402,-16.6471],[-54.70473,-16.65267],[-54.70535,-16.65914],[-54.70779,-16.68171],[-54.70928,-16.69633],[-54.71046,-16.69737],[-54.72375,-16.6976],[-54.7326,-16.69784],[-54.73516,-16.69906],[-54.74191,-16.70204],[-54.74311,-16.70303],[-54.74393,-16.70465],[-54.74795,-16.70838],[-54.75016,-16.71015],[-54.74936,-16.71208],[-54.74747,-16.71491],[-54.74663,-16.71708],[-54.7459,-16.71834],[-54.74498,-16.71851],[-54.74235,-16.71817],[-54.74092,-16.71736],[-54.74007,-16.71741],[-54.73804,-16.71897],[-54.73816,-16.72001],[-54.73467,-16.72175],[-54.73257,-16.72214],[-54.73248,-16.72359],[-54.73344,-16.72455],[-54.73333,-16.72665],[-54.734,-16.72713],[-54.73278,-16.73018],[-54.73291,-16.73113],[-54.73208,-16.73269],[-54.7307,-16.7346],[-54.73082,-16.73505],[-54.72881,-16.74028],[-54.72936,-16.74106],[-54.72908,-16.74223],[-54.72756,-16.7427],[-54.72853,-16.74411],[-54.72841,-16.7447],[-54.72641,-16.74544],[-54.72465,-16.74501],[-54.72325,-16.74626],[-54.72427,-16.74668],[-54.7239,-16.74752],[-54.7227,-16.7476],[-54.72207,-16.74827],[-54.723,-16.74932],[-54.72198,-16.75146],[-54.72139,-16.75213],[-54.72081,-16.75457],[-54.72155,-16.7553],[-54.72112,-16.75616],[-54.71962,-16.75713],[-54.71969,-16.75833],[-54.7193,-16.7592],[-54.7199,-16.75968],[-54.71956,-16.76123],[-54.71826,-16.76168],[-54.71839,-16.76344],[-54.71874,-16.76405],[-54.71981,-16.76431],[-54.71991,-16.76557],[-54.72074,-16.76534],[-54.72104,-16.7677],[-54.72211,-16.77042],[-54.72294,-16.77057],[-54.72243,-16.77184],[-54.7231,-16.77394],[-54.72428,-16.77516],[-54.72475,-16.77639],[-54.72541,-16.77606],[-54.72624,-16.77685],[-54.72642,-16.77995],[-54.72707,-16.78024],[-54.72709,-16.78215],[-54.72756,-16.7827],[-54.72723,-16.78391],[-54.72803,-16.78492],[-54.72767,-16.78756],[-54.72816,-16.78818],[-54.72858,-16.7903],[-54.72855,-16.79156],[-54.72797,-16.79174],[-54.72912,-16.79523],[-54.73065,-16.79655],[-54.72959,-16.79748],[-54.72924,-16.80095],[-54.73077,-16.80106],[-54.73109,-16.80255],[-54.73239,-16.80524],[-54.73222,-16.80567],[-54.7334,-16.8067],[-54.7332,-16.80732],[-54.73578,-16.80944],[-54.73688,-16.81153],[-54.7372,-16.81309],[-54.73876,-16.81278],[-54.73945,-16.81326],[-54.73829,-16.81407],[-54.74089,-16.81525],[-54.74275,-16.81567],[-54.74402,-16.81533],[-54.74573,-16.81558],[-54.74684,-16.81623],[-54.74761,-16.81749],[-54.74994,-16.8183],[-54.75176,-16.8195],[-54.75244,-16.81937],[-54.75362,-16.82073],[-54.75423,-16.82102],[-54.75541,-16.82241],[-54.75592,-16.82341],[-54.75722,-16.82387],[-54.75774,-16.82449],[-54.75751,-16.82571],[-54.75787,-16.82638],[-54.75549,-16.82743],[-54.75406,-16.82906],[-54.75315,-16.82929],[-54.7535,-16.83034],[-54.75328,-16.83184],[-54.75415,-16.83302],[-54.75548,-16.83328],[-54.75669,-16.83314],[-54.75724,-16.83401],[-54.75914,-16.83355],[-54.76122,-16.83415],[-54.76162,-16.83628],[-54.76264,-16.83596],[-54.76325,-16.83662],[-54.76457,-16.83661],[-54.76502,-16.83705],[-54.76496,-16.83822],[-54.76785,-16.83751],[-54.77028,-16.8381],[-54.77299,-16.83464],[-54.77376,-16.83461],[-54.77504,-16.83375],[-54.77597,-16.83382],[-54.77717,-16.83333],[-54.77672,-16.83251],[-54.7797,-16.83131],[-54.78052,-16.83029],[-54.78127,-16.83002],[-54.78189,-16.83076],[-54.7828,-16.83075],[-54.78436,-16.83178],[-54.78561,-16.83403],[-54.78749,-16.83558],[-54.78777,-16.83699],[-54.7896,-16.83753],[-54.79086,-16.83872],[-54.79251,-16.83928],[-54.79349,-16.84067],[-54.79547,-16.84133],[-54.7974,-16.84069],[-54.79835,-16.84121],[-54.79935,-16.84253],[-54.80234,-16.84434],[-54.80364,-16.84584],[-54.80443,-16.84639],[-54.80732,-16.84753],[-54.80856,-16.84945],[-54.80889,-16.85117],[-54.81045,-16.85162],[-54.81113,-16.85275],[-54.81213,-16.85266],[-54.81384,-16.85498],[-54.81495,-16.85611],[-54.81488,-16.85811],[-54.8143,-16.85857],[-54.81396,-16.86057],[-54.81489,-16.86269],[-54.8168,-16.86493],[-54.81645,-16.86635],[-54.81824,-16.86769],[-54.81956,-16.8679],[-54.82178,-16.8677],[-54.82372,-16.8697],[-54.82402,-16.87106],[-54.82527,-16.87305],[-54.82575,-16.87424],[-54.82766,-16.87587],[-54.82754,-16.87707],[-54.82697,-16.87786],[-54.82771,-16.87916],[-54.82761,-16.88023],[-54.82827,-16.88109],[-54.83083,-16.8817],[-54.83191,-16.88231],[-54.83363,-16.88411],[-54.83527,-16.88983],[-54.83701,-16.89164],[-54.83775,-16.89183],[-54.8387,-16.89287],[-54.83935,-16.89472],[-54.83837,-16.89837],[-54.83683,-16.89932],[-54.83619,-16.90136],[-54.83671,-16.90378],[-54.83642,-16.90708],[-54.83642,-16.90995],[-54.83556,-16.91291],[-54.83583,-16.91429],[-54.83346,-16.91792],[-54.83342,-16.91931],[-54.83404,-16.92086],[-54.83494,-16.9215],[-54.83596,-16.92416],[-54.83703,-16.9264],[-54.838,-16.92924],[-54.83837,-16.93324],[-54.83973,-16.93428],[-54.83936,-16.93637],[-54.83977,-16.94068],[-54.8396,-16.94171],[-54.84055,-16.94202],[-54.84131,-16.94314],[-54.84191,-16.94498],[-54.8406,-16.94593],[-54.83908,-16.94605],[-54.83778,-16.94572],[-54.83706,-16.94701],[-54.83518,-16.9491],[-54.83383,-16.95177],[-54.83375,-16.95345],[-54.83506,-16.95599],[-54.83447,-16.95623],[-54.83543,-16.95794],[-54.834,-16.95928],[-54.83379,-16.96151],[-54.83498,-16.96263],[-54.83593,-16.96287],[-54.83468,-16.96451],[-54.83319,-16.9638],[-54.83328,-16.96324],[-54.83075,-16.96371],[-54.82983,-16.96588],[-54.82898,-16.96666],[-54.82773,-16.96683],[-54.82757,-16.96758],[-54.82812,-16.96933],[-54.82673,-16.97031],[-54.82602,-16.97006],[-54.8254,-16.97114],[-54.82702,-16.972],[-54.82617,-16.97257],[-54.82613,-16.97376],[-54.82729,-16.9748],[-54.82723,-16.97595],[-54.82625,-16.97736],[-54.82778,-16.97843],[-54.82742,-16.97922],[-54.82808,-16.9804],[-54.82732,-16.98109],[-54.82828,-16.98164],[-54.82873,-16.98267],[-54.82682,-16.98215],[-54.82705,-16.98326],[-54.82581,-16.98336],[-54.8263,-16.98442],[-54.82464,-16.98575],[-54.82502,-16.98677],[-54.82555,-16.98984],[-54.82529,-16.99081],[-54.82377,-16.99151],[-54.82255,-16.99126],[-54.82293,-16.99287],[-54.82228,-16.99288],[-54.82245,-16.99457],[-54.82146,-16.99614],[-54.82225,-16.99731],[-54.82152,-16.99804],[-54.82141,-16.99973],[-54.82063,-17.00147],[-54.81973,-17.00122],[-54.81816,-17.00177],[-54.81877,-17.00268],[-54.81839,-17.00386],[-54.81744,-17.00394],[-54.81788,-17.00609],[-54.81697,-17.00678],[-54.81627,-17.0084],[-54.81491,-17.00936],[-54.8146,-17.01159],[-54.81538,-17.01245],[-54.81345,-17.0141],[-54.81298,-17.01309],[-54.81163,-17.01273],[-54.81143,-17.01363],[-54.81045,-17.0149],[-54.80879,-17.01472],[-54.80786,-17.01592],[-54.80581,-17.01607],[-54.80598,-17.01554],[-54.8072,-17.01517],[-54.80595,-17.01394],[-54.80451,-17.0135],[-54.80455,-17.01442],[-54.80254,-17.01429],[-54.80198,-17.01529],[-54.80129,-17.01466],[-54.80046,-17.01488],[-54.79945,-17.01428],[-54.79869,-17.01532],[-54.79708,-17.01478],[-54.79511,-17.01465],[-54.79376,-17.01578],[-54.79309,-17.01494],[-54.7923,-17.01481],[-54.79195,-17.01609],[-54.78967,-17.01694],[-54.78936,-17.01848],[-54.78867,-17.01967],[-54.78704,-17.0189],[-54.78597,-17.01965],[-54.78523,-17.01895],[-54.78409,-17.01946],[-54.78388,-17.0205],[-54.78257,-17.02015],[-54.78218,-17.02066],[-54.78079,-17.02044],[-54.77946,-17.02095],[-54.777,-17.02042],[-54.77564,-17.02221],[-54.7739,-17.02165],[-54.77299,-17.022],[-54.77171,-17.021],[-54.76967,-17.02216],[-54.76794,-17.02191],[-54.76609,-17.02061],[-54.7665,-17.01958],[-54.76469,-17.01978],[-54.76337,-17.01943],[-54.76251,-17.01981],[-54.75951,-17.01892],[-54.75884,-17.02051],[-54.7576,-17.01988],[-54.75459,-17.02212],[-54.75369,-17.02296],[-54.75259,-17.02306],[-54.75108,-17.02388],[-54.74908,-17.02632],[-54.74834,-17.0279],[-54.74711,-17.02969],[-54.74727,-17.03052],[-54.74668,-17.03105],[-54.74462,-17.03029],[-54.7431,-17.03067],[-54.74245,-17.03262],[-54.74109,-17.0333],[-54.73857,-17.03292],[-54.73928,-17.03431],[-54.73858,-17.03541],[-54.73784,-17.03568],[-54.7373,-17.037],[-54.73524,-17.03666],[-54.73406,-17.03807],[-54.7288,-17.03834],[-54.72799,-17.03943],[-54.72713,-17.03988],[-54.7269,-17.04082],[-54.72554,-17.04082],[-54.72409,-17.04003],[-54.72266,-17.04071],[-54.72202,-17.0422],[-54.72078,-17.04367],[-54.72016,-17.04525],[-54.71774,-17.04732],[-54.71692,-17.04854],[-54.71624,-17.0505],[-54.71655,-17.05287],[-54.71643,-17.05395],[-54.71563,-17.05512],[-54.7147,-17.0559],[-54.71264,-17.05685],[-54.71211,-17.05757],[-54.71104,-17.05809],[-54.71001,-17.0598],[-54.70849,-17.06055],[-54.70765,-17.06144],[-54.70715,-17.06256],[-54.70448,-17.06415],[-54.70396,-17.06623],[-54.70349,-17.06684],[-54.70119,-17.06748],[-54.7002,-17.06804],[-54.69978,-17.06934],[-54.69856,-17.06982],[-54.69779,-17.07074],[-54.69809,-17.07178],[-54.69758,-17.07268],[-54.6976,-17.07369],[-54.69643,-17.07522],[-54.69383,-17.07686],[-54.69264,-17.07812],[-54.69183,-17.08007],[-54.69012,-17.08112],[-54.68867,-17.0829],[-54.68684,-17.08262],[-54.68482,-17.08324],[-54.68293,-17.08285],[-54.68181,-17.08338],[-54.68118,-17.08475],[-54.67898,-17.08559],[-54.67795,-17.08664],[-54.67666,-17.08897],[-54.67484,-17.09011],[-54.6729,-17.09248],[-54.66968,-17.09373],[-54.66796,-17.0955],[-54.66681,-17.0963],[-54.66502,-17.0965],[-54.66303,-17.09758],[-54.65934,-17.09787],[-54.65623,-17.09782],[-54.65495,-17.09814],[-54.65184,-17.09945],[-54.64884,-17.10023],[-54.64573,-17.1004],[-54.64399,-17.09985],[-54.64205,-17.09884],[-54.63823,-17.09786],[-54.63477,-17.09581],[-54.63083,-17.09452],[-54.62948,-17.09366],[-54.62673,-17.09146],[-54.62337,-17.09003],[-54.62195,-17.08994],[-54.61972,-17.0903],[-54.61711,-17.08976],[-54.6152,-17.08994],[-54.61397,-17.08967],[-54.61197,-17.08872],[-54.60893,-17.08834],[-54.60772,-17.08767],[-54.6062,-17.08737],[-54.60412,-17.08623],[-54.60142,-17.08566],[-54.60019,-17.0849],[-54.59895,-17.08464],[-54.59715,-17.08475],[-54.59481,-17.08376],[-54.59235,-17.08372],[-54.59056,-17.08332],[-54.58968,-17.08283],[-54.58758,-17.08054],[-54.58578,-17.07939],[-54.58248,-17.07834]]]},"properties":{"codigo":"510760210","name":"Anhumas","population":407,"households":264,"areaKm2":893.6869,"density":0.5}},{"type":"Feature","geometry":{"type":"Polygon","coordinates":[[[-54.18944,-16.62801],[-54.19166,-16.62733],[-54.19382,-16.62608],[-54.19577,-16.62465],[-54.19724,-16.62396],[-54.19961,-16.6234],[-54.20196,-16.62247],[-54.20364,-16.62139],[-54.20709,-16.62024],[-54.20848,-16.62048],[-54.20995,-16.62124],[-54.21133,-16.62095],[-54.21715,-16.62074],[-54.21848,-16.62047],[-54.22155,-16.61846],[-54.22331,-16.61763],[-54.2254,-16.6163],[-54.22827,-16.61506],[-54.2294,-16.61437],[-54.23056,-16.6132],[-54.23113,-16.61148],[-54.23116,-16.6087],[-54.23157,-16.60719],[-54.23137,-16.60554],[-54.23037,-16.60375],[-54.23158,-16.60105],[-54.23292,-16.60052],[-54.235,-16.60106],[-54.23699,-16.60033],[-54.2401,-16.59867],[-54.24348,-16.59822],[-54.24471,-16.59784],[-54.24575,-16.5971],[-54.24666,-16.5956],[-54.24738,-16.59271],[-54.24844,-16.5915],[-54.24941,-16.59119],[-54.25261,-16.59124],[-54.25389,-16.59074],[-54.2551,-16.58968],[-54.25681,-16.58864],[-54.25798,-16.58713],[-54.25918,-16.58477],[-54.26101,-16.58294],[-54.26239,-16.58131],[-54.26417,-16.58022],[-54.26589,-16.58035],[-54.26661,-16.58097],[-54.26877,-16.58156],[-54.26958,-16.58235],[-54.27103,-16.58269],[-54.27193,-16.58391],[-54.27414,-16.5847],[-54.27451,-16.58327],[-54.2755,-16.58316],[-54.27647,-16.58386],[-54.27792,-16.58375],[-54.27929,-16.58442],[-54.27999,-16.58603],[-54.28086,-16.58713],[-54.28217,-16.58709],[-54.28355,-16.58787],[-54.28481,-16.58757],[-54.28598,-16.58829],[-54.2878,-16.58802],[-54.28965,-16.58744],[-54.29047,-16.58765],[-54.2915,-16.5862],[-54.29223,-16.58629],[-54.29253,-16.58538],[-54.29224,-16.5841],[-54.29277,-16.58325],[-54.29283,-16.5815],[-54.29405,-16.58157],[-54.29454,-16.58066],[-54.29398,-16.57954],[-54.29491,-16.57794],[-54.29653,-16.57848],[-54.29679,-16.57754],[-54.29777,-16.57763],[-54.29812,-16.57878],[-54.29897,-16.57937],[-54.29977,-16.57923],[-54.30114,-16.57983],[-54.30258,-16.57981],[-54.30331,-16.58088],[-54.30323,-16.58208],[-54.3038,-16.58327],[-54.30406,-16.5856],[-54.30384,-16.58674],[-54.30453,-16.58717],[-54.3058,-16.58708],[-54.30637,-16.58769],[-54.30645,-16.58903],[-54.30694,-16.58981],[-54.30782,-16.58963],[-54.30835,-16.59197],[-54.30885,-16.59241],[-54.3103,-16.59263],[-54.31112,-16.59424],[-54.31282,-16.59547],[-54.31389,-16.5969],[-54.31676,-16.5962],[-54.31783,-16.59476],[-54.31798,-16.59383],[-54.31696,-16.59191],[-54.31712,-16.58845],[-54.3178,-16.58827],[-54.3194,-16.58917],[-54.32071,-16.58882],[-54.32205,-16.589],[-54.32367,-16.5887],[-54.32433,-16.58768],[-54.32405,-16.58641],[-54.32342,-16.58555],[-54.32338,-16.58461],[-54.32181,-16.5839],[-54.32201,-16.58198],[-54.32354,-16.58037],[-54.32481,-16.58043],[-54.32588,-16.57991],[-54.32779,-16.57987],[-54.32876,-16.5807],[-54.32987,-16.58087],[-54.33038,-16.58149],[-54.3313,-16.58062],[-54.33223,-16.58049],[-54.33451,-16.57937],[-54.33436,-16.57866],[-54.3355,-16.57756],[-54.33714,-16.57792],[-54.33631,-16.57602],[-54.33653,-16.57428],[-54.33536,-16.57326],[-54.33425,-16.57317],[-54.33451,-16.57174],[-54.33279,-16.57011],[-54.33322,-16.56919],[-54.33454,-16.56918],[-54.3343,-16.56789],[-54.33668,-16.56744],[-54.33749,-16.56654],[-54.33823,-16.56646],[-54.33898,-16.56717],[-54.33968,-16.5661],[-54.34188,-16.56544],[-54.34107,-16.56375],[-54.34145,-16.5626],[-54.34067,-16.56154],[-54.34076,-16.55973],[-54.34012,-16.55867],[-54.34165,-16.55621],[-54.34132,-16.55526],[-54.34253,-16.55342],[-54.34196,-16.55144],[-54.34224,-16.55071],[-54.34362,-16.54981],[-54.34454,-16.54798],[-54.34503,-16.54754],[-54.34645,-16.54738],[-54.34832,-16.5468],[-54.34905,-16.54733],[-54.35145,-16.54608],[-54.35031,-16.54483],[-54.35025,-16.54407],[-54.35119,-16.54378],[-54.35247,-16.54265],[-54.35327,-16.54233],[-54.35356,-16.54145],[-54.35295,-16.54069],[-54.35215,-16.54052],[-54.35212,-16.53938],[-54.35292,-16.53916],[-54.35466,-16.53942],[-54.35591,-16.53925],[-54.35741,-16.54099],[-54.35829,-16.5417],[-54.35968,-16.54219],[-54.36134,-16.54209],[-54.36591,-16.54014],[-54.36815,-16.53876],[-54.36936,-16.53712],[-54.36999,-16.53559],[-54.37003,-16.53439],[-54.36834,-16.53202],[-54.36779,-16.52837],[-54.36853,-16.52704],[-54.37243,-16.52329],[-54.37346,-16.52255],[-54.37539,-16.52217],[-54.37781,-16.52255],[-54.38173,-16.52488],[-54.38261,-16.52523],[-54.38294,-16.52569],[-54.38931,-16.5291],[-54.39285,-16.53373],[-54.39706,-16.53343],[-54.39905,-16.53345],[-54.40002,-16.53401],[-54.40044,-16.53531],[-54.40157,-16.5363],[-54.40415,-16.53737],[-54.406,-16.53891],[-54.40792,-16.53879],[-54.41311,-16.54055],[-54.41595,-16.53924],[-54.41694,-16.53907],[-54.41772,-16.53974],[-54.41797,-16.54191],[-54.41899,-16.54626],[-54.4204,-16.55176],[-54.42109,-16.55328],[-54.42263,-16.55402],[-54.42411,-16.55334],[-54.42554,-16.55404],[-54.42697,-16.55617],[-54.42937,-16.55567],[-54.43061,-16.55212],[-54.43112,-16.55007],[-54.43109,-16.54905],[-54.43179,-16.54446],[-54.43195,-16.54001],[-54.4327,-16.5356],[-54.43365,-16.53216],[-54.43613,-16.52893],[-54.44068,-16.52711],[-54.44183,-16.52578],[-54.44452,-16.52487],[-54.4478,-16.52606],[-54.45069,-16.52745],[-54.4542,-16.53075],[-54.45623,-16.53037],[-54.45715,-16.5294],[-54.45719,-16.52826],[-54.45623,-16.52641],[-54.45675,-16.52413],[-54.45632,-16.52352],[-54.45422,-16.5233],[-54.45421,-16.5223],[-54.45559,-16.52138],[-54.45798,-16.52124],[-54.46016,-16.52209],[-54.46204,-16.52329],[-54.46307,-16.52439],[-54.46314,-16.52507],[-54.46192,-16.52638],[-54.46033,-16.52654],[-54.45983,-16.52719],[-54.46077,-16.52836],[-54.46118,-16.52952],[-54.46215,-16.53021],[-54.46342,-16.53007],[-54.46441,-16.52933],[-54.46512,-16.52499],[-54.46547,-16.51965],[-54.46662,-16.51874],[-54.47307,-16.51785],[-54.47486,-16.51731],[-54.47641,-16.5165],[-54.47768,-16.51522],[-54.48044,-16.51204],[-54.48112,-16.51206],[-54.48266,-16.51357],[-54.48413,-16.51471],[-54.48547,-16.51751],[-54.48806,-16.51789],[-54.48919,-16.51721],[-54.49149,-16.51309],[-54.49409,-16.50874],[-54.4971,-16.50613],[-54.50009,-16.50427],[-54.50227,-16.50355],[-54.5059,-16.50279],[-54.50709,-16.50197],[-54.50787,-16.50024],[-54.50819,-16.49861],[-54.50815,-16.49417],[-54.50878,-16.49308],[-54.50989,-16.49241],[-54.51268,-16.49172],[-54.51807,-16.49113],[-54.51917,-16.48894],[-54.52024,-16.48732],[-54.52526,-16.48816],[-54.52858,-16.48667],[-54.53479,-16.48435],[-54.53834,-16.48143],[-54.54116,-16.47964],[-54.54256,-16.47921],[-54.54428,-16.47952],[-54.54814,-16.48055],[-54.55551,-16.48138],[-54.55913,-16.48172],[-54.56095,-16.48246],[-54.56303,-16.48373],[-54.56468,-16.4844],[-54.56678,-16.48559],[-54.56814,-16.48678],[-54.56956,-16.48881],[-54.57051,-16.49065],[-54.57056,-16.4919],[-54.56896,-16.50074],[-54.57171,-16.50476],[-54.5752,-16.50863],[-54.57629,-16.5089],[-54.57873,-16.50849],[-54.5821,-16.50765],[-54.58556,-16.5063],[-54.58959,-16.50414],[-54.59365,-16.5014],[-54.59687,-16.50182],[-54.60061,-16.50188],[-54.6011,-16.50303],[-54.6026,-16.50461],[-54.60258,-16.50649],[-54.60217,-16.50711],[-54.60101,-16.50766],[-54.59908,-16.50684],[-54.59674,-16.50672],[-54.59581,-16.50717],[-54.59529,-16.50832],[-54.59516,-16.51002],[-54.59572,-16.51237],[-54.59634,-16.51681],[-54.59601,-16.51806],[-54.59515,-16.51938],[-54.59304,-16.52074],[-54.59066,-16.52093],[-54.58982,-16.52321],[-54.58886,-16.52343],[-54.58686,-16.52446],[-54.58319,-16.52758],[-54.58187,-16.52801],[-54.57809,-16.52817],[-54.57738,-16.52848],[-54.5742,-16.53151],[-54.57453,-16.5352],[-54.57385,-16.53579],[-54.57152,-16.53568],[-54.57074,-16.53617],[-54.57019,-16.53729],[-54.57055,-16.5391],[-54.57121,-16.54079],[-54.571,-16.54291],[-54.5718,-16.54608],[-54.5717,-16.54725],[-54.56964,-16.54862],[-54.56862,-16.55],[-54.56874,-16.55258],[-54.56812,-16.5543],[-54.5666,-16.55576],[-54.5648,-16.55548],[-54.56394,-16.55251],[-54.56197,-16.54901],[-54.5609,-16.54777],[-54.55764,-16.54908],[-54.5556,-16.54958],[-54.55333,-16.5495],[-54.55203,-16.54815],[-54.55158,-16.54592],[-54.54976,-16.54562],[-54.54771,-16.54655],[-54.54559,-16.54699],[-54.5443,-16.54838],[-54.54282,-16.54922],[-54.54233,-16.55],[-54.54295,-16.55094],[-54.54454,-16.55253],[-54.54679,-16.5551],[-54.54627,-16.55887],[-54.5454,-16.55993],[-54.5426,-16.56014],[-54.54243,-16.56264],[-54.54088,-16.56483],[-54.53792,-16.56486],[-54.53548,-16.56555],[-54.53464,-16.56664],[-54.53476,-16.56982],[-54.53407,-16.57056],[-54.53293,-16.5702],[-54.53133,-16.56902],[-54.52889,-16.56802],[-54.52722,-16.56694],[-54.52568,-16.56669],[-54.52423,-16.5673],[-54.5223,-16.56855],[-54.52088,-16.56896],[-54.52004,-16.56866],[-54.51892,-16.56685],[-54.51768,-16.56627],[-54.51617,-16.56659],[-54.51373,-16.56799],[-54.51226,-16.56776],[-54.51114,-16.56674],[-54.50982,-16.5663],[-54.50849,-16.5654],[-54.50795,-16.56462],[-54.50678,-16.56202],[-54.50502,-16.56002],[-54.50139,-16.55703],[-54.50008,-16.55652],[-54.49879,-16.55755],[-54.49731,-16.55945],[-54.49674,-16.56114],[-54.49726,-16.56304],[-54.49837,-16.56548],[-54.49818,-16.56606],[-54.49624,-16.56696],[-54.49462,-16.56726],[-54.49168,-16.56713],[-54.4905,-16.56749],[-54.48969,-16.56868],[-54.48883,-16.57085],[-54.48775,-16.57203],[-54.48553,-16.57338],[-54.48445,-16.57473],[-54.45295,-16.55967],[-54.38999,-16.58408],[-54.34335,-16.60216],[-54.30665,-16.61639],[-54.2774,-16.62774],[-54.22901,-16.6465],[-54.19532,-16.65956],[-54.195,-16.65952],[-54.18944,-16.62801]]]},"properties":{"codigo":"510760215","name":"Nova Galiléia","population":671,"households":229,"areaKm2":218.1969,"density":3.1}},{"type":"Feature","geometry":{"type":"Polygon","coordinates":[[[-54.85563,-16.27474],[-54.85338,-16.27531],[-54.85319,-16.27859],[-54.85202,-16.28145],[-54.85038,-16.28159],[-54.85036,-16.28312],[-54.84952,-16.28392],[-54.85068,-16.28449],[-54.85066,-16.28626],[-54.84842,-16.28535],[-54.84808,-16.28616],[-54.84708,-16.28713],[-54.84582,-16.28686],[-54.84377,-16.28482],[-54.84177,-16.28496],[-54.84001,-16.28591],[-54.83802,-16.28573],[-54.83509,-16.28707],[-54.83318,-16.28713],[-54.83002,-16.28653],[-54.82977,-16.28693],[-54.82983,-16.28895],[-54.82949,-16.28943],[-54.82647,-16.29213],[-54.82541,-16.29381],[-54.82328,-16.29315],[-54.82161,-16.29072],[-54.8197,-16.29058],[-54.8174,-16.2928],[-54.81467,-16.29299],[-54.81345,-16.2923],[-54.81139,-16.29233],[-54.81052,-16.29315],[-54.80777,-16.29302],[-54.80548,-16.29361],[-54.80095,-16.29809],[-54.80028,-16.30012],[-54.79944,-16.30082],[-54.79734,-16.30053],[-54.79502,-16.2997],[-54.79348,-16.29939],[-54.79208,-16.29987],[-54.78829,-16.2994],[-54.78687,-16.29995],[-54.78461,-16.29976],[-54.78337,-16.2999],[-54.78247,-16.29841],[-54.78155,-16.29862],[-54.77939,-16.29785],[-54.77867,-16.29939],[-54.77714,-16.3007],[-54.77581,-16.29999],[-54.77423,-16.30019],[-54.77313,-16.29992],[-54.77235,-16.30047],[-54.77165,-16.30018],[-54.77121,-16.29861],[-54.769,-16.29686],[-54.76752,-16.29631],[-54.76656,-16.29513],[-54.76406,-16.29287],[-54.76314,-16.29247],[-54.76049,-16.28958],[-54.75941,-16.28743],[-54.75916,-16.2865],[-54.75801,-16.28572],[-54.75626,-16.28526],[-54.75542,-16.28434],[-54.75412,-16.28478],[-54.75309,-16.28452],[-54.75145,-16.28561],[-54.75033,-16.28495],[-54.74924,-16.28684],[-54.74586,-16.28851],[-54.74497,-16.28826],[-54.74457,-16.28716],[-54.74376,-16.28658],[-54.74216,-16.28747],[-54.7408,-16.29003],[-54.738,-16.29063],[-54.73691,-16.29181],[-54.73601,-16.29216],[-54.73503,-16.2933],[-54.73331,-16.29314],[-54.72979,-16.29389],[-54.72915,-16.29628],[-54.72721,-16.29604],[-54.72591,-16.29734],[-54.72427,-16.29573],[-54.72298,-16.29383],[-54.72262,-16.29155],[-54.72056,-16.29279],[-54.71975,-16.2898],[-54.7181,-16.28922],[-54.71729,-16.2884],[-54.71609,-16.28901],[-54.71509,-16.28849],[-54.71454,-16.28749],[-54.71433,-16.28534],[-54.71265,-16.28506],[-54.7121,-16.28247],[-54.71127,-16.28239],[-54.70968,-16.28317],[-54.7097,-16.28196],[-54.71029,-16.2806],[-54.7096,-16.27906],[-54.70808,-16.27776],[-54.70634,-16.27726],[-54.70506,-16.27747],[-54.70477,-16.27644],[-54.70305,-16.27607],[-54.70195,-16.27639],[-54.70115,-16.27605],[-54.7017,-16.27483],[-54.70145,-16.27432],[-54.69969,-16.2737],[-54.69936,-16.27198],[-54.69929,-16.26905],[-54.69501,-16.26818],[-54.69435,-16.26645],[-54.69241,-16.26584],[-54.69136,-16.26373],[-54.6897,-16.26307],[-54.68855,-16.26169],[-54.68842,-16.25911],[-54.68684,-16.25885],[-54.68608,-16.25824],[-54.68587,-16.25696],[-54.68426,-16.25585],[-54.68314,-16.25576],[-54.68331,-16.25447],[-54.68285,-16.25392],[-54.68254,-16.25084],[-54.68098,-16.25037],[-54.68005,-16.24697],[-54.67625,-16.24222],[-54.67571,-16.23977],[-54.67515,-16.23858],[-54.6741,-16.23521],[-54.67238,-16.23356],[-54.67223,-16.23233],[-54.67098,-16.23193],[-54.6698,-16.23056],[-54.66782,-16.22952],[-54.66744,-16.22879],[-54.66622,-16.22822],[-54.66524,-16.22552],[-54.66036,-16.22272],[-54.6579,-16.22211],[-54.65493,-16.22355],[-54.65089,-16.2237],[-54.64832,-16.22304],[-54.64714,-16.22257],[-54.63662,-16.2058],[-54.60132,-16.14955],[-54.60331,-16.1489],[-54.60505,-16.14988],[-54.60582,-16.14987],[-54.60852,-16.14788],[-54.60931,-16.14548],[-54.61051,-16.1439],[-54.61433,-16.14263],[-54.61624,-16.14386],[-54.61759,-16.14345],[-54.61913,-16.14337],[-54.62114,-16.14481],[-54.62225,-16.14436],[-54.62514,-16.14598],[-54.62533,-16.14727],[-54.62859,-16.14943],[-54.62938,-16.14885],[-54.6324,-16.14885],[-54.6337,-16.14977],[-54.63565,-16.15003],[-54.63709,-16.15069],[-54.63843,-16.15059],[-54.64036,-16.1499],[-54.64123,-16.1501],[-54.6426,-16.15098],[-54.64306,-16.15203],[-54.64406,-16.15264],[-54.64515,-16.15227],[-54.64607,-16.15295],[-54.64806,-16.15303],[-54.65066,-16.1524],[-54.65166,-16.15327],[-54.65293,-16.15284],[-54.65316,-16.15375],[-54.65402,-16.15352],[-54.65466,-16.15515],[-54.65579,-16.15509],[-54.65725,-16.1563],[-54.65812,-16.15654],[-54.65862,-16.15854],[-54.66022,-16.15988],[-54.65983,-16.16095],[-54.66057,-16.16242],[-54.66058,-16.16311],[-54.66242,-16.16321],[-54.6631,-16.16536],[-54.66407,-16.16576],[-54.66588,-16.16749],[-54.66678,-16.16715],[-54.6669,-16.16633],[-54.66782,-16.16578],[-54.6684,-16.16661],[-54.66919,-16.16647],[-54.66958,-16.16816],[-54.6707,-16.16891],[-54.6703,-16.17033],[-54.67258,-16.17102],[-54.67294,-16.17207],[-54.67279,-16.17413],[-54.67371,-16.17427],[-54.67499,-16.17325],[-54.67915,-16.17378],[-54.68281,-16.1735],[-54.68334,-16.17377],[-54.68322,-16.17503],[-54.68446,-16.17587],[-54.68561,-16.17615],[-54.68718,-16.17474],[-54.68838,-16.17295],[-54.68911,-16.173],[-54.69032,-16.17379],[-54.69151,-16.17353],[-54.69331,-16.17443],[-54.69519,-16.17317],[-54.6971,-16.17348],[-54.69705,-16.17285],[-54.69722,-16.17168],[-54.69861,-16.17095],[-54.69951,-16.17084],[-54.70168,-16.1712],[-54.70338,-16.17106],[-54.70384,-16.17209],[-54.70676,-16.17198],[-54.70656,-16.16874],[-54.70709,-16.16775],[-54.70866,-16.16677],[-54.71041,-16.16642],[-54.71196,-16.16565],[-54.71315,-16.16594],[-54.71475,-16.16548],[-54.71662,-16.16652],[-54.71732,-16.16598],[-54.71938,-16.16585],[-54.72049,-16.16713],[-54.72105,-16.16828],[-54.7233,-16.16833],[-54.72356,-16.1673],[-54.72446,-16.16711],[-54.7256,-16.16814],[-54.72561,-16.16888],[-54.7247,-16.17071],[-54.72474,-16.17153],[-54.72566,-16.17163],[-54.72669,-16.17074],[-54.72758,-16.17065],[-54.72786,-16.17254],[-54.72919,-16.17376],[-54.73059,-16.17406],[-54.73091,-16.17505],[-54.73403,-16.17712],[-54.73457,-16.17897],[-54.7351,-16.17957],[-54.73704,-16.17913],[-54.7368,-16.17814],[-54.7373,-16.1777],[-54.73912,-16.17764],[-54.74033,-16.17864],[-54.74007,-16.18011],[-54.73878,-16.18169],[-54.73847,-16.18262],[-54.73878,-16.18412],[-54.74024,-16.18573],[-54.74165,-16.18524],[-54.74255,-16.18572],[-54.74474,-16.18581],[-54.74516,-16.18651],[-54.74637,-16.18674],[-54.74766,-16.18626],[-54.74933,-16.18849],[-54.74904,-16.18973],[-54.75042,-16.18954],[-54.75243,-16.18784],[-54.75354,-16.18903],[-54.7552,-16.18973],[-54.7552,-16.19121],[-54.75553,-16.19278],[-54.75612,-16.19353],[-54.75677,-16.1927],[-54.75787,-16.19236],[-54.75843,-16.19286],[-54.76005,-16.1924],[-54.76306,-16.19386],[-54.76411,-16.1937],[-54.76477,-16.19482],[-54.76551,-16.19502],[-54.76541,-16.19611],[-54.76596,-16.19681],[-54.76704,-16.19621],[-54.76793,-16.19663],[-54.76818,-16.19546],[-54.76886,-16.19542],[-54.76956,-16.1962],[-54.77092,-16.19676],[-54.771,-16.19751],[-54.77225,-16.19729],[-54.77379,-16.1981],[-54.77482,-16.19811],[-54.77568,-16.19861],[-54.77725,-16.19855],[-54.77849,-16.19956],[-54.77842,-16.20074],[-54.77721,-16.20145],[-54.77722,-16.20257],[-54.77813,-16.2025],[-54.78071,-16.20343],[-54.78247,-16.20348],[-54.78364,-16.20486],[-54.78524,-16.20597],[-54.78781,-16.20475],[-54.78851,-16.20476],[-54.79038,-16.20576],[-54.79104,-16.20692],[-54.79058,-16.20775],[-54.79105,-16.20857],[-54.79186,-16.2084],[-54.79273,-16.20894],[-54.79297,-16.20987],[-54.79401,-16.20997],[-54.79407,-16.21075],[-54.79536,-16.21127],[-54.79675,-16.21045],[-54.79744,-16.2109],[-54.79772,-16.2119],[-54.79665,-16.2128],[-54.79656,-16.21377],[-54.79765,-16.21397],[-54.79836,-16.21546],[-54.79783,-16.21695],[-54.79867,-16.21758],[-54.79852,-16.21853],[-54.79894,-16.21923],[-54.80064,-16.21906],[-54.80079,-16.22037],[-54.80153,-16.22137],[-54.80166,-16.22312],[-54.8021,-16.22434],[-54.80365,-16.22502],[-54.80347,-16.22581],[-54.80143,-16.22745],[-54.80203,-16.22857],[-54.80394,-16.22966],[-54.80405,-16.23042],[-54.80334,-16.23107],[-54.8034,-16.23201],[-54.80408,-16.23265],[-54.80496,-16.23439],[-54.8045,-16.23543],[-54.80648,-16.2365],[-54.80685,-16.23946],[-54.80831,-16.23994],[-54.80901,-16.23887],[-54.812,-16.2402],[-54.81225,-16.24112],[-54.81142,-16.24186],[-54.81143,-16.24284],[-54.81069,-16.24427],[-54.81207,-16.2441],[-54.81301,-16.24519],[-54.8161,-16.24562],[-54.81673,-16.24907],[-54.81754,-16.24932],[-54.81803,-16.25079],[-54.81927,-16.25102],[-54.81982,-16.25208],[-54.82107,-16.25247],[-54.82132,-16.25353],[-54.82232,-16.25339],[-54.82446,-16.25526],[-54.82377,-16.25796],[-54.82428,-16.25849],[-54.82428,-16.25976],[-54.82494,-16.26093],[-54.8253,-16.26245],[-54.82628,-16.26343],[-54.8275,-16.26394],[-54.82954,-16.26428],[-54.83047,-16.26407],[-54.83163,-16.26305],[-54.83364,-16.25959],[-54.8345,-16.25914],[-54.83498,-16.26018],[-54.83394,-16.26156],[-54.83411,-16.26297],[-54.83363,-16.26436],[-54.83477,-16.26481],[-54.83617,-16.26483],[-54.83997,-16.26605],[-54.84193,-16.26537],[-54.84322,-16.2652],[-54.84467,-16.26557],[-54.84584,-16.26439],[-54.84677,-16.2649],[-54.848,-16.26609],[-54.84784,-16.26709],[-54.84675,-16.26741],[-54.84598,-16.26821],[-54.84553,-16.26962],[-54.84599,-16.26994],[-54.84773,-16.2698],[-54.84852,-16.26941],[-54.84899,-16.26837],[-54.85022,-16.26824],[-54.85545,-16.26997],[-54.85838,-16.27156],[-54.85745,-16.27254],[-54.8559,-16.27318],[-54.85563,-16.27474]]]},"properties":{"codigo":"510760220","name":"Boa Vista","population":711,"households":358,"areaKm2":213.0523,"density":3.3}},{"type":"Feature","geometry":{"type":"Polygon","coordinates":[[[-54.67685,-16.14967],[-54.6772,-16.15055],[-54.67973,-16.15271],[-54.67998,-16.15445],[-54.68115,-16.15453],[-54.68129,-16.1555],[-54.68281,-16.15736],[-54.68389,-16.15794],[-54.68403,-16.15911],[-54.68466,-16.16015],[-54.68594,-16.16027],[-54.68731,-16.15927],[-54.6884,-16.15966],[-54.68981,-16.16086],[-54.6905,-16.16226],[-54.69049,-16.16346],[-54.68982,-16.16446],[-54.69075,-16.16532],[-54.69267,-16.16627],[-54.69371,-16.16633],[-54.69409,-16.16719],[-54.69341,-16.16757],[-54.69302,-16.16891],[-54.69367,-16.17193],[-54.69476,-16.17298],[-54.69672,-16.17312],[-54.69705,-16.17285],[-54.6971,-16.17348],[-54.69519,-16.17317],[-54.69331,-16.17443],[-54.69151,-16.17353],[-54.69032,-16.17379],[-54.68911,-16.173],[-54.68838,-16.17295],[-54.68718,-16.17474],[-54.68561,-16.17615],[-54.68446,-16.17587],[-54.68322,-16.17503],[-54.68334,-16.17377],[-54.68281,-16.1735],[-54.67915,-16.17378],[-54.67499,-16.17325],[-54.67371,-16.17427],[-54.67279,-16.17413],[-54.67294,-16.17207],[-54.67258,-16.17102],[-54.6703,-16.17033],[-54.6707,-16.16891],[-54.66958,-16.16816],[-54.66919,-16.16647],[-54.6684,-16.16661],[-54.66782,-16.16578],[-54.6669,-16.16633],[-54.66678,-16.16715],[-54.66588,-16.16749],[-54.66407,-16.16576],[-54.6631,-16.16536],[-54.66242,-16.16321],[-54.66058,-16.16311],[-54.66057,-16.16242],[-54.65983,-16.16095],[-54.66022,-16.15988],[-54.65862,-16.15854],[-54.65812,-16.15654],[-54.65725,-16.1563],[-54.65579,-16.15509],[-54.65466,-16.15515],[-54.65402,-16.15352],[-54.65316,-16.15375],[-54.65293,-16.15284],[-54.65166,-16.15327],[-54.65066,-16.1524],[-54.64806,-16.15303],[-54.64607,-16.15295],[-54.64515,-16.15227],[-54.64406,-16.15264],[-54.64306,-16.15203],[-54.6426,-16.15098],[-54.64123,-16.1501],[-54.64036,-16.1499],[-54.63843,-16.15059],[-54.63709,-16.15069],[-54.63565,-16.15003],[-54.6337,-16.14977],[-54.6324,-16.14885],[-54.62938,-16.14885],[-54.62859,-16.14943],[-54.62533,-16.14727],[-54.62514,-16.14598],[-54.62225,-16.14436],[-54.62114,-16.14481],[-54.61913,-16.14337],[-54.61759,-16.14345],[-54.61624,-16.14386],[-54.61433,-16.14263],[-54.61051,-16.1439],[-54.60931,-16.14548],[-54.60852,-16.14788],[-54.60582,-16.14987],[-54.60505,-16.14988],[-54.60331,-16.1489],[-54.60132,-16.14955],[-54.63662,-16.2058],[-54.64714,-16.22257],[-54.64832,-16.22304],[-54.65612,-16.28668],[-54.65887,-16.30911],[-54.6622,-16.31593],[-54.66566,-16.32004],[-54.66914,-16.32483],[-54.67067,-16.32665],[-54.67102,-16.32801],[-54.67186,-16.33319],[-54.67147,-16.33469],[-54.67173,-16.33593],[-54.67336,-16.33859],[-54.67352,-16.34114],[-54.6739,-16.3425],[-54.67441,-16.34283],[-54.67364,-16.34409],[-54.67331,-16.34534],[-54.67203,-16.34686],[-54.67176,-16.34868],[-54.67119,-16.34939],[-54.67145,-16.3518],[-54.67113,-16.35392],[-54.67127,-16.35465],[-54.67234,-16.3552],[-54.67263,-16.35676],[-54.67328,-16.35818],[-54.67365,-16.36113],[-54.67298,-16.3639],[-54.66936,-16.36488],[-54.66946,-16.37063],[-54.66872,-16.37242],[-54.66761,-16.37331],[-54.66771,-16.37493],[-54.66843,-16.37662],[-54.66937,-16.3796],[-54.66854,-16.38051],[-54.66752,-16.38297],[-54.66559,-16.38505],[-54.66351,-16.38608],[-54.66297,-16.38675],[-54.66316,-16.38826],[-54.6623,-16.38933],[-54.66311,-16.39062],[-54.6631,-16.39141],[-54.66234,-16.39231],[-54.66308,-16.39356],[-54.66256,-16.39523],[-54.66143,-16.39601],[-54.65955,-16.39689],[-54.65826,-16.39783],[-54.65786,-16.3986],[-54.65631,-16.39877],[-54.65555,-16.39849],[-54.65344,-16.39926],[-54.65282,-16.39882],[-54.64911,-16.40073],[-54.64691,-16.40167],[-54.64651,-16.4029],[-54.64552,-16.40353],[-54.64107,-16.4136],[-54.64076,-16.41618],[-54.63944,-16.42136],[-54.63896,-16.42873],[-54.63826,-16.4287],[-54.63796,-16.43128],[-54.6376,-16.43671],[-54.63768,-16.43694],[-54.63725,-16.44452],[-54.63656,-16.44446],[-54.63642,-16.44758],[-54.63575,-16.44763],[-54.63488,-16.4489],[-54.63146,-16.44825],[-54.6304,-16.4477],[-54.62832,-16.44797],[-54.62411,-16.45057],[-54.62297,-16.45163],[-54.62109,-16.4524],[-54.61935,-16.45537],[-54.61993,-16.45633],[-54.61888,-16.45671],[-54.61689,-16.45556],[-54.61496,-16.45415],[-54.6125,-16.45407],[-54.61187,-16.45301],[-54.60951,-16.45193],[-54.60901,-16.45094],[-54.60986,-16.45036],[-54.60894,-16.44912],[-54.60636,-16.44916],[-54.60569,-16.44884],[-54.60576,-16.44778],[-54.60318,-16.44591],[-54.60197,-16.44561],[-54.60053,-16.44486],[-54.5996,-16.44374],[-54.59967,-16.44187],[-54.59746,-16.44067],[-54.59485,-16.43993],[-54.59384,-16.43926],[-54.59282,-16.43914],[-54.59155,-16.43967],[-54.5894,-16.43933],[-54.58854,-16.43802],[-54.58951,-16.43624],[-54.58942,-16.43521],[-54.59015,-16.43389],[-54.58975,-16.43293],[-54.59083,-16.43183],[-54.59072,-16.43075],[-54.5897,-16.43053],[-54.58963,-16.42824],[-54.59008,-16.42717],[-54.59131,-16.426],[-54.59108,-16.42533],[-54.58918,-16.425],[-54.58744,-16.42594],[-54.58592,-16.4252],[-54.58486,-16.42385],[-54.58455,-16.42292],[-54.58288,-16.42246],[-54.58351,-16.42092],[-54.58264,-16.41983],[-54.58187,-16.41981],[-54.57989,-16.41904],[-54.57823,-16.41894],[-54.57716,-16.41848],[-54.57712,-16.41753],[-54.57528,-16.41677],[-54.57429,-16.41509],[-54.57362,-16.41509],[-54.57313,-16.41599],[-54.57205,-16.4155],[-54.57103,-16.41557],[-54.57012,-16.41639],[-54.57027,-16.41762],[-54.5697,-16.41836],[-54.56868,-16.41748],[-54.56763,-16.41783],[-54.56463,-16.41688],[-54.56407,-16.41606],[-54.56284,-16.41526],[-54.56266,-16.41328],[-54.56285,-16.41199],[-54.56163,-16.41148],[-54.56098,-16.41035],[-54.56199,-16.40828],[-54.56207,-16.40727],[-54.56154,-16.40615],[-54.5602,-16.40727],[-54.55864,-16.40909],[-54.55759,-16.4096],[-54.55562,-16.40847],[-54.55431,-16.40932],[-54.55405,-16.40843],[-54.55546,-16.40661],[-54.55505,-16.40566],[-54.55358,-16.40484],[-54.55179,-16.40347],[-54.55063,-16.40175],[-54.5499,-16.4],[-54.55022,-16.39696],[-54.55127,-16.39695],[-54.55293,-16.39599],[-54.55361,-16.395],[-54.55386,-16.3905],[-54.55176,-16.38882],[-54.55255,-16.38716],[-54.55287,-16.38589],[-54.55083,-16.38531],[-54.54981,-16.38437],[-54.55097,-16.38223],[-54.55154,-16.37872],[-54.55115,-16.37761],[-54.54953,-16.37659],[-54.54777,-16.37691],[-54.54691,-16.37671],[-54.54556,-16.37701],[-54.54457,-16.3751],[-54.54432,-16.3724],[-54.54216,-16.37026],[-54.54177,-16.37095],[-54.53932,-16.36918],[-54.53752,-16.36858],[-54.53539,-16.3705],[-54.53373,-16.37073],[-54.53137,-16.369],[-54.5306,-16.36911],[-54.52841,-16.36848],[-54.52769,-16.36909],[-54.52659,-16.36919],[-54.52588,-16.36818],[-54.52498,-16.36813],[-54.52521,-16.36713],[-54.52655,-16.36746],[-54.52796,-16.36676],[-54.52916,-16.36469],[-54.53066,-16.36248],[-54.53334,-16.36294],[-54.53334,-16.36044],[-54.53409,-16.35946],[-54.53308,-16.35847],[-54.53358,-16.35255],[-54.53248,-16.35256],[-54.53048,-16.35312],[-54.52787,-16.35306],[-54.52829,-16.35115],[-54.52817,-16.34954],[-54.52881,-16.34844],[-54.52734,-16.34758],[-54.52759,-16.34662],[-54.52473,-16.34573],[-54.52469,-16.34477],[-54.52351,-16.34503],[-54.52202,-16.34416],[-54.51779,-16.34303],[-54.51568,-16.34186],[-54.51521,-16.34112],[-54.51398,-16.3407],[-54.51389,-16.33971],[-54.51518,-16.33854],[-54.51521,-16.3371],[-54.51558,-16.33505],[-54.51395,-16.33282],[-54.51361,-16.33125],[-54.51266,-16.3311],[-54.51331,-16.33],[-54.51396,-16.32739],[-54.5147,-16.32586],[-54.51355,-16.32506],[-54.51276,-16.32319],[-54.51383,-16.32142],[-54.51285,-16.32029],[-54.5136,-16.31995],[-54.51281,-16.31769],[-54.51314,-16.31735],[-54.51289,-16.31573],[-54.51313,-16.31467],[-54.51255,-16.31402],[-54.51367,-16.31316],[-54.51216,-16.31258],[-54.51204,-16.31138],[-54.51386,-16.31004],[-54.51387,-16.3093],[-54.51255,-16.30909],[-54.51234,-16.3085],[-54.51308,-16.30699],[-54.51133,-16.30659],[-54.51054,-16.30606],[-54.50856,-16.30562],[-54.50756,-16.30502],[-54.50561,-16.30438],[-54.50302,-16.30398],[-54.50237,-16.30277],[-54.50134,-16.30312],[-54.49928,-16.30522],[-54.499,-16.3062],[-54.49835,-16.30662],[-54.49762,-16.30606],[-54.4959,-16.30636],[-54.49591,-16.30777],[-54.49682,-16.30953],[-54.49811,-16.3098],[-54.49764,-16.31082],[-54.4981,-16.31191],[-54.49703,-16.31225],[-54.49679,-16.31394],[-54.4978,-16.31518],[-54.49655,-16.31604],[-54.49444,-16.31633],[-54.49129,-16.31586],[-54.49004,-16.31626],[-54.4884,-16.3181],[-54.4884,-16.31993],[-54.48764,-16.32028],[-54.487,-16.32179],[-54.48548,-16.32207],[-54.48449,-16.32547],[-54.48536,-16.32781],[-54.4846,-16.32862],[-54.48228,-16.32913],[-54.48574,-16.33039],[-54.48596,-16.33411],[-54.48697,-16.33525],[-54.48732,-16.33643],[-54.48919,-16.33773],[-54.48963,-16.33874],[-54.48918,-16.34177],[-54.48836,-16.34288],[-54.48674,-16.34334],[-54.48483,-16.34471],[-54.48281,-16.34559],[-54.48139,-16.34795],[-54.47983,-16.34841],[-54.47929,-16.35015],[-54.47658,-16.35353],[-54.47537,-16.35485],[-54.47639,-16.35647],[-54.47652,-16.35805],[-54.47619,-16.35981],[-54.47555,-16.35984],[-54.47442,-16.36141],[-54.47258,-16.36185],[-54.47203,-16.36471],[-54.47251,-16.36666],[-54.47155,-16.36817],[-54.47212,-16.369],[-54.47095,-16.36978],[-54.46991,-16.3696],[-54.4692,-16.37101],[-54.46766,-16.37147],[-54.46604,-16.37265],[-54.46579,-16.37451],[-54.46669,-16.37602],[-54.46571,-16.37784],[-54.46568,-16.37926],[-54.46702,-16.38095],[-54.46685,-16.38143],[-54.46814,-16.38293],[-54.46795,-16.38328],[-54.46917,-16.38572],[-54.46983,-16.38592],[-54.47038,-16.38688],[-54.46991,-16.38961],[-54.46902,-16.39051],[-54.46957,-16.39205],[-54.47035,-16.39228],[-54.47148,-16.39352],[-54.47279,-16.39321],[-54.47259,-16.39252],[-54.47384,-16.39166],[-54.47503,-16.39166],[-54.47612,-16.39243],[-54.4754,-16.39371],[-54.47572,-16.39461],[-54.47504,-16.39501],[-54.47529,-16.39586],[-54.47452,-16.39711],[-54.47482,-16.39945],[-54.47349,-16.40036],[-54.47215,-16.4009],[-54.47183,-16.40203],[-54.47116,-16.4026],[-54.47196,-16.40333],[-54.47149,-16.40446],[-54.47058,-16.40511],[-54.46652,-16.405],[-54.46525,-16.40563],[-54.46431,-16.40499],[-54.4631,-16.40516],[-54.46239,-16.40588],[-54.46326,-16.40697],[-54.46265,-16.40778],[-54.46276,-16.40895],[-54.46142,-16.41043],[-54.46069,-16.41028],[-54.45984,-16.41139],[-54.45842,-16.41238],[-54.45858,-16.41352],[-54.45716,-16.41448],[-54.4565,-16.41669],[-54.45597,-16.41746],[-54.45693,-16.41908],[-54.45704,-16.42063],[-54.458,-16.4221],[-54.45769,-16.42262],[-54.45796,-16.42387],[-54.45712,-16.42512],[-54.457,-16.42615],[-54.45516,-16.42656],[-54.45538,-16.42523],[-54.45437,-16.4238],[-54.44906,-16.42332],[-54.44839,-16.42221],[-54.44707,-16.4138],[-54.44902,-16.41081],[-54.44886,-16.40741],[-54.44748,-16.40555],[-54.44133,-16.40198],[-54.43954,-16.39468],[-54.43408,-16.39105],[-54.43259,-16.38808],[-54.42786,-16.38555],[-54.42449,-16.38221],[-54.42057,-16.37688],[-54.42017,-16.37516],[-54.42105,-16.37037],[-54.42048,-16.36829],[-54.41486,-16.36445],[-54.41763,-16.35542],[-54.41804,-16.35148],[-54.41766,-16.3503],[-54.41407,-16.34478],[-54.40943,-16.34199],[-54.40816,-16.34029],[-54.40734,-16.33624],[-54.40115,-16.32545],[-54.40028,-16.32491],[-54.39164,-16.32834],[-54.38868,-16.32772],[-54.38944,-16.32646],[-54.39115,-16.32289],[-54.39073,-16.32178],[-54.38948,-16.32038],[-54.38942,-16.3198],[-54.39028,-16.31757],[-54.39025,-16.31682],[-54.3895,-16.3148],[-54.391,-16.31337],[-54.39155,-16.31097],[-54.3909,-16.30993],[-54.39119,-16.30893],[-54.3902,-16.30863],[-54.38911,-16.3071],[-54.39057,-16.30723],[-54.39198,-16.30617],[-54.39307,-16.30587],[-54.39353,-16.30481],[-54.39456,-16.30367],[-54.39413,-16.30212],[-54.3946,-16.3],[-54.3935,-16.29923],[-54.39338,-16.29821],[-54.39406,-16.29769],[-54.39441,-16.29554],[-54.39539,-16.29481],[-54.39674,-16.29567],[-54.39796,-16.29484],[-54.39839,-16.29324],[-54.39986,-16.29235],[-54.40076,-16.29289],[-54.40114,-16.29396],[-54.40222,-16.29421],[-54.40326,-16.2935],[-54.40357,-16.2923],[-54.40451,-16.29132],[-54.40463,-16.29024],[-54.40611,-16.28899],[-54.40555,-16.28806],[-54.40672,-16.2868],[-54.40761,-16.28444],[-54.40701,-16.28272],[-54.40737,-16.28191],[-54.40924,-16.28103],[-54.40982,-16.28118],[-54.41095,-16.2801],[-54.41208,-16.27954],[-54.4127,-16.2778],[-54.41392,-16.2775],[-54.41362,-16.27659],[-54.41437,-16.2756],[-54.41619,-16.27512],[-54.41678,-16.27442],[-54.41622,-16.27365],[-54.41649,-16.27264],[-54.41863,-16.27182],[-54.41985,-16.27189],[-54.42054,-16.27122],[-54.42107,-16.27212],[-54.42179,-16.27185],[-54.42181,-16.27083],[-54.42299,-16.26943],[-54.42425,-16.26949],[-54.42515,-16.26839],[-54.42677,-16.26777],[-54.4268,-16.26654],[-54.42772,-16.26618],[-54.42908,-16.26686],[-54.42989,-16.26602],[-54.43099,-16.26665],[-54.43204,-16.26653],[-54.43385,-16.26703],[-54.43355,-16.26797],[-54.43449,-16.26899],[-54.43394,-16.26971],[-54.43266,-16.26999],[-54.43179,-16.27132],[-54.43324,-16.27274],[-54.4339,-16.27404],[-54.43372,-16.27614],[-54.43477,-16.27556],[-54.43578,-16.27614],[-54.43676,-16.27609],[-54.43779,-16.27735],[-54.43854,-16.27692],[-54.4389,-16.27584],[-54.44023,-16.27567],[-54.44076,-16.27471],[-54.44243,-16.27328],[-54.44237,-16.27238],[-54.44325,-16.27191],[-54.44356,-16.27061],[-54.44425,-16.27],[-54.4456,-16.26948],[-54.44581,-16.26806],[-54.44768,-16.26731],[-54.44824,-16.26636],[-54.44845,-16.26427],[-54.44941,-16.26286],[-54.45021,-16.26101],[-54.45049,-16.25812],[-54.45148,-16.25875],[-54.45303,-16.2577],[-54.4532,-16.25651],[-54.45421,-16.25564],[-54.4544,-16.25491],[-54.45605,-16.25342],[-54.45521,-16.25235],[-54.45572,-16.25064],[-54.45663,-16.24922],[-54.45633,-16.24826],[-54.45775,-16.24626],[-54.45775,-16.2454],[-54.45842,-16.2443],[-54.4591,-16.24484],[-54.46033,-16.24461],[-54.46098,-16.24525],[-54.462,-16.24436],[-54.46349,-16.24357],[-54.4637,-16.24243],[-54.46286,-16.24189],[-54.46295,-16.23992],[-54.46381,-16.23873],[-54.46348,-16.23737],[-54.46214,-16.23674],[-54.46152,-16.23605],[-54.4611,-16.2347],[-54.46139,-16.23277],[-54.46087,-16.23072],[-54.45994,-16.22988],[-54.45908,-16.22825],[-54.45902,-16.22727],[-54.45776,-16.22456],[-54.45765,-16.22262],[-54.4584,-16.22079],[-54.4606,-16.21778],[-54.46072,-16.21589],[-54.45973,-16.21417],[-54.45704,-16.21092],[-54.45451,-16.20837],[-54.45151,-16.2044],[-54.45129,-16.20325],[-54.45178,-16.2004],[-54.45095,-16.19783],[-54.45073,-16.19396],[-54.44995,-16.1918],[-54.44898,-16.19066],[-54.44736,-16.18955],[-54.44574,-16.19027],[-54.44278,-16.18912],[-54.44209,-16.18863],[-54.44227,-16.18773],[-54.44131,-16.18732],[-54.4401,-16.18818],[-54.43933,-16.18762],[-54.43667,-16.18707],[-54.43708,-16.18619],[-54.43637,-16.18538],[-54.43477,-16.18639],[-54.43377,-16.1859],[-54.43419,-16.18482],[-54.43227,-16.18363],[-54.43166,-16.18277],[-54.43097,-16.18056],[-54.43077,-16.1791],[-54.43029,-16.17817],[-54.42909,-16.17755],[-54.42821,-16.17764],[-54.4274,-16.17697],[-54.42643,-16.17687],[-54.42628,-16.17574],[-54.42567,-16.17489],[-54.42471,-16.17461],[-54.42453,-16.17339],[-54.42514,-16.17105],[-54.424,-16.17045],[-54.4232,-16.16902],[-54.42381,-16.16845],[-54.42313,-16.16709],[-54.42241,-16.16716],[-54.42199,-16.16592],[-54.42068,-16.16574],[-54.42045,-16.16418],[-54.42062,-16.16255],[-54.42038,-16.16077],[-54.42061,-16.15932],[-54.42029,-16.15866],[-54.42038,-16.15697],[-54.42077,-16.15574],[-54.42055,-16.15337],[-54.41987,-16.15231],[-54.41965,-16.15113],[-54.41844,-16.14899],[-54.41805,-16.14639],[-54.41814,-16.14484],[-54.41855,-16.1435],[-54.42006,-16.14284],[-54.42369,-16.14296],[-54.42546,-16.14234],[-54.42803,-16.1424],[-54.42924,-16.14182],[-54.42947,-16.14114],[-54.42903,-16.13858],[-54.42966,-16.13813],[-54.43117,-16.1389],[-54.43112,-16.14037],[-54.43195,-16.14124],[-54.43482,-16.14184],[-54.43568,-16.14126],[-54.43766,-16.13898],[-54.43872,-16.13696],[-54.44083,-16.13636],[-54.44494,-16.13457],[-54.44712,-16.13452],[-54.44981,-16.13381],[-54.45165,-16.13441],[-54.45284,-16.13444],[-54.45485,-16.13543],[-54.45601,-16.13484],[-54.45717,-16.13508],[-54.45883,-16.13453],[-54.4596,-16.13326],[-54.45889,-16.13192],[-54.46016,-16.13],[-54.46008,-16.12849],[-54.46187,-16.1274],[-54.46303,-16.12629],[-54.46387,-16.12489],[-54.46537,-16.12367],[-54.46703,-16.12295],[-54.46908,-16.12082],[-54.47008,-16.12007],[-54.47132,-16.11788],[-54.47135,-16.11609],[-54.47181,-16.1151],[-54.47314,-16.11431],[-54.47408,-16.11235],[-54.47471,-16.11166],[-54.47744,-16.11105],[-54.48025,-16.10955],[-54.48118,-16.10876],[-54.48215,-16.10688],[-54.48316,-16.10436],[-54.48056,-16.10059],[-54.479,-16.09902],[-54.47867,-16.09837],[-54.47913,-16.09742],[-54.48245,-16.09508],[-54.48345,-16.09389],[-54.48468,-16.09125],[-54.48527,-16.0893],[-54.48506,-16.08683],[-54.48474,-16.08596],[-54.48158,-16.07976],[-54.48098,-16.07774],[-54.47992,-16.07144],[-54.4794,-16.06839],[-54.48221,-16.0699],[-54.48388,-16.07096],[-54.48598,-16.07145],[-54.48808,-16.07104],[-54.48992,-16.07154],[-54.49154,-16.07159],[-54.49281,-16.07219],[-54.49457,-16.07379],[-54.49631,-16.07481],[-54.49938,-16.07577],[-54.50277,-16.0757],[-54.50652,-16.07757],[-54.50886,-16.0789],[-54.51293,-16.08008],[-54.51357,-16.08052],[-54.5151,-16.08245],[-54.51626,-16.08341],[-54.51831,-16.08457],[-54.52044,-16.08525],[-54.5218,-16.08535],[-54.52543,-16.08527],[-54.52775,-16.08496],[-54.52926,-16.08495],[-54.53033,-16.08526],[-54.53167,-16.08479],[-54.53228,-16.08323],[-54.53388,-16.08251],[-54.53488,-16.08442],[-54.53575,-16.08515],[-54.53606,-16.086],[-54.53733,-16.08564],[-54.53865,-16.08765],[-54.53998,-16.08869],[-54.54196,-16.08842],[-54.54303,-16.08939],[-54.54386,-16.08883],[-54.54466,-16.08895],[-54.5453,-16.08979],[-54.54705,-16.09023],[-54.5475,-16.09124],[-54.54729,-16.09245],[-54.54776,-16.09358],[-54.54959,-16.09425],[-54.55082,-16.09381],[-54.55171,-16.09399],[-54.55299,-16.09485],[-54.55307,-16.09667],[-54.55379,-16.09706],[-54.55473,-16.09651],[-54.55604,-16.09669],[-54.55759,-16.09741],[-54.55836,-16.0989],[-54.56017,-16.09974],[-54.56114,-16.09976],[-54.56168,-16.10161],[-54.56278,-16.1018],[-54.56353,-16.1034],[-54.56461,-16.10328],[-54.56517,-16.10425],[-54.56521,-16.10525],[-54.56621,-16.10516],[-54.56738,-16.10613],[-54.56822,-16.10731],[-54.56905,-16.10684],[-54.56979,-16.10712],[-54.57027,-16.10611],[-54.57092,-16.106],[-54.57199,-16.10661],[-54.57398,-16.10623],[-54.57518,-16.1064],[-54.57662,-16.10779],[-54.57776,-16.10763],[-54.5797,-16.10843],[-54.57933,-16.10962],[-54.58079,-16.10983],[-54.58207,-16.11102],[-54.58361,-16.11086],[-54.58498,-16.11178],[-54.58744,-16.1126],[-54.5893,-16.11489],[-54.59007,-16.11511],[-54.59126,-16.11631],[-54.59312,-16.11636],[-54.59565,-16.12034],[-54.59781,-16.11998],[-54.59844,-16.12012],[-54.59924,-16.12184],[-54.59986,-16.12229],[-54.60338,-16.12214],[-54.60558,-16.12284],[-54.60717,-16.12412],[-54.60888,-16.12424],[-54.61216,-16.1236],[-54.61459,-16.12429],[-54.61504,-16.1257],[-54.61617,-16.12574],[-54.61774,-16.12641],[-54.62095,-16.12706],[-54.62253,-16.12712],[-54.62546,-16.12807],[-54.62711,-16.12825],[-54.62893,-16.12753],[-54.63056,-16.12798],[-54.63149,-16.12737],[-54.63237,-16.12755],[-54.63287,-16.12935],[-54.63435,-16.12899],[-54.6359,-16.12917],[-54.63681,-16.1296],[-54.63705,-16.13065],[-54.63808,-16.13129],[-54.63833,-16.13204],[-54.63776,-16.13334],[-54.63878,-16.13403],[-54.63876,-16.13489],[-54.63947,-16.1356],[-54.64226,-16.13658],[-54.64357,-16.13748],[-54.64496,-16.1379],[-54.64553,-16.13871],[-54.64697,-16.13885],[-54.64744,-16.13805],[-54.64919,-16.13694],[-54.651,-16.13643],[-54.65178,-16.13523],[-54.65301,-16.13457],[-54.65473,-16.13485],[-54.6563,-16.13378],[-54.65683,-16.1348],[-54.65825,-16.13596],[-54.65871,-16.13694],[-54.65851,-16.13839],[-54.65909,-16.14074],[-54.66014,-16.14209],[-54.66062,-16.14328],[-54.66193,-16.1444],[-54.66424,-16.14477],[-54.66589,-16.14553],[-54.66734,-16.14573],[-54.66806,-16.14654],[-54.66884,-16.14657],[-54.66999,-16.1478],[-54.67233,-16.14978],[-54.67333,-16.14983],[-54.6748,-16.14931],[-54.67567,-16.14867],[-54.6767,-16.14905],[-54.67685,-16.14967]]]},"properties":{"codigo":"510760230","name":"Vila Operária","population":46272,"households":19370,"areaKm2":758.4205,"density":61}}]}