{"type":"FeatureCollection","features":[{"type":"Feature","geometry":{"type":"Polygon","coordinates":[[[-50.14352,-14.12576],[-50.14546,-14.12356],[-50.14664,-14.1225],[-50.14623,-14.12094],[-50.1452,-14.12025],[-50.14481,-14.11893],[-50.14289,-14.117],[-50.14278,-14.1161],[-50.14334,-14.11512],[-50.14314,-14.11405],[-50.14219,-14.11377],[-50.14151,-14.11231],[-50.14243,-14.10916],[-50.14309,-14.1064],[-50.14457,-14.10477],[-50.14571,-14.10247],[-50.1454,-14.10053],[-50.14709,-14.09892],[-50.14683,-14.09622],[-50.14698,-14.09526],[-50.14776,-14.0942],[-50.14859,-14.09126],[-50.14941,-14.08995],[-50.14917,-14.08826],[-50.14759,-14.08679],[-50.1473,-14.0857],[-50.14768,-14.08481],[-50.1503,-14.08341],[-50.14998,-14.08166],[-50.14939,-14.08071],[-50.14918,-14.07949],[-50.14849,-14.07797],[-50.14765,-14.07732],[-50.14736,-14.0754],[-50.14666,-14.07417],[-50.14651,-14.07315],[-50.14747,-14.07169],[-50.14712,-14.07038],[-50.14801,-14.06966],[-50.14699,-14.06747],[-50.14813,-14.06576],[-50.1468,-14.06444],[-50.14656,-14.06205],[-50.14701,-14.05896],[-50.14773,-14.05788],[-50.14931,-14.05618],[-50.15082,-14.05571],[-50.15055,-14.05417],[-50.14893,-14.05101],[-50.14831,-14.05084],[-50.14771,-14.04952],[-50.14897,-14.04829],[-50.14992,-14.04647],[-50.1496,-14.04468],[-50.14963,-14.04246],[-50.15044,-14.04236],[-50.15126,-14.04108],[-50.15211,-14.04105],[-50.15206,-14.03979],[-50.1529,-14.03959],[-50.15372,-14.03843],[-50.15225,-14.03778],[-50.1525,-14.03656],[-50.15129,-14.03622],[-50.15149,-14.03473],[-50.15304,-14.03313],[-50.15383,-14.03184],[-50.15514,-14.02896],[-50.15475,-14.0275],[-50.15366,-14.02711],[-50.15377,-14.02612],[-50.15479,-14.02574],[-50.15473,-14.02466],[-50.15625,-14.02427],[-50.15621,-14.02239],[-50.15839,-14.02123],[-50.158,-14.01984],[-50.15829,-14.01871],[-50.1577,-14.01834],[-50.15775,-14.01655],[-50.15815,-14.01444],[-50.15804,-14.01354],[-50.15847,-14.01077],[-50.1572,-14.00796],[-50.15654,-14.00588],[-50.15673,-14.00425],[-50.15761,-14.00354],[-50.15807,-14.00245],[-50.16054,-14.00104],[-50.28562,-13.99422],[-50.28608,-13.9935],[-50.28782,-13.99294],[-50.28848,-13.99216],[-50.29064,-13.9916],[-50.29147,-13.99081],[-50.29247,-13.99042],[-50.29393,-13.99044],[-50.29698,-13.98915],[-50.29929,-13.98798],[-50.30042,-13.98666],[-50.30269,-13.98583],[-50.3035,-13.98451],[-50.30432,-13.98433],[-50.30686,-13.98447],[-50.30906,-13.98371],[-50.31098,-13.98367],[-50.31247,-13.98329],[-50.31343,-13.98369],[-50.31443,-13.98561],[-50.31642,-13.98475],[-50.31813,-13.98471],[-50.31946,-13.98415],[-50.3203,-13.98331],[-50.32135,-13.9832],[-50.32295,-13.98366],[-50.32394,-13.98332],[-50.32461,-13.98213],[-50.32636,-13.98112],[-50.32701,-13.98048],[-50.32789,-13.97809],[-50.33004,-13.97661],[-50.33165,-13.97523],[-50.33371,-13.97502],[-50.3351,-13.9737],[-50.33684,-13.97353],[-50.33911,-13.97231],[-50.33982,-13.96979],[-50.34066,-13.96899],[-50.3421,-13.96837],[-50.34412,-13.96796],[-50.34493,-13.96708],[-50.34445,-13.96454],[-50.34504,-13.96321],[-50.34483,-13.96104],[-50.34605,-13.96015],[-50.34669,-13.95857],[-50.34805,-13.9579],[-50.34858,-13.95695],[-50.34854,-13.95543],[-50.34947,-13.95365],[-50.34986,-13.95231],[-50.35151,-13.95118],[-50.35195,-13.95016],[-50.35214,-13.94825],[-50.35359,-13.9454],[-50.35395,-13.94244],[-50.35516,-13.9406],[-50.35547,-13.93824],[-50.35574,-13.93777],[-50.35851,-13.93609],[-50.35899,-13.93446],[-50.36108,-13.93338],[-50.36147,-13.9327],[-50.36292,-13.93189],[-50.36318,-13.93114],[-50.36315,-13.92927],[-50.36397,-13.92749],[-50.36415,-13.9248],[-50.36514,-13.92243],[-50.36501,-13.91979],[-50.36692,-13.91884],[-50.3675,-13.91778],[-50.36717,-13.91598],[-50.36791,-13.91472],[-50.36722,-13.91331],[-50.36645,-13.91042],[-50.36672,-13.90916],[-50.36779,-13.90814],[-50.3681,-13.90595],[-50.36853,-13.90497],[-50.36934,-13.90441],[-50.36979,-13.90275],[-50.37116,-13.90229],[-50.37242,-13.90103],[-50.37299,-13.89958],[-50.37274,-13.89852],[-50.37349,-13.89705],[-50.3746,-13.89637],[-50.37646,-13.89421],[-50.37706,-13.89253],[-50.37871,-13.89044],[-50.37953,-13.88688],[-50.38032,-13.88598],[-50.38178,-13.88491],[-50.38203,-13.8827],[-50.3824,-13.88185],[-50.38377,-13.88009],[-50.38392,-13.87913],[-50.38375,-13.87687],[-50.38437,-13.87252],[-50.38394,-13.87123],[-50.3817,-13.86986],[-50.38098,-13.86912],[-50.38021,-13.8671],[-50.37899,-13.86626],[-50.37759,-13.86383],[-50.37686,-13.86321],[-50.37618,-13.86138],[-50.37521,-13.86037],[-50.3745,-13.85863],[-50.37256,-13.85653],[-50.37209,-13.85505],[-50.37084,-13.85303],[-50.37127,-13.85123],[-50.37291,-13.85023],[-50.37471,-13.8499],[-50.37756,-13.85034],[-50.37864,-13.84998],[-50.37908,-13.84869],[-50.38,-13.84865],[-50.38148,-13.84774],[-50.38259,-13.84786],[-50.3858,-13.84708],[-50.38662,-13.84603],[-50.38793,-13.84523],[-50.38845,-13.84385],[-50.3903,-13.84294],[-50.39091,-13.84184],[-50.39182,-13.84127],[-50.39236,-13.84015],[-50.3931,-13.8396],[-50.39314,-13.83865],[-50.39427,-13.83815],[-50.39578,-13.83797],[-50.39702,-13.83685],[-50.398,-13.83459],[-50.39903,-13.83346],[-50.40074,-13.83339],[-50.402,-13.83305],[-50.40416,-13.83305],[-50.40563,-13.83264],[-50.4063,-13.83373],[-50.40711,-13.83397],[-50.40885,-13.83247],[-50.40912,-13.83157],[-50.41005,-13.83075],[-50.41033,-13.82921],[-50.41168,-13.82836],[-50.41296,-13.82825],[-50.41348,-13.8278],[-50.41492,-13.82789],[-50.417,-13.82664],[-50.41901,-13.82644],[-50.41921,-13.82586],[-50.42124,-13.82565],[-50.42149,-13.82494],[-50.42301,-13.82455],[-50.423,-13.82218],[-50.425,-13.82066],[-50.4259,-13.82105],[-50.42649,-13.82013],[-50.42765,-13.81946],[-50.42735,-13.81648],[-50.42746,-13.81433],[-50.42842,-13.8131],[-50.42849,-13.81169],[-50.42974,-13.8108],[-50.42994,-13.80976],[-50.4311,-13.80806],[-50.43267,-13.80663],[-50.43274,-13.80599],[-50.43421,-13.80414],[-50.43368,-13.80318],[-50.4346,-13.80298],[-50.4349,-13.80068],[-50.43541,-13.79997],[-50.43553,-13.79844],[-50.4363,-13.79682],[-50.43617,-13.79581],[-50.43535,-13.79339],[-50.43565,-13.79164],[-50.43512,-13.79047],[-50.43604,-13.78931],[-50.43649,-13.78717],[-50.43718,-13.78625],[-50.43804,-13.78634],[-50.43825,-13.78497],[-50.43957,-13.78381],[-50.44095,-13.78163],[-50.44122,-13.78046],[-50.44117,-13.77824],[-50.44075,-13.7776],[-50.44058,-13.77564],[-50.44067,-13.77352],[-50.4411,-13.77175],[-50.44146,-13.77138],[-50.44518,-13.76996],[-50.44664,-13.76908],[-50.44803,-13.76749],[-50.44934,-13.76661],[-50.45202,-13.763],[-50.45309,-13.76091],[-50.45427,-13.76035],[-50.45465,-13.75955],[-50.45589,-13.75881],[-50.45664,-13.75771],[-50.45835,-13.75681],[-50.459,-13.75824],[-50.45888,-13.76001],[-50.45806,-13.76047],[-50.45711,-13.7601],[-50.45572,-13.7605],[-50.45587,-13.76183],[-50.454,-13.76505],[-50.45402,-13.76576],[-50.45506,-13.76672],[-50.45666,-13.76901],[-50.45794,-13.76935],[-50.45922,-13.76885],[-50.46044,-13.7699],[-50.46073,-13.77089],[-50.46171,-13.77235],[-50.46296,-13.77344],[-50.46262,-13.77467],[-50.46308,-13.7763],[-50.46387,-13.77633],[-50.4647,-13.77765],[-50.46457,-13.77927],[-50.46565,-13.7795],[-50.46694,-13.78037],[-50.46722,-13.78108],[-50.46549,-13.78161],[-50.46548,-13.78253],[-50.46734,-13.78433],[-50.4671,-13.78535],[-50.4654,-13.78657],[-50.4652,-13.7877],[-50.46565,-13.789],[-50.46557,-13.79121],[-50.46506,-13.79155],[-50.46275,-13.79176],[-50.46261,-13.79296],[-50.46313,-13.79387],[-50.46309,-13.79502],[-50.46154,-13.79596],[-50.45919,-13.79686],[-50.45788,-13.79853],[-50.45777,-13.79916],[-50.45943,-13.80152],[-50.45865,-13.80295],[-50.45757,-13.80333],[-50.45803,-13.80487],[-50.45972,-13.80572],[-50.46071,-13.80474],[-50.46166,-13.80436],[-50.46517,-13.80399],[-50.46604,-13.80529],[-50.4683,-13.80546],[-50.46966,-13.80599],[-50.46948,-13.80826],[-50.46963,-13.80961],[-50.46872,-13.80956],[-50.46732,-13.81064],[-50.46732,-13.81159],[-50.46872,-13.81231],[-50.46872,-13.81388],[-50.46918,-13.81524],[-50.46826,-13.81548],[-50.46828,-13.81429],[-50.46521,-13.81363],[-50.46372,-13.81368],[-50.46351,-13.81489],[-50.46274,-13.81594],[-50.46229,-13.81716],[-50.46087,-13.81905],[-50.46137,-13.82053],[-50.46231,-13.82035],[-50.4622,-13.81948],[-50.46338,-13.81843],[-50.46426,-13.8194],[-50.46551,-13.81972],[-50.46703,-13.8185],[-50.46831,-13.81915],[-50.46839,-13.82019],[-50.46729,-13.82114],[-50.46726,-13.82244],[-50.46622,-13.82482],[-50.46698,-13.82583],[-50.46798,-13.82465],[-50.46883,-13.82506],[-50.46913,-13.8261],[-50.46857,-13.82701],[-50.46853,-13.82797],[-50.46929,-13.82922],[-50.47012,-13.8297],[-50.47168,-13.8312],[-50.4722,-13.83214],[-50.47272,-13.83406],[-50.47368,-13.83528],[-50.47567,-13.83725],[-50.47516,-13.83843],[-50.47544,-13.83978],[-50.47663,-13.8401],[-50.47622,-13.84149],[-50.47768,-13.84494],[-50.47866,-13.84418],[-50.47942,-13.84471],[-50.47947,-13.84615],[-50.48046,-13.84683],[-50.48022,-13.84767],[-50.47918,-13.84784],[-50.47817,-13.84867],[-50.47817,-13.85031],[-50.47737,-13.85043],[-50.47638,-13.84981],[-50.47577,-13.84888],[-50.47476,-13.84903],[-50.47358,-13.84991],[-50.4756,-13.85153],[-50.47542,-13.85297],[-50.47473,-13.85331],[-50.47322,-13.85233],[-50.47181,-13.85253],[-50.47119,-13.85367],[-50.47131,-13.85425],[-50.47242,-13.85505],[-50.47332,-13.85459],[-50.47395,-13.8554],[-50.4753,-13.85641],[-50.47502,-13.85761],[-50.47531,-13.85913],[-50.47662,-13.85996],[-50.4774,-13.86103],[-50.4811,-13.86074],[-50.48229,-13.85953],[-50.48394,-13.85944],[-50.48535,-13.85979],[-50.48811,-13.86006],[-50.48866,-13.8607],[-50.48789,-13.86165],[-50.48834,-13.8631],[-50.48925,-13.86352],[-50.49095,-13.86337],[-50.49257,-13.86426],[-50.49294,-13.86525],[-50.49272,-13.86633],[-50.49278,-13.86815],[-50.4937,-13.86842],[-50.49518,-13.86788],[-50.49553,-13.87047],[-50.49545,-13.87163],[-50.4962,-13.87231],[-50.49733,-13.87273],[-50.49781,-13.87358],[-50.49769,-13.87468],[-50.49538,-13.8763],[-50.49545,-13.8774],[-50.49631,-13.87756],[-50.49715,-13.87856],[-50.49697,-13.88096],[-50.49779,-13.88127],[-50.49902,-13.88098],[-50.49977,-13.88025],[-50.49969,-13.879],[-50.50114,-13.87838],[-50.50201,-13.87835],[-50.5041,-13.87941],[-50.50526,-13.87976],[-50.5051,-13.88108],[-50.50614,-13.88183],[-50.50809,-13.88271],[-50.50825,-13.88446],[-50.50763,-13.88605],[-50.50653,-13.8863],[-50.50597,-13.88716],[-50.50595,-13.88805],[-50.50671,-13.88915],[-50.5069,-13.89022],[-50.50564,-13.89138],[-50.50403,-13.89405],[-50.50476,-13.89496],[-50.50391,-13.89622],[-50.50431,-13.89732],[-50.5054,-13.89765],[-50.50552,-13.89877],[-50.50434,-13.89833],[-50.50354,-13.8989],[-50.50444,-13.90065],[-50.50545,-13.90056],[-50.50604,-13.89989],[-50.50851,-13.90112],[-50.50809,-13.90225],[-50.50694,-13.90189],[-50.50665,-13.90296],[-50.50759,-13.90414],[-50.50964,-13.90473],[-50.511,-13.90417],[-50.51255,-13.90409],[-50.51408,-13.90266],[-50.51496,-13.9026],[-50.51679,-13.90341],[-50.51826,-13.90533],[-50.52044,-13.90614],[-50.52403,-13.90595],[-50.52571,-13.90667],[-50.52633,-13.90726],[-50.52848,-13.91082],[-50.52994,-13.91184],[-50.53026,-13.91243],[-50.52959,-13.91718],[-50.529,-13.91848],[-50.52799,-13.91971],[-50.52938,-13.92237],[-50.52998,-13.92312],[-50.53199,-13.92445],[-50.53214,-13.92563],[-50.53287,-13.92696],[-50.53282,-13.92787],[-50.53381,-13.92916],[-50.53595,-13.92923],[-50.5372,-13.92959],[-50.53863,-13.93072],[-50.53924,-13.93192],[-50.53917,-13.93284],[-50.53815,-13.93414],[-50.53843,-13.93562],[-50.53597,-13.93697],[-50.53468,-13.93855],[-50.53433,-13.93971],[-50.53479,-13.94302],[-50.53281,-13.94249],[-50.53238,-13.94329],[-50.53299,-13.94438],[-50.53226,-13.94627],[-50.5309,-13.94741],[-50.53066,-13.94833],[-50.53091,-13.94931],[-50.53028,-13.94977],[-50.52841,-13.94867],[-50.52737,-13.94912],[-50.52615,-13.95141],[-50.5256,-13.95192],[-50.52459,-13.95154],[-50.52443,-13.95065],[-50.52338,-13.95033],[-50.52257,-13.95118],[-50.5227,-13.95197],[-50.52557,-13.95374],[-50.52686,-13.95477],[-50.5279,-13.95493],[-50.52827,-13.95653],[-50.52794,-13.95717],[-50.52692,-13.95734],[-50.52589,-13.95679],[-50.52512,-13.95721],[-50.52503,-13.95822],[-50.52652,-13.96062],[-50.52549,-13.96222],[-50.52379,-13.96277],[-50.52253,-13.9642],[-50.52268,-13.96739],[-50.52169,-13.96902],[-50.52338,-13.96942],[-50.52424,-13.97056],[-50.52271,-13.97105],[-50.52229,-13.97222],[-50.52305,-13.97499],[-50.52242,-13.97688],[-50.52243,-13.97757],[-50.52325,-13.97963],[-50.52316,-13.98047],[-50.52383,-13.98273],[-50.52514,-13.9839],[-50.5279,-13.98423],[-50.52898,-13.98599],[-50.52889,-13.98717],[-50.52804,-13.98842],[-50.52598,-13.98835],[-50.52356,-13.9877],[-50.52147,-13.98687],[-50.5199,-13.98796],[-50.51951,-13.98961],[-50.52006,-13.99027],[-50.52148,-13.991],[-50.52163,-13.99296],[-50.52206,-13.99392],[-50.52406,-13.99576],[-50.52412,-13.99725],[-50.52623,-13.99935],[-50.52645,-14.0004],[-50.52606,-14.00168],[-50.52607,-14.00367],[-50.52565,-14.00454],[-50.52475,-14.00477],[-50.52157,-14.0038],[-50.52045,-14.00521],[-50.51544,-14.00724],[-50.51295,-14.00997],[-50.51161,-14.01332],[-50.51167,-14.01452],[-50.51255,-14.01481],[-50.51462,-14.01397],[-50.51544,-14.01432],[-50.51581,-14.01605],[-50.51457,-14.01646],[-50.51452,-14.01778],[-50.51553,-14.01868],[-50.51583,-14.01958],[-50.5155,-14.02057],[-50.51386,-14.02145],[-50.51407,-14.0225],[-50.51545,-14.02326],[-50.51657,-14.02545],[-50.51623,-14.0273],[-50.51486,-14.02821],[-50.51375,-14.02735],[-50.51314,-14.0277],[-50.51259,-14.02917],[-50.51129,-14.03057],[-50.51093,-14.03335],[-50.51046,-14.03519],[-50.51104,-14.03602],[-50.51321,-14.03655],[-50.51358,-14.03741],[-50.51328,-14.03814],[-50.51201,-14.03826],[-50.51039,-14.03957],[-50.50857,-14.04004],[-50.50839,-14.04223],[-50.50782,-14.04331],[-50.50693,-14.04405],[-50.50569,-14.04382],[-50.50479,-14.04277],[-50.50363,-14.04282],[-50.5036,-14.04353],[-50.50435,-14.04421],[-50.50232,-14.04531],[-50.50105,-14.04536],[-50.49957,-14.04414],[-50.49878,-14.0443],[-50.49848,-14.04526],[-50.49783,-14.04565],[-50.49652,-14.04557],[-50.49542,-14.04738],[-50.49428,-14.04753],[-50.4932,-14.04663],[-50.4921,-14.04637],[-50.49185,-14.04794],[-50.49292,-14.04848],[-50.49368,-14.0507],[-50.49476,-14.05089],[-50.49619,-14.05192],[-50.49609,-14.05362],[-50.49474,-14.05429],[-50.49485,-14.05494],[-50.4961,-14.05487],[-50.49664,-14.05562],[-50.49672,-14.05663],[-50.49597,-14.05792],[-50.49567,-14.05927],[-50.49669,-14.06173],[-50.49536,-14.06377],[-50.49371,-14.06409],[-50.49339,-14.06458],[-50.49066,-14.06642],[-50.48972,-14.0653],[-50.49007,-14.06364],[-50.48861,-14.06141],[-50.48727,-14.06101],[-50.48598,-14.06182],[-50.48622,-14.06263],[-50.48513,-14.06362],[-50.48488,-14.06536],[-50.48398,-14.06472],[-50.48209,-14.06487],[-50.48076,-14.06398],[-50.48004,-14.06483],[-50.48021,-14.06622],[-50.47901,-14.06678],[-50.47795,-14.06658],[-50.47808,-14.0682],[-50.47685,-14.068],[-50.47494,-14.06812],[-50.47342,-14.0696],[-50.47172,-14.07063],[-50.47163,-14.07252],[-50.47093,-14.07331],[-50.46752,-14.07346],[-50.46667,-14.07538],[-50.46718,-14.07646],[-50.46732,-14.07848],[-50.46636,-14.08014],[-50.46584,-14.08157],[-50.4662,-14.0822],[-50.46746,-14.08299],[-50.46816,-14.0848],[-50.46817,-14.08578],[-50.46763,-14.08632],[-50.46545,-14.08576],[-50.46501,-14.086],[-50.46413,-14.08891],[-50.46225,-14.0894],[-50.46136,-14.09005],[-50.46036,-14.09219],[-50.46036,-14.09337],[-50.46152,-14.09498],[-50.46387,-14.09684],[-50.46641,-14.09811],[-50.467,-14.10034],[-50.46632,-14.1031],[-50.4664,-14.10533],[-50.46564,-14.10682],[-50.46598,-14.10961],[-50.46557,-14.11048],[-50.46606,-14.11175],[-50.46534,-14.11296],[-50.46547,-14.11401],[-50.46474,-14.11527],[-50.46235,-14.11608],[-50.46146,-14.11716],[-50.46012,-14.11589],[-50.4587,-14.11651],[-50.45864,-14.11706],[-50.45973,-14.11816],[-50.45965,-14.11887],[-50.4583,-14.11901],[-50.45801,-14.1195],[-50.45836,-14.12073],[-50.45807,-14.12192],[-50.45747,-14.12228],[-50.45614,-14.12417],[-50.45503,-14.12427],[-50.45253,-14.12545],[-50.45208,-14.12654],[-50.4508,-14.12792],[-50.45016,-14.12959],[-50.44906,-14.13022],[-50.44785,-14.13159],[-50.44689,-14.13322],[-50.44603,-14.13399],[-50.44795,-14.13796],[-50.44711,-14.13925],[-50.44512,-14.14066],[-50.44217,-14.14217],[-50.44034,-14.14384],[-50.438,-14.14481],[-50.43583,-14.14643],[-50.43338,-14.1488],[-50.43043,-14.15135],[-50.4291,-14.15334],[-50.42881,-14.15502],[-50.42881,-14.1567],[-50.42692,-14.15816],[-50.42564,-14.15967],[-50.42563,-14.16297],[-50.42579,-14.16444],[-50.42439,-14.1686],[-50.42528,-14.17115],[-50.42633,-14.17234],[-50.42704,-14.17413],[-50.42682,-14.17776],[-50.42781,-14.17928],[-50.43336,-14.18183],[-50.43485,-14.18373],[-50.43755,-14.19191],[-50.4386,-14.19414],[-50.43926,-14.19674],[-50.43861,-14.19877],[-50.4372,-14.20106],[-50.43547,-14.20263],[-50.43402,-14.20436],[-50.43385,-14.20652],[-50.43455,-14.20882],[-50.43545,-14.20998],[-50.4361,-14.21332],[-50.43722,-14.21448],[-50.43691,-14.21747],[-50.43616,-14.22067],[-50.43601,-14.22292],[-50.43563,-14.22481],[-50.43428,-14.22648],[-50.43249,-14.22779],[-50.43099,-14.22931],[-50.43001,-14.23171],[-50.42993,-14.23739],[-50.4291,-14.23935],[-50.42939,-14.2408],[-50.43208,-14.24219],[-50.43312,-14.24365],[-50.43446,-14.24598],[-50.43505,-14.24751],[-50.43815,-14.24966],[-50.44092,-14.2506],[-50.44257,-14.25166],[-50.4443,-14.25318],[-50.44558,-14.25497],[-50.44805,-14.25801],[-50.44896,-14.2598],[-50.44932,-14.26149],[-50.44895,-14.26337],[-50.44729,-14.2664],[-50.44603,-14.26741],[-50.44414,-14.27005],[-50.44234,-14.27437],[-50.44183,-14.27628],[-50.44199,-14.27869],[-50.44301,-14.2811],[-50.44326,-14.28309],[-50.44427,-14.28609],[-50.44512,-14.28958],[-50.44648,-14.29125],[-50.44996,-14.29491],[-50.45218,-14.29682],[-50.45456,-14.29866],[-50.45677,-14.29991],[-50.45822,-14.30049],[-50.46044,-14.30025],[-50.46155,-14.29942],[-50.46385,-14.29893],[-50.46504,-14.30051],[-50.46657,-14.30209],[-50.46827,-14.30301],[-50.47194,-14.3041],[-50.47381,-14.30485],[-50.47653,-14.30777],[-50.47815,-14.30918],[-50.47908,-14.31068],[-50.48104,-14.3116],[-50.48726,-14.31419],[-50.48905,-14.31469],[-50.53045,-14.34945],[-50.56948,-14.38216],[-50.60113,-14.40868],[-50.69991,-14.49148],[-50.84148,-14.61014],[-50.84179,-14.61037],[-50.84179,-14.61158],[-50.83956,-14.61111],[-50.83834,-14.60887],[-50.83573,-14.60858],[-50.83369,-14.60928],[-50.8333,-14.61042],[-50.83179,-14.61057],[-50.83115,-14.61211],[-50.83042,-14.61221],[-50.82961,-14.61042],[-50.82811,-14.61004],[-50.82737,-14.61145],[-50.82626,-14.61132],[-50.82558,-14.61026],[-50.82464,-14.61036],[-50.82422,-14.61189],[-50.82147,-14.61177],[-50.8213,-14.61259],[-50.82216,-14.61356],[-50.82174,-14.61432],[-50.82001,-14.61456],[-50.81953,-14.61491],[-50.81952,-14.61613],[-50.82,-14.61747],[-50.81933,-14.61759],[-50.81835,-14.61694],[-50.8175,-14.61778],[-50.81809,-14.61835],[-50.8185,-14.61994],[-50.81751,-14.62018],[-50.81671,-14.61955],[-50.81643,-14.61779],[-50.81493,-14.61761],[-50.81533,-14.61909],[-50.81468,-14.6199],[-50.81196,-14.62056],[-50.81108,-14.61935],[-50.80965,-14.61925],[-50.80962,-14.62067],[-50.80841,-14.62126],[-50.8061,-14.62061],[-50.80544,-14.62109],[-50.80498,-14.62229],[-50.80485,-14.62557],[-50.80419,-14.62659],[-50.80341,-14.62588],[-50.80221,-14.6256],[-50.80178,-14.62508],[-50.80014,-14.62459],[-50.79946,-14.62636],[-50.7985,-14.62674],[-50.79764,-14.62653],[-50.79746,-14.62493],[-50.79609,-14.62498],[-50.79537,-14.6238],[-50.79436,-14.62398],[-50.79415,-14.62543],[-50.79331,-14.62536],[-50.79253,-14.62403],[-50.79092,-14.62357],[-50.79007,-14.62385],[-50.78965,-14.62614],[-50.78815,-14.62644],[-50.78723,-14.62741],[-50.7859,-14.62733],[-50.78412,-14.62819],[-50.78357,-14.62891],[-50.78405,-14.62989],[-50.78382,-14.63097],[-50.78323,-14.63113],[-50.7823,-14.63236],[-50.78191,-14.63407],[-50.78402,-14.63526],[-50.78527,-14.63517],[-50.78506,-14.63669],[-50.78593,-14.63769],[-50.78407,-14.63868],[-50.78407,-14.64039],[-50.78254,-14.64129],[-50.78287,-14.64248],[-50.78208,-14.64488],[-50.78377,-14.64756],[-50.7835,-14.64887],[-50.78286,-14.64902],[-50.78214,-14.64798],[-50.78131,-14.64871],[-50.78203,-14.64981],[-50.78237,-14.65118],[-50.78205,-14.65212],[-50.78236,-14.65474],[-50.78204,-14.65911],[-50.78307,-14.65996],[-50.7824,-14.66152],[-50.78412,-14.66271],[-50.78254,-14.66571],[-50.78241,-14.66688],[-50.7808,-14.66669],[-50.78026,-14.66833],[-50.78075,-14.67009],[-50.77977,-14.67074],[-50.77963,-14.67176],[-50.78084,-14.67223],[-50.77985,-14.67337],[-50.78091,-14.67417],[-50.7804,-14.6752],[-50.78082,-14.67768],[-50.78034,-14.67943],[-50.7813,-14.67911],[-50.782,-14.67965],[-50.78305,-14.6791],[-50.78352,-14.67964],[-50.78487,-14.67998],[-50.78595,-14.68083],[-50.78583,-14.68198],[-50.78455,-14.68158],[-50.78375,-14.68195],[-50.78356,-14.68282],[-50.78247,-14.68327],[-50.7807,-14.68284],[-50.78031,-14.68484],[-50.78147,-14.68584],[-50.78077,-14.68755],[-50.77956,-14.68791],[-50.77925,-14.68691],[-50.77984,-14.68594],[-50.77864,-14.68472],[-50.77858,-14.68327],[-50.7778,-14.68308],[-50.77738,-14.68439],[-50.77574,-14.68565],[-50.77502,-14.68576],[-50.77445,-14.68492],[-50.77473,-14.68404],[-50.77412,-14.68318],[-50.77283,-14.68329],[-50.7722,-14.68471],[-50.77245,-14.6856],[-50.77237,-14.68849],[-50.77156,-14.68979],[-50.77072,-14.69007],[-50.77046,-14.68801],[-50.76955,-14.6875],[-50.76879,-14.68786],[-50.76784,-14.689],[-50.76656,-14.6894],[-50.76577,-14.68908],[-50.76552,-14.68776],[-50.76664,-14.68607],[-50.76468,-14.68558],[-50.76279,-14.68597],[-50.76322,-14.68694],[-50.76267,-14.68783],[-50.75916,-14.68973],[-50.7578,-14.68931],[-50.7566,-14.68997],[-50.75723,-14.69117],[-50.75646,-14.69136],[-50.75617,-14.69271],[-50.7547,-14.6934],[-50.75483,-14.6943],[-50.75418,-14.69511],[-50.75272,-14.69538],[-50.75312,-14.69624],[-50.75418,-14.69645],[-50.75399,-14.698],[-50.75555,-14.698],[-50.75621,-14.69853],[-50.75531,-14.7],[-50.75428,-14.70023],[-50.75394,-14.70089],[-50.75233,-14.7019],[-50.75047,-14.70364],[-50.74924,-14.70527],[-50.74742,-14.70597],[-50.74816,-14.70751],[-50.74789,-14.70913],[-50.74671,-14.70955],[-50.74594,-14.7084],[-50.74507,-14.70797],[-50.74421,-14.7082],[-50.74351,-14.70735],[-50.74329,-14.70609],[-50.74164,-14.70582],[-50.74151,-14.70778],[-50.73976,-14.70858],[-50.73947,-14.70762],[-50.74022,-14.7062],[-50.73842,-14.7058],[-50.73784,-14.7075],[-50.73838,-14.70821],[-50.73816,-14.71053],[-50.73715,-14.71034],[-50.73664,-14.70922],[-50.73691,-14.7082],[-50.73617,-14.70747],[-50.73502,-14.70738],[-50.73417,-14.70664],[-50.73292,-14.70689],[-50.73306,-14.70888],[-50.73056,-14.71141],[-50.7293,-14.71224],[-50.72923,-14.71295],[-50.7306,-14.7137],[-50.7318,-14.7155],[-50.73301,-14.71597],[-50.73267,-14.71722],[-50.73268,-14.71864],[-50.73119,-14.71981],[-50.73027,-14.71972],[-50.72898,-14.7183],[-50.72854,-14.71731],[-50.72736,-14.71701],[-50.72703,-14.71538],[-50.72634,-14.71518],[-50.72511,-14.7158],[-50.72489,-14.71748],[-50.72397,-14.71837],[-50.72267,-14.71854],[-50.72222,-14.7193],[-50.72127,-14.71966],[-50.72133,-14.7208],[-50.72,-14.72062],[-50.71934,-14.71977],[-50.71818,-14.71933],[-50.72019,-14.71752],[-50.72014,-14.71621],[-50.71898,-14.71561],[-50.71773,-14.71621],[-50.71776,-14.71507],[-50.71828,-14.71423],[-50.71805,-14.71356],[-50.7169,-14.71292],[-50.71692,-14.71129],[-50.71659,-14.70956],[-50.71573,-14.70905],[-50.7148,-14.7091],[-50.71373,-14.7075],[-50.71255,-14.70734],[-50.71145,-14.70793],[-50.70952,-14.7076],[-50.70792,-14.70788],[-50.70808,-14.70909],[-50.70729,-14.7101],[-50.70654,-14.71011],[-50.70568,-14.70904],[-50.70447,-14.7104],[-50.70194,-14.70942],[-50.70144,-14.71016],[-50.70283,-14.71101],[-50.70298,-14.71183],[-50.70092,-14.71348],[-50.70107,-14.71209],[-50.70015,-14.71101],[-50.69881,-14.70801],[-50.69794,-14.70707],[-50.69652,-14.70672],[-50.69539,-14.70609],[-50.69642,-14.70485],[-50.69662,-14.70334],[-50.69602,-14.70286],[-50.69518,-14.70355],[-50.69453,-14.70309],[-50.69448,-14.70201],[-50.69364,-14.7016],[-50.69309,-14.70281],[-50.69177,-14.70458],[-50.69065,-14.70309],[-50.692,-14.70229],[-50.6923,-14.7017],[-50.69188,-14.69957],[-50.69121,-14.69916],[-50.68893,-14.70046],[-50.68726,-14.70239],[-50.68601,-14.70245],[-50.68582,-14.70185],[-50.68708,-14.70124],[-50.68594,-14.69961],[-50.68501,-14.70093],[-50.68371,-14.70132],[-50.68335,-14.70279],[-50.68212,-14.70356],[-50.68148,-14.70244],[-50.68054,-14.70297],[-50.67952,-14.70292],[-50.67749,-14.70358],[-50.67837,-14.70188],[-50.67668,-14.70126],[-50.67621,-14.70172],[-50.67486,-14.70165],[-50.67449,-14.70336],[-50.67502,-14.70414],[-50.67411,-14.70518],[-50.67249,-14.70375],[-50.67197,-14.7029],[-50.67102,-14.70283],[-50.67077,-14.70433],[-50.66916,-14.70402],[-50.66862,-14.70433],[-50.66801,-14.70604],[-50.66677,-14.70536],[-50.6656,-14.70572],[-50.66541,-14.70385],[-50.66415,-14.7033],[-50.6635,-14.70086],[-50.66051,-14.7003],[-50.66015,-14.69925],[-50.66063,-14.69863],[-50.66205,-14.69833],[-50.66179,-14.69602],[-50.66132,-14.69509],[-50.66243,-14.69467],[-50.66272,-14.69408],[-50.66197,-14.69324],[-50.66191,-14.69205],[-50.66265,-14.69133],[-50.66266,-14.69057],[-50.66181,-14.68989],[-50.66149,-14.68725],[-50.66077,-14.68722],[-50.66077,-14.68836],[-50.65938,-14.68979],[-50.65779,-14.68929],[-50.65795,-14.68844],[-50.65693,-14.68824],[-50.65608,-14.6892],[-50.65391,-14.68949],[-50.6531,-14.6888],[-50.65217,-14.68871],[-50.65071,-14.68932],[-50.65033,-14.69041],[-50.64842,-14.69045],[-50.6475,-14.6895],[-50.64746,-14.68887],[-50.64823,-14.68765],[-50.64821,-14.68548],[-50.647,-14.68385],[-50.64686,-14.68242],[-50.64792,-14.68174],[-50.6475,-14.68076],[-50.64637,-14.68132],[-50.64549,-14.68123],[-50.6441,-14.67993],[-50.64462,-14.67838],[-50.64405,-14.677],[-50.64283,-14.67653],[-50.64274,-14.6759],[-50.64348,-14.67462],[-50.64303,-14.67364],[-50.64144,-14.6731],[-50.64069,-14.67177],[-50.64017,-14.67163],[-50.6391,-14.67273],[-50.63751,-14.6731],[-50.63702,-14.67422],[-50.63526,-14.67319],[-50.63492,-14.67402],[-50.63335,-14.67435],[-50.6325,-14.67355],[-50.63142,-14.6716],[-50.62955,-14.67244],[-50.62952,-14.67329],[-50.63049,-14.67367],[-50.63099,-14.67512],[-50.6304,-14.67623],[-50.62949,-14.67667],[-50.62744,-14.67631],[-50.625,-14.67531],[-50.62416,-14.67547],[-50.62322,-14.67812],[-50.62251,-14.67891],[-50.62131,-14.67923],[-50.62106,-14.68007],[-50.61938,-14.68008],[-50.61846,-14.68082],[-50.61872,-14.68177],[-50.61835,-14.68256],[-50.61697,-14.68192],[-50.61708,-14.68024],[-50.61668,-14.67859],[-50.61452,-14.67719],[-50.61197,-14.6768],[-50.61158,-14.67832],[-50.611,-14.6785],[-50.61025,-14.67683],[-50.6098,-14.67792],[-50.60874,-14.67875],[-50.6083,-14.67744],[-50.60754,-14.67625],[-50.60756,-14.67509],[-50.60604,-14.67424],[-50.60441,-14.67443],[-50.60422,-14.67538],[-50.60358,-14.67576],[-50.60289,-14.67514],[-50.60123,-14.67573],[-50.60112,-14.677],[-50.60067,-14.67733],[-50.59954,-14.67688],[-50.59879,-14.6761],[-50.59691,-14.67608],[-50.5969,-14.67737],[-50.59568,-14.67799],[-50.59471,-14.67951],[-50.59371,-14.6793],[-50.59514,-14.67718],[-50.59483,-14.67642],[-50.59354,-14.67702],[-50.59221,-14.67563],[-50.59093,-14.67684],[-50.58967,-14.67634],[-50.58901,-14.67742],[-50.58847,-14.67742],[-50.58781,-14.67624],[-50.58906,-14.67595],[-50.58962,-14.67457],[-50.59058,-14.67447],[-50.59082,-14.67367],[-50.59013,-14.67296],[-50.59026,-14.67141],[-50.58995,-14.67046],[-50.58816,-14.67116],[-50.5868,-14.66941],[-50.58474,-14.67003],[-50.58396,-14.66988],[-50.5832,-14.66883],[-50.58312,-14.66765],[-50.58202,-14.66825],[-50.58004,-14.66857],[-50.57946,-14.66613],[-50.57903,-14.66524],[-50.57829,-14.66533],[-50.57768,-14.66632],[-50.57698,-14.66584],[-50.57726,-14.66466],[-50.57648,-14.66459],[-50.57579,-14.66576],[-50.57448,-14.66465],[-50.57448,-14.66328],[-50.57576,-14.66229],[-50.57653,-14.66081],[-50.57639,-14.66015],[-50.57476,-14.65968],[-50.57382,-14.65832],[-50.57349,-14.65636],[-50.57125,-14.65578],[-50.57061,-14.65521],[-50.57021,-14.65366],[-50.57113,-14.65375],[-50.57136,-14.65299],[-50.57231,-14.65254],[-50.57273,-14.65337],[-50.57358,-14.65239],[-50.57421,-14.65241],[-50.57536,-14.6544],[-50.57549,-14.65517],[-50.5776,-14.65504],[-50.57923,-14.65587],[-50.57964,-14.65439],[-50.58047,-14.65405],[-50.58047,-14.65323],[-50.5791,-14.65179],[-50.57909,-14.64972],[-50.57753,-14.64915],[-50.57543,-14.65001],[-50.57475,-14.65001],[-50.57339,-14.64919],[-50.57169,-14.64906],[-50.57156,-14.64815],[-50.57284,-14.64838],[-50.57386,-14.64758],[-50.57348,-14.646],[-50.57374,-14.64486],[-50.5746,-14.6438],[-50.57439,-14.6422],[-50.57309,-14.64083],[-50.57161,-14.64069],[-50.57089,-14.64018],[-50.57014,-14.63864],[-50.57075,-14.6368],[-50.57085,-14.63513],[-50.57054,-14.63252],[-50.5712,-14.63174],[-50.57251,-14.63093],[-50.57212,-14.63028],[-50.57066,-14.62965],[-50.56891,-14.62831],[-50.56834,-14.6286],[-50.56755,-14.63038],[-50.56588,-14.63055],[-50.56423,-14.62985],[-50.56286,-14.62771],[-50.5627,-14.62669],[-50.56161,-14.62542],[-50.56138,-14.62383],[-50.56089,-14.62279],[-50.55976,-14.62169],[-50.56061,-14.62109],[-50.561,-14.62025],[-50.56064,-14.61961],[-50.55954,-14.61928],[-50.55856,-14.61996],[-50.55774,-14.61921],[-50.55908,-14.61834],[-50.55963,-14.61656],[-50.55621,-14.61546],[-50.55501,-14.61567],[-50.55458,-14.61707],[-50.55242,-14.61873],[-50.552,-14.61835],[-50.55268,-14.61682],[-50.55434,-14.61396],[-50.55415,-14.6124],[-50.55322,-14.61148],[-50.55224,-14.61166],[-50.55188,-14.61289],[-50.55243,-14.61409],[-50.55222,-14.61502],[-50.5515,-14.61524],[-50.551,-14.61443],[-50.55133,-14.61336],[-50.55029,-14.61315],[-50.54975,-14.61363],[-50.54876,-14.61542],[-50.54824,-14.61764],[-50.54615,-14.62055],[-50.54442,-14.6225],[-50.54394,-14.62412],[-50.5446,-14.62618],[-50.5443,-14.628],[-50.54331,-14.62937],[-50.54267,-14.63094],[-50.54245,-14.63219],[-50.54273,-14.63374],[-50.54328,-14.6342],[-50.5446,-14.63432],[-50.54532,-14.63572],[-50.54486,-14.63714],[-50.54501,-14.63809],[-50.54582,-14.64017],[-50.54541,-14.64185],[-50.54403,-14.64308],[-50.54106,-14.64402],[-50.54021,-14.64488],[-50.53965,-14.64663],[-50.53819,-14.64661],[-50.53726,-14.64704],[-50.53724,-14.64797],[-50.53837,-14.64955],[-50.53831,-14.65024],[-50.53713,-14.65047],[-50.53496,-14.64975],[-50.53169,-14.65006],[-50.53034,-14.65069],[-50.52889,-14.65089],[-50.52361,-14.64915],[-50.52201,-14.64877],[-50.51997,-14.64951],[-50.51728,-14.65303],[-50.51697,-14.65455],[-50.51607,-14.65737],[-50.51539,-14.6583],[-50.50946,-14.66186],[-50.50811,-14.66318],[-50.50476,-14.66552],[-50.50451,-14.66699],[-50.50521,-14.6685],[-50.50661,-14.66947],[-50.50711,-14.6706],[-50.50879,-14.67084],[-50.50953,-14.6717],[-50.50967,-14.6727],[-50.50756,-14.67317],[-50.50743,-14.67433],[-50.5085,-14.67639],[-50.5098,-14.67557],[-50.51088,-14.67606],[-50.51184,-14.67749],[-50.51088,-14.67876],[-50.5093,-14.67861],[-50.50746,-14.67929],[-50.50645,-14.67908],[-50.50559,-14.68032],[-50.50689,-14.68083],[-50.50678,-14.68169],[-50.50763,-14.6828],[-50.50762,-14.68389],[-50.50666,-14.68383],[-50.5062,-14.68272],[-50.50445,-14.68316],[-50.50364,-14.68309],[-50.50262,-14.68125],[-50.50196,-14.68089],[-50.5002,-14.68167],[-50.49907,-14.68145],[-50.49867,-14.68262],[-50.49795,-14.68306],[-50.49702,-14.68225],[-50.49558,-14.6825],[-50.49621,-14.68337],[-50.49552,-14.68489],[-50.49627,-14.68568],[-50.49574,-14.68677],[-50.4943,-14.68719],[-50.49214,-14.68702],[-50.49181,-14.6875],[-50.49297,-14.68824],[-50.49287,-14.68887],[-50.49139,-14.68964],[-50.49077,-14.69064],[-50.4899,-14.69084],[-50.48717,-14.6907],[-50.4865,-14.69134],[-50.48645,-14.69378],[-50.4869,-14.69516],[-50.48674,-14.6959],[-50.48579,-14.69643],[-50.48524,-14.69823],[-50.48559,-14.69889],[-50.48669,-14.69869],[-50.48768,-14.69895],[-50.4888,-14.69982],[-50.48879,-14.70059],[-50.48791,-14.70149],[-50.48809,-14.70309],[-50.48898,-14.70329],[-50.48999,-14.70228],[-50.49136,-14.70244],[-50.49219,-14.70386],[-50.49367,-14.70516],[-50.49406,-14.70667],[-50.49569,-14.70571],[-50.49688,-14.70565],[-50.49665,-14.70676],[-50.49723,-14.70789],[-50.49892,-14.709],[-50.50164,-14.71197],[-50.50301,-14.71302],[-50.50441,-14.71468],[-50.50407,-14.71529],[-50.50297,-14.7154],[-50.50237,-14.71599],[-50.50215,-14.718],[-50.50254,-14.7184],[-50.50429,-14.71849],[-50.50472,-14.71911],[-50.50415,-14.71986],[-50.50286,-14.72005],[-50.50152,-14.72134],[-50.50051,-14.72132],[-50.49947,-14.72038],[-50.49814,-14.72167],[-50.49654,-14.72133],[-50.49654,-14.723],[-50.49401,-14.72374],[-50.49344,-14.72316],[-50.4942,-14.72234],[-50.49404,-14.72152],[-50.4931,-14.71973],[-50.49154,-14.72023],[-50.49076,-14.72013],[-50.48999,-14.71935],[-50.48862,-14.7198],[-50.48789,-14.71846],[-50.48677,-14.71891],[-50.48695,-14.72024],[-50.48626,-14.72094],[-50.48515,-14.72059],[-50.48538,-14.71961],[-50.48416,-14.71933],[-50.48353,-14.7205],[-50.48256,-14.72023],[-50.48168,-14.72058],[-50.48188,-14.72454],[-50.48009,-14.7249],[-50.47943,-14.72392],[-50.47877,-14.72373],[-50.47796,-14.72551],[-50.47885,-14.72676],[-50.47879,-14.72786],[-50.47796,-14.72806],[-50.47677,-14.72677],[-50.47601,-14.72681],[-50.47664,-14.72976],[-50.47617,-14.73063],[-50.47487,-14.73009],[-50.47472,-14.72903],[-50.47384,-14.72862],[-50.47171,-14.72937],[-50.47149,-14.73079],[-50.46924,-14.73191],[-50.46773,-14.73092],[-50.46801,-14.72861],[-50.46846,-14.72759],[-50.46818,-14.72676],[-50.46669,-14.72527],[-50.46604,-14.72615],[-50.46672,-14.72705],[-50.46636,-14.72767],[-50.4654,-14.72741],[-50.46435,-14.72778],[-50.46335,-14.72721],[-50.46441,-14.72655],[-50.46445,-14.72583],[-50.4617,-14.72207],[-50.46105,-14.72191],[-50.46018,-14.72274],[-50.45991,-14.7244],[-50.45841,-14.72525],[-50.4576,-14.7247],[-50.45869,-14.72381],[-50.45832,-14.72293],[-50.45663,-14.72223],[-50.45531,-14.72234],[-50.45598,-14.7249],[-50.45397,-14.7254],[-50.45363,-14.72438],[-50.45423,-14.72379],[-50.45332,-14.723],[-50.45185,-14.72315],[-50.45089,-14.72234],[-50.44987,-14.72301],[-50.45003,-14.7243],[-50.44884,-14.72478],[-50.44756,-14.72341],[-50.44693,-14.72321],[-50.44564,-14.72359],[-50.44525,-14.72421],[-50.44274,-14.7252],[-50.44188,-14.72603],[-50.44137,-14.72854],[-50.44089,-14.72942],[-50.43995,-14.72967],[-50.43884,-14.7292],[-50.43822,-14.7294],[-50.43708,-14.73095],[-50.43611,-14.73116],[-50.43473,-14.73077],[-50.43378,-14.73096],[-50.43298,-14.73209],[-50.43138,-14.73324],[-50.42821,-14.73269],[-50.42741,-14.73306],[-50.42679,-14.734],[-50.42591,-14.73422],[-50.42473,-14.73544],[-50.42292,-14.73553],[-50.42121,-14.73445],[-50.41972,-14.7329],[-50.41825,-14.73233],[-50.41643,-14.72991],[-50.4153,-14.72998],[-50.41353,-14.72857],[-50.4122,-14.72779],[-50.41124,-14.7277],[-50.41049,-14.72851],[-50.40909,-14.72816],[-50.40833,-14.72874],[-50.40682,-14.7311],[-50.40539,-14.73158],[-50.40425,-14.73143],[-50.40191,-14.73055],[-50.3997,-14.73046],[-50.39867,-14.72927],[-50.39637,-14.72912],[-50.39449,-14.7298],[-50.39292,-14.72985],[-50.39217,-14.7304],[-50.39049,-14.73078],[-50.38927,-14.73027],[-50.38792,-14.73025],[-50.38673,-14.72963],[-50.38546,-14.72949],[-50.38461,-14.72838],[-50.3835,-14.72788],[-50.38142,-14.72855],[-50.38004,-14.72828],[-50.37985,-14.72745],[-50.37899,-14.72703],[-50.37778,-14.72787],[-50.37649,-14.72789],[-50.3757,-14.7273],[-50.37381,-14.72687],[-50.3729,-14.72639],[-50.37144,-14.72633],[-50.37049,-14.72571],[-50.36822,-14.72578],[-50.36508,-14.72545],[-50.36227,-14.72581],[-50.35909,-14.72495],[-50.35809,-14.72551],[-50.35652,-14.72513],[-50.3542,-14.72493],[-50.35252,-14.72424],[-50.35158,-14.72509],[-50.35061,-14.72484],[-50.34716,-14.72584],[-50.34608,-14.72649],[-50.34375,-14.72581],[-50.34273,-14.72643],[-50.34239,-14.72732],[-50.3412,-14.72825],[-50.33982,-14.72801],[-50.3391,-14.72703],[-50.33789,-14.72692],[-50.33733,-14.72599],[-50.33396,-14.72488],[-50.33328,-14.72399],[-50.33214,-14.72395],[-50.33164,-14.72464],[-50.32868,-14.72527],[-50.32485,-14.72526],[-50.32334,-14.72719],[-50.32265,-14.72718],[-50.32109,-14.72951],[-50.32017,-14.72975],[-50.3199,-14.73097],[-50.31863,-14.73179],[-50.31745,-14.73153],[-50.31492,-14.73217],[-50.31328,-14.73102],[-50.31168,-14.73077],[-50.31085,-14.73107],[-50.3101,-14.73196],[-50.30734,-14.7344],[-50.30489,-14.73563],[-50.30443,-14.73618],[-50.30376,-14.73822],[-50.30263,-14.73928],[-50.30118,-14.7391],[-50.29888,-14.73827],[-50.29733,-14.73847],[-50.29332,-14.73948],[-50.29149,-14.73921],[-50.29028,-14.73804],[-50.28922,-14.73859],[-50.28728,-14.73876],[-50.28457,-14.73785],[-50.28304,-14.73761],[-50.28256,-14.737],[-50.2815,-14.737],[-50.28049,-14.7359],[-50.27823,-14.73426],[-50.27719,-14.73372],[-50.27639,-14.73278],[-50.2746,-14.73206],[-50.26715,-14.71659],[-50.23512,-14.6501],[-50.23503,-14.64901],[-50.23676,-14.64934],[-50.23855,-14.64851],[-50.24072,-14.64705],[-50.24128,-14.64555],[-50.24083,-14.6443],[-50.24115,-14.64308],[-50.24027,-14.64241],[-50.24039,-14.64057],[-50.23973,-14.64043],[-50.24043,-14.63905],[-50.23984,-14.63746],[-50.24046,-14.6347],[-50.24211,-14.634],[-50.24245,-14.63282],[-50.24006,-14.63092],[-50.23863,-14.62943],[-50.23849,-14.62891],[-50.23939,-14.628],[-50.2411,-14.62823],[-50.2415,-14.62623],[-50.24091,-14.6249],[-50.24105,-14.62298],[-50.24033,-14.62093],[-50.2391,-14.61941],[-50.23932,-14.6185],[-50.24044,-14.61794],[-50.24117,-14.61643],[-50.24428,-14.61452],[-50.2455,-14.61525],[-50.24606,-14.61393],[-50.24973,-14.61311],[-50.25138,-14.61383],[-50.25256,-14.61293],[-50.25341,-14.61303],[-50.25411,-14.61081],[-50.25521,-14.61062],[-50.25511,-14.60978],[-50.25602,-14.60913],[-50.25607,-14.60819],[-50.25878,-14.60577],[-50.25924,-14.60404],[-50.2608,-14.60339],[-50.26104,-14.60224],[-50.26215,-14.60233],[-50.26274,-14.60286],[-50.26623,-14.60283],[-50.26716,-14.60319],[-50.26825,-14.60208],[-50.26807,-14.59962],[-50.2674,-14.59888],[-50.26884,-14.59715],[-50.26958,-14.59668],[-50.2712,-14.59658],[-50.27075,-14.59554],[-50.27236,-14.595],[-50.27414,-14.59354],[-50.27458,-14.59429],[-50.27409,-14.59508],[-50.27497,-14.59558],[-50.27698,-14.5941],[-50.27801,-14.59262],[-50.28071,-14.59131],[-50.28202,-14.59218],[-50.28291,-14.59212],[-50.28294,-14.59098],[-50.28377,-14.59032],[-50.28372,-14.58918],[-50.28496,-14.58827],[-50.28673,-14.58826],[-50.28687,-14.58719],[-50.28936,-14.58586],[-50.28977,-14.58477],[-50.29047,-14.5848],[-50.29207,-14.58389],[-50.2925,-14.58328],[-50.29479,-14.58191],[-50.29515,-14.58035],[-50.29399,-14.57742],[-50.29468,-14.57684],[-50.29427,-14.57589],[-50.29294,-14.57519],[-50.29259,-14.57339],[-50.29296,-14.57166],[-50.29246,-14.5693],[-50.2939,-14.56897],[-50.2941,-14.56779],[-50.29237,-14.56696],[-50.29051,-14.56454],[-50.28962,-14.56394],[-50.28645,-14.56299],[-50.28644,-14.56213],[-50.2876,-14.56168],[-50.28844,-14.56055],[-50.28905,-14.55843],[-50.28782,-14.55772],[-50.28791,-14.55645],[-50.28755,-14.55567],[-50.28461,-14.55319],[-50.28276,-14.5529],[-50.28265,-14.55123],[-50.28004,-14.55079],[-50.27969,-14.54907],[-50.28033,-14.54834],[-50.27932,-14.54773],[-50.2798,-14.54685],[-50.27842,-14.54657],[-50.27736,-14.5484],[-50.27712,-14.54593],[-50.27484,-14.54593],[-50.27398,-14.54627],[-50.27339,-14.54572],[-50.27375,-14.54476],[-50.27229,-14.545],[-50.27177,-14.54386],[-50.27048,-14.54471],[-50.26965,-14.54563],[-50.26823,-14.54465],[-50.26816,-14.54394],[-50.26907,-14.54268],[-50.26803,-14.54241],[-50.26752,-14.54174],[-50.26766,-14.54041],[-50.26647,-14.5384],[-50.26653,-14.53721],[-50.26734,-14.53722],[-50.26819,-14.53585],[-50.27129,-14.53487],[-50.27167,-14.5337],[-50.27063,-14.53258],[-50.27078,-14.53175],[-50.26977,-14.529],[-50.27098,-14.52836],[-50.27095,-14.52724],[-50.27149,-14.5269],[-50.2728,-14.52736],[-50.2743,-14.52685],[-50.27487,-14.52633],[-50.27668,-14.52714],[-50.27732,-14.52665],[-50.27725,-14.52551],[-50.2794,-14.52371],[-50.27934,-14.52289],[-50.2783,-14.52242],[-50.27967,-14.52119],[-50.28084,-14.52124],[-50.2813,-14.52049],[-50.28024,-14.51898],[-50.27858,-14.51759],[-50.27906,-14.51676],[-50.27766,-14.51572],[-50.27718,-14.51497],[-50.27772,-14.51438],[-50.27706,-14.51365],[-50.2778,-14.51295],[-50.27751,-14.51167],[-50.27834,-14.51142],[-50.27913,-14.51045],[-50.28066,-14.51027],[-50.28202,-14.50972],[-50.28326,-14.50975],[-50.28356,-14.50901],[-50.28452,-14.50895],[-50.28493,-14.50836],[-50.28742,-14.50762],[-50.28819,-14.50593],[-50.28746,-14.50382],[-50.288,-14.50247],[-50.28902,-14.50171],[-50.28922,-14.50277],[-50.28988,-14.50281],[-50.29086,-14.50151],[-50.29178,-14.50136],[-50.29271,-14.50054],[-50.29371,-14.50264],[-50.2942,-14.50273],[-50.29699,-14.50065],[-50.29685,-14.49971],[-50.2979,-14.49949],[-50.29906,-14.4985],[-50.30072,-14.4979],[-50.30211,-14.49915],[-50.30223,-14.49825],[-50.30297,-14.49694],[-50.3041,-14.49581],[-50.30522,-14.49534],[-50.30618,-14.49359],[-50.30677,-14.49326],[-50.3074,-14.49179],[-50.30675,-14.49013],[-50.3067,-14.48928],[-50.30747,-14.48852],[-50.30695,-14.48753],[-50.30419,-14.48829],[-50.3029,-14.48795],[-50.3018,-14.48657],[-50.3018,-14.48468],[-50.30102,-14.48449],[-50.30098,-14.48142],[-50.30162,-14.48055],[-50.30049,-14.47909],[-50.3008,-14.47824],[-50.30195,-14.47766],[-50.30238,-14.47699],[-50.30485,-14.47533],[-50.30438,-14.4739],[-50.3037,-14.47295],[-50.30217,-14.47357],[-50.30139,-14.4734],[-50.30051,-14.47239],[-50.30097,-14.47135],[-50.30084,-14.47034],[-50.30252,-14.46944],[-50.30092,-14.46779],[-50.30095,-14.46707],[-50.29866,-14.46636],[-50.29795,-14.46548],[-50.29984,-14.46356],[-50.30091,-14.46308],[-50.30031,-14.46074],[-50.30135,-14.46019],[-50.30165,-14.45885],[-50.3028,-14.45787],[-50.30349,-14.45643],[-50.30208,-14.45515],[-50.30213,-14.45422],[-50.30345,-14.45385],[-50.30317,-14.45307],[-50.30127,-14.45277],[-50.30069,-14.45146],[-50.30169,-14.45118],[-50.30104,-14.45013],[-50.30175,-14.4495],[-50.30077,-14.44799],[-50.30129,-14.44558],[-50.30188,-14.44536],[-50.30229,-14.44424],[-50.3012,-14.4441],[-50.30093,-14.44341],[-50.30319,-14.4416],[-50.30496,-14.44195],[-50.30713,-14.44186],[-50.30981,-14.44063],[-50.31037,-14.43929],[-50.31181,-14.439],[-50.31234,-14.43807],[-50.31246,-14.43571],[-50.31347,-14.43531],[-50.31407,-14.43404],[-50.31285,-14.43389],[-50.31231,-14.4332],[-50.31391,-14.43233],[-50.31337,-14.4315],[-50.31227,-14.43142],[-50.31226,-14.43025],[-50.31439,-14.43007],[-50.31241,-14.42742],[-50.31327,-14.42657],[-50.31404,-14.42697],[-50.31451,-14.42604],[-50.31678,-14.42584],[-50.31724,-14.42535],[-50.31885,-14.42501],[-50.31937,-14.42416],[-50.31923,-14.42276],[-50.31862,-14.42206],[-50.31918,-14.42152],[-50.3203,-14.42182],[-50.32083,-14.41884],[-50.32232,-14.41779],[-50.32391,-14.41798],[-50.32342,-14.41515],[-50.32304,-14.41442],[-50.32429,-14.41335],[-50.32504,-14.41412],[-50.32581,-14.41403],[-50.32549,-14.41236],[-50.32486,-14.41153],[-50.32566,-14.41013],[-50.32715,-14.4099],[-50.32669,-14.40903],[-50.32772,-14.40852],[-50.3279,-14.40743],[-50.32919,-14.40626],[-50.32894,-14.40525],[-50.32804,-14.40461],[-50.32842,-14.40375],[-50.32968,-14.40305],[-50.33086,-14.40151],[-50.33,-14.39969],[-50.3325,-14.39719],[-50.33217,-14.39582],[-50.3306,-14.39591],[-50.33018,-14.39458],[-50.33063,-14.39349],[-50.33221,-14.39186],[-50.33319,-14.39227],[-50.33377,-14.39358],[-50.33476,-14.39275],[-50.33443,-14.39123],[-50.3352,-14.39097],[-50.33585,-14.3888],[-50.33717,-14.38862],[-50.33811,-14.39021],[-50.33889,-14.38974],[-50.33786,-14.38849],[-50.33897,-14.38752],[-50.33928,-14.38638],[-50.33775,-14.3837],[-50.33857,-14.38208],[-50.33879,-14.38099],[-50.34004,-14.37945],[-50.3402,-14.3781],[-50.33809,-14.37774],[-50.33785,-14.37728],[-50.33809,-14.37562],[-50.33784,-14.37477],[-50.3398,-14.37324],[-50.33999,-14.37151],[-50.33952,-14.37066],[-50.34073,-14.36967],[-50.34159,-14.36944],[-50.34197,-14.37026],[-50.34304,-14.36952],[-50.34238,-14.36862],[-50.34335,-14.36799],[-50.34359,-14.369],[-50.34459,-14.36827],[-50.34372,-14.36769],[-50.3436,-14.36665],[-50.34561,-14.3666],[-50.34683,-14.36617],[-50.34756,-14.36522],[-50.34649,-14.36343],[-50.34805,-14.36211],[-50.34746,-14.36154],[-50.34733,-14.36036],[-50.34581,-14.3581],[-50.34679,-14.35786],[-50.34648,-14.35646],[-50.34669,-14.35571],[-50.34792,-14.35547],[-50.34854,-14.35463],[-50.34952,-14.35501],[-50.35093,-14.35483],[-50.35057,-14.35328],[-50.35185,-14.35278],[-50.35338,-14.35278],[-50.35374,-14.35419],[-50.35467,-14.35359],[-50.32548,-14.3221],[-50.26514,-14.25699],[-50.1752,-14.15995],[-50.14352,-14.12576]]]},"properties":{"codigo":"521483805","name":"Nova Crixás","population":9439,"households":4425,"areaKm2":3168.482,"density":3}},{"type":"Feature","geometry":{"type":"Polygon","coordinates":[[[-50.8415,-14.10433],[-50.84145,-14.10557],[-50.84049,-14.11003],[-50.84056,-14.11141],[-50.84109,-14.11219],[-50.8439,-14.1137],[-50.84803,-14.11835],[-50.84883,-14.11951],[-50.84908,-14.12124],[-50.84878,-14.12241],[-50.84804,-14.12332],[-50.84342,-14.12589],[-50.84197,-14.12637],[-50.83858,-14.12645],[-50.83732,-14.12712],[-50.82724,-14.13793],[-50.82652,-14.13919],[-50.82666,-14.14031],[-50.82831,-14.14306],[-50.82888,-14.14477],[-50.8287,-14.14641],[-50.82746,-14.14753],[-50.82616,-14.14799],[-50.82319,-14.1485],[-50.82179,-14.14928],[-50.8204,-14.15092],[-50.82023,-14.15321],[-50.81982,-14.15486],[-50.81845,-14.15712],[-50.8181,-14.15947],[-50.81615,-14.16272],[-50.81414,-14.16441],[-50.80704,-14.1678],[-50.80675,-14.1684],[-50.80816,-14.17082],[-50.8082,-14.17201],[-50.80697,-14.17447],[-50.80539,-14.17614],[-50.80332,-14.17737],[-50.80122,-14.17809],[-50.80049,-14.17979],[-50.80137,-14.1826],[-50.80153,-14.18393],[-50.80124,-14.18547],[-50.80208,-14.18678],[-50.80192,-14.19012],[-50.79981,-14.19281],[-50.7995,-14.19434],[-50.80041,-14.19722],[-50.80042,-14.19856],[-50.80001,-14.20158],[-50.79926,-14.20316],[-50.79837,-14.20356],[-50.79786,-14.20295],[-50.7979,-14.19956],[-50.79751,-14.19863],[-50.79667,-14.198],[-50.79521,-14.1983],[-50.79419,-14.1995],[-50.79418,-14.20033],[-50.7949,-14.20191],[-50.79577,-14.20504],[-50.79585,-14.20694],[-50.79557,-14.20908],[-50.79497,-14.21066],[-50.79448,-14.21104],[-50.79288,-14.2112],[-50.79116,-14.21169],[-50.78952,-14.21244],[-50.78866,-14.21328],[-50.78856,-14.21405],[-50.78908,-14.21726],[-50.79012,-14.21977],[-50.79003,-14.22162],[-50.78912,-14.22234],[-50.78774,-14.22164],[-50.78768,-14.22041],[-50.78715,-14.21932],[-50.78601,-14.21905],[-50.78392,-14.21944],[-50.7832,-14.21987],[-50.78293,-14.2209],[-50.78369,-14.22253],[-50.78576,-14.22367],[-50.78653,-14.22436],[-50.78663,-14.22546],[-50.78456,-14.22921],[-50.78438,-14.23138],[-50.78529,-14.2331],[-50.78912,-14.23665],[-50.79005,-14.23785],[-50.79113,-14.24111],[-50.79124,-14.24194],[-50.79072,-14.24283],[-50.78938,-14.24326],[-50.78599,-14.2427],[-50.78341,-14.24323],[-50.78264,-14.24319],[-50.77817,-14.2423],[-50.77598,-14.24173],[-50.77448,-14.24195],[-50.77314,-14.24347],[-50.77198,-14.24528],[-50.77194,-14.24688],[-50.77278,-14.24854],[-50.7738,-14.24983],[-50.77413,-14.25125],[-50.77351,-14.25351],[-50.77312,-14.2588],[-50.77244,-14.25997],[-50.77126,-14.26002],[-50.77004,-14.25855],[-50.76885,-14.25866],[-50.76727,-14.25976],[-50.76647,-14.26476],[-50.76663,-14.26582],[-50.76761,-14.26823],[-50.76728,-14.27089],[-50.76758,-14.27306],[-50.76807,-14.27365],[-50.77066,-14.27506],[-50.77148,-14.27708],[-50.7708,-14.27834],[-50.76949,-14.27999],[-50.76929,-14.28148],[-50.77005,-14.28339],[-50.77023,-14.28462],[-50.76992,-14.28532],[-50.76901,-14.28568],[-50.76704,-14.28537],[-50.7663,-14.2861],[-50.76638,-14.28719],[-50.76719,-14.28961],[-50.76832,-14.29101],[-50.7692,-14.29341],[-50.76883,-14.29515],[-50.76666,-14.29657],[-50.76554,-14.29673],[-50.76337,-14.29613],[-50.7623,-14.29489],[-50.76143,-14.29283],[-50.75947,-14.29265],[-50.75902,-14.29335],[-50.7586,-14.29521],[-50.75848,-14.29754],[-50.75958,-14.30106],[-50.76006,-14.30178],[-50.76277,-14.30419],[-50.76442,-14.30516],[-50.76582,-14.30501],[-50.76585,-14.30657],[-50.76362,-14.30783],[-50.76041,-14.31019],[-50.75973,-14.31106],[-50.75901,-14.31323],[-50.75928,-14.31523],[-50.75903,-14.31695],[-50.7595,-14.31945],[-50.76027,-14.32072],[-50.76135,-14.32112],[-50.76406,-14.32257],[-50.76465,-14.32335],[-50.76601,-14.32647],[-50.76797,-14.32878],[-50.76805,-14.32997],[-50.76733,-14.3317],[-50.76689,-14.33412],[-50.76685,-14.33571],[-50.76736,-14.33874],[-50.76789,-14.3396],[-50.76906,-14.34027],[-50.77267,-14.34164],[-50.77372,-14.34283],[-50.77458,-14.34472],[-50.7748,-14.34586],[-50.77654,-14.34794],[-50.77744,-14.34944],[-50.77771,-14.3509],[-50.77771,-14.35313],[-50.7781,-14.35419],[-50.77932,-14.35461],[-50.78013,-14.35437],[-50.78189,-14.35237],[-50.7827,-14.35186],[-50.78423,-14.35169],[-50.78554,-14.35212],[-50.7872,-14.35196],[-50.78831,-14.35096],[-50.78892,-14.34933],[-50.79014,-14.34852],[-50.79176,-14.34843],[-50.79451,-14.34891],[-50.7959,-14.35063],[-50.79674,-14.35409],[-50.79699,-14.35698],[-50.79679,-14.35798],[-50.79612,-14.35865],[-50.79439,-14.35915],[-50.79315,-14.35885],[-50.78971,-14.35659],[-50.78859,-14.35696],[-50.78805,-14.35828],[-50.78809,-14.35932],[-50.78888,-14.36129],[-50.79003,-14.36229],[-50.79233,-14.36355],[-50.79411,-14.36524],[-50.79446,-14.36713],[-50.79432,-14.36864],[-50.79283,-14.37334],[-50.79305,-14.3742],[-50.79495,-14.37517],[-50.79582,-14.37631],[-50.7963,-14.37794],[-50.7961,-14.37998],[-50.79637,-14.38153],[-50.79771,-14.38251],[-50.79912,-14.38217],[-50.80114,-14.38115],[-50.80281,-14.38076],[-50.80439,-14.38142],[-50.80414,-14.38269],[-50.80202,-14.38318],[-50.8013,-14.38377],[-50.80078,-14.38516],[-50.80047,-14.38729],[-50.79979,-14.38913],[-50.79849,-14.39107],[-50.79807,-14.39259],[-50.79875,-14.39409],[-50.79937,-14.39459],[-50.80081,-14.39444],[-50.80215,-14.3937],[-50.80317,-14.39352],[-50.8057,-14.39411],[-50.80694,-14.39504],[-50.80791,-14.39781],[-50.80889,-14.40177],[-50.81083,-14.40308],[-50.81202,-14.40318],[-50.8136,-14.40218],[-50.81398,-14.40137],[-50.81425,-14.39886],[-50.8152,-14.39773],[-50.81732,-14.39716],[-50.81943,-14.39759],[-50.82048,-14.39752],[-50.82046,-14.39863],[-50.819,-14.39881],[-50.81784,-14.39952],[-50.81758,-14.40046],[-50.81884,-14.40247],[-50.81926,-14.40383],[-50.81897,-14.4048],[-50.81757,-14.40641],[-50.81757,-14.40739],[-50.81829,-14.40829],[-50.82065,-14.4084],[-50.82248,-14.40905],[-50.82322,-14.40978],[-50.82561,-14.41349],[-50.82655,-14.41426],[-50.8281,-14.41488],[-50.82994,-14.41521],[-50.83181,-14.41525],[-50.8335,-14.41594],[-50.83382,-14.41666],[-50.83405,-14.41871],[-50.83452,-14.41986],[-50.8354,-14.42065],[-50.83932,-14.42282],[-50.83981,-14.42351],[-50.83983,-14.42561],[-50.83713,-14.42856],[-50.83692,-14.42995],[-50.83895,-14.43571],[-50.83882,-14.4365],[-50.83787,-14.4377],[-50.83774,-14.43925],[-50.83834,-14.4401],[-50.84052,-14.44221],[-50.84321,-14.44563],[-50.84358,-14.447],[-50.84294,-14.44752],[-50.84038,-14.4484],[-50.84005,-14.45005],[-50.84104,-14.45146],[-50.84118,-14.45244],[-50.8406,-14.4538],[-50.83951,-14.45407],[-50.83838,-14.4548],[-50.8381,-14.45585],[-50.83874,-14.45692],[-50.84018,-14.4578],[-50.84194,-14.4584],[-50.84404,-14.45877],[-50.8474,-14.45915],[-50.84924,-14.46027],[-50.8498,-14.46131],[-50.84973,-14.46274],[-50.84914,-14.46394],[-50.84789,-14.46452],[-50.84531,-14.46336],[-50.84419,-14.46318],[-50.84244,-14.46348],[-50.84103,-14.46398],[-50.84035,-14.46472],[-50.83997,-14.46617],[-50.83998,-14.4685],[-50.84084,-14.47012],[-50.84516,-14.4715],[-50.84646,-14.47222],[-50.8495,-14.47492],[-50.85219,-14.47796],[-50.85414,-14.47945],[-50.85439,-14.48007],[-50.85394,-14.48334],[-50.85552,-14.48651],[-50.8561,-14.48736],[-50.85766,-14.48869],[-50.85822,-14.49074],[-50.85687,-14.49217],[-50.857,-14.4935],[-50.85548,-14.4932],[-50.85544,-14.49402],[-50.85671,-14.49513],[-50.8577,-14.49745],[-50.85747,-14.49841],[-50.85648,-14.50047],[-50.85665,-14.50213],[-50.85614,-14.50405],[-50.85663,-14.50615],[-50.85603,-14.50741],[-50.85449,-14.5084],[-50.85409,-14.50968],[-50.85444,-14.51151],[-50.85428,-14.51508],[-50.85473,-14.51689],[-50.85614,-14.51815],[-50.85756,-14.51867],[-50.85994,-14.51861],[-50.86216,-14.51917],[-50.8629,-14.51979],[-50.86289,-14.52096],[-50.86089,-14.52543],[-50.85957,-14.52596],[-50.85792,-14.5229],[-50.85707,-14.52196],[-50.85514,-14.52172],[-50.85447,-14.52279],[-50.855,-14.52466],[-50.85601,-14.52539],[-50.85826,-14.52619],[-50.86054,-14.52773],[-50.86126,-14.52886],[-50.86151,-14.53016],[-50.86112,-14.53217],[-50.86011,-14.53434],[-50.85819,-14.53662],[-50.85708,-14.53869],[-50.85719,-14.54061],[-50.85761,-14.5415],[-50.86019,-14.5437],[-50.86072,-14.54464],[-50.86237,-14.54866],[-50.86313,-14.54971],[-50.86539,-14.55129],[-50.86532,-14.55274],[-50.86223,-14.55322],[-50.86109,-14.55398],[-50.86032,-14.55496],[-50.85976,-14.55737],[-50.8604,-14.55825],[-50.86195,-14.55837],[-50.86439,-14.55818],[-50.86666,-14.55874],[-50.86694,-14.55966],[-50.86625,-14.56183],[-50.86674,-14.56263],[-50.86802,-14.56239],[-50.86908,-14.56082],[-50.87091,-14.56041],[-50.87263,-14.5613],[-50.87322,-14.56222],[-50.87373,-14.56393],[-50.87307,-14.56519],[-50.87161,-14.56533],[-50.87028,-14.56646],[-50.87041,-14.5672],[-50.87222,-14.56737],[-50.87364,-14.56805],[-50.87413,-14.56964],[-50.87342,-14.57025],[-50.87112,-14.57023],[-50.86988,-14.57074],[-50.86937,-14.57146],[-50.86998,-14.57272],[-50.87269,-14.57332],[-50.87522,-14.57445],[-50.87746,-14.57679],[-50.87747,-14.57797],[-50.87625,-14.57844],[-50.87563,-14.58065],[-50.87453,-14.58079],[-50.87313,-14.5781],[-50.87213,-14.57799],[-50.87199,-14.57934],[-50.87326,-14.58084],[-50.87318,-14.58199],[-50.87245,-14.58314],[-50.87247,-14.58514],[-50.87325,-14.58633],[-50.87525,-14.58689],[-50.87787,-14.58557],[-50.87912,-14.58569],[-50.87948,-14.58697],[-50.87832,-14.58946],[-50.87834,-14.59269],[-50.88051,-14.59807],[-50.88089,-14.59924],[-50.88067,-14.60048],[-50.87942,-14.60182],[-50.8784,-14.6022],[-50.87665,-14.60195],[-50.87469,-14.60236],[-50.87156,-14.6038],[-50.87006,-14.60479],[-50.86925,-14.60576],[-50.86823,-14.6085],[-50.86816,-14.60984],[-50.86877,-14.61143],[-50.86803,-14.61178],[-50.86676,-14.61001],[-50.86545,-14.60929],[-50.86419,-14.60981],[-50.86414,-14.61143],[-50.86587,-14.61457],[-50.86598,-14.61573],[-50.8657,-14.61727],[-50.86402,-14.6208],[-50.86301,-14.62203],[-50.86103,-14.62214],[-50.85887,-14.62046],[-50.858,-14.61938],[-50.85755,-14.61819],[-50.85611,-14.61733],[-50.85486,-14.61727],[-50.85343,-14.6176],[-50.85117,-14.61878],[-50.85066,-14.62112],[-50.84972,-14.62144],[-50.84809,-14.62019],[-50.8467,-14.61896],[-50.84804,-14.61695],[-50.84962,-14.61652],[-50.8485,-14.61511],[-50.84749,-14.61582],[-50.84695,-14.61403],[-50.84575,-14.61324],[-50.84667,-14.61272],[-50.8469,-14.61135],[-50.84582,-14.60986],[-50.84415,-14.61041],[-50.84484,-14.61174],[-50.84417,-14.61282],[-50.84321,-14.6111],[-50.84319,-14.6105],[-50.84179,-14.61037],[-50.84148,-14.61014],[-50.69991,-14.49148],[-50.60113,-14.40868],[-50.56948,-14.38216],[-50.53045,-14.34945],[-50.48905,-14.31469],[-50.48726,-14.31419],[-50.48104,-14.3116],[-50.47908,-14.31068],[-50.47815,-14.30918],[-50.47653,-14.30777],[-50.47381,-14.30485],[-50.47194,-14.3041],[-50.46827,-14.30301],[-50.46657,-14.30209],[-50.46504,-14.30051],[-50.46385,-14.29893],[-50.46155,-14.29942],[-50.46044,-14.30025],[-50.45822,-14.30049],[-50.45677,-14.29991],[-50.45456,-14.29866],[-50.45218,-14.29682],[-50.44996,-14.29491],[-50.44648,-14.29125],[-50.44512,-14.28958],[-50.44427,-14.28609],[-50.44326,-14.28309],[-50.44301,-14.2811],[-50.44199,-14.27869],[-50.44183,-14.27628],[-50.44234,-14.27437],[-50.44414,-14.27005],[-50.44603,-14.26741],[-50.44729,-14.2664],[-50.44895,-14.26337],[-50.44932,-14.26149],[-50.44896,-14.2598],[-50.44805,-14.25801],[-50.44558,-14.25497],[-50.4443,-14.25318],[-50.44257,-14.25166],[-50.44092,-14.2506],[-50.43815,-14.24966],[-50.43505,-14.24751],[-50.43446,-14.24598],[-50.43312,-14.24365],[-50.43208,-14.24219],[-50.42939,-14.2408],[-50.4291,-14.23935],[-50.42993,-14.23739],[-50.43001,-14.23171],[-50.43099,-14.22931],[-50.43249,-14.22779],[-50.43428,-14.22648],[-50.43563,-14.22481],[-50.43601,-14.22292],[-50.43616,-14.22067],[-50.43691,-14.21747],[-50.43722,-14.21448],[-50.4361,-14.21332],[-50.43545,-14.20998],[-50.43455,-14.20882],[-50.43385,-14.20652],[-50.43402,-14.20436],[-50.43547,-14.20263],[-50.4372,-14.20106],[-50.43861,-14.19877],[-50.43926,-14.19674],[-50.4386,-14.19414],[-50.43755,-14.19191],[-50.43485,-14.18373],[-50.43336,-14.18183],[-50.42781,-14.17928],[-50.42682,-14.17776],[-50.42704,-14.17413],[-50.42633,-14.17234],[-50.42528,-14.17115],[-50.42439,-14.1686],[-50.42579,-14.16444],[-50.42563,-14.16297],[-50.42564,-14.15967],[-50.42692,-14.15816],[-50.42881,-14.1567],[-50.42881,-14.15502],[-50.4291,-14.15334],[-50.43043,-14.15135],[-50.43338,-14.1488],[-50.43583,-14.14643],[-50.438,-14.14481],[-50.44034,-14.14384],[-50.44217,-14.14217],[-50.44512,-14.14066],[-50.44711,-14.13925],[-50.44795,-14.13796],[-50.44603,-14.13399],[-50.44689,-14.13322],[-50.44785,-14.13159],[-50.44906,-14.13022],[-50.45016,-14.12959],[-50.4508,-14.12792],[-50.45208,-14.12654],[-50.45253,-14.12545],[-50.45503,-14.12427],[-50.45614,-14.12417],[-50.45747,-14.12228],[-50.45807,-14.12192],[-50.45836,-14.12073],[-50.45801,-14.1195],[-50.4583,-14.11901],[-50.45965,-14.11887],[-50.45973,-14.11816],[-50.45864,-14.11706],[-50.4587,-14.11651],[-50.46012,-14.11589],[-50.46146,-14.11716],[-50.46235,-14.11608],[-50.46474,-14.11527],[-50.46547,-14.11401],[-50.46534,-14.11296],[-50.46606,-14.11175],[-50.46557,-14.11048],[-50.46598,-14.10961],[-50.46564,-14.10682],[-50.4664,-14.10533],[-50.46632,-14.1031],[-50.467,-14.10034],[-50.46641,-14.09811],[-50.46387,-14.09684],[-50.46152,-14.09498],[-50.46036,-14.09337],[-50.46036,-14.09219],[-50.46136,-14.09005],[-50.46225,-14.0894],[-50.46413,-14.08891],[-50.46501,-14.086],[-50.46545,-14.08576],[-50.46763,-14.08632],[-50.46817,-14.08578],[-50.46816,-14.0848],[-50.46746,-14.08299],[-50.4662,-14.0822],[-50.46584,-14.08157],[-50.46636,-14.08014],[-50.46732,-14.07848],[-50.46718,-14.07646],[-50.46667,-14.07538],[-50.46752,-14.07346],[-50.47093,-14.07331],[-50.47163,-14.07252],[-50.47172,-14.07063],[-50.47342,-14.0696],[-50.47494,-14.06812],[-50.47685,-14.068],[-50.47808,-14.0682],[-50.47795,-14.06658],[-50.47901,-14.06678],[-50.48021,-14.06622],[-50.48004,-14.06483],[-50.48076,-14.06398],[-50.48209,-14.06487],[-50.48398,-14.06472],[-50.48488,-14.06536],[-50.48513,-14.06362],[-50.48622,-14.06263],[-50.48598,-14.06182],[-50.48727,-14.06101],[-50.48861,-14.06141],[-50.49007,-14.06364],[-50.48972,-14.0653],[-50.49066,-14.06642],[-50.49339,-14.06458],[-50.49371,-14.06409],[-50.49536,-14.06377],[-50.49669,-14.06173],[-50.49567,-14.05927],[-50.49597,-14.05792],[-50.49672,-14.05663],[-50.49664,-14.05562],[-50.4961,-14.05487],[-50.49485,-14.05494],[-50.49474,-14.05429],[-50.49609,-14.05362],[-50.49619,-14.05192],[-50.49476,-14.05089],[-50.49368,-14.0507],[-50.49292,-14.04848],[-50.49185,-14.04794],[-50.4921,-14.04637],[-50.4932,-14.04663],[-50.49428,-14.04753],[-50.49542,-14.04738],[-50.49652,-14.04557],[-50.49783,-14.04565],[-50.49848,-14.04526],[-50.49878,-14.0443],[-50.49957,-14.04414],[-50.50105,-14.04536],[-50.50232,-14.04531],[-50.50435,-14.04421],[-50.5036,-14.04353],[-50.50363,-14.04282],[-50.50479,-14.04277],[-50.50569,-14.04382],[-50.50693,-14.04405],[-50.50782,-14.04331],[-50.50839,-14.04223],[-50.50857,-14.04004],[-50.51039,-14.03957],[-50.51201,-14.03826],[-50.51328,-14.03814],[-50.51358,-14.03741],[-50.51321,-14.03655],[-50.51104,-14.03602],[-50.51046,-14.03519],[-50.51093,-14.03335],[-50.51129,-14.03057],[-50.51259,-14.02917],[-50.51314,-14.0277],[-50.51375,-14.02735],[-50.51486,-14.02821],[-50.51623,-14.0273],[-50.51657,-14.02545],[-50.51545,-14.02326],[-50.51407,-14.0225],[-50.51386,-14.02145],[-50.5155,-14.02057],[-50.51583,-14.01958],[-50.51553,-14.01868],[-50.51452,-14.01778],[-50.51457,-14.01646],[-50.51581,-14.01605],[-50.51544,-14.01432],[-50.51462,-14.01397],[-50.51255,-14.01481],[-50.51167,-14.01452],[-50.51161,-14.01332],[-50.51295,-14.00997],[-50.51544,-14.00724],[-50.52045,-14.00521],[-50.52157,-14.0038],[-50.52475,-14.00477],[-50.52565,-14.00454],[-50.52607,-14.00367],[-50.52606,-14.00168],[-50.52645,-14.0004],[-50.52623,-13.99935],[-50.52412,-13.99725],[-50.52406,-13.99576],[-50.52206,-13.99392],[-50.52163,-13.99296],[-50.52148,-13.991],[-50.52006,-13.99027],[-50.51951,-13.98961],[-50.5199,-13.98796],[-50.52147,-13.98687],[-50.52356,-13.9877],[-50.52598,-13.98835],[-50.52804,-13.98842],[-50.52889,-13.98717],[-50.52898,-13.98599],[-50.5279,-13.98423],[-50.52514,-13.9839],[-50.52383,-13.98273],[-50.52316,-13.98047],[-50.52325,-13.97963],[-50.52243,-13.97757],[-50.52242,-13.97688],[-50.52305,-13.97499],[-50.52229,-13.97222],[-50.52271,-13.97105],[-50.52424,-13.97056],[-50.52338,-13.96942],[-50.52169,-13.96902],[-50.52268,-13.96739],[-50.52253,-13.9642],[-50.52379,-13.96277],[-50.52549,-13.96222],[-50.52652,-13.96062],[-50.52503,-13.95822],[-50.52512,-13.95721],[-50.52589,-13.95679],[-50.52692,-13.95734],[-50.52794,-13.95717],[-50.52827,-13.95653],[-50.5279,-13.95493],[-50.52686,-13.95477],[-50.52557,-13.95374],[-50.5227,-13.95197],[-50.52257,-13.95118],[-50.52338,-13.95033],[-50.52443,-13.95065],[-50.52459,-13.95154],[-50.5256,-13.95192],[-50.52615,-13.95141],[-50.52737,-13.94912],[-50.52841,-13.94867],[-50.53028,-13.94977],[-50.53091,-13.94931],[-50.53066,-13.94833],[-50.5309,-13.94741],[-50.53226,-13.94627],[-50.53299,-13.94438],[-50.53238,-13.94329],[-50.53281,-13.94249],[-50.53479,-13.94302],[-50.53433,-13.93971],[-50.53468,-13.93855],[-50.53597,-13.93697],[-50.53843,-13.93562],[-50.53815,-13.93414],[-50.53917,-13.93284],[-50.53924,-13.93192],[-50.53863,-13.93072],[-50.5372,-13.92959],[-50.53595,-13.92923],[-50.53381,-13.92916],[-50.53282,-13.92787],[-50.53287,-13.92696],[-50.53214,-13.92563],[-50.53199,-13.92445],[-50.52998,-13.92312],[-50.52938,-13.92237],[-50.52799,-13.91971],[-50.529,-13.91848],[-50.52959,-13.91718],[-50.53026,-13.91243],[-50.52994,-13.91184],[-50.52848,-13.91082],[-50.52633,-13.90726],[-50.52571,-13.90667],[-50.52403,-13.90595],[-50.52044,-13.90614],[-50.51826,-13.90533],[-50.51679,-13.90341],[-50.51496,-13.9026],[-50.51408,-13.90266],[-50.51255,-13.90409],[-50.511,-13.90417],[-50.50964,-13.90473],[-50.50759,-13.90414],[-50.50665,-13.90296],[-50.50694,-13.90189],[-50.50809,-13.90225],[-50.50851,-13.90112],[-50.50604,-13.89989],[-50.50545,-13.90056],[-50.50444,-13.90065],[-50.50354,-13.8989],[-50.50434,-13.89833],[-50.50552,-13.89877],[-50.5054,-13.89765],[-50.50431,-13.89732],[-50.50391,-13.89622],[-50.50476,-13.89496],[-50.50403,-13.89405],[-50.50564,-13.89138],[-50.5069,-13.89022],[-50.50671,-13.88915],[-50.50595,-13.88805],[-50.50597,-13.88716],[-50.50653,-13.8863],[-50.50763,-13.88605],[-50.50825,-13.88446],[-50.50809,-13.88271],[-50.50614,-13.88183],[-50.5051,-13.88108],[-50.50526,-13.87976],[-50.5041,-13.87941],[-50.50201,-13.87835],[-50.50114,-13.87838],[-50.49969,-13.879],[-50.49977,-13.88025],[-50.49902,-13.88098],[-50.49779,-13.88127],[-50.49697,-13.88096],[-50.49715,-13.87856],[-50.49631,-13.87756],[-50.49545,-13.8774],[-50.49538,-13.8763],[-50.49769,-13.87468],[-50.49781,-13.87358],[-50.49733,-13.87273],[-50.4962,-13.87231],[-50.49545,-13.87163],[-50.49553,-13.87047],[-50.49518,-13.86788],[-50.4937,-13.86842],[-50.49278,-13.86815],[-50.49272,-13.86633],[-50.49294,-13.86525],[-50.49257,-13.86426],[-50.49095,-13.86337],[-50.48925,-13.86352],[-50.48834,-13.8631],[-50.48789,-13.86165],[-50.48866,-13.8607],[-50.48811,-13.86006],[-50.48535,-13.85979],[-50.48394,-13.85944],[-50.48229,-13.85953],[-50.4811,-13.86074],[-50.4774,-13.86103],[-50.47662,-13.85996],[-50.47531,-13.85913],[-50.47502,-13.85761],[-50.4753,-13.85641],[-50.47395,-13.8554],[-50.47332,-13.85459],[-50.47242,-13.85505],[-50.47131,-13.85425],[-50.47119,-13.85367],[-50.47181,-13.85253],[-50.47322,-13.85233],[-50.47473,-13.85331],[-50.47542,-13.85297],[-50.4756,-13.85153],[-50.47358,-13.84991],[-50.47476,-13.84903],[-50.47577,-13.84888],[-50.47638,-13.84981],[-50.47737,-13.85043],[-50.47817,-13.85031],[-50.47817,-13.84867],[-50.47918,-13.84784],[-50.48022,-13.84767],[-50.48046,-13.84683],[-50.47947,-13.84615],[-50.47942,-13.84471],[-50.47866,-13.84418],[-50.47768,-13.84494],[-50.47622,-13.84149],[-50.47663,-13.8401],[-50.47544,-13.83978],[-50.47516,-13.83843],[-50.47567,-13.83725],[-50.47368,-13.83528],[-50.47272,-13.83406],[-50.4722,-13.83214],[-50.47168,-13.8312],[-50.47012,-13.8297],[-50.46929,-13.82922],[-50.46853,-13.82797],[-50.46857,-13.82701],[-50.46913,-13.8261],[-50.46883,-13.82506],[-50.46798,-13.82465],[-50.46698,-13.82583],[-50.46622,-13.82482],[-50.46726,-13.82244],[-50.46729,-13.82114],[-50.46839,-13.82019],[-50.46831,-13.81915],[-50.46703,-13.8185],[-50.46551,-13.81972],[-50.46426,-13.8194],[-50.46338,-13.81843],[-50.4622,-13.81948],[-50.46231,-13.82035],[-50.46137,-13.82053],[-50.46087,-13.81905],[-50.46229,-13.81716],[-50.46274,-13.81594],[-50.46351,-13.81489],[-50.46372,-13.81368],[-50.46521,-13.81363],[-50.46828,-13.81429],[-50.46826,-13.81548],[-50.46918,-13.81524],[-50.46872,-13.81388],[-50.46872,-13.81231],[-50.46732,-13.81159],[-50.46732,-13.81064],[-50.46872,-13.80956],[-50.46963,-13.80961],[-50.46948,-13.80826],[-50.46966,-13.80599],[-50.4683,-13.80546],[-50.46604,-13.80529],[-50.46517,-13.80399],[-50.46166,-13.80436],[-50.46071,-13.80474],[-50.45972,-13.80572],[-50.45803,-13.80487],[-50.45757,-13.80333],[-50.45865,-13.80295],[-50.45943,-13.80152],[-50.45777,-13.79916],[-50.45788,-13.79853],[-50.45919,-13.79686],[-50.46154,-13.79596],[-50.46309,-13.79502],[-50.46313,-13.79387],[-50.46261,-13.79296],[-50.46275,-13.79176],[-50.46506,-13.79155],[-50.46557,-13.79121],[-50.46565,-13.789],[-50.4652,-13.7877],[-50.4654,-13.78657],[-50.4671,-13.78535],[-50.46734,-13.78433],[-50.46548,-13.78253],[-50.46549,-13.78161],[-50.46722,-13.78108],[-50.46694,-13.78037],[-50.46565,-13.7795],[-50.46457,-13.77927],[-50.4647,-13.77765],[-50.46387,-13.77633],[-50.46308,-13.7763],[-50.46262,-13.77467],[-50.46296,-13.77344],[-50.46171,-13.77235],[-50.46073,-13.77089],[-50.46044,-13.7699],[-50.45922,-13.76885],[-50.45794,-13.76935],[-50.45666,-13.76901],[-50.45506,-13.76672],[-50.45402,-13.76576],[-50.454,-13.76505],[-50.45587,-13.76183],[-50.45572,-13.7605],[-50.45711,-13.7601],[-50.45806,-13.76047],[-50.45888,-13.76001],[-50.459,-13.75824],[-50.45835,-13.75681],[-50.46138,-13.75401],[-50.46297,-13.75329],[-50.46518,-13.75292],[-50.46716,-13.75223],[-50.46986,-13.75219],[-50.47173,-13.75162],[-50.47313,-13.75179],[-50.47582,-13.75124],[-50.47744,-13.75119],[-50.47938,-13.75144],[-50.48031,-13.7511],[-50.48294,-13.75064],[-50.48413,-13.74997],[-50.48504,-13.74877],[-50.48484,-13.74651],[-50.4842,-13.74598],[-50.48015,-13.74344],[-50.47837,-13.74175],[-50.47714,-13.74031],[-50.47551,-13.73956],[-50.47229,-13.74014],[-50.46683,-13.73692],[-50.46684,-13.73558],[-50.46618,-13.7341],[-50.46712,-13.73239],[-50.46734,-13.7308],[-50.46528,-13.73042],[-50.46543,-13.72964],[-50.46647,-13.72861],[-50.46783,-13.72773],[-50.46829,-13.72707],[-50.46849,-13.72485],[-50.46841,-13.72305],[-50.46923,-13.72275],[-50.46975,-13.72189],[-50.46961,-13.72068],[-50.46819,-13.71782],[-50.46734,-13.71674],[-50.46822,-13.71567],[-50.46897,-13.71765],[-50.46993,-13.7175],[-50.47113,-13.71797],[-50.47182,-13.71685],[-50.47201,-13.71505],[-50.47293,-13.7134],[-50.47381,-13.71273],[-50.47407,-13.71158],[-50.47474,-13.71045],[-50.47349,-13.70883],[-50.47202,-13.70741],[-50.47274,-13.70652],[-50.47244,-13.70549],[-50.47026,-13.70397],[-50.46976,-13.70242],[-50.46992,-13.70172],[-50.46892,-13.70136],[-50.46787,-13.70042],[-50.46762,-13.69818],[-50.46578,-13.69801],[-50.46551,-13.69921],[-50.46393,-13.69967],[-50.46393,-13.69785],[-50.46353,-13.69722],[-50.46243,-13.69727],[-50.46256,-13.6994],[-50.46131,-13.69907],[-50.4606,-13.69937],[-50.46007,-13.69815],[-50.45915,-13.69804],[-50.45876,-13.69712],[-50.4585,-13.69392],[-50.45942,-13.69289],[-50.46157,-13.68919],[-50.46164,-13.68848],[-50.46076,-13.68718],[-50.46118,-13.68643],[-50.46229,-13.68667],[-50.46347,-13.68761],[-50.46411,-13.6863],[-50.46381,-13.68577],[-50.46213,-13.68537],[-50.46221,-13.68482],[-50.46404,-13.68345],[-50.46499,-13.68206],[-50.46776,-13.68235],[-50.46973,-13.68158],[-50.46938,-13.67991],[-50.46947,-13.67899],[-50.47056,-13.67842],[-50.47253,-13.67933],[-50.47342,-13.67795],[-50.47379,-13.67633],[-50.47483,-13.67567],[-50.47623,-13.67583],[-50.47611,-13.67357],[-50.47714,-13.67196],[-50.47697,-13.67106],[-50.47529,-13.67071],[-50.47408,-13.66947],[-50.47467,-13.66786],[-50.47583,-13.66731],[-50.47308,-13.66449],[-50.4692,-13.66484],[-50.46865,-13.66384],[-50.46881,-13.6622],[-50.46726,-13.6606],[-50.46608,-13.6601],[-50.46413,-13.66055],[-50.4631,-13.66011],[-50.46308,-13.65895],[-50.46219,-13.6576],[-50.46236,-13.65674],[-50.45978,-13.65539],[-50.46061,-13.65328],[-50.46094,-13.65104],[-50.46244,-13.64841],[-50.46425,-13.6482],[-50.46489,-13.64912],[-50.46569,-13.64895],[-50.46578,-13.64756],[-50.46451,-13.64559],[-50.46405,-13.64393],[-50.46355,-13.64342],[-50.4624,-13.64363],[-50.46061,-13.64352],[-50.46,-13.64317],[-50.45946,-13.64181],[-50.45959,-13.64019],[-50.46149,-13.63602],[-50.46296,-13.63354],[-50.46423,-13.63063],[-50.46514,-13.62947],[-50.46826,-13.62861],[-50.47025,-13.6276],[-50.47059,-13.62623],[-50.47025,-13.62307],[-50.4696,-13.61982],[-50.46877,-13.61918],[-50.46629,-13.61856],[-50.46556,-13.61886],[-50.4647,-13.62005],[-50.46353,-13.62083],[-50.46133,-13.6212],[-50.46141,-13.61979],[-50.46038,-13.61802],[-50.45955,-13.61722],[-50.46007,-13.61442],[-50.46009,-13.61297],[-50.45958,-13.60884],[-50.45888,-13.60804],[-50.45894,-13.6071],[-50.45963,-13.6064],[-50.46152,-13.60577],[-50.46246,-13.60519],[-50.46239,-13.60427],[-50.4644,-13.60272],[-50.46419,-13.60208],[-50.46218,-13.6009],[-50.46086,-13.60097],[-50.46075,-13.60165],[-50.4598,-13.60191],[-50.45939,-13.60072],[-50.46032,-13.5996],[-50.45933,-13.59891],[-50.45916,-13.59765],[-50.45967,-13.59689],[-50.45908,-13.59589],[-50.4598,-13.59528],[-50.45927,-13.59409],[-50.45991,-13.59355],[-50.45923,-13.59101],[-50.45973,-13.5907],[-50.45911,-13.5889],[-50.46029,-13.58814],[-50.46042,-13.58722],[-50.45998,-13.58607],[-50.46078,-13.58392],[-50.46146,-13.58376],[-50.46169,-13.58267],[-50.46249,-13.58185],[-50.4632,-13.58243],[-50.46393,-13.58041],[-50.46357,-13.57841],[-50.46432,-13.57695],[-50.46431,-13.57593],[-50.46378,-13.57332],[-50.46384,-13.57148],[-50.4642,-13.56919],[-50.46578,-13.56913],[-50.46649,-13.56812],[-50.46573,-13.56557],[-50.46677,-13.56531],[-50.4681,-13.56564],[-50.46734,-13.56359],[-50.4686,-13.56357],[-50.46888,-13.5628],[-50.47014,-13.5628],[-50.47311,-13.56371],[-50.47431,-13.56332],[-50.47497,-13.56252],[-50.47595,-13.5605],[-50.47699,-13.55758],[-50.47779,-13.5569],[-50.48084,-13.55682],[-50.48245,-13.55651],[-50.48443,-13.55514],[-50.48587,-13.55451],[-50.48812,-13.55471],[-50.49011,-13.55538],[-50.49097,-13.5554],[-50.49258,-13.55487],[-50.494,-13.5538],[-50.49667,-13.5523],[-50.49784,-13.5514],[-50.49898,-13.5499],[-50.49977,-13.54843],[-50.50112,-13.54414],[-50.50185,-13.54232],[-50.50394,-13.53847],[-50.50663,-13.53447],[-50.51101,-13.52615],[-50.5128,-13.52212],[-50.51335,-13.5214],[-50.51517,-13.52026],[-50.51693,-13.5197],[-50.51854,-13.51891],[-50.52035,-13.51841],[-50.52231,-13.51761],[-50.52418,-13.51764],[-50.52621,-13.51846],[-50.52743,-13.51862],[-50.52828,-13.51835],[-50.52916,-13.51704],[-50.52855,-13.51451],[-50.52738,-13.51256],[-50.5275,-13.51193],[-50.5305,-13.5091],[-50.5333,-13.50708],[-50.53774,-13.50556],[-50.53907,-13.50603],[-50.54041,-13.50616],[-50.54164,-13.50588],[-50.5422,-13.50492],[-50.54182,-13.50413],[-50.53913,-13.50401],[-50.5378,-13.50271],[-50.53636,-13.50221],[-50.53525,-13.50133],[-50.53211,-13.50001],[-50.53151,-13.49943],[-50.53083,-13.49758],[-50.53069,-13.49625],[-50.53,-13.49477],[-50.5282,-13.49308],[-50.52726,-13.49108],[-50.52618,-13.48929],[-50.52588,-13.48714],[-50.52651,-13.48302],[-50.52588,-13.48055],[-50.5255,-13.47995],[-50.5223,-13.47789],[-50.51992,-13.4753],[-50.51915,-13.47386],[-50.51849,-13.47118],[-50.51841,-13.46897],[-50.51858,-13.46697],[-50.51941,-13.46434],[-50.5202,-13.46363],[-50.52296,-13.46322],[-50.52699,-13.46369],[-50.52927,-13.4633],[-50.53204,-13.46213],[-50.53299,-13.46144],[-50.53537,-13.45843],[-50.53626,-13.45796],[-50.53774,-13.45799],[-50.53914,-13.45879],[-50.53976,-13.45987],[-50.54068,-13.46021],[-50.54217,-13.46005],[-50.5434,-13.45946],[-50.545,-13.45789],[-50.5454,-13.45642],[-50.54626,-13.45455],[-50.54621,-13.45299],[-50.54665,-13.4512],[-50.54568,-13.44972],[-50.54292,-13.448],[-50.54205,-13.44683],[-50.54174,-13.44578],[-50.54192,-13.44391],[-50.54256,-13.44329],[-50.54388,-13.44285],[-50.54667,-13.44287],[-50.54753,-13.44315],[-50.54953,-13.44301],[-50.55088,-13.44171],[-50.55105,-13.43972],[-50.54981,-13.43635],[-50.55011,-13.43504],[-50.55105,-13.43371],[-50.55216,-13.43267],[-50.55361,-13.43189],[-50.55756,-13.43139],[-50.55868,-13.43003],[-50.55891,-13.42898],[-50.55865,-13.42726],[-50.55748,-13.42378],[-50.55727,-13.42142],[-50.55805,-13.42104],[-50.56074,-13.42121],[-50.56305,-13.42052],[-50.56607,-13.41911],[-50.56837,-13.41778],[-50.57081,-13.41466],[-50.57157,-13.41327],[-50.57208,-13.41038],[-50.57278,-13.40948],[-50.5743,-13.40644],[-50.57534,-13.40591],[-50.57599,-13.40639],[-50.57642,-13.40764],[-50.57754,-13.40858],[-50.57907,-13.40867],[-50.58124,-13.40808],[-50.58418,-13.40694],[-50.58719,-13.40504],[-50.58852,-13.40462],[-50.59318,-13.40399],[-50.59474,-13.4034],[-50.59583,-13.40259],[-50.59696,-13.40034],[-50.5969,-13.39774],[-50.59607,-13.39643],[-50.59237,-13.39332],[-50.58907,-13.38944],[-50.58421,-13.38731],[-50.58333,-13.38704],[-50.58148,-13.38707],[-50.58027,-13.38798],[-50.57865,-13.39037],[-50.57767,-13.39083],[-50.57693,-13.39032],[-50.57663,-13.38891],[-50.57782,-13.38645],[-50.57879,-13.38523],[-50.58305,-13.38081],[-50.58743,-13.37734],[-50.58987,-13.37504],[-50.59098,-13.37317],[-50.59143,-13.37152],[-50.59115,-13.36967],[-50.58896,-13.36662],[-50.58953,-13.36527],[-50.59354,-13.36317],[-50.5963,-13.36199],[-50.5981,-13.36086],[-50.60335,-13.35663],[-50.60557,-13.3554],[-50.60904,-13.35405],[-50.61018,-13.3529],[-50.61044,-13.35188],[-50.60997,-13.3507],[-50.60847,-13.34869],[-50.60776,-13.34667],[-50.60795,-13.34522],[-50.60842,-13.34452],[-50.61241,-13.34117],[-50.6137,-13.33948],[-50.61429,-13.33688],[-50.61401,-13.33519],[-50.6122,-13.33124],[-50.61172,-13.32908],[-50.61137,-13.32182],[-50.6111,-13.32023],[-50.61874,-13.32574],[-50.62218,-13.32896],[-50.62361,-13.3305],[-50.62591,-13.33486],[-50.62912,-13.33971],[-50.63189,-13.34426],[-50.63525,-13.34842],[-50.63847,-13.35181],[-50.64018,-13.35335],[-50.64196,-13.35525],[-50.64265,-13.35711],[-50.6443,-13.3595],[-50.6465,-13.36197],[-50.6488,-13.36376],[-50.65146,-13.3656],[-50.65419,-13.36668],[-50.65629,-13.36793],[-50.66004,-13.37158],[-50.66154,-13.3723],[-50.66455,-13.37443],[-50.66532,-13.37557],[-50.66591,-13.3773],[-50.66652,-13.38215],[-50.66716,-13.38548],[-50.66949,-13.3952],[-50.66962,-13.39762],[-50.66925,-13.40249],[-50.66774,-13.40786],[-50.66587,-13.41349],[-50.66506,-13.41824],[-50.66415,-13.42224],[-50.6632,-13.42576],[-50.6631,-13.4308],[-50.66395,-13.43496],[-50.66647,-13.4378],[-50.66923,-13.43923],[-50.67269,-13.44145],[-50.67836,-13.44358],[-50.68352,-13.44519],[-50.68664,-13.44868],[-50.68852,-13.45216],[-50.69046,-13.4594],[-50.69168,-13.46472],[-50.69404,-13.46955],[-50.70084,-13.47731],[-50.70376,-13.48026],[-50.7079,-13.48476],[-50.71482,-13.49147],[-50.72355,-13.49796],[-50.72746,-13.49967],[-50.73406,-13.50198],[-50.7369,-13.5032],[-50.74138,-13.5073],[-50.74435,-13.50981],[-50.74788,-13.51259],[-50.7521,-13.51504],[-50.75756,-13.51891],[-50.759,-13.52032],[-50.76143,-13.52536],[-50.76345,-13.53316],[-50.76397,-13.53778],[-50.76598,-13.5504],[-50.76715,-13.55662],[-50.76838,-13.56085],[-50.76875,-13.56487],[-50.76859,-13.56879],[-50.76759,-13.5729],[-50.76693,-13.57741],[-50.76644,-13.58201],[-50.76692,-13.58672],[-50.76771,-13.59191],[-50.76843,-13.59552],[-50.76986,-13.59987],[-50.77159,-13.6045],[-50.77523,-13.60857],[-50.77876,-13.61183],[-50.78134,-13.61555],[-50.78361,-13.62039],[-50.78465,-13.62618],[-50.78437,-13.63165],[-50.78494,-13.63769],[-50.78657,-13.64663],[-50.78874,-13.65132],[-50.79134,-13.6576],[-50.79433,-13.66304],[-50.79676,-13.66821],[-50.79935,-13.6742],[-50.80184,-13.68329],[-50.80416,-13.6902],[-50.80623,-13.69381],[-50.80877,-13.69735],[-50.81101,-13.69927],[-50.81672,-13.70165],[-50.82159,-13.70458],[-50.82576,-13.70802],[-50.82973,-13.70981],[-50.84042,-13.7118],[-50.84821,-13.71277],[-50.85162,-13.71378],[-50.85514,-13.71611],[-50.86134,-13.71864],[-50.86641,-13.72226],[-50.86902,-13.7248],[-50.87155,-13.72863],[-50.8733,-13.73241],[-50.8739,-13.73448],[-50.87357,-13.73692],[-50.87213,-13.7399],[-50.8685,-13.74457],[-50.86318,-13.74938],[-50.85831,-13.75366],[-50.85527,-13.75735],[-50.85356,-13.76098],[-50.85287,-13.76462],[-50.85337,-13.76885],[-50.85546,-13.77283],[-50.85747,-13.77637],[-50.85875,-13.77944],[-50.85851,-13.78262],[-50.85642,-13.78933],[-50.85517,-13.79451],[-50.85437,-13.79976],[-50.85491,-13.80629],[-50.85698,-13.81377],[-50.85736,-13.81717],[-50.85858,-13.82305],[-50.85906,-13.82591],[-50.85909,-13.8287],[-50.85748,-13.83366],[-50.85516,-13.8392],[-50.85279,-13.84207],[-50.8454,-13.85161],[-50.84269,-13.85634],[-50.84119,-13.86074],[-50.84064,-13.86379],[-50.84054,-13.87187],[-50.84151,-13.89224],[-50.84064,-13.89636],[-50.84034,-13.90035],[-50.84137,-13.90915],[-50.84092,-13.91258],[-50.84002,-13.91776],[-50.84003,-13.92107],[-50.84023,-13.92368],[-50.8414,-13.92621],[-50.8459,-13.9344],[-50.8495,-13.93845],[-50.85682,-13.94812],[-50.86263,-13.95402],[-50.86579,-13.95984],[-50.86733,-13.96833],[-50.86694,-13.97395],[-50.86633,-13.97965],[-50.86467,-13.98395],[-50.85936,-13.9899],[-50.85472,-13.99415],[-50.85124,-13.99627],[-50.84865,-13.99768],[-50.84715,-13.99979],[-50.84734,-14.00327],[-50.84875,-14.00839],[-50.85478,-14.01643],[-50.85619,-14.01933],[-50.85606,-14.02097],[-50.85504,-14.02588],[-50.85284,-14.02999],[-50.85091,-14.03395],[-50.84775,-14.03976],[-50.84635,-14.04172],[-50.8432,-14.04645],[-50.84128,-14.05001],[-50.83973,-14.05367],[-50.83779,-14.06375],[-50.83666,-14.06597],[-50.83414,-14.06882],[-50.83291,-14.07086],[-50.83206,-14.07372],[-50.83127,-14.08283],[-50.83173,-14.08605],[-50.8329,-14.08959],[-50.83488,-14.09468],[-50.83876,-14.10007],[-50.8415,-14.10433]]]},"properties":{"codigo":"521483810","name":"Bandeirantes","population":3376,"households":3455,"areaKm2":4140.1985,"density":0.8}}]}