{"type":"FeatureCollection","features":[{"type":"Feature","geometry":{"type":"Polygon","coordinates":[[[-47.56325,-15.50206],[-47.56212,-15.49976],[-47.56162,-15.49928],[-47.56138,-15.49713],[-47.56192,-15.49631],[-47.56141,-15.49582],[-47.56124,-15.49367],[-47.56013,-15.49264],[-47.56026,-15.49086],[-47.55931,-15.49049],[-47.55948,-15.48929],[-47.55877,-15.48857],[-47.55858,-15.48736],[-47.55787,-15.48675],[-47.55887,-15.48517],[-47.55836,-15.48327],[-47.55636,-15.47992],[-47.55659,-15.47911],[-47.55644,-15.47508],[-47.55515,-15.4706],[-47.5553,-15.46828],[-47.55515,-15.46659],[-47.55338,-15.4634],[-47.55347,-15.46091],[-47.55264,-15.4609],[-47.55251,-15.4588],[-47.55181,-15.45725],[-47.55209,-15.45446],[-47.55199,-15.4523],[-47.55246,-15.45145],[-47.5522,-15.44934],[-47.55221,-15.44747],[-47.55156,-15.44535],[-47.55155,-15.44301],[-47.55116,-15.44102],[-47.55108,-15.43895],[-47.55211,-15.43492],[-47.553,-15.43366],[-47.553,-15.43159],[-47.55138,-15.42813],[-47.55179,-15.42665],[-47.55295,-15.42487],[-47.55416,-15.42215],[-47.55513,-15.41939],[-47.55533,-15.41833],[-47.55634,-15.41652],[-47.55774,-15.41351],[-47.5583,-15.41073],[-47.55899,-15.40861],[-47.55983,-15.40682],[-47.56091,-15.4064],[-47.56216,-15.40652],[-47.56225,-15.40735],[-47.56318,-15.40773],[-47.56346,-15.40651],[-47.56567,-15.40382],[-47.56624,-15.40173],[-47.56763,-15.3985],[-47.56736,-15.39704],[-47.56762,-15.3959],[-47.56699,-15.39414],[-47.56743,-15.39265],[-47.56846,-15.39248],[-47.56783,-15.38915],[-47.56847,-15.38736],[-47.56908,-15.38708],[-47.56944,-15.38432],[-47.5703,-15.38269],[-47.57118,-15.38243],[-47.57289,-15.37999],[-47.57494,-15.37861],[-47.57622,-15.37833],[-47.57646,-15.37706],[-47.57763,-15.37575],[-47.58144,-15.37261],[-47.58208,-15.37257],[-47.58282,-15.37146],[-47.58339,-15.3717],[-47.58496,-15.37093],[-47.58584,-15.36977],[-47.58671,-15.36944],[-47.58695,-15.36825],[-47.58932,-15.36757],[-47.59054,-15.36908],[-47.59162,-15.36918],[-47.59856,-15.37808],[-47.60263,-15.3827],[-47.60717,-15.38772],[-47.60355,-15.39453],[-47.59167,-15.4036],[-47.59275,-15.40492],[-47.5914,-15.41236],[-47.59563,-15.41184],[-47.60776,-15.41109],[-47.61125,-15.41661],[-47.61811,-15.40884],[-47.62354,-15.41738],[-47.62872,-15.42573],[-47.63154,-15.4161],[-47.63262,-15.41962],[-47.63272,-15.42085],[-47.63331,-15.42313],[-47.635,-15.42426],[-47.63607,-15.42538],[-47.63768,-15.42561],[-47.63929,-15.42646],[-47.63972,-15.42723],[-47.64006,-15.42902],[-47.63925,-15.42989],[-47.63804,-15.43447],[-47.63675,-15.43541],[-47.63728,-15.43733],[-47.63642,-15.43917],[-47.63724,-15.43929],[-47.63673,-15.44044],[-47.63666,-15.44179],[-47.63734,-15.44267],[-47.63726,-15.44498],[-47.63792,-15.44601],[-47.63733,-15.44693],[-47.63778,-15.44804],[-47.6364,-15.44864],[-47.63728,-15.45121],[-47.63873,-15.45344],[-47.63823,-15.45437],[-47.63831,-15.45526],[-47.6391,-15.45568],[-47.63836,-15.45695],[-47.63924,-15.45906],[-47.64007,-15.45983],[-47.64106,-15.45989],[-47.64266,-15.46269],[-47.64263,-15.4638],[-47.64443,-15.46361],[-47.64578,-15.46469],[-47.64651,-15.46458],[-47.6477,-15.46512],[-47.64821,-15.46668],[-47.64936,-15.46745],[-47.65024,-15.46661],[-47.65205,-15.46872],[-47.65204,-15.46986],[-47.65329,-15.47014],[-47.65389,-15.47144],[-47.65514,-15.47212],[-47.6556,-15.47363],[-47.65455,-15.47418],[-47.65633,-15.47485],[-47.6571,-15.47433],[-47.65863,-15.47429],[-47.65911,-15.4753],[-47.66001,-15.47574],[-47.66229,-15.47577],[-47.66338,-15.47627],[-47.66554,-15.47618],[-47.66669,-15.47723],[-47.66803,-15.47752],[-47.67061,-15.47864],[-47.67174,-15.47836],[-47.6726,-15.47747],[-47.67325,-15.47761],[-47.67354,-15.47875],[-47.67485,-15.47874],[-47.67412,-15.48008],[-47.67512,-15.48057],[-47.67777,-15.48074],[-47.67746,-15.48155],[-47.67893,-15.48311],[-47.68155,-15.48408],[-47.682,-15.48394],[-47.68353,-15.48476],[-47.68333,-15.48588],[-47.68272,-15.48694],[-47.68275,-15.48917],[-47.68243,-15.48975],[-47.68274,-15.49089],[-47.68078,-15.49251],[-47.68025,-15.49192],[-47.67928,-15.4922],[-47.67849,-15.49294],[-47.67884,-15.49497],[-47.67846,-15.49591],[-47.6768,-15.49602],[-47.67633,-15.49651],[-47.67513,-15.49644],[-47.67498,-15.49578],[-47.67582,-15.49468],[-47.67426,-15.49431],[-47.6725,-15.49424],[-47.67257,-15.49598],[-47.67132,-15.49604],[-47.6699,-15.49574],[-47.66861,-15.49407],[-47.66761,-15.49348],[-47.66674,-15.49364],[-47.66562,-15.49494],[-47.66641,-15.49629],[-47.66555,-15.49722],[-47.66556,-15.49805],[-47.66637,-15.49852],[-47.66639,-15.49935],[-47.66495,-15.49938],[-47.66148,-15.50113],[-47.6606,-15.50211],[-47.61685,-15.50209],[-47.5791,-15.50208],[-47.56325,-15.50206]]]},"properties":{"codigo":"521760905","name":"Planaltina","population":97366,"households":42122,"areaKm2":115.1524,"density":845.5}},{"type":"Feature","geometry":{"type":"Polygon","coordinates":[[[-47.93407,-15.07344],[-47.93493,-15.07361],[-47.9347,-15.07498],[-47.93215,-15.07716],[-47.93199,-15.0777],[-47.93286,-15.07965],[-47.93424,-15.07952],[-47.93518,-15.07993],[-47.93462,-15.08096],[-47.93332,-15.08125],[-47.93379,-15.08261],[-47.93493,-15.08262],[-47.93591,-15.08153],[-47.93697,-15.0823],[-47.93688,-15.08327],[-47.93611,-15.08404],[-47.93504,-15.08403],[-47.9348,-15.08507],[-47.93621,-15.08612],[-47.93764,-15.0858],[-47.93753,-15.08389],[-47.93829,-15.08341],[-47.94121,-15.08318],[-47.94145,-15.08417],[-47.94277,-15.08375],[-47.94324,-15.08252],[-47.94342,-15.08074],[-47.94412,-15.08053],[-47.94489,-15.0813],[-47.94502,-15.08213],[-47.944,-15.08293],[-47.944,-15.08445],[-47.94436,-15.08582],[-47.94543,-15.08623],[-47.94724,-15.08554],[-47.94891,-15.08647],[-47.95021,-15.08437],[-47.95132,-15.08499],[-47.95126,-15.0884],[-47.95085,-15.08991],[-47.95104,-15.09088],[-47.95244,-15.09137],[-47.9531,-15.0903],[-47.95395,-15.09022],[-47.95414,-15.0918],[-47.95381,-15.09274],[-47.95283,-15.09328],[-47.95267,-15.09417],[-47.95329,-15.09456],[-47.9544,-15.09384],[-47.95712,-15.09259],[-47.9578,-15.09277],[-47.95816,-15.09372],[-47.96036,-15.09382],[-47.96066,-15.09519],[-47.96182,-15.09686],[-47.96298,-15.09692],[-47.96311,-15.09448],[-47.96376,-15.09384],[-47.96553,-15.09389],[-47.9658,-15.09426],[-47.9643,-15.09621],[-47.96279,-15.09937],[-47.96422,-15.099],[-47.96487,-15.09925],[-47.96506,-15.10153],[-47.9656,-15.10189],[-47.96683,-15.10106],[-47.96888,-15.10018],[-47.97003,-15.10029],[-47.97067,-15.10118],[-47.97029,-15.10218],[-47.96832,-15.1034],[-47.96767,-15.10411],[-47.96831,-15.10489],[-47.96932,-15.1052],[-47.97109,-15.10436],[-47.97192,-15.10328],[-47.97269,-15.10316],[-47.97347,-15.10445],[-47.97441,-15.10438],[-47.97503,-15.1026],[-47.9758,-15.10192],[-47.9765,-15.10237],[-47.97655,-15.10367],[-47.97756,-15.10474],[-47.97829,-15.10428],[-47.97873,-15.10331],[-47.97982,-15.10306],[-47.98084,-15.10342],[-47.98211,-15.10324],[-47.98405,-15.10189],[-47.9843,-15.10308],[-47.98556,-15.10342],[-47.98715,-15.10254],[-47.98768,-15.10334],[-47.98653,-15.10539],[-47.98766,-15.10624],[-47.98939,-15.10605],[-47.99119,-15.10671],[-47.9912,-15.10776],[-47.99031,-15.10856],[-47.99029,-15.10988],[-47.99094,-15.11021],[-47.99195,-15.10953],[-47.99298,-15.10967],[-47.99339,-15.11094],[-47.99487,-15.11094],[-47.99472,-15.11247],[-47.99382,-15.11337],[-47.99383,-15.1156],[-47.99445,-15.1173],[-47.99437,-15.11845],[-47.99477,-15.11979],[-47.99559,-15.1196],[-47.99679,-15.11825],[-47.99767,-15.11853],[-47.99926,-15.11819],[-48.00227,-15.11655],[-48.00502,-15.11579],[-48.00577,-15.1159],[-48.0054,-15.11867],[-48.00556,-15.12007],[-48.00477,-15.12106],[-48.00308,-15.12131],[-48.00511,-15.12236],[-48.00606,-15.12317],[-48.00657,-15.12473],[-48.00709,-15.125],[-48.00884,-15.12443],[-48.00983,-15.12541],[-48.01031,-15.12525],[-48.01201,-15.12353],[-48.01271,-15.12387],[-48.01288,-15.12564],[-48.01135,-15.12776],[-48.00985,-15.12768],[-48.00904,-15.1282],[-48.009,-15.12935],[-48.01048,-15.12918],[-48.01222,-15.12941],[-48.01395,-15.12911],[-48.01604,-15.12789],[-48.0169,-15.1283],[-48.01599,-15.13106],[-48.01515,-15.13244],[-48.01524,-15.13336],[-48.0165,-15.13381],[-48.01815,-15.13308],[-48.0191,-15.13332],[-48.02056,-15.13478],[-48.02143,-15.13482],[-48.02271,-15.13432],[-48.02441,-15.13403],[-48.02547,-15.13419],[-48.02587,-15.13583],[-48.02636,-15.13647],[-48.02802,-15.13718],[-48.02861,-15.13703],[-48.03029,-15.13566],[-48.03205,-15.13575],[-48.03428,-15.13463],[-48.03518,-15.13483],[-48.03483,-15.13854],[-48.03554,-15.13885],[-48.03876,-15.13786],[-48.04068,-15.13756],[-48.04185,-15.13762],[-48.04262,-15.13723],[-48.04411,-15.13545],[-48.0446,-15.13448],[-48.04559,-15.13343],[-48.04649,-15.13316],[-48.04957,-15.13682],[-48.05016,-15.13676],[-48.05046,-15.13552],[-48.05162,-15.13402],[-48.0531,-15.13343],[-48.05362,-15.13221],[-48.05426,-15.13174],[-48.056,-15.13224],[-48.05617,-15.13439],[-48.05583,-15.13601],[-48.0564,-15.13791],[-48.05662,-15.13958],[-48.05717,-15.14037],[-48.05795,-15.14057],[-48.06186,-15.14239],[-48.06345,-15.14272],[-48.06499,-15.14413],[-48.0663,-15.14369],[-48.06868,-15.14327],[-48.07009,-15.14355],[-48.07048,-15.14408],[-48.06936,-15.14606],[-48.06907,-15.14838],[-48.06922,-15.14917],[-48.07063,-15.15044],[-48.07156,-15.15069],[-48.07257,-15.1499],[-48.07242,-15.14833],[-48.07379,-15.14695],[-48.07565,-15.14445],[-48.07674,-15.1438],[-48.07887,-15.14146],[-48.07937,-15.14002],[-48.0805,-15.14003],[-48.08127,-15.14082],[-48.08224,-15.14067],[-48.08315,-15.13913],[-48.08361,-15.13903],[-48.08623,-15.13993],[-48.08729,-15.13954],[-48.0869,-15.13799],[-48.08721,-15.1372],[-48.08833,-15.13767],[-48.08899,-15.13605],[-48.09019,-15.13629],[-48.09146,-15.13693],[-48.09253,-15.13587],[-48.09332,-15.13593],[-48.09431,-15.13769],[-48.09328,-15.1394],[-48.09339,-15.14027],[-48.09424,-15.14042],[-48.09601,-15.13993],[-48.09691,-15.14023],[-48.09695,-15.14114],[-48.09623,-15.14212],[-48.09656,-15.14299],[-48.09738,-15.14279],[-48.09798,-15.14182],[-48.09753,-15.1392],[-48.09878,-15.13854],[-48.0996,-15.13916],[-48.1015,-15.13975],[-48.10264,-15.14207],[-48.10383,-15.14283],[-48.10602,-15.14641],[-48.10735,-15.14746],[-48.10569,-15.14986],[-48.105,-15.15145],[-48.10436,-15.15399],[-48.10085,-15.15855],[-48.09654,-15.16123],[-48.09578,-15.16298],[-48.09409,-15.16359],[-48.09387,-15.16461],[-48.09476,-15.16608],[-48.09407,-15.1665],[-48.09162,-15.16647],[-48.09162,-15.16737],[-48.09361,-15.16823],[-48.09318,-15.16946],[-48.09146,-15.17059],[-48.0904,-15.17059],[-48.08809,-15.16951],[-48.08743,-15.17014],[-48.08876,-15.17371],[-48.08861,-15.17521],[-48.08709,-15.1757],[-48.08669,-15.17681],[-48.08797,-15.17903],[-48.0872,-15.18109],[-48.08593,-15.18143],[-48.08593,-15.18247],[-48.08707,-15.18259],[-48.08741,-15.18361],[-48.08646,-15.18527],[-48.08615,-15.18788],[-48.08529,-15.1901],[-48.08432,-15.19113],[-48.08206,-15.19218],[-48.08151,-15.19296],[-48.08187,-15.19492],[-48.08063,-15.19541],[-48.07922,-15.19463],[-48.07817,-15.1946],[-48.07616,-15.19709],[-48.07437,-15.19689],[-48.07325,-15.19504],[-48.07224,-15.19493],[-48.07188,-15.19722],[-48.07174,-15.19979],[-48.07117,-15.20012],[-48.06968,-15.19898],[-48.06803,-15.19586],[-48.06707,-15.19528],[-48.06639,-15.19548],[-48.0647,-15.19727],[-48.06329,-15.19795],[-48.06162,-15.1984],[-48.06026,-15.20078],[-48.05891,-15.2008],[-48.05539,-15.19766],[-48.05388,-15.19764],[-48.05143,-15.20171],[-48.04793,-15.20329],[-48.0457,-15.20357],[-48.04337,-15.2042],[-48.04107,-15.20522],[-48.04058,-15.20711],[-48.03724,-15.20995],[-48.03638,-15.21004],[-48.03596,-15.21095],[-48.03515,-15.21102],[-48.03387,-15.21017],[-48.03282,-15.2102],[-48.03228,-15.21076],[-48.03274,-15.21226],[-48.03196,-15.21263],[-48.03062,-15.21135],[-48.02878,-15.2108],[-48.02854,-15.20997],[-48.02934,-15.20927],[-48.02912,-15.2086],[-48.02773,-15.2079],[-48.02741,-15.20672],[-48.02643,-15.2066],[-48.02562,-15.20754],[-48.02468,-15.20802],[-48.02357,-15.20716],[-48.02299,-15.20741],[-48.02321,-15.2086],[-48.02274,-15.20964],[-48.02141,-15.21055],[-48.01952,-15.21073],[-48.01847,-15.21008],[-48.01626,-15.21019],[-48.01463,-15.21112],[-48.0151,-15.21201],[-48.01918,-15.2115],[-48.02004,-15.21307],[-48.01809,-15.21468],[-48.01809,-15.21825],[-48.01744,-15.21948],[-48.01542,-15.22096],[-48.01379,-15.2233],[-48.01154,-15.22486],[-48.01122,-15.22567],[-48.01156,-15.22748],[-48.01144,-15.22971],[-48.01204,-15.2307],[-48.01421,-15.23161],[-48.01439,-15.23229],[-48.01204,-15.23465],[-48.01193,-15.23538],[-48.01297,-15.23695],[-48.01222,-15.23795],[-48.01034,-15.23782],[-48.00936,-15.23892],[-48.00931,-15.23968],[-48.01057,-15.24156],[-48.01079,-15.24243],[-48.00975,-15.24375],[-48.00817,-15.24428],[-48.00766,-15.24345],[-48.00888,-15.24269],[-48.00853,-15.24213],[-48.00634,-15.24161],[-48.00298,-15.243],[-48.00163,-15.24375],[-47.9999,-15.24512],[-48.00009,-15.2458],[-48.00203,-15.24577],[-48.00331,-15.24441],[-48.00408,-15.24444],[-48.00584,-15.24678],[-48.00562,-15.24795],[-48.00434,-15.24817],[-48.00049,-15.24724],[-48.00011,-15.24796],[-48.00101,-15.24947],[-48.00061,-15.25002],[-47.99898,-15.2507],[-47.99872,-15.25179],[-47.99885,-15.25345],[-47.9982,-15.25465],[-47.99656,-15.25469],[-47.99606,-15.25502],[-47.99391,-15.2593],[-47.99372,-15.26162],[-47.99306,-15.26302],[-47.99323,-15.26433],[-47.99455,-15.26616],[-47.99391,-15.26692],[-47.9924,-15.26577],[-47.99151,-15.26566],[-47.98989,-15.26674],[-47.99011,-15.26788],[-47.99561,-15.27124],[-47.99616,-15.27213],[-47.99573,-15.27322],[-47.9927,-15.27376],[-47.99105,-15.27322],[-47.98961,-15.27334],[-47.99019,-15.27502],[-47.9887,-15.2766],[-47.98897,-15.27836],[-47.98802,-15.27839],[-47.98727,-15.27683],[-47.98667,-15.27642],[-47.98461,-15.27639],[-47.98404,-15.2774],[-47.985,-15.27889],[-47.98418,-15.27987],[-47.98165,-15.27786],[-47.97977,-15.28256],[-47.97814,-15.28293],[-47.97773,-15.28241],[-47.97863,-15.28084],[-47.97837,-15.28018],[-47.97545,-15.27922],[-47.9749,-15.27949],[-47.97499,-15.28158],[-47.97425,-15.28176],[-47.9721,-15.28038],[-47.97033,-15.28061],[-47.97028,-15.28142],[-47.97205,-15.28297],[-47.97173,-15.28426],[-47.97041,-15.28434],[-47.97059,-15.28526],[-47.97233,-15.28717],[-47.97172,-15.2876],[-47.96942,-15.28731],[-47.9678,-15.2881],[-47.96879,-15.28925],[-47.97104,-15.28911],[-47.97155,-15.29041],[-47.9702,-15.29316],[-47.97101,-15.29388],[-47.97265,-15.29325],[-47.97314,-15.29401],[-47.97067,-15.29539],[-47.9708,-15.29601],[-47.97271,-15.29696],[-47.97281,-15.29746],[-47.97186,-15.29899],[-47.97153,-15.30059],[-47.96909,-15.30173],[-47.96875,-15.30253],[-47.96961,-15.30342],[-47.96989,-15.30441],[-47.9695,-15.30536],[-47.96702,-15.30517],[-47.96633,-15.30592],[-47.96656,-15.30665],[-47.97072,-15.30965],[-47.97114,-15.31101],[-47.96901,-15.31134],[-47.96696,-15.31093],[-47.96516,-15.31142],[-47.96538,-15.31238],[-47.96792,-15.31222],[-47.9698,-15.31294],[-47.96977,-15.31411],[-47.96739,-15.31421],[-47.96625,-15.31487],[-47.9656,-15.31726],[-47.96616,-15.31757],[-47.9675,-15.3166],[-47.96885,-15.31757],[-47.96898,-15.31879],[-47.96773,-15.32134],[-47.96643,-15.32195],[-47.96707,-15.32305],[-47.96846,-15.32304],[-47.96891,-15.32398],[-47.96814,-15.32452],[-47.96751,-15.32563],[-47.968,-15.32752],[-47.96739,-15.32834],[-47.96591,-15.32921],[-47.96449,-15.3317],[-47.96328,-15.3321],[-47.96195,-15.33192],[-47.96162,-15.3324],[-47.96234,-15.33373],[-47.96164,-15.33432],[-47.96029,-15.33402],[-47.95931,-15.33431],[-47.95902,-15.33519],[-47.96014,-15.33752],[-47.95971,-15.33887],[-47.95852,-15.33827],[-47.95818,-15.33647],[-47.95755,-15.33636],[-47.95688,-15.33763],[-47.95625,-15.33802],[-47.95349,-15.33848],[-47.95302,-15.3376],[-47.9534,-15.33589],[-47.95313,-15.33481],[-47.95238,-15.33467],[-47.95167,-15.33682],[-47.94908,-15.33963],[-47.9467,-15.34086],[-47.94429,-15.34284],[-47.944,-15.34338],[-47.94461,-15.34575],[-47.94358,-15.34692],[-47.94206,-15.34645],[-47.94068,-15.34735],[-47.93861,-15.3473],[-47.93698,-15.3484],[-47.9353,-15.349],[-47.93381,-15.34997],[-47.93283,-15.35135],[-47.93232,-15.35328],[-47.93165,-15.35466],[-47.93033,-15.35609],[-47.92936,-15.35674],[-47.92768,-15.35694],[-47.92464,-15.35802],[-47.92382,-15.35974],[-47.92212,-15.36062],[-47.92358,-15.36212],[-47.9248,-15.36294],[-47.92483,-15.36351],[-47.92399,-15.36516],[-47.92421,-15.3655],[-47.92607,-15.36553],[-47.92553,-15.36624],[-47.92585,-15.36719],[-47.92677,-15.36739],[-47.92617,-15.36836],[-47.92629,-15.36961],[-47.92702,-15.36988],[-47.928,-15.36949],[-47.92856,-15.3704],[-47.92797,-15.37174],[-47.92895,-15.37245],[-47.92899,-15.37438],[-47.93001,-15.37545],[-47.92873,-15.37701],[-47.92967,-15.37783],[-47.92938,-15.37949],[-47.93051,-15.37976],[-47.93124,-15.3805],[-47.93255,-15.38056],[-47.9345,-15.38272],[-47.93495,-15.38461],[-47.93496,-15.38658],[-47.93569,-15.38747],[-47.93659,-15.38772],[-47.93853,-15.38966],[-47.93924,-15.39237],[-47.9392,-15.39331],[-47.94003,-15.39403],[-47.93907,-15.39513],[-47.93924,-15.39686],[-47.94055,-15.3979],[-47.94036,-15.39959],[-47.94185,-15.40068],[-47.94275,-15.40186],[-47.94349,-15.40103],[-47.94502,-15.40179],[-47.94488,-15.40341],[-47.94527,-15.40623],[-47.94586,-15.40638],[-47.94664,-15.40529],[-47.9474,-15.40595],[-47.94843,-15.40612],[-47.94961,-15.40716],[-47.95003,-15.4096],[-47.95074,-15.41141],[-47.94915,-15.41365],[-47.94958,-15.41412],[-47.95156,-15.41375],[-47.95021,-15.41526],[-47.95134,-15.41596],[-47.95058,-15.41704],[-47.95073,-15.41898],[-47.95018,-15.41978],[-47.95143,-15.42029],[-47.95158,-15.42094],[-47.95015,-15.42143],[-47.95023,-15.42203],[-47.9512,-15.42266],[-47.95127,-15.42363],[-47.9507,-15.42437],[-47.95106,-15.42551],[-47.95291,-15.42692],[-47.95335,-15.42536],[-47.95405,-15.42542],[-47.95392,-15.42716],[-47.9533,-15.42849],[-47.9535,-15.43123],[-47.95304,-15.43258],[-47.95361,-15.43352],[-47.95221,-15.43444],[-47.95253,-15.43603],[-47.95224,-15.43701],[-47.95417,-15.43768],[-47.95286,-15.4386],[-47.95261,-15.44046],[-47.95298,-15.44073],[-47.9551,-15.44059],[-47.95652,-15.43981],[-47.95718,-15.44009],[-47.9571,-15.44125],[-47.95776,-15.44161],[-47.95984,-15.44154],[-47.9606,-15.44109],[-47.96126,-15.44178],[-47.96056,-15.44241],[-47.96086,-15.4432],[-47.96045,-15.44428],[-47.96112,-15.44472],[-47.96243,-15.44444],[-47.96304,-15.44293],[-47.96426,-15.44331],[-47.96556,-15.4429],[-47.96714,-15.44317],[-47.96888,-15.4454],[-47.96767,-15.44572],[-47.96773,-15.44632],[-47.96639,-15.44821],[-47.96776,-15.44891],[-47.96876,-15.44825],[-47.97088,-15.44883],[-47.97194,-15.44789],[-47.97206,-15.4462],[-47.97163,-15.44493],[-47.97235,-15.44471],[-47.97249,-15.44385],[-47.97125,-15.44389],[-47.97117,-15.44298],[-47.97252,-15.44302],[-47.97319,-15.44192],[-47.97454,-15.44215],[-47.97535,-15.44334],[-47.97554,-15.44453],[-47.97759,-15.44514],[-47.97979,-15.44443],[-47.9817,-15.44473],[-47.98147,-15.44587],[-47.98206,-15.44662],[-47.98273,-15.44518],[-47.9841,-15.44601],[-47.9833,-15.44739],[-47.98349,-15.44788],[-47.98501,-15.44693],[-47.98545,-15.44494],[-47.98635,-15.44499],[-47.98703,-15.44588],[-47.98565,-15.44838],[-47.98577,-15.44914],[-47.9873,-15.44911],[-47.98866,-15.44988],[-47.99043,-15.45014],[-47.99233,-15.45009],[-47.99367,-15.4511],[-47.99491,-15.45031],[-47.99702,-15.45026],[-47.99779,-15.44958],[-47.99936,-15.44991],[-48.00064,-15.45064],[-48.00163,-15.45203],[-48.0032,-15.45306],[-48.0042,-15.45192],[-48.00503,-15.45203],[-48.00636,-15.45417],[-48.00641,-15.45503],[-48.00769,-15.45793],[-48.00847,-15.45764],[-48.00906,-15.45853],[-48.01001,-15.45831],[-48.0109,-15.45946],[-48.01302,-15.45803],[-48.01345,-15.45633],[-48.01546,-15.45663],[-48.01585,-15.45735],[-48.01541,-15.45841],[-48.01637,-15.45889],[-48.01731,-15.46083],[-48.01851,-15.46239],[-48.01933,-15.46254],[-48.02076,-15.46372],[-48.02357,-15.46506],[-48.02414,-15.46451],[-48.02529,-15.46429],[-48.025,-15.46342],[-48.02566,-15.4627],[-48.02699,-15.4634],[-48.0271,-15.46473],[-48.03016,-15.46354],[-48.0331,-15.46519],[-48.03428,-15.46634],[-48.0349,-15.46606],[-48.03423,-15.46453],[-48.03677,-15.4643],[-48.03768,-15.46519],[-48.03913,-15.46534],[-48.04119,-15.46332],[-48.04199,-15.46343],[-48.04276,-15.46495],[-48.04231,-15.46978],[-48.04364,-15.47053],[-48.04509,-15.4703],[-48.04625,-15.46897],[-48.04674,-15.46975],[-48.04615,-15.47112],[-48.04605,-15.47235],[-48.04655,-15.47334],[-48.04762,-15.47407],[-48.04616,-15.47499],[-48.04629,-15.47552],[-48.04468,-15.476],[-48.04475,-15.47723],[-48.04657,-15.47855],[-48.04722,-15.47991],[-48.04893,-15.48254],[-48.04945,-15.4836],[-48.04763,-15.48388],[-48.04796,-15.48522],[-48.04726,-15.48724],[-48.04534,-15.48859],[-48.04552,-15.49093],[-48.04632,-15.49151],[-48.04584,-15.49276],[-48.04633,-15.49372],[-48.04814,-15.49303],[-48.04904,-15.49422],[-48.04984,-15.49438],[-48.05001,-15.49522],[-48.04945,-15.49605],[-48.0523,-15.49561],[-48.05178,-15.49813],[-48.05183,-15.49936],[-48.05281,-15.50098],[-48.0543,-15.50223],[-48.03484,-15.50223],[-47.97625,-15.50221],[-47.85398,-15.50217],[-47.83027,-15.50216],[-47.77048,-15.50214],[-47.68841,-15.50212],[-47.6606,-15.50211],[-47.66148,-15.50113],[-47.66495,-15.49938],[-47.66639,-15.49935],[-47.66637,-15.49852],[-47.66556,-15.49805],[-47.66555,-15.49722],[-47.66641,-15.49629],[-47.66562,-15.49494],[-47.66674,-15.49364],[-47.66761,-15.49348],[-47.66861,-15.49407],[-47.6699,-15.49574],[-47.67132,-15.49604],[-47.67257,-15.49598],[-47.6725,-15.49424],[-47.67426,-15.49431],[-47.67582,-15.49468],[-47.67498,-15.49578],[-47.67513,-15.49644],[-47.67633,-15.49651],[-47.6768,-15.49602],[-47.67846,-15.49591],[-47.67884,-15.49497],[-47.67849,-15.49294],[-47.67928,-15.4922],[-47.68025,-15.49192],[-47.68078,-15.49251],[-47.68274,-15.49089],[-47.68243,-15.48975],[-47.68275,-15.48917],[-47.68272,-15.48694],[-47.68333,-15.48588],[-47.68353,-15.48476],[-47.682,-15.48394],[-47.68155,-15.48408],[-47.67893,-15.48311],[-47.67746,-15.48155],[-47.67777,-15.48074],[-47.67512,-15.48057],[-47.67412,-15.48008],[-47.67485,-15.47874],[-47.67354,-15.47875],[-47.67325,-15.47761],[-47.6726,-15.47747],[-47.67174,-15.47836],[-47.67061,-15.47864],[-47.66803,-15.47752],[-47.66669,-15.47723],[-47.66554,-15.47618],[-47.66338,-15.47627],[-47.66229,-15.47577],[-47.66001,-15.47574],[-47.65911,-15.4753],[-47.65863,-15.47429],[-47.6571,-15.47433],[-47.65633,-15.47485],[-47.65455,-15.47418],[-47.6556,-15.47363],[-47.65514,-15.47212],[-47.65389,-15.47144],[-47.65329,-15.47014],[-47.65204,-15.46986],[-47.65205,-15.46872],[-47.65024,-15.46661],[-47.64936,-15.46745],[-47.64821,-15.46668],[-47.6477,-15.46512],[-47.64651,-15.46458],[-47.64578,-15.46469],[-47.64443,-15.46361],[-47.64263,-15.4638],[-47.64266,-15.46269],[-47.64106,-15.45989],[-47.64007,-15.45983],[-47.63924,-15.45906],[-47.63836,-15.45695],[-47.6391,-15.45568],[-47.63831,-15.45526],[-47.63823,-15.45437],[-47.63873,-15.45344],[-47.63728,-15.45121],[-47.6364,-15.44864],[-47.63778,-15.44804],[-47.63733,-15.44693],[-47.63792,-15.44601],[-47.63726,-15.44498],[-47.63734,-15.44267],[-47.63666,-15.44179],[-47.63673,-15.44044],[-47.63724,-15.43929],[-47.63642,-15.43917],[-47.63728,-15.43733],[-47.63675,-15.43541],[-47.63804,-15.43447],[-47.63925,-15.42989],[-47.64006,-15.42902],[-47.63972,-15.42723],[-47.63929,-15.42646],[-47.63768,-15.42561],[-47.63607,-15.42538],[-47.635,-15.42426],[-47.63331,-15.42313],[-47.63272,-15.42085],[-47.63262,-15.41962],[-47.63154,-15.4161],[-47.632,-15.41432],[-47.63703,-15.39666],[-47.63763,-15.39517],[-47.64932,-15.37384],[-47.65278,-15.36746],[-47.6583,-15.36101],[-47.65878,-15.35962],[-47.65858,-15.35806],[-47.65484,-15.34892],[-47.65401,-15.34744],[-47.65444,-15.34344],[-47.65424,-15.34247],[-47.65323,-15.341],[-47.65286,-15.33925],[-47.65372,-15.33529],[-47.65469,-15.3333],[-47.65908,-15.32837],[-47.67246,-15.3136],[-47.67437,-15.31227],[-47.67797,-15.30941],[-47.68376,-15.30498],[-47.68481,-15.30347],[-47.68473,-15.30055],[-47.68488,-15.29947],[-47.68566,-15.2969],[-47.68673,-15.29544],[-47.68813,-15.29488],[-47.68979,-15.29363],[-47.69005,-15.29313],[-47.69023,-15.29003],[-47.69086,-15.28225],[-47.69053,-15.28128],[-47.69106,-15.28036],[-47.69201,-15.26859],[-47.69169,-15.26744],[-47.68971,-15.26618],[-47.68886,-15.26531],[-47.68816,-15.26102],[-47.68825,-15.26014],[-47.68927,-15.25782],[-47.69085,-15.25634],[-47.69609,-15.25208],[-47.69631,-15.25127],[-47.69588,-15.25027],[-47.69652,-15.24803],[-47.69655,-15.24719],[-47.69606,-15.24441],[-47.69558,-15.24019],[-47.69622,-15.23812],[-47.70026,-15.23154],[-47.70277,-15.22873],[-47.70971,-15.22126],[-47.72183,-15.20839],[-47.72236,-15.20734],[-47.72244,-15.20551],[-47.72181,-15.20393],[-47.72058,-15.20415],[-47.71816,-15.20251],[-47.71791,-15.20202],[-47.71626,-15.20128],[-47.71546,-15.20141],[-47.71483,-15.20039],[-47.71391,-15.20036],[-47.71269,-15.19949],[-47.71173,-15.19825],[-47.71095,-15.19821],[-47.71113,-15.19627],[-47.71235,-15.19607],[-47.71193,-15.19524],[-47.70921,-15.19292],[-47.70867,-15.19319],[-47.7075,-15.19243],[-47.70638,-15.19302],[-47.70342,-15.19156],[-47.70378,-15.1902],[-47.70299,-15.18994],[-47.70156,-15.18837],[-47.70046,-15.18779],[-47.70127,-15.18677],[-47.70008,-15.18586],[-47.69883,-15.18343],[-47.69848,-15.18225],[-47.69763,-15.18079],[-47.69828,-15.18037],[-47.69811,-15.17884],[-47.69754,-15.17813],[-47.69867,-15.17687],[-47.69865,-15.17569],[-47.69934,-15.17515],[-47.69985,-15.17248],[-47.70123,-15.17198],[-47.70125,-15.16915],[-47.70276,-15.16785],[-47.70158,-15.16597],[-47.70205,-15.16583],[-47.70236,-15.16393],[-47.70059,-15.16214],[-47.70108,-15.16033],[-47.7008,-15.15828],[-47.7015,-15.15715],[-47.70081,-15.15476],[-47.70147,-15.1535],[-47.70276,-15.15286],[-47.70556,-15.15098],[-47.70672,-15.15055],[-47.70769,-15.15074],[-47.70802,-15.14996],[-47.70907,-15.15031],[-47.71094,-15.14909],[-47.69694,-15.1418],[-47.69717,-15.13928],[-47.69816,-15.13766],[-47.69884,-15.13546],[-47.6971,-15.13229],[-47.69652,-15.13064],[-47.69691,-15.12918],[-47.69624,-15.12724],[-47.6969,-15.1245],[-47.69767,-15.12405],[-47.69758,-15.12322],[-47.69681,-15.12246],[-47.69703,-15.12129],[-47.6983,-15.12155],[-47.69848,-15.12096],[-47.70132,-15.12048],[-47.70133,-15.11922],[-47.70216,-15.11818],[-47.7011,-15.118],[-47.70141,-15.11655],[-47.70048,-15.11659],[-47.69988,-15.11532],[-47.6994,-15.11335],[-47.69931,-15.1115],[-47.69975,-15.1108],[-47.69927,-15.1099],[-47.70087,-15.10957],[-47.70219,-15.10976],[-47.70252,-15.10916],[-47.70397,-15.10918],[-47.70441,-15.10725],[-47.70506,-15.10719],[-47.70475,-15.10525],[-47.70556,-15.10489],[-47.70454,-15.10388],[-47.70578,-15.10201],[-47.70787,-15.10159],[-47.70806,-15.09947],[-47.70914,-15.09616],[-47.70858,-15.09551],[-47.70872,-15.09428],[-47.70759,-15.09365],[-47.70744,-15.09265],[-47.70831,-15.09215],[-47.70908,-15.09114],[-47.7102,-15.09099],[-47.71235,-15.08971],[-47.71234,-15.08914],[-47.71127,-15.08832],[-47.7106,-15.08646],[-47.71119,-15.08556],[-47.71085,-15.08412],[-47.71179,-15.08325],[-47.71215,-15.08219],[-47.71323,-15.08121],[-47.71358,-15.08185],[-47.71474,-15.08169],[-47.71553,-15.08283],[-47.71736,-15.08278],[-47.71785,-15.08143],[-47.71938,-15.08145],[-47.71947,-15.0799],[-47.71918,-15.07885],[-47.71789,-15.07824],[-47.7182,-15.07679],[-47.71816,-15.07506],[-47.71738,-15.07414],[-47.71801,-15.07357],[-47.71737,-15.07279],[-47.7178,-15.07163],[-47.71763,-15.07049],[-47.7193,-15.07007],[-47.71863,-15.06836],[-47.71908,-15.06741],[-47.71873,-15.06547],[-47.71971,-15.06438],[-47.71998,-15.06357],[-47.71966,-15.06159],[-47.72001,-15.05738],[-47.7208,-15.05699],[-47.72132,-15.05598],[-47.72075,-15.05338],[-47.71988,-15.05192],[-47.72137,-15.05212],[-47.722,-15.05188],[-47.72241,-15.05067],[-47.72372,-15.05073],[-47.72488,-15.04995],[-47.72574,-15.0516],[-47.72638,-15.05109],[-47.72739,-15.05117],[-47.72915,-15.05084],[-47.72921,-15.04941],[-47.73045,-15.05007],[-47.73182,-15.04947],[-47.73366,-15.04921],[-47.7343,-15.04962],[-47.73515,-15.04928],[-47.73635,-15.0501],[-47.73827,-15.05006],[-47.73862,-15.04948],[-47.73791,-15.04854],[-47.73882,-15.04813],[-47.74026,-15.04815],[-47.74191,-15.04906],[-47.74267,-15.04711],[-47.74361,-15.04699],[-47.74386,-15.04605],[-47.7446,-15.04547],[-47.74601,-15.04569],[-47.74614,-15.04388],[-47.74512,-15.04249],[-47.74555,-15.04133],[-47.74736,-15.04143],[-47.74921,-15.03957],[-47.75027,-15.04017],[-47.749,-15.0413],[-47.75006,-15.04163],[-47.75096,-15.04273],[-47.75208,-15.04223],[-47.75245,-15.04082],[-47.75361,-15.04001],[-47.75474,-15.03985],[-47.75654,-15.04039],[-47.75779,-15.03978],[-47.75948,-15.04039],[-47.76084,-15.04056],[-47.76178,-15.04126],[-47.76214,-15.04266],[-47.76135,-15.04351],[-47.76198,-15.04428],[-47.764,-15.0439],[-47.76456,-15.04532],[-47.76416,-15.04642],[-47.7654,-15.04827],[-47.7663,-15.04748],[-47.76596,-15.04663],[-47.76707,-15.04642],[-47.76732,-15.04789],[-47.76646,-15.0486],[-47.7675,-15.04904],[-47.76856,-15.04856],[-47.76842,-15.05056],[-47.7678,-15.05205],[-47.76921,-15.05399],[-47.76868,-15.0548],[-47.76971,-15.05549],[-47.77027,-15.05436],[-47.77256,-15.05507],[-47.77346,-15.05488],[-47.77444,-15.05585],[-47.77487,-15.0569],[-47.77391,-15.05709],[-47.77305,-15.058],[-47.7737,-15.05883],[-47.77457,-15.05914],[-47.77514,-15.05867],[-47.77651,-15.05885],[-47.77684,-15.05964],[-47.77638,-15.0609],[-47.77704,-15.06129],[-47.77712,-15.06297],[-47.77794,-15.06647],[-47.77924,-15.0692],[-47.77902,-15.07054],[-47.78073,-15.06923],[-47.78194,-15.07072],[-47.7822,-15.07204],[-47.7838,-15.07453],[-47.78451,-15.07451],[-47.78511,-15.07326],[-47.78571,-15.07415],[-47.78672,-15.07392],[-47.78758,-15.0746],[-47.79084,-15.07476],[-47.79165,-15.07611],[-47.79239,-15.0755],[-47.79169,-15.0744],[-47.79241,-15.07349],[-47.79443,-15.07499],[-47.7943,-15.07571],[-47.79553,-15.07664],[-47.79647,-15.07666],[-47.79753,-15.07573],[-47.79805,-15.07584],[-47.79831,-15.0776],[-47.79884,-15.07933],[-47.79959,-15.07982],[-47.80039,-15.07851],[-47.8015,-15.07951],[-47.8043,-15.08006],[-47.80481,-15.08272],[-47.80649,-15.08331],[-47.80614,-15.08554],[-47.80689,-15.08608],[-47.80748,-15.0849],[-47.80876,-15.08438],[-47.80855,-15.08638],[-47.80924,-15.08885],[-47.813,-15.0903],[-47.81278,-15.09143],[-47.81407,-15.09231],[-47.81508,-15.09253],[-47.81669,-15.09217],[-47.81747,-15.09407],[-47.81817,-15.09429],[-47.81896,-15.09374],[-47.82007,-15.09236],[-47.82093,-15.09253],[-47.82113,-15.09378],[-47.82049,-15.09491],[-47.82075,-15.09583],[-47.82162,-15.09573],[-47.8222,-15.0964],[-47.82338,-15.09696],[-47.82472,-15.09577],[-47.82437,-15.09521],[-47.82514,-15.09447],[-47.82579,-15.09475],[-47.8269,-15.09631],[-47.82825,-15.09683],[-47.82927,-15.09688],[-47.83283,-15.09548],[-47.83337,-15.09477],[-47.83271,-15.09287],[-47.83365,-15.09212],[-47.83612,-15.09343],[-47.83669,-15.09339],[-47.83796,-15.0916],[-47.83979,-15.09087],[-47.84204,-15.09237],[-47.84496,-15.09197],[-47.84568,-15.09264],[-47.84591,-15.09421],[-47.84809,-15.09586],[-47.84832,-15.09671],[-47.85032,-15.0974],[-47.84971,-15.09859],[-47.85141,-15.09915],[-47.85393,-15.09895],[-47.85426,-15.09857],[-47.85364,-15.0966],[-47.85405,-15.09412],[-47.85384,-15.09246],[-47.85313,-15.09041],[-47.85341,-15.08992],[-47.85804,-15.08787],[-47.85955,-15.08869],[-47.86046,-15.08959],[-47.86159,-15.09177],[-47.86229,-15.09177],[-47.86382,-15.08994],[-47.86572,-15.0894],[-47.86643,-15.08985],[-47.8672,-15.09146],[-47.86696,-15.09266],[-47.86754,-15.09308],[-47.86853,-15.09211],[-47.87005,-15.09132],[-47.87126,-15.0902],[-47.87198,-15.09022],[-47.87208,-15.09124],[-47.87302,-15.09148],[-47.87435,-15.09287],[-47.87527,-15.09307],[-47.87881,-15.09306],[-47.87965,-15.09278],[-47.88001,-15.09134],[-47.87961,-15.09006],[-47.88015,-15.0894],[-47.88214,-15.08981],[-47.88342,-15.08933],[-47.88333,-15.08865],[-47.88219,-15.08791],[-47.88195,-15.08716],[-47.88424,-15.08546],[-47.88481,-15.08551],[-47.88491,-15.08686],[-47.88779,-15.0895],[-47.8884,-15.0899],[-47.88951,-15.08917],[-47.88907,-15.08841],[-47.89017,-15.08747],[-47.89177,-15.08801],[-47.89372,-15.08743],[-47.89565,-15.0859],[-47.89685,-15.08531],[-47.89839,-15.08552],[-47.89959,-15.08519],[-47.90023,-15.08581],[-47.89969,-15.08663],[-47.89995,-15.08882],[-47.90128,-15.08944],[-47.90255,-15.08955],[-47.90321,-15.08718],[-47.90424,-15.08684],[-47.90497,-15.08757],[-47.90414,-15.08945],[-47.90473,-15.08998],[-47.90684,-15.08978],[-47.90778,-15.08925],[-47.90815,-15.0882],[-47.90763,-15.08681],[-47.90879,-15.08667],[-47.90968,-15.08816],[-47.91089,-15.08798],[-47.91239,-15.08824],[-47.91305,-15.0872],[-47.9144,-15.08582],[-47.91446,-15.08433],[-47.91397,-15.08249],[-47.91577,-15.08181],[-47.91499,-15.08078],[-47.91621,-15.08058],[-47.918,-15.08228],[-47.91896,-15.08265],[-47.91962,-15.08119],[-47.91928,-15.08023],[-47.91802,-15.08012],[-47.91802,-15.07909],[-47.91956,-15.07919],[-47.92044,-15.07843],[-47.92235,-15.07835],[-47.92373,-15.07957],[-47.92419,-15.07953],[-47.9253,-15.07743],[-47.92768,-15.07821],[-47.92878,-15.07913],[-47.92933,-15.079],[-47.93045,-15.07685],[-47.93029,-15.07542],[-47.92871,-15.07547],[-47.92806,-15.07407],[-47.92884,-15.07371],[-47.9295,-15.07253],[-47.93079,-15.07301],[-47.9319,-15.07283],[-47.93213,-15.07359],[-47.93145,-15.07459],[-47.93199,-15.07525],[-47.93315,-15.07449],[-47.93407,-15.07344]]]},"properties":{"codigo":"521760910","name":"Córrego Rico","population":1071,"households":889,"areaKm2":1616.4761,"density":0.7}},{"type":"Feature","geometry":{"type":"Polygon","coordinates":[[[-47.74555,-15.04133],[-47.74512,-15.04249],[-47.74614,-15.04388],[-47.74601,-15.04569],[-47.7446,-15.04547],[-47.74386,-15.04605],[-47.74361,-15.04699],[-47.74267,-15.04711],[-47.74191,-15.04906],[-47.74026,-15.04815],[-47.73882,-15.04813],[-47.73791,-15.04854],[-47.73862,-15.04948],[-47.73827,-15.05006],[-47.73635,-15.0501],[-47.73515,-15.04928],[-47.7343,-15.04962],[-47.73366,-15.04921],[-47.73182,-15.04947],[-47.73045,-15.05007],[-47.72921,-15.04941],[-47.72915,-15.05084],[-47.72739,-15.05117],[-47.72638,-15.05109],[-47.72574,-15.0516],[-47.72488,-15.04995],[-47.72372,-15.05073],[-47.72241,-15.05067],[-47.722,-15.05188],[-47.72137,-15.05212],[-47.71988,-15.05192],[-47.72075,-15.05338],[-47.72132,-15.05598],[-47.7208,-15.05699],[-47.72001,-15.05738],[-47.71966,-15.06159],[-47.71998,-15.06357],[-47.71971,-15.06438],[-47.71873,-15.06547],[-47.71908,-15.06741],[-47.71863,-15.06836],[-47.7193,-15.07007],[-47.71763,-15.07049],[-47.7178,-15.07163],[-47.71737,-15.07279],[-47.71801,-15.07357],[-47.71738,-15.07414],[-47.71816,-15.07506],[-47.7182,-15.07679],[-47.71789,-15.07824],[-47.71918,-15.07885],[-47.71947,-15.0799],[-47.71938,-15.08145],[-47.71785,-15.08143],[-47.71736,-15.08278],[-47.71553,-15.08283],[-47.71474,-15.08169],[-47.71358,-15.08185],[-47.71323,-15.08121],[-47.71215,-15.08219],[-47.71179,-15.08325],[-47.71085,-15.08412],[-47.71119,-15.08556],[-47.7106,-15.08646],[-47.71127,-15.08832],[-47.71234,-15.08914],[-47.71235,-15.08971],[-47.7102,-15.09099],[-47.70908,-15.09114],[-47.70831,-15.09215],[-47.70744,-15.09265],[-47.70759,-15.09365],[-47.70872,-15.09428],[-47.70858,-15.09551],[-47.70914,-15.09616],[-47.70806,-15.09947],[-47.70787,-15.10159],[-47.70578,-15.10201],[-47.70454,-15.10388],[-47.70556,-15.10489],[-47.70475,-15.10525],[-47.70506,-15.10719],[-47.70441,-15.10725],[-47.70397,-15.10918],[-47.70252,-15.10916],[-47.70219,-15.10976],[-47.70087,-15.10957],[-47.69927,-15.1099],[-47.69975,-15.1108],[-47.69931,-15.1115],[-47.6994,-15.11335],[-47.69988,-15.11532],[-47.70048,-15.11659],[-47.70141,-15.11655],[-47.7011,-15.118],[-47.70216,-15.11818],[-47.70133,-15.11922],[-47.70132,-15.12048],[-47.69848,-15.12096],[-47.6983,-15.12155],[-47.69703,-15.12129],[-47.69681,-15.12246],[-47.69758,-15.12322],[-47.69767,-15.12405],[-47.6969,-15.1245],[-47.69624,-15.12724],[-47.69691,-15.12918],[-47.69652,-15.13064],[-47.6971,-15.13229],[-47.69884,-15.13546],[-47.69816,-15.13766],[-47.69717,-15.13928],[-47.69694,-15.1418],[-47.71094,-15.14909],[-47.70907,-15.15031],[-47.70802,-15.14996],[-47.70769,-15.15074],[-47.70672,-15.15055],[-47.70556,-15.15098],[-47.70276,-15.15286],[-47.70147,-15.1535],[-47.70081,-15.15476],[-47.7015,-15.15715],[-47.7008,-15.15828],[-47.70108,-15.16033],[-47.70059,-15.16214],[-47.70236,-15.16393],[-47.70205,-15.16583],[-47.70158,-15.16597],[-47.70276,-15.16785],[-47.70125,-15.16915],[-47.70123,-15.17198],[-47.69985,-15.17248],[-47.69934,-15.17515],[-47.69865,-15.17569],[-47.69867,-15.17687],[-47.69754,-15.17813],[-47.69811,-15.17884],[-47.69828,-15.18037],[-47.69763,-15.18079],[-47.69848,-15.18225],[-47.69883,-15.18343],[-47.70008,-15.18586],[-47.70127,-15.18677],[-47.70046,-15.18779],[-47.70156,-15.18837],[-47.70299,-15.18994],[-47.70378,-15.1902],[-47.70342,-15.19156],[-47.70638,-15.19302],[-47.7075,-15.19243],[-47.70867,-15.19319],[-47.70921,-15.19292],[-47.71193,-15.19524],[-47.71235,-15.19607],[-47.71113,-15.19627],[-47.71095,-15.19821],[-47.71173,-15.19825],[-47.71269,-15.19949],[-47.71391,-15.20036],[-47.71483,-15.20039],[-47.71546,-15.20141],[-47.71626,-15.20128],[-47.71791,-15.20202],[-47.71816,-15.20251],[-47.72058,-15.20415],[-47.72181,-15.20393],[-47.72244,-15.20551],[-47.72236,-15.20734],[-47.72183,-15.20839],[-47.70971,-15.22126],[-47.70277,-15.22873],[-47.70026,-15.23154],[-47.69622,-15.23812],[-47.69558,-15.24019],[-47.69606,-15.24441],[-47.69655,-15.24719],[-47.69652,-15.24803],[-47.69588,-15.25027],[-47.69631,-15.25127],[-47.69609,-15.25208],[-47.69085,-15.25634],[-47.68927,-15.25782],[-47.68825,-15.26014],[-47.68816,-15.26102],[-47.68886,-15.26531],[-47.68971,-15.26618],[-47.69169,-15.26744],[-47.69201,-15.26859],[-47.69106,-15.28036],[-47.69053,-15.28128],[-47.69086,-15.28225],[-47.69023,-15.29003],[-47.69005,-15.29313],[-47.68979,-15.29363],[-47.68813,-15.29488],[-47.68673,-15.29544],[-47.68566,-15.2969],[-47.68488,-15.29947],[-47.68473,-15.30055],[-47.68481,-15.30347],[-47.68376,-15.30498],[-47.67797,-15.30941],[-47.67437,-15.31227],[-47.67246,-15.3136],[-47.65908,-15.32837],[-47.65469,-15.3333],[-47.65372,-15.33529],[-47.65286,-15.33925],[-47.65323,-15.341],[-47.65424,-15.34247],[-47.65444,-15.34344],[-47.65401,-15.34744],[-47.65484,-15.34892],[-47.65858,-15.35806],[-47.65878,-15.35962],[-47.6583,-15.36101],[-47.65278,-15.36746],[-47.64932,-15.37384],[-47.63763,-15.39517],[-47.63703,-15.39666],[-47.632,-15.41432],[-47.63154,-15.4161],[-47.62872,-15.42573],[-47.62354,-15.41738],[-47.61811,-15.40884],[-47.61125,-15.41661],[-47.60776,-15.41109],[-47.59563,-15.41184],[-47.5914,-15.41236],[-47.59275,-15.40492],[-47.59167,-15.4036],[-47.60355,-15.39453],[-47.60717,-15.38772],[-47.60263,-15.3827],[-47.59856,-15.37808],[-47.59162,-15.36918],[-47.59054,-15.36908],[-47.58932,-15.36757],[-47.58695,-15.36825],[-47.58671,-15.36944],[-47.58584,-15.36977],[-47.58496,-15.37093],[-47.58339,-15.3717],[-47.58282,-15.37146],[-47.58208,-15.37257],[-47.58144,-15.37261],[-47.57763,-15.37575],[-47.57646,-15.37706],[-47.57622,-15.37833],[-47.57494,-15.37861],[-47.57289,-15.37999],[-47.57118,-15.38243],[-47.5703,-15.38269],[-47.56944,-15.38432],[-47.56908,-15.38708],[-47.56847,-15.38736],[-47.56783,-15.38915],[-47.56846,-15.39248],[-47.56743,-15.39265],[-47.56699,-15.39414],[-47.56762,-15.3959],[-47.56736,-15.39704],[-47.56763,-15.3985],[-47.56624,-15.40173],[-47.56567,-15.40382],[-47.56346,-15.40651],[-47.56318,-15.40773],[-47.56225,-15.40735],[-47.56216,-15.40652],[-47.56091,-15.4064],[-47.55983,-15.40682],[-47.55899,-15.40861],[-47.5583,-15.41073],[-47.55774,-15.41351],[-47.55634,-15.41652],[-47.55533,-15.41833],[-47.55513,-15.41939],[-47.55416,-15.42215],[-47.55295,-15.42487],[-47.55179,-15.42665],[-47.55138,-15.42813],[-47.553,-15.43159],[-47.553,-15.43366],[-47.55211,-15.43492],[-47.55108,-15.43895],[-47.55116,-15.44102],[-47.55155,-15.44301],[-47.55156,-15.44535],[-47.55221,-15.44747],[-47.5522,-15.44934],[-47.55246,-15.45145],[-47.55199,-15.4523],[-47.55209,-15.45446],[-47.55181,-15.45725],[-47.55251,-15.4588],[-47.55264,-15.4609],[-47.55347,-15.46091],[-47.55338,-15.4634],[-47.55515,-15.46659],[-47.5553,-15.46828],[-47.55515,-15.4706],[-47.55644,-15.47508],[-47.55659,-15.47911],[-47.55636,-15.47992],[-47.55836,-15.48327],[-47.55887,-15.48517],[-47.55787,-15.48675],[-47.55858,-15.48736],[-47.55877,-15.48857],[-47.55948,-15.48929],[-47.55931,-15.49049],[-47.56026,-15.49086],[-47.56013,-15.49264],[-47.56124,-15.49367],[-47.56141,-15.49582],[-47.56192,-15.49631],[-47.56138,-15.49713],[-47.56162,-15.49928],[-47.56212,-15.49976],[-47.56325,-15.50206],[-47.53248,-15.50202],[-47.51179,-15.50195],[-47.49275,-15.50192],[-47.49259,-15.5009],[-47.49201,-15.50018],[-47.49126,-15.49823],[-47.49143,-15.49723],[-47.49112,-15.49601],[-47.49132,-15.49366],[-47.49038,-15.4919],[-47.48959,-15.48968],[-47.48823,-15.48739],[-47.48785,-15.48564],[-47.48732,-15.48133],[-47.48649,-15.47904],[-47.48681,-15.47553],[-47.48744,-15.4727],[-47.48732,-15.47072],[-47.48752,-15.46911],[-47.48826,-15.46745],[-47.48812,-15.46674],[-47.48845,-15.46111],[-47.48828,-15.45823],[-47.48698,-15.45229],[-47.48666,-15.4495],[-47.4861,-15.44706],[-47.48623,-15.44548],[-47.48767,-15.44398],[-47.48847,-15.4415],[-47.48857,-15.44017],[-47.48725,-15.42917],[-47.48686,-15.42205],[-47.48623,-15.42026],[-47.48521,-15.41882],[-47.48349,-15.41522],[-47.48285,-15.41238],[-47.48095,-15.40913],[-47.48014,-15.40733],[-47.48001,-15.40549],[-47.48044,-15.39738],[-47.48017,-15.3968],[-47.47858,-15.39579],[-47.4783,-15.3952],[-47.47865,-15.39409],[-47.47779,-15.39282],[-47.47729,-15.39152],[-47.47619,-15.39051],[-47.4717,-15.38835],[-47.4699,-15.38683],[-47.46878,-15.38545],[-47.46728,-15.38403],[-47.46514,-15.38258],[-47.46403,-15.3807],[-47.46293,-15.37709],[-47.46294,-15.37524],[-47.46251,-15.37392],[-47.46435,-15.3731],[-47.4664,-15.37128],[-47.46779,-15.37065],[-47.46844,-15.3696],[-47.47338,-15.36644],[-47.47294,-15.36341],[-47.47367,-15.3595],[-47.4741,-15.35372],[-47.47352,-15.35039],[-47.4715,-15.34634],[-47.47179,-15.34316],[-47.47309,-15.33969],[-47.47381,-15.33116],[-47.47497,-15.32595],[-47.47786,-15.32002],[-47.47989,-15.31742],[-47.48046,-15.31583],[-47.48234,-15.3125],[-47.48307,-15.30672],[-47.48538,-15.29905],[-47.49287,-15.29664],[-47.49608,-15.29197],[-47.49999,-15.29124],[-47.50635,-15.29081],[-47.51607,-15.29063],[-47.51875,-15.29179],[-47.5229,-15.29295],[-47.53889,-15.29124],[-47.53961,-15.29023],[-47.5399,-15.28878],[-47.53932,-15.28719],[-47.53585,-15.28271],[-47.53267,-15.28054],[-47.52623,-15.27764],[-47.52185,-15.27557],[-47.51668,-15.27282],[-47.51557,-15.27192],[-47.51083,-15.26767],[-47.5062,-15.25813],[-47.50548,-15.25306],[-47.50519,-15.24714],[-47.50601,-15.24222],[-47.5079,-15.23341],[-47.50915,-15.23069],[-47.51062,-15.22875],[-47.51332,-15.22709],[-47.51633,-15.22139],[-47.51951,-15.2172],[-47.52283,-15.21575],[-47.52515,-15.2133],[-47.52752,-15.20824],[-47.52779,-15.20743],[-47.52826,-15.20314],[-47.52752,-15.1954],[-47.52527,-15.18312],[-47.5256,-15.17868],[-47.52645,-15.1728],[-47.52862,-15.16875],[-47.53143,-15.1622],[-47.5331,-15.15473],[-47.53469,-15.14894],[-47.53773,-15.14171],[-47.54091,-15.13535],[-47.54742,-15.12609],[-47.54891,-15.11937],[-47.55016,-15.11568],[-47.55262,-15.11279],[-47.55436,-15.10932],[-47.55483,-15.10686],[-47.55569,-15.10453],[-47.55588,-15.10275],[-47.55452,-15.10091],[-47.55532,-15.09546],[-47.5582,-15.08858],[-47.56085,-15.08526],[-47.56168,-15.08378],[-47.5629,-15.0822],[-47.56775,-15.07735],[-47.5694,-15.07438],[-47.56932,-15.06215],[-47.57087,-15.04707],[-47.59855,-15.04496],[-47.67816,-15.03888],[-47.67996,-15.03846],[-47.68005,-15.03724],[-47.68145,-15.03589],[-47.68259,-15.03603],[-47.68271,-15.03475],[-47.68329,-15.03418],[-47.6832,-15.03275],[-47.68584,-15.03079],[-47.68685,-15.03055],[-47.6874,-15.03182],[-47.68815,-15.03097],[-47.68873,-15.02947],[-47.68942,-15.02928],[-47.69166,-15.0315],[-47.69223,-15.0316],[-47.69305,-15.02973],[-47.6942,-15.02878],[-47.69503,-15.02943],[-47.69591,-15.02866],[-47.69591,-15.02741],[-47.69728,-15.02708],[-47.6979,-15.02829],[-47.69903,-15.02838],[-47.69812,-15.02682],[-47.69827,-15.02641],[-47.70293,-15.02522],[-47.70316,-15.02369],[-47.70515,-15.02231],[-47.70523,-15.02095],[-47.7062,-15.01988],[-47.707,-15.01961],[-47.70794,-15.02098],[-47.70896,-15.0219],[-47.7106,-15.0201],[-47.71189,-15.02069],[-47.71302,-15.01975],[-47.71466,-15.0202],[-47.71655,-15.01783],[-47.71667,-15.01672],[-47.71856,-15.01666],[-47.71973,-15.01727],[-47.72098,-15.01657],[-47.72154,-15.01754],[-47.7212,-15.01868],[-47.72142,-15.01961],[-47.72052,-15.02101],[-47.71958,-15.02074],[-47.71904,-15.0219],[-47.71986,-15.02271],[-47.72155,-15.02261],[-47.72194,-15.02462],[-47.72314,-15.0257],[-47.7245,-15.02605],[-47.72408,-15.02783],[-47.72512,-15.02883],[-47.72627,-15.0283],[-47.72584,-15.02701],[-47.72633,-15.02621],[-47.7285,-15.02598],[-47.72913,-15.02534],[-47.73057,-15.02534],[-47.7318,-15.0269],[-47.73071,-15.02727],[-47.73091,-15.02829],[-47.7317,-15.0294],[-47.73284,-15.02855],[-47.734,-15.02886],[-47.7349,-15.03022],[-47.73511,-15.03118],[-47.73586,-15.03175],[-47.7355,-15.03249],[-47.73641,-15.03308],[-47.73657,-15.03435],[-47.73794,-15.03367],[-47.74012,-15.0344],[-47.74118,-15.03399],[-47.74169,-15.03309],[-47.74298,-15.03392],[-47.74406,-15.03408],[-47.74295,-15.03522],[-47.74218,-15.03781],[-47.74282,-15.03833],[-47.74194,-15.03972],[-47.74184,-15.04073],[-47.74303,-15.04102],[-47.74365,-15.039],[-47.74556,-15.03901],[-47.74672,-15.03949],[-47.74654,-15.04091],[-47.74555,-15.04133]]]},"properties":{"codigo":"521760915","name":"São Gabriel de Goiás","population":6594,"households":4261,"areaKm2":827.2959,"density":8}}]}