{"type":"FeatureCollection","features":[{"type":"Feature","geometry":{"type":"Polygon","coordinates":[[[-49.57528,-15.33871],[-49.57392,-15.34143],[-49.57279,-15.34229],[-49.57172,-15.34266],[-49.57043,-15.34415],[-49.56915,-15.34453],[-49.56808,-15.34433],[-49.56581,-15.34505],[-49.56246,-15.34646],[-49.56202,-15.34733],[-49.56045,-15.3487],[-49.55977,-15.35016],[-49.55907,-15.35082],[-49.55867,-15.3519],[-49.55651,-15.35258],[-49.55474,-15.35374],[-49.55333,-15.35498],[-49.55078,-15.35555],[-49.54903,-15.35519],[-49.54762,-15.3543],[-49.54545,-15.35355],[-49.54524,-15.35275],[-49.54413,-15.35248],[-49.54268,-15.35263],[-49.54096,-15.35231],[-49.54054,-15.35136],[-49.53917,-15.35079],[-49.53778,-15.34911],[-49.53586,-15.34844],[-49.53508,-15.34693],[-49.532,-15.34689],[-49.53099,-15.34638],[-49.53173,-15.34561],[-49.53246,-15.34353],[-49.53385,-15.34266],[-49.53763,-15.33912],[-49.53948,-15.33788],[-49.54192,-15.33719],[-49.54321,-15.33658],[-49.54217,-15.33435],[-49.53991,-15.33246],[-49.53805,-15.33224],[-49.53725,-15.33124],[-49.53599,-15.33036],[-49.53462,-15.32986],[-49.53316,-15.32999],[-49.53219,-15.33083],[-49.53025,-15.3307],[-49.52857,-15.33138],[-49.5254,-15.33153],[-49.52448,-15.33325],[-49.52229,-15.33479],[-49.5212,-15.33528],[-49.52043,-15.33619],[-49.51984,-15.33614],[-49.51936,-15.33466],[-49.51847,-15.33431],[-49.51441,-15.33545],[-49.51244,-15.33526],[-49.50981,-15.33619],[-49.50839,-15.33595],[-49.50696,-15.33534],[-49.50545,-15.33552],[-49.50438,-15.33608],[-49.50394,-15.33698],[-49.50295,-15.33659],[-49.50308,-15.33574],[-49.50194,-15.33483],[-49.50066,-15.33258],[-49.50029,-15.33102],[-49.49941,-15.33025],[-49.49985,-15.3292],[-49.49952,-15.32745],[-49.50063,-15.32711],[-49.50051,-15.32559],[-49.50084,-15.32482],[-49.50186,-15.32412],[-49.50235,-15.32234],[-49.50185,-15.32145],[-49.50139,-15.3194],[-49.5015,-15.31856],[-49.50824,-15.30494],[-49.50673,-15.30319],[-49.5062,-15.30045],[-49.50548,-15.30006],[-49.50534,-15.29912],[-49.50591,-15.29859],[-49.50604,-15.2975],[-49.50486,-15.29638],[-49.50534,-15.29337],[-49.50628,-15.29167],[-49.51003,-15.29317],[-49.51197,-15.29332],[-49.51323,-15.29106],[-49.51453,-15.28623],[-49.51397,-15.28089],[-49.51556,-15.27673],[-49.51787,-15.27426],[-49.52056,-15.27009],[-49.519,-15.267],[-49.51575,-15.2639],[-49.51369,-15.26062],[-49.51209,-15.25926],[-49.51037,-15.25492],[-49.50884,-15.2517],[-49.50645,-15.25153],[-49.5058,-15.2493],[-49.50524,-15.24871],[-49.50354,-15.24857],[-49.50023,-15.25002],[-49.49835,-15.25067],[-49.49662,-15.25091],[-49.49328,-15.25041],[-49.49229,-15.24966],[-49.49117,-15.247],[-49.48619,-15.24109],[-49.48385,-15.23699],[-49.48454,-15.2367],[-49.48599,-15.2354],[-49.487,-15.23503],[-49.48871,-15.23506],[-49.48941,-15.23546],[-49.48995,-15.23663],[-49.49146,-15.23727],[-49.49245,-15.23704],[-49.49402,-15.23613],[-49.49526,-15.23594],[-49.49746,-15.23771],[-49.50036,-15.23775],[-49.50189,-15.23839],[-49.50502,-15.2364],[-49.50761,-15.23413],[-49.5083,-15.23255],[-49.51111,-15.23113],[-49.51156,-15.23017],[-49.5098,-15.22719],[-49.50988,-15.22636],[-49.51058,-15.22538],[-49.51175,-15.22467],[-49.51247,-15.22286],[-49.51092,-15.22216],[-49.50904,-15.22088],[-49.50716,-15.21876],[-49.50758,-15.21771],[-49.50744,-15.21673],[-49.50658,-15.2153],[-49.50652,-15.21453],[-49.51133,-15.21083],[-49.51037,-15.21006],[-49.50904,-15.20848],[-49.50904,-15.20753],[-49.50837,-15.20684],[-49.50748,-15.20673],[-49.50593,-15.20576],[-49.50066,-15.20437],[-49.49805,-15.20315],[-49.49807,-15.20196],[-49.49936,-15.19973],[-49.49943,-15.19702],[-49.49851,-15.19372],[-49.49862,-15.19211],[-49.49906,-15.18987],[-49.49979,-15.1881],[-49.50087,-15.18711],[-49.50241,-15.18743],[-49.50375,-15.18645],[-49.50359,-15.18566],[-49.50436,-15.18326],[-49.50443,-15.18064],[-49.50518,-15.17736],[-49.5059,-15.17621],[-49.50596,-15.1781],[-49.50708,-15.1806],[-49.50829,-15.18181],[-49.51017,-15.18257],[-49.51196,-15.18253],[-49.51286,-15.18191],[-49.51495,-15.17853],[-49.51754,-15.17522],[-49.51906,-15.17287],[-49.52031,-15.17268],[-49.52507,-15.17339],[-49.52601,-15.17438],[-49.52655,-15.17615],[-49.52655,-15.17715],[-49.52726,-15.17866],[-49.52822,-15.17985],[-49.53012,-15.18297],[-49.53131,-15.18521],[-49.53298,-15.18577],[-49.53465,-15.18577],[-49.53719,-15.18483],[-49.53842,-15.18344],[-49.53992,-15.18246],[-49.5419,-15.18169],[-49.54424,-15.18036],[-49.54607,-15.18017],[-49.54798,-15.18068],[-49.5491,-15.18226],[-49.54942,-15.18406],[-49.54899,-15.18632],[-49.54761,-15.18851],[-49.54749,-15.19025],[-49.54869,-15.19441],[-49.54879,-15.19672],[-49.54848,-15.19905],[-49.54789,-15.20179],[-49.54778,-15.20402],[-49.54936,-15.20806],[-49.55126,-15.21473],[-49.55203,-15.21573],[-49.55401,-15.21675],[-49.55675,-15.2169],[-49.55748,-15.21762],[-49.55791,-15.22004],[-49.55791,-15.22151],[-49.5587,-15.22395],[-49.55844,-15.22537],[-49.55729,-15.2273],[-49.55704,-15.22955],[-49.55757,-15.23151],[-49.55957,-15.23358],[-49.56037,-15.23493],[-49.56155,-15.23613],[-49.56404,-15.23811],[-49.56457,-15.23952],[-49.56452,-15.24127],[-49.56344,-15.24289],[-49.56257,-15.24493],[-49.56131,-15.24612],[-49.55916,-15.24756],[-49.55811,-15.24893],[-49.55782,-15.25055],[-49.55816,-15.25184],[-49.55915,-15.25274],[-49.55907,-15.25427],[-49.55809,-15.25505],[-49.55278,-15.25674],[-49.55094,-15.25821],[-49.5506,-15.25917],[-49.55071,-15.26133],[-49.55033,-15.26273],[-49.55108,-15.2643],[-49.5528,-15.26649],[-49.55316,-15.26845],[-49.55297,-15.27077],[-49.55316,-15.27367],[-49.5531,-15.27578],[-49.55335,-15.27647],[-49.55622,-15.27974],[-49.55882,-15.28071],[-49.56135,-15.28057],[-49.56465,-15.28014],[-49.56648,-15.28098],[-49.56741,-15.28222],[-49.5689,-15.28685],[-49.57009,-15.28819],[-49.57041,-15.28938],[-49.57038,-15.29115],[-49.57147,-15.29287],[-49.57213,-15.29482],[-49.57188,-15.2993],[-49.57241,-15.30158],[-49.57356,-15.30247],[-49.57548,-15.30293],[-49.57698,-15.30301],[-49.57894,-15.30281],[-49.58042,-15.30325],[-49.58191,-15.30462],[-49.5832,-15.30654],[-49.58469,-15.30764],[-49.58687,-15.30889],[-49.589,-15.31098],[-49.58951,-15.31244],[-49.58906,-15.31591],[-49.58964,-15.31843],[-49.589,-15.32001],[-49.58477,-15.32352],[-49.58344,-15.3258],[-49.58211,-15.32951],[-49.58142,-15.33062],[-49.57914,-15.33243],[-49.57734,-15.33325],[-49.57566,-15.33445],[-49.57507,-15.33525],[-49.57467,-15.33696],[-49.57528,-15.33871]]]},"properties":{"codigo":"521860705","name":"Rialma","population":11812,"households":4912,"areaKm2":110.9618,"density":106.5}},{"type":"Feature","geometry":{"type":"Polygon","coordinates":[[[-49.60548,-15.40866],[-49.60441,-15.40964],[-49.60322,-15.40985],[-49.60221,-15.40912],[-49.60123,-15.40778],[-49.59919,-15.4072],[-49.59624,-15.40686],[-49.59524,-15.40699],[-49.59182,-15.40796],[-49.58734,-15.40941],[-49.58673,-15.41004],[-49.58635,-15.41192],[-49.58618,-15.41488],[-49.58432,-15.41656],[-49.58429,-15.41767],[-49.5852,-15.42029],[-49.58457,-15.423],[-49.58518,-15.42507],[-49.58452,-15.42711],[-49.58327,-15.4285],[-49.58227,-15.42999],[-49.5823,-15.43234],[-49.58125,-15.43284],[-49.57926,-15.4325],[-49.5785,-15.43302],[-49.57891,-15.43369],[-49.5814,-15.43624],[-49.58262,-15.437],[-49.58449,-15.43677],[-49.58476,-15.43845],[-49.58542,-15.44008],[-49.5849,-15.44226],[-49.58538,-15.44466],[-49.58516,-15.44677],[-49.58386,-15.44774],[-49.58286,-15.44766],[-49.58116,-15.44684],[-49.57948,-15.44439],[-49.5781,-15.44336],[-49.57678,-15.44313],[-49.5758,-15.44389],[-49.57432,-15.44617],[-49.57264,-15.44828],[-49.57136,-15.45055],[-49.57117,-15.452],[-49.57153,-15.45414],[-49.57055,-15.4549],[-49.56871,-15.45496],[-49.56703,-15.45531],[-49.56351,-15.45533],[-49.56308,-15.45484],[-49.563,-15.45325],[-49.56369,-15.45241],[-49.5656,-15.45132],[-49.56527,-15.4508],[-49.56391,-15.45045],[-49.56063,-15.45086],[-49.55988,-15.45146],[-49.55978,-15.45275],[-49.56037,-15.45684],[-49.56172,-15.45918],[-49.56113,-15.46008],[-49.55867,-15.46004],[-49.5559,-15.45938],[-49.55475,-15.45825],[-49.55455,-15.45589],[-49.55498,-15.4541],[-49.55565,-15.45271],[-49.55776,-15.44922],[-49.55868,-15.44599],[-49.55848,-15.44524],[-49.55695,-15.44499],[-49.55478,-15.445],[-49.55196,-15.44464],[-49.54952,-15.44496],[-49.54663,-15.4445],[-49.54416,-15.44443],[-49.54189,-15.44349],[-49.54102,-15.44401],[-49.54008,-15.44522],[-49.53945,-15.44651],[-49.53942,-15.44832],[-49.53799,-15.44824],[-49.53656,-15.44852],[-49.53537,-15.44932],[-49.53342,-15.44944],[-49.53208,-15.4489],[-49.52974,-15.44904],[-49.52769,-15.45029],[-49.52684,-15.45103],[-49.52447,-15.45085],[-49.52452,-15.44908],[-49.52223,-15.44785],[-49.52205,-15.44739],[-49.52036,-15.4467],[-49.51802,-15.44638],[-49.51675,-15.44585],[-49.51637,-15.44499],[-49.51485,-15.4442],[-49.5147,-15.44339],[-49.51348,-15.44307],[-49.51263,-15.44208],[-49.51259,-15.44045],[-49.51335,-15.43958],[-49.51207,-15.43834],[-49.51066,-15.43789],[-49.5086,-15.43785],[-49.50736,-15.43837],[-49.50622,-15.43936],[-49.50514,-15.43942],[-49.50367,-15.44147],[-49.50244,-15.44155],[-49.50008,-15.44047],[-49.49634,-15.43953],[-49.49428,-15.43946],[-49.49313,-15.43745],[-49.48956,-15.43746],[-49.48753,-15.43634],[-49.48509,-15.43463],[-49.48081,-15.43259],[-49.47972,-15.43249],[-49.47909,-15.43307],[-49.47802,-15.43488],[-49.47657,-15.43534],[-49.47502,-15.435],[-49.47418,-15.43403],[-49.47317,-15.43371],[-49.47164,-15.43277],[-49.46984,-15.43318],[-49.46833,-15.43392],[-49.46671,-15.43364],[-49.46368,-15.43254],[-49.46259,-15.43238],[-49.46091,-15.4305],[-49.46026,-15.42868],[-49.46006,-15.42712],[-49.46041,-15.42497],[-49.46067,-15.4218],[-49.46058,-15.41881],[-49.46146,-15.41632],[-49.4625,-15.41446],[-49.465,-15.41196],[-49.46505,-15.41131],[-49.46385,-15.40885],[-49.46369,-15.40699],[-49.4633,-15.40598],[-49.46218,-15.40498],[-49.46066,-15.40244],[-49.46012,-15.40041],[-49.46026,-15.39962],[-49.45923,-15.39756],[-49.45927,-15.39631],[-49.45892,-15.39455],[-49.45712,-15.39231],[-49.45716,-15.38989],[-49.45668,-15.38881],[-49.45519,-15.38702],[-49.45542,-15.38482],[-49.45529,-15.38337],[-49.45397,-15.38164],[-49.45409,-15.37919],[-49.45502,-15.37731],[-49.45667,-15.37673],[-49.45906,-15.37175],[-49.4623,-15.36964],[-49.46538,-15.3699],[-49.46826,-15.36837],[-49.46907,-15.36823],[-49.47083,-15.36884],[-49.47225,-15.36861],[-49.47782,-15.36159],[-49.47874,-15.35998],[-49.48454,-15.359],[-49.48732,-15.35745],[-49.48784,-15.35463],[-49.48788,-15.35029],[-49.48893,-15.34763],[-49.49075,-15.34728],[-49.49152,-15.34594],[-49.49164,-15.34209],[-49.4901,-15.33978],[-49.48894,-15.33631],[-49.48795,-15.33398],[-49.48659,-15.33149],[-49.48381,-15.32863],[-49.4834,-15.3277],[-49.48456,-15.32456],[-49.48918,-15.31684],[-49.49036,-15.31532],[-49.49128,-15.31483],[-49.4936,-15.3146],[-49.49741,-15.31281],[-49.49801,-15.3111],[-49.49692,-15.30891],[-49.49628,-15.30614],[-49.49701,-15.30229],[-49.49734,-15.29947],[-49.4982,-15.29752],[-49.49857,-15.29597],[-49.49963,-15.29369],[-49.50036,-15.29271],[-49.50394,-15.29153],[-49.50628,-15.29167],[-49.50534,-15.29337],[-49.50486,-15.29638],[-49.50604,-15.2975],[-49.50591,-15.29859],[-49.50534,-15.29912],[-49.50548,-15.30006],[-49.5062,-15.30045],[-49.50673,-15.30319],[-49.50824,-15.30494],[-49.5015,-15.31856],[-49.50139,-15.3194],[-49.50185,-15.32145],[-49.50235,-15.32234],[-49.50186,-15.32412],[-49.50084,-15.32482],[-49.50051,-15.32559],[-49.50063,-15.32711],[-49.49952,-15.32745],[-49.49985,-15.3292],[-49.49941,-15.33025],[-49.50029,-15.33102],[-49.50066,-15.33258],[-49.50194,-15.33483],[-49.50308,-15.33574],[-49.50295,-15.33659],[-49.50394,-15.33698],[-49.50438,-15.33608],[-49.50545,-15.33552],[-49.50696,-15.33534],[-49.50839,-15.33595],[-49.50981,-15.33619],[-49.51244,-15.33526],[-49.51441,-15.33545],[-49.51847,-15.33431],[-49.51936,-15.33466],[-49.51984,-15.33614],[-49.52043,-15.33619],[-49.5212,-15.33528],[-49.52229,-15.33479],[-49.52448,-15.33325],[-49.5254,-15.33153],[-49.52857,-15.33138],[-49.53025,-15.3307],[-49.53219,-15.33083],[-49.53316,-15.32999],[-49.53462,-15.32986],[-49.53599,-15.33036],[-49.53725,-15.33124],[-49.53805,-15.33224],[-49.53991,-15.33246],[-49.54217,-15.33435],[-49.54321,-15.33658],[-49.54192,-15.33719],[-49.53948,-15.33788],[-49.53763,-15.33912],[-49.53385,-15.34266],[-49.53246,-15.34353],[-49.53173,-15.34561],[-49.53099,-15.34638],[-49.532,-15.34689],[-49.53508,-15.34693],[-49.53586,-15.34844],[-49.53778,-15.34911],[-49.53917,-15.35079],[-49.54054,-15.35136],[-49.54096,-15.35231],[-49.54268,-15.35263],[-49.54413,-15.35248],[-49.54524,-15.35275],[-49.54545,-15.35355],[-49.54762,-15.3543],[-49.54903,-15.35519],[-49.55078,-15.35555],[-49.55333,-15.35498],[-49.55474,-15.35374],[-49.55651,-15.35258],[-49.55867,-15.3519],[-49.55907,-15.35082],[-49.55977,-15.35016],[-49.56045,-15.3487],[-49.56202,-15.34733],[-49.56246,-15.34646],[-49.56581,-15.34505],[-49.56808,-15.34433],[-49.56915,-15.34453],[-49.57043,-15.34415],[-49.57172,-15.34266],[-49.57279,-15.34229],[-49.57392,-15.34143],[-49.57528,-15.33871],[-49.57573,-15.33925],[-49.57725,-15.33978],[-49.57847,-15.33959],[-49.58019,-15.3381],[-49.5818,-15.3375],[-49.58357,-15.33778],[-49.58472,-15.33834],[-49.58707,-15.34014],[-49.58979,-15.34108],[-49.59138,-15.34238],[-49.59363,-15.34218],[-49.59434,-15.34305],[-49.59386,-15.34386],[-49.59245,-15.34507],[-49.59193,-15.34626],[-49.59155,-15.34899],[-49.5906,-15.35135],[-49.5905,-15.35296],[-49.59121,-15.35449],[-49.59185,-15.35629],[-49.59168,-15.3573],[-49.59103,-15.35823],[-49.58832,-15.36038],[-49.58693,-15.36216],[-49.58654,-15.36421],[-49.58691,-15.36553],[-49.58771,-15.36705],[-49.58809,-15.36853],[-49.58737,-15.37212],[-49.58607,-15.37528],[-49.58634,-15.37651],[-49.58779,-15.37849],[-49.59072,-15.38365],[-49.59147,-15.38424],[-49.59398,-15.38511],[-49.59598,-15.38547],[-49.59723,-15.386],[-49.59763,-15.38708],[-49.59773,-15.38908],[-49.59844,-15.39007],[-49.59951,-15.39007],[-49.60097,-15.38877],[-49.60152,-15.38777],[-49.60216,-15.38548],[-49.6032,-15.38475],[-49.60426,-15.38468],[-49.6049,-15.3853],[-49.6051,-15.38788],[-49.6035,-15.39248],[-49.60317,-15.39376],[-49.60329,-15.39539],[-49.60413,-15.39782],[-49.60484,-15.40157],[-49.60462,-15.40531],[-49.60514,-15.40666],[-49.60548,-15.40866]]]},"properties":{"codigo":"521860710","name":"Castrinópolis","population":353,"households":236,"areaKm2":157.3289,"density":2.2}}]}