{"type":"FeatureCollection","features":[{"type":"Feature","geometry":{"type":"Polygon","coordinates":[[[-50.24619,-16.34905],[-50.246,-16.34869],[-50.23878,-16.33811],[-50.24065,-16.33407],[-50.24331,-16.33399],[-50.24812,-16.33183],[-50.24851,-16.3302],[-50.24684,-16.32647],[-50.24637,-16.32578],[-50.24526,-16.32523],[-50.24513,-16.32083],[-50.24828,-16.32067],[-50.24955,-16.3209],[-50.25201,-16.32055],[-50.25443,-16.32094],[-50.25584,-16.32065],[-50.25712,-16.31948],[-50.25856,-16.31984],[-50.26016,-16.31925],[-50.26402,-16.31726],[-50.26433,-16.31678],[-50.26737,-16.31633],[-50.26815,-16.31706],[-50.27017,-16.31782],[-50.27092,-16.3178],[-50.27266,-16.31674],[-50.27442,-16.3167],[-50.27541,-16.31723],[-50.27709,-16.31679],[-50.2775,-16.31615],[-50.2795,-16.31502],[-50.28133,-16.31523],[-50.28267,-16.31468],[-50.28459,-16.31245],[-50.28531,-16.31221],[-50.28534,-16.31081],[-50.28592,-16.31065],[-50.28712,-16.31195],[-50.28788,-16.31212],[-50.28877,-16.31164],[-50.29133,-16.31252],[-50.2917,-16.31176],[-50.29338,-16.31243],[-50.29434,-16.31557],[-50.29572,-16.31839],[-50.29877,-16.31921],[-50.29866,-16.32058],[-50.30116,-16.31988],[-50.30285,-16.32106],[-50.3044,-16.32357],[-50.30568,-16.32439],[-50.30619,-16.32527],[-50.30727,-16.32561],[-50.30734,-16.3246],[-50.3085,-16.32457],[-50.30966,-16.32362],[-50.30937,-16.32235],[-50.31203,-16.32189],[-50.31188,-16.32125],[-50.31371,-16.32034],[-50.31516,-16.31884],[-50.31716,-16.31927],[-50.31947,-16.31806],[-50.32016,-16.31809],[-50.32077,-16.31594],[-50.32211,-16.31555],[-50.32274,-16.314],[-50.32269,-16.31226],[-50.32415,-16.31247],[-50.32431,-16.31139],[-50.32555,-16.31103],[-50.32702,-16.30999],[-50.32666,-16.30904],[-50.32715,-16.30854],[-50.32911,-16.30857],[-50.32964,-16.30821],[-50.33168,-16.30833],[-50.33368,-16.30673],[-50.33439,-16.30725],[-50.33638,-16.30731],[-50.3368,-16.30808],[-50.33844,-16.30826],[-50.34015,-16.3059],[-50.34044,-16.305],[-50.34017,-16.30382],[-50.34136,-16.30329],[-50.34234,-16.30342],[-50.34256,-16.30244],[-50.34366,-16.30318],[-50.34364,-16.30383],[-50.34458,-16.30483],[-50.34631,-16.30468],[-50.34842,-16.30371],[-50.34809,-16.30256],[-50.3483,-16.30094],[-50.34786,-16.30028],[-50.34818,-16.29833],[-50.34946,-16.29834],[-50.35005,-16.29787],[-50.35093,-16.2982],[-50.35376,-16.29873],[-50.35466,-16.3049],[-50.35635,-16.31698],[-50.35641,-16.31917],[-50.35555,-16.34158],[-50.35601,-16.34916],[-50.35662,-16.35775],[-50.35797,-16.37768],[-50.35825,-16.37911],[-50.36195,-16.38998],[-50.36526,-16.39956],[-50.3669,-16.40444],[-50.37093,-16.41612],[-50.37215,-16.41819],[-50.38148,-16.43205],[-50.38221,-16.43351],[-50.38279,-16.43541],[-50.38572,-16.44744],[-50.38726,-16.45355],[-50.38852,-16.45909],[-50.38857,-16.45974],[-50.38868,-16.47307],[-50.38883,-16.49958],[-50.39099,-16.49904],[-50.39078,-16.50103],[-50.39379,-16.50424],[-50.39426,-16.50709],[-50.39532,-16.50929],[-50.39546,-16.51035],[-50.39608,-16.51176],[-50.39707,-16.51323],[-50.39824,-16.51427],[-50.40122,-16.51591],[-50.40264,-16.51991],[-50.40239,-16.52064],[-50.40294,-16.52129],[-50.40408,-16.52127],[-50.40599,-16.52227],[-50.40619,-16.52546],[-50.40645,-16.52721],[-50.40271,-16.5333],[-50.40864,-16.53545],[-50.42997,-16.54562],[-50.43257,-16.54634],[-50.44059,-16.54772],[-50.44997,-16.54947],[-50.45218,-16.5497],[-50.48007,-16.55018],[-50.48209,-16.54978],[-50.48782,-16.54707],[-50.49481,-16.54363],[-50.50751,-16.53751],[-50.50916,-16.53697],[-50.51909,-16.53585],[-50.52539,-16.53519],[-50.52823,-16.53523],[-50.54338,-16.53637],[-50.55972,-16.53749],[-50.56055,-16.53858],[-50.56129,-16.54077],[-50.5606,-16.54151],[-50.55924,-16.54122],[-50.55882,-16.54266],[-50.55925,-16.54327],[-50.56063,-16.54385],[-50.56124,-16.5452],[-50.56221,-16.54623],[-50.56405,-16.54733],[-50.56369,-16.54884],[-50.56378,-16.5506],[-50.56307,-16.55144],[-50.56295,-16.55291],[-50.56252,-16.55366],[-50.56105,-16.55456],[-50.56048,-16.55393],[-50.56018,-16.55234],[-50.55843,-16.55107],[-50.55866,-16.54998],[-50.55798,-16.54945],[-50.55621,-16.54981],[-50.55513,-16.55056],[-50.55081,-16.5485],[-50.55027,-16.54843],[-50.54868,-16.54978],[-50.54807,-16.54998],[-50.54777,-16.55163],[-50.54645,-16.5521],[-50.54557,-16.55354],[-50.54381,-16.5554],[-50.54211,-16.55636],[-50.54071,-16.5579],[-50.53809,-16.56028],[-50.5364,-16.56161],[-50.53687,-16.5628],[-50.53642,-16.56415],[-50.53825,-16.56589],[-50.5386,-16.56736],[-50.54019,-16.56826],[-50.5404,-16.5698],[-50.54084,-16.57087],[-50.53987,-16.57222],[-50.53763,-16.57285],[-50.53653,-16.57392],[-50.53559,-16.57549],[-50.5362,-16.57669],[-50.536,-16.57736],[-50.53316,-16.57839],[-50.53311,-16.57937],[-50.5316,-16.58064],[-50.53123,-16.58165],[-50.52924,-16.58142],[-50.52781,-16.58317],[-50.52676,-16.58331],[-50.52675,-16.58449],[-50.52582,-16.5863],[-50.52498,-16.5868],[-50.52368,-16.58599],[-50.52253,-16.58599],[-50.52176,-16.58761],[-50.52258,-16.58962],[-50.52229,-16.59018],[-50.52105,-16.59017],[-50.52063,-16.58895],[-50.51957,-16.58835],[-50.51741,-16.58954],[-50.51595,-16.58933],[-50.51573,-16.59037],[-50.51389,-16.59144],[-50.5129,-16.59235],[-50.5136,-16.594],[-50.51344,-16.59585],[-50.51261,-16.59733],[-50.5131,-16.59861],[-50.51377,-16.59897],[-50.51541,-16.59894],[-50.51622,-16.59924],[-50.51801,-16.60121],[-50.51904,-16.60317],[-50.51821,-16.60351],[-50.51701,-16.60195],[-50.51596,-16.60185],[-50.51477,-16.60378],[-50.51349,-16.60455],[-50.51362,-16.6052],[-50.51531,-16.60641],[-50.51613,-16.60663],[-50.51889,-16.60663],[-50.5196,-16.60711],[-50.52193,-16.60779],[-50.52296,-16.60862],[-50.52272,-16.61022],[-50.52163,-16.61141],[-50.52105,-16.61367],[-50.51879,-16.6149],[-50.51689,-16.61473],[-50.51496,-16.61514],[-50.51259,-16.61278],[-50.51197,-16.61279],[-50.51123,-16.6137],[-50.51138,-16.61519],[-50.51273,-16.61669],[-50.5129,-16.61753],[-50.51278,-16.6203],[-50.50972,-16.62109],[-50.50929,-16.62263],[-50.50881,-16.62325],[-50.50674,-16.62395],[-50.50567,-16.62392],[-50.50431,-16.62444],[-50.50233,-16.62471],[-50.50131,-16.62686],[-50.49951,-16.62706],[-50.49816,-16.62827],[-50.49515,-16.63016],[-50.4943,-16.63126],[-50.49179,-16.63299],[-50.48751,-16.63466],[-50.48649,-16.63552],[-50.48548,-16.63572],[-50.48471,-16.63721],[-50.48387,-16.63778],[-50.48197,-16.63698],[-50.48012,-16.6365],[-50.4796,-16.63519],[-50.4783,-16.63436],[-50.47751,-16.6347],[-50.47621,-16.63354],[-50.47451,-16.63367],[-50.4732,-16.63205],[-50.47163,-16.63318],[-50.47091,-16.63275],[-50.4699,-16.63313],[-50.46902,-16.63265],[-50.46847,-16.63081],[-50.46765,-16.63056],[-50.4646,-16.63158],[-50.464,-16.63128],[-50.46362,-16.63021],[-50.46275,-16.62946],[-50.46268,-16.62866],[-50.46342,-16.62758],[-50.46316,-16.62606],[-50.46203,-16.62505],[-50.46041,-16.62186],[-50.46043,-16.62077],[-50.4597,-16.61975],[-50.45938,-16.61753],[-50.45853,-16.61649],[-50.45843,-16.61549],[-50.45708,-16.61476],[-50.4559,-16.61447],[-50.4549,-16.61248],[-50.45121,-16.60902],[-50.45013,-16.60541],[-50.44988,-16.60373],[-50.44895,-16.60258],[-50.44811,-16.60068],[-50.44681,-16.59948],[-50.44518,-16.59762],[-50.44521,-16.59622],[-50.44469,-16.59567],[-50.44475,-16.59438],[-50.44348,-16.59406],[-50.44331,-16.59352],[-50.44215,-16.59334],[-50.44005,-16.59376],[-50.43954,-16.59408],[-50.4381,-16.5939],[-50.43733,-16.59329],[-50.43654,-16.59335],[-50.43673,-16.59186],[-50.43588,-16.59088],[-50.43472,-16.59145],[-50.43358,-16.59078],[-50.43359,-16.59023],[-50.43254,-16.58938],[-50.43225,-16.58859],[-50.43103,-16.58788],[-50.43021,-16.5864],[-50.42893,-16.58633],[-50.42806,-16.58801],[-50.42742,-16.58793],[-50.42637,-16.58892],[-50.42343,-16.59018],[-50.42244,-16.5899],[-50.42094,-16.59003],[-50.41808,-16.58974],[-50.41641,-16.58873],[-50.41577,-16.58748],[-50.41391,-16.58633],[-50.41175,-16.58727],[-50.41108,-16.58805],[-50.41019,-16.5883],[-50.40901,-16.58809],[-50.40695,-16.58872],[-50.40506,-16.58971],[-50.40412,-16.59087],[-50.40287,-16.59107],[-50.40058,-16.59238],[-50.39983,-16.59307],[-50.39729,-16.59133],[-50.39501,-16.59131],[-50.39174,-16.59053],[-50.39136,-16.58948],[-50.38838,-16.58882],[-50.38792,-16.58755],[-50.3865,-16.58734],[-50.38614,-16.58666],[-50.38415,-16.58619],[-50.38201,-16.58494],[-50.38013,-16.58314],[-50.37981,-16.58234],[-50.37874,-16.58168],[-50.37852,-16.58095],[-50.37715,-16.58058],[-50.37642,-16.57842],[-50.37585,-16.57742],[-50.37608,-16.57661],[-50.3756,-16.57526],[-50.37352,-16.57592],[-50.37187,-16.57514],[-50.37003,-16.57564],[-50.36797,-16.57664],[-50.36637,-16.57816],[-50.36386,-16.57981],[-50.36177,-16.58029],[-50.36024,-16.57986],[-50.35965,-16.57913],[-50.35893,-16.5769],[-50.35768,-16.57534],[-50.35514,-16.57441],[-50.35343,-16.57494],[-50.34711,-16.57735],[-50.34542,-16.57398],[-50.34424,-16.57237],[-50.34252,-16.57175],[-50.34062,-16.56869],[-50.3407,-16.56459],[-50.33765,-16.56351],[-50.33392,-16.56334],[-50.33104,-16.56548],[-50.32448,-16.56465],[-50.32237,-16.56383],[-50.31449,-16.56104],[-50.31208,-16.55827],[-50.30974,-16.55893],[-50.30576,-16.55855],[-50.30321,-16.55863],[-50.29596,-16.54434],[-50.29475,-16.54122],[-50.29326,-16.53485],[-50.29213,-16.53403],[-50.28527,-16.53079],[-50.28374,-16.52927],[-50.28317,-16.52823],[-50.28277,-16.52658],[-50.28274,-16.5252],[-50.28344,-16.51516],[-50.28343,-16.51426],[-50.28248,-16.51093],[-50.28254,-16.50785],[-50.28136,-16.50648],[-50.27715,-16.50505],[-50.27556,-16.50433],[-50.26728,-16.49549],[-50.26603,-16.49136],[-50.26607,-16.49028],[-50.26889,-16.48452],[-50.26267,-16.47816],[-50.26244,-16.47748],[-50.26314,-16.47444],[-50.26389,-16.47231],[-50.2639,-16.47148],[-50.26073,-16.47045],[-50.25838,-16.4699],[-50.25719,-16.46889],[-50.25288,-16.46286],[-50.25122,-16.46011],[-50.25009,-16.45796],[-50.24901,-16.45727],[-50.24767,-16.45588],[-50.24701,-16.45248],[-50.24556,-16.45136],[-50.24506,-16.45011],[-50.24302,-16.4498],[-50.2414,-16.4503],[-50.23987,-16.44971],[-50.23883,-16.44991],[-50.23313,-16.4499],[-50.23022,-16.45133],[-50.22812,-16.4513],[-50.22454,-16.45125],[-50.22441,-16.45197],[-50.22413,-16.45818],[-50.22326,-16.46155],[-50.22288,-16.46521],[-50.22269,-16.46831],[-50.22223,-16.46947],[-50.22191,-16.47441],[-50.22189,-16.4761],[-50.21879,-16.47759],[-50.21544,-16.47857],[-50.21131,-16.4785],[-50.20798,-16.47823],[-50.20284,-16.47587],[-50.19996,-16.47401],[-50.19841,-16.4717],[-50.1941,-16.4675],[-50.19268,-16.46692],[-50.19223,-16.46816],[-50.19113,-16.46827],[-50.18749,-16.46816],[-50.18424,-16.46782],[-50.18003,-16.46775],[-50.16617,-16.46556],[-50.16741,-16.4637],[-50.16777,-16.46113],[-50.16833,-16.46064],[-50.17023,-16.46029],[-50.17134,-16.46051],[-50.17181,-16.45938],[-50.17313,-16.45854],[-50.17543,-16.45817],[-50.17642,-16.4584],[-50.17705,-16.45728],[-50.17798,-16.45644],[-50.1779,-16.45519],[-50.17687,-16.45466],[-50.1774,-16.45375],[-50.17701,-16.4519],[-50.17847,-16.45176],[-50.17956,-16.45032],[-50.18015,-16.44889],[-50.17898,-16.44788],[-50.17867,-16.44693],[-50.17761,-16.44692],[-50.17687,-16.44571],[-50.17747,-16.44359],[-50.17584,-16.44346],[-50.17477,-16.44223],[-50.17535,-16.44182],[-50.17397,-16.44066],[-50.17436,-16.4372],[-50.17579,-16.43588],[-50.17684,-16.43542],[-50.17859,-16.43523],[-50.17825,-16.43417],[-50.1773,-16.43374],[-50.17771,-16.43261],[-50.17875,-16.4317],[-50.17892,-16.43058],[-50.1802,-16.42878],[-50.17979,-16.4268],[-50.18169,-16.42368],[-50.18214,-16.42141],[-50.18417,-16.42018],[-50.18499,-16.42026],[-50.18562,-16.41951],[-50.18725,-16.42016],[-50.18774,-16.41936],[-50.18877,-16.41926],[-50.18996,-16.41831],[-50.19007,-16.41683],[-50.19117,-16.41499],[-50.1924,-16.41546],[-50.19388,-16.41525],[-50.1949,-16.41552],[-50.19657,-16.41676],[-50.19849,-16.41676],[-50.19901,-16.41744],[-50.1998,-16.41728],[-50.20098,-16.41818],[-50.20241,-16.41882],[-50.20387,-16.41809],[-50.20475,-16.41859],[-50.20628,-16.41796],[-50.20614,-16.41668],[-50.20732,-16.41544],[-50.20896,-16.41548],[-50.21114,-16.41514],[-50.21335,-16.41348],[-50.21483,-16.41312],[-50.21596,-16.41208],[-50.21679,-16.41089],[-50.21869,-16.41039],[-50.22104,-16.41041],[-50.22158,-16.4112],[-50.22431,-16.41194],[-50.22611,-16.41262],[-50.22746,-16.41224],[-50.22897,-16.41233],[-50.23006,-16.41295],[-50.2339,-16.41595],[-50.2352,-16.41776],[-50.23869,-16.42077],[-50.24016,-16.42118],[-50.2408,-16.42178],[-50.24496,-16.42182],[-50.24455,-16.4203],[-50.24345,-16.41843],[-50.24198,-16.41784],[-50.24052,-16.41677],[-50.23965,-16.41467],[-50.23828,-16.41245],[-50.23806,-16.40707],[-50.23763,-16.4052],[-50.23608,-16.40385],[-50.23157,-16.40302],[-50.22651,-16.40369],[-50.22237,-16.39913],[-50.223,-16.39529],[-50.22369,-16.39401],[-50.22342,-16.39332],[-50.22186,-16.39125],[-50.22059,-16.38821],[-50.22031,-16.38481],[-50.22327,-16.38245],[-50.22422,-16.38233],[-50.22605,-16.37928],[-50.22693,-16.37858],[-50.22702,-16.37699],[-50.2338,-16.37274],[-50.22893,-16.3699],[-50.22718,-16.36412],[-50.22579,-16.36212],[-50.22656,-16.36115],[-50.22927,-16.35915],[-50.23256,-16.35856],[-50.23533,-16.35411],[-50.23679,-16.35401],[-50.23975,-16.355],[-50.24203,-16.35538],[-50.24479,-16.35534],[-50.24637,-16.35424],[-50.24746,-16.3522],[-50.24759,-16.35029],[-50.24619,-16.34905]]]},"properties":{"codigo":"522010805","name":"São Luís de Montes Belos","population":32650,"households":15139,"areaKm2":523.0487,"density":62.4}},{"type":"Feature","geometry":{"type":"Polygon","coordinates":[[[-50.55972,-16.53749],[-50.54338,-16.53637],[-50.52823,-16.53523],[-50.52539,-16.53519],[-50.51909,-16.53585],[-50.50916,-16.53697],[-50.50751,-16.53751],[-50.49481,-16.54363],[-50.48782,-16.54707],[-50.48209,-16.54978],[-50.48007,-16.55018],[-50.45218,-16.5497],[-50.44997,-16.54947],[-50.44059,-16.54772],[-50.43257,-16.54634],[-50.42997,-16.54562],[-50.40864,-16.53545],[-50.40271,-16.5333],[-50.40645,-16.52721],[-50.40619,-16.52546],[-50.40599,-16.52227],[-50.40408,-16.52127],[-50.40294,-16.52129],[-50.40239,-16.52064],[-50.40264,-16.51991],[-50.40122,-16.51591],[-50.39824,-16.51427],[-50.39707,-16.51323],[-50.39608,-16.51176],[-50.39546,-16.51035],[-50.39532,-16.50929],[-50.39426,-16.50709],[-50.39379,-16.50424],[-50.39078,-16.50103],[-50.39099,-16.49904],[-50.38883,-16.49958],[-50.38868,-16.47307],[-50.38857,-16.45974],[-50.38852,-16.45909],[-50.38726,-16.45355],[-50.38572,-16.44744],[-50.38279,-16.43541],[-50.38221,-16.43351],[-50.38148,-16.43205],[-50.37215,-16.41819],[-50.37093,-16.41612],[-50.3669,-16.40444],[-50.36526,-16.39956],[-50.36195,-16.38998],[-50.35825,-16.37911],[-50.35797,-16.37768],[-50.35662,-16.35775],[-50.35601,-16.34916],[-50.35555,-16.34158],[-50.35641,-16.31917],[-50.35635,-16.31698],[-50.35466,-16.3049],[-50.35376,-16.29873],[-50.3563,-16.29748],[-50.35715,-16.29633],[-50.35745,-16.29507],[-50.35808,-16.29436],[-50.35904,-16.29421],[-50.35968,-16.29341],[-50.36252,-16.29355],[-50.3634,-16.29273],[-50.3634,-16.29123],[-50.36416,-16.29045],[-50.36504,-16.29041],[-50.36591,-16.29108],[-50.3671,-16.29066],[-50.36787,-16.28909],[-50.36913,-16.28928],[-50.36994,-16.28887],[-50.37159,-16.28914],[-50.37289,-16.29023],[-50.3749,-16.29029],[-50.37639,-16.28991],[-50.37786,-16.2883],[-50.37908,-16.28794],[-50.37918,-16.28676],[-50.38117,-16.28644],[-50.38188,-16.28572],[-50.38331,-16.28613],[-50.3862,-16.28601],[-50.38848,-16.2855],[-50.38978,-16.28542],[-50.39195,-16.28564],[-50.39486,-16.2869],[-50.39609,-16.28689],[-50.39729,-16.28743],[-50.39987,-16.28722],[-50.40091,-16.28753],[-50.40212,-16.28873],[-50.40371,-16.28904],[-50.40561,-16.28838],[-50.40715,-16.28691],[-50.40881,-16.2868],[-50.40956,-16.28789],[-50.41103,-16.28901],[-50.41127,-16.29076],[-50.41093,-16.29196],[-50.41191,-16.29231],[-50.41301,-16.29222],[-50.41459,-16.29311],[-50.41751,-16.29548],[-50.418,-16.29654],[-50.41727,-16.29731],[-50.41857,-16.29778],[-50.41918,-16.29905],[-50.41907,-16.30055],[-50.41943,-16.30189],[-50.42096,-16.30323],[-50.42295,-16.30334],[-50.42458,-16.30431],[-50.42583,-16.30564],[-50.42663,-16.30727],[-50.42659,-16.30781],[-50.42769,-16.30882],[-50.42857,-16.30919],[-50.42923,-16.31067],[-50.43047,-16.31194],[-50.43213,-16.31317],[-50.43299,-16.31557],[-50.43234,-16.31898],[-50.43276,-16.32036],[-50.43388,-16.32129],[-50.43364,-16.32318],[-50.43446,-16.32337],[-50.43452,-16.32562],[-50.43505,-16.32645],[-50.43616,-16.32593],[-50.43727,-16.32688],[-50.43746,-16.32535],[-50.43892,-16.32535],[-50.43997,-16.32606],[-50.43954,-16.32805],[-50.43882,-16.32874],[-50.43889,-16.33099],[-50.43922,-16.33148],[-50.43713,-16.3323],[-50.435,-16.33517],[-50.43506,-16.33598],[-50.43638,-16.33642],[-50.43723,-16.33733],[-50.4386,-16.33738],[-50.43891,-16.33642],[-50.44071,-16.33442],[-50.44214,-16.33368],[-50.4439,-16.33348],[-50.44436,-16.33282],[-50.44536,-16.33342],[-50.44552,-16.33445],[-50.44495,-16.33478],[-50.44304,-16.33465],[-50.44351,-16.33613],[-50.44501,-16.33595],[-50.4466,-16.33664],[-50.44518,-16.33757],[-50.44411,-16.33711],[-50.44347,-16.33742],[-50.44338,-16.33836],[-50.4426,-16.33868],[-50.44268,-16.34182],[-50.44174,-16.34179],[-50.44209,-16.34358],[-50.44267,-16.34414],[-50.44166,-16.34597],[-50.44208,-16.34665],[-50.44076,-16.34728],[-50.43999,-16.34809],[-50.44083,-16.3489],[-50.44125,-16.34992],[-50.44201,-16.35057],[-50.44145,-16.35144],[-50.44202,-16.35254],[-50.44125,-16.35374],[-50.44019,-16.35308],[-50.43891,-16.35328],[-50.4379,-16.35283],[-50.43708,-16.35111],[-50.43605,-16.35166],[-50.43645,-16.35259],[-50.43626,-16.35411],[-50.43659,-16.35594],[-50.43581,-16.35908],[-50.43676,-16.36125],[-50.43956,-16.36503],[-50.44126,-16.36519],[-50.44299,-16.36596],[-50.44143,-16.36705],[-50.4407,-16.36682],[-50.43982,-16.36802],[-50.43894,-16.3704],[-50.43988,-16.37008],[-50.44095,-16.37119],[-50.44266,-16.37173],[-50.44386,-16.37453],[-50.44475,-16.37377],[-50.44623,-16.37366],[-50.44745,-16.37325],[-50.44707,-16.37165],[-50.44896,-16.37009],[-50.45015,-16.36985],[-50.45093,-16.37052],[-50.45178,-16.37059],[-50.45222,-16.36992],[-50.45386,-16.36996],[-50.45391,-16.36857],[-50.4544,-16.36765],[-50.4533,-16.36638],[-50.45337,-16.36572],[-50.45491,-16.36589],[-50.4561,-16.36642],[-50.45718,-16.36597],[-50.45841,-16.36678],[-50.45783,-16.36775],[-50.45697,-16.36775],[-50.45674,-16.36865],[-50.4593,-16.36971],[-50.45976,-16.36939],[-50.4588,-16.36825],[-50.46047,-16.36741],[-50.46132,-16.36741],[-50.46208,-16.36858],[-50.46284,-16.37295],[-50.4623,-16.375],[-50.46269,-16.37588],[-50.46416,-16.37629],[-50.46437,-16.37745],[-50.46303,-16.37765],[-50.4623,-16.37813],[-50.46222,-16.37995],[-50.46316,-16.38214],[-50.46633,-16.38261],[-50.46735,-16.38333],[-50.46834,-16.38248],[-50.46893,-16.38396],[-50.46966,-16.38443],[-50.46921,-16.38546],[-50.46709,-16.3856],[-50.46681,-16.38512],[-50.46459,-16.38586],[-50.46404,-16.3868],[-50.46331,-16.39033],[-50.46503,-16.39149],[-50.46551,-16.39229],[-50.46784,-16.39261],[-50.46814,-16.39154],[-50.46903,-16.39039],[-50.46921,-16.38957],[-50.46868,-16.38857],[-50.4697,-16.38784],[-50.47079,-16.38775],[-50.47182,-16.38947],[-50.47295,-16.39079],[-50.4732,-16.39174],[-50.47289,-16.39293],[-50.47306,-16.39398],[-50.47397,-16.39535],[-50.47408,-16.39623],[-50.47363,-16.39733],[-50.47224,-16.39699],[-50.47104,-16.39762],[-50.47087,-16.39836],[-50.47178,-16.39908],[-50.47238,-16.40088],[-50.47281,-16.40101],[-50.47424,-16.40015],[-50.47536,-16.40088],[-50.47593,-16.40222],[-50.47605,-16.40334],[-50.47524,-16.40369],[-50.4744,-16.40485],[-50.4742,-16.40572],[-50.47526,-16.40761],[-50.47631,-16.40803],[-50.47685,-16.40958],[-50.47766,-16.40998],[-50.47728,-16.41197],[-50.47663,-16.41323],[-50.47447,-16.41377],[-50.4736,-16.41317],[-50.47286,-16.41383],[-50.47131,-16.41287],[-50.46914,-16.41184],[-50.4683,-16.41112],[-50.46615,-16.41059],[-50.46532,-16.4107],[-50.4642,-16.41249],[-50.46477,-16.41301],[-50.46443,-16.41414],[-50.46241,-16.41442],[-50.461,-16.4152],[-50.46036,-16.41607],[-50.46024,-16.41793],[-50.46117,-16.41805],[-50.46256,-16.41701],[-50.46315,-16.41916],[-50.46243,-16.42014],[-50.46123,-16.42037],[-50.46157,-16.4211],[-50.46006,-16.42173],[-50.46152,-16.42222],[-50.46252,-16.42386],[-50.46197,-16.42463],[-50.46291,-16.42529],[-50.46195,-16.42584],[-50.46097,-16.42692],[-50.46159,-16.42874],[-50.46233,-16.42918],[-50.46304,-16.42858],[-50.46517,-16.42935],[-50.46636,-16.42901],[-50.46754,-16.42922],[-50.46793,-16.43019],[-50.46908,-16.43091],[-50.4698,-16.43226],[-50.47076,-16.4327],[-50.4734,-16.43305],[-50.47408,-16.43197],[-50.47468,-16.43189],[-50.47539,-16.43298],[-50.4743,-16.43606],[-50.47575,-16.43693],[-50.4752,-16.43786],[-50.47499,-16.43921],[-50.47705,-16.44012],[-50.47811,-16.4403],[-50.47856,-16.44128],[-50.4799,-16.44294],[-50.4787,-16.44306],[-50.4795,-16.44539],[-50.47957,-16.44702],[-50.48108,-16.4467],[-50.48286,-16.44722],[-50.48503,-16.44617],[-50.48633,-16.44729],[-50.48701,-16.44904],[-50.48554,-16.44951],[-50.48487,-16.4501],[-50.48568,-16.45153],[-50.48751,-16.45201],[-50.48868,-16.45326],[-50.48877,-16.45414],[-50.48985,-16.45384],[-50.49046,-16.45441],[-50.49144,-16.45648],[-50.49213,-16.45916],[-50.49104,-16.46031],[-50.49141,-16.46273],[-50.4929,-16.46356],[-50.49285,-16.46491],[-50.49358,-16.46516],[-50.49093,-16.46754],[-50.4913,-16.46842],[-50.49088,-16.47026],[-50.49245,-16.47058],[-50.4936,-16.46989],[-50.49439,-16.47106],[-50.49628,-16.47096],[-50.49738,-16.47157],[-50.4978,-16.47314],[-50.49636,-16.47326],[-50.49478,-16.47395],[-50.49409,-16.47586],[-50.4908,-16.47949],[-50.49144,-16.48062],[-50.49146,-16.48169],[-50.49207,-16.48339],[-50.49402,-16.48341],[-50.49479,-16.48312],[-50.49643,-16.48363],[-50.49932,-16.48279],[-50.50038,-16.48125],[-50.50128,-16.48082],[-50.50351,-16.4839],[-50.50331,-16.48523],[-50.50424,-16.48574],[-50.50383,-16.48647],[-50.50275,-16.48675],[-50.50155,-16.48617],[-50.50088,-16.48649],[-50.4997,-16.48625],[-50.49873,-16.48713],[-50.49893,-16.48796],[-50.49877,-16.49024],[-50.50031,-16.49047],[-50.50008,-16.4919],[-50.50134,-16.49315],[-50.50229,-16.49473],[-50.50192,-16.49582],[-50.50371,-16.49738],[-50.50376,-16.49829],[-50.50489,-16.49917],[-50.50399,-16.50131],[-50.50745,-16.5034],[-50.50775,-16.50479],[-50.50766,-16.50719],[-50.50637,-16.50742],[-50.50612,-16.5087],[-50.50728,-16.50981],[-50.50928,-16.50973],[-50.51111,-16.50908],[-50.51296,-16.50917],[-50.51365,-16.50821],[-50.51345,-16.50658],[-50.51407,-16.50469],[-50.51394,-16.50387],[-50.51826,-16.50282],[-50.51805,-16.50173],[-50.51984,-16.50111],[-50.52066,-16.49978],[-50.51981,-16.499],[-50.52096,-16.4982],[-50.52042,-16.49711],[-50.52247,-16.49669],[-50.52334,-16.49757],[-50.52434,-16.49706],[-50.52479,-16.49786],[-50.52426,-16.49881],[-50.5249,-16.4999],[-50.5255,-16.49949],[-50.52756,-16.4991],[-50.52917,-16.49995],[-50.53009,-16.50008],[-50.53074,-16.49903],[-50.53244,-16.49991],[-50.53405,-16.50039],[-50.5361,-16.49908],[-50.53772,-16.49893],[-50.53812,-16.50149],[-50.53939,-16.50207],[-50.53979,-16.50284],[-50.53941,-16.50426],[-50.53952,-16.50551],[-50.54023,-16.50596],[-50.54021,-16.5071],[-50.53877,-16.50821],[-50.53921,-16.50905],[-50.54072,-16.51002],[-50.54231,-16.50942],[-50.5428,-16.50996],[-50.54303,-16.51268],[-50.54399,-16.51286],[-50.54475,-16.51215],[-50.5453,-16.51286],[-50.54637,-16.51235],[-50.54646,-16.51086],[-50.54812,-16.51089],[-50.54947,-16.50946],[-50.55006,-16.50922],[-50.55199,-16.50999],[-50.55353,-16.51026],[-50.55376,-16.5107],[-50.55305,-16.51373],[-50.55327,-16.51464],[-50.55397,-16.51528],[-50.55675,-16.51699],[-50.55758,-16.51799],[-50.55755,-16.51966],[-50.55804,-16.52094],[-50.56013,-16.52165],[-50.56154,-16.52138],[-50.56158,-16.51988],[-50.56276,-16.51811],[-50.56287,-16.52084],[-50.5608,-16.52299],[-50.55874,-16.52305],[-50.5585,-16.52368],[-50.55856,-16.52592],[-50.55821,-16.52702],[-50.55838,-16.53056],[-50.55938,-16.53247],[-50.55934,-16.53578],[-50.55972,-16.53749]]]},"properties":{"codigo":"522010810","name":"Rosalândia","population":1202,"households":906,"areaKm2":306.5718,"density":3.9}}]}